{
"type": "FeatureCollection",
"name": "La_Banque_Postale",
"crs": { "type": "name", "properties": { "name": "urn:ogc:def:crs:OGC:1.3:CRS84" } },
"features": [
{ "type": "Feature", "properties": { "codgeo": "11361", "value": 60, "isochrone_group": 1.0, "nb_agences": 1 }, "geometry": { "type": "Polygon", "coordinates": [ [ [ 2.034043, 43.330841 ], [ 2.034498, 43.330108 ], [ 2.034837, 43.329988 ], [ 2.04057, 43.329565 ], [ 2.045987, 43.328011 ], [ 2.046165, 43.328324 ], [ 2.042888, 43.333199 ], [ 2.039902, 43.333216 ], [ 2.034222, 43.334277 ], [ 2.033922, 43.334077 ], [ 2.034043, 43.330841 ] ] ] } },
{ "type": "Feature", "properties": { "codgeo": "11361", "value": 120, "isochrone_group": 2.0, "nb_agences": 1 }, "geometry": { "type": "Polygon", "coordinates": [ [ [ 2.028795, 43.339127 ], [ 2.028931, 43.339461 ], [ 2.030467, 43.339791 ], [ 2.033271, 43.340437 ], [ 2.033628, 43.340393 ], [ 2.035994, 43.336712 ], [ 2.038918, 43.335169 ], [ 2.042826, 43.33494 ], [ 2.045559, 43.336523 ], [ 2.050598, 43.336802 ], [ 2.05184, 43.337783 ], [ 2.052112, 43.337548 ], [ 2.051927, 43.337333 ], [ 2.051742, 43.337118 ], [ 2.051619, 43.337004 ], [ 2.05137, 43.336821 ], [ 2.050773, 43.336487 ], [ 2.050195, 43.336165 ], [ 2.049903, 43.336031 ], [ 2.04773, 43.333188 ], [ 2.051006, 43.329776 ], [ 2.051321, 43.329602 ], [ 2.056029, 43.327953 ], [ 2.056272, 43.327963 ], [ 2.056597, 43.327934 ], [ 2.056936, 43.327819 ], [ 2.05736, 43.327685 ], [ 2.057369, 43.327437 ], [ 2.057302, 43.327333 ], [ 2.054431, 43.326102 ], [ 2.051127, 43.325488 ], [ 2.047467, 43.327257 ], [ 2.046868, 43.327551 ], [ 2.046303, 43.327831 ], [ 2.040618, 43.327237 ], [ 2.038549, 43.324199 ], [ 2.038385, 43.323879 ], [ 2.0376, 43.324116 ], [ 2.032967, 43.325713 ], [ 2.030494, 43.326917 ], [ 2.028801, 43.328248 ], [ 2.028704, 43.328595 ], [ 2.030865, 43.330707 ], [ 2.033864, 43.334267 ], [ 2.031285, 43.337717 ], [ 2.031022, 43.337888 ], [ 2.029369, 43.338892 ], [ 2.028795, 43.339127 ] ], [ [ 2.034498, 43.330108 ], [ 2.034837, 43.329988 ], [ 2.04057, 43.329565 ], [ 2.045987, 43.328011 ], [ 2.046165, 43.328324 ], [ 2.042888, 43.333199 ], [ 2.039902, 43.333216 ], [ 2.034222, 43.334277 ], [ 2.033922, 43.334077 ], [ 2.034043, 43.330841 ], [ 2.034498, 43.330108 ] ] ] } },
{ "type": "Feature", "properties": { "codgeo": "11361", "value": 180, "isochrone_group": 3.0, "nb_agences": 1 }, "geometry": { "type": "Polygon", "coordinates": [ [ [ 2.017516, 43.344954 ], [ 2.018126, 43.344785 ], [ 2.018737, 43.344617 ], [ 2.026704, 43.343411 ], [ 2.032565, 43.34524 ], [ 2.032905, 43.344827 ], [ 2.033244, 43.344414 ], [ 2.033386, 43.344198 ], [ 2.033516, 43.343998 ], [ 2.033612, 43.343808 ], [ 2.033698, 43.343635 ], [ 2.037563, 43.339223 ], [ 2.0413, 43.336837 ], [ 2.049482, 43.33921 ], [ 2.049769, 43.339427 ], [ 2.057604, 43.34215 ], [ 2.061936, 43.342574 ], [ 2.062053, 43.342234 ], [ 2.060194, 43.341599 ], [ 2.058336, 43.340964 ], [ 2.054075, 43.336955 ], [ 2.052543, 43.329857 ], [ 2.058837, 43.329036 ], [ 2.064313, 43.327469 ], [ 2.068176, 43.328943 ], [ 2.070184, 43.327711 ], [ 2.070195, 43.327351 ], [ 2.06317, 43.325546 ], [ 2.056654, 43.325132 ], [ 2.051326, 43.322202 ], [ 2.0448, 43.319185 ], [ 2.04445, 43.319101 ], [ 2.037753, 43.322928 ], [ 2.030476, 43.322078 ], [ 2.029922, 43.322543 ], [ 2.029777, 43.322873 ], [ 2.021822, 43.326614 ], [ 2.021255, 43.326284 ], [ 2.020174, 43.325387 ], [ 2.01889, 43.323968 ], [ 2.018723, 43.323717 ], [ 2.017797, 43.323194 ], [ 2.017551, 43.323457 ], [ 2.01765, 43.324889 ], [ 2.017719, 43.325242 ], [ 2.019897, 43.327498 ], [ 2.020509, 43.327835 ], [ 2.025654, 43.330911 ], [ 2.025779, 43.339422 ], [ 2.022104, 43.341866 ], [ 2.021815, 43.341997 ], [ 2.021513, 43.342135 ], [ 2.021233, 43.342289 ], [ 2.020947, 43.342472 ], [ 2.02064, 43.342671 ], [ 2.01742, 43.344607 ], [ 2.017516, 43.344954 ] ], [ [ 2.031022, 43.337888 ], [ 2.031285, 43.337717 ], [ 2.033864, 43.334267 ], [ 2.030865, 43.330707 ], [ 2.028704, 43.328595 ], [ 2.028801, 43.328248 ], [ 2.030494, 43.326917 ], [ 2.032967, 43.325713 ], [ 2.0376, 43.324116 ], [ 2.038385, 43.323879 ], [ 2.038549, 43.324199 ], [ 2.040618, 43.327237 ], [ 2.046303, 43.327831 ], [ 2.046868, 43.327551 ], [ 2.047467, 43.327257 ], [ 2.051127, 43.325488 ], [ 2.054431, 43.326102 ], [ 2.057302, 43.327333 ], [ 2.057369, 43.327437 ], [ 2.05736, 43.327685 ], [ 2.056936, 43.327819 ], [ 2.056597, 43.327934 ], [ 2.056272, 43.327963 ], [ 2.056029, 43.327953 ], [ 2.051321, 43.329602 ], [ 2.051006, 43.329776 ], [ 2.04773, 43.333188 ], [ 2.049903, 43.336031 ], [ 2.050195, 43.336165 ], [ 2.050773, 43.336487 ], [ 2.05137, 43.336821 ], [ 2.051619, 43.337004 ], [ 2.051742, 43.337118 ], [ 2.051927, 43.337333 ], [ 2.052112, 43.337548 ], [ 2.05184, 43.337783 ], [ 2.050598, 43.336802 ], [ 2.045559, 43.336523 ], [ 2.042826, 43.33494 ], [ 2.038918, 43.335169 ], [ 2.035994, 43.336712 ], [ 2.033628, 43.340393 ], [ 2.033271, 43.340437 ], [ 2.030467, 43.339791 ], [ 2.028931, 43.339461 ], [ 2.028795, 43.339127 ], [ 2.029369, 43.338892 ], [ 2.031022, 43.337888 ] ] ] } },
{ "type": "Feature", "properties": { "codgeo": "11361", "value": 240, "isochrone_group": 4.0, "nb_agences": 1 }, "geometry": { "type": "MultiPolygon", "coordinates": [ [ [ [ 2.02932, 43.322217 ], [ 2.028651, 43.321382 ], [ 2.028431, 43.321156 ], [ 2.02684, 43.318997 ], [ 2.026498, 43.319109 ], [ 2.019258, 43.319091 ], [ 2.015988, 43.316866 ], [ 2.01578, 43.316664 ], [ 2.01125, 43.316671 ], [ 2.00762, 43.317083 ], [ 2.00747, 43.31741 ], [ 2.007757, 43.317543 ], [ 2.008104, 43.317658 ], [ 2.008456, 43.317721 ], [ 2.009877, 43.317882 ], [ 2.01297, 43.319499 ], [ 2.014175, 43.325958 ], [ 2.014275, 43.326304 ], [ 2.015187, 43.326719 ], [ 2.015403, 43.326804 ], [ 2.015587, 43.326872 ], [ 2.020827, 43.33075 ], [ 2.021791, 43.332108 ], [ 2.024216, 43.337752 ], [ 2.020221, 43.341221 ], [ 2.013802, 43.342954 ], [ 2.01283, 43.343241 ], [ 2.012625, 43.343538 ], [ 2.008139, 43.348958 ], [ 2.007942, 43.349172 ], [ 2.007753, 43.349455 ], [ 2.008052, 43.349655 ], [ 2.015926, 43.348051 ], [ 2.01714, 43.347886 ], [ 2.024862, 43.346143 ], [ 2.0303, 43.347674 ], [ 2.032822, 43.348408 ], [ 2.033139, 43.348236 ], [ 2.033642, 43.347683 ], [ 2.0391, 43.342194 ], [ 2.039743, 43.341655 ], [ 2.03996, 43.341368 ], [ 2.04324, 43.337636 ], [ 2.049482, 43.33921 ], [ 2.0413, 43.336837 ], [ 2.037563, 43.339223 ], [ 2.033698, 43.343635 ], [ 2.033612, 43.343808 ], [ 2.033516, 43.343998 ], [ 2.033386, 43.344198 ], [ 2.033244, 43.344414 ], [ 2.032905, 43.344827 ], [ 2.032565, 43.34524 ], [ 2.026704, 43.343411 ], [ 2.018737, 43.344617 ], [ 2.018126, 43.344785 ], [ 2.017516, 43.344954 ], [ 2.01742, 43.344607 ], [ 2.02064, 43.342671 ], [ 2.020947, 43.342472 ], [ 2.021233, 43.342289 ], [ 2.021513, 43.342135 ], [ 2.021815, 43.341997 ], [ 2.022104, 43.341866 ], [ 2.025779, 43.339422 ], [ 2.025654, 43.330911 ], [ 2.020509, 43.327835 ], [ 2.019897, 43.327498 ], [ 2.017719, 43.325242 ], [ 2.01765, 43.324889 ], [ 2.017551, 43.323457 ], [ 2.017797, 43.323194 ], [ 2.018723, 43.323717 ], [ 2.01889, 43.323968 ], [ 2.020174, 43.325387 ], [ 2.021255, 43.326284 ], [ 2.021822, 43.326614 ], [ 2.029777, 43.322873 ], [ 2.029922, 43.322543 ], [ 2.030219992612691, 43.322292879846756 ], [ 2.02932, 43.322217 ] ] ], [ [ [ 2.054213, 43.319031 ], [ 2.054034, 43.318719 ], [ 2.048839, 43.316126 ], [ 2.04638, 43.311855 ], [ 2.046061, 43.311689 ], [ 2.041103, 43.315436 ], [ 2.040994, 43.31578 ], [ 2.037753, 43.322928 ], [ 2.04445, 43.319101 ], [ 2.0448, 43.319185 ], [ 2.051326, 43.322202 ], [ 2.056654, 43.325132 ], [ 2.057248106211678, 43.325169747079741 ], [ 2.054213, 43.319031 ] ] ], [ [ [ 2.055374, 43.343542 ], [ 2.059744, 43.348841 ], [ 2.060036, 43.349051 ], [ 2.067589, 43.34689 ], [ 2.070073, 43.346139 ], [ 2.070114, 43.345782 ], [ 2.066488, 43.339215 ], [ 2.068909, 43.332752 ], [ 2.074269, 43.33109 ], [ 2.076602, 43.330943 ], [ 2.08059, 43.326704 ], [ 2.08068, 43.326593 ], [ 2.080605, 43.326241 ], [ 2.07421, 43.324753 ], [ 2.065884, 43.322985 ], [ 2.065517, 43.322306 ], [ 2.065351, 43.321933 ], [ 2.065022, 43.322079 ], [ 2.057577034789021, 43.325190645856765 ], [ 2.06317, 43.325546 ], [ 2.070195, 43.327351 ], [ 2.070184, 43.327711 ], [ 2.068176, 43.328943 ], [ 2.064313, 43.327469 ], [ 2.058837, 43.329036 ], [ 2.052543, 43.329857 ], [ 2.054075, 43.336955 ], [ 2.058336, 43.340964 ], [ 2.060194, 43.341599 ], [ 2.062053, 43.342234 ], [ 2.061936, 43.342574 ], [ 2.057604, 43.34215 ], [ 2.049769, 43.339427 ], [ 2.055374, 43.343542 ] ] ] ] } },
{ "type": "Feature", "properties": { "codgeo": "11361", "value": 300, "isochrone_group": 5.0, "nb_agences": 1 }, "geometry": { "type": "MultiPolygon", "coordinates": [ [ [ [ 2.065274, 43.321764 ], [ 2.064957, 43.321256 ], [ 2.064602, 43.320704 ], [ 2.064412, 43.320566 ], [ 2.05795, 43.316833 ], [ 2.056971, 43.316729 ], [ 2.051944, 43.31488 ], [ 2.050793, 43.306617 ], [ 2.050948, 43.306293 ], [ 2.051017, 43.305217 ], [ 2.050665, 43.305144 ], [ 2.048844, 43.308545 ], [ 2.047269, 43.310365 ], [ 2.040675, 43.313575 ], [ 2.037407, 43.314082 ], [ 2.037066, 43.314198 ], [ 2.028262, 43.315021 ], [ 2.02532, 43.317131 ], [ 2.017649, 43.31632 ], [ 2.013704, 43.311409 ], [ 2.013458, 43.310795 ], [ 2.013187, 43.310559 ], [ 2.011894, 43.311039 ], [ 2.011614, 43.311266 ], [ 2.00374, 43.315295 ], [ 2.003443, 43.315237 ], [ 2.001421, 43.314841 ], [ 1.999002, 43.314784 ], [ 1.998948, 43.31514 ], [ 2.002221, 43.321005 ], [ 2.002472, 43.321264 ], [ 2.009496, 43.32581 ], [ 2.010557, 43.328284 ], [ 2.010854, 43.329117 ], [ 2.01113, 43.329372 ], [ 2.011473, 43.329483 ], [ 2.019339, 43.332653 ], [ 2.020164, 43.338288 ], [ 2.014938, 43.341519 ], [ 2.009524, 43.341287 ], [ 2.009294, 43.34119 ], [ 2.009048, 43.341088 ], [ 2.008553, 43.340931 ], [ 2.008043, 43.34077 ], [ 2.007797, 43.340715 ], [ 2.007718, 43.341066 ], [ 2.005449, 43.347408 ], [ 2.003181, 43.351373 ], [ 2.00122, 43.357142 ], [ 2.001537, 43.357313 ], [ 2.004922, 43.353981 ], [ 2.009488, 43.352024 ], [ 2.009726, 43.351754 ], [ 2.018418, 43.349897 ], [ 2.018769, 43.349819 ], [ 2.027149, 43.348952 ], [ 2.032688, 43.352833 ], [ 2.033038, 43.352748 ], [ 2.035821, 43.346888 ], [ 2.040606, 43.344561 ], [ 2.040938, 43.34442 ], [ 2.044202, 43.338853 ], [ 2.049769, 43.339427 ], [ 2.049482, 43.33921 ], [ 2.04324, 43.337636 ], [ 2.03996, 43.341368 ], [ 2.039743, 43.341655 ], [ 2.0391, 43.342194 ], [ 2.033642, 43.347683 ], [ 2.033139, 43.348236 ], [ 2.032822, 43.348408 ], [ 2.0303, 43.347674 ], [ 2.024862, 43.346143 ], [ 2.01714, 43.347886 ], [ 2.015926, 43.348051 ], [ 2.008052, 43.349655 ], [ 2.007753, 43.349455 ], [ 2.007942, 43.349172 ], [ 2.008139, 43.348958 ], [ 2.012625, 43.343538 ], [ 2.01283, 43.343241 ], [ 2.013802, 43.342954 ], [ 2.020221, 43.341221 ], [ 2.024216, 43.337752 ], [ 2.021791, 43.332108 ], [ 2.020827, 43.33075 ], [ 2.015587, 43.326872 ], [ 2.015403, 43.326804 ], [ 2.015187, 43.326719 ], [ 2.014275, 43.326304 ], [ 2.014175, 43.325958 ], [ 2.01297, 43.319499 ], [ 2.009877, 43.317882 ], [ 2.008456, 43.317721 ], [ 2.008104, 43.317658 ], [ 2.007757, 43.317543 ], [ 2.00747, 43.31741 ], [ 2.00762, 43.317083 ], [ 2.01125, 43.316671 ], [ 2.01578, 43.316664 ], [ 2.015988, 43.316866 ], [ 2.019258, 43.319091 ], [ 2.026498, 43.319109 ], [ 2.02684, 43.318997 ], [ 2.028431, 43.321156 ], [ 2.028651, 43.321382 ], [ 2.02932, 43.322217 ], [ 2.037753, 43.322928 ], [ 2.040994, 43.31578 ], [ 2.041103, 43.315436 ], [ 2.046061, 43.311689 ], [ 2.04638, 43.311855 ], [ 2.048839, 43.316126 ], [ 2.054034, 43.318719 ], [ 2.054213, 43.319031 ], [ 2.057313, 43.325301 ], [ 2.065022, 43.322079 ], [ 2.065350027070064, 43.321933431756143 ], [ 2.065274, 43.321764 ] ] ], [ [ [ 2.065484413188995, 43.32223277782829 ], [ 2.065517, 43.322306 ], [ 2.065884, 43.322985 ], [ 2.065484413188995, 43.32223277782829 ] ] ], [ [ [ 2.074216, 43.331352 ], [ 2.078887, 43.334173 ], [ 2.079203, 43.334 ], [ 2.083787, 43.327788 ], [ 2.08849, 43.325416 ], [ 2.093606, 43.322627 ], [ 2.093496, 43.322284 ], [ 2.09299, 43.322446 ], [ 2.092483, 43.322609 ], [ 2.083585, 43.322602 ], [ 2.076742, 43.320875 ], [ 2.075661, 43.32209 ], [ 2.075422, 43.322301 ], [ 2.075204, 43.322496 ], [ 2.075062, 43.322635 ], [ 2.074615, 43.323208 ], [ 2.065884, 43.322985 ], [ 2.07421, 43.324753 ], [ 2.080605, 43.326241 ], [ 2.08068, 43.326593 ], [ 2.08059, 43.326704 ], [ 2.076602, 43.330943 ], [ 2.074269, 43.33109 ], [ 2.073082199867078, 43.331457996608385 ], [ 2.074216, 43.331352 ] ] ], [ [ [ 2.053651, 43.345042 ], [ 2.053835, 43.345352 ], [ 2.055656, 43.352714 ], [ 2.055992, 43.354582 ], [ 2.056316, 43.354738 ], [ 2.056829, 43.354697 ], [ 2.057098, 43.354458 ], [ 2.062772, 43.349568 ], [ 2.065832, 43.349438 ], [ 2.070374, 43.348637 ], [ 2.071072, 43.348537 ], [ 2.079347, 43.345911 ], [ 2.079629, 43.345687 ], [ 2.079347, 43.345333 ], [ 2.079064, 43.344978 ], [ 2.078969, 43.344893 ], [ 2.078833, 43.344797 ], [ 2.078516, 43.344702 ], [ 2.0783, 43.344681 ], [ 2.077893, 43.3447 ], [ 2.077511, 43.344719 ], [ 2.076208, 43.344759 ], [ 2.0753, 43.344632 ], [ 2.074762, 43.34452 ], [ 2.074488, 43.344478 ], [ 2.068627, 43.339611 ], [ 2.070030875368993, 43.332404134913538 ], [ 2.068909, 43.332752 ], [ 2.066488, 43.339215 ], [ 2.070114, 43.345782 ], [ 2.070073, 43.346139 ], [ 2.067589, 43.34689 ], [ 2.060036, 43.349051 ], [ 2.059744, 43.348841 ], [ 2.055374, 43.343542 ], [ 2.049769, 43.339427 ], [ 2.053651, 43.345042 ] ] ] ] } },
{ "type": "Feature", "properties": { "codgeo": "11361", "value": 360, "isochrone_group": 6.0, "nb_agences": 1 }, "geometry": { "type": "MultiPolygon", "coordinates": [ [ [ [ 1.993663, 43.314689 ], [ 1.999859, 43.320326 ], [ 1.998069, 43.326962 ], [ 1.998299, 43.327239 ], [ 1.998672, 43.32693 ], [ 1.999363, 43.326405 ], [ 1.999693, 43.326179 ], [ 1.999851, 43.326046 ], [ 1.999972, 43.325878 ], [ 2.008777260335297, 43.32534482481266 ], [ 2.002472, 43.321264 ], [ 2.002221, 43.321005 ], [ 1.998948, 43.31514 ], [ 1.999002, 43.314784 ], [ 2.001421, 43.314841 ], [ 2.003443, 43.315237 ], [ 2.001281, 43.314774 ], [ 1.998036, 43.314637 ], [ 1.993587, 43.313365 ], [ 1.990275, 43.311386 ], [ 1.988299814388904, 43.312868485426371 ], [ 1.988791, 43.312873 ], [ 1.989669, 43.312923 ], [ 1.989528978872223, 43.315377809430387 ], [ 1.992689, 43.314655 ], [ 1.993663, 43.314689 ] ] ], [ [ [ 2.009535, 43.329379 ], [ 2.008689, 43.333591 ], [ 2.002282, 43.339186 ], [ 2.002239, 43.339543 ], [ 2.004105, 43.342755 ], [ 2.00258, 43.35155 ], [ 2.000661, 43.352462 ], [ 2.000262, 43.352574 ], [ 1.999959, 43.352683 ], [ 1.999657, 43.352792 ], [ 1.997469, 43.357944 ], [ 1.993867, 43.363808 ], [ 1.993439, 43.364698 ], [ 1.993658, 43.364984 ], [ 1.994019, 43.365256 ], [ 1.999208, 43.363367 ], [ 2.00371, 43.359681 ], [ 2.010295, 43.353713 ], [ 2.010492, 43.353412 ], [ 2.018883, 43.350483 ], [ 2.019172, 43.350549 ], [ 2.019438, 43.350561 ], [ 2.020248, 43.350618 ], [ 2.025404, 43.350418 ], [ 2.02906, 43.35379 ], [ 2.032991, 43.357249 ], [ 2.033351, 43.357245 ], [ 2.036706, 43.354433 ], [ 2.03669, 43.354074 ], [ 2.041067, 43.347118 ], [ 2.043889, 43.344775 ], [ 2.052137, 43.345752 ], [ 2.051203, 43.354131 ], [ 2.049782, 43.354905 ], [ 2.049814, 43.355264 ], [ 2.053621, 43.36119 ], [ 2.053811, 43.361496 ], [ 2.054937, 43.362187 ], [ 2.05529, 43.362261 ], [ 2.059143, 43.356535 ], [ 2.063779, 43.350773 ], [ 2.071896, 43.350612 ], [ 2.077366, 43.350893 ], [ 2.077642, 43.350921 ], [ 2.077992, 43.350891 ], [ 2.078321, 43.350825 ], [ 2.078676, 43.350752 ], [ 2.080103, 43.350273 ], [ 2.080382, 43.350045 ], [ 2.081185, 43.347131 ], [ 2.081063, 43.346793 ], [ 2.079135686544794, 43.345067924817663 ], [ 2.079347, 43.345333 ], [ 2.079629, 43.345687 ], [ 2.079347, 43.345911 ], [ 2.071072, 43.348537 ], [ 2.070374, 43.348637 ], [ 2.065832, 43.349438 ], [ 2.062772, 43.349568 ], [ 2.057098, 43.354458 ], [ 2.056829, 43.354697 ], [ 2.056316, 43.354738 ], [ 2.055992, 43.354582 ], [ 2.055656, 43.352714 ], [ 2.053835, 43.345352 ], [ 2.053651, 43.345042 ], [ 2.049769, 43.339427 ], [ 2.044202, 43.338853 ], [ 2.040938, 43.34442 ], [ 2.040606, 43.344561 ], [ 2.035821, 43.346888 ], [ 2.033038, 43.352748 ], [ 2.032688, 43.352833 ], [ 2.027149, 43.348952 ], [ 2.018769, 43.349819 ], [ 2.018418, 43.349897 ], [ 2.009726, 43.351754 ], [ 2.009488, 43.352024 ], [ 2.004922, 43.353981 ], [ 2.001537, 43.357313 ], [ 2.00122, 43.357142 ], [ 2.003181, 43.351373 ], [ 2.005449, 43.347408 ], [ 2.007718, 43.341066 ], [ 2.007797, 43.340715 ], [ 2.008043, 43.34077 ], [ 2.008553, 43.340931 ], [ 2.009048, 43.341088 ], [ 2.009294, 43.34119 ], [ 2.009524, 43.341287 ], [ 2.014938, 43.341519 ], [ 2.020164, 43.338288 ], [ 2.019339, 43.332653 ], [ 2.011473, 43.329483 ], [ 2.01113, 43.329372 ], [ 2.010854, 43.329117 ], [ 2.010557, 43.328284 ], [ 2.009496, 43.32581 ], [ 2.008940309770969, 43.325450351967355 ], [ 2.009535, 43.329379 ] ] ], [ [ [ 2.080533, 43.336801 ], [ 2.080782, 43.33654 ], [ 2.085394, 43.329713 ], [ 2.089565771652822, 43.324829540433974 ], [ 2.08849, 43.325416 ], [ 2.083787, 43.327788 ], [ 2.079203, 43.334 ], [ 2.078887, 43.334173 ], [ 2.074216, 43.331352 ], [ 2.070162, 43.331731 ], [ 2.068627, 43.339611 ], [ 2.074488, 43.344478 ], [ 2.074762, 43.34452 ], [ 2.0753, 43.344632 ], [ 2.076208, 43.344759 ], [ 2.077511, 43.344719 ], [ 2.077893, 43.3447 ], [ 2.0783, 43.344681 ], [ 2.078516, 43.344702 ], [ 2.078833, 43.344797 ], [ 2.080533, 43.336801 ] ] ], [ [ [ 2.095195, 43.323249 ], [ 2.095345, 43.323112 ], [ 2.095496, 43.322976 ], [ 2.09901, 43.319511 ], [ 2.10126, 43.317162 ], [ 2.101247, 43.316802 ], [ 2.100842, 43.316817 ], [ 2.100438, 43.316832 ], [ 2.100151, 43.31685 ], [ 2.099869, 43.316868 ], [ 2.097262, 43.31713 ], [ 2.088618, 43.319484 ], [ 2.087798, 43.319891 ], [ 2.079473, 43.316786 ], [ 2.079136, 43.316659 ], [ 2.07505, 43.319115 ], [ 2.074858, 43.31942 ], [ 2.074615, 43.323208 ], [ 2.075062, 43.322635 ], [ 2.075204, 43.322496 ], [ 2.075422, 43.322301 ], [ 2.075661, 43.32209 ], [ 2.076742, 43.320875 ], [ 2.083585, 43.322602 ], [ 2.092483, 43.322609 ], [ 2.09299, 43.322446 ], [ 2.093496, 43.322284 ], [ 2.093606, 43.322627 ], [ 2.090526168625649, 43.324305977658931 ], [ 2.095195, 43.323249 ] ] ], [ [ [ 2.058521, 43.316993 ], [ 2.058367, 43.316868 ], [ 2.058153, 43.316804 ], [ 2.056971, 43.316729 ], [ 2.05795, 43.316833 ], [ 2.064412, 43.320566 ], [ 2.058521, 43.316993 ] ] ], [ [ [ 2.051569, 43.308856 ], [ 2.051606, 43.30837 ], [ 2.052785, 43.304622 ], [ 2.049706, 43.299238 ], [ 2.048736, 43.299335 ], [ 2.048386, 43.299418 ], [ 2.048439, 43.299646 ], [ 2.048494, 43.29989 ], [ 2.048549, 43.300136 ], [ 2.048692, 43.300485 ], [ 2.048808, 43.300668 ], [ 2.048408319915255, 43.309048452542363 ], [ 2.048844, 43.308545 ], [ 2.050665, 43.305144 ], [ 2.051017, 43.305217 ], [ 2.050948, 43.306293 ], [ 2.050793, 43.306617 ], [ 2.051944, 43.31488 ], [ 2.051569, 43.308856 ] ] ], [ [ [ 2.041477, 43.312923 ], [ 2.036004, 43.310469 ], [ 2.034909, 43.309912 ], [ 2.029279, 43.311249 ], [ 2.028922, 43.311292 ], [ 2.028331, 43.314043 ], [ 2.02532, 43.317131 ], [ 2.028262, 43.315021 ], [ 2.037066, 43.314198 ], [ 2.037407, 43.314082 ], [ 2.040675, 43.313575 ], [ 2.047269, 43.310365 ], [ 2.041477, 43.312923 ] ] ], [ [ [ 2.018778, 43.314967 ], [ 2.01902, 43.308253 ], [ 2.019251, 43.307978 ], [ 2.021015, 43.306039 ], [ 2.020872, 43.305709 ], [ 2.016703, 43.304965 ], [ 2.016404, 43.305165 ], [ 2.009585, 43.309763 ], [ 2.009367, 43.309924 ], [ 2.003443, 43.315237 ], [ 2.00374, 43.315295 ], [ 2.011614, 43.311266 ], [ 2.011894, 43.311039 ], [ 2.013187, 43.310559 ], [ 2.013458, 43.310795 ], [ 2.013704, 43.311409 ], [ 2.017649, 43.31632 ], [ 2.02532, 43.317131 ], [ 2.018778, 43.314967 ] ] ] ] } },
{ "type": "Feature", "properties": { "codgeo": "11361", "value": 420, "isochrone_group": 7.0, "nb_agences": 1 }, "geometry": { "type": "MultiPolygon", "coordinates": [ [ [ [ 1.991631, 43.329678 ], [ 1.990692, 43.330047 ], [ 1.989752, 43.330415 ], [ 1.989883, 43.330751 ], [ 1.990823, 43.330382 ], [ 1.996279, 43.337229 ], [ 1.997295, 43.339245 ], [ 1.997486, 43.33955 ], [ 2.000744, 43.346619 ], [ 1.998777, 43.3498 ], [ 1.99846, 43.350206 ], [ 1.998143, 43.350612 ], [ 1.997625, 43.351509 ], [ 1.997122, 43.352386 ], [ 1.991626, 43.357937 ], [ 1.990355, 43.360187 ], [ 1.990267, 43.360536 ], [ 1.987997, 43.367768 ], [ 1.988303, 43.367958 ], [ 1.993452, 43.369132 ], [ 1.999796, 43.369547 ], [ 2.002655, 43.364717 ], [ 2.002865, 43.364425 ], [ 2.004168, 43.360373 ], [ 2.004224, 43.360177 ], [ 2.00428, 43.35998 ], [ 2.011873, 43.355151 ], [ 2.012229, 43.355203 ], [ 2.019172, 43.350549 ], [ 2.018883, 43.350483 ], [ 2.010492, 43.353412 ], [ 2.010295, 43.353713 ], [ 2.00371, 43.359681 ], [ 1.999208, 43.363367 ], [ 1.994019, 43.365256 ], [ 1.993658, 43.364984 ], [ 1.993439, 43.364698 ], [ 1.993867, 43.363808 ], [ 1.997469, 43.357944 ], [ 1.999657, 43.352792 ], [ 1.999959, 43.352683 ], [ 2.000262, 43.352574 ], [ 2.000661, 43.352462 ], [ 2.00258, 43.35155 ], [ 2.004105, 43.342755 ], [ 2.002239, 43.339543 ], [ 2.002282, 43.339186 ], [ 2.008689, 43.333591 ], [ 2.009535, 43.329379 ], [ 2.008923, 43.325336 ], [ 1.999972, 43.325878 ], [ 1.999851, 43.326046 ], [ 1.999693, 43.326179 ], [ 1.999363, 43.326405 ], [ 1.998672, 43.32693 ], [ 1.998299, 43.327239 ], [ 1.998069, 43.326962 ], [ 1.999859, 43.320326 ], [ 1.996338598958024, 43.317123207767331 ], [ 1.99602, 43.317122 ], [ 1.992644, 43.316275 ], [ 1.990407904988912, 43.319332647238319 ], [ 1.995934, 43.321954 ], [ 1.991631, 43.329678 ] ] ], [ [ [ 2.020985, 43.350865 ], [ 2.025529, 43.354295 ], [ 2.029147, 43.358949 ], [ 2.029297, 43.359276 ], [ 2.031438, 43.36084 ], [ 2.031768, 43.360984 ], [ 2.033254, 43.361283 ], [ 2.033541, 43.361065 ], [ 2.038624, 43.354091 ], [ 2.039157, 43.353928 ], [ 2.046325, 43.354822 ], [ 2.046478, 43.354855 ], [ 2.050854, 43.362572 ], [ 2.050698, 43.362896 ], [ 2.050385, 43.364664 ], [ 2.050655, 43.364902 ], [ 2.054468, 43.366515 ], [ 2.054562, 43.366533 ], [ 2.057335, 43.366461 ], [ 2.057635, 43.36642 ], [ 2.057817, 43.366352 ], [ 2.057999, 43.366285 ], [ 2.058325, 43.363542 ], [ 2.059143, 43.356535 ], [ 2.05529, 43.362261 ], [ 2.054937, 43.362187 ], [ 2.053811, 43.361496 ], [ 2.053621, 43.36119 ], [ 2.049814, 43.355264 ], [ 2.049782, 43.354905 ], [ 2.051203, 43.354131 ], [ 2.052137, 43.345752 ], [ 2.043889, 43.344775 ], [ 2.041067, 43.347118 ], [ 2.03669, 43.354074 ], [ 2.036706, 43.354433 ], [ 2.033351, 43.357245 ], [ 2.032991, 43.357249 ], [ 2.02906, 43.35379 ], [ 2.025404, 43.350418 ], [ 2.020248, 43.350618 ], [ 2.019438, 43.350561 ], [ 2.019172, 43.350549 ], [ 2.020985, 43.350865 ] ] ], [ [ [ 2.070562, 43.352558 ], [ 2.07099, 43.352587 ], [ 2.071149, 43.352569 ], [ 2.077642, 43.350921 ], [ 2.077366, 43.350893 ], [ 2.071896, 43.350612 ], [ 2.063779, 43.350773 ], [ 2.063188665271994, 43.351506716286195 ], [ 2.070562, 43.352558 ] ] ], [ [ [ 2.086573, 43.352672 ], [ 2.086909, 43.352801 ], [ 2.088789, 43.350772 ], [ 2.08876, 43.350414 ], [ 2.085479, 43.346077 ], [ 2.082926, 43.33856 ], [ 2.083551, 43.335985 ], [ 2.085884, 43.331639 ], [ 2.08633, 43.331137 ], [ 2.086567, 43.330887 ], [ 2.08924, 43.326455 ], [ 2.093628, 43.324872 ], [ 2.093745, 43.324727 ], [ 2.094348, 43.324063 ], [ 2.095127, 43.32331 ], [ 2.103524, 43.322664 ], [ 2.10387, 43.322565 ], [ 2.108619, 43.316444 ], [ 2.112555, 43.314256 ], [ 2.11286, 43.314067 ], [ 2.113166, 43.313878 ], [ 2.112977, 43.313572 ], [ 2.104286, 43.312963 ], [ 2.099242, 43.31033 ], [ 2.098884, 43.310364 ], [ 2.095405, 43.312378 ], [ 2.088962, 43.310349 ], [ 2.080189, 43.311786 ], [ 2.078444, 43.313732 ], [ 2.072396, 43.317739 ], [ 2.064135549504095, 43.320398327682589 ], [ 2.064412, 43.320566 ], [ 2.064602, 43.320704 ], [ 2.064957, 43.321256 ], [ 2.065274, 43.321764 ], [ 2.065484, 43.322232 ], [ 2.065884, 43.322985 ], [ 2.066099, 43.323316 ], [ 2.074615, 43.323208 ], [ 2.074858, 43.31942 ], [ 2.07505, 43.319115 ], [ 2.079136, 43.316659 ], [ 2.079473, 43.316786 ], [ 2.087798, 43.319891 ], [ 2.088618, 43.319484 ], [ 2.097262, 43.31713 ], [ 2.099869, 43.316868 ], [ 2.100151, 43.31685 ], [ 2.100438, 43.316832 ], [ 2.100842, 43.316817 ], [ 2.101247, 43.316802 ], [ 2.10126, 43.317162 ], [ 2.09901, 43.319511 ], [ 2.095496, 43.322976 ], [ 2.095345, 43.323112 ], [ 2.095195, 43.323249 ], [ 2.08989, 43.32445 ], [ 2.085394, 43.329713 ], [ 2.080782, 43.33654 ], [ 2.080533, 43.336801 ], [ 2.078833, 43.344797 ], [ 2.081063, 43.346793 ], [ 2.081185, 43.347131 ], [ 2.080382, 43.350045 ], [ 2.080103, 43.350273 ], [ 2.078676, 43.350752 ], [ 2.078321, 43.350825 ], [ 2.077992, 43.350891 ], [ 2.086573, 43.352672 ] ] ], [ [ [ 2.051669814118178, 43.310475477994395 ], [ 2.051944, 43.31488 ], [ 2.056715, 43.316739 ], [ 2.051669814118178, 43.310475477994395 ] ] ], [ [ [ 2.054679, 43.307267 ], [ 2.054415, 43.306028 ], [ 2.05506, 43.299985 ], [ 2.059459, 43.297782 ], [ 2.059464, 43.297422 ], [ 2.059018, 43.297415 ], [ 2.058572, 43.297409 ], [ 2.058237, 43.297423 ], [ 2.057678, 43.297507 ], [ 2.049253, 43.295827 ], [ 2.046434, 43.294049 ], [ 2.046367, 43.294052 ], [ 2.046326, 43.294069 ], [ 2.04574, 43.295008 ], [ 2.045308, 43.296805 ], [ 2.041807, 43.301991 ], [ 2.042131, 43.302542 ], [ 2.042455, 43.303093 ], [ 2.047269, 43.310365 ], [ 2.048403, 43.30916 ], [ 2.048808, 43.300668 ], [ 2.048692, 43.300485 ], [ 2.048549, 43.300136 ], [ 2.048494, 43.29989 ], [ 2.048439, 43.299646 ], [ 2.048386, 43.299418 ], [ 2.048736, 43.299335 ], [ 2.049706, 43.299238 ], [ 2.052785, 43.304622 ], [ 2.051606, 43.30837 ], [ 2.051569, 43.308856 ], [ 2.051646659466963, 43.310103521677298 ], [ 2.054679, 43.307267 ] ] ], [ [ [ 2.036741, 43.310329 ], [ 2.033981, 43.30948 ], [ 2.030464, 43.302662 ], [ 2.030355, 43.302318 ], [ 2.025979, 43.302166 ], [ 2.01744, 43.30024 ], [ 2.015865, 43.299055 ], [ 2.015545, 43.29922 ], [ 2.015053, 43.301078 ], [ 2.015097, 43.301198 ], [ 2.015541, 43.303556 ], [ 2.010404724660035, 43.309210265876686 ], [ 2.016404, 43.305165 ], [ 2.016703, 43.304965 ], [ 2.020872, 43.305709 ], [ 2.021015, 43.306039 ], [ 2.019251, 43.307978 ], [ 2.01902, 43.308253 ], [ 2.018778, 43.314967 ], [ 2.02532, 43.317131 ], [ 2.028331, 43.314043 ], [ 2.028922, 43.311292 ], [ 2.029279, 43.311249 ], [ 2.034909, 43.309912 ], [ 2.036004, 43.310469 ], [ 2.041477, 43.312923 ], [ 2.036741, 43.310329 ] ] ], [ [ [ 2.008845, 43.310329 ], [ 2.00285534452285, 43.313848833235831 ], [ 2.003180884708232, 43.315180867076748 ], [ 2.003443, 43.315237 ], [ 2.00930506985104, 43.309979542687628 ], [ 2.008845, 43.310329 ] ] ] ] } },
{ "type": "Feature", "properties": { "codgeo": "11361", "value": 480, "isochrone_group": 8.0, "nb_agences": 1 }, "geometry": { "type": "MultiPolygon", "coordinates": [ [ [ [ 1.99316, 43.342315 ], [ 1.993074, 43.343488 ], [ 1.993123, 43.343624 ], [ 1.98819, 43.350619 ], [ 1.986908, 43.350358 ], [ 1.986383, 43.3504 ], [ 1.985087, 43.352247 ], [ 1.985272, 43.352717 ], [ 1.986583, 43.359581 ], [ 1.982477, 43.363978 ], [ 1.978515, 43.370238 ], [ 1.978523, 43.372502 ], [ 1.97884, 43.373224 ], [ 1.979179, 43.373344 ], [ 1.979971, 43.37353 ], [ 1.980508, 43.373293 ], [ 1.981381, 43.372898 ], [ 1.984289, 43.372013 ], [ 1.991963, 43.372519 ], [ 1.993617, 43.373338 ], [ 2.000277, 43.373039 ], [ 2.003594, 43.371639 ], [ 2.005994, 43.367463 ], [ 2.0056, 43.365311 ], [ 2.005387, 43.364693 ], [ 2.004907, 43.364031 ], [ 2.004946025478645, 43.359556420777515 ], [ 2.00428, 43.35998 ], [ 2.004224, 43.360177 ], [ 2.004168, 43.360373 ], [ 2.002865, 43.364425 ], [ 2.002655, 43.364717 ], [ 1.999796, 43.369547 ], [ 1.993452, 43.369132 ], [ 1.988303, 43.367958 ], [ 1.987997, 43.367768 ], [ 1.990267, 43.360536 ], [ 1.990355, 43.360187 ], [ 1.991626, 43.357937 ], [ 1.997122, 43.352386 ], [ 1.997625, 43.351509 ], [ 1.998143, 43.350612 ], [ 1.99846, 43.350206 ], [ 1.998777, 43.3498 ], [ 2.000744, 43.346619 ], [ 1.997486, 43.33955 ], [ 1.997295, 43.339245 ], [ 1.996279, 43.337229 ], [ 1.993257576358745, 43.333437268388614 ], [ 1.991128, 43.335565 ], [ 1.989275246318514, 43.337286909494935 ], [ 1.993277, 43.338904 ], [ 1.99316, 43.342315 ] ] ], [ [ [ 2.018502, 43.352057 ], [ 2.019101, 43.352168 ], [ 2.019714549823753, 43.350643564668665 ], [ 2.019172, 43.350549 ], [ 2.016804817473666, 43.352135758962639 ], [ 2.018502, 43.352057 ] ] ], [ [ [ 2.025605, 43.359001 ], [ 2.026393, 43.359758 ], [ 2.02728, 43.360391 ], [ 2.031577, 43.364818 ], [ 2.033334, 43.366485 ], [ 2.034496, 43.366626 ], [ 2.035054, 43.365761 ], [ 2.036832, 43.363887 ], [ 2.035381, 43.361342 ], [ 2.042148, 43.35575 ], [ 2.043703, 43.35609 ], [ 2.044188, 43.356177 ], [ 2.048195, 43.362984 ], [ 2.045961, 43.365934 ], [ 2.047384, 43.369241 ], [ 2.048558, 43.372237 ], [ 2.048685, 43.372653 ], [ 2.051798, 43.372619 ], [ 2.059019, 43.371296 ], [ 2.061326, 43.371317 ], [ 2.061883, 43.370822 ], [ 2.062215, 43.370289 ], [ 2.062408, 43.369419 ], [ 2.062303, 43.368751 ], [ 2.061675, 43.366278 ], [ 2.061588, 43.365716 ], [ 2.061439, 43.363792 ], [ 2.058752293030389, 43.359881801633328 ], [ 2.058325, 43.363542 ], [ 2.057999, 43.366285 ], [ 2.057817, 43.366352 ], [ 2.057635, 43.36642 ], [ 2.057335, 43.366461 ], [ 2.054562, 43.366533 ], [ 2.054468, 43.366515 ], [ 2.050655, 43.364902 ], [ 2.050385, 43.364664 ], [ 2.050698, 43.362896 ], [ 2.050854, 43.362572 ], [ 2.046478, 43.354855 ], [ 2.046325, 43.354822 ], [ 2.039157, 43.353928 ], [ 2.038624, 43.354091 ], [ 2.033541, 43.361065 ], [ 2.033254, 43.361283 ], [ 2.031768, 43.360984 ], [ 2.031438, 43.36084 ], [ 2.029297, 43.359276 ], [ 2.029147, 43.358949 ], [ 2.027434282570533, 43.356745852704051 ], [ 2.025605, 43.359001 ] ] ], [ [ [ 2.066288, 43.354492 ], [ 2.067868, 43.355932 ], [ 2.067975, 43.355944 ], [ 2.070824, 43.354728 ], [ 2.072283, 43.353768 ], [ 2.077776, 43.352536 ], [ 2.084329, 43.355607 ], [ 2.089724, 43.355113 ], [ 2.098269, 43.35436 ], [ 2.098564, 43.353793 ], [ 2.097924, 43.350758 ], [ 2.097269, 43.350218 ], [ 2.095029, 43.348315 ], [ 2.090316, 43.342876 ], [ 2.087003, 43.343006 ], [ 2.087562, 43.334193 ], [ 2.088021, 43.333918 ], [ 2.088239, 43.333712 ], [ 2.088373, 43.333483 ], [ 2.093065, 43.328572 ], [ 2.09516, 43.326293 ], [ 2.102671, 43.326423 ], [ 2.108148, 43.329167 ], [ 2.11027, 43.329934 ], [ 2.110524, 43.329799 ], [ 2.111446, 43.327875 ], [ 2.111426, 43.327792 ], [ 2.11111, 43.327121 ], [ 2.111466, 43.319049 ], [ 2.11267, 43.318197 ], [ 2.119192, 43.314209 ], [ 2.122592, 43.312238 ], [ 2.125173, 43.309395 ], [ 2.125212, 43.309352 ], [ 2.124836, 43.307739 ], [ 2.124194, 43.306431 ], [ 2.123692, 43.306328 ], [ 2.122529, 43.306951 ], [ 2.115456, 43.309914 ], [ 2.115024, 43.310032 ], [ 2.114549, 43.310228 ], [ 2.114036, 43.310549 ], [ 2.105293, 43.3093 ], [ 2.104729, 43.308317 ], [ 2.097007, 43.304737 ], [ 2.096269, 43.30398 ], [ 2.095189, 43.304468 ], [ 2.086741, 43.303639 ], [ 2.083896, 43.305845 ], [ 2.07685, 43.310445 ], [ 2.074643, 43.31329 ], [ 2.068868, 43.315905 ], [ 2.066738309310251, 43.319560408345502 ], [ 2.072396, 43.317739 ], [ 2.078444, 43.313732 ], [ 2.080189, 43.311786 ], [ 2.088962, 43.310349 ], [ 2.095405, 43.312378 ], [ 2.098884, 43.310364 ], [ 2.099242, 43.31033 ], [ 2.104286, 43.312963 ], [ 2.112977, 43.313572 ], [ 2.113166, 43.313878 ], [ 2.11286, 43.314067 ], [ 2.112555, 43.314256 ], [ 2.108619, 43.316444 ], [ 2.10387, 43.322565 ], [ 2.103524, 43.322664 ], [ 2.095127, 43.32331 ], [ 2.094348, 43.324063 ], [ 2.093745, 43.324727 ], [ 2.093628, 43.324872 ], [ 2.08924, 43.326455 ], [ 2.086567, 43.330887 ], [ 2.08633, 43.331137 ], [ 2.085884, 43.331639 ], [ 2.083551, 43.335985 ], [ 2.082926, 43.33856 ], [ 2.085479, 43.346077 ], [ 2.08876, 43.350414 ], [ 2.088789, 43.350772 ], [ 2.086909, 43.352801 ], [ 2.086573, 43.352672 ], [ 2.077992, 43.350891 ], [ 2.077642, 43.350921 ], [ 2.071149, 43.352569 ], [ 2.07099, 43.352587 ], [ 2.070562, 43.352558 ], [ 2.062854, 43.351459 ], [ 2.059925, 43.354409 ], [ 2.059234456910627, 43.356286358833771 ], [ 2.066288, 43.354492 ] ] ], [ [ [ 2.057405, 43.309031 ], [ 2.057143, 43.308108 ], [ 2.056687, 43.307201 ], [ 2.061844, 43.300037 ], [ 2.065804, 43.297069 ], [ 2.067625, 43.295922 ], [ 2.06827, 43.295375 ], [ 2.065939, 43.292631 ], [ 2.065294, 43.293179 ], [ 2.063916, 43.294003 ], [ 2.055466, 43.291725 ], [ 2.05366, 43.28948 ], [ 2.053131, 43.288985 ], [ 2.046886, 43.288545 ], [ 2.04444, 43.288789 ], [ 2.042028, 43.289047 ], [ 2.037793, 43.294286 ], [ 2.031702, 43.300206 ], [ 2.024442, 43.297402 ], [ 2.016635, 43.293575 ], [ 2.015615, 43.292803 ], [ 2.013876, 43.29307 ], [ 2.013124, 43.294368 ], [ 2.008474, 43.300261 ], [ 2.008371, 43.300896 ], [ 2.00797, 43.302652 ], [ 2.007994, 43.302691 ], [ 2.010490320060211, 43.309116038227593 ], [ 2.015541, 43.303556 ], [ 2.015097, 43.301198 ], [ 2.015053, 43.301078 ], [ 2.015545, 43.29922 ], [ 2.015865, 43.299055 ], [ 2.01744, 43.30024 ], [ 2.025979, 43.302166 ], [ 2.030355, 43.302318 ], [ 2.030464, 43.302662 ], [ 2.033981, 43.30948 ], [ 2.036741, 43.310329 ], [ 2.041477, 43.312923 ], [ 2.046121, 43.311588 ], [ 2.047269, 43.310365 ], [ 2.042455, 43.303093 ], [ 2.042131, 43.302542 ], [ 2.041807, 43.301991 ], [ 2.045308, 43.296805 ], [ 2.04574, 43.295008 ], [ 2.046326, 43.294069 ], [ 2.046367, 43.294052 ], [ 2.046434, 43.294049 ], [ 2.049253, 43.295827 ], [ 2.057678, 43.297507 ], [ 2.058237, 43.297423 ], [ 2.058572, 43.297409 ], [ 2.059018, 43.297415 ], [ 2.059464, 43.297422 ], [ 2.059459, 43.297782 ], [ 2.05506, 43.299985 ], [ 2.054415, 43.306028 ], [ 2.054679, 43.307267 ], [ 2.051489, 43.310251 ], [ 2.055081623057719, 43.314711187217476 ], [ 2.057405, 43.309031 ] ] ] ] } },
{ "type": "Feature", "properties": { "codgeo": "11361", "value": 540, "isochrone_group": 9.0, "nb_agences": 1 }, "geometry": { "type": "MultiPolygon", "coordinates": [ [ [ [ 1.980353, 43.351258 ], [ 1.981207, 43.354755 ], [ 1.97774, 43.361388 ], [ 1.973604, 43.36243 ], [ 1.972503686093362, 43.362324248437297 ], [ 1.973015, 43.363037 ], [ 1.972079, 43.366513 ], [ 1.969316464146584, 43.368481341782065 ], [ 1.971061, 43.373371 ], [ 1.971145, 43.373592 ], [ 1.972131, 43.375722 ], [ 1.972702, 43.376595 ], [ 1.97309, 43.376912 ], [ 1.975236, 43.378357 ], [ 1.975619, 43.378587 ], [ 1.982591, 43.374853 ], [ 1.985745, 43.374075 ], [ 1.9894, 43.37357 ], [ 1.991963, 43.372519 ], [ 1.984289, 43.372013 ], [ 1.981381, 43.372898 ], [ 1.980508, 43.373293 ], [ 1.979971, 43.37353 ], [ 1.979179, 43.373344 ], [ 1.97884, 43.373224 ], [ 1.978523, 43.372502 ], [ 1.978515, 43.370238 ], [ 1.982477, 43.363978 ], [ 1.986583, 43.359581 ], [ 1.985272, 43.352717 ], [ 1.985087, 43.352247 ], [ 1.986383, 43.3504 ], [ 1.986908, 43.350358 ], [ 1.98819, 43.350619 ], [ 1.993123, 43.343624 ], [ 1.993074, 43.343488 ], [ 1.99316, 43.342315 ], [ 1.993219935805012, 43.340567640761584 ], [ 1.990776, 43.342673 ], [ 1.989406, 43.345684 ], [ 1.987101, 43.347019 ], [ 1.984918601016093, 43.347207896440771 ], [ 1.981906, 43.349144 ], [ 1.980353, 43.351258 ] ] ], [ [ [ 1.999489, 43.377099 ], [ 2.002978, 43.377985 ], [ 2.005938, 43.372852 ], [ 2.009553, 43.365969 ], [ 2.009813, 43.36571 ], [ 2.009909, 43.365362 ], [ 2.009747, 43.364017 ], [ 2.009717, 43.363929 ], [ 2.009493, 43.363334 ], [ 2.009148, 43.363132 ], [ 2.008846, 43.363103 ], [ 2.00841, 43.363036 ], [ 2.004983, 43.355317 ], [ 2.004907, 43.364031 ], [ 2.005387, 43.364693 ], [ 2.0056, 43.365311 ], [ 2.005994, 43.367463 ], [ 2.003594, 43.371639 ], [ 2.000277, 43.373039 ], [ 1.993617, 43.373338 ], [ 1.991963, 43.372519 ], [ 1.999489, 43.377099 ] ] ], [ [ [ 2.021987, 43.357349 ], [ 2.022121, 43.35794 ], [ 2.022848, 43.358917 ], [ 2.023014, 43.359051 ], [ 2.026353, 43.364807 ], [ 2.026508, 43.364918 ], [ 2.028025, 43.365581 ], [ 2.033289847266759, 43.366443108932103 ], [ 2.031577, 43.364818 ], [ 2.02728, 43.360391 ], [ 2.026393, 43.359758 ], [ 2.025605, 43.359001 ], [ 2.027873, 43.356205 ], [ 2.030659, 43.351333 ], [ 2.024675, 43.346955 ], [ 2.020271, 43.349261 ], [ 2.019101, 43.352168 ], [ 2.018502, 43.352057 ], [ 2.018162003705464, 43.352072777769926 ], [ 2.021987, 43.357349 ] ] ], [ [ [ 2.036422, 43.369847 ], [ 2.03999, 43.369374 ], [ 2.045106, 43.37619 ], [ 2.047302, 43.379062 ], [ 2.047678, 43.379505 ], [ 2.049416, 43.381121 ], [ 2.051867, 43.378484 ], [ 2.055170027729042, 43.372001191845243 ], [ 2.051798, 43.372619 ], [ 2.048685, 43.372653 ], [ 2.048558, 43.372237 ], [ 2.047384, 43.369241 ], [ 2.045961, 43.365934 ], [ 2.048195, 43.362984 ], [ 2.044188, 43.356177 ], [ 2.043703, 43.35609 ], [ 2.042148, 43.35575 ], [ 2.035381, 43.361342 ], [ 2.036832, 43.363887 ], [ 2.035054, 43.365761 ], [ 2.034496, 43.366626 ], [ 2.033425260884598, 43.36649607382504 ], [ 2.036422, 43.369847 ] ] ], [ [ [ 2.059746, 43.37177 ], [ 2.060382, 43.3719 ], [ 2.060963, 43.371844 ], [ 2.066767, 43.37182 ], [ 2.067191, 43.370967 ], [ 2.067417, 43.370196 ], [ 2.067463, 43.369434 ], [ 2.067399, 43.368936 ], [ 2.064773, 43.366255 ], [ 2.063157, 43.363505 ], [ 2.069571, 43.358196 ], [ 2.070746, 43.358589 ], [ 2.071321, 43.358517 ], [ 2.072869, 43.358072 ], [ 2.077776, 43.352536 ], [ 2.072283, 43.353768 ], [ 2.070824, 43.354728 ], [ 2.067975, 43.355944 ], [ 2.067868, 43.355932 ], [ 2.066288, 43.354492 ], [ 2.057805, 43.35665 ], [ 2.05755, 43.358132 ], [ 2.061439, 43.363792 ], [ 2.061588, 43.365716 ], [ 2.061675, 43.366278 ], [ 2.062303, 43.368751 ], [ 2.062408, 43.369419 ], [ 2.062215, 43.370289 ], [ 2.061883, 43.370822 ], [ 2.061326, 43.371317 ], [ 2.059019, 43.371296 ], [ 2.058271738681841, 43.371432909946535 ], [ 2.059746, 43.37177 ] ] ], [ [ [ 2.083783, 43.355731 ], [ 2.088385, 43.357746 ], [ 2.091686, 43.359184 ], [ 2.098261, 43.355504 ], [ 2.102794, 43.356041 ], [ 2.103342, 43.356156 ], [ 2.103551, 43.356171 ], [ 2.103794, 43.352579 ], [ 2.103662, 43.352487 ], [ 2.102021, 43.351603 ], [ 2.101474, 43.351338 ], [ 2.095999, 43.344475 ], [ 2.095929, 43.343894 ], [ 2.094168, 43.340754 ], [ 2.09289, 43.34147 ], [ 2.09239, 43.341655 ], [ 2.091954, 43.341866 ], [ 2.091395, 43.342179 ], [ 2.090104513032345, 43.342884298613271 ], [ 2.090316, 43.342876 ], [ 2.095029, 43.348315 ], [ 2.097269, 43.350218 ], [ 2.097924, 43.350758 ], [ 2.098564, 43.353793 ], [ 2.098269, 43.35436 ], [ 2.089724, 43.355113 ], [ 2.084329, 43.355607 ], [ 2.077776, 43.352536 ], [ 2.083783, 43.355731 ] ] ], [ [ [ 2.092972, 43.331268 ], [ 2.095989, 43.331745 ], [ 2.096031, 43.331681 ], [ 2.09633, 43.33069 ], [ 2.104191, 43.329362 ], [ 2.105286, 43.332792 ], [ 2.108165, 43.333475 ], [ 2.109467, 43.333123 ], [ 2.109919, 43.332966 ], [ 2.112836, 43.332263 ], [ 2.116185, 43.331082 ], [ 2.116276, 43.331057 ], [ 2.117545, 43.328816 ], [ 2.117481, 43.328672 ], [ 2.116041, 43.326885 ], [ 2.11718, 43.318515 ], [ 2.12566, 43.316929 ], [ 2.126095, 43.31675 ], [ 2.126391, 43.316605 ], [ 2.126787, 43.31633 ], [ 2.127467, 43.315547 ], [ 2.130357, 43.311919 ], [ 2.130622, 43.311593 ], [ 2.130823, 43.311342 ], [ 2.133537, 43.30408 ], [ 2.133722, 43.301465 ], [ 2.133692, 43.301433 ], [ 2.131594, 43.301049 ], [ 2.12666, 43.300731 ], [ 2.125761, 43.301622 ], [ 2.121004, 43.305314 ], [ 2.11842, 43.30782 ], [ 2.115024, 43.310032 ], [ 2.115456, 43.309914 ], [ 2.122529, 43.306951 ], [ 2.123692, 43.306328 ], [ 2.124194, 43.306431 ], [ 2.124836, 43.307739 ], [ 2.125212, 43.309352 ], [ 2.125173, 43.309395 ], [ 2.122592, 43.312238 ], [ 2.119192, 43.314209 ], [ 2.11267, 43.318197 ], [ 2.111466, 43.319049 ], [ 2.11111, 43.327121 ], [ 2.111426, 43.327792 ], [ 2.111446, 43.327875 ], [ 2.110524, 43.329799 ], [ 2.11027, 43.329934 ], [ 2.108148, 43.329167 ], [ 2.102671, 43.326423 ], [ 2.09516, 43.326293 ], [ 2.093065, 43.328572 ], [ 2.089542760060042, 43.332258641164763 ], [ 2.092972, 43.331268 ] ] ], [ [ [ 2.108467, 43.308403 ], [ 2.106301, 43.306946 ], [ 2.099487, 43.304541 ], [ 2.096277, 43.299477 ], [ 2.094919, 43.298478 ], [ 2.093293, 43.297793 ], [ 2.093192, 43.297806 ], [ 2.08486, 43.300085 ], [ 2.083256, 43.29787 ], [ 2.076319, 43.295779 ], [ 2.076836, 43.290462 ], [ 2.074955, 43.287393 ], [ 2.06626, 43.286325 ], [ 2.062352, 43.286661 ], [ 2.055067, 43.286488 ], [ 2.046403, 43.284788 ], [ 2.045843, 43.283803 ], [ 2.045423, 43.283202 ], [ 2.044578, 43.282286 ], [ 2.042439, 43.281003 ], [ 2.042283, 43.281074 ], [ 2.041787, 43.281405 ], [ 2.041173, 43.282429 ], [ 2.041143, 43.283235 ], [ 2.036276, 43.289622 ], [ 2.034518, 43.289512 ], [ 2.03126, 43.291043 ], [ 2.023701, 43.29055 ], [ 2.016107, 43.28757 ], [ 2.014717, 43.287527 ], [ 2.012787, 43.288962 ], [ 2.008453279000296, 43.292878819098313 ], [ 2.013163, 43.292833 ], [ 2.017365, 43.292526 ], [ 2.017607017741351, 43.294051484167547 ], [ 2.024442, 43.297402 ], [ 2.031702, 43.300206 ], [ 2.037793, 43.294286 ], [ 2.042028, 43.289047 ], [ 2.04444, 43.288789 ], [ 2.046886, 43.288545 ], [ 2.053131, 43.288985 ], [ 2.05366, 43.28948 ], [ 2.055466, 43.291725 ], [ 2.063916, 43.294003 ], [ 2.065294, 43.293179 ], [ 2.065939, 43.292631 ], [ 2.06827, 43.295375 ], [ 2.067625, 43.295922 ], [ 2.065804, 43.297069 ], [ 2.061844, 43.300037 ], [ 2.056687, 43.307201 ], [ 2.057143, 43.308108 ], [ 2.057405, 43.309031 ], [ 2.054262, 43.316715 ], [ 2.056897, 43.319167 ], [ 2.064753, 43.322968 ], [ 2.068868, 43.315905 ], [ 2.074643, 43.31329 ], [ 2.07685, 43.310445 ], [ 2.083896, 43.305845 ], [ 2.086741, 43.303639 ], [ 2.095189, 43.304468 ], [ 2.096269, 43.30398 ], [ 2.097007, 43.304737 ], [ 2.104729, 43.308317 ], [ 2.105293, 43.3093 ], [ 2.114036, 43.310549 ], [ 2.114549, 43.310228 ], [ 2.115024, 43.310032 ], [ 2.108467, 43.308403 ] ] ], [ [ [ 2.004576, 43.30143 ], [ 1.997716, 43.306942 ], [ 2.003319, 43.31359 ], [ 2.005790721135337, 43.312839551491791 ], [ 2.007572730082997, 43.311952556473422 ], [ 2.009602, 43.310781 ], [ 2.010361, 43.310246 ], [ 2.0107786028952, 43.309858021703455 ], [ 2.007994, 43.302691 ], [ 2.00797, 43.302652 ], [ 2.008371, 43.300896 ], [ 2.008474, 43.300261 ], [ 2.010055067890533, 43.298257293961534 ], [ 2.004576, 43.30143 ] ] ] ] } },
{ "type": "Feature", "properties": { "codgeo": "11361", "value": 600, "isochrone_group": 10.0, "nb_agences": 1 }, "geometry": { "type": "MultiPolygon", "coordinates": [ [ [ [ 1.976272, 43.386942 ], [ 1.977356, 43.384148 ], [ 1.977266, 43.381037 ], [ 1.977309, 43.380513 ], [ 1.985289, 43.376501 ], [ 1.98868, 43.377709 ], [ 1.98908, 43.376816 ], [ 1.989458, 43.376041 ], [ 1.991963, 43.372519 ], [ 1.9894, 43.37357 ], [ 1.985745, 43.374075 ], [ 1.982591, 43.374853 ], [ 1.975619, 43.378587 ], [ 1.975236, 43.378357 ], [ 1.97309, 43.376912 ], [ 1.972830383651581, 43.376699890766879 ], [ 1.972339, 43.379235 ], [ 1.971148, 43.379004 ], [ 1.970371, 43.378833 ], [ 1.969853, 43.378675 ], [ 1.969352, 43.378477 ], [ 1.968809, 43.378202 ], [ 1.968501113556624, 43.378004450543834 ], [ 1.968644, 43.378104 ], [ 1.972803, 43.385981 ], [ 1.976272, 43.386942 ] ] ], [ [ [ 1.999198, 43.378595 ], [ 1.999239, 43.379255 ], [ 1.999464, 43.379964 ], [ 2.000017, 43.38157 ], [ 2.000089, 43.381736 ], [ 2.003242, 43.381744 ], [ 2.003306, 43.381606 ], [ 2.003478, 43.381043 ], [ 2.003533, 43.380439 ], [ 2.007189, 43.372375 ], [ 2.008241, 43.370998 ], [ 2.013406, 43.366329 ], [ 2.012734, 43.362973 ], [ 2.019956, 43.358601 ], [ 2.023158367778243, 43.359299871198438 ], [ 2.023014, 43.359051 ], [ 2.022848, 43.358917 ], [ 2.022121, 43.35794 ], [ 2.021987, 43.357349 ], [ 2.018015, 43.35187 ], [ 2.010378, 43.352434 ], [ 2.005907, 43.354322 ], [ 2.004983, 43.355317 ], [ 2.00841, 43.363036 ], [ 2.008846, 43.363103 ], [ 2.009148, 43.363132 ], [ 2.009493, 43.363334 ], [ 2.009717, 43.363929 ], [ 2.009747, 43.364017 ], [ 2.009909, 43.365362 ], [ 2.009813, 43.36571 ], [ 2.009553, 43.365969 ], [ 2.005938, 43.372852 ], [ 2.002978, 43.377985 ], [ 1.999497710361213, 43.377101211917456 ], [ 1.999231, 43.378187 ], [ 1.999198, 43.378595 ] ] ], [ [ [ 2.035415, 43.371883 ], [ 2.03572, 43.372268 ], [ 2.037752, 43.372028 ], [ 2.043837638473262, 43.374500173540611 ], [ 2.03999, 43.369374 ], [ 2.036422, 43.369847 ], [ 2.033393, 43.36646 ], [ 2.032433244718364, 43.366302841860559 ], [ 2.035014, 43.371213 ], [ 2.035415, 43.371883 ] ] ], [ [ [ 2.054478, 43.384599 ], [ 2.055151, 43.383125 ], [ 2.055538, 43.382459 ], [ 2.055928, 43.381728 ], [ 2.056601, 43.375417 ], [ 2.063853, 43.376292 ], [ 2.064655, 43.377247 ], [ 2.066297, 43.378163 ], [ 2.066674, 43.378254 ], [ 2.06691, 43.378291 ], [ 2.068623, 43.377005 ], [ 2.07036, 43.372527 ], [ 2.070212, 43.372166 ], [ 2.069408, 43.371262 ], [ 2.067399, 43.368936 ], [ 2.067463, 43.369434 ], [ 2.067417, 43.370196 ], [ 2.067191, 43.370967 ], [ 2.066767, 43.37182 ], [ 2.060963, 43.371844 ], [ 2.060382, 43.3719 ], [ 2.059746, 43.37177 ], [ 2.055753, 43.370857 ], [ 2.051867, 43.378484 ], [ 2.049416, 43.381121 ], [ 2.047678, 43.379505 ], [ 2.050917, 43.384066 ], [ 2.054478, 43.384599 ] ] ], [ [ [ 2.064773, 43.366255 ], [ 2.067399, 43.368936 ], [ 2.063157, 43.363505 ], [ 2.064773, 43.366255 ] ] ], [ [ [ 2.076173, 43.359989 ], [ 2.083783, 43.355731 ], [ 2.077776, 43.352536 ], [ 2.072869, 43.358072 ], [ 2.071321, 43.358517 ], [ 2.070746, 43.358589 ], [ 2.069571, 43.358196 ], [ 2.072802, 43.361252 ], [ 2.076173, 43.359989 ] ] ], [ [ [ 2.086334, 43.361495 ], [ 2.089464, 43.363275 ], [ 2.090418, 43.361597 ], [ 2.090832, 43.360912 ], [ 2.091068, 43.360457 ], [ 2.098261, 43.355504 ], [ 2.091686, 43.359184 ], [ 2.088385, 43.357746 ], [ 2.083783, 43.355731 ], [ 2.086017, 43.360378 ], [ 2.086334, 43.361495 ] ] ], [ [ [ 2.107869, 43.360346 ], [ 2.109147, 43.360494 ], [ 2.109198, 43.36048 ], [ 2.110912, 43.357192 ], [ 2.11583, 43.35359 ], [ 2.116315, 43.353298 ], [ 2.116624, 43.353018 ], [ 2.117426, 43.352129 ], [ 2.114755, 43.349716 ], [ 2.111059, 43.348227 ], [ 2.109861, 43.347549 ], [ 2.109253, 43.347763 ], [ 2.108889, 43.347927 ], [ 2.107069, 43.349912 ], [ 2.101474, 43.351338 ], [ 2.102021, 43.351603 ], [ 2.103662, 43.352487 ], [ 2.103794, 43.352579 ], [ 2.103551, 43.356171 ], [ 2.103342, 43.356156 ], [ 2.102794, 43.356041 ], [ 2.107798, 43.360304 ], [ 2.107869, 43.360346 ] ] ], [ [ [ 2.099599, 43.342672 ], [ 2.099647, 43.342217 ], [ 2.101176, 43.335295 ], [ 2.105646, 43.335236 ], [ 2.1066, 43.334647 ], [ 2.113911, 43.334289 ], [ 2.114381, 43.334519 ], [ 2.114985, 43.334679 ], [ 2.115582, 43.334681 ], [ 2.116169, 43.334533 ], [ 2.116693, 43.334281 ], [ 2.118569, 43.333383 ], [ 2.119663, 43.332461 ], [ 2.119718, 43.332343 ], [ 2.119832, 43.332096 ], [ 2.119879, 43.331995 ], [ 2.119821, 43.329414 ], [ 2.119696, 43.329237 ], [ 2.118252, 43.325273 ], [ 2.125489471164646, 43.321516856116084 ], [ 2.126417, 43.319825 ], [ 2.126618, 43.319527 ], [ 2.128063, 43.319943 ], [ 2.128235, 43.320259 ], [ 2.127747624043223, 43.321519114067968 ], [ 2.128794, 43.321628 ], [ 2.128943, 43.321331 ], [ 2.129096, 43.320916 ], [ 2.129148, 43.320153 ], [ 2.130909, 43.312018 ], [ 2.133469, 43.308262 ], [ 2.1377, 43.302944 ], [ 2.138263, 43.30231 ], [ 2.139006, 43.301135 ], [ 2.142109, 43.294578 ], [ 2.139033, 43.292707 ], [ 2.138111, 43.294128 ], [ 2.136649, 43.295966 ], [ 2.135243, 43.297738 ], [ 2.127703, 43.299466 ], [ 2.123776, 43.295587 ], [ 2.120523, 43.296506 ], [ 2.119637, 43.297152 ], [ 2.115984, 43.303146 ], [ 2.108211, 43.305585 ], [ 2.101351, 43.301221 ], [ 2.101847, 43.297996 ], [ 2.100471, 43.297519 ], [ 2.093595, 43.296589 ], [ 2.091995, 43.294074 ], [ 2.091834, 43.293572 ], [ 2.091482, 43.292821 ], [ 2.090959, 43.292111 ], [ 2.090108, 43.291213 ], [ 2.087495, 43.293689 ], [ 2.081217, 43.287635 ], [ 2.081848, 43.286592 ], [ 2.082348, 43.286056 ], [ 2.082836, 43.285501 ], [ 2.080134, 43.283123 ], [ 2.07633, 43.280402 ], [ 2.075959, 43.28059 ], [ 2.075544, 43.280846 ], [ 2.073503, 43.282304 ], [ 2.065986, 43.284961 ], [ 2.062451, 43.285641 ], [ 2.056163, 43.285123 ], [ 2.051863, 43.279788 ], [ 2.051839, 43.279711 ], [ 2.049631, 43.278728 ], [ 2.04949, 43.278706 ], [ 2.04811, 43.279024 ], [ 2.04464, 43.28025 ], [ 2.042611, 43.280935 ], [ 2.042443777525429, 43.281005865621857 ], [ 2.044578, 43.282286 ], [ 2.045423, 43.283202 ], [ 2.045843, 43.283803 ], [ 2.046403, 43.284788 ], [ 2.055067, 43.286488 ], [ 2.062352, 43.286661 ], [ 2.06626, 43.286325 ], [ 2.074955, 43.287393 ], [ 2.076836, 43.290462 ], [ 2.076319, 43.295779 ], [ 2.083256, 43.29787 ], [ 2.08486, 43.300085 ], [ 2.093192, 43.297806 ], [ 2.093293, 43.297793 ], [ 2.094919, 43.298478 ], [ 2.096277, 43.299477 ], [ 2.099487, 43.304541 ], [ 2.106301, 43.306946 ], [ 2.108467, 43.308403 ], [ 2.115024, 43.310032 ], [ 2.11842, 43.30782 ], [ 2.121004, 43.305314 ], [ 2.125761, 43.301622 ], [ 2.12666, 43.300731 ], [ 2.131594, 43.301049 ], [ 2.133692, 43.301433 ], [ 2.133722, 43.301465 ], [ 2.133537, 43.30408 ], [ 2.130823, 43.311342 ], [ 2.130622, 43.311593 ], [ 2.130357, 43.311919 ], [ 2.127467, 43.315547 ], [ 2.126787, 43.31633 ], [ 2.126391, 43.316605 ], [ 2.126095, 43.31675 ], [ 2.12566, 43.316929 ], [ 2.11718, 43.318515 ], [ 2.116041, 43.326885 ], [ 2.117481, 43.328672 ], [ 2.117545, 43.328816 ], [ 2.116276, 43.331057 ], [ 2.116185, 43.331082 ], [ 2.112836, 43.332263 ], [ 2.109919, 43.332966 ], [ 2.109467, 43.333123 ], [ 2.108165, 43.333475 ], [ 2.105286, 43.332792 ], [ 2.104191, 43.329362 ], [ 2.09633, 43.33069 ], [ 2.096031, 43.331681 ], [ 2.095989, 43.331745 ], [ 2.092972, 43.331268 ], [ 2.087558, 43.332832 ], [ 2.081212, 43.337198 ], [ 2.082866, 43.344982 ], [ 2.08591, 43.344878 ], [ 2.086494, 43.34461 ], [ 2.087271, 43.344176 ], [ 2.087682, 43.343948 ], [ 2.089547, 43.343189 ], [ 2.091395, 43.342179 ], [ 2.091954, 43.341866 ], [ 2.09239, 43.341655 ], [ 2.09289, 43.34147 ], [ 2.094168, 43.340754 ], [ 2.095929, 43.343894 ], [ 2.095999, 43.344475 ], [ 2.101474, 43.351338 ], [ 2.099209, 43.343619 ], [ 2.099599, 43.342672 ] ] ], [ [ [ 2.031733, 43.286132 ], [ 2.031347, 43.286228 ], [ 2.03131, 43.286261 ], [ 2.025405, 43.289369 ], [ 2.020063, 43.286763 ], [ 2.016508, 43.285282 ], [ 2.012948637416894, 43.284128198806144 ], [ 2.016849, 43.287705 ], [ 2.02381, 43.290483 ], [ 2.030563, 43.290481 ], [ 2.030642772023377, 43.291002744226425 ], [ 2.03126, 43.291043 ], [ 2.034518, 43.289512 ], [ 2.036276, 43.289622 ], [ 2.041143, 43.283235 ], [ 2.033593, 43.287583 ], [ 2.031733, 43.286132 ] ] ], [ [ [ 1.977306, 43.352954 ], [ 1.972855878686685, 43.358835048162639 ], [ 1.978427675078071, 43.360072352814285 ], [ 1.981207, 43.354755 ], [ 1.980353, 43.351258 ], [ 1.981562634836469, 43.349611401130531 ], [ 1.978886796825739, 43.34888267167063 ], [ 1.977306, 43.352954 ] ] ], [ [ [ 1.968092914597974, 43.37770207143376 ], [ 1.968189, 43.377787 ], [ 1.968261418799922, 43.377837454416643 ], [ 1.968092914597974, 43.37770207143376 ] ] ] ] } },
{ "type": "Feature", "properties": { "codgeo": "11361", "value": 660, "isochrone_group": 11.0, "nb_agences": 1 }, "geometry": { "type": "MultiPolygon", "coordinates": [ [ [ [ 2.021318, 43.286459 ], [ 2.027214858751399, 43.288416410499686 ], [ 2.029629257702147, 43.287145631170489 ], [ 2.024302, 43.285847 ], [ 2.021002001421538, 43.285397194914658 ], [ 2.021318, 43.286459 ] ] ], [ [ [ 1.976272, 43.386942 ], [ 1.972803, 43.385981 ], [ 1.972798484145082, 43.385972447129319 ], [ 1.972455, 43.386853 ], [ 1.972211, 43.387411 ], [ 1.97197, 43.387905 ], [ 1.970314, 43.390185 ], [ 1.968963, 43.391503 ], [ 1.967611, 43.392823 ], [ 1.967195, 43.393251 ], [ 1.966743, 43.39386 ], [ 1.966479, 43.394329 ], [ 1.967746, 43.395516 ], [ 1.968041, 43.395765 ], [ 1.969616, 43.396096 ], [ 1.975056, 43.393331 ], [ 1.98062, 43.387045 ], [ 1.987263, 43.381177 ], [ 1.988879, 43.379635 ], [ 1.989135, 43.379028 ], [ 1.989177, 43.378143 ], [ 1.989458, 43.376041 ], [ 1.98908, 43.376816 ], [ 1.98868, 43.377709 ], [ 1.985289, 43.376501 ], [ 1.977309, 43.380513 ], [ 1.977266, 43.381037 ], [ 1.977356, 43.384148 ], [ 1.976272, 43.386942 ] ] ], [ [ [ 1.997242, 43.383576 ], [ 1.997195, 43.384102 ], [ 1.997162, 43.384836 ], [ 1.998212, 43.38534 ], [ 2.000758, 43.385002 ], [ 2.003722, 43.382983 ], [ 2.003877, 43.382865 ], [ 2.004702, 43.379519 ], [ 2.007891, 43.372018 ], [ 2.01142, 43.371308 ], [ 2.013436, 43.369083 ], [ 2.015266, 43.366788 ], [ 2.017406, 43.363893 ], [ 2.024691, 43.359563 ], [ 2.023663, 43.35941 ], [ 2.019956, 43.358601 ], [ 2.012734, 43.362973 ], [ 2.013406, 43.366329 ], [ 2.008241, 43.370998 ], [ 2.007189, 43.372375 ], [ 2.003533, 43.380439 ], [ 2.003478, 43.381043 ], [ 2.003306, 43.381606 ], [ 2.003242, 43.381744 ], [ 2.000089, 43.381736 ], [ 2.000017, 43.38157 ], [ 1.999464, 43.379964 ], [ 1.999239, 43.379255 ], [ 1.999198, 43.378595 ], [ 1.998217, 43.381801 ], [ 1.99744, 43.382884 ], [ 1.997242, 43.383576 ] ] ], [ [ [ 2.035699, 43.373528 ], [ 2.03578, 43.37367 ], [ 2.037012, 43.37407 ], [ 2.038207, 43.373668 ], [ 2.04612, 43.376869 ], [ 2.045886, 43.376108 ], [ 2.045873, 43.375327 ], [ 2.037752, 43.372028 ], [ 2.03572, 43.372268 ], [ 2.035415, 43.371883 ], [ 2.035014, 43.371213 ], [ 2.035148, 43.372284 ], [ 2.03552, 43.37309 ], [ 2.035699, 43.373528 ] ] ], [ [ [ 2.052667, 43.389324 ], [ 2.05351, 43.390829 ], [ 2.054042, 43.391549 ], [ 2.054144, 43.391659 ], [ 2.05429, 43.391784 ], [ 2.055554, 43.391543 ], [ 2.057073, 43.390708 ], [ 2.057081, 43.390535 ], [ 2.05691, 43.389646 ], [ 2.056796, 43.389225 ], [ 2.056661, 43.38893 ], [ 2.056282, 43.388134 ], [ 2.055576, 43.385713 ], [ 2.055932, 43.38172 ], [ 2.056458, 43.38056 ], [ 2.056765, 43.378941 ], [ 2.065221, 43.378213 ], [ 2.065586, 43.378938 ], [ 2.066176, 43.381559 ], [ 2.067304, 43.383193 ], [ 2.067739, 43.383978 ], [ 2.068055, 43.384428 ], [ 2.068351, 43.384744 ], [ 2.068754, 43.385091 ], [ 2.069851, 43.385857 ], [ 2.071912, 43.382905 ], [ 2.072419, 43.375921 ], [ 2.071451, 43.372405 ], [ 2.075925, 43.365621 ], [ 2.082354, 43.364054 ], [ 2.08524, 43.366206 ], [ 2.088079, 43.367249 ], [ 2.091088, 43.365273 ], [ 2.091451031872442, 43.360193249567061 ], [ 2.091068, 43.360457 ], [ 2.090832, 43.360912 ], [ 2.090418, 43.361597 ], [ 2.089464, 43.363275 ], [ 2.086334, 43.361495 ], [ 2.086017, 43.360378 ], [ 2.083783, 43.355731 ], [ 2.076173, 43.359989 ], [ 2.072802, 43.361252 ], [ 2.069571, 43.358196 ], [ 2.063157, 43.363505 ], [ 2.067399, 43.368936 ], [ 2.069408, 43.371262 ], [ 2.070212, 43.372166 ], [ 2.07036, 43.372527 ], [ 2.068623, 43.377005 ], [ 2.06691, 43.378291 ], [ 2.066674, 43.378254 ], [ 2.066297, 43.378163 ], [ 2.064655, 43.377247 ], [ 2.063853, 43.376292 ], [ 2.056601, 43.375417 ], [ 2.055928, 43.381728 ], [ 2.055538, 43.382459 ], [ 2.055151, 43.383125 ], [ 2.054478, 43.384599 ], [ 2.050917, 43.384066 ], [ 2.047678, 43.379505 ], [ 2.05112, 43.385311 ], [ 2.052287, 43.388641 ], [ 2.052667, 43.389324 ] ] ], [ [ [ 2.113626, 43.360463 ], [ 2.113974, 43.360346 ], [ 2.121158, 43.355633 ], [ 2.12172, 43.35573 ], [ 2.122188, 43.355698 ], [ 2.122567, 43.355603 ], [ 2.122846, 43.3555 ], [ 2.122898, 43.355478 ], [ 2.122804, 43.352511 ], [ 2.122675, 43.351752 ], [ 2.122392, 43.350046 ], [ 2.12237, 43.349885 ], [ 2.120396, 43.348377 ], [ 2.11976, 43.348008 ], [ 2.118225, 43.347064 ], [ 2.112306, 43.345609 ], [ 2.110686, 43.343319 ], [ 2.110336, 43.342666 ], [ 2.110814, 43.337019 ], [ 2.11646, 43.335013 ], [ 2.118805, 43.335245 ], [ 2.122414, 43.334281 ], [ 2.12318, 43.334021 ], [ 2.123305645937354, 43.33384445443253 ], [ 2.118585461728072, 43.333369126404683 ], [ 2.118569, 43.333383 ], [ 2.116693, 43.334281 ], [ 2.116169, 43.334533 ], [ 2.115582, 43.334681 ], [ 2.114985, 43.334679 ], [ 2.114381, 43.334519 ], [ 2.113911, 43.334289 ], [ 2.1066, 43.334647 ], [ 2.105646, 43.335236 ], [ 2.101176, 43.335295 ], [ 2.099647, 43.342217 ], [ 2.099599, 43.342672 ], [ 2.099209, 43.343619 ], [ 2.101474, 43.351338 ], [ 2.107069, 43.349912 ], [ 2.108889, 43.347927 ], [ 2.109253, 43.347763 ], [ 2.109861, 43.347549 ], [ 2.111059, 43.348227 ], [ 2.114755, 43.349716 ], [ 2.117426, 43.352129 ], [ 2.116624, 43.353018 ], [ 2.116315, 43.353298 ], [ 2.11583, 43.35359 ], [ 2.110912, 43.357192 ], [ 2.109198, 43.36048 ], [ 2.109147, 43.360494 ], [ 2.107869, 43.360346 ], [ 2.107798, 43.360304 ], [ 2.102794, 43.356041 ], [ 2.098261, 43.355504 ], [ 2.104486, 43.358687 ], [ 2.106159, 43.361875 ], [ 2.113626, 43.360463 ] ] ], [ [ [ 2.130465896942131, 43.314064929798853 ], [ 2.130711, 43.314048 ], [ 2.132928568761243, 43.309054913958107 ], [ 2.130909, 43.312018 ], [ 2.130465896942131, 43.314064929798853 ] ] ], [ [ [ 2.118762829066503, 43.326675303614707 ], [ 2.121215712769667, 43.323734875516983 ], [ 2.118252, 43.325273 ], [ 2.118762829066503, 43.326675303614707 ] ] ], [ [ [ 2.123506, 43.29031 ], [ 2.119403, 43.288722 ], [ 2.118743, 43.28848 ], [ 2.118613, 43.288436 ], [ 2.117458, 43.291846 ], [ 2.115659, 43.297581 ], [ 2.112829, 43.302464 ], [ 2.11222, 43.302858 ], [ 2.104632, 43.301001 ], [ 2.104591, 43.298027 ], [ 2.104815, 43.297406 ], [ 2.104129, 43.29738 ], [ 2.103383, 43.297333 ], [ 2.101034588232756, 43.2977143717929 ], [ 2.101847, 43.297996 ], [ 2.101351, 43.301221 ], [ 2.108211, 43.305585 ], [ 2.115984, 43.303146 ], [ 2.119637, 43.297152 ], [ 2.120523, 43.296506 ], [ 2.123776, 43.295587 ], [ 2.127703, 43.299466 ], [ 2.135243, 43.297738 ], [ 2.12837, 43.297995 ], [ 2.126124, 43.295418 ], [ 2.123506, 43.29031 ] ] ], [ [ [ 2.093668, 43.289278 ], [ 2.088583, 43.285845 ], [ 2.087668024451491, 43.282972298448776 ], [ 2.086271, 43.283202 ], [ 2.084674, 43.283501 ], [ 2.080876, 43.282982 ], [ 2.076676112792489, 43.280211505842743 ], [ 2.075828, 43.280478 ], [ 2.073655, 43.281413 ], [ 2.066414, 43.282259 ], [ 2.062908, 43.283076 ], [ 2.059218, 43.283066 ], [ 2.053523, 43.276872 ], [ 2.05203254032154, 43.27569717061008 ], [ 2.05104, 43.277983 ], [ 2.049039315461095, 43.278809853393746 ], [ 2.04949, 43.278706 ], [ 2.049631, 43.278728 ], [ 2.051839, 43.279711 ], [ 2.051863, 43.279788 ], [ 2.056163, 43.285123 ], [ 2.062451, 43.285641 ], [ 2.065986, 43.284961 ], [ 2.073503, 43.282304 ], [ 2.075544, 43.280846 ], [ 2.075959, 43.28059 ], [ 2.07633, 43.280402 ], [ 2.080134, 43.283123 ], [ 2.082836, 43.285501 ], [ 2.082348, 43.286056 ], [ 2.081848, 43.286592 ], [ 2.081217, 43.287635 ], [ 2.087495, 43.293689 ], [ 2.090108, 43.291213 ], [ 2.090959, 43.292111 ], [ 2.091482, 43.292821 ], [ 2.091834, 43.293572 ], [ 2.091995, 43.294074 ], [ 2.093595, 43.296589 ], [ 2.099554136908569, 43.297394991466682 ], [ 2.094872, 43.29079 ], [ 2.094793, 43.290504 ], [ 2.093668, 43.289278 ] ] ], [ [ [ 2.042283, 43.281074 ], [ 2.042611, 43.280935 ], [ 2.04464, 43.28025 ], [ 2.047533953681314, 43.279227525298744 ], [ 2.044310477389248, 43.276878512433044 ], [ 2.041787, 43.281405 ], [ 2.042283, 43.281074 ] ] ], [ [ [ 1.964818, 43.379409 ], [ 1.965852, 43.379038 ], [ 1.964817754926286, 43.379408860649647 ], [ 1.964818, 43.379409 ] ] ], [ [ [ 2.136185, 43.29182 ], [ 2.135243, 43.297738 ], [ 2.137319, 43.2916 ], [ 2.137239772570323, 43.291230217988414 ], [ 2.136185, 43.29182 ] ] ] ] } },
{ "type": "Feature", "properties": { "codgeo": "11361", "value": 720, "isochrone_group": 12.0, "nb_agences": 1 }, "geometry": { "type": "MultiPolygon", "coordinates": [ [ [ [ 1.959711, 43.393668 ], [ 1.958860237057165, 43.398106435547653 ], [ 1.960287, 43.397334 ], [ 1.965251, 43.396595 ], [ 1.968405, 43.397369 ], [ 1.968627, 43.397846 ], [ 1.968374, 43.398529 ], [ 1.9682, 43.398953 ], [ 1.967693, 43.399689 ], [ 1.967165, 43.400172 ], [ 1.966866421052651, 43.400377578947364 ], [ 1.96697, 43.400315 ], [ 1.971799, 43.397802 ], [ 1.978111, 43.395859 ], [ 1.98163, 43.3951 ], [ 1.98587, 43.39172 ], [ 1.988356, 43.389116 ], [ 1.99632, 43.388584 ], [ 1.999007, 43.390339 ], [ 1.999777, 43.389617 ], [ 2.006727, 43.384435 ], [ 2.007277, 43.384166 ], [ 2.008331, 43.38309 ], [ 2.008436, 43.381855 ], [ 2.00834, 43.381502 ], [ 2.009344, 43.37463 ], [ 2.01237, 43.37268 ], [ 2.017673, 43.369511 ], [ 2.018722, 43.368959 ], [ 2.019475, 43.367687 ], [ 2.020421, 43.364872 ], [ 2.028211, 43.360847 ], [ 2.02728, 43.360391 ], [ 2.024691, 43.359563 ], [ 2.017406, 43.363893 ], [ 2.015266, 43.366788 ], [ 2.013436, 43.369083 ], [ 2.01142, 43.371308 ], [ 2.007891, 43.372018 ], [ 2.004702, 43.379519 ], [ 2.003877, 43.382865 ], [ 2.003722, 43.382983 ], [ 2.000758, 43.385002 ], [ 1.998212, 43.38534 ], [ 1.997162, 43.384836 ], [ 1.997195, 43.384102 ], [ 1.997242, 43.383576 ], [ 1.99744, 43.382884 ], [ 1.998217, 43.381801 ], [ 1.999198, 43.378595 ], [ 1.999231, 43.378187 ], [ 1.99978, 43.375952 ], [ 1.993309881324129, 43.373110511268472 ], [ 1.991599582827481, 43.373029960192234 ], [ 1.989458, 43.376041 ], [ 1.989177, 43.378143 ], [ 1.989135, 43.379028 ], [ 1.988879, 43.379635 ], [ 1.987263, 43.381177 ], [ 1.98062, 43.387045 ], [ 1.975056, 43.393331 ], [ 1.969616, 43.396096 ], [ 1.968041, 43.395765 ], [ 1.967746, 43.395516 ], [ 1.966479, 43.394329 ], [ 1.966743, 43.39386 ], [ 1.967195, 43.393251 ], [ 1.967611, 43.392823 ], [ 1.968963, 43.391503 ], [ 1.970314, 43.390185 ], [ 1.964624, 43.391713 ], [ 1.964235, 43.391642 ], [ 1.962972, 43.391343 ], [ 1.962198, 43.391065 ], [ 1.959711, 43.393668 ] ] ], [ [ [ 1.966634, 43.400518 ], [ 1.966721, 43.400465437500017 ], [ 1.966470609756117, 43.400598457317052 ], [ 1.966634, 43.400518 ] ] ], [ [ [ 2.034042, 43.374164 ], [ 2.037012, 43.37407 ], [ 2.03578, 43.37367 ], [ 2.035699, 43.373528 ], [ 2.03552, 43.37309 ], [ 2.035148, 43.372284 ], [ 2.035014, 43.371213 ], [ 2.031636, 43.364786 ], [ 2.03246, 43.370722 ], [ 2.033351, 43.37421 ], [ 2.033557, 43.374218 ], [ 2.034042, 43.374164 ] ] ], [ [ [ 2.056599, 43.394871 ], [ 2.057144, 43.391238 ], [ 2.057255, 43.390188 ], [ 2.056661, 43.38893 ], [ 2.056796, 43.389225 ], [ 2.05691, 43.389646 ], [ 2.057081, 43.390535 ], [ 2.057073, 43.390708 ], [ 2.055554, 43.391543 ], [ 2.05429, 43.391784 ], [ 2.054144, 43.391659 ], [ 2.054042, 43.391549 ], [ 2.05351, 43.390829 ], [ 2.052667, 43.389324 ], [ 2.052287, 43.388641 ], [ 2.05112, 43.385311 ], [ 2.050914342761468, 43.384964095314679 ], [ 2.05071, 43.391717 ], [ 2.052083, 43.396866 ], [ 2.055092, 43.398141 ], [ 2.056599, 43.394871 ] ] ], [ [ [ 2.064292, 43.381564 ], [ 2.067739, 43.383978 ], [ 2.067304, 43.383193 ], [ 2.066176, 43.381559 ], [ 2.065586, 43.378938 ], [ 2.065221, 43.378213 ], [ 2.056765, 43.378941 ], [ 2.056458, 43.38056 ], [ 2.055932, 43.38172 ], [ 2.055576, 43.385713 ], [ 2.06335, 43.381276 ], [ 2.063491, 43.381334 ], [ 2.063857, 43.381436 ], [ 2.064292, 43.381564 ] ] ], [ [ [ 2.075584, 43.390955 ], [ 2.077797, 43.388115 ], [ 2.077094, 43.387567 ], [ 2.075157, 43.385169 ], [ 2.075621, 43.378265 ], [ 2.075155, 43.375221 ], [ 2.07601, 43.370627 ], [ 2.077186133778407, 43.36531361212775 ], [ 2.075925, 43.365621 ], [ 2.071451, 43.372405 ], [ 2.072419, 43.375921 ], [ 2.071912, 43.382905 ], [ 2.069851, 43.385857 ], [ 2.068754, 43.385091 ], [ 2.071109, 43.387389 ], [ 2.071767, 43.387963 ], [ 2.073911, 43.389805 ], [ 2.075584, 43.390955 ] ] ], [ [ [ 2.082669294888843, 43.364289105544287 ], [ 2.082354, 43.364054 ], [ 2.082030613986092, 43.364132821882706 ], [ 2.082669294888843, 43.364289105544287 ] ] ], [ [ [ 2.09002, 43.371542 ], [ 2.090253, 43.371364 ], [ 2.0911, 43.370438 ], [ 2.091879, 43.368678 ], [ 2.092191, 43.368063 ], [ 2.092222, 43.366913 ], [ 2.09132816460482, 43.36191247893305 ], [ 2.091088, 43.365273 ], [ 2.088079, 43.367249 ], [ 2.086730297200283, 43.36675350967942 ], [ 2.087368, 43.369749 ], [ 2.087353, 43.369892 ], [ 2.087983, 43.370717 ], [ 2.09002, 43.371542 ] ] ], [ [ [ 2.104172, 43.362563 ], [ 2.112012, 43.366345 ], [ 2.115489, 43.365412 ], [ 2.116757, 43.359702 ], [ 2.122188, 43.355698 ], [ 2.12172, 43.35573 ], [ 2.121158, 43.355633 ], [ 2.113974, 43.360346 ], [ 2.113626, 43.360463 ], [ 2.106159, 43.361875 ], [ 2.104486, 43.358687 ], [ 2.098261, 43.355504 ], [ 2.102396, 43.362162 ], [ 2.102759, 43.362363 ], [ 2.103349, 43.362569 ], [ 2.104172, 43.362563 ] ] ], [ [ [ 2.126435, 43.348068 ], [ 2.12562, 43.339553 ], [ 2.126608624582023, 43.339434896234565 ], [ 2.121808, 43.335548 ], [ 2.119174533749389, 43.335146293839188 ], [ 2.118805, 43.335245 ], [ 2.11646, 43.335013 ], [ 2.110814, 43.337019 ], [ 2.110336, 43.342666 ], [ 2.110686, 43.343319 ], [ 2.112306, 43.345609 ], [ 2.118225, 43.347064 ], [ 2.11976, 43.348008 ], [ 2.120396, 43.348377 ], [ 2.12237, 43.349885 ], [ 2.122392, 43.350046 ], [ 2.122675, 43.351752 ], [ 2.122804, 43.352511 ], [ 2.122897021189278, 43.355447104985018 ], [ 2.123454, 43.355184 ], [ 2.128559, 43.352207 ], [ 2.129316, 43.348687 ], [ 2.126435, 43.348068 ] ] ], [ [ [ 2.129511, 43.337845 ], [ 2.129481, 43.33713 ], [ 2.135021, 43.331138 ], [ 2.136308, 43.331156 ], [ 2.136316627144348, 43.330535018149909 ], [ 2.129917, 43.33222 ], [ 2.127909, 43.337604 ], [ 2.128091791727402, 43.339257713077444 ], [ 2.129119, 43.339135 ], [ 2.129402, 43.338357 ], [ 2.129511, 43.337845 ] ] ], [ [ [ 2.12571, 43.290389 ], [ 2.118969, 43.286734 ], [ 2.115477, 43.285857 ], [ 2.107602, 43.28718 ], [ 2.09918, 43.287528 ], [ 2.097646617510077, 43.283587039188859 ], [ 2.092987, 43.286464 ], [ 2.091289, 43.286995 ], [ 2.090656830746858, 43.287245090649741 ], [ 2.093668, 43.289278 ], [ 2.094793, 43.290504 ], [ 2.094872, 43.29079 ], [ 2.09991, 43.297897 ], [ 2.103383, 43.297333 ], [ 2.104129, 43.29738 ], [ 2.104815, 43.297406 ], [ 2.104591, 43.298027 ], [ 2.104632, 43.301001 ], [ 2.11222, 43.302858 ], [ 2.112829, 43.302464 ], [ 2.115659, 43.297581 ], [ 2.117458, 43.291846 ], [ 2.118613, 43.288436 ], [ 2.118743, 43.28848 ], [ 2.119403, 43.288722 ], [ 2.123506, 43.29031 ], [ 2.126124, 43.295418 ], [ 2.12837, 43.297995 ], [ 2.131812135067972, 43.297866289289601 ], [ 2.132543, 43.293141 ], [ 2.132416337327425, 43.290256349055269 ], [ 2.126477, 43.290601 ], [ 2.12571, 43.290389 ] ] ], [ [ [ 2.065427, 43.280181 ], [ 2.061927, 43.28102 ], [ 2.055341, 43.276306 ], [ 2.052839742736873, 43.274773088988105 ], [ 2.052447172243078, 43.276023997141834 ], [ 2.053523, 43.276872 ], [ 2.059218, 43.283066 ], [ 2.062908, 43.283076 ], [ 2.066414, 43.282259 ], [ 2.068786364237758, 43.281981825556556 ], [ 2.069069774731, 43.281268757782669 ], [ 2.065782, 43.280501 ], [ 2.065483, 43.280206 ], [ 2.065427, 43.280181 ] ] ], [ [ [ 2.034259757728318, 43.286557595434857 ], [ 2.034701054146408, 43.286944878221384 ], [ 2.041143, 43.283235 ], [ 2.041173, 43.282429 ], [ 2.041787, 43.281405 ], [ 2.043248378528761, 43.278783652264046 ], [ 2.041231165438835, 43.277333614087219 ], [ 2.04108, 43.27827 ], [ 2.038224, 43.280461 ], [ 2.034259757728318, 43.286557595434857 ] ] ], [ [ [ 2.02029305482483, 43.277982737149451 ], [ 2.018562378816517, 43.278666763753861 ], [ 2.01958, 43.284974 ], [ 2.022451453887937, 43.28559476199684 ], [ 2.024302, 43.285847 ], [ 2.024454488776928, 43.285884172348325 ], [ 2.024479, 43.285885 ], [ 2.029299, 43.285867 ], [ 2.029779983367212, 43.28587084786696 ], [ 2.028139, 43.285134 ], [ 2.025088, 43.285141 ], [ 2.02389, 43.28528 ], [ 2.020604693112743, 43.277964753076724 ], [ 2.02029305482483, 43.277982737149451 ] ] ] ] } },
{ "type": "Feature", "properties": { "codgeo": "11361", "value": 780, "isochrone_group": 13.0, "nb_agences": 1 }, "geometry": { "type": "MultiPolygon", "coordinates": [ [ [ [ 1.946686, 43.370361 ], [ 1.945667460100801, 43.370794763048544 ], [ 1.945693, 43.370808 ], [ 1.946686, 43.370361 ] ] ], [ [ [ 1.967934, 43.400015 ], [ 1.969736, 43.399352 ], [ 1.978341, 43.401833 ], [ 1.9813, 43.403884 ], [ 1.981908, 43.403007 ], [ 1.982587, 43.401929 ], [ 1.982878, 43.401272 ], [ 1.983011, 43.400507 ], [ 1.988516, 43.393777 ], [ 1.989129, 43.393663 ], [ 1.992686, 43.393477 ], [ 1.998701, 43.393939 ], [ 2.000002, 43.394052 ], [ 2.000052, 43.394056 ], [ 2.000686, 43.392693 ], [ 2.00121973337799, 43.388541281386374 ], [ 1.999777, 43.389617 ], [ 1.999007, 43.390339 ], [ 1.99632, 43.388584 ], [ 1.988356, 43.389116 ], [ 1.98587, 43.39172 ], [ 1.98163, 43.3951 ], [ 1.978111, 43.395859 ], [ 1.971799, 43.397802 ], [ 1.967597681259766, 43.399988356180202 ], [ 1.967487897099985, 43.400333142175477 ], [ 1.967934, 43.400015 ] ] ], [ [ [ 1.958582, 43.399558 ], [ 1.959706725181431, 43.393690301754965 ], [ 1.958968714331788, 43.393320512435331 ], [ 1.957054, 43.400035 ], [ 1.956901017816062, 43.400096634168342 ], [ 1.95927, 43.401189 ], [ 1.959475271456143, 43.400897683530879 ], [ 1.958582, 43.399558 ] ] ], [ [ [ 2.020546, 43.367137 ], [ 2.022292, 43.364795 ], [ 2.023188113294085, 43.363442265595793 ], [ 2.020421, 43.364872 ], [ 2.019475, 43.367687 ], [ 2.018722, 43.368959 ], [ 2.017673, 43.369511 ], [ 2.01237, 43.37268 ], [ 2.009344, 43.37463 ], [ 2.00834, 43.381502 ], [ 2.008436, 43.381855 ], [ 2.008331, 43.38309 ], [ 2.009379, 43.380196 ], [ 2.01585, 43.374613 ], [ 2.019962, 43.370689 ], [ 2.020546, 43.367137 ] ] ], [ [ [ 2.031636, 43.364786 ], [ 2.028211, 43.360847 ], [ 2.025453992359524, 43.362271512933624 ], [ 2.031636, 43.364786 ] ] ], [ [ [ 2.033109, 43.375615 ], [ 2.037012, 43.37407 ], [ 2.034042, 43.374164 ], [ 2.033557, 43.374218 ], [ 2.033351, 43.37421 ], [ 2.03246, 43.370722 ], [ 2.031636, 43.364786 ], [ 2.030193, 43.372268 ], [ 2.030076, 43.373307 ], [ 2.030165, 43.374136 ], [ 2.033109, 43.375615 ] ] ], [ [ [ 2.051036, 43.396279 ], [ 2.057746, 43.401593 ], [ 2.05824, 43.401953 ], [ 2.058731, 43.40221 ], [ 2.060113929561682, 43.402822643905992 ], [ 2.061748, 43.402765 ], [ 2.062149958376218, 43.403674099541817 ], [ 2.063979, 43.400628 ], [ 2.062251, 43.399193 ], [ 2.058765, 43.39288 ], [ 2.057346, 43.389571 ], [ 2.056282, 43.388134 ], [ 2.056661, 43.38893 ], [ 2.057255, 43.390188 ], [ 2.057144, 43.391238 ], [ 2.056599, 43.394871 ], [ 2.055092, 43.398141 ], [ 2.052083, 43.396866 ], [ 2.05071, 43.391717 ], [ 2.050923, 43.384678 ], [ 2.047678, 43.379505 ], [ 2.047302, 43.379062 ], [ 2.048251, 43.38793 ], [ 2.047385, 43.3898 ], [ 2.045805, 43.393035 ], [ 2.051036, 43.396279 ] ] ], [ [ [ 2.077841, 43.392178 ], [ 2.080921, 43.393296 ], [ 2.081378, 43.393501 ], [ 2.082885, 43.394033 ], [ 2.084908, 43.39477 ], [ 2.086404, 43.391496 ], [ 2.083025, 43.388849 ], [ 2.080076, 43.386388 ], [ 2.079884, 43.379046 ], [ 2.086611, 43.373318 ], [ 2.091226, 43.374474 ], [ 2.091682, 43.374609 ], [ 2.092865, 43.374839 ], [ 2.093738, 43.372979 ], [ 2.093552, 43.371306 ], [ 2.092222, 43.366913 ], [ 2.092191, 43.368063 ], [ 2.091879, 43.368678 ], [ 2.0911, 43.370438 ], [ 2.090253, 43.371364 ], [ 2.09002, 43.371542 ], [ 2.087983, 43.370717 ], [ 2.087353, 43.369892 ], [ 2.087368, 43.369749 ], [ 2.0864, 43.365202 ], [ 2.078762, 43.363333 ], [ 2.077368, 43.364492 ], [ 2.07601, 43.370627 ], [ 2.075155, 43.375221 ], [ 2.075621, 43.378265 ], [ 2.075157, 43.385169 ], [ 2.077094, 43.387567 ], [ 2.077797, 43.388115 ], [ 2.075585970637152, 43.390952471030523 ], [ 2.075681, 43.391026 ], [ 2.076885, 43.391835 ], [ 2.077408, 43.392068 ], [ 2.077841, 43.392178 ] ] ], [ [ [ 2.102759, 43.362363 ], [ 2.102396, 43.362162 ], [ 2.098261, 43.355504 ], [ 2.092067, 43.358308 ], [ 2.091492, 43.35962 ], [ 2.091068, 43.360457 ], [ 2.099902, 43.361256 ], [ 2.100331, 43.361597 ], [ 2.101635, 43.361979 ], [ 2.102759, 43.362363 ] ] ], [ [ [ 2.113728, 43.36922 ], [ 2.114097, 43.369695 ], [ 2.114589, 43.370364 ], [ 2.115654, 43.371611 ], [ 2.116276, 43.372139 ], [ 2.118798, 43.373527 ], [ 2.119342, 43.373556 ], [ 2.120477, 43.37303 ], [ 2.120564, 43.372861 ], [ 2.120746, 43.371729 ], [ 2.120523, 43.370961 ], [ 2.119537, 43.369962 ], [ 2.117194, 43.362022 ], [ 2.122012, 43.359055 ], [ 2.123454, 43.355184 ], [ 2.122567, 43.355603 ], [ 2.122188, 43.355698 ], [ 2.116757, 43.359702 ], [ 2.115489, 43.365412 ], [ 2.112012, 43.366345 ], [ 2.104172, 43.362563 ], [ 2.112098, 43.3666 ], [ 2.112318, 43.367079 ], [ 2.112731, 43.36767 ], [ 2.113728, 43.36922 ] ] ], [ [ [ 2.129956, 43.351354 ], [ 2.129853, 43.351257 ], [ 2.1295, 43.350751 ], [ 2.129619, 43.350411 ], [ 2.128485, 43.342031 ], [ 2.12787, 43.341463 ], [ 2.125650115060724, 43.339867637720339 ], [ 2.126435, 43.348068 ], [ 2.129316, 43.348687 ], [ 2.128559, 43.352207 ], [ 2.123454, 43.355184 ], [ 2.130025, 43.353051 ], [ 2.130466, 43.353078 ], [ 2.132724899520881, 43.353475584084784 ], [ 2.129956, 43.351354 ] ] ], [ [ [ 2.112979473903712, 43.284031523332558 ], [ 2.108443859875189, 43.287038567540975 ], [ 2.114363672187433, 43.2860440390725 ], [ 2.112979473903712, 43.284031523332558 ] ] ], [ [ [ 2.103091, 43.285907 ], [ 2.102928159190457, 43.285786239184304 ], [ 2.102511778234493, 43.287390329752377 ], [ 2.107599789231181, 43.287180091349747 ], [ 2.106178, 43.28701 ], [ 2.105859, 43.286955 ], [ 2.103633, 43.286191 ], [ 2.103091, 43.285907 ] ] ], [ [ [ 2.064657, 43.277173 ], [ 2.061223, 43.278252 ], [ 2.061349, 43.278655 ], [ 2.061871, 43.280789 ], [ 2.061778131430392, 43.280913445727734 ], [ 2.061927, 43.28102 ], [ 2.065427, 43.280181 ], [ 2.065483, 43.280206 ], [ 2.065782, 43.280501 ], [ 2.070767585978521, 43.281665228923629 ], [ 2.072507, 43.279008 ], [ 2.071703, 43.27554 ], [ 2.069995717537359, 43.26996392149816 ], [ 2.067646, 43.271322 ], [ 2.064657, 43.277173 ] ] ], [ [ [ 2.027189, 43.284006 ], [ 2.031895, 43.286579 ], [ 2.033593, 43.287583 ], [ 2.038224, 43.280461 ], [ 2.040596736904673, 43.278640738600082 ], [ 2.039243429529332, 43.275795821631846 ], [ 2.037774, 43.274483 ], [ 2.035805, 43.274976 ], [ 2.031626, 43.278305 ], [ 2.029934, 43.279805 ], [ 2.029727, 43.279859 ], [ 2.028426, 43.279954 ], [ 2.027877, 43.278888 ], [ 2.027779456701736, 43.278773698610294 ], [ 2.026885944653475, 43.278590748726025 ], [ 2.027189, 43.284006 ] ] ] ] } },
{ "type": "Feature", "properties": { "codgeo": "11361", "value": 840, "isochrone_group": 14.0, "nb_agences": 1 }, "geometry": { "type": "MultiPolygon", "coordinates": [ [ [ [ 1.97114621683489, 43.399758594766695 ], [ 1.969736, 43.399352 ], [ 1.968317977595758, 43.399873725224197 ], [ 1.97114621683489, 43.399758594766695 ] ] ], [ [ [ 1.977901, 43.406575 ], [ 1.97912, 43.407472 ], [ 1.979836, 43.40785 ], [ 1.979842123240098, 43.407851564828007 ], [ 1.980823, 43.404388 ], [ 1.982171, 43.404616 ], [ 1.983091, 43.404793 ], [ 1.984296353005323, 43.404617404486999 ], [ 1.983011, 43.400507 ], [ 1.982878, 43.401272 ], [ 1.982587, 43.401929 ], [ 1.981908, 43.403007 ], [ 1.981307, 43.403874 ], [ 1.981306954553275, 43.403873968514432 ], [ 1.9813, 43.403884 ], [ 1.978341, 43.401833 ], [ 1.975140337191228, 43.400910182518487 ], [ 1.976562, 43.40431 ], [ 1.976648, 43.40512 ], [ 1.977032, 43.405818 ], [ 1.977428, 43.406217 ], [ 1.977901, 43.406575 ] ] ], [ [ [ 1.980376, 43.407988 ], [ 1.982996729215295, 43.408560382207085 ], [ 1.981639, 43.408177 ], [ 1.980239903467624, 43.407953219775059 ], [ 1.980376, 43.407988 ] ] ], [ [ [ 1.983462, 43.408662 ], [ 1.983609666000839, 43.408667293686825 ], [ 1.983018993429961, 43.408565244838556 ], [ 1.983462, 43.408662 ] ] ], [ [ [ 1.983992, 43.408681 ], [ 1.984729, 43.408619 ], [ 1.98472893064122, 43.408618178911084 ], [ 1.983801845338296, 43.408674183134778 ], [ 1.983992, 43.408681 ] ] ], [ [ [ 2.005781, 43.39362 ], [ 2.005885, 43.391977 ], [ 2.005834, 43.389801 ], [ 2.00962, 43.383552 ], [ 2.009671, 43.383509 ], [ 2.011538, 43.380495 ], [ 2.013887, 43.378028 ], [ 2.016819, 43.375939 ], [ 2.021492, 43.371447 ], [ 2.02962, 43.37484 ], [ 2.030181, 43.37543 ], [ 2.03119, 43.375923 ], [ 2.032065, 43.376044 ], [ 2.033090801895144, 43.375605857677634 ], [ 2.030165, 43.374136 ], [ 2.030076, 43.373307 ], [ 2.030193, 43.372268 ], [ 2.031636, 43.364786 ], [ 2.02428, 43.361794 ], [ 2.022292, 43.364795 ], [ 2.020546, 43.367137 ], [ 2.019962, 43.370689 ], [ 2.01585, 43.374613 ], [ 2.009379, 43.380196 ], [ 2.008331, 43.38309 ], [ 2.007277, 43.384166 ], [ 2.006727, 43.384435 ], [ 2.001332, 43.387668 ], [ 2.000686, 43.392693 ], [ 2.000052, 43.394056 ], [ 2.000002, 43.394052 ], [ 1.998701, 43.393939 ], [ 1.992686, 43.393477 ], [ 1.989129, 43.393663 ], [ 1.988516, 43.393777 ], [ 1.983011, 43.400507 ], [ 1.990155, 43.395582 ], [ 1.995781, 43.395451 ], [ 1.996298, 43.395537 ], [ 2.004979, 43.394148 ], [ 2.005781, 43.39362 ] ] ], [ [ [ 2.041345, 43.391027 ], [ 2.043223, 43.391773 ], [ 2.04580503377368, 43.39303493084946 ], [ 2.047385, 43.3898 ], [ 2.048251, 43.38793 ], [ 2.048007645972374, 43.385655960466792 ], [ 2.04813, 43.387939 ], [ 2.044071, 43.388191 ], [ 2.042581, 43.387646 ], [ 2.041345, 43.391027 ] ] ], [ [ [ 2.067368, 43.397691 ], [ 2.067319, 43.397601 ], [ 2.066699, 43.396934 ], [ 2.066074, 43.39663 ], [ 2.061368, 43.390293 ], [ 2.068351, 43.384744 ], [ 2.068055, 43.384428 ], [ 2.067739, 43.383978 ], [ 2.067304, 43.383193 ], [ 2.067134, 43.382825 ], [ 2.066963, 43.382139 ], [ 2.066365, 43.380445 ], [ 2.065937, 43.379743 ], [ 2.065586, 43.378938 ], [ 2.065221, 43.378213 ], [ 2.064655, 43.377247 ], [ 2.056458, 43.38056 ], [ 2.055932, 43.38172 ], [ 2.055576, 43.385713 ], [ 2.056282, 43.388134 ], [ 2.057346, 43.389571 ], [ 2.058765, 43.39288 ], [ 2.062251, 43.399193 ], [ 2.063940943323017, 43.400596396220209 ], [ 2.0641, 43.400701 ], [ 2.064862, 43.401326 ], [ 2.067006, 43.403022 ], [ 2.068552642020974, 43.403601095986573 ], [ 2.067368, 43.397691 ] ] ], [ [ [ 2.051036, 43.396279 ], [ 2.049666931546913, 43.395429973415823 ], [ 2.054446, 43.400504 ], [ 2.054812682214664, 43.400969814325045 ], [ 2.056222214143147, 43.400386234270741 ], [ 2.051036, 43.396279 ] ] ], [ [ [ 2.094364, 43.397742 ], [ 2.096316, 43.394717 ], [ 2.09545, 43.394158 ], [ 2.093759, 43.393057 ], [ 2.093134, 43.392628 ], [ 2.092577, 43.392342 ], [ 2.092116, 43.392222 ], [ 2.085659, 43.387479 ], [ 2.084425, 43.38813 ], [ 2.082597909843219, 43.388492584647061 ], [ 2.083025, 43.388849 ], [ 2.086404, 43.391496 ], [ 2.084908, 43.39477 ], [ 2.082885, 43.394033 ], [ 2.081378, 43.393501 ], [ 2.080921, 43.393296 ], [ 2.077841, 43.392178 ], [ 2.08278, 43.395445 ], [ 2.084605, 43.395331 ], [ 2.08766, 43.395555 ], [ 2.094364, 43.397742 ] ] ], [ [ [ 2.089681, 43.377212 ], [ 2.096413, 43.375629 ], [ 2.097153, 43.37576 ], [ 2.097875, 43.375841 ], [ 2.098106, 43.375865 ], [ 2.099928, 43.37276 ], [ 2.099589, 43.372561 ], [ 2.097053, 43.370839 ], [ 2.100573, 43.363398 ], [ 2.103349, 43.362569 ], [ 2.102759, 43.362363 ], [ 2.101635, 43.361979 ], [ 2.100331, 43.361597 ], [ 2.099902, 43.361256 ], [ 2.091068, 43.360457 ], [ 2.090979, 43.365107 ], [ 2.091343, 43.365731 ], [ 2.092222, 43.366913 ], [ 2.093552, 43.371306 ], [ 2.093738, 43.372979 ], [ 2.092865, 43.374839 ], [ 2.091682, 43.374609 ], [ 2.091226, 43.374474 ], [ 2.086611, 43.373318 ], [ 2.082694500443658, 43.376652875792892 ], [ 2.087867, 43.37605 ], [ 2.088654, 43.376683 ], [ 2.089232, 43.377003 ], [ 2.089681, 43.377212 ] ] ], [ [ [ 2.115088, 43.378314 ], [ 2.118914, 43.375264 ], [ 2.119376, 43.374828 ], [ 2.119814, 43.37421 ], [ 2.120467626337855, 43.373034344093654 ], [ 2.119342, 43.373556 ], [ 2.118798, 43.373527 ], [ 2.116276, 43.372139 ], [ 2.115654, 43.371611 ], [ 2.114589, 43.370364 ], [ 2.114097, 43.369695 ], [ 2.113728, 43.36922 ], [ 2.112731, 43.36767 ], [ 2.112318, 43.367079 ], [ 2.112839, 43.369276 ], [ 2.111583, 43.376509 ], [ 2.114143, 43.37904 ], [ 2.115088, 43.378314 ] ] ], [ [ [ 2.120564, 43.372861 ], [ 2.120907, 43.372053 ], [ 2.120523, 43.370961 ], [ 2.120746, 43.371729 ], [ 2.120564, 43.372861 ] ] ], [ [ [ 2.126933, 43.356276 ], [ 2.134076, 43.35562 ], [ 2.138142, 43.356979 ], [ 2.138246215989551, 43.357031464085843 ], [ 2.137692, 43.35661 ], [ 2.136687, 43.355917 ], [ 2.130187, 43.353069 ], [ 2.130116945945956, 43.353056629343627 ], [ 2.130025, 43.353051 ], [ 2.123454, 43.355184 ], [ 2.122012, 43.359055 ], [ 2.117194, 43.362022 ], [ 2.119537, 43.369962 ], [ 2.120523, 43.370961 ], [ 2.119886, 43.364096 ], [ 2.123811, 43.358747 ], [ 2.123901, 43.358671 ], [ 2.126933, 43.356276 ] ] ] ] } },
{ "type": "Feature", "properties": { "codgeo": "11361", "value": 900, "isochrone_group": 15.0, "nb_agences": 1 }, "geometry": { "type": "MultiPolygon", "coordinates": [ [ [ [ 1.992179, 43.396805 ], [ 1.996298, 43.395537 ], [ 1.995781, 43.395451 ], [ 1.990155, 43.395582 ], [ 1.983545239484896, 43.400138700803062 ], [ 1.988564, 43.40394 ], [ 1.989678, 43.403902 ], [ 1.992536949086769, 43.402745299584467 ], [ 1.992179, 43.396805 ] ] ], [ [ [ 2.006185, 43.394966 ], [ 2.007551, 43.394303 ], [ 2.007649, 43.394146 ], [ 2.007793, 43.393915 ], [ 2.008128, 43.393045 ], [ 2.007831, 43.390948 ], [ 2.008777888418828, 43.384941951207246 ], [ 2.005834, 43.389801 ], [ 2.005885, 43.391977 ], [ 2.005781, 43.39362 ], [ 2.004979, 43.394148 ], [ 1.997956525444736, 43.39527162828675 ], [ 1.997525, 43.395407 ], [ 1.996298, 43.395537 ], [ 2.004276, 43.394877 ], [ 2.004881, 43.395163 ], [ 2.005261, 43.39523 ], [ 2.005469, 43.395183 ], [ 2.006185, 43.394966 ] ] ], [ [ [ 2.018414, 43.378877 ], [ 2.018228, 43.378222 ], [ 2.017443, 43.376927 ], [ 2.017315, 43.376748 ], [ 2.016941, 43.376123 ], [ 2.016814630737654, 43.375942113024891 ], [ 2.013887, 43.378028 ], [ 2.011538, 43.380495 ], [ 2.010417926985028, 43.382303195001178 ], [ 2.010725, 43.38201 ], [ 2.016787, 43.380568 ], [ 2.017264, 43.380343 ], [ 2.018414, 43.378877 ] ] ], [ [ [ 2.026316746010584, 43.373461070277301 ], [ 2.026455, 43.373659 ], [ 2.030181, 43.37543 ], [ 2.02962, 43.37484 ], [ 2.026316746010584, 43.373461070277301 ] ] ], [ [ [ 2.040327, 43.387084 ], [ 2.03958, 43.386979 ], [ 2.038989, 43.386972 ], [ 2.038022, 43.387057 ], [ 2.03547, 43.387439 ], [ 2.036003, 43.390999 ], [ 2.043513, 43.394593 ], [ 2.043731, 43.394584 ], [ 2.0443, 43.394472 ], [ 2.049326, 43.395068 ], [ 2.047706, 43.393964 ], [ 2.043223, 43.391773 ], [ 2.041345, 43.391027 ], [ 2.042581, 43.387646 ], [ 2.044071, 43.388191 ], [ 2.04813, 43.387939 ], [ 2.047678, 43.379505 ], [ 2.045321, 43.388063 ], [ 2.042301, 43.387549 ], [ 2.041639, 43.387367 ], [ 2.040327, 43.387084 ] ] ], [ [ [ 2.049326, 43.395068 ], [ 2.049512550444559, 43.396811480010975 ], [ 2.050387980918718, 43.396195525053542 ], [ 2.049326, 43.395068 ] ] ], [ [ [ 2.068887, 43.399068 ], [ 2.06848, 43.398457 ], [ 2.067405, 43.39652 ], [ 2.062982527517285, 43.392467088584162 ], [ 2.066074, 43.39663 ], [ 2.066202, 43.396674 ], [ 2.066259789615213, 43.396720368068848 ], [ 2.066699, 43.396934 ], [ 2.067319, 43.397601 ], [ 2.067368, 43.397691 ], [ 2.067383543794826, 43.39776854690259 ], [ 2.069119007669103, 43.399471336409363 ], [ 2.068887, 43.399068 ] ] ], [ [ [ 2.061368, 43.390293 ], [ 2.062133142505694, 43.391323324704324 ], [ 2.061936, 43.390818 ], [ 2.068754, 43.385091 ], [ 2.068351, 43.384744 ], [ 2.061368, 43.390293 ] ] ], [ [ [ 2.082645, 43.39546 ], [ 2.088639778425462, 43.399001424941382 ], [ 2.089909, 43.397421 ], [ 2.090346, 43.39694 ], [ 2.090801, 43.396655 ], [ 2.09089872642181, 43.396611547536473 ], [ 2.08766, 43.395555 ], [ 2.084605, 43.395331 ], [ 2.08278, 43.395445 ], [ 2.077841, 43.392178 ], [ 2.077408, 43.392068 ], [ 2.076885, 43.391835 ], [ 2.075681, 43.391026 ], [ 2.078628, 43.395689 ], [ 2.080709, 43.395429 ], [ 2.081706, 43.395507 ], [ 2.082645, 43.39546 ] ] ], [ [ [ 2.094094, 43.402198 ], [ 2.100837, 43.397501 ], [ 2.103638, 43.397051 ], [ 2.10438, 43.396895 ], [ 2.104937, 43.396728 ], [ 2.106062, 43.396336 ], [ 2.106853, 43.396025 ], [ 2.107418, 43.395757 ], [ 2.108479, 43.395211 ], [ 2.106832, 43.39201 ], [ 2.110631, 43.384434 ], [ 2.115088, 43.378314 ], [ 2.114143, 43.37904 ], [ 2.111583, 43.376509 ], [ 2.112839, 43.369276 ], [ 2.112318, 43.367079 ], [ 2.112098, 43.3666 ], [ 2.104172, 43.362563 ], [ 2.103349, 43.362569 ], [ 2.100573, 43.363398 ], [ 2.097053, 43.370839 ], [ 2.099589, 43.372561 ], [ 2.099928, 43.37276 ], [ 2.098106, 43.375865 ], [ 2.097875, 43.375841 ], [ 2.097153, 43.37576 ], [ 2.096413, 43.375629 ], [ 2.089681, 43.377212 ], [ 2.089232, 43.377003 ], [ 2.088654, 43.376683 ], [ 2.087867, 43.37605 ], [ 2.078987, 43.377085 ], [ 2.078428, 43.378941 ], [ 2.077094, 43.387567 ], [ 2.077715, 43.388055 ], [ 2.080298, 43.388949 ], [ 2.084425, 43.38813 ], [ 2.085659, 43.387479 ], [ 2.092116, 43.392222 ], [ 2.092577, 43.392342 ], [ 2.093134, 43.392628 ], [ 2.093759, 43.393057 ], [ 2.09545, 43.394158 ], [ 2.096316, 43.394717 ], [ 2.094364, 43.397742 ], [ 2.092075331981404, 43.396995383508859 ], [ 2.094075, 43.398745 ], [ 2.094413, 43.399199 ], [ 2.094671, 43.39981 ], [ 2.094754, 43.400372 ], [ 2.094722, 43.400878 ], [ 2.094574, 43.401414 ], [ 2.094328, 43.401892 ], [ 2.094021983855242, 43.402267524236642 ], [ 2.094094, 43.402198 ] ] ], [ [ [ 2.123901, 43.358671 ], [ 2.123811, 43.358747 ], [ 2.119886, 43.364096 ], [ 2.120523, 43.370961 ], [ 2.120033, 43.364092 ], [ 2.122891, 43.361904 ], [ 2.124140480407207, 43.358481832593895 ], [ 2.123901, 43.358671 ] ] ] ] } },
{ "type": "Feature", "properties": { "codgeo": "11361", "value": 960, "isochrone_group": 16.0, "nb_agences": 1 }, "geometry": { "type": "MultiPolygon", "coordinates": [ [ [ [ 2.013258, 43.389901 ], [ 2.015201, 43.38142 ], [ 2.01869, 43.380536 ], [ 2.018647, 43.380205 ], [ 2.01853, 43.379326 ], [ 2.018408940175155, 43.378883450176723 ], [ 2.017264, 43.380343 ], [ 2.016787, 43.380568 ], [ 2.010725, 43.38201 ], [ 2.008977, 43.383679 ], [ 2.007831, 43.390948 ], [ 2.008128, 43.393045 ], [ 2.007793, 43.393915 ], [ 2.007649, 43.394146 ], [ 2.007551, 43.394303 ], [ 2.006185, 43.394966 ], [ 2.005469, 43.395183 ], [ 2.005261, 43.39523 ], [ 2.004881, 43.395163 ], [ 2.004276, 43.394877 ], [ 1.996298, 43.395537 ], [ 2.000652, 43.396825 ], [ 2.0016650333943, 43.397894926986943 ], [ 2.002163, 43.398152 ], [ 2.002312, 43.398288 ], [ 2.002362369188697, 43.39863142628657 ], [ 2.003127, 43.399439 ], [ 2.004638, 43.398648 ], [ 2.007076, 43.397317 ], [ 2.013622, 43.393482 ], [ 2.013258, 43.389901 ] ] ], [ [ [ 2.041639, 43.387367 ], [ 2.042301, 43.387549 ], [ 2.045321, 43.388063 ], [ 2.047678, 43.379505 ], [ 2.047302, 43.379062 ], [ 2.04359, 43.386559 ], [ 2.041766, 43.386803 ], [ 2.03958, 43.386979 ], [ 2.040327, 43.387084 ], [ 2.041639, 43.387367 ] ] ], [ [ [ 2.03005, 43.391247 ], [ 2.032015, 43.391163 ], [ 2.033979, 43.391079 ], [ 2.034869, 43.391107 ], [ 2.035536, 43.391064 ], [ 2.036002389509659, 43.390994922428483 ], [ 2.035470609613145, 43.387443071712568 ], [ 2.035253, 43.387476 ], [ 2.033826, 43.387483 ], [ 2.031862, 43.387566 ], [ 2.029897, 43.38765 ], [ 2.03005, 43.391247 ] ] ], [ [ [ 2.0443, 43.394472 ], [ 2.044157913141163, 43.39449996788786 ], [ 2.044613969147718, 43.395830198505202 ], [ 2.046348550273748, 43.394714923987912 ], [ 2.0443, 43.394472 ] ] ], [ [ [ 2.082645, 43.39546 ], [ 2.081706, 43.395507 ], [ 2.080709, 43.395429 ], [ 2.078628, 43.395689 ], [ 2.075681, 43.391026 ], [ 2.074881, 43.390407 ], [ 2.073814, 43.38963 ], [ 2.073029, 43.388845 ], [ 2.071767, 43.387963 ], [ 2.071109, 43.387389 ], [ 2.069809, 43.385808 ], [ 2.068754, 43.385091 ], [ 2.061936, 43.390818 ], [ 2.062355, 43.391892 ], [ 2.067405, 43.39652 ], [ 2.067566140410113, 43.396810352534324 ], [ 2.073795, 43.399668 ], [ 2.07667, 43.401835 ], [ 2.08538, 43.403578 ], [ 2.086319, 43.403011 ], [ 2.08694, 43.402522 ], [ 2.089067503052848, 43.399254103948998 ], [ 2.082645, 43.39546 ] ] ], [ [ [ 2.112847, 43.384228 ], [ 2.115471613253405, 43.378004921831973 ], [ 2.115088, 43.378314 ], [ 2.110631, 43.384434 ], [ 2.106832, 43.39201 ], [ 2.108479, 43.395211 ], [ 2.107418, 43.395757 ], [ 2.106853, 43.396025 ], [ 2.115737, 43.395645 ], [ 2.118256, 43.393074 ], [ 2.117046, 43.391888 ], [ 2.116561, 43.391508 ], [ 2.112847, 43.384228 ] ] ], [ [ [ 2.130893469007987, 43.353153237907989 ], [ 2.130466, 43.353078 ], [ 2.128316538749474, 43.354350722598902 ], [ 2.133447912808756, 43.355239865359991 ], [ 2.130893469007987, 43.353153237907989 ] ] ] ] } },
{ "type": "Feature", "properties": { "codgeo": "11361", "value": 1020, "isochrone_group": 17.0, "nb_agences": 1 }, "geometry": { "type": "MultiPolygon", "coordinates": [ [ [ [ 2.005986, 43.399057 ], [ 2.006924, 43.398786 ], [ 2.008745, 43.397903 ], [ 2.009337, 43.397542 ], [ 2.014656, 43.393245 ], [ 2.018138, 43.392117 ], [ 2.024874, 43.391448 ], [ 2.027251, 43.391356 ], [ 2.029629, 43.391265 ], [ 2.031808, 43.391172 ], [ 2.033979, 43.391079 ], [ 2.032015, 43.391163 ], [ 2.03005, 43.391247 ], [ 2.029897, 43.38765 ], [ 2.031862, 43.387566 ], [ 2.033826, 43.387483 ], [ 2.035253, 43.387476 ], [ 2.038022, 43.387057 ], [ 2.038989, 43.386972 ], [ 2.03958, 43.386979 ], [ 2.041766, 43.386803 ], [ 2.04359, 43.386559 ], [ 2.047302, 43.379062 ], [ 2.04612, 43.376869 ], [ 2.038207, 43.373668 ], [ 2.037012, 43.37407 ], [ 2.033149, 43.375581 ], [ 2.032065, 43.376044 ], [ 2.03119, 43.375923 ], [ 2.030181, 43.37543 ], [ 2.02962, 43.37484 ], [ 2.027276, 43.372843 ], [ 2.026543, 43.372134 ], [ 2.02594, 43.371067 ], [ 2.025474, 43.370182 ], [ 2.01759, 43.367308 ], [ 2.016489, 43.375476 ], [ 2.016941, 43.376123 ], [ 2.017315, 43.376748 ], [ 2.017443, 43.376927 ], [ 2.018228, 43.378222 ], [ 2.01853, 43.379326 ], [ 2.018647, 43.380205 ], [ 2.01869, 43.380536 ], [ 2.015201, 43.38142 ], [ 2.013258, 43.389901 ], [ 2.013622, 43.393482 ], [ 2.007076, 43.397317 ], [ 2.006099756466705, 43.397849969705831 ], [ 2.005302522608756, 43.399588434901084 ], [ 2.005986, 43.399057 ] ] ], [ [ [ 2.041327, 43.391015 ], [ 2.040872, 43.390884 ], [ 2.038554, 43.390617 ], [ 2.039754058318849, 43.393503875890794 ], [ 2.041396, 43.391046 ], [ 2.041397775935718, 43.391041142039924 ], [ 2.041327, 43.391015 ] ] ], [ [ [ 2.124489, 43.396436 ], [ 2.124128, 43.396317 ], [ 2.123697, 43.3961 ], [ 2.123102, 43.395742 ], [ 2.124689801570247, 43.392511403732072 ], [ 2.124689, 43.392511 ], [ 2.124253, 43.392345 ], [ 2.122881, 43.391692 ], [ 2.122335, 43.391371 ], [ 2.121791, 43.391155 ], [ 2.121279, 43.391021 ], [ 2.120834, 43.390948 ], [ 2.120223, 43.390914 ], [ 2.119651, 43.390934 ], [ 2.119046, 43.391018 ], [ 2.116283542867073, 43.390964142184252 ], [ 2.116561, 43.391508 ], [ 2.117046, 43.391888 ], [ 2.118256, 43.393074 ], [ 2.115737, 43.395645 ], [ 2.110226043311905, 43.395880723046069 ], [ 2.116383, 43.396152 ], [ 2.124832, 43.396499 ], [ 2.125033, 43.396516 ], [ 2.125033015069385, 43.396515855423011 ], [ 2.124489, 43.396436 ] ] ], [ [ [ 2.126013, 43.355571 ], [ 2.125131, 43.356229 ], [ 2.124187, 43.356754 ], [ 2.122811, 43.357625 ], [ 2.122435, 43.357859 ], [ 2.126247, 43.357458 ], [ 2.131030911818148, 43.354929172886216 ], [ 2.13094596851781, 43.354806339051194 ], [ 2.127666, 43.354238 ], [ 2.126013, 43.355571 ] ] ] ] } },
{ "type": "Feature", "properties": { "codgeo": "11361", "value": 1080, "isochrone_group": 18.0, "nb_agences": 1 }, "geometry": { "type": "MultiPolygon", "coordinates": [ [ [ [ 2.012611, 43.396731 ], [ 2.013325, 43.396271 ], [ 2.014089, 43.395475 ], [ 2.01858270161452, 43.392072833524331 ], [ 2.018138, 43.392117 ], [ 2.014656, 43.393245 ], [ 2.009337, 43.397542 ], [ 2.008745, 43.397903 ], [ 2.007999601670295, 43.398264442463002 ], [ 2.008310010632469, 43.400461515367972 ], [ 2.012611, 43.396731 ] ] ], [ [ [ 2.025755, 43.391414 ], [ 2.029629, 43.391265 ], [ 2.027251, 43.391356 ], [ 2.025753456666337, 43.391413961290148 ], [ 2.025755, 43.391414 ] ] ], [ [ [ 2.035536, 43.391064 ], [ 2.034869, 43.391107 ], [ 2.033979, 43.391079 ], [ 2.037336, 43.399285 ], [ 2.038099, 43.400345 ], [ 2.038233, 43.400518 ], [ 2.041064, 43.398293 ], [ 2.036092, 43.390986 ], [ 2.036091364209531, 43.390981744267179 ], [ 2.035536, 43.391064 ] ] ], [ [ [ 2.133041372757052, 43.3882123450907 ], [ 2.133068, 43.388191 ], [ 2.133069509282463, 43.388188827559851 ], [ 2.133041372757052, 43.3882123450907 ] ] ], [ [ [ 2.131802958800306, 43.389202453154887 ], [ 2.131838, 43.389177 ], [ 2.132970747439864, 43.388268960182351 ], [ 2.131802958800306, 43.389202453154887 ] ] ], [ [ [ 2.129292632245254, 43.391022179545992 ], [ 2.129298, 43.391022 ], [ 2.130815763927006, 43.389919529745931 ], [ 2.129292632245254, 43.391022179545992 ] ] ], [ [ [ 1.93803, 43.261733 ], [ 1.938788117363063, 43.261800569849427 ], [ 1.93778, 43.261138 ], [ 1.937442, 43.260782 ], [ 1.936908, 43.260359 ], [ 1.936189601081852, 43.259937869599725 ], [ 1.936203483778415, 43.260280528580878 ], [ 1.936745, 43.260701 ], [ 1.93803, 43.261733 ] ] ] ] } },
{ "type": "Feature", "properties": { "codgeo": "11361", "value": 1140, "isochrone_group": 19.0, "nb_agences": 1 }, "geometry": { "type": "MultiPolygon", "coordinates": [ [ [ [ 2.007874, 43.40876 ], [ 2.007152, 43.408883 ], [ 2.006775, 43.408976 ], [ 2.006255, 43.409151 ], [ 2.007197, 43.409126 ], [ 2.008952, 43.41038 ], [ 2.009864758755131, 43.410535398554401 ], [ 2.007874, 43.40876 ] ] ], [ [ [ 2.004929187322445, 43.409662901867549 ], [ 2.004929187322445, 43.409662901867563 ], [ 2.006255, 43.409151 ], [ 2.004929187322445, 43.409662901867549 ] ] ], [ [ [ 2.020222, 43.391717 ], [ 2.018889, 43.39203 ], [ 2.018486792892971, 43.392145445696904 ], [ 2.014089, 43.395475 ], [ 2.013325, 43.396271 ], [ 2.012611, 43.396731 ], [ 2.014752, 43.396809 ], [ 2.017385, 43.394354 ], [ 2.025755, 43.391414 ], [ 2.020117907655072, 43.391272610634637 ], [ 2.020222, 43.391717 ] ] ], [ [ [ 2.033979, 43.391079 ], [ 2.031808, 43.391172 ], [ 2.029629, 43.391265 ], [ 2.035403, 43.397387 ], [ 2.036603, 43.398458 ], [ 2.038099, 43.400345 ], [ 2.037336, 43.399285 ], [ 2.033979, 43.391079 ] ] ], [ [ [ 2.038099, 43.400345 ], [ 2.038144822727149, 43.401024024042279 ], [ 2.038233, 43.400518 ], [ 2.038099, 43.400345 ] ] ], [ [ [ 2.137534361456535, 43.381711562077214 ], [ 2.138592, 43.380775 ], [ 2.139390498272424, 43.380137624282568 ], [ 2.13939, 43.380137 ], [ 2.138611, 43.380759 ], [ 2.137724, 43.381487 ], [ 2.137534361456535, 43.381711562077214 ] ] ], [ [ [ 2.137219, 43.382085 ], [ 2.137147416526126, 43.38220987689715 ], [ 2.137277623565706, 43.382015580411299 ], [ 2.137219, 43.382085 ] ] ], [ [ [ 2.136992, 43.382481 ], [ 2.136965848004379, 43.382547154985126 ], [ 2.137031242615693, 43.382412541516231 ], [ 2.136992, 43.382481 ] ] ], [ [ [ 2.136199, 43.384487 ], [ 2.1330373960739, 43.388215532903359 ], [ 2.133041372757052, 43.3882123450907 ], [ 2.133070623847181, 43.388187895966155 ], [ 2.136199, 43.384487 ] ] ] ] } },
{ "type": "Feature", "properties": { "codgeo": "11361", "value": 1200, "isochrone_group": 20.0, "nb_agences": 1 }, "geometry": { "type": "MultiPolygon", "coordinates": [ [ [ [ 2.009475, 43.408657 ], [ 2.008080447255953, 43.408944113800253 ], [ 2.009864758755133, 43.410535398554401 ], [ 2.01342946706385, 43.411142295519248 ], [ 2.011831, 43.409355 ], [ 2.010136, 43.408893 ], [ 2.009475, 43.408657 ] ] ], [ [ [ 2.025754958399266, 43.391414029548585 ], [ 2.025754910686649, 43.391414031371717 ], [ 2.017385, 43.394354 ], [ 2.014752, 43.396809 ], [ 2.012611, 43.396731 ], [ 2.011766887188818, 43.397713635844852 ], [ 2.016187, 43.398105 ], [ 2.016956, 43.398214 ], [ 2.017618, 43.39808 ], [ 2.018533, 43.397441 ], [ 2.018962, 43.396239 ], [ 2.025754958399266, 43.391414029548585 ] ] ], [ [ [ 2.038130891270993, 43.40081758077141 ], [ 2.037022, 43.404071 ], [ 2.035447178640058, 43.406079765831947 ], [ 2.037192, 43.406492 ], [ 2.038144822727149, 43.401024024042279 ], [ 2.038130891270993, 43.40081758077141 ] ] ], [ [ [ 2.140820079102088, 43.384314857758511 ], [ 2.139611132078397, 43.386335680833518 ], [ 2.139628657136802, 43.386501839469986 ], [ 2.142745, 43.382066 ], [ 2.140820079102088, 43.384314857758511 ] ] ] ] } }
]
}
