{
"type": "FeatureCollection",
"name": "Credit_Agricole",
"crs": { "type": "name", "properties": { "name": "urn:ogc:def:crs:OGC:1.3:CRS84" } },
"features": [
{ "type": "Feature", "properties": { "codgeo": "66224", "value": 60, "isochrone_group": 1.0, "nb_agences": 1 }, "geometry": { "type": "Polygon", "coordinates": [ [ [ 2.9815, 42.725639 ], [ 2.981578, 42.725101 ], [ 2.982451, 42.724315 ], [ 2.98317, 42.724228 ], [ 2.984879, 42.724665 ], [ 2.98574, 42.725358 ], [ 2.986958, 42.726383 ], [ 2.987824, 42.727348 ], [ 2.987824, 42.727351 ], [ 2.986761, 42.729059 ], [ 2.986461, 42.729258 ], [ 2.985013, 42.728516 ], [ 2.981453, 42.725996 ], [ 2.9815, 42.725639 ] ] ] } },
{ "type": "Feature", "properties": { "codgeo": "66224", "value": 120, "isochrone_group": 2.0, "nb_agences": 1 }, "geometry": { "type": "Polygon", "coordinates": [ [ [ 2.978171, 42.726621 ], [ 2.980325, 42.728268 ], [ 2.98066, 42.728401 ], [ 2.983206, 42.729551 ], [ 2.986236, 42.732204 ], [ 2.989121, 42.737135 ], [ 2.989479, 42.737094 ], [ 2.99141, 42.734118 ], [ 2.991534, 42.73378 ], [ 2.991507, 42.728487 ], [ 2.993685, 42.727472 ], [ 2.994386, 42.727458 ], [ 2.994378, 42.727098 ], [ 2.989775, 42.724499 ], [ 2.986767, 42.722597 ], [ 2.983491, 42.720624 ], [ 2.982917, 42.720358 ], [ 2.982558, 42.720395 ], [ 2.982289, 42.720682 ], [ 2.980221, 42.723706 ], [ 2.978186, 42.726261 ], [ 2.978171, 42.726621 ] ], [ [ 2.981578, 42.725101 ], [ 2.982451, 42.724315 ], [ 2.98317, 42.724228 ], [ 2.984879, 42.724665 ], [ 2.98574, 42.725358 ], [ 2.986958, 42.726383 ], [ 2.987824, 42.727348 ], [ 2.987824, 42.727351 ], [ 2.986761, 42.729059 ], [ 2.986461, 42.729258 ], [ 2.985013, 42.728516 ], [ 2.981453, 42.725996 ], [ 2.9815, 42.725639 ], [ 2.981578, 42.725101 ] ] ] } },
{ "type": "Feature", "properties": { "codgeo": "66224", "value": 180, "isochrone_group": 3.0, "nb_agences": 1 }, "geometry": { "type": "Polygon", "coordinates": [ [ [ 2.97475, 42.726561 ], [ 2.978023, 42.730016 ], [ 2.981237, 42.730668 ], [ 2.982247, 42.731059 ], [ 2.984133, 42.73194 ], [ 2.987639, 42.73831 ], [ 2.989095, 42.743058 ], [ 2.989165, 42.743579 ], [ 2.989384, 42.744896 ], [ 2.989734, 42.744981 ], [ 2.990265, 42.744606 ], [ 2.993098, 42.739919 ], [ 2.996066, 42.736173 ], [ 2.996311, 42.735136 ], [ 3.002407, 42.728949 ], [ 3.007274, 42.727245 ], [ 3.007267, 42.726885 ], [ 2.99887, 42.724113 ], [ 2.990935, 42.721325 ], [ 2.984427, 42.716404 ], [ 2.9816, 42.716324 ], [ 2.98124, 42.716338 ], [ 2.979597, 42.717553 ], [ 2.974803, 42.723052 ], [ 2.974634, 42.72337 ], [ 2.97475, 42.726561 ] ], [ [ 2.980221, 42.723706 ], [ 2.982289, 42.720682 ], [ 2.982558, 42.720395 ], [ 2.982917, 42.720358 ], [ 2.983491, 42.720624 ], [ 2.986767, 42.722597 ], [ 2.989775, 42.724499 ], [ 2.994378, 42.727098 ], [ 2.994386, 42.727458 ], [ 2.993685, 42.727472 ], [ 2.991507, 42.728487 ], [ 2.991534, 42.73378 ], [ 2.99141, 42.734118 ], [ 2.989479, 42.737094 ], [ 2.989121, 42.737135 ], [ 2.986236, 42.732204 ], [ 2.983206, 42.729551 ], [ 2.98066, 42.728401 ], [ 2.980325, 42.728268 ], [ 2.978171, 42.726621 ], [ 2.978186, 42.726261 ], [ 2.980221, 42.723706 ] ] ] } },
{ "type": "Feature", "properties": { "codgeo": "66224", "value": 240, "isochrone_group": 4.0, "nb_agences": 1 }, "geometry": { "type": "Polygon", "coordinates": [ [ [ 3.000205, 42.722669 ], [ 2.99975, 42.722598 ], [ 2.991827, 42.718904 ], [ 2.991667, 42.718562 ], [ 2.991506, 42.71822 ], [ 2.98944, 42.716101 ], [ 2.982262, 42.712293 ], [ 2.982061, 42.712592 ], [ 2.977062, 42.717971 ], [ 2.973858, 42.71943 ], [ 2.969451, 42.721741 ], [ 2.965891, 42.7258 ], [ 2.965876, 42.72616 ], [ 2.972191, 42.730824 ], [ 2.977722, 42.733357 ], [ 2.984598, 42.738106 ], [ 2.987987, 42.745555 ], [ 2.987112, 42.7472 ], [ 2.987069, 42.747557 ], [ 2.990708, 42.752205 ], [ 2.991051, 42.752314 ], [ 2.991137, 42.752041 ], [ 2.991223, 42.751769 ], [ 2.992152, 42.748662 ], [ 2.992064, 42.748296 ], [ 2.99194, 42.745169 ], [ 2.997166, 42.739537 ], [ 3.00288, 42.734807 ], [ 3.005622661048225, 42.732380126183671 ], [ 3.004184033947665, 42.728326837302887 ], [ 3.002407, 42.728949 ], [ 2.996311, 42.735136 ], [ 2.996066, 42.736173 ], [ 2.993098, 42.739919 ], [ 2.990265, 42.744606 ], [ 2.989734, 42.744981 ], [ 2.989384, 42.744896 ], [ 2.989165, 42.743579 ], [ 2.989095, 42.743058 ], [ 2.987639, 42.73831 ], [ 2.984133, 42.73194 ], [ 2.982247, 42.731059 ], [ 2.981237, 42.730668 ], [ 2.978023, 42.730016 ], [ 2.97475, 42.726561 ], [ 2.974634, 42.72337 ], [ 2.974803, 42.723052 ], [ 2.979597, 42.717553 ], [ 2.98124, 42.716338 ], [ 2.9816, 42.716324 ], [ 2.984427, 42.716404 ], [ 2.990935, 42.721325 ], [ 2.99887, 42.724113 ], [ 3.004329333035883, 42.72591522355313 ], [ 3.00066, 42.72274 ], [ 3.000205, 42.722669 ] ] ] } },
{ "type": "Feature", "properties": { "codgeo": "66224", "value": 300, "isochrone_group": 5.0, "nb_agences": 1 }, "geometry": { "type": "MultiPolygon", "coordinates": [ [ [ [ 2.972257, 42.716944 ], [ 2.972036, 42.716784 ], [ 2.970489, 42.715697 ], [ 2.970167, 42.715859 ], [ 2.96344, 42.720371 ], [ 2.957378, 42.725467 ], [ 2.954947, 42.725375 ], [ 2.952517, 42.725283 ], [ 2.952503, 42.725643 ], [ 2.958049, 42.726638 ], [ 2.958465, 42.726492 ], [ 2.958881, 42.726346 ], [ 2.961344, 42.725982 ], [ 2.968058, 42.73119 ], [ 2.968323, 42.731434 ], [ 2.974584, 42.736666 ], [ 2.97494, 42.736715 ], [ 2.980946, 42.73831 ], [ 2.981464, 42.738442 ], [ 2.982519, 42.738335 ], [ 2.983574, 42.738228 ], [ 2.984044, 42.738174 ], [ 2.985023869085389, 42.739042057485122 ], [ 2.984598, 42.738106 ], [ 2.977722, 42.733357 ], [ 2.972191, 42.730824 ], [ 2.965876, 42.72616 ], [ 2.965891, 42.7258 ], [ 2.969451, 42.721741 ], [ 2.973858, 42.71943 ], [ 2.977062, 42.717971 ], [ 2.972436, 42.71708 ], [ 2.972257, 42.716944 ] ] ], [ [ [ 2.98514, 42.747109 ], [ 2.984793, 42.747172 ], [ 2.984445, 42.747234 ], [ 2.984508, 42.747589 ], [ 2.986218, 42.752302 ], [ 2.990882, 42.7547 ], [ 2.99098, 42.754698 ], [ 2.991129, 42.754693 ], [ 2.991357, 42.754662 ], [ 2.993482, 42.753606 ], [ 2.993744, 42.753359 ], [ 2.994561, 42.749495 ], [ 2.992423406159072, 42.744648038750896 ], [ 2.99194, 42.745169 ], [ 2.992064, 42.748296 ], [ 2.992152, 42.748662 ], [ 2.991223, 42.751769 ], [ 2.991137, 42.752041 ], [ 2.991051, 42.752314 ], [ 2.990708, 42.752205 ], [ 2.987069, 42.747557 ], [ 2.987112, 42.7472 ], [ 2.987987, 42.745555 ], [ 2.98747185438892, 42.744422713290952 ], [ 2.98514, 42.747109 ] ] ], [ [ [ 2.998065, 42.739497 ], [ 2.999292, 42.739146 ], [ 2.999609, 42.739016 ], [ 2.999846, 42.738885 ], [ 3.003191933339926, 42.736620179481939 ], [ 3.001804636553805, 42.735697176601434 ], [ 2.997166, 42.739537 ], [ 2.996893580904375, 42.739830582921265 ], [ 2.998065, 42.739497 ] ] ], [ [ [ 3.003388, 42.723103 ], [ 3.003405587568601, 42.723095105237846 ], [ 3.00066, 42.72274 ], [ 3.001585626497616, 42.723540982365961 ], [ 3.003388, 42.723103 ] ] ], [ [ [ 2.99797, 42.720207 ], [ 2.996365, 42.714122 ], [ 2.99625, 42.713781 ], [ 2.995135, 42.714156 ], [ 2.99402, 42.714531 ], [ 2.99349, 42.714693 ], [ 2.992956, 42.714857 ], [ 2.992604, 42.714998 ], [ 2.984955701910034, 42.711667551124847 ], [ 2.984229, 42.712204 ], [ 2.983500030983165, 42.712949787682355 ], [ 2.98944, 42.716101 ], [ 2.991506, 42.71822 ], [ 2.991667, 42.718562 ], [ 2.991827, 42.718904 ], [ 2.99975, 42.722598 ], [ 3.000205, 42.722669 ], [ 3.00066, 42.72274 ], [ 2.99797, 42.720207 ] ] ], [ [ [ 2.979373, 42.712869 ], [ 2.977517604808855, 42.7128144660064 ], [ 2.977062, 42.717971 ], [ 2.98093675582886, 42.713801703820089 ], [ 2.979373, 42.712869 ] ] ] ] } },
{ "type": "Feature", "properties": { "codgeo": "66224", "value": 360, "isochrone_group": 6.0, "nb_agences": 1 }, "geometry": { "type": "MultiPolygon", "coordinates": [ [ [ [ 2.966212, 42.733486 ], [ 2.967095, 42.7337 ], [ 2.972402, 42.740901 ], [ 2.973684, 42.741067 ], [ 2.97818, 42.748024 ], [ 2.976433, 42.751171 ], [ 2.978156, 42.752151 ], [ 2.978772, 42.752319 ], [ 2.979217, 42.752416 ], [ 2.979629, 42.752463 ], [ 2.985281, 42.753677 ], [ 2.988724695631173, 42.755635664403911 ], [ 2.989204, 42.755393 ], [ 2.989445, 42.755355 ], [ 2.991665, 42.755621 ], [ 2.992622, 42.7558 ], [ 2.992714, 42.755842 ], [ 2.993035757803659, 42.757049601463933 ], [ 2.994298, 42.757031 ], [ 2.996163, 42.756048 ], [ 2.996211, 42.756012 ], [ 2.997474, 42.754787 ], [ 2.997982654768655, 42.753148875841752 ], [ 2.997907, 42.753174 ], [ 2.997001, 42.752552 ], [ 2.996631, 42.75217 ], [ 2.996151, 42.751001 ], [ 2.995992, 42.750126 ], [ 2.998654974763796, 42.744642403799546 ], [ 2.998883667147358, 42.743878890257825 ], [ 2.996474328362888, 42.740172740229596 ], [ 2.992116, 42.743951 ], [ 2.994561, 42.749495 ], [ 2.993744, 42.753359 ], [ 2.993482, 42.753606 ], [ 2.991357, 42.754662 ], [ 2.991129, 42.754693 ], [ 2.99098, 42.754698 ], [ 2.990882, 42.7547 ], [ 2.986218, 42.752302 ], [ 2.984508, 42.747589 ], [ 2.984445, 42.747234 ], [ 2.984793, 42.747172 ], [ 2.98514, 42.747109 ], [ 2.989048, 42.742607 ], [ 2.984044, 42.738174 ], [ 2.983574, 42.738228 ], [ 2.982519, 42.738335 ], [ 2.981464, 42.738442 ], [ 2.980946, 42.73831 ], [ 2.97494, 42.736715 ], [ 2.974584, 42.736666 ], [ 2.968323, 42.731434 ], [ 2.968058, 42.73119 ], [ 2.961344, 42.725982 ], [ 2.958881, 42.726346 ], [ 2.958465, 42.726492 ], [ 2.958049, 42.726638 ], [ 2.952503, 42.725643 ], [ 2.952517, 42.725283 ], [ 2.954947, 42.725375 ], [ 2.957378, 42.725467 ], [ 2.96344, 42.720371 ], [ 2.970167, 42.715859 ], [ 2.970489, 42.715697 ], [ 2.972036, 42.716784 ], [ 2.972257, 42.716944 ], [ 2.972436, 42.71708 ], [ 2.977062, 42.717971 ], [ 2.977279002146394, 42.715514970294386 ], [ 2.971888, 42.712649 ], [ 2.971071, 42.712878 ], [ 2.970293, 42.713066 ], [ 2.969656719756822, 42.713248128399528 ], [ 2.969179, 42.715008 ], [ 2.961047, 42.717188 ], [ 2.960578, 42.717067 ], [ 2.957477, 42.717648 ], [ 2.951899, 42.719813 ], [ 2.951188, 42.720039 ], [ 2.950688, 42.720276 ], [ 2.94624163155229, 42.72417963812179 ], [ 2.947204, 42.724667 ], [ 2.948, 42.725179 ], [ 2.948029, 42.725211 ], [ 2.949992069857093, 42.729994163622145 ], [ 2.95096, 42.73012 ], [ 2.952658, 42.730246 ], [ 2.954176, 42.730016 ], [ 2.962475, 42.732534 ], [ 2.966212, 42.733486 ] ] ], [ [ [ 2.999739, 42.720862 ], [ 3.006614443713605, 42.715375772653168 ], [ 3.000387, 42.711742 ], [ 2.998149, 42.711559 ], [ 2.996559757365368, 42.711158826872612 ], [ 2.989743291352715, 42.713752305365148 ], [ 2.992604, 42.714998 ], [ 2.992956, 42.714857 ], [ 2.99349, 42.714693 ], [ 2.99402, 42.714531 ], [ 2.995135, 42.714156 ], [ 2.99625, 42.713781 ], [ 2.996365, 42.714122 ], [ 2.99797, 42.720207 ], [ 2.998604339712255, 42.72080431691122 ], [ 2.999739, 42.720862 ] ] ] ] } },
{ "type": "Feature", "properties": { "codgeo": "66224", "value": 420, "isochrone_group": 7.0, "nb_agences": 1 }, "geometry": { "type": "MultiPolygon", "coordinates": [ [ [ [ 2.9707, 42.744595 ], [ 2.968194, 42.747179 ], [ 2.968739, 42.74795 ], [ 2.969045, 42.748327 ], [ 2.97081, 42.750178 ], [ 2.971572, 42.750563 ], [ 2.971828, 42.750607 ], [ 2.9780506739355, 42.75209109312641 ], [ 2.976433, 42.751171 ], [ 2.97818, 42.748024 ], [ 2.973684, 42.741067 ], [ 2.973213241605118, 42.741006043764799 ], [ 2.9707, 42.744595 ] ] ], [ [ [ 2.985029816327353, 42.754759785940088 ], [ 2.985919885248442, 42.754040377582783 ], [ 2.985281, 42.753677 ], [ 2.979629, 42.752463 ], [ 2.985029816327353, 42.754759785940088 ] ] ], [ [ [ 3.003914242964296, 42.712446667805168 ], [ 3.002834, 42.71196 ], [ 3.002789936251326, 42.711844563093067 ], [ 2.997818, 42.711015 ], [ 2.997202, 42.711085 ], [ 2.996749862143308, 42.711206695474857 ], [ 2.998149, 42.711559 ], [ 3.000387, 42.711742 ], [ 3.003200097570752, 42.713383469195641 ], [ 3.003914242964296, 42.712446667805168 ] ] ], [ [ [ 2.96806, 42.71375 ], [ 2.966458, 42.713856 ], [ 2.96505, 42.713925 ], [ 2.964749, 42.713921 ], [ 2.963854500695775, 42.71388656132364 ], [ 2.964672798603737, 42.716216007752571 ], [ 2.969179, 42.715008 ], [ 2.969298981238619, 42.714566001168201 ], [ 2.96806, 42.71375 ] ] ], [ [ [ 2.953567, 42.717292 ], [ 2.952588, 42.716705 ], [ 2.949334, 42.718245 ], [ 2.945023709626693, 42.720332042273157 ], [ 2.948602347451378, 42.722107074705896 ], [ 2.950688, 42.720276 ], [ 2.951188, 42.720039 ], [ 2.951899, 42.719813 ], [ 2.954009641857045, 42.718993792466719 ], [ 2.953567, 42.717292 ] ] ], [ [ [ 2.955526, 42.735208 ], [ 2.955498089324349, 42.735776032252332 ], [ 2.955728, 42.735832 ], [ 2.962489446475769, 42.73253768023681 ], [ 2.962475, 42.732534 ], [ 2.957497341490114, 42.731023728385594 ], [ 2.955526, 42.735208 ] ] ], [ [ [ 2.996877573503999, 42.758252365737341 ], [ 3.001259, 42.756947 ], [ 3.001615, 42.753365 ], [ 3.001837034358185, 42.753037573677979 ], [ 3.001649, 42.753136 ], [ 2.99735024935865, 42.755411860475498 ], [ 2.997556, 42.755814 ], [ 2.997517, 42.75596 ], [ 2.996877573503999, 42.758252365737341 ] ] ], [ [ [ 3.008178, 42.746417 ], [ 3.007968464025059, 42.746683259611437 ], [ 3.008982, 42.746168 ], [ 3.008446, 42.746326 ], [ 3.008178, 42.746417 ] ] ], [ [ [ 3.008982, 42.746168 ], [ 3.010014950625298, 42.745678523396819 ], [ 3.009657, 42.745798 ], [ 3.008982, 42.746168 ] ] ], [ [ [ 3.017276, 42.716188 ], [ 3.017148642538778, 42.714583862021769 ], [ 3.008849, 42.713893 ], [ 3.013761, 42.716966 ], [ 3.017276, 42.716188 ] ] ] ] } },
{ "type": "Feature", "properties": { "codgeo": "66224", "value": 480, "isochrone_group": 8.0, "nb_agences": 1 }, "geometry": { "type": "MultiPolygon", "coordinates": [ [ [ [ 2.97986, 42.753714 ], [ 2.98112260549971, 42.753098180295687 ], [ 2.979629, 42.752463 ], [ 2.979217, 42.752416 ], [ 2.978772, 42.752319 ], [ 2.978218, 42.752131 ], [ 2.971828, 42.750607 ], [ 2.971572, 42.750563 ], [ 2.97081, 42.750178 ], [ 2.969045, 42.748327 ], [ 2.968739, 42.74795 ], [ 2.968194, 42.747179 ], [ 2.9707, 42.744595 ], [ 2.974319, 42.739427 ], [ 2.974327, 42.739354 ], [ 2.974353, 42.739094 ], [ 2.973714, 42.735852 ], [ 2.967095, 42.7337 ], [ 2.966212, 42.733486 ], [ 2.963268499161137, 42.732731703149781 ], [ 2.96198, 42.734004 ], [ 2.961691, 42.736769 ], [ 2.961681, 42.737591 ], [ 2.961680956826339, 42.737591170365477 ], [ 2.961763, 42.737598 ], [ 2.963637, 42.737754 ], [ 2.967036, 42.745961 ], [ 2.966494, 42.74952 ], [ 2.969047, 42.753844 ], [ 2.972101, 42.754912 ], [ 2.97458, 42.753074 ], [ 2.977903746661314, 42.7544402964349 ], [ 2.97986, 42.753714 ] ] ], [ [ [ 2.961788, 42.713807 ], [ 2.956047461939296, 42.714010510137044 ], [ 2.949485072659124, 42.715123517976117 ], [ 2.94833438033313, 42.71542272775298 ], [ 2.951696470065229, 42.717126928733734 ], [ 2.952588, 42.716705 ], [ 2.953567, 42.717292 ], [ 2.953801612975913, 42.718193999186603 ], [ 2.954427, 42.718511 ], [ 2.956972315404404, 42.720509694910064 ], [ 2.962213, 42.720359 ], [ 2.965727, 42.719217 ], [ 2.963854500695775, 42.71388656132364 ], [ 2.961788, 42.713807 ] ] ], [ [ [ 3.001524824037703, 42.759055777276338 ], [ 3.001592387577619, 42.759432845714358 ], [ 3.002497526691262, 42.759332837029007 ], [ 3.001524824037703, 42.759055777276338 ] ] ], [ [ [ 3.004754614183735, 42.712171175847317 ], [ 3.004213, 42.712082 ], [ 3.002802693755193, 42.711877984824767 ], [ 3.002834, 42.71196 ], [ 3.004894278625252, 42.712888190518015 ], [ 3.004754614183735, 42.712171175847317 ] ] ] ] } },
{ "type": "Feature", "properties": { "codgeo": "66224", "value": 540, "isochrone_group": 9.0, "nb_agences": 1 }, "geometry": { "type": "MultiPolygon", "coordinates": [ [ [ [ 3.037257, 42.73276 ], [ 3.037220975055468, 42.73274379802568 ], [ 3.036816550574025, 42.734747833470401 ], [ 3.037435, 42.734185 ], [ 3.037438, 42.734164 ], [ 3.037257, 42.73276 ] ] ], [ [ [ 2.965144, 42.749462 ], [ 2.964895, 42.753054 ], [ 2.964576461703822, 42.753413677318875 ], [ 2.964693, 42.753499 ], [ 2.966804, 42.754503 ], [ 2.969208, 42.755637 ], [ 2.970805466086309, 42.754458944918198 ], [ 2.969047, 42.753844 ], [ 2.966494, 42.74952 ], [ 2.966899902955989, 42.746854670442147 ], [ 2.965144, 42.749462 ] ] ] ] } },
{ "type": "Feature", "properties": { "codgeo": "66224", "value": 600, "isochrone_group": 10.0, "nb_agences": 1 }, "geometry": { "type": "MultiPolygon", "coordinates": [ [ [ [ 3.038447, 42.733155 ], [ 3.038697, 42.730059 ], [ 3.038697, 42.730042 ], [ 3.038308817256117, 42.729072289645565 ], [ 3.037273, 42.732486 ], [ 3.037220975055468, 42.73274379802568 ], [ 3.037257, 42.73276 ], [ 3.037438, 42.734164 ], [ 3.037435, 42.734185 ], [ 3.036816550574025, 42.734747833470401 ], [ 3.036714, 42.735256 ], [ 3.03711876081566, 42.73748950924621 ], [ 3.037914, 42.736602 ], [ 3.038415, 42.733428 ], [ 3.038427, 42.733329 ], [ 3.038447, 42.733155 ] ] ], [ [ [ 3.002846605910674, 42.688477973592427 ], [ 3.005003, 42.692843 ], [ 3.006837, 42.694431 ], [ 3.002846605910674, 42.688477973592427 ] ] ], [ [ [ 3.002679811958985, 42.688140345137924 ], [ 3.002401, 42.68725 ], [ 3.002073, 42.686783 ], [ 3.001953910984578, 42.68667095837867 ], [ 3.002679811958985, 42.688140345137924 ] ] ], [ [ [ 2.996495686852078, 42.68108993120746 ], [ 2.996617322582054, 42.681367405530999 ], [ 2.996991755010992, 42.681642151404176 ], [ 2.996495686852078, 42.68108993120746 ] ] ] ] } },
{ "type": "Feature", "properties": { "codgeo": "66224", "value": 660, "isochrone_group": 11.0, "nb_agences": 1 }, "geometry": { "type": "Polygon", "coordinates": [ [ [ 3.037998, 42.738166 ], [ 3.038749, 42.729861 ], [ 3.040021, 42.728545 ], [ 3.040189, 42.72789 ], [ 3.039134396044648, 42.724005617534402 ], [ 3.039021, 42.725401 ], [ 3.038335, 42.728986 ], [ 3.038308817256117, 42.729072289645565 ], [ 3.038697, 42.730042 ], [ 3.038697, 42.730059 ], [ 3.038447, 42.733155 ], [ 3.038427, 42.733329 ], [ 3.038415, 42.733428 ], [ 3.037914, 42.736602 ], [ 3.03711876081566, 42.73748950924621 ], [ 3.03747302473286, 42.739444371732979 ], [ 3.037501, 42.739424 ], [ 3.037867, 42.738886 ], [ 3.038064, 42.738377 ], [ 3.038075, 42.738314 ], [ 3.037998, 42.738166 ] ] ] } },
{ "type": "Feature", "properties": { "codgeo": "66224", "value": 720, "isochrone_group": 12.0, "nb_agences": 1 }, "geometry": { "type": "MultiPolygon", "coordinates": [ [ [ [ 3.03856, 42.740167 ], [ 3.038306, 42.738566 ], [ 3.03808137979079, 42.73724393720039 ], [ 3.037998, 42.738166 ], [ 3.038075, 42.738314 ], [ 3.038064, 42.738377 ], [ 3.037867, 42.738886 ], [ 3.037501, 42.739424 ], [ 3.03747302473286, 42.739444371732979 ], [ 3.037837540680189, 42.741455805911542 ], [ 3.038494, 42.740668 ], [ 3.038561, 42.740273 ], [ 3.03856, 42.740167 ] ] ], [ [ [ 3.03938465101313, 42.723577836499324 ], [ 3.039229474178773, 42.724355815194095 ], [ 3.039442328433514, 42.725139813140089 ], [ 3.03938465101313, 42.723577836499324 ] ] ] ] } },
{ "type": "Feature", "properties": { "codgeo": "66224", "value": 780, "isochrone_group": 13.0, "nb_agences": 1 }, "geometry": { "type": "MultiPolygon", "coordinates": [ [ [ [ 3.040339, 42.716975 ], [ 3.040181, 42.716741 ], [ 3.040349881952524, 42.717136415629106 ], [ 3.040339, 42.716975 ] ] ], [ [ [ 3.038648575298406, 42.709203092630965 ], [ 3.037895, 42.712029 ], [ 3.038873453429706, 42.714045829641634 ], [ 3.038648575298406, 42.709203092630965 ] ] ], [ [ [ 3.036869495944061, 42.691984188907334 ], [ 3.036822046509927, 42.690643801409792 ], [ 3.036675745279514, 42.691516335571045 ], [ 3.036869495944061, 42.691984188907334 ] ] ], [ [ [ 3.026478, 42.681008 ], [ 3.026526515535101, 42.680725397008018 ], [ 3.026585982050665, 42.680331156034491 ], [ 3.026585, 42.680331 ], [ 3.026478, 42.681008 ] ] ], [ [ [ 3.026433, 42.681576 ], [ 3.020249, 42.688071 ], [ 3.020247176794739, 42.688076993704001 ], [ 3.021834, 42.687775 ], [ 3.026433, 42.681576 ] ] ] ] } },
{ "type": "Feature", "properties": { "codgeo": "66224", "value": 840, "isochrone_group": 14.0, "nb_agences": 1 }, "geometry": { "type": "MultiPolygon", "coordinates": [ [ [ [ 3.040833, 42.719998 ], [ 3.040802065412528, 42.720871447175682 ], [ 3.04087, 42.720648 ], [ 3.040833, 42.719998 ] ] ], [ [ [ 3.038820131261144, 42.712897539953836 ], [ 3.038873453429706, 42.714045829641634 ], [ 3.040181, 42.716741 ], [ 3.038820131261144, 42.712897539953836 ] ] ], [ [ [ 3.03973, 42.704153 ], [ 3.039586, 42.702719 ], [ 3.03846, 42.700056 ], [ 3.037572066360539, 42.698916283311291 ], [ 3.037574739427476, 42.699529468666476 ], [ 3.039392, 42.703487 ], [ 3.03973, 42.704153 ] ] ], [ [ [ 3.016178774839849, 42.688961745316128 ], [ 3.016516909779389, 42.688926473030101 ], [ 3.018252, 42.688474 ], [ 3.016162, 42.688874 ], [ 3.016178774839849, 42.688961745316128 ] ] ], [ [ [ 3.037215, 42.769167 ], [ 3.037115, 42.768723 ], [ 3.037111, 42.768719 ], [ 3.037197003357817, 42.769206352360968 ], [ 3.037215, 42.769167 ] ] ] ] } },
{ "type": "Feature", "properties": { "codgeo": "66224", "value": 900, "isochrone_group": 15.0, "nb_agences": 1 }, "geometry": { "type": "MultiPolygon", "coordinates": [ [ [ [ 3.040559, 42.722613 ], [ 3.040782, 42.721438 ], [ 3.039819430526177, 42.724407135426404 ], [ 3.039917366529077, 42.724469692249272 ], [ 3.040529, 42.722724 ], [ 3.040559, 42.722613 ] ] ], [ [ [ 3.040181, 42.716741 ], [ 3.04072, 42.718003 ], [ 3.039434282876373, 42.710689332608361 ], [ 3.039349, 42.712505 ], [ 3.039323, 42.712593 ], [ 3.038829294007379, 42.712923418018413 ], [ 3.040181, 42.716741 ] ] ], [ [ [ 3.03703, 42.68787 ], [ 3.036901, 42.686483 ], [ 3.036865, 42.686182 ], [ 3.036448842310931, 42.684415760649081 ], [ 3.036963, 42.68863 ], [ 3.03706, 42.689472 ], [ 3.036826121531178, 42.690497467132538 ], [ 3.036867765765195, 42.690943389206772 ], [ 3.037172, 42.689315 ], [ 3.03703, 42.68787 ] ] ], [ [ [ 3.035372242893466, 42.673207308199153 ], [ 3.035184336802785, 42.673492678129399 ], [ 3.035228344569134, 42.673887311983627 ], [ 3.035372242893466, 42.673207308199153 ] ] ], [ [ [ 3.0287, 42.674081 ], [ 3.028778997501428, 42.673817728084963 ], [ 3.028299524846359, 42.674710201816588 ], [ 3.0287, 42.674081 ] ] ], [ [ [ 3.028189659848236, 42.674914700704726 ], [ 3.0278, 42.67564 ], [ 3.027478, 42.676145 ], [ 3.026638, 42.680076 ], [ 3.026685878208498, 42.67991675158931 ], [ 3.026726, 42.679759 ], [ 3.028189659848236, 42.674914700704726 ] ] ], [ [ [ 3.00559965666137, 42.692585082678264 ], [ 3.006837, 42.694431 ], [ 3.012815502357352, 42.69763542519874 ], [ 3.013442389909247, 42.697656439713981 ], [ 3.015484, 42.690837 ], [ 3.015209, 42.690084 ], [ 3.014935, 42.689339 ], [ 3.016188408883408, 42.68901213877475 ], [ 3.016162, 42.688874 ], [ 3.018252, 42.688474 ], [ 3.018282001246986, 42.688468006319013 ], [ 3.018282, 42.688468 ], [ 3.020079, 42.688109 ], [ 3.016426, 42.68816 ], [ 3.014586, 42.687573 ], [ 3.014002, 42.687689 ], [ 3.013035, 42.689371 ], [ 3.00559965666137, 42.692585082678264 ] ] ], [ [ [ 2.999775658753231, 42.669242997954548 ], [ 2.999184297275306, 42.669846044768654 ], [ 2.99979359162621, 42.671765555420102 ], [ 2.999775658753231, 42.669242997954548 ] ] ] ] } },
{ "type": "Feature", "properties": { "codgeo": "66224", "value": 960, "isochrone_group": 16.0, "nb_agences": 1 }, "geometry": { "type": "MultiPolygon", "coordinates": [ [ [ [ 3.038877762281835, 42.745684764160806 ], [ 3.038889, 42.745752 ], [ 3.0395, 42.750656 ], [ 3.03988, 42.749126 ], [ 3.038907144153223, 42.745672825008626 ], [ 3.038877762281835, 42.745684764160806 ] ] ], [ [ [ 3.039324, 42.710062 ], [ 3.039673907808126, 42.712052413971563 ], [ 3.039687, 42.705309 ], [ 3.039324, 42.710062 ] ] ] ] } },
{ "type": "Feature", "properties": { "codgeo": "66224", "value": 1020, "isochrone_group": 17.0, "nb_agences": 1 }, "geometry": { "type": "Polygon", "coordinates": [ [ [ 3.039779051779368, 42.724531687441491 ], [ 3.039779051779369, 42.724531687441491 ], [ 3.040782, 42.721438 ], [ 3.039779051779368, 42.724531687441491 ] ] ] } },
{ "type": "Feature", "properties": { "codgeo": "66224", "value": 1080, "isochrone_group": 18.0, "nb_agences": 1 }, "geometry": { "type": "MultiPolygon", "coordinates": [ [ [ [ 3.039230463797845, 42.748492652151604 ], [ 3.039230463797845, 42.748492652151604 ], [ 3.0395, 42.750656 ], [ 3.039230463797845, 42.748492652151604 ] ] ], [ [ [ 3.038939, 42.75129 ], [ 3.035104, 42.757927 ], [ 3.032671970224244, 42.763268581379641 ], [ 3.034150004844301, 42.765083371507572 ], [ 3.034245052877826, 42.765200075291489 ], [ 3.035166, 42.759729 ], [ 3.035947, 42.75886 ], [ 3.036029, 42.758763 ], [ 3.03624, 42.758384 ], [ 3.0395, 42.750656 ], [ 3.038939, 42.75129 ] ] ], [ [ [ 2.997732666576157, 42.802409631137216 ], [ 2.996272771415095, 42.801236626431489 ], [ 2.996013691150619, 42.801979215239541 ], [ 2.996704, 42.802606 ], [ 2.997691, 42.802733 ], [ 2.997732666576157, 42.802409631137216 ] ] ], [ [ [ 3.040282, 42.791233 ], [ 3.040213, 42.784711 ], [ 3.038974, 42.776718 ], [ 3.038978, 42.777434 ], [ 3.038588518590146, 42.78225708871485 ], [ 3.040157, 42.785197 ], [ 3.040133, 42.785444 ], [ 3.039356058481579, 42.789988073214886 ], [ 3.040280886876412, 42.791254845050425 ], [ 3.040282, 42.791233 ] ] ], [ [ [ 3.039941200417354, 42.793741526404958 ], [ 3.040234, 42.792175 ], [ 3.039939937493922, 42.79373462329152 ], [ 3.039941200417354, 42.793741526404958 ] ] ] ] } },
{ "type": "Feature", "properties": { "codgeo": "66224", "value": 1140, "isochrone_group": 19.0, "nb_agences": 1 }, "geometry": { "type": "MultiPolygon", "coordinates": [ [ [ [ 3.040181, 42.716741 ], [ 3.038627623223966, 42.713539114011944 ], [ 3.038627623223964, 42.713539114011944 ], [ 3.040181, 42.716741 ] ] ], [ [ [ 3.040686151858013, 42.798833769417065 ], [ 3.040686040393545, 42.798834116409637 ], [ 3.040146141618292, 42.806368023816418 ], [ 3.040151644705223, 42.806437286807153 ], [ 3.04015, 42.80641 ], [ 3.040686151858013, 42.798833769417065 ] ] ], [ [ [ 2.977474971071554, 42.802896580329609 ], [ 2.980846367479216, 42.802241806619271 ], [ 2.977891375921747, 42.80254623368414 ], [ 2.977474971071554, 42.802896580329609 ] ] ], [ [ [ 3.000999586971754, 42.802963471479679 ], [ 2.999315302856344, 42.802129795010842 ], [ 2.999272419784226, 42.802461976031502 ], [ 3.0003, 42.80307 ], [ 3.000679, 42.803124 ], [ 3.000999586971754, 42.802963471479679 ] ] ], [ [ [ 3.04035, 42.810136 ], [ 3.04034843025309, 42.810137174220131 ], [ 3.040345245837414, 42.810167956904998 ], [ 3.040348, 42.810166 ], [ 3.040365, 42.809977 ], [ 3.04035, 42.810136 ] ] ], [ [ [ 3.043936, 42.840352 ], [ 3.043967, 42.841961 ], [ 3.043825147819146, 42.842186929663342 ], [ 3.043831121014589, 42.842217708161591 ], [ 3.043968, 42.842001 ], [ 3.043936, 42.840352 ] ] ], [ [ [ 3.027857, 42.823413 ], [ 3.029355, 42.825217 ], [ 3.030838954447776, 42.82602025039256 ], [ 3.030771241094987, 42.825961045710287 ], [ 3.02938, 42.825218 ], [ 3.027857, 42.823413 ] ] ] ] } },
{ "type": "Feature", "properties": { "codgeo": "66224", "value": 1200, "isochrone_group": 20.0, "nb_agences": 1 }, "geometry": { "type": "MultiPolygon", "coordinates": [ [ [ [ 3.044152183382478, 42.847636562356321 ], [ 3.044227, 42.847334 ], [ 3.044226566708792, 42.847295870373721 ], [ 3.044151560251986, 42.847619648245583 ], [ 3.044152183382478, 42.847636562356321 ] ] ], [ [ [ 3.042085932549427, 42.827397785095883 ], [ 3.042091, 42.827371 ], [ 3.041553309057572, 42.825700794630414 ], [ 3.042085932549427, 42.827397785095883 ] ] ], [ [ [ 3.040681359889607, 42.798901483548875 ], [ 3.040679458505506, 42.79892835154191 ], [ 3.040823, 42.798486 ], [ 3.040819957449447, 42.7984731315075 ], [ 3.040681359889607, 42.798901483548875 ] ] ], [ [ [ 3.025566828101518, 42.821100523687193 ], [ 3.025561157522337, 42.821094797881202 ], [ 3.025644, 42.821447 ], [ 3.025566828101518, 42.821100523687193 ] ] ], [ [ [ 3.027046, 42.823177 ], [ 3.025644, 42.821447 ], [ 3.026991, 42.823178 ], [ 3.02745, 42.823353 ], [ 3.027046, 42.823177 ] ] ] ] } }
]
}
