{
"type": "FeatureCollection",
"name": "La_Banque_Postale",
"crs": { "type": "name", "properties": { "name": "urn:ogc:def:crs:OGC:1.3:CRS84" } },
"features": [
{ "type": "Feature", "properties": { "codgeo": "30019", "value": 60, "isochrone_group": 1.0, "nb_agences": 1 }, "geometry": { "type": "Polygon", "coordinates": [ [ [ 4.142462, 43.753028 ], [ 4.144134, 43.749818 ], [ 4.144395, 43.749571 ], [ 4.148651, 43.75083 ], [ 4.14964, 43.752147 ], [ 4.150327, 43.753034 ], [ 4.150192, 43.753904 ], [ 4.150112, 43.754255 ], [ 4.148658, 43.755763 ], [ 4.145836, 43.756048 ], [ 4.145817, 43.756049 ], [ 4.142683, 43.753897 ], [ 4.142462, 43.753028 ] ] ] } },
{ "type": "Feature", "properties": { "codgeo": "30019", "value": 120, "isochrone_group": 2.0, "nb_agences": 1 }, "geometry": { "type": "Polygon", "coordinates": [ [ [ 4.135109, 43.748933 ], [ 4.136403, 43.751881 ], [ 4.137112, 43.751813 ], [ 4.137821, 43.751744 ], [ 4.141847, 43.755967 ], [ 4.14196, 43.756309 ], [ 4.14276, 43.75721 ], [ 4.14311, 43.757296 ], [ 4.148305, 43.75817 ], [ 4.150222, 43.758919 ], [ 4.150476, 43.758665 ], [ 4.154399, 43.754508 ], [ 4.156105, 43.753579 ], [ 4.156103, 43.753219 ], [ 4.155916, 43.752905 ], [ 4.155649, 43.752663 ], [ 4.153073, 43.751533 ], [ 4.14974, 43.75163 ], [ 4.146722, 43.748597 ], [ 4.143624, 43.747258 ], [ 4.137732, 43.748179 ], [ 4.135065, 43.748575 ], [ 4.135109, 43.748933 ] ], [ [ 4.144134, 43.749818 ], [ 4.144395, 43.749571 ], [ 4.148651, 43.75083 ], [ 4.14964, 43.752147 ], [ 4.150327, 43.753034 ], [ 4.150192, 43.753904 ], [ 4.150112, 43.754255 ], [ 4.148658, 43.755763 ], [ 4.145836, 43.756048 ], [ 4.145817, 43.756049 ], [ 4.142683, 43.753897 ], [ 4.142462, 43.753028 ], [ 4.144134, 43.749818 ] ] ] } },
{ "type": "Feature", "properties": { "codgeo": "30019", "value": 180, "isochrone_group": 3.0, "nb_agences": 1 }, "geometry": { "type": "Polygon", "coordinates": [ [ [ 4.124352, 43.749713 ], [ 4.130718, 43.753413 ], [ 4.136408, 43.756489 ], [ 4.140284, 43.76113 ], [ 4.140589, 43.76132 ], [ 4.146261, 43.759704 ], [ 4.152703, 43.760601 ], [ 4.155611, 43.761081 ], [ 4.15574, 43.760745 ], [ 4.159181, 43.75395 ], [ 4.161148, 43.753093 ], [ 4.161486, 43.752968 ], [ 4.161994, 43.751477 ], [ 4.162314, 43.750322 ], [ 4.162161, 43.749996 ], [ 4.158888, 43.748459 ], [ 4.158561, 43.748306 ], [ 4.151126, 43.747355 ], [ 4.144097, 43.744326 ], [ 4.141657, 43.743797 ], [ 4.138818, 43.743754 ], [ 4.132492, 43.745668 ], [ 4.124285, 43.749359 ], [ 4.124352, 43.749713 ] ], [ [ 4.137732, 43.748179 ], [ 4.143624, 43.747258 ], [ 4.146722, 43.748597 ], [ 4.14974, 43.75163 ], [ 4.153073, 43.751533 ], [ 4.155649, 43.752663 ], [ 4.155916, 43.752905 ], [ 4.156103, 43.753219 ], [ 4.156105, 43.753579 ], [ 4.154399, 43.754508 ], [ 4.150476, 43.758665 ], [ 4.150222, 43.758919 ], [ 4.148305, 43.75817 ], [ 4.14311, 43.757296 ], [ 4.14276, 43.75721 ], [ 4.14196, 43.756309 ], [ 4.141847, 43.755967 ], [ 4.137821, 43.751744 ], [ 4.137112, 43.751813 ], [ 4.136403, 43.751881 ], [ 4.135109, 43.748933 ], [ 4.135065, 43.748575 ], [ 4.137732, 43.748179 ] ] ] } },
{ "type": "Feature", "properties": { "codgeo": "30019", "value": 240, "isochrone_group": 4.0, "nb_agences": 1 }, "geometry": { "type": "Polygon", "coordinates": [ [ [ 4.150771, 43.747156 ], [ 4.149884, 43.746369 ], [ 4.147544, 43.739401 ], [ 4.14734, 43.739104 ], [ 4.144983, 43.739294 ], [ 4.144688, 43.7395 ], [ 4.141794, 43.741652 ], [ 4.132831, 43.741987 ], [ 4.130742, 43.741953 ], [ 4.12464, 43.746899 ], [ 4.124556, 43.747249 ], [ 4.11795, 43.752961 ], [ 4.115126, 43.753686 ], [ 4.115215, 43.754034 ], [ 4.122644, 43.755332 ], [ 4.126139, 43.755444 ], [ 4.131929, 43.758525 ], [ 4.137878, 43.762527 ], [ 4.139791, 43.764906 ], [ 4.139889, 43.764906 ], [ 4.140054, 43.764857 ], [ 4.144162, 43.76341 ], [ 4.146346, 43.762152 ], [ 4.153574, 43.761637 ], [ 4.159278, 43.766133 ], [ 4.159629, 43.766211 ], [ 4.161227, 43.762486 ], [ 4.161102, 43.762148 ], [ 4.160516, 43.756885 ], [ 4.166767, 43.753371 ], [ 4.167027, 43.753122 ], [ 4.170022, 43.747865 ], [ 4.170061, 43.747766 ], [ 4.170088, 43.747647 ], [ 4.169963, 43.747555 ], [ 4.169738, 43.747565 ], [ 4.164995, 43.747979 ], [ 4.160278, 43.745849 ], [ 4.159969, 43.746033 ], [ 4.151795074115461, 43.747440580293713 ], [ 4.158561, 43.748306 ], [ 4.158888, 43.748459 ], [ 4.162161, 43.749996 ], [ 4.162314, 43.750322 ], [ 4.161994, 43.751477 ], [ 4.161486, 43.752968 ], [ 4.161148, 43.753093 ], [ 4.159181, 43.75395 ], [ 4.15574, 43.760745 ], [ 4.155611, 43.761081 ], [ 4.152703, 43.760601 ], [ 4.146261, 43.759704 ], [ 4.140589, 43.76132 ], [ 4.140284, 43.76113 ], [ 4.136408, 43.756489 ], [ 4.130718, 43.753413 ], [ 4.124352, 43.749713 ], [ 4.124285, 43.749359 ], [ 4.132492, 43.745668 ], [ 4.138818, 43.743754 ], [ 4.141657, 43.743797 ], [ 4.144097, 43.744326 ], [ 4.150914555629473, 43.74726388248709 ], [ 4.150771, 43.747156 ] ] ] } },
{ "type": "Feature", "properties": { "codgeo": "30019", "value": 300, "isochrone_group": 5.0, "nb_agences": 1 }, "geometry": { "type": "MultiPolygon", "coordinates": [ [ [ [ 4.113361, 43.754142 ], [ 4.110903, 43.753984 ], [ 4.110811, 43.754332 ], [ 4.113273, 43.758206 ], [ 4.113355, 43.758318 ], [ 4.113509, 43.758262 ], [ 4.119295, 43.756446 ], [ 4.126113, 43.759736 ], [ 4.127672, 43.759716 ], [ 4.135573, 43.763705 ], [ 4.137003, 43.765656 ], [ 4.137076, 43.76568 ], [ 4.137436, 43.765779 ], [ 4.14327, 43.767401 ], [ 4.144048, 43.76739 ], [ 4.144334, 43.767171 ], [ 4.144764, 43.765865 ], [ 4.147121, 43.762393 ], [ 4.153574, 43.761637 ], [ 4.146346, 43.762152 ], [ 4.144162, 43.76341 ], [ 4.140054, 43.764857 ], [ 4.139889, 43.764906 ], [ 4.139791, 43.764906 ], [ 4.137878, 43.762527 ], [ 4.131929, 43.758525 ], [ 4.126139, 43.755444 ], [ 4.122644, 43.755332 ], [ 4.115215, 43.754034 ], [ 4.11512632565652, 43.753687273353577 ], [ 4.113361, 43.754142 ] ] ], [ [ [ 4.156725, 43.767014 ], [ 4.156353, 43.769774 ], [ 4.156331, 43.770089 ], [ 4.156309, 43.770404 ], [ 4.159146, 43.7728 ], [ 4.159496, 43.772884 ], [ 4.159639, 43.772287 ], [ 4.159782, 43.77169 ], [ 4.159869, 43.771114 ], [ 4.167068, 43.765718 ], [ 4.167297, 43.76544 ], [ 4.168267, 43.756862 ], [ 4.169699, 43.755982 ], [ 4.169942, 43.755807 ], [ 4.1703, 43.751775 ], [ 4.17267, 43.745679 ], [ 4.172745, 43.74548 ], [ 4.173276, 43.743703 ], [ 4.173003, 43.743468 ], [ 4.172447, 43.743494 ], [ 4.169127, 43.744034 ], [ 4.161937, 43.744605 ], [ 4.158931, 43.742794 ], [ 4.153513, 43.739171 ], [ 4.153354, 43.733696 ], [ 4.153065, 43.733482 ], [ 4.14468, 43.735237 ], [ 4.142839, 43.736039 ], [ 4.142667, 43.736356 ], [ 4.135268, 43.741165 ], [ 4.134939, 43.741199 ], [ 4.134626, 43.741231 ], [ 4.12802, 43.74073 ], [ 4.127535, 43.740605 ], [ 4.127026, 43.740475 ], [ 4.125257, 43.739967 ], [ 4.121716, 43.745898 ], [ 4.117084, 43.753183 ], [ 4.116704328945651, 43.753280798694902 ], [ 4.11795, 43.752961 ], [ 4.124556, 43.747249 ], [ 4.12464, 43.746899 ], [ 4.130742, 43.741953 ], [ 4.132831, 43.741987 ], [ 4.141794, 43.741652 ], [ 4.144688, 43.7395 ], [ 4.144983, 43.739294 ], [ 4.14734, 43.739104 ], [ 4.147544, 43.739401 ], [ 4.149884, 43.746369 ], [ 4.150771, 43.747156 ], [ 4.15127, 43.747531 ], [ 4.159969, 43.746033 ], [ 4.160278, 43.745849 ], [ 4.164995, 43.747979 ], [ 4.169738, 43.747565 ], [ 4.169963, 43.747555 ], [ 4.170088, 43.747647 ], [ 4.170061, 43.747766 ], [ 4.170022, 43.747865 ], [ 4.167027, 43.753122 ], [ 4.166767, 43.753371 ], [ 4.160516, 43.756885 ], [ 4.161102, 43.762148 ], [ 4.161227, 43.762486 ], [ 4.159629, 43.766211 ], [ 4.159278, 43.766133 ], [ 4.153574, 43.761637 ], [ 4.156725, 43.767014 ] ] ] ] } },
{ "type": "Feature", "properties": { "codgeo": "30019", "value": 360, "isochrone_group": 6.0, "nb_agences": 1 }, "geometry": { "type": "MultiPolygon", "coordinates": [ [ [ [ 4.108279, 43.751092 ], [ 4.107997, 43.751221 ], [ 4.107387, 43.751488 ], [ 4.106304, 43.758264 ], [ 4.104591, 43.76007 ], [ 4.104345, 43.761153 ], [ 4.104477, 43.761488 ], [ 4.111932, 43.761448 ], [ 4.118324, 43.762526 ], [ 4.118844, 43.76264 ], [ 4.119184, 43.762521 ], [ 4.12424, 43.75994 ], [ 4.126053, 43.759737 ], [ 4.133218, 43.76354 ], [ 4.133363, 43.76376 ], [ 4.133488, 43.763942 ], [ 4.134395, 43.764975 ], [ 4.138726, 43.770227 ], [ 4.145153, 43.769361 ], [ 4.14551, 43.769413 ], [ 4.152801, 43.774121 ], [ 4.158865, 43.775404 ], [ 4.165943, 43.775283 ], [ 4.166023, 43.774932 ], [ 4.169035, 43.76796 ], [ 4.17268, 43.767073 ], [ 4.173535, 43.76706 ], [ 4.174389, 43.767047 ], [ 4.174384, 43.766687 ], [ 4.173287, 43.758309 ], [ 4.173155, 43.757974 ], [ 4.17124, 43.755691 ], [ 4.1703, 43.751775 ], [ 4.169942, 43.755807 ], [ 4.169699, 43.755982 ], [ 4.168267, 43.756862 ], [ 4.167297, 43.76544 ], [ 4.167068, 43.765718 ], [ 4.159869, 43.771114 ], [ 4.159782, 43.77169 ], [ 4.159639, 43.772287 ], [ 4.159496, 43.772884 ], [ 4.159146, 43.7728 ], [ 4.156309, 43.770404 ], [ 4.156331, 43.770089 ], [ 4.156353, 43.769774 ], [ 4.156725, 43.767014 ], [ 4.153574, 43.761637 ], [ 4.147121, 43.762393 ], [ 4.144764, 43.765865 ], [ 4.144334, 43.767171 ], [ 4.144048, 43.76739 ], [ 4.14327, 43.767401 ], [ 4.137436, 43.765779 ], [ 4.137076, 43.76568 ], [ 4.137003, 43.765656 ], [ 4.135573, 43.763705 ], [ 4.127672, 43.759716 ], [ 4.126113, 43.759736 ], [ 4.119295, 43.756446 ], [ 4.113509, 43.758262 ], [ 4.113355, 43.758318 ], [ 4.113273, 43.758206 ], [ 4.110811, 43.754332 ], [ 4.110903, 43.753984 ], [ 4.113361, 43.754142 ], [ 4.108279, 43.751092 ] ] ], [ [ [ 4.123705, 43.739197 ], [ 4.122929, 43.738745 ], [ 4.121941, 43.738151 ], [ 4.121705, 43.738063 ], [ 4.121353, 43.737941 ], [ 4.121191, 43.737884 ], [ 4.121058, 43.737865 ], [ 4.120383, 43.738175 ], [ 4.120401, 43.738535 ], [ 4.12215200328271, 43.745167716049203 ], [ 4.125257, 43.739967 ], [ 4.127026, 43.740475 ], [ 4.123705, 43.739197 ] ] ], [ [ [ 4.174381, 43.747026 ], [ 4.176997, 43.743 ], [ 4.17733, 43.740757 ], [ 4.17729, 43.740399 ], [ 4.176439, 43.740457 ], [ 4.172916, 43.741012 ], [ 4.172577, 43.741133 ], [ 4.170767, 43.74183 ], [ 4.168107, 43.742611 ], [ 4.160711, 43.739237 ], [ 4.157546, 43.731069 ], [ 4.159057, 43.72982 ], [ 4.159299, 43.729554 ], [ 4.161194, 43.727754 ], [ 4.160993, 43.727455 ], [ 4.156619, 43.729119 ], [ 4.153094, 43.731249 ], [ 4.147298, 43.730911 ], [ 4.146953, 43.730808 ], [ 4.140459, 43.733131 ], [ 4.140323, 43.733186 ], [ 4.138698, 43.733906 ], [ 4.137759, 43.737618 ], [ 4.130516188801704, 43.74091931132147 ], [ 4.134626, 43.741231 ], [ 4.134939, 43.741199 ], [ 4.135268, 43.741165 ], [ 4.142667, 43.736356 ], [ 4.142839, 43.736039 ], [ 4.14468, 43.735237 ], [ 4.153065, 43.733482 ], [ 4.153354, 43.733696 ], [ 4.153513, 43.739171 ], [ 4.158931, 43.742794 ], [ 4.161937, 43.744605 ], [ 4.169127, 43.744034 ], [ 4.172447, 43.743494 ], [ 4.173003, 43.743468 ], [ 4.173276, 43.743703 ], [ 4.172745, 43.74548 ], [ 4.17267, 43.745679 ], [ 4.1703, 43.751775 ], [ 4.174381, 43.747026 ] ] ] ] } },
{ "type": "Feature", "properties": { "codgeo": "30019", "value": 420, "isochrone_group": 7.0, "nb_agences": 1 }, "geometry": { "type": "MultiPolygon", "coordinates": [ [ [ [ 4.116136, 43.738459 ], [ 4.115943, 43.738584 ], [ 4.115165, 43.739514 ], [ 4.115094, 43.739717 ], [ 4.110976, 43.747507 ], [ 4.106411, 43.748019 ], [ 4.101915, 43.753739 ], [ 4.101494, 43.756072 ], [ 4.0998634984212, 43.761243360997604 ], [ 4.100331, 43.761196 ], [ 4.101693, 43.761383 ], [ 4.102058, 43.761466 ], [ 4.102422, 43.762023 ], [ 4.102434926943177, 43.764166883807036 ], [ 4.103642, 43.763783 ], [ 4.106395, 43.761812 ], [ 4.112953, 43.762323 ], [ 4.11557, 43.764807 ], [ 4.115965, 43.765015 ], [ 4.119451, 43.766935 ], [ 4.119778, 43.767084 ], [ 4.120105, 43.767232 ], [ 4.122422, 43.768207 ], [ 4.12356, 43.768731 ], [ 4.12382, 43.76851 ], [ 4.124648, 43.767649 ], [ 4.124477, 43.767332 ], [ 4.124383, 43.762676 ], [ 4.131936728959777, 43.762859933877749 ], [ 4.126053, 43.759737 ], [ 4.12424, 43.75994 ], [ 4.119184, 43.762521 ], [ 4.118844, 43.76264 ], [ 4.118324, 43.762526 ], [ 4.111932, 43.761448 ], [ 4.104477, 43.761488 ], [ 4.104345, 43.761153 ], [ 4.104591, 43.76007 ], [ 4.106304, 43.758264 ], [ 4.107387, 43.751488 ], [ 4.107997, 43.751221 ], [ 4.108279, 43.751092 ], [ 4.113361, 43.754142 ], [ 4.117084, 43.753183 ], [ 4.122476, 43.746395 ], [ 4.120401, 43.738535 ], [ 4.120383, 43.738175 ], [ 4.120939466679389, 43.737919437525029 ], [ 4.119139, 43.737558 ], [ 4.116136, 43.738459 ] ] ], [ [ [ 4.134841, 43.772115 ], [ 4.134744, 43.772462 ], [ 4.136357, 43.77376 ], [ 4.141475, 43.777511 ], [ 4.142453, 43.777145 ], [ 4.146951, 43.775926 ], [ 4.147396, 43.775838 ], [ 4.147837, 43.77575 ], [ 4.148253, 43.775636 ], [ 4.148658, 43.775525 ], [ 4.15642, 43.775556 ], [ 4.159434, 43.777163 ], [ 4.159717, 43.777242 ], [ 4.164404, 43.777631 ], [ 4.167626, 43.776983 ], [ 4.175309, 43.775268 ], [ 4.178898, 43.768432 ], [ 4.179041, 43.768102 ], [ 4.176867, 43.761195 ], [ 4.176555, 43.759579 ], [ 4.176243, 43.751774 ], [ 4.182082, 43.745475 ], [ 4.182313, 43.745198 ], [ 4.181092, 43.73844 ], [ 4.180863, 43.738387 ], [ 4.180634, 43.738333 ], [ 4.179081, 43.738394 ], [ 4.174164, 43.73936 ], [ 4.171629, 43.738833 ], [ 4.16491, 43.737221 ], [ 4.16464, 43.736983 ], [ 4.160901, 43.730932 ], [ 4.163548, 43.726139 ], [ 4.166679, 43.724949 ], [ 4.166706, 43.72459 ], [ 4.166086, 43.723448 ], [ 4.165828, 43.723197 ], [ 4.16348, 43.723968 ], [ 4.15658, 43.725816 ], [ 4.148331, 43.726684 ], [ 4.139883, 43.729325 ], [ 4.134898, 43.730619 ], [ 4.134785, 43.730672 ], [ 4.133662, 43.734093 ], [ 4.13361, 43.734449 ], [ 4.127026, 43.740475 ], [ 4.127535, 43.740605 ], [ 4.12802, 43.74073 ], [ 4.129749, 43.741269 ], [ 4.137759, 43.737618 ], [ 4.138698, 43.733906 ], [ 4.140323, 43.733186 ], [ 4.140459, 43.733131 ], [ 4.146953, 43.730808 ], [ 4.147298, 43.730911 ], [ 4.153094, 43.731249 ], [ 4.156619, 43.729119 ], [ 4.160993, 43.727455 ], [ 4.161194, 43.727754 ], [ 4.159299, 43.729554 ], [ 4.159057, 43.72982 ], [ 4.157546, 43.731069 ], [ 4.160711, 43.739237 ], [ 4.168107, 43.742611 ], [ 4.170767, 43.74183 ], [ 4.172577, 43.741133 ], [ 4.172916, 43.741012 ], [ 4.176439, 43.740457 ], [ 4.17729, 43.740399 ], [ 4.17733, 43.740757 ], [ 4.176997, 43.743 ], [ 4.174381, 43.747026 ], [ 4.1703, 43.751775 ], [ 4.17124, 43.755691 ], [ 4.173155, 43.757974 ], [ 4.173287, 43.758309 ], [ 4.174384, 43.766687 ], [ 4.174389, 43.767047 ], [ 4.173535, 43.76706 ], [ 4.17268, 43.767073 ], [ 4.169035, 43.76796 ], [ 4.166023, 43.774932 ], [ 4.165943, 43.775283 ], [ 4.158865, 43.775404 ], [ 4.152801, 43.774121 ], [ 4.14551, 43.769413 ], [ 4.145153, 43.769361 ], [ 4.138726, 43.770227 ], [ 4.134395, 43.764975 ], [ 4.133488, 43.763942 ], [ 4.134282, 43.767615 ], [ 4.134841, 43.772115 ] ] ] ] } },
{ "type": "Feature", "properties": { "codgeo": "30019", "value": 480, "isochrone_group": 8.0, "nb_agences": 1 }, "geometry": { "type": "MultiPolygon", "coordinates": [ [ [ [ 4.096907, 43.753906 ], [ 4.096308, 43.754634 ], [ 4.096473, 43.757113 ], [ 4.096390669916764, 43.757557438151352 ], [ 4.100945657801081, 43.757811143032853 ], [ 4.101494, 43.756072 ], [ 4.101915, 43.753739 ], [ 4.104114519838996, 43.75094067849664 ], [ 4.099788, 43.751654 ], [ 4.097527, 43.753377 ], [ 4.096907, 43.753906 ] ] ], [ [ [ 4.120047, 43.772702 ], [ 4.120104, 43.772829 ], [ 4.120387, 43.773067 ], [ 4.122272, 43.773681 ], [ 4.122942, 43.77361 ], [ 4.124478, 43.773326 ], [ 4.12752, 43.773196 ], [ 4.132739911544491, 43.779103299719608 ], [ 4.136467, 43.778077 ], [ 4.138102, 43.781284 ], [ 4.138095543122899, 43.781287728526806 ], [ 4.138166, 43.781252 ], [ 4.140377, 43.7798 ], [ 4.141709, 43.779148 ], [ 4.143998, 43.778298 ], [ 4.145642, 43.777802 ], [ 4.147237, 43.777521 ], [ 4.154834, 43.779688 ], [ 4.156289, 43.780408 ], [ 4.157502, 43.780624 ], [ 4.162583, 43.780913 ], [ 4.169048, 43.78046 ], [ 4.170049, 43.780394 ], [ 4.177729, 43.777998 ], [ 4.180661, 43.778194 ], [ 4.184329, 43.778842 ], [ 4.184931, 43.77901 ], [ 4.185895, 43.775541 ], [ 4.183263, 43.767249 ], [ 4.181022, 43.75958 ], [ 4.184155, 43.752748 ], [ 4.187811, 43.751315 ], [ 4.189267, 43.751148 ], [ 4.188943, 43.742773 ], [ 4.188928226014568, 43.742682767486819 ], [ 4.187036, 43.741417 ], [ 4.187157, 43.737819 ], [ 4.187357, 43.737826 ], [ 4.188146591208547, 43.737908911897364 ], [ 4.187827, 43.735957 ], [ 4.187576, 43.735291 ], [ 4.187425, 43.73498 ], [ 4.185852, 43.735124 ], [ 4.179511, 43.734669 ], [ 4.1759, 43.736426 ], [ 4.172814, 43.736243 ], [ 4.172655, 43.727288 ], [ 4.173712, 43.726288 ], [ 4.173847, 43.725678 ], [ 4.173542, 43.723799 ], [ 4.170988, 43.718375 ], [ 4.168694, 43.717349 ], [ 4.167703, 43.717868 ], [ 4.163838, 43.720344 ], [ 4.156706, 43.722184 ], [ 4.155053, 43.722533 ], [ 4.147308, 43.725396 ], [ 4.143827, 43.724482 ], [ 4.140768, 43.722585 ], [ 4.132858, 43.724502 ], [ 4.130895, 43.724066 ], [ 4.128851, 43.725314 ], [ 4.128847, 43.725328 ], [ 4.129766, 43.727484 ], [ 4.13013, 43.735199 ], [ 4.122536, 43.736645 ], [ 4.121959, 43.736463 ], [ 4.12145, 43.736425 ], [ 4.118545, 43.736664 ], [ 4.118073, 43.736835 ], [ 4.116365776992494, 43.738390059250662 ], [ 4.119139, 43.737558 ], [ 4.12155, 43.738042 ], [ 4.121705, 43.738063 ], [ 4.121941, 43.738151 ], [ 4.122164, 43.7383 ], [ 4.122929, 43.738745 ], [ 4.123705, 43.739197 ], [ 4.125738, 43.740136 ], [ 4.127026, 43.740475 ], [ 4.13361, 43.734449 ], [ 4.133662, 43.734093 ], [ 4.134785, 43.730672 ], [ 4.134898, 43.730619 ], [ 4.139883, 43.729325 ], [ 4.148331, 43.726684 ], [ 4.15658, 43.725816 ], [ 4.16348, 43.723968 ], [ 4.165828, 43.723197 ], [ 4.166086, 43.723448 ], [ 4.166706, 43.72459 ], [ 4.166679, 43.724949 ], [ 4.163548, 43.726139 ], [ 4.160901, 43.730932 ], [ 4.16464, 43.736983 ], [ 4.16491, 43.737221 ], [ 4.171629, 43.738833 ], [ 4.174164, 43.73936 ], [ 4.179081, 43.738394 ], [ 4.180634, 43.738333 ], [ 4.180863, 43.738387 ], [ 4.181092, 43.73844 ], [ 4.182313, 43.745198 ], [ 4.182082, 43.745475 ], [ 4.176243, 43.751774 ], [ 4.176555, 43.759579 ], [ 4.176867, 43.761195 ], [ 4.179041, 43.768102 ], [ 4.178898, 43.768432 ], [ 4.175309, 43.775268 ], [ 4.167626, 43.776983 ], [ 4.164404, 43.777631 ], [ 4.159717, 43.777242 ], [ 4.159434, 43.777163 ], [ 4.15642, 43.775556 ], [ 4.148658, 43.775525 ], [ 4.148253, 43.775636 ], [ 4.147837, 43.77575 ], [ 4.147396, 43.775838 ], [ 4.146951, 43.775926 ], [ 4.142453, 43.777145 ], [ 4.141475, 43.777511 ], [ 4.136357, 43.77376 ], [ 4.134744, 43.772462 ], [ 4.134841, 43.772115 ], [ 4.134282, 43.767615 ], [ 4.133488, 43.763942 ], [ 4.133363, 43.76376 ], [ 4.133218, 43.76354 ], [ 4.133018, 43.763119 ], [ 4.132884, 43.762883 ], [ 4.124383, 43.762676 ], [ 4.124477, 43.767332 ], [ 4.124648, 43.767649 ], [ 4.12382, 43.76851 ], [ 4.12356, 43.768731 ], [ 4.122422, 43.768207 ], [ 4.120105, 43.767232 ], [ 4.119778, 43.767084 ], [ 4.119451, 43.766935 ], [ 4.115965, 43.765015 ], [ 4.11557, 43.764807 ], [ 4.112953, 43.762323 ], [ 4.108751132382951, 43.761995590065212 ], [ 4.107704, 43.762607 ], [ 4.107822444739567, 43.766359364574683 ], [ 4.113831, 43.766319 ], [ 4.120047, 43.772702 ] ] ], [ [ [ 4.109621, 43.744966 ], [ 4.109437, 43.745583 ], [ 4.107537298529377, 43.747892676922888 ], [ 4.110976, 43.747507 ], [ 4.115094, 43.739717 ], [ 4.115165, 43.739514 ], [ 4.11527110916692, 43.739387159993278 ], [ 4.11179, 43.742558 ], [ 4.109862, 43.744272 ], [ 4.109621, 43.744966 ] ] ] ] } },
{ "type": "Feature", "properties": { "codgeo": "30019", "value": 540, "isochrone_group": 9.0, "nb_agences": 1 }, "geometry": { "type": "MultiPolygon", "coordinates": [ [ [ [ 4.099466592383155, 43.751898929378086 ], [ 4.099788, 43.751654 ], [ 4.105174, 43.750766 ], [ 4.098392, 43.74991 ], [ 4.097595334321202, 43.750468831827369 ], [ 4.099466592383155, 43.751898929378086 ] ] ], [ [ [ 4.17915, 43.725817 ], [ 4.177563, 43.718709 ], [ 4.17756, 43.718699 ], [ 4.171304, 43.71277 ], [ 4.170999, 43.712741 ], [ 4.16998, 43.712914 ], [ 4.168056, 43.714196 ], [ 4.163537, 43.717098 ], [ 4.155866, 43.71975 ], [ 4.152457, 43.720905 ], [ 4.145174, 43.720445 ], [ 4.1441, 43.720047 ], [ 4.139041, 43.71915 ], [ 4.138966, 43.719164 ], [ 4.138032, 43.72061 ], [ 4.129338, 43.722626 ], [ 4.123437, 43.721118 ], [ 4.122907, 43.720926 ], [ 4.122638, 43.720867 ], [ 4.121868, 43.724384 ], [ 4.122932, 43.725074 ], [ 4.12397, 43.725716 ], [ 4.124461, 43.725945 ], [ 4.125078, 43.726109 ], [ 4.128357, 43.728788 ], [ 4.129446, 43.729256 ], [ 4.127647401098712, 43.735671720306996 ], [ 4.13013, 43.735199 ], [ 4.129766, 43.727484 ], [ 4.128847, 43.725328 ], [ 4.128851, 43.725314 ], [ 4.130895, 43.724066 ], [ 4.132858, 43.724502 ], [ 4.140768, 43.722585 ], [ 4.143827, 43.724482 ], [ 4.147308, 43.725396 ], [ 4.155053, 43.722533 ], [ 4.156706, 43.722184 ], [ 4.163838, 43.720344 ], [ 4.167703, 43.717868 ], [ 4.168694, 43.717349 ], [ 4.170988, 43.718375 ], [ 4.173542, 43.723799 ], [ 4.173847, 43.725678 ], [ 4.173712, 43.726288 ], [ 4.172655, 43.727288 ], [ 4.172814, 43.736243 ], [ 4.1759, 43.736426 ], [ 4.179511, 43.734669 ], [ 4.183099238358126, 43.734926474917671 ], [ 4.1839, 43.733669 ], [ 4.185441956976158, 43.731156231629612 ], [ 4.17915, 43.725817 ] ] ], [ [ [ 4.189267, 43.751148 ], [ 4.187811, 43.751315 ], [ 4.187320995536073, 43.751507061377687 ], [ 4.18917, 43.751923 ], [ 4.192327407863402, 43.752975469287811 ], [ 4.192058, 43.750975 ], [ 4.189146251271892, 43.748026794450922 ], [ 4.189267, 43.751148 ] ] ], [ [ [ 4.184056508445118, 43.752962776349491 ], [ 4.184507737460727, 43.752609741580621 ], [ 4.184155, 43.752748 ], [ 4.184056508445118, 43.752962776349491 ] ] ], [ [ [ 4.119711127340453, 43.772357103734571 ], [ 4.113831, 43.766319 ], [ 4.113201051392921, 43.766323231900444 ], [ 4.115385, 43.769234 ], [ 4.116793564445447, 43.774276567535139 ], [ 4.119711127340453, 43.772357103734571 ] ] ], [ [ [ 4.148388, 43.782227 ], [ 4.156792, 43.782453 ], [ 4.159584, 43.782187 ], [ 4.166617, 43.784022 ], [ 4.168414, 43.780903 ], [ 4.175444, 43.780501 ], [ 4.175804, 43.780525 ], [ 4.179837, 43.781281 ], [ 4.180545, 43.7814 ], [ 4.184949, 43.781322 ], [ 4.188117, 43.780973 ], [ 4.191654, 43.780259 ], [ 4.19294, 43.776897 ], [ 4.191747, 43.776441 ], [ 4.191284, 43.776298 ], [ 4.190053, 43.775957 ], [ 4.185176, 43.768572 ], [ 4.18502, 43.767694 ], [ 4.184951, 43.767498 ], [ 4.184568, 43.766393 ], [ 4.183996, 43.765597 ], [ 4.183514, 43.765185 ], [ 4.182622, 43.764619 ], [ 4.182311087742675, 43.763991429673609 ], [ 4.183263, 43.767249 ], [ 4.185895, 43.775541 ], [ 4.184931, 43.77901 ], [ 4.184329, 43.778842 ], [ 4.180661, 43.778194 ], [ 4.177729, 43.777998 ], [ 4.170049, 43.780394 ], [ 4.169048, 43.78046 ], [ 4.162583, 43.780913 ], [ 4.157502, 43.780624 ], [ 4.156289, 43.780408 ], [ 4.154834, 43.779688 ], [ 4.147237195319481, 43.777521055713748 ], [ 4.145602703848766, 43.77781385577314 ], [ 4.144008678500644, 43.778294778262591 ], [ 4.143981899323382, 43.778303978844534 ], [ 4.14394302683414, 43.778318413801216 ], [ 4.141637476830443, 43.781667883324545 ], [ 4.146765, 43.782466 ], [ 4.148388, 43.782227 ] ] ], [ [ [ 4.125326787451179, 43.773289727032001 ], [ 4.130524555597821, 43.776596212875148 ], [ 4.12752, 43.773196 ], [ 4.125326787451179, 43.773289727032001 ] ] ] ] } },
{ "type": "Feature", "properties": { "codgeo": "30019", "value": 600, "isochrone_group": 10.0, "nb_agences": 1 }, "geometry": { "type": "MultiPolygon", "coordinates": [ [ [ [ 4.114552, 43.720739 ], [ 4.113062, 43.723025 ], [ 4.113077, 43.723583 ], [ 4.113172, 43.723919 ], [ 4.114367, 43.724975 ], [ 4.11625, 43.725936 ], [ 4.117999, 43.726604 ], [ 4.119929, 43.727957 ], [ 4.118545, 43.736664 ], [ 4.12145, 43.736425 ], [ 4.121959, 43.736463 ], [ 4.122536, 43.736645 ], [ 4.123088, 43.73697 ], [ 4.127023, 43.737899 ], [ 4.129446, 43.729256 ], [ 4.128357, 43.728788 ], [ 4.125078, 43.726109 ], [ 4.124461, 43.725945 ], [ 4.12397, 43.725716 ], [ 4.122932, 43.725074 ], [ 4.121868, 43.724384 ], [ 4.122638, 43.720867 ], [ 4.122907, 43.720926 ], [ 4.119337, 43.719249 ], [ 4.117797, 43.719114 ], [ 4.114552, 43.720739 ] ] ], [ [ [ 4.138606, 43.714289 ], [ 4.138133, 43.714064 ], [ 4.137104, 43.7137 ], [ 4.134398, 43.717668 ], [ 4.130773, 43.720748 ], [ 4.123437, 43.721118 ], [ 4.129338, 43.722626 ], [ 4.138032, 43.72061 ], [ 4.138966, 43.719164 ], [ 4.139041, 43.71915 ], [ 4.1441, 43.720047 ], [ 4.144147060739336, 43.720064439640844 ], [ 4.139717, 43.715481 ], [ 4.139236, 43.714795 ], [ 4.138606, 43.714289 ] ] ], [ [ [ 4.191347, 43.755626 ], [ 4.191410395342234, 43.755638679068454 ], [ 4.19141, 43.755632 ], [ 4.190850449354641, 43.755365763968349 ], [ 4.191347, 43.755626 ] ] ], [ [ [ 4.17902, 43.714806 ], [ 4.175828, 43.709701 ], [ 4.170907, 43.707794 ], [ 4.169383, 43.707362 ], [ 4.168877, 43.707627 ], [ 4.16625, 43.710978 ], [ 4.163699, 43.713562 ], [ 4.160559, 43.716631 ], [ 4.153873, 43.715428 ], [ 4.15259, 43.715917 ], [ 4.146594, 43.720474 ], [ 4.144221832793237, 43.720092148465284 ], [ 4.145174, 43.720445 ], [ 4.152457, 43.720905 ], [ 4.155866, 43.71975 ], [ 4.163537, 43.717098 ], [ 4.168056, 43.714196 ], [ 4.16998, 43.712914 ], [ 4.170999, 43.712741 ], [ 4.171304, 43.71277 ], [ 4.17756, 43.718699 ], [ 4.177563, 43.718709 ], [ 4.17915, 43.725817 ], [ 4.181052391128727, 43.727431331904199 ], [ 4.181393, 43.725196 ], [ 4.181301, 43.72401 ], [ 4.181293, 43.723527 ], [ 4.180704, 43.718826 ], [ 4.18071, 43.718809 ], [ 4.181275796003725, 43.717311031891789 ], [ 4.17902, 43.714806 ] ] ], [ [ [ 4.186153, 43.764166 ], [ 4.185075, 43.764446 ], [ 4.179213, 43.757738 ], [ 4.182622, 43.764619 ], [ 4.183514, 43.765185 ], [ 4.183996, 43.765597 ], [ 4.184568, 43.766393 ], [ 4.184951, 43.767498 ], [ 4.18502, 43.767694 ], [ 4.185176, 43.768572 ], [ 4.187387, 43.767584 ], [ 4.186638, 43.764063 ], [ 4.186153, 43.764166 ] ] ], [ [ [ 4.189919, 43.783262 ], [ 4.196220636324662, 43.782954863818169 ], [ 4.19328, 43.782903 ], [ 4.193048, 43.782837 ], [ 4.190548977363398, 43.780482066486449 ], [ 4.188117, 43.780973 ], [ 4.185317617532577, 43.781281391566004 ], [ 4.18751, 43.781743 ], [ 4.188131, 43.782129 ], [ 4.189919, 43.783262 ] ] ], [ [ [ 4.149306, 43.783638 ], [ 4.149801, 43.783633 ], [ 4.158671, 43.784042 ], [ 4.166751, 43.786744 ], [ 4.167291, 43.78733 ], [ 4.170054, 43.787213 ], [ 4.170094, 43.787114 ], [ 4.170239, 43.786328 ], [ 4.170557, 43.785125 ], [ 4.176685463555464, 43.780690233436147 ], [ 4.175804, 43.780525 ], [ 4.175444, 43.780501 ], [ 4.168414, 43.780903 ], [ 4.166617, 43.784022 ], [ 4.159584, 43.782187 ], [ 4.156792, 43.782453 ], [ 4.148388, 43.782227 ], [ 4.147051246223747, 43.782423847906678 ], [ 4.144507097271583, 43.784241638543286 ], [ 4.147686, 43.783711 ], [ 4.149306, 43.783638 ] ] ] ] } },
{ "type": "Feature", "properties": { "codgeo": "30019", "value": 660, "isochrone_group": 11.0, "nb_agences": 1 }, "geometry": { "type": "MultiPolygon", "coordinates": [ [ [ [ 4.1714416978258, 43.703534175141527 ], [ 4.169018, 43.704864 ], [ 4.168489, 43.704822 ], [ 4.167218, 43.70471 ], [ 4.166147545595662, 43.703797488113459 ], [ 4.161245, 43.707809 ], [ 4.156867, 43.711476 ], [ 4.15281, 43.713987 ], [ 4.152412, 43.714373 ], [ 4.152333, 43.714471 ], [ 4.146979, 43.718045 ], [ 4.140657, 43.716158 ], [ 4.139095, 43.712522 ], [ 4.13907, 43.711948 ], [ 4.138937, 43.711049 ], [ 4.138734, 43.71087 ], [ 4.138388, 43.710556 ], [ 4.134073691370811, 43.70817989522574 ], [ 4.133905, 43.708324 ], [ 4.133636, 43.708346 ], [ 4.13342506350292, 43.70835827016225 ], [ 4.13115, 43.710472 ], [ 4.131285, 43.710923 ], [ 4.131382, 43.711256 ], [ 4.129139, 43.718516 ], [ 4.120333, 43.717139 ], [ 4.11808, 43.715324 ], [ 4.114661, 43.716452 ], [ 4.111357050979513, 43.71838740150956 ], [ 4.111661, 43.718848 ], [ 4.111121, 43.719204 ], [ 4.110222, 43.719775 ], [ 4.10979941503741, 43.720785476796635 ], [ 4.110523, 43.722766 ], [ 4.112348, 43.726213 ], [ 4.114601, 43.728761 ], [ 4.116021, 43.731479 ], [ 4.11598, 43.740401 ], [ 4.118073, 43.736835 ], [ 4.118545, 43.736664 ], [ 4.119929, 43.727957 ], [ 4.117999, 43.726604 ], [ 4.11625, 43.725936 ], [ 4.114367, 43.724975 ], [ 4.113172, 43.723919 ], [ 4.113077, 43.723583 ], [ 4.113062, 43.723025 ], [ 4.114552, 43.720739 ], [ 4.117797, 43.719114 ], [ 4.119337, 43.719249 ], [ 4.122907, 43.720926 ], [ 4.123437, 43.721118 ], [ 4.130773, 43.720748 ], [ 4.134398, 43.717668 ], [ 4.137104, 43.7137 ], [ 4.138133, 43.714064 ], [ 4.138606, 43.714289 ], [ 4.139236, 43.714795 ], [ 4.139717, 43.715481 ], [ 4.144165, 43.720083 ], [ 4.146594, 43.720474 ], [ 4.15259, 43.715917 ], [ 4.153873, 43.715428 ], [ 4.160559, 43.716631 ], [ 4.163699, 43.713562 ], [ 4.16625, 43.710978 ], [ 4.168877, 43.707627 ], [ 4.169383, 43.707362 ], [ 4.170907, 43.707794 ], [ 4.175828, 43.709701 ], [ 4.176997613715948, 43.711571575820756 ], [ 4.177637, 43.709155 ], [ 4.177753658262349, 43.706725438188911 ], [ 4.177481, 43.70667 ], [ 4.1714416978258, 43.703534175141527 ] ] ], [ [ [ 4.192121, 43.787195 ], [ 4.19213, 43.787198 ], [ 4.193054, 43.787351 ], [ 4.193126, 43.787341 ], [ 4.195826726398763, 43.785779464195478 ], [ 4.192575, 43.786327 ], [ 4.190935, 43.785856 ], [ 4.190869, 43.785815 ], [ 4.187558684783027, 43.781773261394925 ], [ 4.18751, 43.781743 ], [ 4.183187728051308, 43.780832941095994 ], [ 4.18741, 43.784175 ], [ 4.189291, 43.785373 ], [ 4.189419, 43.785462 ], [ 4.191661, 43.78689 ], [ 4.192121, 43.787195 ] ] ], [ [ [ 4.191347, 43.755626 ], [ 4.189977, 43.754908 ], [ 4.189672, 43.754397 ], [ 4.185384457571586, 43.751553582560049 ], [ 4.183939789327551, 43.751880844839029 ], [ 4.179198, 43.756764 ], [ 4.179213, 43.757738 ], [ 4.185075, 43.764446 ], [ 4.186153, 43.764166 ], [ 4.186638, 43.764063 ], [ 4.187387, 43.767584 ], [ 4.185176, 43.768572 ], [ 4.185375934117093, 43.770458659515661 ], [ 4.188247, 43.767464 ], [ 4.187346, 43.766084 ], [ 4.187158, 43.765499 ], [ 4.187854, 43.763886 ], [ 4.188364, 43.76383 ], [ 4.18875, 43.763759 ], [ 4.193417, 43.756726 ], [ 4.193278450896124, 43.756514780174797 ], [ 4.191972, 43.755751 ], [ 4.191347, 43.755626 ] ] ], [ [ [ 4.156883, 43.786972 ], [ 4.164613, 43.788425 ], [ 4.165882, 43.789543 ], [ 4.166507, 43.789609 ], [ 4.167031, 43.789571 ], [ 4.170024, 43.789035 ], [ 4.170185, 43.788882 ], [ 4.170469, 43.788568 ], [ 4.170897, 43.787901 ], [ 4.170935, 43.787802 ], [ 4.170557, 43.785125 ], [ 4.170239, 43.786328 ], [ 4.170094, 43.787114 ], [ 4.170054, 43.787213 ], [ 4.167291, 43.78733 ], [ 4.166751, 43.786744 ], [ 4.158671, 43.784042 ], [ 4.149801, 43.783633 ], [ 4.149306, 43.783638 ], [ 4.148614433760724, 43.783669163170053 ], [ 4.143321, 43.78593 ], [ 4.141343, 43.786734 ], [ 4.141338775897474, 43.786739883687417 ], [ 4.148085, 43.785623 ], [ 4.15036, 43.786023 ], [ 4.15662, 43.786958 ], [ 4.156883, 43.786972 ] ] ] ] } },
{ "type": "Feature", "properties": { "codgeo": "30019", "value": 720, "isochrone_group": 12.0, "nb_agences": 1 }, "geometry": { "type": "MultiPolygon", "coordinates": [ [ [ [ 4.11808, 43.715324 ], [ 4.120333, 43.717139 ], [ 4.129139, 43.718516 ], [ 4.130411778325247, 43.714396351920954 ], [ 4.130244764956058, 43.714294069092674 ], [ 4.129756, 43.715878 ], [ 4.12257, 43.715812 ], [ 4.119530216415884, 43.71298028285684 ], [ 4.117319, 43.713826 ], [ 4.116688, 43.714492 ], [ 4.115559463740702, 43.716155577917675 ], [ 4.11808, 43.715324 ] ] ], [ [ [ 4.112348, 43.726213 ], [ 4.111455019140974, 43.724526367111757 ], [ 4.110742681426304, 43.729155697769563 ], [ 4.11497, 43.730814 ], [ 4.116019541197692, 43.731796449614706 ], [ 4.116021, 43.731479 ], [ 4.114601, 43.728761 ], [ 4.112348, 43.726213 ] ] ], [ [ [ 4.140548310608263, 43.707831990041427 ], [ 4.137249, 43.708893 ], [ 4.137022740821482, 43.709804083729978 ], [ 4.138388, 43.710556 ], [ 4.138734, 43.71087 ], [ 4.138937, 43.711049 ], [ 4.13907, 43.711948 ], [ 4.139095, 43.712522 ], [ 4.140657, 43.716158 ], [ 4.142972665872716, 43.71684918340744 ], [ 4.142754, 43.716628 ], [ 4.142572, 43.716328 ], [ 4.141634, 43.710186 ], [ 4.14119, 43.709091 ], [ 4.140639, 43.707921 ], [ 4.140548310608263, 43.707831990041427 ] ] ], [ [ [ 4.194846, 43.789076 ], [ 4.187841, 43.787714 ], [ 4.187529, 43.786803 ], [ 4.184603273674201, 43.784539583714455 ], [ 4.184571, 43.786334 ], [ 4.184593, 43.786533 ], [ 4.185983, 43.788009 ], [ 4.190613, 43.788683 ], [ 4.194846, 43.789076 ] ] ], [ [ [ 4.195304466321216, 43.788797626943037 ], [ 4.195130429817101, 43.788973565485463 ], [ 4.195132, 43.788973 ], [ 4.195304466321216, 43.788797626943037 ] ] ], [ [ [ 4.195313, 43.788789 ], [ 4.195313, 43.788789 ], [ 4.195361, 43.788741 ], [ 4.195313, 43.788789 ] ] ], [ [ [ 4.207479, 43.792196 ], [ 4.207257, 43.79244 ], [ 4.20703047425582, 43.792686193095598 ], [ 4.208032598071483, 43.791778531142313 ], [ 4.207479, 43.792196 ] ] ], [ [ [ 4.161139, 43.706726 ], [ 4.16049, 43.707474 ], [ 4.157594774145347, 43.710866418503656 ], [ 4.161245, 43.707809 ], [ 4.162793336795506, 43.706542072168638 ], [ 4.162649, 43.706409 ], [ 4.162525, 43.70535 ], [ 4.162210956196597, 43.704774779785545 ], [ 4.161139, 43.706726 ] ] ], [ [ [ 4.176697195054674, 43.70626302002767 ], [ 4.177394, 43.705291 ], [ 4.176998595679929, 43.704434522957285 ], [ 4.175759929691192, 43.704044980093514 ], [ 4.174263, 43.704521 ], [ 4.173967858849008, 43.704845849620547 ], [ 4.176697195054674, 43.70626302002767 ] ] ], [ [ [ 4.175102, 43.785559 ], [ 4.178603897170452, 43.780519574972566 ], [ 4.178013677465565, 43.779966663719328 ], [ 4.177678, 43.779972 ], [ 4.177149, 43.779997 ], [ 4.170557, 43.785125 ], [ 4.170935, 43.787802 ], [ 4.170897, 43.787901 ], [ 4.170469, 43.788568 ], [ 4.170185, 43.788882 ], [ 4.170024, 43.789035 ], [ 4.167031, 43.789571 ], [ 4.166507, 43.789609 ], [ 4.165882, 43.789543 ], [ 4.164613, 43.788425 ], [ 4.156883, 43.786972 ], [ 4.15662, 43.786958 ], [ 4.15036, 43.786023 ], [ 4.148972332248071, 43.785779014461205 ], [ 4.146319217989925, 43.787269168448013 ], [ 4.149926, 43.787659 ], [ 4.157361, 43.789463 ], [ 4.166096, 43.791607 ], [ 4.172539, 43.789834 ], [ 4.175612, 43.789123 ], [ 4.175102, 43.785559 ] ] ] ] } },
{ "type": "Feature", "properties": { "codgeo": "30019", "value": 780, "isochrone_group": 13.0, "nb_agences": 1 }, "geometry": { "type": "MultiPolygon", "coordinates": [ [ [ [ 4.1157, 43.732862 ], [ 4.11577195893127, 43.739617267890331 ], [ 4.115802488529389, 43.739732278962364 ], [ 4.116048675281747, 43.739876533413806 ], [ 4.116988, 43.732703 ], [ 4.11497, 43.730814 ], [ 4.114767317888321, 43.73073449139612 ], [ 4.1157, 43.732862 ] ] ], [ [ [ 4.129756, 43.715878 ], [ 4.130244696249844, 43.714294291747549 ], [ 4.129278, 43.713702 ], [ 4.12747, 43.712623 ], [ 4.126987820599824, 43.712323174053644 ], [ 4.125973, 43.713822 ], [ 4.124017852198851, 43.713191005841452 ], [ 4.12104624490784, 43.714392542562649 ], [ 4.12257, 43.715812 ], [ 4.129756, 43.715878 ] ] ], [ [ [ 4.142439690182677, 43.715461638701484 ], [ 4.142705873392526, 43.716548670427265 ], [ 4.142754, 43.716628 ], [ 4.144578, 43.718473 ], [ 4.152537, 43.717148 ], [ 4.153705, 43.715651 ], [ 4.153733, 43.715604 ], [ 4.153814, 43.715503 ], [ 4.145455, 43.715398 ], [ 4.146046634420657, 43.708170116632346 ], [ 4.144857, 43.708491 ], [ 4.141708309947719, 43.710672579636345 ], [ 4.142439690182677, 43.715461638701484 ] ] ], [ [ [ 4.180797, 43.78983 ], [ 4.183215, 43.790097 ], [ 4.184032, 43.790142 ], [ 4.187851, 43.790475 ], [ 4.193544, 43.794261 ], [ 4.193877, 43.794434 ], [ 4.193546, 43.794262 ], [ 4.187854, 43.790475 ], [ 4.180758, 43.788469 ], [ 4.178951, 43.787268 ], [ 4.178925, 43.787181 ], [ 4.176222365602611, 43.783946731511563 ], [ 4.175102, 43.785559 ], [ 4.175612, 43.789123 ], [ 4.172539, 43.789834 ], [ 4.166096, 43.791607 ], [ 4.157361, 43.789463 ], [ 4.150280972710293, 43.7877451292225 ], [ 4.15294, 43.789745 ], [ 4.155846, 43.791869 ], [ 4.163089, 43.793556 ], [ 4.165247, 43.794517 ], [ 4.171043, 43.79363 ], [ 4.173494, 43.792418 ], [ 4.180797, 43.78983 ] ] ], [ [ [ 4.202182, 43.794389 ], [ 4.196309, 43.794922 ], [ 4.194618, 43.794638 ], [ 4.196309, 43.794923 ], [ 4.203330644761358, 43.795036005193921 ], [ 4.202182, 43.794389 ] ] ] ] } },
{ "type": "Feature", "properties": { "codgeo": "30019", "value": 840, "isochrone_group": 14.0, "nb_agences": 1 }, "geometry": { "type": "MultiPolygon", "coordinates": [ [ [ [ 4.194273, 43.802159 ], [ 4.192947, 43.802094 ], [ 4.190327, 43.799092 ], [ 4.189042, 43.797079 ], [ 4.184887, 43.791488 ], [ 4.189041, 43.797082 ], [ 4.190317, 43.79909 ], [ 4.192949, 43.802099 ], [ 4.194273, 43.802159 ] ] ], [ [ [ 4.196145, 43.800441 ], [ 4.194273, 43.802159 ], [ 4.196147, 43.800446 ], [ 4.19634173750446, 43.80041601401102 ], [ 4.196145, 43.800441 ] ] ], [ [ [ 4.213712198355829, 43.801919355686991 ], [ 4.208989, 43.799163 ], [ 4.206901992061656, 43.799296419436054 ], [ 4.209158, 43.799288 ], [ 4.214760995546588, 43.802760820309288 ], [ 4.213712198355829, 43.801919355686991 ] ] ], [ [ [ 4.174117, 43.794593 ], [ 4.175152, 43.794997 ], [ 4.18181, 43.790878 ], [ 4.184887, 43.791488 ], [ 4.181361, 43.790593 ], [ 4.179506728780946, 43.790287239752828 ], [ 4.173494, 43.792418 ], [ 4.171243109966652, 43.79353104721357 ], [ 4.174117, 43.794593 ] ] ], [ [ [ 4.163461, 43.797592 ], [ 4.169457039759912, 43.793872709926326 ], [ 4.165247, 43.794517 ], [ 4.163089, 43.793556 ], [ 4.155846, 43.791869 ], [ 4.15294, 43.789745 ], [ 4.152181137832735, 43.789174255097024 ], [ 4.149533919242056, 43.789911379692704 ], [ 4.150226, 43.791374 ], [ 4.150899, 43.793922 ], [ 4.152448, 43.794206 ], [ 4.15837, 43.799068 ], [ 4.161887, 43.799837 ], [ 4.162452, 43.798909 ], [ 4.162839, 43.798353 ], [ 4.163461, 43.797592 ] ] ] ] } },
{ "type": "Feature", "properties": { "codgeo": "30019", "value": 900, "isochrone_group": 15.0, "nb_agences": 1 }, "geometry": { "type": "MultiPolygon", "coordinates": [ [ [ [ 4.169217, 43.796252 ], [ 4.178069, 43.795809 ], [ 4.185816, 43.798148 ], [ 4.188932, 43.802519 ], [ 4.185818, 43.798148 ], [ 4.185338, 43.796962 ], [ 4.181385, 43.791896 ], [ 4.179884477290597, 43.792069232808664 ], [ 4.175152, 43.794997 ], [ 4.174117, 43.794593 ], [ 4.171854768527937, 43.793757065782778 ], [ 4.171519, 43.793844 ], [ 4.169047890237644, 43.794126501731881 ], [ 4.163461, 43.797592 ], [ 4.162839, 43.798353 ], [ 4.162452, 43.798909 ], [ 4.161887, 43.799837 ], [ 4.15837, 43.799068 ], [ 4.152448, 43.794206 ], [ 4.151926565327144, 43.794110398032892 ], [ 4.150747, 43.795785 ], [ 4.150345, 43.796291 ], [ 4.14998, 43.796807 ], [ 4.149922112044236, 43.798421099220214 ], [ 4.151321, 43.802915 ], [ 4.153683, 43.805632 ], [ 4.158606, 43.803618 ], [ 4.16, 43.803058 ], [ 4.161405, 43.800908 ], [ 4.168357, 43.796425 ], [ 4.169217, 43.796252 ] ] ], [ [ [ 4.191627228165252, 43.805162344202294 ], [ 4.195519, 43.808716 ], [ 4.197312, 43.808828 ], [ 4.195518, 43.808709 ], [ 4.191627228165252, 43.805162344202294 ] ] ], [ [ [ 4.201263, 43.803035 ], [ 4.199041, 43.807973 ], [ 4.198195, 43.808715 ], [ 4.197762, 43.808792 ], [ 4.198198, 43.808715 ], [ 4.199043, 43.807979 ], [ 4.201337028989744, 43.803005237355997 ], [ 4.201263, 43.803035 ] ] ], [ [ [ 4.206302402686186, 43.801236883939808 ], [ 4.206066, 43.801104 ], [ 4.206026893365572, 43.801119722446614 ], [ 4.206302402686186, 43.801236883939808 ] ] ] ] } },
{ "type": "Feature", "properties": { "codgeo": "30019", "value": 960, "isochrone_group": 16.0, "nb_agences": 1 }, "geometry": { "type": "MultiPolygon", "coordinates": [ [ [ [ 4.211419741654796, 43.80974496163315 ], [ 4.20383, 43.81014 ], [ 4.20202, 43.814249 ], [ 4.198641, 43.81549 ], [ 4.19544, 43.813147 ], [ 4.191462, 43.807204 ], [ 4.19543, 43.813146 ], [ 4.198642, 43.815494 ], [ 4.202022, 43.814253 ], [ 4.203831, 43.81014 ], [ 4.211442880476438, 43.809763792054397 ], [ 4.211419741654796, 43.80974496163315 ] ] ], [ [ [ 4.182727097270843, 43.797215388216934 ], [ 4.178069, 43.795809 ], [ 4.177232244944985, 43.795850875563652 ], [ 4.183267316282159, 43.798143363956491 ], [ 4.182727097270843, 43.797215388216934 ] ] ], [ [ [ 4.16, 43.803058 ], [ 4.158606, 43.803618 ], [ 4.157471356395559, 43.804082182859922 ], [ 4.155424598004317, 43.806299647061799 ], [ 4.160222, 43.802967 ], [ 4.161895, 43.802421 ], [ 4.162583, 43.802049 ], [ 4.163158, 43.801556 ], [ 4.163561623426479, 43.799517300514822 ], [ 4.161405, 43.800908 ], [ 4.16, 43.803058 ] ] ] ] } },
{ "type": "Feature", "properties": { "codgeo": "30019", "value": 1020, "isochrone_group": 17.0, "nb_agences": 1 }, "geometry": { "type": "MultiPolygon", "coordinates": [ [ [ [ 4.159188995025966, 43.803684605277766 ], [ 4.156739704770737, 43.806737282514057 ], [ 4.160222, 43.802967 ], [ 4.159188995025966, 43.803684605277766 ] ] ], [ [ [ 4.163318, 43.801408 ], [ 4.164408, 43.799807 ], [ 4.164467, 43.799638 ], [ 4.166143281396145, 43.79785251733329 ], [ 4.163561623426479, 43.799517300514822 ], [ 4.163160025082004, 43.801545771323042 ], [ 4.163318, 43.801408 ] ] ], [ [ [ 4.188583, 43.810717 ], [ 4.18927, 43.812143 ], [ 4.193464, 43.814704 ], [ 4.199264, 43.819421 ], [ 4.203094, 43.821375 ], [ 4.199265, 43.81942 ], [ 4.193465, 43.814703 ], [ 4.189278, 43.812144 ], [ 4.188583, 43.810717 ] ] ], [ [ [ 4.205419, 43.819168 ], [ 4.205392, 43.81908 ], [ 4.205418, 43.819166 ], [ 4.204089, 43.821358 ], [ 4.205419, 43.819168 ] ] ], [ [ [ 4.208761459350183, 43.81243060933943 ], [ 4.208637405014562, 43.812387573774636 ], [ 4.204896, 43.817258 ], [ 4.205103, 43.817984 ], [ 4.208761459350183, 43.81243060933943 ] ] ], [ [ [ 4.187115, 43.808188 ], [ 4.188583, 43.810717 ], [ 4.187116, 43.808186 ], [ 4.184085, 43.804013 ], [ 4.187115, 43.808188 ] ] ], [ [ [ 4.214981103806606, 43.814933439659107 ], [ 4.214277, 43.814344 ], [ 4.214081216821204, 43.814276081054317 ], [ 4.214981103806606, 43.814933439659107 ] ] ], [ [ [ 4.218042, 43.816781 ], [ 4.217818548677238, 43.816787887198302 ], [ 4.217832, 43.816796 ], [ 4.218042, 43.816781 ] ] ] ] } },
{ "type": "Feature", "properties": { "codgeo": "30019", "value": 1080, "isochrone_group": 18.0, "nb_agences": 1 }, "geometry": { "type": "MultiPolygon", "coordinates": [ [ [ [ 4.162681, 43.803589 ], [ 4.166074, 43.802387 ], [ 4.166005, 43.802086 ], [ 4.16573, 43.801384 ], [ 4.165339, 43.800766 ], [ 4.165452074902253, 43.799524531802355 ], [ 4.164279, 43.800545 ], [ 4.163318, 43.801408 ], [ 4.163178157687376, 43.801529957717548 ], [ 4.163176, 43.801541 ], [ 4.162583, 43.802049 ], [ 4.161895, 43.802421 ], [ 4.156631206567655, 43.809077336427393 ], [ 4.162681, 43.803589 ] ] ], [ [ [ 4.197199, 43.821478 ], [ 4.204571, 43.824768 ], [ 4.208198, 43.82339 ], [ 4.209721713063251, 43.823009475592634 ], [ 4.208196, 43.82339 ], [ 4.204574, 43.824764 ], [ 4.197199, 43.821478 ] ] ], [ [ [ 4.193671999995568, 43.819899039543714 ], [ 4.188684, 43.81505 ], [ 4.18506, 43.813619 ], [ 4.188682, 43.81505 ], [ 4.193671999995568, 43.819899039543714 ] ] ] ] } },
{ "type": "Feature", "properties": { "codgeo": "30019", "value": 1140, "isochrone_group": 19.0, "nb_agences": 1 }, "geometry": { "type": "MultiPolygon", "coordinates": [ [ [ [ 4.185181, 43.815836 ], [ 4.191289, 43.819863 ], [ 4.193069, 43.822993 ], [ 4.198546, 43.826875 ], [ 4.201888, 43.829146 ], [ 4.198544, 43.826872 ], [ 4.19307, 43.822992 ], [ 4.19129, 43.819863 ], [ 4.185181, 43.815835 ], [ 4.183158, 43.815397 ], [ 4.185181, 43.815836 ] ] ], [ [ [ 4.201888, 43.829146 ], [ 4.202058, 43.829188 ], [ 4.203729, 43.828547 ], [ 4.207578, 43.825377 ], [ 4.210094518377826, 43.825000031660011 ], [ 4.210095387458185, 43.824999091529257 ], [ 4.207573, 43.825376 ], [ 4.203732, 43.828542 ], [ 4.202054, 43.829187 ], [ 4.201888, 43.829146 ] ] ] ] } },
{ "type": "Feature", "properties": { "codgeo": "30019", "value": 1200, "isochrone_group": 20.0, "nb_agences": 1 }, "geometry": { "type": "MultiPolygon", "coordinates": [ [ [ [ 4.205855, 43.83126 ], [ 4.205869669194916, 43.831252642496231 ], [ 4.205869276000557, 43.83125233576051 ], [ 4.205854, 43.83126 ], [ 4.200484, 43.831394 ], [ 4.205855, 43.83126 ] ] ], [ [ [ 4.179446, 43.816335 ], [ 4.179455286479477, 43.81634088471219 ], [ 4.179456712600806, 43.816340522632551 ], [ 4.179448, 43.816335 ], [ 4.178166, 43.814086 ], [ 4.17906097421551, 43.810599100458681 ], [ 4.17906, 43.810599 ], [ 4.178165, 43.814086 ], [ 4.179446, 43.816335 ] ] ] ] } }
]
}
