{
"type": "FeatureCollection",
"name": "La_Banque_Postale",
"crs": { "type": "name", "properties": { "name": "urn:ogc:def:crs:OGC:1.3:CRS84" } },
"features": [
{ "type": "Feature", "properties": { "codgeo": "11367", "value": 60, "isochrone_group": 1.0, "nb_agences": 1 }, "geometry": { "type": "Polygon", "coordinates": [ [ [ 2.150692, 43.32195 ], [ 2.151006, 43.321908 ], [ 2.151876, 43.321782 ], [ 2.152103, 43.322062 ], [ 2.152107, 43.323138 ], [ 2.151788, 43.323303 ], [ 2.150119, 43.32279 ], [ 2.150692, 43.32195 ] ] ] } },
{ "type": "Feature", "properties": { "codgeo": "11367", "value": 120, "isochrone_group": 2.0, "nb_agences": 1 }, "geometry": { "type": "Polygon", "coordinates": [ [ [ 2.1502, 43.325259 ], [ 2.150298, 43.325605 ], [ 2.150628, 43.325512 ], [ 2.150957, 43.325419 ], [ 2.152403, 43.324941 ], [ 2.152738, 43.324842 ], [ 2.154369, 43.321378 ], [ 2.1541, 43.321139 ], [ 2.152207, 43.321451 ], [ 2.151275228094587, 43.321869008344926 ], [ 2.151876, 43.321782 ], [ 2.152103, 43.322062 ], [ 2.152107, 43.323138 ], [ 2.151788, 43.323303 ], [ 2.150119, 43.32279 ], [ 2.1502, 43.325259 ] ] ] } },
{ "type": "Feature", "properties": { "codgeo": "11367", "value": 180, "isochrone_group": 3.0, "nb_agences": 1 }, "geometry": { "type": "Polygon", "coordinates": [ [ [ 2.149676, 43.325782 ], [ 2.149637, 43.326036 ], [ 2.14957, 43.328302 ], [ 2.149927, 43.328346 ], [ 2.156217, 43.323767 ], [ 2.156441, 43.316846 ], [ 2.156095, 43.316746 ], [ 2.150689, 43.322132 ], [ 2.152207, 43.321451 ], [ 2.1541, 43.321139 ], [ 2.154369, 43.321378 ], [ 2.152738, 43.324842 ], [ 2.152403, 43.324941 ], [ 2.150957, 43.325419 ], [ 2.150628, 43.325512 ], [ 2.150298, 43.325605 ], [ 2.1502, 43.325259 ], [ 2.150119, 43.32279 ], [ 2.149676, 43.325782 ] ] ] } },
{ "type": "Feature", "properties": { "codgeo": "11367", "value": 240, "isochrone_group": 4.0, "nb_agences": 1 }, "geometry": { "type": "MultiPolygon", "coordinates": [ [ [ [ 2.157383, 43.323889 ], [ 2.157761, 43.323659 ], [ 2.157602, 43.322094 ], [ 2.156451, 43.316312 ], [ 2.156336, 43.316108 ], [ 2.154321, 43.313543 ], [ 2.15394, 43.313194 ], [ 2.153675, 43.313437 ], [ 2.154133, 43.314337 ], [ 2.150689, 43.322132 ], [ 2.156095, 43.316746 ], [ 2.156441, 43.316846 ], [ 2.156217, 43.323767 ], [ 2.155555436843953, 43.324248605356381 ], [ 2.157383, 43.323889 ] ] ], [ [ [ 2.149064, 43.331311 ], [ 2.14942, 43.331362 ], [ 2.149975, 43.32951 ], [ 2.153808366264208, 43.325520439407974 ], [ 2.149927, 43.328346 ], [ 2.14957, 43.328302 ], [ 2.149637, 43.326036 ], [ 2.149064, 43.331311 ] ] ] ] } },
{ "type": "Feature", "properties": { "codgeo": "11367", "value": 300, "isochrone_group": 5.0, "nb_agences": 1 }, "geometry": { "type": "MultiPolygon", "coordinates": [ [ [ [ 2.147998, 43.329159 ], [ 2.149191, 43.333891 ], [ 2.149439, 43.334153 ], [ 2.149639, 43.333963 ], [ 2.149832, 43.333705 ], [ 2.150021, 43.333395 ], [ 2.150091, 43.333238 ], [ 2.150121, 43.33311 ], [ 2.150105, 43.332834 ], [ 2.149794775782063, 43.330111396849766 ], [ 2.14942, 43.331362 ], [ 2.149064, 43.331311 ], [ 2.149637, 43.326036 ], [ 2.149676, 43.325782 ], [ 2.150119, 43.32279 ], [ 2.147998, 43.329159 ] ] ], [ [ [ 2.156085, 43.309056 ], [ 2.155778, 43.308868 ], [ 2.150765, 43.311015 ], [ 2.15056, 43.311311 ], [ 2.151788, 43.313356 ], [ 2.150689, 43.322132 ], [ 2.154133, 43.314337 ], [ 2.153675, 43.313437 ], [ 2.15394, 43.313194 ], [ 2.154321, 43.313543 ], [ 2.156336, 43.316108 ], [ 2.156451, 43.316312 ], [ 2.156085, 43.309056 ] ] ], [ [ [ 2.159008, 43.320033 ], [ 2.156451, 43.316312 ], [ 2.157602, 43.322094 ], [ 2.157761, 43.323659 ], [ 2.159008, 43.320033 ] ] ] ] } },
{ "type": "Feature", "properties": { "codgeo": "11367", "value": 360, "isochrone_group": 6.0, "nb_agences": 1 }, "geometry": { "type": "MultiPolygon", "coordinates": [ [ [ [ 2.147058, 43.327214 ], [ 2.144004, 43.330332 ], [ 2.144051, 43.330689 ], [ 2.144874, 43.334587 ], [ 2.151593, 43.338791 ], [ 2.151945, 43.338866 ], [ 2.152287, 43.337879 ], [ 2.152248, 43.337219 ], [ 2.152207, 43.337057 ], [ 2.152128, 43.336878 ], [ 2.151981, 43.336629 ], [ 2.15184, 43.336452 ], [ 2.151714, 43.336296 ], [ 2.150105, 43.332834 ], [ 2.150121, 43.33311 ], [ 2.150091, 43.333238 ], [ 2.150021, 43.333395 ], [ 2.149832, 43.333705 ], [ 2.149639, 43.333963 ], [ 2.149439, 43.334153 ], [ 2.149191, 43.333891 ], [ 2.147998, 43.329159 ], [ 2.150119, 43.32279 ], [ 2.147058, 43.327214 ] ] ], [ [ [ 2.159047, 43.307897 ], [ 2.159574, 43.306837 ], [ 2.159953, 43.306192 ], [ 2.159551, 43.305112 ], [ 2.159253, 43.30491 ], [ 2.156896, 43.305032 ], [ 2.150757, 43.308079 ], [ 2.149305, 43.310048 ], [ 2.149108, 43.310349 ], [ 2.151788, 43.313356 ], [ 2.15056, 43.311311 ], [ 2.150765, 43.311015 ], [ 2.155778, 43.308868 ], [ 2.156085, 43.309056 ], [ 2.156426833072604, 43.315832887362895 ], [ 2.159047, 43.307897 ] ] ], [ [ [ 2.160351, 43.318134 ], [ 2.160107, 43.317869 ], [ 2.156443235997507, 43.316158077589918 ], [ 2.156451, 43.316312 ], [ 2.159008, 43.320033 ], [ 2.157761, 43.323659 ], [ 2.160351, 43.318134 ] ] ] ] } },
{ "type": "Feature", "properties": { "codgeo": "11367", "value": 420, "isochrone_group": 7.0, "nb_agences": 1 }, "geometry": { "type": "MultiPolygon", "coordinates": [ [ [ [ 2.144669, 43.326379 ], [ 2.137948, 43.328836 ], [ 2.134194, 43.328834 ], [ 2.134044, 43.329162 ], [ 2.134347, 43.3293 ], [ 2.13465, 43.329439 ], [ 2.135011, 43.329515 ], [ 2.137665, 43.33018 ], [ 2.144679, 43.33462 ], [ 2.149242, 43.341191 ], [ 2.149493, 43.345627 ], [ 2.14984, 43.345724 ], [ 2.151693, 43.34451 ], [ 2.154722, 43.338841 ], [ 2.156684, 43.335127 ], [ 2.156526, 43.334803 ], [ 2.149971303994749, 43.329423568558319 ], [ 2.149743, 43.329657 ], [ 2.150105, 43.332834 ], [ 2.151714, 43.336296 ], [ 2.15184, 43.336452 ], [ 2.151981, 43.336629 ], [ 2.152128, 43.336878 ], [ 2.152207, 43.337057 ], [ 2.152248, 43.337219 ], [ 2.152287, 43.337879 ], [ 2.151945, 43.338866 ], [ 2.151593, 43.338791 ], [ 2.144874, 43.334587 ], [ 2.144051, 43.330689 ], [ 2.144004, 43.330332 ], [ 2.147058, 43.327214 ], [ 2.150119, 43.32279 ], [ 2.144669, 43.326379 ] ] ], [ [ [ 2.162937, 43.316997 ], [ 2.162784, 43.316671 ], [ 2.160672, 43.309745 ], [ 2.161923, 43.304562 ], [ 2.161185, 43.301397 ], [ 2.160837, 43.301304 ], [ 2.156134, 43.300085 ], [ 2.149902, 43.303901 ], [ 2.149607, 43.304077 ], [ 2.14934, 43.304316 ], [ 2.146268, 43.308046 ], [ 2.146075, 43.30835 ], [ 2.146614, 43.308693 ], [ 2.147152, 43.309036 ], [ 2.148817, 43.310114 ], [ 2.14908, 43.310329 ], [ 2.151788, 43.313356 ], [ 2.149108, 43.310349 ], [ 2.149305, 43.310048 ], [ 2.150757, 43.308079 ], [ 2.156896, 43.305032 ], [ 2.159253, 43.30491 ], [ 2.159551, 43.305112 ], [ 2.159953, 43.306192 ], [ 2.159574, 43.306837 ], [ 2.159047, 43.307897 ], [ 2.156336, 43.316108 ], [ 2.160107, 43.317869 ], [ 2.160351, 43.318134 ], [ 2.157761, 43.323659 ], [ 2.162937, 43.316997 ] ] ] ] } },
{ "type": "Feature", "properties": { "codgeo": "11367", "value": 480, "isochrone_group": 8.0, "nb_agences": 1 }, "geometry": { "type": "MultiPolygon", "coordinates": [ [ [ [ 2.144641, 43.326383 ], [ 2.144455, 43.326429 ], [ 2.144268, 43.326474 ], [ 2.139657, 43.327647 ], [ 2.132965, 43.328489 ], [ 2.132639, 43.328461 ], [ 2.125615, 43.326518 ], [ 2.125301, 43.326696 ], [ 2.125441, 43.326942 ], [ 2.125581, 43.327188 ], [ 2.125723, 43.327379 ], [ 2.125878, 43.327563 ], [ 2.126024, 43.327693 ], [ 2.126848, 43.328357 ], [ 2.127037, 43.328465 ], [ 2.128772, 43.329085 ], [ 2.129023, 43.329181 ], [ 2.129242, 43.32924 ], [ 2.129443, 43.329293 ], [ 2.129649, 43.329316 ], [ 2.129874, 43.329313 ], [ 2.130143, 43.329274 ], [ 2.13465, 43.329439 ], [ 2.134347, 43.3293 ], [ 2.134044, 43.329162 ], [ 2.134194, 43.328834 ], [ 2.137948, 43.328836 ], [ 2.144669, 43.326379 ], [ 2.150119, 43.32279 ], [ 2.144641, 43.326383 ] ] ], [ [ [ 2.162961, 43.316985 ], [ 2.163285, 43.31674 ], [ 2.164272, 43.315307 ], [ 2.165335, 43.312368 ], [ 2.166152, 43.304675 ], [ 2.163126, 43.297061 ], [ 2.163123, 43.297057 ], [ 2.156739, 43.296048 ], [ 2.155973, 43.296099 ], [ 2.154309, 43.296297 ], [ 2.151914, 43.299878 ], [ 2.151671, 43.300143 ], [ 2.150773, 43.301418 ], [ 2.143323, 43.303528 ], [ 2.140816, 43.30157 ], [ 2.140528, 43.301785 ], [ 2.140897, 43.302279 ], [ 2.141266, 43.302772 ], [ 2.141441, 43.302958 ], [ 2.144572, 43.307675 ], [ 2.146542, 43.308648 ], [ 2.147152, 43.309036 ], [ 2.146614, 43.308693 ], [ 2.146075, 43.30835 ], [ 2.146268, 43.308046 ], [ 2.14934, 43.304316 ], [ 2.149607, 43.304077 ], [ 2.149902, 43.303901 ], [ 2.156134, 43.300085 ], [ 2.160837, 43.301304 ], [ 2.161185, 43.301397 ], [ 2.161923, 43.304562 ], [ 2.160672, 43.309745 ], [ 2.162784, 43.316671 ], [ 2.162937, 43.316997 ], [ 2.162926868782234, 43.317010039832432 ], [ 2.162961, 43.316985 ] ] ], [ [ [ 2.144691, 43.340713 ], [ 2.144799, 43.341056 ], [ 2.14793, 43.347056 ], [ 2.154631, 43.351548 ], [ 2.154984, 43.351614 ], [ 2.15537, 43.350618 ], [ 2.155535, 43.349514 ], [ 2.15541, 43.349176 ], [ 2.154391, 43.342608 ], [ 2.154849, 43.3387 ], [ 2.159032, 43.334608 ], [ 2.15916, 43.334478 ], [ 2.159205, 43.33429 ], [ 2.159134, 43.334012 ], [ 2.158912, 43.333211 ], [ 2.15879, 43.333195 ], [ 2.158607, 43.333217 ], [ 2.15844, 43.333367 ], [ 2.156669, 43.334736 ], [ 2.154559018368808, 43.333188700446875 ], [ 2.156526, 43.334803 ], [ 2.156684, 43.335127 ], [ 2.154722, 43.338841 ], [ 2.151693, 43.34451 ], [ 2.14984, 43.345724 ], [ 2.149493, 43.345627 ], [ 2.149242, 43.341191 ], [ 2.144679, 43.33462 ], [ 2.144691, 43.340713 ] ] ] ] } },
{ "type": "Feature", "properties": { "codgeo": "11367", "value": 540, "isochrone_group": 9.0, "nb_agences": 1 }, "geometry": { "type": "MultiPolygon", "coordinates": [ [ [ [ 2.127545, 43.322043 ], [ 2.128235, 43.320259 ], [ 2.128063, 43.319943 ], [ 2.126618, 43.319527 ], [ 2.126417, 43.319825 ], [ 2.123348, 43.325423 ], [ 2.120542, 43.327643 ], [ 2.11999, 43.328068 ], [ 2.119818, 43.328217 ], [ 2.120054, 43.328489 ], [ 2.124936, 43.328578 ], [ 2.129242, 43.32924 ], [ 2.129023, 43.329181 ], [ 2.128772, 43.329085 ], [ 2.127037, 43.328465 ], [ 2.126848, 43.328357 ], [ 2.126024, 43.327693 ], [ 2.125878, 43.327563 ], [ 2.125723, 43.327379 ], [ 2.125581, 43.327188 ], [ 2.125441, 43.326942 ], [ 2.125301, 43.326696 ], [ 2.125615, 43.326518 ], [ 2.132639, 43.328461 ], [ 2.127545, 43.322043 ] ] ], [ [ [ 2.140765, 43.325909 ], [ 2.140524, 43.326177 ], [ 2.133734036933964, 43.32839223832957 ], [ 2.139657, 43.327647 ], [ 2.144268, 43.326474 ], [ 2.144455, 43.326429 ], [ 2.144641, 43.326383 ], [ 2.144905717901365, 43.326209372504643 ], [ 2.140765, 43.325909 ] ] ], [ [ [ 2.165191, 43.313294 ], [ 2.166174, 43.314614 ], [ 2.166708, 43.317858 ], [ 2.167058, 43.317942 ], [ 2.168035, 43.316727 ], [ 2.16812, 43.316555 ], [ 2.16815, 43.316395 ], [ 2.168142, 43.316252 ], [ 2.168085, 43.316083 ], [ 2.167968, 43.31591 ], [ 2.167714, 43.315667 ], [ 2.172493, 43.308129 ], [ 2.172792, 43.308239 ], [ 2.173152, 43.308324 ], [ 2.173387, 43.308345 ], [ 2.173622, 43.308366 ], [ 2.173654, 43.308008 ], [ 2.171309, 43.303514 ], [ 2.171106, 43.303575 ], [ 2.164811, 43.300763 ], [ 2.164522, 43.297317 ], [ 2.164602, 43.29696 ], [ 2.165261, 43.294286 ], [ 2.16497, 43.294073 ], [ 2.158322, 43.291749 ], [ 2.157967, 43.29169 ], [ 2.153266, 43.293913 ], [ 2.148699, 43.295542 ], [ 2.141842, 43.296465 ], [ 2.140637, 43.298219 ], [ 2.13708, 43.305196 ], [ 2.136986, 43.30541 ], [ 2.136309, 43.306965 ], [ 2.136552, 43.307231 ], [ 2.142298, 43.308655 ], [ 2.142499, 43.308693 ], [ 2.142719, 43.308694 ], [ 2.14908, 43.310329 ], [ 2.148817, 43.310114 ], [ 2.147152, 43.309036 ], [ 2.146542, 43.308648 ], [ 2.144572, 43.307675 ], [ 2.141441, 43.302958 ], [ 2.141266, 43.302772 ], [ 2.140897, 43.302279 ], [ 2.140528, 43.301785 ], [ 2.140816, 43.30157 ], [ 2.143323, 43.303528 ], [ 2.150773, 43.301418 ], [ 2.151671, 43.300143 ], [ 2.151914, 43.299878 ], [ 2.154309, 43.296297 ], [ 2.155973, 43.296099 ], [ 2.156739, 43.296048 ], [ 2.163123, 43.297057 ], [ 2.163126, 43.297061 ], [ 2.166152, 43.304675 ], [ 2.165335, 43.312368 ], [ 2.165023491995731, 43.313229262487809 ], [ 2.165191, 43.313294 ] ] ], [ [ [ 2.153697, 43.35424 ], [ 2.153633, 43.354466 ], [ 2.153563, 43.354727 ], [ 2.15355, 43.354945 ], [ 2.153593, 43.355254 ], [ 2.153711, 43.355595 ], [ 2.153839, 43.355843 ], [ 2.153967, 43.356091 ], [ 2.161304, 43.356963 ], [ 2.161625, 43.356634 ], [ 2.16161, 43.356274 ], [ 2.158489, 43.354374 ], [ 2.158405, 43.346988 ], [ 2.157024, 43.34123 ], [ 2.15916, 43.334478 ], [ 2.159032, 43.334608 ], [ 2.154849, 43.3387 ], [ 2.154391, 43.342608 ], [ 2.15541, 43.349176 ], [ 2.155535, 43.349514 ], [ 2.15537, 43.350618 ], [ 2.154984, 43.351614 ], [ 2.154631, 43.351548 ], [ 2.152769657169519, 43.350300253097373 ], [ 2.153697, 43.35424 ] ] ], [ [ [ 2.142919, 43.341553 ], [ 2.14793, 43.347056 ], [ 2.144799, 43.341056 ], [ 2.144691, 43.340713 ], [ 2.144679, 43.33462 ], [ 2.142919, 43.341553 ] ] ] ] } },
{ "type": "Feature", "properties": { "codgeo": "11367", "value": 600, "isochrone_group": 10.0, "nb_agences": 1 }, "geometry": { "type": "MultiPolygon", "coordinates": [ [ [ [ 2.137464, 43.29979 ], [ 2.137323, 43.29999 ], [ 2.136639, 43.301177 ], [ 2.134027, 43.306362 ], [ 2.133517, 43.30773 ], [ 2.130711, 43.314048 ], [ 2.128541719211678, 43.314197836920435 ], [ 2.127467, 43.315547 ], [ 2.126787, 43.31633 ], [ 2.126391, 43.316605 ], [ 2.126095, 43.31675 ], [ 2.12566, 43.316929 ], [ 2.123915791781377, 43.31725521630127 ], [ 2.121757, 43.323086 ], [ 2.117292419697419, 43.328437977082814 ], [ 2.117481, 43.328672 ], [ 2.117545, 43.328816 ], [ 2.116276, 43.331057 ], [ 2.116185, 43.331082 ], [ 2.11508630661314, 43.331469446070408 ], [ 2.115363, 43.332715 ], [ 2.115476, 43.333056 ], [ 2.123748, 43.333889 ], [ 2.124456, 43.334215 ], [ 2.124734, 43.333986 ], [ 2.130143, 43.329274 ], [ 2.129874, 43.329313 ], [ 2.129649, 43.329316 ], [ 2.129443, 43.329293 ], [ 2.129242, 43.32924 ], [ 2.124936, 43.328578 ], [ 2.120054, 43.328489 ], [ 2.119818, 43.328217 ], [ 2.11999, 43.328068 ], [ 2.120542, 43.327643 ], [ 2.123348, 43.325423 ], [ 2.126417, 43.319825 ], [ 2.126618, 43.319527 ], [ 2.128063, 43.319943 ], [ 2.128235, 43.320259 ], [ 2.127545, 43.322043 ], [ 2.132639, 43.328461 ], [ 2.132965, 43.328489 ], [ 2.133275, 43.328542 ], [ 2.140524, 43.326177 ], [ 2.140765, 43.325909 ], [ 2.145259, 43.326235 ], [ 2.150119, 43.32279 ], [ 2.150689, 43.322132 ], [ 2.151788, 43.313356 ], [ 2.14908, 43.310329 ], [ 2.142719, 43.308694 ], [ 2.142499, 43.308693 ], [ 2.142298, 43.308655 ], [ 2.136552, 43.307231 ], [ 2.136309, 43.306965 ], [ 2.136986, 43.30541 ], [ 2.13708, 43.305196 ], [ 2.140637, 43.298219 ], [ 2.141842, 43.296465 ], [ 2.148699, 43.295542 ], [ 2.153266, 43.293913 ], [ 2.157967, 43.29169 ], [ 2.158322, 43.291749 ], [ 2.16497, 43.294073 ], [ 2.165261, 43.294286 ], [ 2.164602, 43.29696 ], [ 2.165471, 43.294024 ], [ 2.165673, 43.293739 ], [ 2.165729, 43.293369 ], [ 2.165753, 43.292775 ], [ 2.165776, 43.292185 ], [ 2.16581, 43.291654 ], [ 2.165843, 43.291123 ], [ 2.160086, 43.287532 ], [ 2.158384, 43.287501 ], [ 2.158036, 43.287593 ], [ 2.156616, 43.288908 ], [ 2.150139, 43.292104 ], [ 2.146927, 43.290591 ], [ 2.146568, 43.290568 ], [ 2.144455288406388, 43.291697525194586 ], [ 2.14391414818653, 43.292155413072926 ], [ 2.141635, 43.294956 ], [ 2.13758, 43.299634 ], [ 2.137464, 43.29979 ] ] ], [ [ [ 2.148909, 43.355772 ], [ 2.148669, 43.35604 ], [ 2.149549, 43.357079 ], [ 2.149746, 43.357273 ], [ 2.152587, 43.359819 ], [ 2.152945, 43.359855 ], [ 2.161372, 43.357018 ], [ 2.163328, 43.359528 ], [ 2.164611, 43.360747 ], [ 2.16592, 43.361001 ], [ 2.166166, 43.360739 ], [ 2.166005, 43.360202 ], [ 2.164387, 43.356556 ], [ 2.163472, 43.356317 ], [ 2.163249, 43.356239 ], [ 2.163036, 43.356217 ], [ 2.158489, 43.354374 ], [ 2.16161, 43.356274 ], [ 2.161625, 43.356634 ], [ 2.161304, 43.356963 ], [ 2.153967, 43.356091 ], [ 2.153839, 43.355843 ], [ 2.153711, 43.355595 ], [ 2.153593, 43.355254 ], [ 2.15355, 43.354945 ], [ 2.153563, 43.354727 ], [ 2.153633, 43.354466 ], [ 2.153697, 43.35424 ], [ 2.152268, 43.348169 ], [ 2.14793, 43.347056 ], [ 2.148909, 43.355772 ] ] ], [ [ [ 2.160168, 43.345945 ], [ 2.160327, 43.345834 ], [ 2.160528, 43.345681 ], [ 2.160966, 43.345383 ], [ 2.160802, 43.345063 ], [ 2.158513, 43.339149 ], [ 2.15916, 43.334478 ], [ 2.157024, 43.34123 ], [ 2.158405, 43.346988 ], [ 2.158489, 43.354374 ], [ 2.160168, 43.345945 ] ] ], [ [ [ 2.165915, 43.323966 ], [ 2.166181, 43.324208 ], [ 2.167746, 43.323619 ], [ 2.167896, 43.323458 ], [ 2.168695, 43.320091 ], [ 2.168964, 43.318095 ], [ 2.168791, 43.317779 ], [ 2.168142, 43.316252 ], [ 2.16815, 43.316395 ], [ 2.16812, 43.316555 ], [ 2.168035, 43.316727 ], [ 2.167058, 43.317942 ], [ 2.166708, 43.317858 ], [ 2.166174, 43.314614 ], [ 2.165191, 43.313294 ], [ 2.158404, 43.310671 ], [ 2.156728, 43.316537 ], [ 2.15687, 43.316855 ], [ 2.156873, 43.317479 ], [ 2.156861, 43.318026 ], [ 2.156921, 43.318685 ], [ 2.157139, 43.319992 ], [ 2.157373, 43.320736 ], [ 2.157425, 43.320866 ], [ 2.157446, 43.321069 ], [ 2.157761, 43.323659 ], [ 2.165915, 43.323966 ] ] ], [ [ [ 2.168609775115813, 43.314254078296095 ], [ 2.167714, 43.315667 ], [ 2.167968, 43.31591 ], [ 2.168085, 43.316083 ], [ 2.168609775115813, 43.314254078296095 ] ] ], [ [ [ 2.173152, 43.308324 ], [ 2.172792, 43.308239 ], [ 2.172493, 43.308129 ], [ 2.172279914982834, 43.308465102711743 ], [ 2.173152, 43.308324 ] ] ], [ [ [ 2.173641, 43.308367 ], [ 2.173958, 43.308366 ], [ 2.175257, 43.308508 ], [ 2.175715, 43.308565 ], [ 2.1762, 43.308624 ], [ 2.181155, 43.311177 ], [ 2.181514, 43.31119 ], [ 2.181578, 43.310881 ], [ 2.181613, 43.310572 ], [ 2.181527, 43.310289 ], [ 2.181424, 43.310142 ], [ 2.180613, 43.309312 ], [ 2.179816, 43.308498 ], [ 2.179641, 43.308357 ], [ 2.179462, 43.308256 ], [ 2.179244, 43.308171 ], [ 2.179048, 43.308096 ], [ 2.178859, 43.308059 ], [ 2.175201, 43.305733 ], [ 2.174248, 43.300268 ], [ 2.173965, 43.299525 ], [ 2.173614, 43.299448 ], [ 2.164899, 43.298573 ], [ 2.164602, 43.29696 ], [ 2.164522, 43.297317 ], [ 2.164811, 43.300763 ], [ 2.171106, 43.303575 ], [ 2.171309, 43.303514 ], [ 2.173654, 43.308008 ], [ 2.173622057845264, 43.308365352856093 ], [ 2.173641, 43.308367 ] ] ] ] } },
{ "type": "Feature", "properties": { "codgeo": "11367", "value": 660, "isochrone_group": 11.0, "nb_agences": 1 }, "geometry": { "type": "MultiPolygon", "coordinates": [ [ [ [ 2.109033, 43.336348 ], [ 2.116865, 43.334794 ], [ 2.121808, 43.335548 ], [ 2.127892, 43.340474 ], [ 2.128207, 43.3403 ], [ 2.127909, 43.337604 ], [ 2.129917, 43.33222 ], [ 2.137665, 43.33018 ], [ 2.135011, 43.329515 ], [ 2.13465, 43.329439 ], [ 2.130143, 43.329274 ], [ 2.124734, 43.333986 ], [ 2.124456, 43.334215 ], [ 2.123748, 43.333889 ], [ 2.118585461728072, 43.333369126404683 ], [ 2.118569, 43.333383 ], [ 2.116693, 43.334281 ], [ 2.116169, 43.334533 ], [ 2.115582, 43.334681 ], [ 2.114985, 43.334679 ], [ 2.114381, 43.334519 ], [ 2.113911, 43.334289 ], [ 2.109145759892456, 43.334522340987363 ], [ 2.108819, 43.336058 ], [ 2.109033, 43.336348 ] ] ], [ [ [ 2.146114, 43.355597 ], [ 2.145018, 43.355779 ], [ 2.142084, 43.355333 ], [ 2.14184, 43.355261 ], [ 2.141567, 43.355183 ], [ 2.141247, 43.355145 ], [ 2.140986, 43.355133 ], [ 2.138373, 43.354519 ], [ 2.138083, 43.354399 ], [ 2.137794, 43.354279 ], [ 2.137656, 43.354612 ], [ 2.138908, 43.35554 ], [ 2.139101, 43.355662 ], [ 2.13925, 43.355719 ], [ 2.139439, 43.355747 ], [ 2.142704, 43.356337 ], [ 2.142966, 43.356392 ], [ 2.143238, 43.356405 ], [ 2.15056, 43.361426 ], [ 2.150854, 43.361609 ], [ 2.151018, 43.361652 ], [ 2.152094, 43.361769 ], [ 2.152463, 43.361626 ], [ 2.161087, 43.363309 ], [ 2.161371, 43.363531 ], [ 2.165992, 43.363027 ], [ 2.17123, 43.365174 ], [ 2.17153, 43.364975 ], [ 2.17115, 43.363702 ], [ 2.170995, 43.363507 ], [ 2.170841, 43.363311 ], [ 2.168662, 43.360343 ], [ 2.168552, 43.36022 ], [ 2.16848, 43.360138 ], [ 2.1684, 43.360096 ], [ 2.164387, 43.356556 ], [ 2.166005, 43.360202 ], [ 2.166166, 43.360739 ], [ 2.16592, 43.361001 ], [ 2.164611, 43.360747 ], [ 2.163328, 43.359528 ], [ 2.161372, 43.357018 ], [ 2.152945, 43.359855 ], [ 2.152587, 43.359819 ], [ 2.149746, 43.357273 ], [ 2.149549, 43.357079 ], [ 2.148669, 43.35604 ], [ 2.148909, 43.355772 ], [ 2.14793, 43.347056 ], [ 2.146114, 43.355597 ] ] ], [ [ [ 2.162356, 43.346295 ], [ 2.162554, 43.346327 ], [ 2.163138, 43.346291 ], [ 2.163245, 43.345947 ], [ 2.15995, 43.337898 ], [ 2.160177, 43.337399 ], [ 2.166372, 43.330929 ], [ 2.166525, 43.330603 ], [ 2.167896, 43.323458 ], [ 2.167746, 43.323619 ], [ 2.166181, 43.324208 ], [ 2.165915, 43.323966 ], [ 2.157761, 43.323659 ], [ 2.155155, 43.324287 ], [ 2.154908, 43.324376 ], [ 2.154405, 43.324472 ], [ 2.153927, 43.324562 ], [ 2.149922, 43.328382 ], [ 2.149772, 43.32926 ], [ 2.149743, 43.329657 ], [ 2.156669, 43.334736 ], [ 2.15844, 43.333367 ], [ 2.158607, 43.333217 ], [ 2.15879, 43.333195 ], [ 2.158912, 43.333211 ], [ 2.159134, 43.334012 ], [ 2.159205, 43.33429 ], [ 2.15916, 43.334478 ], [ 2.158513, 43.339149 ], [ 2.160802, 43.345063 ], [ 2.160966, 43.345383 ], [ 2.160528, 43.345681 ], [ 2.160327, 43.345834 ], [ 2.160168, 43.345945 ], [ 2.158489, 43.354374 ], [ 2.162356, 43.346295 ] ] ], [ [ [ 2.170682, 43.321339 ], [ 2.170916, 43.321065 ], [ 2.171981, 43.318766 ], [ 2.171999, 43.318451 ], [ 2.171986, 43.318069 ], [ 2.171869, 43.317881 ], [ 2.171687, 43.310931 ], [ 2.1762, 43.308624 ], [ 2.175715, 43.308565 ], [ 2.175257, 43.308508 ], [ 2.173958, 43.308366 ], [ 2.173641, 43.308367 ], [ 2.173388, 43.308345 ], [ 2.173152, 43.308324 ], [ 2.170173, 43.308806 ], [ 2.168085, 43.316083 ], [ 2.168142, 43.316252 ], [ 2.168791, 43.317779 ], [ 2.168964, 43.318095 ], [ 2.168695, 43.320091 ], [ 2.167896, 43.323458 ], [ 2.170682, 43.321339 ] ] ], [ [ [ 2.181278, 43.311447 ], [ 2.181447, 43.31154 ], [ 2.181669, 43.311569 ], [ 2.181917, 43.311527 ], [ 2.187218, 43.311631 ], [ 2.18764, 43.311676 ], [ 2.188062, 43.311722 ], [ 2.1881, 43.311364 ], [ 2.184477, 43.309882 ], [ 2.183797, 43.309481 ], [ 2.183518, 43.309383 ], [ 2.183252, 43.309359 ], [ 2.179641, 43.308357 ], [ 2.179816, 43.308498 ], [ 2.180613, 43.309312 ], [ 2.181424, 43.310142 ], [ 2.181527, 43.310289 ], [ 2.181613, 43.310572 ], [ 2.181578, 43.310881 ], [ 2.181514, 43.31119 ], [ 2.181155, 43.311177 ], [ 2.1762, 43.308624 ], [ 2.181278, 43.311447 ] ] ], [ [ [ 2.177294, 43.301217 ], [ 2.177374, 43.300866 ], [ 2.17504, 43.295423 ], [ 2.17469, 43.295507 ], [ 2.173704, 43.296791 ], [ 2.165729, 43.293369 ], [ 2.165673, 43.293739 ], [ 2.165471, 43.294024 ], [ 2.164602, 43.29696 ], [ 2.164899, 43.298573 ], [ 2.173614, 43.299448 ], [ 2.173965, 43.299525 ], [ 2.174248, 43.300268 ], [ 2.175201, 43.305733 ], [ 2.178859, 43.308059 ], [ 2.179048, 43.308096 ], [ 2.179244, 43.308171 ], [ 2.179462, 43.308256 ], [ 2.179641, 43.308357 ], [ 2.177294, 43.301217 ] ] ], [ [ [ 2.165856, 43.290916 ], [ 2.165906, 43.287015 ], [ 2.165824, 43.286664 ], [ 2.164531, 43.285811 ], [ 2.1595, 43.283382 ], [ 2.154116, 43.285048 ], [ 2.1539905137359, 43.285027263962306 ], [ 2.152379, 43.28599 ], [ 2.148799443339033, 43.291473007089664 ], [ 2.150139, 43.292104 ], [ 2.156616, 43.288908 ], [ 2.158036, 43.287593 ], [ 2.158384, 43.287501 ], [ 2.160086, 43.287532 ], [ 2.165842942332543, 43.291122964029206 ], [ 2.165856, 43.290916 ] ] ], [ [ [ 2.130909, 43.312018 ], [ 2.130465896942131, 43.314064929798853 ], [ 2.130711, 43.314048 ], [ 2.132928568761243, 43.309054913958107 ], [ 2.130909, 43.312018 ] ] ], [ [ [ 2.118252, 43.325273 ], [ 2.118762829066503, 43.326675303614707 ], [ 2.121215712769667, 43.323734875516983 ], [ 2.118252, 43.325273 ] ] ] ] } },
{ "type": "Feature", "properties": { "codgeo": "11367", "value": 720, "isochrone_group": 12.0, "nb_agences": 1 }, "geometry": { "type": "MultiPolygon", "coordinates": [ [ [ [ 2.121319, 43.336755 ], [ 2.12787, 43.341463 ], [ 2.128485, 43.342031 ], [ 2.129619, 43.350411 ], [ 2.1295, 43.350751 ], [ 2.129853, 43.351257 ], [ 2.129956, 43.351354 ], [ 2.133532, 43.354094 ], [ 2.139101, 43.355662 ], [ 2.138908, 43.35554 ], [ 2.137656, 43.354612 ], [ 2.137794, 43.354279 ], [ 2.138083, 43.354399 ], [ 2.138373, 43.354519 ], [ 2.140986, 43.355133 ], [ 2.141247, 43.355145 ], [ 2.141567, 43.355183 ], [ 2.14184, 43.355261 ], [ 2.142084, 43.355333 ], [ 2.145018, 43.355779 ], [ 2.146114, 43.355597 ], [ 2.14793, 43.347056 ], [ 2.142919, 43.341553 ], [ 2.144679, 43.33462 ], [ 2.138096, 43.330225 ], [ 2.137882, 43.330229 ], [ 2.137665, 43.33018 ], [ 2.129917, 43.33222 ], [ 2.127909, 43.337604 ], [ 2.128207, 43.3403 ], [ 2.127892, 43.340474 ], [ 2.121808, 43.335548 ], [ 2.119174533749389, 43.335146293839188 ], [ 2.118805, 43.335245 ], [ 2.11646, 43.335013 ], [ 2.110814, 43.337019 ], [ 2.110515362637943, 43.34054704431702 ], [ 2.117744, 43.337521 ], [ 2.121319, 43.336755 ] ] ], [ [ [ 2.145809, 43.361233 ], [ 2.147208, 43.36119 ], [ 2.154274, 43.364813 ], [ 2.155586, 43.36931 ], [ 2.155585, 43.369474 ], [ 2.155615, 43.369646 ], [ 2.155675, 43.369847 ], [ 2.15576, 43.370063 ], [ 2.155844, 43.37028 ], [ 2.15618, 43.370149 ], [ 2.158603, 43.366814 ], [ 2.165883, 43.370215 ], [ 2.166171, 43.370431 ], [ 2.171472, 43.365663 ], [ 2.17158, 43.365535 ], [ 2.171634, 43.365367 ], [ 2.171632, 43.365203 ], [ 2.171612, 43.359789 ], [ 2.171551, 43.359434 ], [ 2.169287, 43.358633 ], [ 2.168363, 43.358253 ], [ 2.164387, 43.356556 ], [ 2.1684, 43.360096 ], [ 2.16848, 43.360138 ], [ 2.168552, 43.36022 ], [ 2.168662, 43.360343 ], [ 2.170841, 43.363311 ], [ 2.170995, 43.363507 ], [ 2.17115, 43.363702 ], [ 2.17153, 43.364975 ], [ 2.17123, 43.365174 ], [ 2.165992, 43.363027 ], [ 2.161371, 43.363531 ], [ 2.161087, 43.363309 ], [ 2.152463, 43.361626 ], [ 2.152094, 43.361769 ], [ 2.151018, 43.361652 ], [ 2.150854, 43.361609 ], [ 2.15056, 43.361426 ], [ 2.143238, 43.356405 ], [ 2.142966, 43.356392 ], [ 2.142704, 43.356337 ], [ 2.139439, 43.355747 ], [ 2.13925, 43.355719 ], [ 2.139101, 43.355662 ], [ 2.145809, 43.361233 ] ] ], [ [ [ 2.162026, 43.347354 ], [ 2.162287, 43.347159 ], [ 2.163166, 43.346556 ], [ 2.163345, 43.346435 ], [ 2.163426, 43.346213 ], [ 2.163344, 43.346024 ], [ 2.163236843705862, 43.345973222104526 ], [ 2.163138, 43.346291 ], [ 2.162554, 43.346327 ], [ 2.162356, 43.346295 ], [ 2.158489, 43.354374 ], [ 2.163036, 43.356217 ], [ 2.163249, 43.356239 ], [ 2.162026, 43.347354 ] ] ], [ [ [ 2.161793, 43.336048 ], [ 2.167899, 43.334547 ], [ 2.170072, 43.334291 ], [ 2.170353, 43.334245 ], [ 2.17355, 43.333091 ], [ 2.173604, 43.332735 ], [ 2.17276, 43.332606 ], [ 2.16938, 43.330894 ], [ 2.169138, 43.330627 ], [ 2.172055, 43.322199 ], [ 2.172344, 43.322124 ], [ 2.172633, 43.322049 ], [ 2.175465, 43.31931 ], [ 2.175317, 43.318981 ], [ 2.174367, 43.311806 ], [ 2.181278, 43.311447 ], [ 2.1762, 43.308624 ], [ 2.171687, 43.310931 ], [ 2.171869, 43.317881 ], [ 2.171986, 43.318069 ], [ 2.171999, 43.318451 ], [ 2.171981, 43.318766 ], [ 2.170916, 43.321065 ], [ 2.170682, 43.321339 ], [ 2.167896, 43.323458 ], [ 2.166525, 43.330603 ], [ 2.166372, 43.330929 ], [ 2.160177, 43.337399 ], [ 2.15995, 43.337898 ], [ 2.161793, 43.336048 ] ] ], [ [ [ 2.188954, 43.312182 ], [ 2.189151, 43.312216 ], [ 2.193135, 43.31304 ], [ 2.193366, 43.312765 ], [ 2.193779, 43.30998 ], [ 2.193452, 43.309829 ], [ 2.184477, 43.309882 ], [ 2.1881, 43.311364 ], [ 2.188062, 43.311722 ], [ 2.18764, 43.311676 ], [ 2.187218, 43.311631 ], [ 2.188954, 43.312182 ] ] ], [ [ [ 2.178316, 43.301934 ], [ 2.178474, 43.301502 ], [ 2.178417, 43.301284 ], [ 2.175023, 43.295375 ], [ 2.174327, 43.292359 ], [ 2.17416, 43.292041 ], [ 2.170378, 43.286905 ], [ 2.16537, 43.280087 ], [ 2.162314938991451, 43.279588295395868 ], [ 2.160846760950591, 43.284032225074341 ], [ 2.164531, 43.285811 ], [ 2.165824, 43.286664 ], [ 2.165906, 43.287015 ], [ 2.165856, 43.290916 ], [ 2.165816, 43.29155 ], [ 2.165776, 43.292185 ], [ 2.165753, 43.292775 ], [ 2.165729, 43.293369 ], [ 2.173704, 43.296791 ], [ 2.17469, 43.295507 ], [ 2.17504, 43.295423 ], [ 2.177374, 43.300866 ], [ 2.177294, 43.301217 ], [ 2.179641, 43.308357 ], [ 2.183252, 43.309359 ], [ 2.178316, 43.301934 ] ] ] ] } },
{ "type": "Feature", "properties": { "codgeo": "11367", "value": 780, "isochrone_group": 13.0, "nb_agences": 1 }, "geometry": { "type": "MultiPolygon", "coordinates": [ [ [ [ 2.130187, 43.353069 ], [ 2.136687, 43.355917 ], [ 2.137692, 43.35661 ], [ 2.138289, 43.357064 ], [ 2.144699, 43.362888 ], [ 2.146678, 43.362827 ], [ 2.151593, 43.369013 ], [ 2.150692, 43.371312 ], [ 2.147029, 43.37466 ], [ 2.14864, 43.37788 ], [ 2.150546, 43.376926 ], [ 2.152453, 43.375972 ], [ 2.160099, 43.376513 ], [ 2.163353, 43.378053 ], [ 2.169339, 43.372576 ], [ 2.172878, 43.366504 ], [ 2.177208, 43.361315 ], [ 2.17924, 43.358715 ], [ 2.178846, 43.357864 ], [ 2.178228, 43.357259 ], [ 2.178033, 43.357146 ], [ 2.175173, 43.356173 ], [ 2.17272, 43.357765 ], [ 2.165587, 43.356693 ], [ 2.164721, 43.355868 ], [ 2.16427, 43.347764 ], [ 2.165044, 43.34628 ], [ 2.164718, 43.345165 ], [ 2.163538, 43.344342 ], [ 2.163039, 43.344016 ], [ 2.162423, 43.343671 ], [ 2.161563, 43.343416 ], [ 2.161542615516156, 43.343401511119474 ], [ 2.162103, 43.345338 ], [ 2.163057, 43.345888 ], [ 2.163344, 43.346024 ], [ 2.163426, 43.346213 ], [ 2.163345, 43.346435 ], [ 2.163166, 43.346556 ], [ 2.162287, 43.347159 ], [ 2.162026, 43.347354 ], [ 2.163249, 43.356239 ], [ 2.163472, 43.356317 ], [ 2.164387, 43.356556 ], [ 2.168363, 43.358253 ], [ 2.169287, 43.358633 ], [ 2.171551, 43.359434 ], [ 2.171612, 43.359789 ], [ 2.171632, 43.365203 ], [ 2.171634, 43.365367 ], [ 2.17158, 43.365535 ], [ 2.171472, 43.365663 ], [ 2.166171, 43.370431 ], [ 2.165883, 43.370215 ], [ 2.158603, 43.366814 ], [ 2.15618, 43.370149 ], [ 2.155844, 43.37028 ], [ 2.15576, 43.370063 ], [ 2.155675, 43.369847 ], [ 2.155615, 43.369646 ], [ 2.155585, 43.369474 ], [ 2.155586, 43.36931 ], [ 2.154274, 43.364813 ], [ 2.147208, 43.36119 ], [ 2.145809, 43.361233 ], [ 2.139101, 43.355662 ], [ 2.133532, 43.354094 ], [ 2.129956, 43.351354 ], [ 2.129853, 43.351257 ], [ 2.1295, 43.350751 ], [ 2.129619, 43.350411 ], [ 2.128485, 43.342031 ], [ 2.12787, 43.341463 ], [ 2.125650115060724, 43.339867637720339 ], [ 2.126435, 43.348068 ], [ 2.129316, 43.348687 ], [ 2.128559, 43.352207 ], [ 2.12634248649447, 43.353499568208811 ], [ 2.129683, 43.35298 ], [ 2.130187, 43.353069 ] ] ], [ [ [ 2.168137, 43.33507 ], [ 2.168797, 43.33547 ], [ 2.169435, 43.335805 ], [ 2.170192, 43.335907 ], [ 2.175222, 43.33887 ], [ 2.17799, 43.338262 ], [ 2.178628, 43.337704 ], [ 2.178654, 43.33632 ], [ 2.178321, 43.335341 ], [ 2.177654, 43.333811 ], [ 2.177254, 43.332442 ], [ 2.176812, 43.332159 ], [ 2.175434, 43.331515 ], [ 2.172575, 43.330066 ], [ 2.170776488610453, 43.325892964343886 ], [ 2.169138, 43.330627 ], [ 2.16938, 43.330894 ], [ 2.17276, 43.332606 ], [ 2.173604, 43.332735 ], [ 2.17355, 43.333091 ], [ 2.170353, 43.334245 ], [ 2.170072, 43.334291 ], [ 2.167899, 43.334547 ], [ 2.167388251397762, 43.334672554151993 ], [ 2.168137, 43.33507 ] ] ], [ [ [ 2.175399, 43.313712 ], [ 2.181206, 43.313142 ], [ 2.181789, 43.313185 ], [ 2.182467, 43.313051 ], [ 2.190406, 43.316655 ], [ 2.191319, 43.318063 ], [ 2.191892, 43.317989 ], [ 2.192242, 43.317911 ], [ 2.193057, 43.317547 ], [ 2.200543, 43.313664 ], [ 2.203072, 43.311522 ], [ 2.201289, 43.308394 ], [ 2.193916, 43.305966 ], [ 2.193233, 43.305842 ], [ 2.190357, 43.306508 ], [ 2.184039, 43.307849 ], [ 2.183359, 43.307742 ], [ 2.181893800565613, 43.307315922447252 ], [ 2.183252, 43.309359 ], [ 2.183518, 43.309383 ], [ 2.183797, 43.309481 ], [ 2.184477, 43.309882 ], [ 2.193452, 43.309829 ], [ 2.193779, 43.30998 ], [ 2.193366, 43.312765 ], [ 2.193135, 43.31304 ], [ 2.189151, 43.312216 ], [ 2.188954, 43.312182 ], [ 2.187218, 43.311631 ], [ 2.18703, 43.311586 ], [ 2.181917, 43.311527 ], [ 2.181669, 43.311569 ], [ 2.181447, 43.31154 ], [ 2.181278, 43.311447 ], [ 2.174367, 43.311806 ], [ 2.174676963647624, 43.314147041233369 ], [ 2.175399, 43.313712 ] ] ], [ [ [ 2.17661, 43.296222 ], [ 2.176654, 43.295205 ], [ 2.177484, 43.291552 ], [ 2.177789, 43.290869 ], [ 2.178395, 43.289478 ], [ 2.178823, 43.288627 ], [ 2.176123, 43.286685 ], [ 2.175829, 43.286628 ], [ 2.169945, 43.281707 ], [ 2.169411, 43.278147 ], [ 2.168574374473933, 43.27827291870797 ], [ 2.166337194467283, 43.281403759560298 ], [ 2.170378, 43.286905 ], [ 2.17416, 43.292041 ], [ 2.174327, 43.292359 ], [ 2.175023, 43.295375 ], [ 2.176227364786248, 43.29747181541601 ], [ 2.17661, 43.296222 ] ] ] ] } },
{ "type": "Feature", "properties": { "codgeo": "11367", "value": 840, "isochrone_group": 14.0, "nb_agences": 1 }, "geometry": { "type": "MultiPolygon", "coordinates": [ [ [ [ 2.141617, 43.362956 ], [ 2.145906, 43.367808 ], [ 2.147193, 43.370335 ], [ 2.142209, 43.376098 ], [ 2.141503, 43.376076 ], [ 2.139639, 43.376208 ], [ 2.137787, 43.381435 ], [ 2.14007, 43.384218 ], [ 2.140875, 43.383558 ], [ 2.142745, 43.382066 ], [ 2.144635, 43.380558 ], [ 2.146305, 43.379283 ], [ 2.147285, 43.378587 ], [ 2.148277, 43.378061 ], [ 2.148639764816532, 43.377879529925039 ], [ 2.147029, 43.37466 ], [ 2.150692, 43.371312 ], [ 2.151593, 43.369013 ], [ 2.146678, 43.362827 ], [ 2.144699, 43.362888 ], [ 2.138289, 43.357064 ], [ 2.137692, 43.35661 ], [ 2.136687, 43.355917 ], [ 2.141617, 43.362956 ] ] ], [ [ [ 2.158156, 43.380854 ], [ 2.158291, 43.381317 ], [ 2.159343, 43.383041 ], [ 2.160049, 43.384461 ], [ 2.161663, 43.384382 ], [ 2.16183, 43.384307 ], [ 2.163476, 43.383359 ], [ 2.168862, 43.37743 ], [ 2.168604, 43.375742 ], [ 2.168489, 43.37532 ], [ 2.168388298917823, 43.373445861314252 ], [ 2.163353, 43.378053 ], [ 2.160099, 43.376513 ], [ 2.152453, 43.375972 ], [ 2.150546, 43.376926 ], [ 2.150346105920506, 43.377026051915962 ], [ 2.158156, 43.380854 ] ] ], [ [ [ 2.175631, 43.369169 ], [ 2.176194, 43.369747 ], [ 2.176823, 43.370068 ], [ 2.177367, 43.370228 ], [ 2.178856, 43.367244 ], [ 2.17871, 43.366603 ], [ 2.178326, 43.365925 ], [ 2.183236, 43.35839 ], [ 2.184583, 43.358645 ], [ 2.185108, 43.358689 ], [ 2.186615, 43.358798 ], [ 2.1877, 43.355365 ], [ 2.187409, 43.355273 ], [ 2.186975, 43.355168 ], [ 2.181573, 43.349016 ], [ 2.18285, 43.345157 ], [ 2.183677, 43.3439 ], [ 2.183746, 43.343794 ], [ 2.184427, 43.342751 ], [ 2.183945, 43.341822 ], [ 2.180554, 43.333601 ], [ 2.180585, 43.331885 ], [ 2.17403, 43.327265 ], [ 2.169487, 43.322901 ], [ 2.172575, 43.330066 ], [ 2.175434, 43.331515 ], [ 2.176812, 43.332159 ], [ 2.177254, 43.332442 ], [ 2.177654, 43.333811 ], [ 2.178321, 43.335341 ], [ 2.178654, 43.33632 ], [ 2.178628, 43.337704 ], [ 2.17799, 43.338262 ], [ 2.175222, 43.33887 ], [ 2.170192, 43.335907 ], [ 2.169435, 43.335805 ], [ 2.168797, 43.33547 ], [ 2.168137, 43.33507 ], [ 2.16692, 43.334424 ], [ 2.164556, 43.331867 ], [ 2.164212, 43.331661 ], [ 2.163812, 43.331299 ], [ 2.1635, 43.330829 ], [ 2.163096, 43.329487 ], [ 2.155432, 43.325909 ], [ 2.151719, 43.332696 ], [ 2.152975, 43.335278 ], [ 2.153371, 43.335797 ], [ 2.153604, 43.336209 ], [ 2.153767, 43.336619 ], [ 2.155017, 43.338411 ], [ 2.156062, 43.339506 ], [ 2.161563, 43.343416 ], [ 2.162423, 43.343671 ], [ 2.163039, 43.344016 ], [ 2.163538, 43.344342 ], [ 2.164718, 43.345165 ], [ 2.165044, 43.34628 ], [ 2.16427, 43.347764 ], [ 2.164721, 43.355868 ], [ 2.165587, 43.356693 ], [ 2.17272, 43.357765 ], [ 2.175173, 43.356173 ], [ 2.178033, 43.357146 ], [ 2.178228, 43.357259 ], [ 2.178846, 43.357864 ], [ 2.17924, 43.358715 ], [ 2.177208, 43.361315 ], [ 2.172878, 43.366504 ], [ 2.170944291041156, 43.369821739699944 ], [ 2.175631, 43.369169 ] ] ], [ [ [ 2.177616, 43.315475 ], [ 2.180645, 43.31353 ], [ 2.181789, 43.313185 ], [ 2.181206, 43.313142 ], [ 2.175399, 43.313712 ], [ 2.169605, 43.317203 ], [ 2.177616, 43.315475 ] ] ], [ [ [ 2.190088, 43.317013 ], [ 2.190625, 43.320572 ], [ 2.194083, 43.3207 ], [ 2.194516, 43.320779 ], [ 2.194844, 43.320812 ], [ 2.199756, 43.316748 ], [ 2.206727, 43.312343 ], [ 2.208377, 43.31189 ], [ 2.211336, 43.307527 ], [ 2.209336, 43.304533 ], [ 2.207821, 43.305219 ], [ 2.207208, 43.305552 ], [ 2.206633, 43.30594 ], [ 2.206516, 43.306017 ], [ 2.206292, 43.306198 ], [ 2.202436, 43.30802 ], [ 2.201908, 43.308126 ], [ 2.201539, 43.308267 ], [ 2.194126, 43.303206 ], [ 2.194132, 43.302791 ], [ 2.194079, 43.302267 ], [ 2.19397, 43.301735 ], [ 2.193836, 43.301267 ], [ 2.193738, 43.301001 ], [ 2.19036, 43.302243 ], [ 2.188812, 43.302562 ], [ 2.186568, 43.305377 ], [ 2.180035049427683, 43.306511937826322 ], [ 2.18024, 43.306835 ], [ 2.183359, 43.307742 ], [ 2.184039, 43.307849 ], [ 2.190357, 43.306508 ], [ 2.193233, 43.305842 ], [ 2.193916, 43.305966 ], [ 2.201289, 43.308394 ], [ 2.203072, 43.311522 ], [ 2.200543, 43.313664 ], [ 2.193057, 43.317547 ], [ 2.192242, 43.317911 ], [ 2.191892, 43.317989 ], [ 2.191319, 43.318063 ], [ 2.190406, 43.316655 ], [ 2.182467, 43.313051 ], [ 2.190088, 43.317013 ] ] ], [ [ [ 2.181887, 43.288916 ], [ 2.182267, 43.285336 ], [ 2.178606, 43.282335 ], [ 2.175738, 43.278243 ], [ 2.172637, 43.278075 ], [ 2.17221, 43.278015 ], [ 2.171895642098404, 43.277463983442537 ], [ 2.170774, 43.28162 ], [ 2.170712696522512, 43.282349052105253 ], [ 2.175829, 43.286628 ], [ 2.176123, 43.286685 ], [ 2.178823, 43.288627 ], [ 2.178395, 43.289478 ], [ 2.177789, 43.290869 ], [ 2.177484, 43.291552 ], [ 2.176654, 43.295205 ], [ 2.181887, 43.288916 ] ] ], [ [ [ 2.130025, 43.353051 ], [ 2.125374263106836, 43.354560666990274 ], [ 2.130187, 43.353069 ], [ 2.130116945945956, 43.353056629343627 ], [ 2.130025, 43.353051 ] ] ] ] } },
{ "type": "Feature", "properties": { "codgeo": "11367", "value": 900, "isochrone_group": 15.0, "nb_agences": 1 }, "geometry": { "type": "MultiPolygon", "coordinates": [ [ [ [ 2.137532, 43.362176 ], [ 2.138134, 43.364792 ], [ 2.138344, 43.365032 ], [ 2.139138, 43.365596 ], [ 2.139639, 43.365796 ], [ 2.143838, 43.371525 ], [ 2.13675, 43.375729 ], [ 2.134474, 43.378518 ], [ 2.136199, 43.384487 ], [ 2.133068, 43.388191 ], [ 2.131878, 43.389141 ], [ 2.134126, 43.391954 ], [ 2.135315, 43.391004 ], [ 2.137843, 43.388891 ], [ 2.138106, 43.388659 ], [ 2.138408, 43.388334 ], [ 2.138688, 43.387928 ], [ 2.142745, 43.382066 ], [ 2.140875, 43.383558 ], [ 2.14007, 43.384218 ], [ 2.137787, 43.381435 ], [ 2.139639, 43.376208 ], [ 2.141503, 43.376076 ], [ 2.142209, 43.376098 ], [ 2.147193, 43.370335 ], [ 2.145906, 43.367808 ], [ 2.141617, 43.362956 ], [ 2.137213437595713, 43.356668641832904 ], [ 2.134076, 43.35562 ], [ 2.133929718742817, 43.355633434201984 ], [ 2.137532, 43.358576 ], [ 2.137532, 43.362176 ] ] ], [ [ [ 2.158402, 43.383306 ], [ 2.160225, 43.385584 ], [ 2.160661, 43.386254 ], [ 2.161836, 43.388589 ], [ 2.162724, 43.389915 ], [ 2.163715, 43.39074 ], [ 2.167069, 43.389432 ], [ 2.166571, 43.38798 ], [ 2.166237, 43.387403 ], [ 2.170502, 43.379868 ], [ 2.17136, 43.379663 ], [ 2.173139, 43.377448 ], [ 2.177455, 43.372371 ], [ 2.183134, 43.373077 ], [ 2.183552, 43.373305 ], [ 2.186706, 43.371926 ], [ 2.18654, 43.371479 ], [ 2.186348, 43.371095 ], [ 2.185915, 43.370582 ], [ 2.184816, 43.369258 ], [ 2.184152, 43.368517 ], [ 2.181498, 43.364022 ], [ 2.188059, 43.359782 ], [ 2.18843, 43.359872 ], [ 2.188815, 43.35991 ], [ 2.18941, 43.359862 ], [ 2.189976, 43.359674 ], [ 2.196196, 43.359488 ], [ 2.198557, 43.358817 ], [ 2.198327, 43.355225 ], [ 2.196717, 43.355274 ], [ 2.194716, 43.355419 ], [ 2.192509, 43.35526 ], [ 2.192018, 43.355255 ], [ 2.189258, 43.355283 ], [ 2.186975, 43.355168 ], [ 2.187409, 43.355273 ], [ 2.1877, 43.355365 ], [ 2.186615, 43.358798 ], [ 2.185108, 43.358689 ], [ 2.184583, 43.358645 ], [ 2.183236, 43.35839 ], [ 2.178326, 43.365925 ], [ 2.17871, 43.366603 ], [ 2.178856, 43.367244 ], [ 2.177367, 43.370228 ], [ 2.176823, 43.370068 ], [ 2.176194, 43.369747 ], [ 2.175631, 43.369169 ], [ 2.168214, 43.370202 ], [ 2.168489, 43.37532 ], [ 2.168604, 43.375742 ], [ 2.168862, 43.37743 ], [ 2.163476, 43.383359 ], [ 2.16183, 43.384307 ], [ 2.161663, 43.384382 ], [ 2.160049, 43.384461 ], [ 2.159343, 43.383041 ], [ 2.158291, 43.381317 ], [ 2.158156, 43.380854 ], [ 2.158402, 43.383306 ] ] ], [ [ [ 2.181763427778399, 43.348440541271067 ], [ 2.181573, 43.349016 ], [ 2.186975, 43.355168 ], [ 2.181763427778399, 43.348440541271067 ] ] ], [ [ [ 2.185291, 43.34143 ], [ 2.186837, 43.339065 ], [ 2.188112, 43.337111 ], [ 2.189963, 43.334192 ], [ 2.186922, 43.332264 ], [ 2.180563, 43.330744 ], [ 2.179085642117402, 43.330828244329894 ], [ 2.180585, 43.331885 ], [ 2.180554, 43.333601 ], [ 2.183945, 43.341822 ], [ 2.184427, 43.342751 ], [ 2.183746, 43.343794 ], [ 2.185291, 43.34143 ] ] ], [ [ [ 2.178491, 43.316572 ], [ 2.180931, 43.316529 ], [ 2.186856, 43.320966 ], [ 2.18827, 43.32083 ], [ 2.189465, 43.320724 ], [ 2.190129, 43.320646 ], [ 2.190624933755951, 43.320571560963572 ], [ 2.190088, 43.317013 ], [ 2.182467, 43.313051 ], [ 2.181789, 43.313185 ], [ 2.180645, 43.31353 ], [ 2.177616, 43.315475 ], [ 2.169605, 43.317203 ], [ 2.178491, 43.316572 ] ] ], [ [ [ 2.195022, 43.320822 ], [ 2.196211, 43.32083 ], [ 2.19809, 43.320773 ], [ 2.198888, 43.320621 ], [ 2.199602, 43.320201 ], [ 2.201987, 43.317469 ], [ 2.20238, 43.317068 ], [ 2.210041, 43.31292 ], [ 2.211006, 43.312392 ], [ 2.216784, 43.307245 ], [ 2.216994, 43.306956 ], [ 2.217342, 43.305972 ], [ 2.217234, 43.305118 ], [ 2.2166, 43.304225 ], [ 2.213074, 43.300474 ], [ 2.212969, 43.300375 ], [ 2.210821, 43.301197 ], [ 2.207208, 43.305552 ], [ 2.207821, 43.305219 ], [ 2.209336, 43.304533 ], [ 2.211336, 43.307527 ], [ 2.208377, 43.31189 ], [ 2.206727, 43.312343 ], [ 2.199756, 43.316748 ], [ 2.194849619036863, 43.320807351024875 ], [ 2.195022, 43.320822 ] ] ], [ [ [ 2.193624, 43.300748 ], [ 2.192815, 43.298979 ], [ 2.192681, 43.29857 ], [ 2.192525, 43.298158 ], [ 2.192312, 43.297674 ], [ 2.192058, 43.297244 ], [ 2.19101, 43.295992 ], [ 2.187622, 43.290433 ], [ 2.187263, 43.286851 ], [ 2.181796, 43.281608 ], [ 2.181001, 43.279957 ], [ 2.180912801448417, 43.279738207307787 ], [ 2.177832768200203, 43.281231769691516 ], [ 2.178606, 43.282335 ], [ 2.182267, 43.285336 ], [ 2.181887, 43.288916 ], [ 2.176654, 43.295205 ], [ 2.17661, 43.296222 ], [ 2.1756, 43.299521 ], [ 2.179626, 43.306583 ], [ 2.186568, 43.305377 ], [ 2.188812, 43.302562 ], [ 2.19036, 43.302243 ], [ 2.193728736191572, 43.301004406053899 ], [ 2.193624, 43.300748 ] ] ] ] } },
{ "type": "Feature", "properties": { "codgeo": "11367", "value": 960, "isochrone_group": 16.0, "nb_agences": 1 }, "geometry": { "type": "MultiPolygon", "coordinates": [ [ [ [ 2.13562, 43.36525 ], [ 2.134308, 43.371402 ], [ 2.131653, 43.373834 ], [ 2.133693, 43.377354 ], [ 2.134113, 43.37812 ], [ 2.134496197204113, 43.378490799647501 ], [ 2.13675, 43.375729 ], [ 2.143838, 43.371525 ], [ 2.139639, 43.365796 ], [ 2.139138, 43.365596 ], [ 2.138344, 43.365032 ], [ 2.138134, 43.364792 ], [ 2.137532, 43.362176 ], [ 2.137532, 43.358576 ], [ 2.130893469007987, 43.353153237907989 ], [ 2.130466, 43.353078 ], [ 2.129958551586955, 43.353378466483356 ], [ 2.133651, 43.358718 ], [ 2.133861, 43.362312 ], [ 2.13562, 43.36525 ] ] ], [ [ [ 2.129298, 43.391022 ], [ 2.127054, 43.391873 ], [ 2.12653, 43.392048 ], [ 2.12469, 43.392511 ], [ 2.123102, 43.395742 ], [ 2.123697, 43.3961 ], [ 2.124128, 43.396317 ], [ 2.124489, 43.396436 ], [ 2.125034, 43.396516 ], [ 2.125415, 43.396518 ], [ 2.125886, 43.396461 ], [ 2.1288, 43.396015 ], [ 2.135164, 43.392363 ], [ 2.138106, 43.388659 ], [ 2.137843, 43.388891 ], [ 2.135315, 43.391004 ], [ 2.134126, 43.391954 ], [ 2.1318799167243, 43.389143398463283 ], [ 2.131838, 43.389177 ], [ 2.129298, 43.391022 ] ] ], [ [ [ 2.1613, 43.388964 ], [ 2.162611, 43.392674 ], [ 2.162984, 43.393684 ], [ 2.163399, 43.394127 ], [ 2.165886, 43.395635 ], [ 2.168315, 43.393748 ], [ 2.169177, 43.390253 ], [ 2.169588, 43.387927 ], [ 2.173973, 43.380836 ], [ 2.174748, 43.380451 ], [ 2.17521, 43.380125 ], [ 2.179154, 43.375047 ], [ 2.184868, 43.376067 ], [ 2.186489, 43.37709 ], [ 2.186824, 43.377014 ], [ 2.192662, 43.375922 ], [ 2.195302, 43.373475 ], [ 2.194871, 43.37301 ], [ 2.194218, 43.372547 ], [ 2.191551, 43.371564 ], [ 2.191092, 43.37132 ], [ 2.189104, 43.369785 ], [ 2.184152, 43.368517 ], [ 2.184816, 43.369258 ], [ 2.185915, 43.370582 ], [ 2.186348, 43.371095 ], [ 2.18654, 43.371479 ], [ 2.186706, 43.371926 ], [ 2.183552, 43.373305 ], [ 2.183134, 43.373077 ], [ 2.177455, 43.372371 ], [ 2.173139, 43.377448 ], [ 2.17136, 43.379663 ], [ 2.170502, 43.379868 ], [ 2.166237, 43.387403 ], [ 2.166571, 43.38798 ], [ 2.167069, 43.389432 ], [ 2.163715, 43.39074 ], [ 2.162724, 43.389915 ], [ 2.161836, 43.388589 ], [ 2.160661, 43.386254 ], [ 2.160225, 43.385584 ], [ 2.158402, 43.383306 ], [ 2.159481, 43.385858 ], [ 2.1613, 43.388964 ] ] ], [ [ [ 2.193362, 43.361267 ], [ 2.197536, 43.361268 ], [ 2.199874, 43.361977 ], [ 2.200289, 43.362176 ], [ 2.200726, 43.362297 ], [ 2.20132, 43.362438 ], [ 2.201709, 43.362532 ], [ 2.202176, 43.362571 ], [ 2.203116, 43.362672 ], [ 2.207283, 43.361002 ], [ 2.20716, 43.36052 ], [ 2.206957, 43.360022 ], [ 2.206684, 43.35961 ], [ 2.205834, 43.358871 ], [ 2.205561, 43.358632 ], [ 2.204945, 43.358303 ], [ 2.200821, 43.355774 ], [ 2.20034, 43.355501 ], [ 2.199792, 43.355319 ], [ 2.193944, 43.352962 ], [ 2.190573, 43.352524 ], [ 2.190469, 43.35266 ], [ 2.186722925276728, 43.354842604471493 ], [ 2.186975, 43.355168 ], [ 2.189258, 43.355283 ], [ 2.192018, 43.355255 ], [ 2.192509, 43.35526 ], [ 2.194716, 43.355419 ], [ 2.196717, 43.355274 ], [ 2.198327, 43.355225 ], [ 2.198557, 43.358817 ], [ 2.196196, 43.359488 ], [ 2.189976, 43.359674 ], [ 2.18941, 43.359862 ], [ 2.188815, 43.35991 ], [ 2.19174, 43.361145 ], [ 2.193362, 43.361267 ] ] ], [ [ [ 2.189445502411141, 43.335008086149038 ], [ 2.188112, 43.337111 ], [ 2.189279, 43.335271 ], [ 2.189445502411141, 43.335008086149038 ] ] ], [ [ [ 2.196653, 43.328153 ], [ 2.200734, 43.323293 ], [ 2.202096, 43.322159 ], [ 2.204337, 43.320354 ], [ 2.208942, 43.316504 ], [ 2.214762, 43.312465 ], [ 2.216724, 43.311436 ], [ 2.217097, 43.31125 ], [ 2.219191, 43.308475 ], [ 2.219367, 43.307655 ], [ 2.219297, 43.30663 ], [ 2.21715, 43.302983 ], [ 2.216753, 43.296539 ], [ 2.213416, 43.295188 ], [ 2.21184, 43.296625 ], [ 2.210812, 43.297504 ], [ 2.210633, 43.297669 ], [ 2.210258, 43.29814 ], [ 2.209578, 43.298946 ], [ 2.207399, 43.300738 ], [ 2.206945, 43.301108 ], [ 2.201908, 43.308126 ], [ 2.202436, 43.30802 ], [ 2.206292, 43.306198 ], [ 2.206633, 43.30594 ], [ 2.207208, 43.305552 ], [ 2.210821, 43.301197 ], [ 2.212969, 43.300375 ], [ 2.213074, 43.300474 ], [ 2.2166, 43.304225 ], [ 2.217234, 43.305118 ], [ 2.217342, 43.305972 ], [ 2.216994, 43.306956 ], [ 2.216784, 43.307245 ], [ 2.211006, 43.312392 ], [ 2.210041, 43.31292 ], [ 2.20238, 43.317068 ], [ 2.201987, 43.317469 ], [ 2.199602, 43.320201 ], [ 2.198888, 43.320621 ], [ 2.19809, 43.320773 ], [ 2.196211, 43.32083 ], [ 2.195022, 43.320822 ], [ 2.194516, 43.320779 ], [ 2.194083, 43.3207 ], [ 2.191648, 43.320418 ], [ 2.190129, 43.320646 ], [ 2.189465, 43.320724 ], [ 2.18827, 43.32083 ], [ 2.186856, 43.320966 ], [ 2.180931, 43.316529 ], [ 2.178491, 43.316572 ], [ 2.169605, 43.317203 ], [ 2.169144, 43.322157 ], [ 2.169487, 43.322901 ], [ 2.169259, 43.324333 ], [ 2.174235, 43.331196 ], [ 2.176968, 43.330949 ], [ 2.180563, 43.330744 ], [ 2.186922, 43.332264 ], [ 2.18996251971881, 43.334191695500792 ], [ 2.190424, 43.333463 ], [ 2.196653, 43.328153 ] ] ], [ [ [ 2.192196, 43.287858 ], [ 2.192012, 43.287571 ], [ 2.191659, 43.287036 ], [ 2.187839, 43.287013 ], [ 2.187271066458685, 43.286931484832891 ], [ 2.187622, 43.290433 ], [ 2.19101, 43.295992 ], [ 2.192058, 43.297244 ], [ 2.192312, 43.297674 ], [ 2.192525, 43.298158 ], [ 2.192681, 43.29857 ], [ 2.192815, 43.298979 ], [ 2.193624, 43.300748 ], [ 2.193836, 43.301267 ], [ 2.19397, 43.301735 ], [ 2.195321, 43.295769 ], [ 2.192196, 43.287858 ] ] ], [ [ [ 2.18116959152158, 43.280307118996397 ], [ 2.181796, 43.281608 ], [ 2.184526300269864, 43.284226431372758 ], [ 2.184082704877406, 43.281126950745985 ], [ 2.18116959152158, 43.280307118996397 ] ] ] ] } },
{ "type": "Feature", "properties": { "codgeo": "11367", "value": 1020, "isochrone_group": 17.0, "nb_agences": 1 }, "geometry": { "type": "MultiPolygon", "coordinates": [ [ [ [ 2.132549, 43.363292 ], [ 2.133225, 43.366741 ], [ 2.133977, 43.366653 ], [ 2.13536561459394, 43.366442819373539 ], [ 2.13562, 43.36525 ], [ 2.133861, 43.362312 ], [ 2.133651, 43.358718 ], [ 2.13363886210856, 43.35870044777694 ], [ 2.133643, 43.362252 ], [ 2.132881, 43.362879 ], [ 2.132549, 43.363292 ] ] ], [ [ [ 2.136199, 43.384487 ], [ 2.136053047106869, 43.383894364817301 ], [ 2.133068, 43.388191 ], [ 2.136199, 43.384487 ] ] ], [ [ [ 2.121611, 43.391101 ], [ 2.121111, 43.390988 ], [ 2.120647, 43.390931 ], [ 2.120067, 43.390915 ], [ 2.119461, 43.390954 ], [ 2.118748, 43.391091 ], [ 2.11656608446356, 43.39151198370341 ], [ 2.117046, 43.391888 ], [ 2.118256, 43.393074 ], [ 2.115737, 43.395645 ], [ 2.115732818739104, 43.395645178847268 ], [ 2.115854, 43.39576 ], [ 2.11619, 43.396029 ], [ 2.116526, 43.396231 ], [ 2.125034, 43.396516 ], [ 2.124489, 43.396436 ], [ 2.124128, 43.396317 ], [ 2.123697, 43.3961 ], [ 2.123102, 43.395742 ], [ 2.12469, 43.392511 ], [ 2.12653, 43.392048 ], [ 2.127054, 43.391873 ], [ 2.129298, 43.391022 ], [ 2.122093, 43.391263 ], [ 2.121611, 43.391101 ] ] ], [ [ [ 2.131015, 43.397124 ], [ 2.134013, 43.395719 ], [ 2.136556, 43.393171 ], [ 2.138688, 43.387928 ], [ 2.138408, 43.388334 ], [ 2.138106, 43.388659 ], [ 2.135164, 43.392363 ], [ 2.1288, 43.396015 ], [ 2.125886, 43.396461 ], [ 2.125415, 43.396518 ], [ 2.125034, 43.396516 ], [ 2.130318, 43.397217 ], [ 2.131015, 43.397124 ] ] ], [ [ [ 2.161973, 43.396346 ], [ 2.162027, 43.397357 ], [ 2.162124, 43.397977 ], [ 2.16223, 43.398598 ], [ 2.162665, 43.400387 ], [ 2.16285, 43.400843 ], [ 2.163054, 43.401177 ], [ 2.163298, 43.401504 ], [ 2.166185, 43.399355 ], [ 2.172444, 43.395045 ], [ 2.174174, 43.395036 ], [ 2.174558, 43.391456 ], [ 2.173117, 43.391302 ], [ 2.171013179183076, 43.385622337380347 ], [ 2.169588, 43.387927 ], [ 2.169177, 43.390253 ], [ 2.168315, 43.393748 ], [ 2.165886, 43.395635 ], [ 2.163399, 43.394127 ], [ 2.162984, 43.393684 ], [ 2.162611, 43.392674 ], [ 2.1613, 43.388964 ], [ 2.161885, 43.395265 ], [ 2.161973, 43.396346 ] ] ], [ [ [ 2.183966, 43.378154 ], [ 2.188907, 43.377955 ], [ 2.197649, 43.379454 ], [ 2.198372, 43.380457 ], [ 2.199278, 43.381637 ], [ 2.202133, 43.379444 ], [ 2.201226, 43.378263 ], [ 2.200572, 43.377352 ], [ 2.199909, 43.376498 ], [ 2.199186, 43.375825 ], [ 2.197684, 43.374138 ], [ 2.196878, 43.373519 ], [ 2.196149, 43.373292 ], [ 2.194218, 43.372547 ], [ 2.194871, 43.37301 ], [ 2.195302, 43.373475 ], [ 2.192662, 43.375922 ], [ 2.186824, 43.377014 ], [ 2.186489, 43.37709 ], [ 2.184868, 43.376067 ], [ 2.179154, 43.375047 ], [ 2.17521, 43.380125 ], [ 2.174748, 43.380451 ], [ 2.173973, 43.380836 ], [ 2.176824, 43.380273 ], [ 2.183966, 43.378154 ] ] ], [ [ [ 2.198578, 43.363876 ], [ 2.199131, 43.364047 ], [ 2.200481, 43.364605 ], [ 2.201619, 43.364915 ], [ 2.205858, 43.365856 ], [ 2.206276, 43.366024 ], [ 2.209144, 43.363868 ], [ 2.209177, 43.363807 ], [ 2.209459, 43.36314 ], [ 2.209635, 43.362633 ], [ 2.209931, 43.361641 ], [ 2.207743, 43.358754 ], [ 2.200821, 43.355774 ], [ 2.204945, 43.358303 ], [ 2.205561, 43.358632 ], [ 2.205834, 43.358871 ], [ 2.206684, 43.35961 ], [ 2.206957, 43.360022 ], [ 2.20716, 43.36052 ], [ 2.207283, 43.361002 ], [ 2.203116, 43.362672 ], [ 2.202176, 43.362571 ], [ 2.201709, 43.362532 ], [ 2.20132, 43.362438 ], [ 2.200726, 43.362297 ], [ 2.200289, 43.362176 ], [ 2.199874, 43.361977 ], [ 2.197536, 43.361268 ], [ 2.193362, 43.361267 ], [ 2.19174, 43.361145 ], [ 2.188815, 43.35991 ], [ 2.18843, 43.359872 ], [ 2.188059, 43.359782 ], [ 2.181498, 43.364022 ], [ 2.184152, 43.368517 ], [ 2.189104, 43.369785 ], [ 2.191092, 43.37132 ], [ 2.191551, 43.371564 ], [ 2.194332, 43.363542 ], [ 2.198578, 43.363876 ] ] ], [ [ [ 2.203557, 43.326916 ], [ 2.20396, 43.326306 ], [ 2.204215, 43.324886 ], [ 2.20457, 43.320187 ], [ 2.209785, 43.317625 ], [ 2.215453, 43.317704 ], [ 2.215595, 43.317624 ], [ 2.216571, 43.316351 ], [ 2.224233, 43.311651 ], [ 2.226737, 43.309064 ], [ 2.225676, 43.307961 ], [ 2.224129, 43.306951 ], [ 2.220847, 43.303804 ], [ 2.21874, 43.299437 ], [ 2.216876, 43.294779 ], [ 2.216737, 43.294322 ], [ 2.216299, 43.293608 ], [ 2.21511, 43.292141 ], [ 2.214492, 43.291503 ], [ 2.21379, 43.291204 ], [ 2.213272, 43.291153 ], [ 2.20921747011059, 43.290654937066705 ], [ 2.20899, 43.291389 ], [ 2.208907, 43.291557 ], [ 2.208463709673694, 43.291555104721283 ], [ 2.207997, 43.294126 ], [ 2.205972, 43.300402 ], [ 2.205129, 43.301332 ], [ 2.20427, 43.302025 ], [ 2.20411, 43.302457 ], [ 2.204177, 43.302767 ], [ 2.201539, 43.308267 ], [ 2.201908, 43.308126 ], [ 2.206945, 43.301108 ], [ 2.207399, 43.300738 ], [ 2.209578, 43.298946 ], [ 2.210258, 43.29814 ], [ 2.210633, 43.297669 ], [ 2.210812, 43.297504 ], [ 2.21184, 43.296625 ], [ 2.213416, 43.295188 ], [ 2.216753, 43.296539 ], [ 2.21715, 43.302983 ], [ 2.219297, 43.30663 ], [ 2.219367, 43.307655 ], [ 2.219191, 43.308475 ], [ 2.217097, 43.31125 ], [ 2.216724, 43.311436 ], [ 2.214762, 43.312465 ], [ 2.208942, 43.316504 ], [ 2.204337, 43.320354 ], [ 2.202096, 43.322159 ], [ 2.200734, 43.323293 ], [ 2.196653, 43.328153 ], [ 2.190424, 43.333463 ], [ 2.197185, 43.327908 ], [ 2.203557, 43.326916 ] ] ], [ [ [ 2.198146, 43.294993 ], [ 2.198194, 43.294962 ], [ 2.199099, 43.292245 ], [ 2.19962, 43.29076 ], [ 2.199605, 43.290663 ], [ 2.198669, 43.289351 ], [ 2.198641, 43.289336 ], [ 2.196934587244811, 43.288163942417953 ], [ 2.191551, 43.286441 ], [ 2.188191, 43.285148 ], [ 2.186049, 43.282984 ], [ 2.184292465159472, 43.282592583486043 ], [ 2.184864, 43.286586 ], [ 2.187839, 43.287013 ], [ 2.191659, 43.287036 ], [ 2.192012, 43.287571 ], [ 2.192196, 43.287858 ], [ 2.195321, 43.295769 ], [ 2.19397, 43.301735 ], [ 2.197173, 43.295322 ], [ 2.198146, 43.294993 ] ] ] ] } },
{ "type": "Feature", "properties": { "codgeo": "11367", "value": 1080, "isochrone_group": 18.0, "nb_agences": 1 }, "geometry": { "type": "MultiPolygon", "coordinates": [ [ [ [ 2.120681800856531, 43.37141258993578 ], [ 2.12041, 43.370073 ], [ 2.119505803737648, 43.367769295137236 ], [ 2.120523, 43.370961 ], [ 2.120681800856531, 43.37141258993578 ] ] ], [ [ [ 2.120242112519742, 43.36020452017712 ], [ 2.12212, 43.359042 ], [ 2.122547649884286, 43.357847149894134 ], [ 2.122435, 43.357859 ], [ 2.120242112519742, 43.36020452017712 ] ] ], [ [ [ 2.124749849273193, 43.39650648155181 ], [ 2.131828, 43.398419 ], [ 2.132363, 43.398556 ], [ 2.133352, 43.398612 ], [ 2.134107, 43.398477 ], [ 2.134636, 43.398267 ], [ 2.134984, 43.398091 ], [ 2.138425, 43.396325 ], [ 2.137949, 43.392757 ], [ 2.138688, 43.387928 ], [ 2.136556, 43.393171 ], [ 2.134013, 43.395719 ], [ 2.131015, 43.397124 ], [ 2.130318, 43.397217 ], [ 2.125034, 43.396516 ], [ 2.125033003479366, 43.396515966618665 ], [ 2.125033, 43.396516 ], [ 2.125032344197549, 43.396515944534094 ], [ 2.124749849273193, 43.39650648155181 ] ] ], [ [ [ 2.161102, 43.40419 ], [ 2.161273, 43.404348 ], [ 2.165138, 43.407211 ], [ 2.168486, 43.405888 ], [ 2.170557, 43.401098 ], [ 2.174645, 43.395064 ], [ 2.178082, 43.396098 ], [ 2.178273, 43.396158 ], [ 2.179605, 43.396084 ], [ 2.179912, 43.395941 ], [ 2.180328, 43.393285 ], [ 2.18007, 43.393079 ], [ 2.17942, 43.392746 ], [ 2.176605, 43.391573 ], [ 2.175893, 43.39136 ], [ 2.172025, 43.384874 ], [ 2.173655, 43.382496 ], [ 2.176708, 43.380948 ], [ 2.181701, 43.38116 ], [ 2.181856, 43.381166 ], [ 2.182338, 43.381125 ], [ 2.182983, 43.3809 ], [ 2.183413, 43.38062 ], [ 2.184125, 43.37923 ], [ 2.185347649629124, 43.378098353718649 ], [ 2.183966, 43.378154 ], [ 2.176824, 43.380273 ], [ 2.173973, 43.380836 ], [ 2.172083, 43.381643 ], [ 2.17022, 43.383481 ], [ 2.173117, 43.391302 ], [ 2.174558, 43.391456 ], [ 2.174174, 43.395036 ], [ 2.172444, 43.395045 ], [ 2.166185, 43.399355 ], [ 2.163298, 43.401504 ], [ 2.163054, 43.401177 ], [ 2.16285, 43.400843 ], [ 2.162665, 43.400387 ], [ 2.16223, 43.398598 ], [ 2.162124, 43.397977 ], [ 2.162027, 43.397357 ], [ 2.161464, 43.401244 ], [ 2.161317, 43.401848 ], [ 2.161102, 43.40419 ] ] ], [ [ [ 2.200174, 43.385928 ], [ 2.20112, 43.386473 ], [ 2.202259, 43.386862 ], [ 2.203646, 43.38354 ], [ 2.203662, 43.38102 ], [ 2.20291, 43.379889 ], [ 2.201226, 43.378263 ], [ 2.202133, 43.379444 ], [ 2.199278, 43.381637 ], [ 2.198372, 43.380457 ], [ 2.197649, 43.379454 ], [ 2.195601970272707, 43.379102993644331 ], [ 2.198831, 43.383431 ], [ 2.199104, 43.384153 ], [ 2.200174, 43.385928 ] ] ], [ [ [ 2.206276, 43.366024 ], [ 2.205858, 43.365856 ], [ 2.201619, 43.364915 ], [ 2.200481, 43.364605 ], [ 2.199131, 43.364047 ], [ 2.198578, 43.363876 ], [ 2.194332, 43.363542 ], [ 2.191551, 43.371564 ], [ 2.194218, 43.372547 ], [ 2.196149, 43.373292 ], [ 2.196878, 43.373519 ], [ 2.197684, 43.374138 ], [ 2.199186, 43.375825 ], [ 2.199241, 43.367567 ], [ 2.202282, 43.366107 ], [ 2.206276, 43.366024 ] ] ], [ [ [ 2.219919, 43.361837 ], [ 2.220042, 43.361806 ], [ 2.2211, 43.359303 ], [ 2.221088, 43.359279 ], [ 2.220972, 43.359172 ], [ 2.219167, 43.358314 ], [ 2.213771, 43.358528 ], [ 2.21296, 43.358492 ], [ 2.209825, 43.358286 ], [ 2.209373, 43.358268 ], [ 2.200821, 43.355774 ], [ 2.207743, 43.358754 ], [ 2.209931, 43.361641 ], [ 2.209635, 43.362633 ], [ 2.209459, 43.36314 ], [ 2.209177, 43.363807 ], [ 2.209144, 43.363868 ], [ 2.215251, 43.362935 ], [ 2.215409, 43.362937 ], [ 2.219919, 43.361837 ] ] ], [ [ [ 2.200583, 43.330638 ], [ 2.201925, 43.328877 ], [ 2.203414, 43.32711 ], [ 2.203544415822394, 43.326917959118674 ], [ 2.197185, 43.327908 ], [ 2.191773085946445, 43.332354558581208 ], [ 2.198527, 43.329902 ], [ 2.200286, 43.330547 ], [ 2.200583, 43.330638 ] ] ], [ [ [ 2.21799, 43.324228 ], [ 2.220554, 43.321701 ], [ 2.223599, 43.314039 ], [ 2.228628, 43.314915 ], [ 2.228848, 43.315087 ], [ 2.229417, 43.315476 ], [ 2.22988, 43.315699 ], [ 2.230422, 43.315838 ], [ 2.231461, 43.315735 ], [ 2.232149, 43.315328 ], [ 2.232667, 43.314589 ], [ 2.23283, 43.313912 ], [ 2.231538, 43.311312 ], [ 2.228618, 43.30768 ], [ 2.224901, 43.303283 ], [ 2.224675, 43.296644 ], [ 2.221273, 43.295466 ], [ 2.214992331286702, 43.291795407150744 ], [ 2.21503, 43.292022 ], [ 2.215091438907848, 43.292121838225242 ], [ 2.21511, 43.292141 ], [ 2.216299, 43.293608 ], [ 2.216737, 43.294322 ], [ 2.216876, 43.294779 ], [ 2.21874, 43.299437 ], [ 2.220847, 43.303804 ], [ 2.224129, 43.306951 ], [ 2.225676, 43.307961 ], [ 2.226737, 43.309064 ], [ 2.224233, 43.311651 ], [ 2.216571, 43.316351 ], [ 2.215595, 43.317624 ], [ 2.215453, 43.317704 ], [ 2.209785, 43.317625 ], [ 2.20457, 43.320187 ], [ 2.204215, 43.324886 ], [ 2.20396, 43.326306 ], [ 2.208762, 43.322069 ], [ 2.216791, 43.323011 ], [ 2.21799, 43.324228 ] ] ], [ [ [ 2.198194, 43.294962 ], [ 2.198146, 43.294993 ], [ 2.197173, 43.295322 ], [ 2.19397, 43.301735 ], [ 2.194079, 43.302267 ], [ 2.194132, 43.302791 ], [ 2.194126, 43.303206 ], [ 2.201539, 43.308267 ], [ 2.204177, 43.302767 ], [ 2.20411, 43.302457 ], [ 2.20427, 43.302025 ], [ 2.205129, 43.301332 ], [ 2.205972, 43.300402 ], [ 2.207781137098143, 43.294795015097314 ], [ 2.20504, 43.294772 ], [ 2.198330473948206, 43.2945522765555 ], [ 2.198194, 43.294962 ] ] ], [ [ [ 2.105032860255148, 43.396694598026663 ], [ 2.105033, 43.396695 ], [ 2.106006, 43.396357 ], [ 2.106046873631068, 43.396341270699224 ], [ 2.105704158690911, 43.396460687816138 ], [ 2.105032860255148, 43.396694598026663 ] ] ], [ [ [ 2.106731, 43.396078 ], [ 2.106801494562204, 43.396045250557719 ], [ 2.106127944211857, 43.396310072503297 ], [ 2.106731, 43.396078 ] ] ], [ [ [ 2.107229398002953, 43.395846460770287 ], [ 2.107366, 43.395783 ], [ 2.109114338882268, 43.3958317410885 ], [ 2.107418, 43.395757 ], [ 2.107229398002953, 43.395846460770287 ] ] ] ] } },
{ "type": "Feature", "properties": { "codgeo": "11367", "value": 1140, "isochrone_group": 19.0, "nb_agences": 1 }, "geometry": { "type": "MultiPolygon", "coordinates": [ [ [ [ 2.120242112519742, 43.36020452017712 ], [ 2.117895, 43.362715 ], [ 2.119505803737648, 43.367769295137236 ], [ 2.12041, 43.370073 ], [ 2.120681800856531, 43.37141258993578 ], [ 2.120907, 43.372053 ], [ 2.120564, 43.372861 ], [ 2.119814, 43.37421 ], [ 2.119376, 43.374828 ], [ 2.118914, 43.375264 ], [ 2.11849, 43.375573 ], [ 2.117682, 43.376017 ], [ 2.115534, 43.377857 ], [ 2.115088, 43.378314 ], [ 2.114215, 43.378962 ], [ 2.114194693915769, 43.378985160165207 ], [ 2.112196051465399, 43.386560706927355 ], [ 2.112421114860706, 43.386912153677677 ], [ 2.119651, 43.390934 ], [ 2.119915440518194, 43.390924753828024 ], [ 2.120067, 43.390915 ], [ 2.120138214340821, 43.390916964533531 ], [ 2.120223, 43.390914 ], [ 2.120412002011227, 43.390924517296853 ], [ 2.120647, 43.390931 ], [ 2.1207451290221, 43.390943054642825 ], [ 2.120834, 43.390948 ], [ 2.120978950628865, 43.390971778417772 ], [ 2.121111, 43.390988 ], [ 2.121198812840076, 43.391007845701857 ], [ 2.121279, 43.391021 ], [ 2.121418086614132, 43.391057401574798 ], [ 2.121611, 43.391101 ], [ 2.12170363979079, 43.391132136195246 ], [ 2.121791, 43.391155 ], [ 2.12189759459464, 43.391197324324345 ], [ 2.122093, 43.391263 ], [ 2.129292448674465, 43.391022185686253 ], [ 2.131534, 43.389396 ], [ 2.131534863969259, 43.389397191329415 ], [ 2.131802958800306, 43.389202453154887 ], [ 2.132970747439864, 43.388268960182351 ], [ 2.133041372757052, 43.3882123450907 ], [ 2.133070623847181, 43.388187895966155 ], [ 2.136199, 43.384487 ], [ 2.136912, 43.382658 ], [ 2.137083, 43.382306 ], [ 2.137404, 43.381827 ], [ 2.138592, 43.380775 ], [ 2.1405, 43.379252 ], [ 2.142389, 43.377744 ], [ 2.144119, 43.376422 ], [ 2.145438, 43.369512 ], [ 2.140372, 43.365902 ], [ 2.139639, 43.365796 ], [ 2.133977, 43.366653 ], [ 2.133225, 43.366741 ], [ 2.132549, 43.363292 ], [ 2.132881, 43.362879 ], [ 2.133643, 43.362252 ], [ 2.133633020044694, 43.353686204360621 ], [ 2.133590136983412, 43.353659885969101 ], [ 2.133477424902187, 43.353635919821308 ], [ 2.126247, 43.357458 ], [ 2.122547649884286, 43.357847149894134 ], [ 2.12212, 43.359042 ], [ 2.120242112519742, 43.36020452017712 ] ] ], [ [ [ 2.137949, 43.392757 ], [ 2.138425, 43.396325 ], [ 2.134984, 43.398091 ], [ 2.134636, 43.398267 ], [ 2.134107, 43.398477 ], [ 2.133352, 43.398612 ], [ 2.132363, 43.398556 ], [ 2.135045, 43.39879 ], [ 2.138267, 43.39805 ], [ 2.141512, 43.395459 ], [ 2.140219, 43.392099 ], [ 2.139634788832137, 43.386559975318235 ], [ 2.138688, 43.387928 ], [ 2.137949, 43.392757 ] ] ], [ [ [ 2.104855, 43.396755 ], [ 2.104907533000695, 43.396736834809481 ], [ 2.104787235601441, 43.396772902431884 ], [ 2.104711536374642, 43.396795598609394 ], [ 2.104855, 43.396755 ] ] ], [ [ [ 2.104226, 43.396933 ], [ 2.10430329111683, 43.396911127474112 ], [ 2.103721928020421, 43.397033354755841 ], [ 2.104226, 43.396933 ] ] ], [ [ [ 2.099980186961774, 43.398097833878182 ], [ 2.103568, 43.397064 ], [ 2.103613640383513, 43.397054913540664 ], [ 2.100837, 43.397501 ], [ 2.099980186961774, 43.398097833878182 ] ] ], [ [ [ 2.164326, 43.413372 ], [ 2.16495, 43.412924 ], [ 2.165359, 43.412582 ], [ 2.165793, 43.41207 ], [ 2.166009, 43.411699 ], [ 2.16856, 43.407591 ], [ 2.16867, 43.407047 ], [ 2.170383, 43.403005 ], [ 2.171952, 43.400113 ], [ 2.180238, 43.398343 ], [ 2.18246, 43.39978 ], [ 2.18313, 43.399954 ], [ 2.183447, 43.398815 ], [ 2.184037, 43.39647 ], [ 2.180715, 43.393712 ], [ 2.180321592189625, 43.393325911404716 ], [ 2.179912, 43.395941 ], [ 2.179605, 43.396084 ], [ 2.178273, 43.396158 ], [ 2.178082, 43.396098 ], [ 2.174645, 43.395064 ], [ 2.170557, 43.401098 ], [ 2.168486, 43.405888 ], [ 2.165138, 43.407211 ], [ 2.161273, 43.404348 ], [ 2.161102, 43.40419 ], [ 2.161317, 43.401848 ], [ 2.161464, 43.401244 ], [ 2.162027, 43.397357 ], [ 2.161973, 43.396346 ], [ 2.161885, 43.395265 ], [ 2.15821, 43.401842 ], [ 2.158635, 43.402565 ], [ 2.161308, 43.410787 ], [ 2.162456, 43.414199 ], [ 2.16293, 43.41404 ], [ 2.163959, 43.413577 ], [ 2.164326, 43.413372 ] ] ], [ [ [ 2.238619, 43.317834 ], [ 2.240012, 43.317782 ], [ 2.239877, 43.314184 ], [ 2.235514, 43.312379 ], [ 2.230361, 43.306848 ], [ 2.228018, 43.303319 ], [ 2.227282, 43.296898 ], [ 2.22774, 43.289686 ], [ 2.227775, 43.288745 ], [ 2.226312, 43.286381 ], [ 2.225656, 43.286665 ], [ 2.225271, 43.28688 ], [ 2.224866, 43.287208 ], [ 2.224551, 43.287573 ], [ 2.224286, 43.287858 ], [ 2.224158, 43.288122 ], [ 2.223896, 43.288649 ], [ 2.222566, 43.290738 ], [ 2.214492, 43.291503 ], [ 2.221273, 43.295466 ], [ 2.224675, 43.296644 ], [ 2.224901, 43.303283 ], [ 2.228618, 43.30768 ], [ 2.231538, 43.311312 ], [ 2.23283, 43.313912 ], [ 2.232667, 43.314589 ], [ 2.232149, 43.315328 ], [ 2.231461, 43.315735 ], [ 2.230422, 43.315838 ], [ 2.23321, 43.317475 ], [ 2.233657, 43.317445 ], [ 2.237385, 43.317699 ], [ 2.237828, 43.317791 ], [ 2.23822, 43.317828 ], [ 2.238619, 43.317834 ] ] ], [ [ [ 2.220182, 43.330463 ], [ 2.223603, 43.329344 ], [ 2.223785, 43.323621 ], [ 2.222818, 43.316211 ], [ 2.229417, 43.315476 ], [ 2.228848, 43.315087 ], [ 2.228628, 43.314915 ], [ 2.223599, 43.314039 ], [ 2.220554, 43.321701 ], [ 2.21799, 43.324228 ], [ 2.216791, 43.323011 ], [ 2.208762, 43.322069 ], [ 2.20396, 43.326306 ], [ 2.203414, 43.32711 ], [ 2.201925, 43.328877 ], [ 2.200583, 43.330638 ], [ 2.200286, 43.330547 ], [ 2.198527, 43.329902 ], [ 2.190965, 43.332648 ], [ 2.190424, 43.333463 ], [ 2.198153, 43.331594 ], [ 2.202499, 43.330887 ], [ 2.204343, 43.330708 ], [ 2.206811, 43.324535 ], [ 2.21223, 43.324981 ], [ 2.214063, 43.325689 ], [ 2.220182, 43.330463 ] ] ], [ [ [ 2.222056, 43.35307 ], [ 2.218745, 43.351657 ], [ 2.217275, 43.353416 ], [ 2.209825, 43.358286 ], [ 2.21296, 43.358492 ], [ 2.213771, 43.358528 ], [ 2.219167, 43.358314 ], [ 2.220972, 43.359172 ], [ 2.221088, 43.359279 ], [ 2.2211, 43.359303 ], [ 2.220042, 43.361806 ], [ 2.219919, 43.361837 ], [ 2.215409, 43.362937 ], [ 2.215251, 43.362935 ], [ 2.214829187988251, 43.362999442542467 ], [ 2.21755, 43.363897 ], [ 2.22327, 43.368607 ], [ 2.226493, 43.367004 ], [ 2.228858, 43.360248 ], [ 2.228468, 43.358882 ], [ 2.226622, 43.357427 ], [ 2.222056, 43.35307 ] ] ], [ [ [ 2.209144, 43.363868 ], [ 2.206276, 43.366024 ], [ 2.202282, 43.366107 ], [ 2.199241, 43.367567 ], [ 2.199186, 43.375825 ], [ 2.199909, 43.376498 ], [ 2.200572, 43.377352 ], [ 2.204901, 43.369693 ], [ 2.205247, 43.369621 ], [ 2.205256, 43.369619 ], [ 2.205638, 43.369541 ], [ 2.206889, 43.367981 ], [ 2.209144, 43.363868 ] ] ], [ [ [ 2.207226, 43.390284 ], [ 2.207768, 43.390242 ], [ 2.20929, 43.390054 ], [ 2.209984, 43.386522 ], [ 2.206777, 43.382838 ], [ 2.20291, 43.379889 ], [ 2.203662, 43.38102 ], [ 2.203646, 43.38354 ], [ 2.202259, 43.386862 ], [ 2.20112, 43.386473 ], [ 2.200174, 43.385928 ], [ 2.199104, 43.384153 ], [ 2.198831, 43.383431 ], [ 2.199347, 43.385051 ], [ 2.20053, 43.388451 ], [ 2.203865, 43.389368 ], [ 2.204589, 43.389663 ], [ 2.206049, 43.390191 ], [ 2.206778, 43.390269 ], [ 2.207226, 43.390284 ] ] ], [ [ [ 2.176708, 43.380948 ], [ 2.173655, 43.382496 ], [ 2.172025, 43.384874 ], [ 2.175893, 43.39136 ], [ 2.176605, 43.391573 ], [ 2.17739, 43.382748 ], [ 2.181096, 43.382806 ], [ 2.182703486419086, 43.380997504737522 ], [ 2.182338, 43.381125 ], [ 2.181856, 43.381166 ], [ 2.181701, 43.38116 ], [ 2.176708, 43.380948 ] ] ] ] } },
{ "type": "Feature", "properties": { "codgeo": "11367", "value": 1200, "isochrone_group": 20.0, "nb_agences": 1 }, "geometry": { "type": "MultiPolygon", "coordinates": [ [ [ [ 2.116526, 43.396231 ], [ 2.124749849273207, 43.39650648155181 ], [ 2.124702472406919, 43.396493680308339 ], [ 2.121297470474788, 43.396353837052281 ], [ 2.116526, 43.396231 ] ] ], [ [ [ 2.14337, 43.390529 ], [ 2.143137, 43.389936 ], [ 2.142745, 43.382066 ], [ 2.140820079102088, 43.384314857758511 ], [ 2.139611132078397, 43.386335680833518 ], [ 2.140219, 43.392099 ], [ 2.141512, 43.395459 ], [ 2.140175256245163, 43.396526335306241 ], [ 2.142035, 43.396512 ], [ 2.144051, 43.39353 ], [ 2.143691, 43.391703 ], [ 2.14337, 43.390529 ] ] ], [ [ [ 2.161885, 43.395265 ], [ 2.161972, 43.394741 ], [ 2.157152, 43.399792 ], [ 2.158032, 43.401488 ], [ 2.158220090137364, 43.401823942086146 ], [ 2.161885, 43.395265 ] ] ], [ [ [ 2.158466, 43.413358 ], [ 2.158516, 43.413863 ], [ 2.158752, 43.414581 ], [ 2.159035, 43.415041 ], [ 2.159921, 43.416535 ], [ 2.160065, 43.416755 ], [ 2.160294, 43.417042 ], [ 2.160777, 43.417503 ], [ 2.16229, 43.418708 ], [ 2.162871, 43.419016 ], [ 2.163221, 43.419128 ], [ 2.163815, 43.419245 ], [ 2.16422, 43.419268 ], [ 2.16453, 43.419234 ], [ 2.16879, 43.412214 ], [ 2.169497, 43.408684 ], [ 2.171363095068833, 43.401198476775612 ], [ 2.170383, 43.403005 ], [ 2.16867, 43.407047 ], [ 2.16856, 43.407591 ], [ 2.166009, 43.411699 ], [ 2.165793, 43.41207 ], [ 2.165359, 43.412582 ], [ 2.16495, 43.412924 ], [ 2.164326, 43.413372 ], [ 2.163959, 43.413577 ], [ 2.16293, 43.41404 ], [ 2.162456, 43.414199 ], [ 2.161308, 43.410787 ], [ 2.159585420545635, 43.405488440975013 ], [ 2.15911, 43.41173 ], [ 2.15874, 43.41222 ], [ 2.158505, 43.412862 ], [ 2.158466, 43.413358 ] ] ], [ [ [ 2.18603, 43.40054 ], [ 2.186297, 43.400535 ], [ 2.187375, 43.400481 ], [ 2.187961, 43.400345 ], [ 2.188475, 43.400128 ], [ 2.188867, 43.399903 ], [ 2.18951, 43.399456 ], [ 2.189865, 43.399122 ], [ 2.189045, 43.396722 ], [ 2.187397, 43.3965 ], [ 2.180715, 43.393712 ], [ 2.184037, 43.39647 ], [ 2.183447, 43.398815 ], [ 2.18313, 43.399954 ], [ 2.18246, 43.39978 ], [ 2.180238, 43.398343 ], [ 2.171952, 43.400113 ], [ 2.171718249038856, 43.400543852632012 ], [ 2.177762, 43.400634 ], [ 2.180878, 43.401087 ], [ 2.18116, 43.401061 ], [ 2.18603, 43.40054 ] ] ], [ [ [ 2.176993668596607, 43.387203572783363 ], [ 2.176605, 43.391573 ], [ 2.17942, 43.392746 ], [ 2.176993668596607, 43.387203572783363 ] ] ], [ [ [ 2.184125, 43.37923 ], [ 2.183847, 43.379711 ], [ 2.181096, 43.382806 ], [ 2.17739, 43.382748 ], [ 2.177242508207505, 43.384406108367841 ], [ 2.181916, 43.383124 ], [ 2.184824, 43.381002 ], [ 2.188169, 43.375487 ], [ 2.184125, 43.37923 ] ] ], [ [ [ 2.2062, 43.391364 ], [ 2.212843, 43.391512 ], [ 2.213521, 43.391463 ], [ 2.218595, 43.390951 ], [ 2.218783, 43.390432 ], [ 2.218907, 43.389962 ], [ 2.218958, 43.389449 ], [ 2.218795, 43.388547 ], [ 2.218581, 43.388029 ], [ 2.218215, 43.387547 ], [ 2.21778, 43.387212 ], [ 2.217328, 43.386992 ], [ 2.21668, 43.386857 ], [ 2.215989, 43.386893 ], [ 2.215647, 43.386955 ], [ 2.214605, 43.387118 ], [ 2.210229, 43.386588 ], [ 2.20998259214899, 43.386529165028477 ], [ 2.20929, 43.390054 ], [ 2.207768, 43.390242 ], [ 2.207226, 43.390284 ], [ 2.206778, 43.390269 ], [ 2.206049, 43.390191 ], [ 2.204589, 43.389663 ], [ 2.203865, 43.389368 ], [ 2.20053, 43.388451 ], [ 2.199347, 43.385051 ], [ 2.198831, 43.383431 ], [ 2.19641238453685, 43.380189226470343 ], [ 2.196828, 43.38619 ], [ 2.19845, 43.389404 ], [ 2.203233, 43.390542 ], [ 2.2062, 43.391364 ] ] ], [ [ [ 2.218504, 43.36933 ], [ 2.224135, 43.372849 ], [ 2.225879, 43.374465 ], [ 2.230291, 43.37458 ], [ 2.232562, 43.371787 ], [ 2.232183, 43.37138 ], [ 2.231773, 43.371024 ], [ 2.231765, 43.362465 ], [ 2.234452, 43.362138 ], [ 2.23639, 43.3623 ], [ 2.237347, 43.358829 ], [ 2.233107, 43.35364 ], [ 2.232264, 43.35014 ], [ 2.225069, 43.345596 ], [ 2.220345, 43.338324 ], [ 2.222602, 43.335993 ], [ 2.225549, 43.332238 ], [ 2.227266, 43.325251 ], [ 2.23148, 43.317631 ], [ 2.232169, 43.317519 ], [ 2.232883, 43.317468 ], [ 2.233182900419329, 43.317459088230422 ], [ 2.230422, 43.315838 ], [ 2.22988, 43.315699 ], [ 2.229417, 43.315476 ], [ 2.222818, 43.316211 ], [ 2.223785, 43.323621 ], [ 2.223603, 43.329344 ], [ 2.220182, 43.330463 ], [ 2.214063, 43.325689 ], [ 2.21223, 43.324981 ], [ 2.206811, 43.324535 ], [ 2.204343, 43.330708 ], [ 2.202499, 43.330887 ], [ 2.198153, 43.331594 ], [ 2.190424, 43.333463 ], [ 2.189279, 43.335271 ], [ 2.188112, 43.337111 ], [ 2.186837, 43.339065 ], [ 2.185291, 43.34143 ], [ 2.183746, 43.343794 ], [ 2.183677, 43.3439 ], [ 2.182199, 43.346108 ], [ 2.181488, 43.348085 ], [ 2.181426, 43.349713 ], [ 2.186276, 43.355103 ], [ 2.190469, 43.35266 ], [ 2.198493, 43.35522 ], [ 2.19931, 43.355241 ], [ 2.199792, 43.355319 ], [ 2.20034, 43.355501 ], [ 2.200821, 43.355774 ], [ 2.208929, 43.358311 ], [ 2.209373, 43.358268 ], [ 2.209825, 43.358286 ], [ 2.217275, 43.353416 ], [ 2.218745, 43.351657 ], [ 2.222056, 43.35307 ], [ 2.226622, 43.357427 ], [ 2.228468, 43.358882 ], [ 2.228858, 43.360248 ], [ 2.226493, 43.367004 ], [ 2.22327, 43.368607 ], [ 2.21755, 43.363897 ], [ 2.214746, 43.362972 ], [ 2.209144, 43.363868 ], [ 2.206889, 43.367981 ], [ 2.205638, 43.369541 ], [ 2.205256, 43.369619 ], [ 2.205247, 43.369621 ], [ 2.204901, 43.369693 ], [ 2.200572, 43.377352 ], [ 2.201226, 43.378263 ], [ 2.20291, 43.379889 ], [ 2.203779977582559, 43.380552450708805 ], [ 2.205718, 43.372872 ], [ 2.207317, 43.370173 ], [ 2.215342, 43.36761 ], [ 2.218504, 43.36933 ] ] ], [ [ [ 2.242107, 43.319625 ], [ 2.24263, 43.319713 ], [ 2.244693, 43.319967 ], [ 2.249021, 43.319299 ], [ 2.249931, 43.315816 ], [ 2.248416, 43.31542 ], [ 2.247723, 43.315352 ], [ 2.247097, 43.315423 ], [ 2.24117, 43.314501 ], [ 2.237397, 43.311381 ], [ 2.233212, 43.303689 ], [ 2.232961, 43.302799 ], [ 2.232806, 43.302632 ], [ 2.230351, 43.294134 ], [ 2.230854, 43.293022 ], [ 2.230719, 43.292559 ], [ 2.229468776787192, 43.287642737643175 ], [ 2.229123, 43.2887 ], [ 2.229014, 43.288836 ], [ 2.227585740823319, 43.28843918407815 ], [ 2.227775, 43.288745 ], [ 2.22774, 43.289686 ], [ 2.227282, 43.296898 ], [ 2.228018, 43.303319 ], [ 2.230361, 43.306848 ], [ 2.235514, 43.312379 ], [ 2.239877, 43.314184 ], [ 2.240012, 43.317782 ], [ 2.238619, 43.317834 ], [ 2.23822, 43.317828 ], [ 2.237828, 43.317791 ], [ 2.237385, 43.317699 ], [ 2.240349, 43.318921 ], [ 2.240949, 43.319258 ], [ 2.241538, 43.319482 ], [ 2.242107, 43.319625 ] ] ], [ [ [ 2.224551, 43.287573 ], [ 2.224866, 43.287208 ], [ 2.225271, 43.28688 ], [ 2.225341611430919, 43.286840567642464 ], [ 2.224643356589564, 43.286610698313254 ], [ 2.224158, 43.288122 ], [ 2.224286, 43.287858 ], [ 2.224551, 43.287573 ] ] ], [ [ [ 2.224158, 43.288122 ], [ 2.218924645358549, 43.291083013165803 ], [ 2.222566, 43.290738 ], [ 2.223896, 43.288649 ], [ 2.224158, 43.288122 ] ] ], [ [ [ 2.215242392630329, 43.291249805989416 ], [ 2.215190966951197, 43.291436773876939 ], [ 2.2166843111332, 43.291295281642704 ], [ 2.215242392630329, 43.291249805989416 ] ] ] ] } }
]
}
