{
"type": "FeatureCollection",
"name": "Credit_Agricole",
"crs": { "type": "name", "properties": { "name": "urn:ogc:def:crs:OGC:1.3:CRS84" } },
"features": [
{ "type": "Feature", "properties": { "codgeo": "82115", "value": 60, "isochrone_group": 1.0, "nb_agences": 1 }, "geometry": { "type": "Polygon", "coordinates": [ [ [ 1.576515, 43.965464 ], [ 1.57674, 43.965445 ], [ 1.57768, 43.965431 ], [ 1.578608, 43.965417 ], [ 1.583971, 43.96292 ], [ 1.584649, 43.962196 ], [ 1.588659, 43.962738 ], [ 1.588956, 43.962942 ], [ 1.58974, 43.964272 ], [ 1.58967, 43.964625 ], [ 1.588141, 43.9702 ], [ 1.588465, 43.970787 ], [ 1.588251, 43.971077 ], [ 1.583601, 43.97093 ], [ 1.58327, 43.970787 ], [ 1.578801, 43.968486 ], [ 1.57632, 43.965842 ], [ 1.57629, 43.965483 ], [ 1.576515, 43.965464 ] ] ] } },
{ "type": "Feature", "properties": { "codgeo": "82115", "value": 120, "isochrone_group": 2.0, "nb_agences": 1 }, "geometry": { "type": "Polygon", "coordinates": [ [ [ 1.562995, 43.966392 ], [ 1.562975, 43.966752 ], [ 1.567229, 43.968048 ], [ 1.5701, 43.969495 ], [ 1.574856, 43.969807 ], [ 1.57629, 43.971998 ], [ 1.576536, 43.972261 ], [ 1.581633, 43.975369 ], [ 1.581779, 43.975504 ], [ 1.582728, 43.976101 ], [ 1.58369, 43.976705 ], [ 1.583915, 43.97682 ], [ 1.584134, 43.976882 ], [ 1.584414, 43.976917 ], [ 1.586098, 43.977041 ], [ 1.589542, 43.974285 ], [ 1.594842, 43.974133 ], [ 1.597617, 43.97379 ], [ 1.598015, 43.973692 ], [ 1.598772, 43.973271 ], [ 1.599528, 43.97285 ], [ 1.599353, 43.972535 ], [ 1.598597, 43.972956 ], [ 1.596177, 43.973233 ], [ 1.595454, 43.973049 ], [ 1.594266, 43.972747 ], [ 1.593078, 43.972445 ], [ 1.590735, 43.969895 ], [ 1.594114, 43.966067 ], [ 1.594473, 43.966086 ], [ 1.595733, 43.966241 ], [ 1.595846, 43.965899 ], [ 1.594276, 43.961729 ], [ 1.591767, 43.958959 ], [ 1.591418, 43.95887 ], [ 1.589629, 43.958667 ], [ 1.586171, 43.954037 ], [ 1.585834, 43.953911 ], [ 1.584061, 43.956129 ], [ 1.580529, 43.960136 ], [ 1.575373, 43.962992 ], [ 1.575018, 43.962936 ], [ 1.574128, 43.963382 ], [ 1.570427, 43.966531 ], [ 1.568019, 43.966499 ], [ 1.566642, 43.966496 ], [ 1.565271, 43.966494 ], [ 1.564624, 43.966471 ], [ 1.563982, 43.966447 ], [ 1.563488, 43.96642 ], [ 1.562995, 43.966392 ] ], [ [ 1.57674, 43.965445 ], [ 1.57768, 43.965431 ], [ 1.578608, 43.965417 ], [ 1.583971, 43.96292 ], [ 1.584649, 43.962196 ], [ 1.588659, 43.962738 ], [ 1.588956, 43.962942 ], [ 1.58974, 43.964272 ], [ 1.58967, 43.964625 ], [ 1.588141, 43.9702 ], [ 1.588465, 43.970787 ], [ 1.588251, 43.971077 ], [ 1.583601, 43.97093 ], [ 1.58327, 43.970787 ], [ 1.578801, 43.968486 ], [ 1.57632, 43.965842 ], [ 1.57629, 43.965483 ], [ 1.576515, 43.965464 ], [ 1.57674, 43.965445 ] ] ] } },
{ "type": "Feature", "properties": { "codgeo": "82115", "value": 180, "isochrone_group": 3.0, "nb_agences": 1 }, "geometry": { "type": "Polygon", "coordinates": [ [ [ 1.603484, 43.974792 ], [ 1.609186, 43.975516 ], [ 1.610164, 43.975651 ], [ 1.610401, 43.97538 ], [ 1.610612, 43.975018 ], [ 1.610514, 43.974672 ], [ 1.608382, 43.971058 ], [ 1.608066, 43.970886 ], [ 1.60063, 43.967337 ], [ 1.60041, 43.967052 ], [ 1.597887, 43.962265 ], [ 1.601492, 43.957856 ], [ 1.601402, 43.957507 ], [ 1.600724, 43.957486 ], [ 1.595456, 43.957014 ], [ 1.59154, 43.95585 ], [ 1.585442, 43.951063 ], [ 1.585292, 43.95092 ], [ 1.585104, 43.950797 ], [ 1.584603, 43.950554 ], [ 1.584087, 43.950306 ], [ 1.583935, 43.950251 ], [ 1.578697, 43.948959 ], [ 1.578337, 43.948948 ], [ 1.578333, 43.94906 ], [ 1.578364, 43.949281 ], [ 1.578448, 43.949506 ], [ 1.578616, 43.949763 ], [ 1.579816, 43.951525 ], [ 1.579415, 43.959478 ], [ 1.575829, 43.960657 ], [ 1.575485, 43.960764 ], [ 1.570597, 43.962046 ], [ 1.569316, 43.963345 ], [ 1.56135, 43.965679 ], [ 1.557967, 43.965574 ], [ 1.551931, 43.96538 ], [ 1.551728, 43.965363 ], [ 1.551517, 43.965345 ], [ 1.551093, 43.965328 ], [ 1.550656, 43.965311 ], [ 1.55041, 43.965318 ], [ 1.550152, 43.965326 ], [ 1.54963, 43.965378 ], [ 1.549109, 43.965431 ], [ 1.549145, 43.965789 ], [ 1.550173, 43.966478 ], [ 1.554533, 43.968023 ], [ 1.558566, 43.968767 ], [ 1.562455, 43.974301 ], [ 1.562748, 43.974509 ], [ 1.570438, 43.977196 ], [ 1.577898, 43.976291 ], [ 1.58259, 43.978831 ], [ 1.584582, 43.981218 ], [ 1.592454, 43.983724 ], [ 1.593208, 43.984062 ], [ 1.593368, 43.98374 ], [ 1.592757, 43.979222 ], [ 1.598015, 43.973692 ], [ 1.603484, 43.974792 ] ], [ [ 1.597617, 43.97379 ], [ 1.594842, 43.974133 ], [ 1.589542, 43.974285 ], [ 1.586098, 43.977041 ], [ 1.584414, 43.976917 ], [ 1.584134, 43.976882 ], [ 1.583915, 43.97682 ], [ 1.58369, 43.976705 ], [ 1.582728, 43.976101 ], [ 1.581779, 43.975504 ], [ 1.581633, 43.975369 ], [ 1.576536, 43.972261 ], [ 1.57629, 43.971998 ], [ 1.574856, 43.969807 ], [ 1.5701, 43.969495 ], [ 1.567229, 43.968048 ], [ 1.562975, 43.966752 ], [ 1.562995, 43.966392 ], [ 1.563488, 43.96642 ], [ 1.563982, 43.966447 ], [ 1.564624, 43.966471 ], [ 1.565271, 43.966494 ], [ 1.566642, 43.966496 ], [ 1.568019, 43.966499 ], [ 1.570427, 43.966531 ], [ 1.574128, 43.963382 ], [ 1.575018, 43.962936 ], [ 1.575373, 43.962992 ], [ 1.580529, 43.960136 ], [ 1.584061, 43.956129 ], [ 1.585834, 43.953911 ], [ 1.586171, 43.954037 ], [ 1.589629, 43.958667 ], [ 1.591418, 43.95887 ], [ 1.591767, 43.958959 ], [ 1.594276, 43.961729 ], [ 1.595846, 43.965899 ], [ 1.595733, 43.966241 ], [ 1.594473, 43.966086 ], [ 1.594114, 43.966067 ], [ 1.590735, 43.969895 ], [ 1.593078, 43.972445 ], [ 1.594266, 43.972747 ], [ 1.595454, 43.973049 ], [ 1.596177, 43.973233 ], [ 1.598597, 43.972956 ], [ 1.599353, 43.972535 ], [ 1.599528, 43.97285 ], [ 1.598772, 43.973271 ], [ 1.598015, 43.973692 ], [ 1.597617, 43.97379 ] ] ] } },
{ "type": "Feature", "properties": { "codgeo": "82115", "value": 240, "isochrone_group": 4.0, "nb_agences": 1 }, "geometry": { "type": "MultiPolygon", "coordinates": [ [ [ [ 1.546724, 43.962633 ], [ 1.546376, 43.962729 ], [ 1.538433, 43.964773 ], [ 1.537295, 43.964484 ], [ 1.535806, 43.963986 ], [ 1.535595, 43.963941 ], [ 1.535383, 43.963897 ], [ 1.535309, 43.964249 ], [ 1.537297, 43.965152 ], [ 1.538645, 43.965179 ], [ 1.541603, 43.965429 ], [ 1.547563, 43.969459 ], [ 1.547785, 43.969743 ], [ 1.555277, 43.971535 ], [ 1.558165, 43.975538 ], [ 1.562049, 43.981179 ], [ 1.563118, 43.981884 ], [ 1.565102, 43.982885 ], [ 1.565435, 43.983021 ], [ 1.56563, 43.982542 ], [ 1.567164, 43.980314 ], [ 1.567846, 43.979716 ], [ 1.568307, 43.979333 ], [ 1.568492, 43.979151 ], [ 1.568665, 43.978979 ], [ 1.569034, 43.978578 ], [ 1.577756, 43.980649 ], [ 1.582887, 43.984964 ], [ 1.583213, 43.985116 ], [ 1.591294, 43.987721 ], [ 1.595623, 43.991742 ], [ 1.595972, 43.991653 ], [ 1.598802, 43.990333 ], [ 1.599094, 43.990122 ], [ 1.599341, 43.984485 ], [ 1.599456, 43.984233 ], [ 1.601075, 43.977457 ], [ 1.606029, 43.977351 ], [ 1.611171, 43.982475 ], [ 1.611327, 43.982799 ], [ 1.615706, 43.983576 ], [ 1.615901, 43.983274 ], [ 1.616819, 43.977079 ], [ 1.618628, 43.974309 ], [ 1.618542, 43.973959 ], [ 1.613102, 43.968433 ], [ 1.612909, 43.968129 ], [ 1.609601, 43.967352 ], [ 1.609243, 43.967311 ], [ 1.60111, 43.965867 ], [ 1.601358, 43.962039 ], [ 1.606167, 43.957552 ], [ 1.60737, 43.957422 ], [ 1.607602, 43.957421 ], [ 1.609217, 43.957518 ], [ 1.609625, 43.95758 ], [ 1.610052, 43.957645 ], [ 1.610947, 43.957687 ], [ 1.611843, 43.957729 ], [ 1.61186, 43.957369 ], [ 1.610151, 43.956412 ], [ 1.604199, 43.955173 ], [ 1.597945, 43.955739 ], [ 1.593224, 43.953041 ], [ 1.592955, 43.952802 ], [ 1.589452, 43.944528 ], [ 1.589179, 43.944409 ], [ 1.588906, 43.94429 ], [ 1.588421, 43.944107 ], [ 1.586742, 43.944057 ], [ 1.57906, 43.939791 ], [ 1.578764, 43.939586 ], [ 1.577902, 43.939935 ], [ 1.572861, 43.947311 ], [ 1.572953, 43.94766 ], [ 1.573827, 43.951316 ], [ 1.574047, 43.951601 ], [ 1.574243, 43.958302 ], [ 1.569171, 43.960756 ], [ 1.567678, 43.963417 ], [ 1.56135, 43.965679 ], [ 1.569316, 43.963345 ], [ 1.570597, 43.962046 ], [ 1.575485, 43.960764 ], [ 1.575829, 43.960657 ], [ 1.579415, 43.959478 ], [ 1.579816, 43.951525 ], [ 1.578616, 43.949763 ], [ 1.578448, 43.949506 ], [ 1.578364, 43.949281 ], [ 1.578333, 43.94906 ], [ 1.578337, 43.948948 ], [ 1.578697, 43.948959 ], [ 1.583935, 43.950251 ], [ 1.584087, 43.950306 ], [ 1.584603, 43.950554 ], [ 1.585104, 43.950797 ], [ 1.585292, 43.95092 ], [ 1.585442, 43.951063 ], [ 1.59154, 43.95585 ], [ 1.595456, 43.957014 ], [ 1.600724, 43.957486 ], [ 1.601402, 43.957507 ], [ 1.601492, 43.957856 ], [ 1.597887, 43.962265 ], [ 1.60041, 43.967052 ], [ 1.60063, 43.967337 ], [ 1.608066, 43.970886 ], [ 1.608382, 43.971058 ], [ 1.610514, 43.974672 ], [ 1.610612, 43.975018 ], [ 1.610401, 43.97538 ], [ 1.610164, 43.975651 ], [ 1.609186, 43.975516 ], [ 1.603484, 43.974792 ], [ 1.598015, 43.973692 ], [ 1.592757, 43.979222 ], [ 1.593368, 43.98374 ], [ 1.593208, 43.984062 ], [ 1.592454, 43.983724 ], [ 1.584582, 43.981218 ], [ 1.58259, 43.978831 ], [ 1.577898, 43.976291 ], [ 1.570438, 43.977196 ], [ 1.562748, 43.974509 ], [ 1.562455, 43.974301 ], [ 1.558566, 43.968767 ], [ 1.554533, 43.968023 ], [ 1.550173, 43.966478 ], [ 1.549145, 43.965789 ], [ 1.549109, 43.965431 ], [ 1.54963, 43.965378 ], [ 1.550152, 43.965326 ], [ 1.55041, 43.965318 ], [ 1.550656, 43.965311 ], [ 1.551093, 43.965328 ], [ 1.551517, 43.965345 ], [ 1.551728, 43.965363 ], [ 1.551931, 43.96538 ], [ 1.546724, 43.962633 ] ] ], [ [ [ 1.558089, 43.964722 ], [ 1.557661, 43.964656 ], [ 1.557232, 43.964591 ], [ 1.551931, 43.96538 ], [ 1.557967, 43.965574 ], [ 1.56135, 43.965679 ], [ 1.558089, 43.964722 ] ] ] ] } },
{ "type": "Feature", "properties": { "codgeo": "82115", "value": 300, "isochrone_group": 5.0, "nb_agences": 1 }, "geometry": { "type": "MultiPolygon", "coordinates": [ [ [ [ 1.547302, 43.960938 ], [ 1.547118, 43.960897 ], [ 1.546934, 43.960856 ], [ 1.546608, 43.960821 ], [ 1.546319, 43.96082 ], [ 1.538861, 43.9613 ], [ 1.538503, 43.961495 ], [ 1.529757, 43.961955 ], [ 1.529383, 43.961762 ], [ 1.528966, 43.961554 ], [ 1.525804, 43.959743 ], [ 1.525501, 43.959548 ], [ 1.524498, 43.959902 ], [ 1.52431, 43.960209 ], [ 1.523729, 43.967871 ], [ 1.524051, 43.968031 ], [ 1.530074, 43.969826 ], [ 1.5367, 43.968812 ], [ 1.543062, 43.973054 ], [ 1.543327, 43.973297 ], [ 1.543847, 43.972729 ], [ 1.544367, 43.972161 ], [ 1.544557, 43.971966 ], [ 1.545496, 43.971217 ], [ 1.545775, 43.971044 ], [ 1.546165, 43.970824 ], [ 1.54656, 43.970601 ], [ 1.546778, 43.970463 ], [ 1.546989, 43.97033 ], [ 1.547291, 43.970112 ], [ 1.548189084468811, 43.96983965234493 ], [ 1.547785, 43.969743 ], [ 1.547563, 43.969459 ], [ 1.541603, 43.965429 ], [ 1.538645, 43.965179 ], [ 1.537297, 43.965152 ], [ 1.535309, 43.964249 ], [ 1.535383, 43.963897 ], [ 1.535595, 43.963941 ], [ 1.535806, 43.963986 ], [ 1.537295, 43.964484 ], [ 1.538433, 43.964773 ], [ 1.546376, 43.962729 ], [ 1.546724, 43.962633 ], [ 1.551931, 43.96538 ], [ 1.55258679365476, 43.965282391776356 ], [ 1.547302, 43.960938 ] ] ], [ [ [ 1.564549, 43.96327 ], [ 1.563884, 43.963252 ], [ 1.557232, 43.964591 ], [ 1.557661, 43.964656 ], [ 1.558089, 43.964722 ], [ 1.56135, 43.965679 ], [ 1.567678, 43.963417 ], [ 1.569171, 43.960756 ], [ 1.564549, 43.96327 ] ] ], [ [ [ 1.576423, 43.984575 ], [ 1.576562, 43.984907 ], [ 1.579183, 43.989956 ], [ 1.579445, 43.990204 ], [ 1.587599, 43.991081 ], [ 1.588902, 43.998146 ], [ 1.588792, 43.998387 ], [ 1.589119, 43.998537 ], [ 1.596138, 43.995131 ], [ 1.59993, 43.993997 ], [ 1.601637, 43.992593 ], [ 1.601525, 43.992251 ], [ 1.600929, 43.988917 ], [ 1.606897, 43.984787 ], [ 1.607257, 43.984787 ], [ 1.610549, 43.983376 ], [ 1.616199, 43.983893 ], [ 1.619141, 43.98668 ], [ 1.619359, 43.986967 ], [ 1.623909, 43.988248 ], [ 1.624229, 43.988083 ], [ 1.623815, 43.986227 ], [ 1.622861, 43.985739 ], [ 1.622603, 43.985624 ], [ 1.621891, 43.985398 ], [ 1.621194, 43.985177 ], [ 1.617513, 43.977024 ], [ 1.619821, 43.974006 ], [ 1.620046, 43.973851 ], [ 1.621993, 43.972857 ], [ 1.622156, 43.97274 ], [ 1.622351, 43.972594 ], [ 1.626366, 43.96996 ], [ 1.626271, 43.969613 ], [ 1.625821, 43.969736 ], [ 1.62537, 43.969858 ], [ 1.625137, 43.969977 ], [ 1.624941, 43.970082 ], [ 1.624162, 43.970537 ], [ 1.62339, 43.970989 ], [ 1.615706, 43.969409 ], [ 1.614789, 43.96461 ], [ 1.618347, 43.95912 ], [ 1.620968, 43.957537 ], [ 1.620906, 43.957182 ], [ 1.615607, 43.953501 ], [ 1.60767, 43.954129 ], [ 1.603195, 43.951694 ], [ 1.602655, 43.951148 ], [ 1.600856, 43.942367 ], [ 1.600743, 43.942025 ], [ 1.596698, 43.942577 ], [ 1.588188, 43.943601 ], [ 1.586683, 43.942173 ], [ 1.583975, 43.937457 ], [ 1.58403, 43.933981 ], [ 1.584012, 43.933514 ], [ 1.581842, 43.932448 ], [ 1.581491, 43.932532 ], [ 1.57569, 43.937401 ], [ 1.571882, 43.935381 ], [ 1.571572, 43.935199 ], [ 1.570427, 43.936018 ], [ 1.570429, 43.936378 ], [ 1.57253, 43.937758 ], [ 1.571847, 43.945472 ], [ 1.567444, 43.94756 ], [ 1.567147, 43.947567 ], [ 1.567155, 43.947927 ], [ 1.567906, 43.953112 ], [ 1.567993, 43.953461 ], [ 1.569171, 43.960756 ], [ 1.574243, 43.958302 ], [ 1.574047, 43.951601 ], [ 1.573827, 43.951316 ], [ 1.572953, 43.94766 ], [ 1.572861, 43.947311 ], [ 1.577902, 43.939935 ], [ 1.578764, 43.939586 ], [ 1.57906, 43.939791 ], [ 1.586742, 43.944057 ], [ 1.588421, 43.944107 ], [ 1.588906, 43.94429 ], [ 1.589179, 43.944409 ], [ 1.589452, 43.944528 ], [ 1.592955, 43.952802 ], [ 1.593224, 43.953041 ], [ 1.597945, 43.955739 ], [ 1.604199, 43.955173 ], [ 1.610151, 43.956412 ], [ 1.61186, 43.957369 ], [ 1.611843, 43.957729 ], [ 1.610947, 43.957687 ], [ 1.610052, 43.957645 ], [ 1.609625, 43.95758 ], [ 1.609217, 43.957518 ], [ 1.607602, 43.957421 ], [ 1.60737, 43.957422 ], [ 1.606167, 43.957552 ], [ 1.601358, 43.962039 ], [ 1.60111, 43.965867 ], [ 1.609243, 43.967311 ], [ 1.609601, 43.967352 ], [ 1.612909, 43.968129 ], [ 1.613102, 43.968433 ], [ 1.618542, 43.973959 ], [ 1.618628, 43.974309 ], [ 1.616819, 43.977079 ], [ 1.615901, 43.983274 ], [ 1.615706, 43.983576 ], [ 1.611327, 43.982799 ], [ 1.611171, 43.982475 ], [ 1.606029, 43.977351 ], [ 1.601075, 43.977457 ], [ 1.599456, 43.984233 ], [ 1.599341, 43.984485 ], [ 1.599094, 43.990122 ], [ 1.598802, 43.990333 ], [ 1.595972, 43.991653 ], [ 1.595623, 43.991742 ], [ 1.591294, 43.987721 ], [ 1.583213, 43.985116 ], [ 1.582887, 43.984964 ], [ 1.577756, 43.980649 ], [ 1.574369054941547, 43.979844785001603 ], [ 1.576423, 43.984575 ] ] ], [ [ [ 1.569606772961, 43.978714002385026 ], [ 1.569034, 43.978578 ], [ 1.568665, 43.978979 ], [ 1.569606772961, 43.978714002385026 ] ] ], [ [ [ 1.565673948701058, 43.982478168379465 ], [ 1.56563, 43.982542 ], [ 1.565621128914663, 43.982563791025008 ], [ 1.565673948701058, 43.982478168379465 ] ] ], [ [ [ 1.553952, 43.976432 ], [ 1.554212, 43.976681 ], [ 1.560855, 43.981203 ], [ 1.561606, 43.982551 ], [ 1.56352, 43.987746 ], [ 1.563638, 43.988141 ], [ 1.563759, 43.988544 ], [ 1.563902, 43.988958 ], [ 1.564183, 43.989851 ], [ 1.564355, 43.989963 ], [ 1.564363, 43.989963 ], [ 1.56453, 43.989755 ], [ 1.56444, 43.989154 ], [ 1.564741, 43.984469 ], [ 1.565248, 43.983421 ], [ 1.565413, 43.983074 ], [ 1.565434670559969, 43.983020865453923 ], [ 1.565102, 43.982885 ], [ 1.563118, 43.981884 ], [ 1.562049, 43.981179 ], [ 1.558165, 43.975538 ], [ 1.555277, 43.971535 ], [ 1.550927427348729, 43.97049463238239 ], [ 1.553952, 43.976432 ] ] ] ] } },
{ "type": "Feature", "properties": { "codgeo": "82115", "value": 360, "isochrone_group": 6.0, "nb_agences": 1 }, "geometry": { "type": "MultiPolygon", "coordinates": [ [ [ [ 1.527155, 43.956651 ], [ 1.527102, 43.956028 ], [ 1.52678, 43.955868 ], [ 1.525647, 43.956364 ], [ 1.518726, 43.95827 ], [ 1.516085, 43.956797 ], [ 1.515315, 43.956113 ], [ 1.514783, 43.955583 ], [ 1.514544, 43.95538 ], [ 1.514305, 43.955177 ], [ 1.514072, 43.955452 ], [ 1.513994, 43.95605 ], [ 1.516195, 43.961214 ], [ 1.516347, 43.96154 ], [ 1.521927, 43.965121 ], [ 1.519873, 43.969845 ], [ 1.519689, 43.969961 ], [ 1.519474, 43.97014 ], [ 1.517265, 43.971198 ], [ 1.515023, 43.974927 ], [ 1.514388, 43.9756 ], [ 1.513753, 43.976273 ], [ 1.514015, 43.97652 ], [ 1.515888, 43.974825 ], [ 1.517599, 43.973765 ], [ 1.517744, 43.97365 ], [ 1.517902, 43.973504 ], [ 1.51805, 43.973368 ], [ 1.518264, 43.973122 ], [ 1.518432, 43.972859 ], [ 1.518583, 43.972618 ], [ 1.527279, 43.971096 ], [ 1.528632, 43.973561 ], [ 1.52888, 43.974357 ], [ 1.529183, 43.975236 ], [ 1.529488, 43.975492 ], [ 1.529802, 43.975755 ], [ 1.530448, 43.976233 ], [ 1.531093, 43.97671 ], [ 1.531307, 43.976421 ], [ 1.530046, 43.969865 ], [ 1.536915423099555, 43.968955637973636 ], [ 1.5367, 43.968812 ], [ 1.530074, 43.969826 ], [ 1.524051, 43.968031 ], [ 1.523729, 43.967871 ], [ 1.52431, 43.960209 ], [ 1.524498, 43.959902 ], [ 1.525501, 43.959548 ], [ 1.525804, 43.959743 ], [ 1.528966, 43.961554 ], [ 1.529383, 43.961762 ], [ 1.529757, 43.961955 ], [ 1.527155, 43.956651 ] ] ], [ [ [ 1.544624, 43.960069 ], [ 1.537147, 43.959445 ], [ 1.536873, 43.959624 ], [ 1.536599, 43.959803 ], [ 1.536476, 43.959975 ], [ 1.529757, 43.961955 ], [ 1.538503, 43.961495 ], [ 1.538861, 43.9613 ], [ 1.546319, 43.96082 ], [ 1.546608, 43.960821 ], [ 1.546934, 43.960856 ], [ 1.544624, 43.960069 ] ] ], [ [ [ 1.547323, 43.960942 ], [ 1.547129, 43.960899 ], [ 1.546934, 43.960856 ], [ 1.547118, 43.960897 ], [ 1.547302, 43.960938 ], [ 1.552888, 43.96553 ], [ 1.547323, 43.960942 ] ] ], [ [ [ 1.587369, 43.934103 ], [ 1.58729, 43.933752 ], [ 1.585425, 43.929507 ], [ 1.587958, 43.92453 ], [ 1.587784, 43.924215 ], [ 1.587243, 43.924515 ], [ 1.586703, 43.924815 ], [ 1.586392, 43.92501 ], [ 1.586191, 43.925168 ], [ 1.586007, 43.925315 ], [ 1.585805, 43.925518 ], [ 1.585652, 43.925716 ], [ 1.585452, 43.926016 ], [ 1.585046, 43.926571 ], [ 1.584825, 43.926849 ], [ 1.584682, 43.927053 ], [ 1.584546, 43.927248 ], [ 1.584033, 43.928149 ], [ 1.575163, 43.929267 ], [ 1.570624, 43.928283 ], [ 1.570386, 43.928553 ], [ 1.565359, 43.934002 ], [ 1.565361, 43.934362 ], [ 1.566608, 43.936758 ], [ 1.566889, 43.936983 ], [ 1.57036, 43.93958 ], [ 1.571458, 43.94199 ], [ 1.565949, 43.94764 ], [ 1.565139, 43.947628 ], [ 1.563955, 43.948239 ], [ 1.563443, 43.948638 ], [ 1.561451, 43.949787 ], [ 1.561316, 43.955114 ], [ 1.56139, 43.955467 ], [ 1.563734, 43.963248 ], [ 1.563162416839846, 43.963397249526651 ], [ 1.563884, 43.963252 ], [ 1.564549, 43.96327 ], [ 1.569171, 43.960756 ], [ 1.567993, 43.953461 ], [ 1.567906, 43.953112 ], [ 1.567155, 43.947927 ], [ 1.567147, 43.947567 ], [ 1.567444, 43.94756 ], [ 1.571847, 43.945472 ], [ 1.57253, 43.937758 ], [ 1.570429, 43.936378 ], [ 1.570427, 43.936018 ], [ 1.571572, 43.935199 ], [ 1.571882, 43.935381 ], [ 1.57569, 43.937401 ], [ 1.581491, 43.932532 ], [ 1.581842, 43.932448 ], [ 1.584012, 43.933514 ], [ 1.58403, 43.933981 ], [ 1.583975, 43.937457 ], [ 1.586683, 43.942173 ], [ 1.587369, 43.934103 ] ] ], [ [ [ 1.604613, 43.941434 ], [ 1.608383, 43.94263 ], [ 1.60872, 43.942756 ], [ 1.612858, 43.940047 ], [ 1.612892, 43.939688 ], [ 1.612701, 43.93967 ], [ 1.611703, 43.939692 ], [ 1.610242, 43.939803 ], [ 1.606166, 43.939635 ], [ 1.605806, 43.939651 ], [ 1.598016, 43.938303 ], [ 1.597253, 43.938711 ], [ 1.595887, 43.939849 ], [ 1.595815, 43.940201 ], [ 1.588188, 43.943601 ], [ 1.596698, 43.942577 ], [ 1.600743, 43.942025 ], [ 1.600856, 43.942367 ], [ 1.601715450186121, 43.946562015055214 ], [ 1.604613, 43.941434 ] ] ], [ [ [ 1.628881, 43.974842 ], [ 1.629234, 43.974773 ], [ 1.631064, 43.973775 ], [ 1.636923, 43.968908 ], [ 1.63683, 43.96856 ], [ 1.63074, 43.966433 ], [ 1.630006, 43.958803 ], [ 1.630068, 43.958448 ], [ 1.628725, 43.957478 ], [ 1.628379, 43.95738 ], [ 1.624074, 43.956004 ], [ 1.619394, 43.950125 ], [ 1.618963, 43.950259 ], [ 1.618605, 43.950359 ], [ 1.618378, 43.950424 ], [ 1.618038, 43.9506 ], [ 1.61426, 43.952617 ], [ 1.613918, 43.952728 ], [ 1.609751, 43.952457 ], [ 1.603687, 43.95119 ], [ 1.602332669149577, 43.94957468860612 ], [ 1.602655, 43.951148 ], [ 1.603195, 43.951694 ], [ 1.60767, 43.954129 ], [ 1.615607, 43.953501 ], [ 1.620906, 43.957182 ], [ 1.620968, 43.957537 ], [ 1.618347, 43.95912 ], [ 1.614789, 43.96461 ], [ 1.615706, 43.969409 ], [ 1.62339, 43.970989 ], [ 1.624162, 43.970537 ], [ 1.624941, 43.970082 ], [ 1.625137, 43.969977 ], [ 1.62537, 43.969858 ], [ 1.625821, 43.969736 ], [ 1.626271, 43.969613 ], [ 1.626366, 43.96996 ], [ 1.622351, 43.972594 ], [ 1.622156, 43.97274 ], [ 1.621993, 43.972857 ], [ 1.620046, 43.973851 ], [ 1.628881, 43.974842 ] ] ], [ [ [ 1.618717, 43.987001 ], [ 1.618935, 43.990678 ], [ 1.619106, 43.990995 ], [ 1.627321, 43.994607 ], [ 1.629571, 43.996435 ], [ 1.629849, 43.996206 ], [ 1.62827, 43.99335 ], [ 1.626878, 43.9891 ], [ 1.624026, 43.986374 ], [ 1.623823123716008, 43.986263419364526 ], [ 1.624229, 43.988083 ], [ 1.623909, 43.988248 ], [ 1.619359, 43.986967 ], [ 1.619141, 43.98668 ], [ 1.616199, 43.983893 ], [ 1.610549, 43.983376 ], [ 1.618717, 43.987001 ] ] ], [ [ [ 1.557728, 43.990354 ], [ 1.55759, 43.990687 ], [ 1.561808, 43.99462 ], [ 1.563428, 43.99558 ], [ 1.563788, 43.995585 ], [ 1.570549, 43.993285 ], [ 1.570784, 43.993286 ], [ 1.571019, 43.993287 ], [ 1.576398, 43.992625 ], [ 1.580208, 43.998899 ], [ 1.583915, 44.006687 ], [ 1.584189, 44.006919 ], [ 1.591383, 44.005318 ], [ 1.593261, 44.005119 ], [ 1.593305, 44.004762 ], [ 1.596019, 43.996261 ], [ 1.600406, 43.99679 ], [ 1.600699, 43.996809 ], [ 1.601031, 43.996826 ], [ 1.601241, 43.996793 ], [ 1.601497, 43.996748 ], [ 1.601659, 43.996675 ], [ 1.602262, 43.996408 ], [ 1.602865, 43.99614 ], [ 1.604046, 43.992511 ], [ 1.606893, 43.985816 ], [ 1.610549, 43.983376 ], [ 1.607257, 43.984787 ], [ 1.606897, 43.984787 ], [ 1.600929, 43.988917 ], [ 1.601525, 43.992251 ], [ 1.601637, 43.992593 ], [ 1.59993, 43.993997 ], [ 1.596138, 43.995131 ], [ 1.589119, 43.998537 ], [ 1.588792, 43.998387 ], [ 1.588902, 43.998146 ], [ 1.587599, 43.991081 ], [ 1.579445, 43.990204 ], [ 1.579183, 43.989956 ], [ 1.576562, 43.984907 ], [ 1.576423, 43.984575 ], [ 1.573413, 43.977643 ], [ 1.568665, 43.978979 ], [ 1.568492, 43.979151 ], [ 1.568307, 43.979333 ], [ 1.567846, 43.979716 ], [ 1.567395, 43.980088 ], [ 1.567164, 43.980314 ], [ 1.566724, 43.980776 ], [ 1.565621, 43.982564 ], [ 1.565413, 43.983074 ], [ 1.565248, 43.983421 ], [ 1.564741, 43.984469 ], [ 1.56444, 43.989154 ], [ 1.56453, 43.989755 ], [ 1.564363, 43.989963 ], [ 1.564355, 43.989963 ], [ 1.564183, 43.989851 ], [ 1.563902, 43.988958 ], [ 1.563759, 43.988544 ], [ 1.563638, 43.988141 ], [ 1.56352, 43.987746 ], [ 1.561606, 43.982551 ], [ 1.557728, 43.990354 ] ] ], [ [ [ 1.542512, 43.975011 ], [ 1.542044, 43.976934 ], [ 1.541961, 43.977144 ], [ 1.541878, 43.977353 ], [ 1.542213, 43.977486 ], [ 1.542296, 43.977276 ], [ 1.542519, 43.97679 ], [ 1.542665, 43.976499 ], [ 1.542729, 43.976323 ], [ 1.54278, 43.976057 ], [ 1.544367, 43.972161 ], [ 1.543847, 43.972729 ], [ 1.543327, 43.973297 ], [ 1.543062, 43.973054 ], [ 1.537407286062447, 43.969283598157325 ], [ 1.542512, 43.975011 ] ] ] ] } },
{ "type": "Feature", "properties": { "codgeo": "82115", "value": 420, "isochrone_group": 7.0, "nb_agences": 1 }, "geometry": { "type": "MultiPolygon", "coordinates": [ [ [ [ 1.515704, 43.953753 ], [ 1.51551, 43.95345 ], [ 1.509453, 43.953305 ], [ 1.505496, 43.95172 ], [ 1.505163, 43.951583 ], [ 1.502226, 43.951388 ], [ 1.502188, 43.951746 ], [ 1.507775, 43.955833 ], [ 1.512192, 43.963162 ], [ 1.514426, 43.970728 ], [ 1.513638, 43.972644 ], [ 1.506914, 43.976095 ], [ 1.503351, 43.978142 ], [ 1.503114, 43.978413 ], [ 1.502353, 43.980307 ], [ 1.50259, 43.980578 ], [ 1.508069, 43.979648 ], [ 1.511699, 43.980636 ], [ 1.511919, 43.980351 ], [ 1.514353300998204, 43.976213849336915 ], [ 1.514015, 43.97652 ], [ 1.513753, 43.976273 ], [ 1.514388, 43.9756 ], [ 1.515023, 43.974927 ], [ 1.517265, 43.971198 ], [ 1.519474, 43.97014 ], [ 1.519689, 43.969961 ], [ 1.519873, 43.969845 ], [ 1.521927, 43.965121 ], [ 1.516347, 43.96154 ], [ 1.516195, 43.961214 ], [ 1.513994, 43.95605 ], [ 1.514072, 43.955452 ], [ 1.514305, 43.955177 ], [ 1.514544, 43.95538 ], [ 1.514783, 43.955583 ], [ 1.515315, 43.956113 ], [ 1.516085, 43.956797 ], [ 1.518726, 43.95827 ], [ 1.519108252676816, 43.958164730009813 ], [ 1.515704, 43.953753 ] ] ], [ [ [ 1.547351, 43.956698 ], [ 1.547463, 43.956437 ], [ 1.547132, 43.956295 ], [ 1.54702, 43.956556 ], [ 1.545957, 43.958255 ], [ 1.537545, 43.959167 ], [ 1.536359, 43.957249 ], [ 1.535999, 43.957253 ], [ 1.528452, 43.952463 ], [ 1.528228, 43.952181 ], [ 1.527245, 43.952376 ], [ 1.527089, 43.952701 ], [ 1.526281, 43.954783 ], [ 1.526168, 43.954993 ], [ 1.520692133905427, 43.957728539051608 ], [ 1.525647, 43.956364 ], [ 1.52678, 43.955868 ], [ 1.527102, 43.956028 ], [ 1.527155, 43.956651 ], [ 1.529757, 43.961955 ], [ 1.536476, 43.959975 ], [ 1.536599, 43.959803 ], [ 1.536873, 43.959624 ], [ 1.537147, 43.959445 ], [ 1.544624, 43.960069 ], [ 1.546934, 43.960856 ], [ 1.547129, 43.960899 ], [ 1.547323, 43.960942 ], [ 1.547351, 43.956698 ] ] ], [ [ [ 1.556061, 43.948844 ], [ 1.5559, 43.949166 ], [ 1.556624, 43.956134 ], [ 1.556927, 43.956329 ], [ 1.557232, 43.964591 ], [ 1.557661, 43.964656 ], [ 1.558089, 43.964722 ], [ 1.563734, 43.963248 ], [ 1.56139, 43.955467 ], [ 1.561316, 43.955114 ], [ 1.561451, 43.949787 ], [ 1.563443, 43.948638 ], [ 1.563955, 43.948239 ], [ 1.556061, 43.948844 ] ] ], [ [ [ 1.579259, 43.927145 ], [ 1.579022, 43.927189 ], [ 1.578785, 43.927234 ], [ 1.578454, 43.927324 ], [ 1.578138, 43.927411 ], [ 1.569359, 43.926808 ], [ 1.56916, 43.926591 ], [ 1.568914, 43.926408 ], [ 1.568132, 43.925911 ], [ 1.566337, 43.924564 ], [ 1.563442, 43.924762 ], [ 1.562853, 43.924836 ], [ 1.562864, 43.925195 ], [ 1.567451, 43.928691 ], [ 1.564464, 43.934143 ], [ 1.564125, 43.934247 ], [ 1.561664, 43.934367 ], [ 1.561327, 43.934336 ], [ 1.560978, 43.93437 ], [ 1.560294, 43.934436 ], [ 1.559591, 43.934505 ], [ 1.559015, 43.934623 ], [ 1.558439, 43.934742 ], [ 1.558511, 43.935095 ], [ 1.560918, 43.935391 ], [ 1.565751, 43.93913 ], [ 1.565139, 43.947628 ], [ 1.565949, 43.94764 ], [ 1.571458, 43.94199 ], [ 1.57036, 43.93958 ], [ 1.566889, 43.936983 ], [ 1.566608, 43.936758 ], [ 1.565361, 43.934362 ], [ 1.565359, 43.934002 ], [ 1.570386, 43.928553 ], [ 1.570624, 43.928283 ], [ 1.575163, 43.929267 ], [ 1.584033, 43.928149 ], [ 1.584546, 43.927248 ], [ 1.584682, 43.927053 ], [ 1.584825, 43.926849 ], [ 1.585046, 43.926571 ], [ 1.585452, 43.926016 ], [ 1.585652, 43.925716 ], [ 1.585805, 43.925518 ], [ 1.579259, 43.927145 ] ] ], [ [ [ 1.586649, 43.927115 ], [ 1.589095, 43.923799 ], [ 1.589258, 43.923675 ], [ 1.589432, 43.923541 ], [ 1.589581, 43.923408 ], [ 1.58975, 43.923252 ], [ 1.5899, 43.923062 ], [ 1.590059, 43.92286 ], [ 1.590186, 43.92267 ], [ 1.590327, 43.922454 ], [ 1.592718, 43.919993 ], [ 1.592863, 43.91976 ], [ 1.593129, 43.917709 ], [ 1.592804, 43.917296 ], [ 1.592445, 43.917319 ], [ 1.586885, 43.921475 ], [ 1.585805, 43.925518 ], [ 1.586007, 43.925315 ], [ 1.586191, 43.925168 ], [ 1.586392, 43.92501 ], [ 1.586703, 43.924815 ], [ 1.587243, 43.924515 ], [ 1.587784, 43.924215 ], [ 1.587958, 43.92453 ], [ 1.585425, 43.929507 ], [ 1.58729, 43.933752 ], [ 1.586649, 43.927115 ] ] ], [ [ [ 1.640033, 43.970884 ], [ 1.640371, 43.971007 ], [ 1.6434, 43.965609 ], [ 1.643562, 43.965287 ], [ 1.643799, 43.964198 ], [ 1.643585, 43.963909 ], [ 1.639859, 43.959637 ], [ 1.639737, 43.959612 ], [ 1.635115, 43.958496 ], [ 1.634773, 43.958384 ], [ 1.627689, 43.953038 ], [ 1.623568, 43.947596 ], [ 1.622503, 43.941856 ], [ 1.62137, 43.941761 ], [ 1.619328, 43.94115 ], [ 1.614814, 43.934332 ], [ 1.614747, 43.933385 ], [ 1.614388, 43.933411 ], [ 1.606601, 43.937519 ], [ 1.601031, 43.934582 ], [ 1.600671, 43.934601 ], [ 1.596026, 43.937439 ], [ 1.593402, 43.939189 ], [ 1.587369, 43.934103 ], [ 1.586683, 43.942173 ], [ 1.588188, 43.943601 ], [ 1.595815, 43.940201 ], [ 1.595887, 43.939849 ], [ 1.597253, 43.938711 ], [ 1.598016, 43.938303 ], [ 1.605806, 43.939651 ], [ 1.606166, 43.939635 ], [ 1.610242, 43.939803 ], [ 1.611703, 43.939692 ], [ 1.612701, 43.93967 ], [ 1.612892, 43.939688 ], [ 1.612858, 43.940047 ], [ 1.60872, 43.942756 ], [ 1.608383, 43.94263 ], [ 1.604613, 43.941434 ], [ 1.600947, 43.947922 ], [ 1.603687, 43.95119 ], [ 1.609751, 43.952457 ], [ 1.613918, 43.952728 ], [ 1.61426, 43.952617 ], [ 1.618038, 43.9506 ], [ 1.618378, 43.950424 ], [ 1.618605, 43.950359 ], [ 1.618963, 43.950259 ], [ 1.619394, 43.950125 ], [ 1.624074, 43.956004 ], [ 1.628379, 43.95738 ], [ 1.628725, 43.957478 ], [ 1.630068, 43.958448 ], [ 1.630006, 43.958803 ], [ 1.63074, 43.966433 ], [ 1.63683, 43.96856 ], [ 1.636923, 43.968908 ], [ 1.63617749820179, 43.969527279271524 ], [ 1.640033, 43.970884 ] ] ], [ [ [ 1.629195, 43.976579 ], [ 1.629316, 43.976795 ], [ 1.629448, 43.977028 ], [ 1.63005, 43.977855 ], [ 1.630673, 43.978705 ], [ 1.630829, 43.978854 ], [ 1.631, 43.979016 ], [ 1.632575, 43.980886 ], [ 1.63306, 43.982263 ], [ 1.633418, 43.982302 ], [ 1.633478, 43.981738 ], [ 1.633539, 43.981174 ], [ 1.633525, 43.980935 ], [ 1.633422, 43.980672 ], [ 1.632784, 43.978805 ], [ 1.632526, 43.978555 ], [ 1.629237, 43.974789 ], [ 1.629264651691716, 43.974756283940806 ], [ 1.629234, 43.974773 ], [ 1.628881, 43.974842 ], [ 1.624989268309704, 43.974405474125049 ], [ 1.629195, 43.976579 ] ] ], [ [ [ 1.580603, 44.008992 ], [ 1.578342, 44.009685 ], [ 1.578314, 44.010044 ], [ 1.581449, 44.013527 ], [ 1.582112, 44.014231 ], [ 1.582775, 44.014934 ], [ 1.583037, 44.014687 ], [ 1.583647, 44.007513 ], [ 1.59085, 44.009559 ], [ 1.591121, 44.009796 ], [ 1.591817, 44.009172 ], [ 1.599215, 44.005136 ], [ 1.601033, 44.005681 ], [ 1.601872, 44.006076 ], [ 1.602371, 44.006185 ], [ 1.602887, 44.006297 ], [ 1.603253, 44.006338 ], [ 1.603759, 44.0063 ], [ 1.604264, 44.006261 ], [ 1.604237, 44.005902 ], [ 1.604831, 43.997186 ], [ 1.608226, 43.997584 ], [ 1.608524, 43.997382 ], [ 1.615937, 43.992415 ], [ 1.624232, 43.994862 ], [ 1.623803, 44.002736 ], [ 1.624026, 44.003019 ], [ 1.626259, 44.001826 ], [ 1.634706, 44.001153 ], [ 1.63498, 44.000919 ], [ 1.638249, 43.994266 ], [ 1.638037, 43.993974 ], [ 1.63784, 43.994117 ], [ 1.63732, 43.994469 ], [ 1.636989, 43.994683 ], [ 1.628202277872471, 43.993143233446844 ], [ 1.62827, 43.99335 ], [ 1.629849, 43.996206 ], [ 1.629571, 43.996435 ], [ 1.627321, 43.994607 ], [ 1.619106, 43.990995 ], [ 1.618935, 43.990678 ], [ 1.618717, 43.987001 ], [ 1.610549, 43.983376 ], [ 1.606893, 43.985816 ], [ 1.604046, 43.992511 ], [ 1.602865, 43.99614 ], [ 1.602262, 43.996408 ], [ 1.601659, 43.996675 ], [ 1.601497, 43.996748 ], [ 1.601241, 43.996793 ], [ 1.601031, 43.996826 ], [ 1.600699, 43.996809 ], [ 1.600406, 43.99679 ], [ 1.596019, 43.996261 ], [ 1.593305, 44.004762 ], [ 1.593261, 44.005119 ], [ 1.591383, 44.005318 ], [ 1.584189, 44.006919 ], [ 1.583915, 44.006687 ], [ 1.58215428614825, 44.002987933510283 ], [ 1.580603, 44.008992 ] ] ], [ [ [ 1.574747, 43.995038 ], [ 1.575994, 43.996118 ], [ 1.576241, 43.99638 ], [ 1.580153, 43.998843 ], [ 1.580208762648745, 43.998900602241299 ], [ 1.580208, 43.998899 ], [ 1.576398, 43.992625 ], [ 1.571019, 43.993287 ], [ 1.570784, 43.993286 ], [ 1.570549, 43.993285 ], [ 1.574747, 43.995038 ] ] ], [ [ [ 1.554217, 43.987589 ], [ 1.553859, 43.987556 ], [ 1.551517, 43.987189 ], [ 1.551161, 43.987242 ], [ 1.546001, 43.989472 ], [ 1.545806, 43.989775 ], [ 1.547287, 43.991225 ], [ 1.550012, 43.990761 ], [ 1.557359, 43.993858 ], [ 1.560018, 43.999439 ], [ 1.560247, 43.999717 ], [ 1.563949, 43.998581 ], [ 1.570549, 43.993285 ], [ 1.563788, 43.995585 ], [ 1.563428, 43.99558 ], [ 1.561808, 43.99462 ], [ 1.55759, 43.990687 ], [ 1.557728, 43.990354 ], [ 1.561606, 43.982551 ], [ 1.554217, 43.987589 ] ] ], [ [ [ 1.530873, 43.981638 ], [ 1.53032, 43.983371 ], [ 1.530255, 43.983576 ], [ 1.530598, 43.983685 ], [ 1.530663, 43.98348 ], [ 1.531216, 43.981748 ], [ 1.531768, 43.980015 ], [ 1.531849, 43.979623 ], [ 1.540658, 43.981435 ], [ 1.540965, 43.981623 ], [ 1.541328, 43.981293 ], [ 1.543509, 43.977464 ], [ 1.545775, 43.971044 ], [ 1.545496, 43.971217 ], [ 1.544557, 43.971966 ], [ 1.544367, 43.972161 ], [ 1.54278, 43.976057 ], [ 1.542729, 43.976323 ], [ 1.542665, 43.976499 ], [ 1.542519, 43.97679 ], [ 1.542296, 43.977276 ], [ 1.542213, 43.977486 ], [ 1.541878, 43.977353 ], [ 1.541961, 43.977144 ], [ 1.542044, 43.976934 ], [ 1.542512, 43.975011 ], [ 1.537126, 43.968968 ], [ 1.537026, 43.968941 ], [ 1.530046, 43.969865 ], [ 1.531307, 43.976421 ], [ 1.531093, 43.97671 ], [ 1.530448, 43.976233 ], [ 1.529802, 43.975755 ], [ 1.529488, 43.975492 ], [ 1.529183, 43.975236 ], [ 1.530873, 43.981638 ] ] ], [ [ [ 1.525522, 43.972936 ], [ 1.529183, 43.975236 ], [ 1.52888, 43.974357 ], [ 1.528632, 43.973561 ], [ 1.527279, 43.971096 ], [ 1.518583, 43.972618 ], [ 1.518432, 43.972859 ], [ 1.518264, 43.973122 ], [ 1.51805, 43.973368 ], [ 1.517902, 43.973504 ], [ 1.517744, 43.97365 ], [ 1.517599, 43.973765 ], [ 1.525522, 43.972936 ] ] ] ] } },
{ "type": "Feature", "properties": { "codgeo": "82115", "value": 480, "isochrone_group": 8.0, "nb_agences": 1 }, "geometry": { "type": "MultiPolygon", "coordinates": [ [ [ [ 1.499198, 43.986519 ], [ 1.499885, 43.986219 ], [ 1.50093, 43.985745 ], [ 1.507503, 43.982156 ], [ 1.512347, 43.985169 ], [ 1.51291, 43.985645 ], [ 1.513443, 43.985929 ], [ 1.515641, 43.987266 ], [ 1.516307, 43.987643 ], [ 1.516828, 43.98785 ], [ 1.522274, 43.989854 ], [ 1.524584, 43.989298 ], [ 1.526799, 43.988553 ], [ 1.527925, 43.988304 ], [ 1.534122, 43.988373 ], [ 1.5365, 43.991076 ], [ 1.54406, 43.993874 ], [ 1.546787, 43.996225 ], [ 1.547332, 43.995748 ], [ 1.547708, 43.995405 ], [ 1.555946, 43.995232 ], [ 1.557175, 43.998616 ], [ 1.557414, 44.000608 ], [ 1.557331, 44.001729 ], [ 1.557565, 44.003208 ], [ 1.557916, 44.004188 ], [ 1.561306, 44.002977 ], [ 1.563507, 44.002579 ], [ 1.563578, 44.002518 ], [ 1.564231, 44.001754 ], [ 1.564772, 44.00097 ], [ 1.56529, 43.999966 ], [ 1.572849, 43.996781 ], [ 1.575651, 43.999042 ], [ 1.574926, 44.007812 ], [ 1.575735, 44.01132 ], [ 1.579909, 44.01416 ], [ 1.580197, 44.021152 ], [ 1.582293, 44.024079 ], [ 1.583429, 44.023266 ], [ 1.583934, 44.022832 ], [ 1.584245, 44.022514 ], [ 1.584659, 44.021872 ], [ 1.585215, 44.020354 ], [ 1.585944, 44.018678 ], [ 1.586092, 44.017537 ], [ 1.5914, 44.011428 ], [ 1.592967, 44.011617 ], [ 1.594883, 44.009285 ], [ 1.601526, 44.007658 ], [ 1.605502, 44.010862 ], [ 1.607553, 44.012096 ], [ 1.608232, 44.01159 ], [ 1.614744, 44.005724 ], [ 1.617101, 44.005938 ], [ 1.619558, 44.006409 ], [ 1.623353, 44.004976 ], [ 1.624081, 44.004791 ], [ 1.624612, 44.004566 ], [ 1.633051, 44.00422 ], [ 1.635913, 44.008438 ], [ 1.639434, 44.007687 ], [ 1.639298, 44.005826 ], [ 1.642243, 43.998148 ], [ 1.648132, 43.993805 ], [ 1.649907, 43.991672 ], [ 1.649875, 43.991531 ], [ 1.649144, 43.99035 ], [ 1.648625, 43.990198 ], [ 1.646805, 43.989974 ], [ 1.641188, 43.987152 ], [ 1.635149, 43.981346 ], [ 1.640339, 43.975577 ], [ 1.640885, 43.975467 ], [ 1.641224, 43.975369 ], [ 1.641753, 43.975096 ], [ 1.64283, 43.974334 ], [ 1.645094, 43.972611 ], [ 1.649314, 43.968387 ], [ 1.6503, 43.96724 ], [ 1.651722, 43.965866 ], [ 1.651815, 43.965725 ], [ 1.651661, 43.958697 ], [ 1.648798, 43.956515 ], [ 1.641173, 43.95643 ], [ 1.636207, 43.954836 ], [ 1.633154, 43.950968 ], [ 1.632012, 43.944257 ], [ 1.629584, 43.939253 ], [ 1.626062, 43.938507 ], [ 1.621183, 43.938606 ], [ 1.61814, 43.930866 ], [ 1.620236, 43.929211 ], [ 1.620808, 43.928756 ], [ 1.620242, 43.926373 ], [ 1.620016, 43.926242 ], [ 1.618862, 43.925774 ], [ 1.618569, 43.925937 ], [ 1.617997, 43.926392 ], [ 1.615909, 43.92804 ], [ 1.615386, 43.928476 ], [ 1.614883, 43.929032 ], [ 1.614294, 43.929735 ], [ 1.613611, 43.930604 ], [ 1.613136, 43.931615 ], [ 1.604299, 43.931701 ], [ 1.604035, 43.93051 ], [ 1.603744, 43.929633 ], [ 1.603392, 43.929071 ], [ 1.602344, 43.928678 ], [ 1.597732, 43.92099 ], [ 1.597782, 43.920029 ], [ 1.597274, 43.918952 ], [ 1.595216, 43.913758 ], [ 1.594663, 43.913382 ], [ 1.591351, 43.91197 ], [ 1.589086, 43.912787 ], [ 1.587017, 43.916517 ], [ 1.582425, 43.920758 ], [ 1.581396, 43.921451 ], [ 1.57643, 43.926981 ], [ 1.570036, 43.924493 ], [ 1.567588, 43.921853 ], [ 1.563692, 43.921988 ], [ 1.559959, 43.92187 ], [ 1.559639, 43.921959 ], [ 1.552591, 43.924057 ], [ 1.552229, 43.927639 ], [ 1.552693, 43.935093 ], [ 1.553305, 43.936649 ], [ 1.554068, 43.93842 ], [ 1.552675, 43.946922 ], [ 1.551129, 43.947542 ], [ 1.550089, 43.947895 ], [ 1.54561, 43.952633 ], [ 1.538541, 43.956761 ], [ 1.536446, 43.954364 ], [ 1.533884, 43.950066 ], [ 1.533094, 43.948656 ], [ 1.529494, 43.948611 ], [ 1.524757, 43.950343 ], [ 1.52417, 43.950491 ], [ 1.523634, 43.950649 ], [ 1.518136, 43.951484 ], [ 1.515317, 43.951689 ], [ 1.508678, 43.948341 ], [ 1.505362, 43.946939 ], [ 1.497439, 43.949315 ], [ 1.496241, 43.948939 ], [ 1.495247, 43.948465 ], [ 1.495045776210482, 43.948423838694815 ], [ 1.501767, 43.95134 ], [ 1.50222594247012, 43.951388541992031 ], [ 1.502226, 43.951388 ], [ 1.503562894031059, 43.951476762116478 ], [ 1.505201, 43.951491 ], [ 1.505534, 43.951628 ], [ 1.505935941653463, 43.9518962212587 ], [ 1.509453, 43.953305 ], [ 1.51551, 43.95345 ], [ 1.515704, 43.953753 ], [ 1.519306, 43.958421 ], [ 1.526168, 43.954993 ], [ 1.526281, 43.954783 ], [ 1.527089, 43.952701 ], [ 1.527245, 43.952376 ], [ 1.528228, 43.952181 ], [ 1.528452, 43.952463 ], [ 1.535999, 43.957253 ], [ 1.536359, 43.957249 ], [ 1.537545, 43.959167 ], [ 1.545957, 43.958255 ], [ 1.54702, 43.956556 ], [ 1.547132, 43.956295 ], [ 1.547463, 43.956437 ], [ 1.547351, 43.956698 ], [ 1.547323, 43.960942 ], [ 1.551931, 43.96538 ], [ 1.552415, 43.965456 ], [ 1.552888, 43.96553 ], [ 1.557232, 43.964591 ], [ 1.556927, 43.956329 ], [ 1.556624, 43.956134 ], [ 1.5559, 43.949166 ], [ 1.556061, 43.948844 ], [ 1.563955, 43.948239 ], [ 1.56428, 43.9481 ], [ 1.565139, 43.947628 ], [ 1.565751, 43.93913 ], [ 1.560918, 43.935391 ], [ 1.558511, 43.935095 ], [ 1.558439, 43.934742 ], [ 1.559015, 43.934623 ], [ 1.559591, 43.934505 ], [ 1.560294, 43.934436 ], [ 1.560978, 43.93437 ], [ 1.561327, 43.934336 ], [ 1.561664, 43.934367 ], [ 1.564125, 43.934247 ], [ 1.564464, 43.934143 ], [ 1.567451, 43.928691 ], [ 1.562864, 43.925195 ], [ 1.562853, 43.924836 ], [ 1.563442, 43.924762 ], [ 1.566337, 43.924564 ], [ 1.568132, 43.925911 ], [ 1.568914, 43.926408 ], [ 1.56916, 43.926591 ], [ 1.569359, 43.926808 ], [ 1.578138, 43.927411 ], [ 1.578454, 43.927324 ], [ 1.578785, 43.927234 ], [ 1.579022, 43.927189 ], [ 1.579259, 43.927145 ], [ 1.585805, 43.925518 ], [ 1.586885, 43.921475 ], [ 1.592445, 43.917319 ], [ 1.592804, 43.917296 ], [ 1.593129, 43.917709 ], [ 1.592863, 43.91976 ], [ 1.592718, 43.919993 ], [ 1.590327, 43.922454 ], [ 1.590186, 43.92267 ], [ 1.590059, 43.92286 ], [ 1.5899, 43.923062 ], [ 1.58975, 43.923252 ], [ 1.589581, 43.923408 ], [ 1.589432, 43.923541 ], [ 1.589258, 43.923675 ], [ 1.589095, 43.923799 ], [ 1.586649, 43.927115 ], [ 1.58729, 43.933752 ], [ 1.587369, 43.934103 ], [ 1.593402, 43.939189 ], [ 1.596026, 43.937439 ], [ 1.600671, 43.934601 ], [ 1.601031, 43.934582 ], [ 1.606601, 43.937519 ], [ 1.614388, 43.933411 ], [ 1.614747, 43.933385 ], [ 1.614814, 43.934332 ], [ 1.619328, 43.94115 ], [ 1.62137, 43.941761 ], [ 1.622503, 43.941856 ], [ 1.623568, 43.947596 ], [ 1.627689, 43.953038 ], [ 1.634773, 43.958384 ], [ 1.635115, 43.958496 ], [ 1.639737, 43.959612 ], [ 1.639859, 43.959637 ], [ 1.643585, 43.963909 ], [ 1.643799, 43.964198 ], [ 1.643562, 43.965287 ], [ 1.6434, 43.965609 ], [ 1.640371, 43.971007 ], [ 1.640033, 43.970884 ], [ 1.635435, 43.969266 ], [ 1.635153, 43.969307 ], [ 1.633747, 43.969453 ], [ 1.629237, 43.974789 ], [ 1.632526, 43.978555 ], [ 1.632784, 43.978805 ], [ 1.633422, 43.980672 ], [ 1.633525, 43.980935 ], [ 1.633539, 43.981174 ], [ 1.633478, 43.981738 ], [ 1.633418, 43.982302 ], [ 1.63306, 43.982263 ], [ 1.632575, 43.980886 ], [ 1.631, 43.979016 ], [ 1.630829, 43.978854 ], [ 1.630673, 43.978705 ], [ 1.63005, 43.977855 ], [ 1.629448, 43.977028 ], [ 1.629316, 43.976795 ], [ 1.629195, 43.976579 ], [ 1.621993, 43.972857 ], [ 1.620046, 43.973851 ], [ 1.619821, 43.974006 ], [ 1.617513, 43.977024 ], [ 1.621194, 43.985177 ], [ 1.621891, 43.985398 ], [ 1.622603, 43.985624 ], [ 1.622861, 43.985739 ], [ 1.624026, 43.986374 ], [ 1.626878, 43.9891 ], [ 1.628161, 43.993136 ], [ 1.636989, 43.994683 ], [ 1.63732, 43.994469 ], [ 1.63784, 43.994117 ], [ 1.638037, 43.993974 ], [ 1.638249, 43.994266 ], [ 1.63498, 44.000919 ], [ 1.634706, 44.001153 ], [ 1.626259, 44.001826 ], [ 1.624026, 44.003019 ], [ 1.623803, 44.002736 ], [ 1.624232, 43.994862 ], [ 1.615937, 43.992415 ], [ 1.608524, 43.997382 ], [ 1.608226, 43.997584 ], [ 1.604831, 43.997186 ], [ 1.604237, 44.005902 ], [ 1.604264, 44.006261 ], [ 1.603759, 44.0063 ], [ 1.603253, 44.006338 ], [ 1.602887, 44.006297 ], [ 1.602371, 44.006185 ], [ 1.601872, 44.006076 ], [ 1.601033, 44.005681 ], [ 1.599215, 44.005136 ], [ 1.591817, 44.009172 ], [ 1.591121, 44.009796 ], [ 1.59085, 44.009559 ], [ 1.583647, 44.007513 ], [ 1.583037, 44.014687 ], [ 1.582775, 44.014934 ], [ 1.582112, 44.014231 ], [ 1.581449, 44.013527 ], [ 1.578314, 44.010044 ], [ 1.578342, 44.009685 ], [ 1.580603, 44.008992 ], [ 1.582578, 44.001348 ], [ 1.580153, 43.998843 ], [ 1.576241, 43.99638 ], [ 1.575994, 43.996118 ], [ 1.574747, 43.995038 ], [ 1.570549, 43.993285 ], [ 1.563949, 43.998581 ], [ 1.560247, 43.999717 ], [ 1.560018, 43.999439 ], [ 1.557359, 43.993858 ], [ 1.550012, 43.990761 ], [ 1.547287, 43.991225 ], [ 1.545806, 43.989775 ], [ 1.546001, 43.989472 ], [ 1.551161, 43.987242 ], [ 1.551517, 43.987189 ], [ 1.553859, 43.987556 ], [ 1.554217, 43.987589 ], [ 1.561606, 43.982551 ], [ 1.560855, 43.981203 ], [ 1.554658, 43.976747 ], [ 1.554462, 43.976732 ], [ 1.554212, 43.976681 ], [ 1.553952, 43.976432 ], [ 1.550272, 43.969208 ], [ 1.547291, 43.970112 ], [ 1.546989, 43.97033 ], [ 1.546778, 43.970463 ], [ 1.54656, 43.970601 ], [ 1.546165, 43.970824 ], [ 1.545775, 43.971044 ], [ 1.543509, 43.977464 ], [ 1.541328, 43.981293 ], [ 1.540965, 43.981623 ], [ 1.540658, 43.981435 ], [ 1.531849, 43.979623 ], [ 1.531768, 43.980015 ], [ 1.531216, 43.981748 ], [ 1.530663, 43.98348 ], [ 1.530598, 43.983685 ], [ 1.530255, 43.983576 ], [ 1.53032, 43.983371 ], [ 1.530873, 43.981638 ], [ 1.529183, 43.975236 ], [ 1.525522, 43.972936 ], [ 1.517599, 43.973765 ], [ 1.515888, 43.974825 ], [ 1.514435, 43.976075 ], [ 1.511919, 43.980351 ], [ 1.511699, 43.980636 ], [ 1.508069, 43.979648 ], [ 1.502646635479343, 43.980568386750186 ], [ 1.501207, 43.982047 ], [ 1.500848, 43.982061 ], [ 1.498632, 43.981507 ], [ 1.492125461350857, 43.983148472582279 ], [ 1.499198, 43.986519 ] ] ], [ [ [ 1.497605, 43.953141 ], [ 1.502899, 43.959216 ], [ 1.507745, 43.964777 ], [ 1.505396, 43.973202 ], [ 1.502019, 43.975814 ], [ 1.49520686804705, 43.978724593289847 ], [ 1.496361, 43.980516 ], [ 1.497528, 43.980835 ], [ 1.502450143229803, 43.980065226968151 ], [ 1.503114, 43.978413 ], [ 1.503351, 43.978142 ], [ 1.506914, 43.976095 ], [ 1.513638, 43.972644 ], [ 1.514426, 43.970728 ], [ 1.512192, 43.963162 ], [ 1.507775, 43.955833 ], [ 1.503130953469184, 43.952435788943724 ], [ 1.499963, 43.951968 ], [ 1.496994687425697, 43.952948466477316 ], [ 1.497605, 43.953141 ] ] ] ] } },
{ "type": "Feature", "properties": { "codgeo": "82115", "value": 540, "isochrone_group": 9.0, "nb_agences": 1 }, "geometry": { "type": "MultiPolygon", "coordinates": [ [ [ [ 1.597049, 43.908062 ], [ 1.595253, 43.9076 ], [ 1.592909, 43.90867 ], [ 1.592472, 43.909035 ], [ 1.585081, 43.91263 ], [ 1.581588, 43.912332 ], [ 1.576788, 43.911922 ], [ 1.575715, 43.91183 ], [ 1.575201, 43.912627 ], [ 1.569764, 43.919765 ], [ 1.563658, 43.919662 ], [ 1.559334, 43.919942 ], [ 1.554963422299344, 43.923350793702603 ], [ 1.559639, 43.921959 ], [ 1.559959, 43.92187 ], [ 1.563692, 43.921988 ], [ 1.567588, 43.921853 ], [ 1.570036, 43.924493 ], [ 1.57643, 43.926981 ], [ 1.581396, 43.921451 ], [ 1.582425, 43.920758 ], [ 1.587017, 43.916517 ], [ 1.589086, 43.912787 ], [ 1.591351, 43.91197 ], [ 1.594663, 43.913382 ], [ 1.595216, 43.913758 ], [ 1.597274, 43.918952 ], [ 1.597782, 43.920029 ], [ 1.597732, 43.92099 ], [ 1.602344, 43.928678 ], [ 1.603392, 43.929071 ], [ 1.603744, 43.929633 ], [ 1.604035, 43.93051 ], [ 1.604299, 43.931701 ], [ 1.613136, 43.931615 ], [ 1.613611, 43.930604 ], [ 1.613860793406539, 43.930286180863412 ], [ 1.611655120991586, 43.927532141848893 ], [ 1.608622, 43.928338 ], [ 1.605999, 43.925872 ], [ 1.605048, 43.921502 ], [ 1.605148827151384, 43.920788807947048 ], [ 1.604014, 43.91972 ], [ 1.602555, 43.919514 ], [ 1.601177, 43.919396 ], [ 1.600821, 43.919344 ], [ 1.600215, 43.919219 ], [ 1.600258, 43.918861 ], [ 1.605479517581297, 43.918449698060883 ], [ 1.605552, 43.917937 ], [ 1.602229, 43.913724 ], [ 1.597179, 43.908182 ], [ 1.597049, 43.908062 ] ] ], [ [ [ 1.544396, 43.923112 ], [ 1.543832, 43.923117 ], [ 1.543317, 43.923178 ], [ 1.542476, 43.923341 ], [ 1.541875, 43.923474 ], [ 1.542097, 43.924723 ], [ 1.542651, 43.926989 ], [ 1.543463, 43.928054 ], [ 1.54465, 43.927636 ], [ 1.548286, 43.935845 ], [ 1.547301, 43.939216 ], [ 1.548475, 43.947804 ], [ 1.542521, 43.95081 ], [ 1.538666, 43.949149 ], [ 1.532945, 43.945965 ], [ 1.530455, 43.943365 ], [ 1.526484, 43.945134 ], [ 1.522725324009945, 43.950787003719839 ], [ 1.523634, 43.950649 ], [ 1.52417, 43.950491 ], [ 1.524757, 43.950343 ], [ 1.529494, 43.948611 ], [ 1.533094, 43.948656 ], [ 1.533884, 43.950066 ], [ 1.536446, 43.954364 ], [ 1.538541, 43.956761 ], [ 1.54561, 43.952633 ], [ 1.550089, 43.947895 ], [ 1.551129, 43.947542 ], [ 1.552675, 43.946922 ], [ 1.554068, 43.93842 ], [ 1.553305, 43.936649 ], [ 1.552693, 43.935093 ], [ 1.552229, 43.927639 ], [ 1.552588636335973, 43.924080388520863 ], [ 1.548049, 43.923705 ], [ 1.546837, 43.923132 ], [ 1.544396, 43.923112 ] ] ], [ [ [ 1.518139401371121, 43.951483483422166 ], [ 1.515317, 43.951689 ], [ 1.518136, 43.951484 ], [ 1.518139401371121, 43.951483483422166 ] ] ], [ [ [ 1.507308, 43.945318 ], [ 1.50418, 43.944555 ], [ 1.501168, 43.945602 ], [ 1.495247, 43.948465 ], [ 1.495407618588173, 43.948541592767413 ], [ 1.495613, 43.948609 ], [ 1.497409, 43.949305 ], [ 1.505379, 43.946899 ], [ 1.508695, 43.948301 ], [ 1.508773004906983, 43.948388910291989 ], [ 1.515317, 43.951689 ], [ 1.508697, 43.94646 ], [ 1.507898, 43.945578 ], [ 1.507308, 43.945318 ] ] ], [ [ [ 1.49767, 43.960827 ], [ 1.497663, 43.961053 ], [ 1.499499, 43.962697 ], [ 1.499677, 43.962676 ], [ 1.504248, 43.970407 ], [ 1.50361, 43.971138 ], [ 1.499102, 43.97467 ], [ 1.495285705505833, 43.975443414851433 ], [ 1.496459934958311, 43.978189200233928 ], [ 1.502019, 43.975814 ], [ 1.505396, 43.973202 ], [ 1.507745, 43.964777 ], [ 1.502899, 43.959216 ], [ 1.500885962295514, 43.956905987900505 ], [ 1.4958104827842, 43.956975591294785 ], [ 1.497687, 43.96035 ], [ 1.49767, 43.960827 ] ] ], [ [ [ 1.495729, 43.988277 ], [ 1.500318, 43.988629 ], [ 1.508228, 43.987843 ], [ 1.510011, 43.993402 ], [ 1.510979, 43.993562 ], [ 1.511738, 43.993612 ], [ 1.512723, 43.993437 ], [ 1.520929, 43.992969 ], [ 1.529665, 43.994559 ], [ 1.533034, 43.995828 ], [ 1.541015, 43.996982 ], [ 1.541931, 43.99881 ], [ 1.542155, 43.999027 ], [ 1.543802, 43.999262 ], [ 1.545492, 43.998341 ], [ 1.553675, 43.996689 ], [ 1.555308, 43.999898 ], [ 1.554933, 44.003722 ], [ 1.554424, 44.00516 ], [ 1.554388, 44.005625 ], [ 1.555633, 44.007253 ], [ 1.556569, 44.007068 ], [ 1.557682, 44.00681 ], [ 1.558332, 44.006529 ], [ 1.560326, 44.00573 ], [ 1.561056, 44.005075 ], [ 1.564861, 44.003459 ], [ 1.57114, 43.999809 ], [ 1.572397, 44.008457 ], [ 1.572912, 44.01202 ], [ 1.57311, 44.012049 ], [ 1.573503, 44.012102 ], [ 1.574253, 44.012032 ], [ 1.579909, 44.01416 ], [ 1.575735, 44.01132 ], [ 1.574926, 44.007812 ], [ 1.575651, 43.999042 ], [ 1.572849, 43.996781 ], [ 1.56529, 43.999966 ], [ 1.564772, 44.00097 ], [ 1.564231, 44.001754 ], [ 1.563578, 44.002518 ], [ 1.563507, 44.002579 ], [ 1.561306, 44.002977 ], [ 1.557916, 44.004188 ], [ 1.557565, 44.003208 ], [ 1.557331, 44.001729 ], [ 1.557414, 44.000608 ], [ 1.557175, 43.998616 ], [ 1.555946, 43.995232 ], [ 1.547708, 43.995405 ], [ 1.547332, 43.995748 ], [ 1.546787, 43.996225 ], [ 1.54406, 43.993874 ], [ 1.5365, 43.991076 ], [ 1.534122, 43.988373 ], [ 1.527925, 43.988304 ], [ 1.526799, 43.988553 ], [ 1.524584, 43.989298 ], [ 1.522274, 43.989854 ], [ 1.516828, 43.98785 ], [ 1.516307, 43.987643 ], [ 1.515641, 43.987266 ], [ 1.513443, 43.985929 ], [ 1.51291, 43.985645 ], [ 1.512347, 43.985169 ], [ 1.507503, 43.982156 ], [ 1.500981056802644, 43.985717121882757 ], [ 1.500891, 43.985891 ], [ 1.497472, 43.987234 ], [ 1.489407, 43.984523 ], [ 1.488298, 43.986454 ], [ 1.488290657441496, 43.986478058950205 ], [ 1.488306, 43.986482 ], [ 1.495729, 43.988277 ] ] ], [ [ [ 1.494749306785295, 43.948178075911784 ], [ 1.494833, 43.948353 ], [ 1.495053899536336, 43.948425500360628 ], [ 1.495247, 43.948465 ], [ 1.494749306785295, 43.948178075911784 ] ] ], [ [ [ 1.572056, 44.027113 ], [ 1.574189, 44.030013 ], [ 1.577772, 44.028243 ], [ 1.584059, 44.024984 ], [ 1.584659, 44.021872 ], [ 1.584245, 44.022514 ], [ 1.583934, 44.022832 ], [ 1.583429, 44.023266 ], [ 1.582293, 44.024079 ], [ 1.580197, 44.021152 ], [ 1.579909, 44.01416 ], [ 1.577718, 44.020888 ], [ 1.574798, 44.022993 ], [ 1.572056, 44.027113 ] ] ], [ [ [ 1.604684, 44.015311 ], [ 1.607009, 44.01377 ], [ 1.608232, 44.01159 ], [ 1.607553, 44.012096 ], [ 1.605502, 44.010862 ], [ 1.601526, 44.007658 ], [ 1.594883, 44.009285 ], [ 1.594258449537143, 44.010045152233509 ], [ 1.601278, 44.013238 ], [ 1.60325, 44.01625 ], [ 1.604684, 44.015311 ] ] ], [ [ [ 1.620136, 44.009797 ], [ 1.621492, 44.008346 ], [ 1.624612, 44.004566 ], [ 1.624081, 44.004791 ], [ 1.623353, 44.004976 ], [ 1.619558, 44.006409 ], [ 1.617101, 44.005938 ], [ 1.614744, 44.005724 ], [ 1.608232, 44.01159 ], [ 1.616575, 44.01032 ], [ 1.618677, 44.01059 ], [ 1.620136, 44.009797 ] ] ], [ [ [ 1.631942, 44.011908 ], [ 1.632749, 44.013325 ], [ 1.633492, 44.014879 ], [ 1.637499, 44.014818 ], [ 1.640257, 44.01336 ], [ 1.642597, 44.010624 ], [ 1.643278, 44.002014 ], [ 1.643239, 44.001141 ], [ 1.64316, 44.00066 ], [ 1.648467, 43.993891 ], [ 1.649936, 43.99456 ], [ 1.65205, 43.997474 ], [ 1.652635, 43.997075 ], [ 1.659302, 43.993367 ], [ 1.660142, 43.992239 ], [ 1.660068, 43.991596 ], [ 1.658233, 43.989929 ], [ 1.650354, 43.987775 ], [ 1.649624, 43.987644 ], [ 1.64911, 43.98773 ], [ 1.648603, 43.987795 ], [ 1.642693, 43.984546 ], [ 1.645812, 43.976413 ], [ 1.64645, 43.976319 ], [ 1.651007, 43.973164 ], [ 1.652169, 43.972538 ], [ 1.654315, 43.971744 ], [ 1.65704, 43.967759 ], [ 1.656519, 43.961172 ], [ 1.656313, 43.953213 ], [ 1.655912936879217, 43.952619761840261 ], [ 1.652674, 43.953691 ], [ 1.652484, 43.953759 ], [ 1.652294, 43.953827 ], [ 1.652173, 43.953488 ], [ 1.652657, 43.953292 ], [ 1.654235, 43.952226 ], [ 1.654531422696079, 43.950571167783302 ], [ 1.6543, 43.950228 ], [ 1.647299, 43.950537 ], [ 1.642821, 43.948651 ], [ 1.639682, 43.946448 ], [ 1.636375, 43.943631 ], [ 1.634402, 43.93841 ], [ 1.630582, 43.934269 ], [ 1.627038, 43.9349 ], [ 1.623296015060974, 43.928463953706881 ], [ 1.620726567425627, 43.928413148719571 ], [ 1.620808, 43.928756 ], [ 1.620236, 43.929211 ], [ 1.61814, 43.930866 ], [ 1.621183, 43.938606 ], [ 1.626062, 43.938507 ], [ 1.629584, 43.939253 ], [ 1.632012, 43.944257 ], [ 1.633154, 43.950968 ], [ 1.636207, 43.954836 ], [ 1.641173, 43.95643 ], [ 1.648798, 43.956515 ], [ 1.651661, 43.958697 ], [ 1.651815, 43.965725 ], [ 1.651722, 43.965866 ], [ 1.6503, 43.96724 ], [ 1.649314, 43.968387 ], [ 1.645094, 43.972611 ], [ 1.64283, 43.974334 ], [ 1.641753, 43.975096 ], [ 1.641224, 43.975369 ], [ 1.640885, 43.975467 ], [ 1.640339, 43.975577 ], [ 1.635149, 43.981346 ], [ 1.641188, 43.987152 ], [ 1.646805, 43.989974 ], [ 1.648625, 43.990198 ], [ 1.649144, 43.99035 ], [ 1.649875, 43.991531 ], [ 1.649907, 43.991672 ], [ 1.648132, 43.993805 ], [ 1.642243, 43.998148 ], [ 1.639298, 44.005826 ], [ 1.639434, 44.007687 ], [ 1.635913, 44.008438 ], [ 1.633051, 44.00422 ], [ 1.624612, 44.004566 ], [ 1.630978, 44.004424 ], [ 1.632063, 44.011575 ], [ 1.631942, 44.011908 ] ] ] ] } },
{ "type": "Feature", "properties": { "codgeo": "82115", "value": 600, "isochrone_group": 10.0, "nb_agences": 1 }, "geometry": { "type": "MultiPolygon", "coordinates": [ [ [ [ 1.601449, 43.9048 ], [ 1.594478, 43.903376 ], [ 1.592667, 43.903863 ], [ 1.591187, 43.905795 ], [ 1.591099, 43.907104 ], [ 1.585081, 43.91263 ], [ 1.592472, 43.909035 ], [ 1.592909, 43.90867 ], [ 1.595253, 43.9076 ], [ 1.597049, 43.908062 ], [ 1.597179, 43.908182 ], [ 1.602229, 43.913724 ], [ 1.60387529912113, 43.915811227865589 ], [ 1.607057216921002, 43.916028500331322 ], [ 1.60691, 43.915022 ], [ 1.604669, 43.907923 ], [ 1.604258, 43.904346 ], [ 1.603871, 43.904391 ], [ 1.601449, 43.9048 ] ] ], [ [ [ 1.567502, 43.909204 ], [ 1.562033, 43.910914 ], [ 1.56206, 43.914514 ], [ 1.557011, 43.919006 ], [ 1.548675, 43.921595 ], [ 1.544455, 43.921647 ], [ 1.543917, 43.922056 ], [ 1.535276, 43.921959 ], [ 1.534702, 43.922018 ], [ 1.53289, 43.922287 ], [ 1.532516, 43.925143 ], [ 1.534339, 43.93009 ], [ 1.53441, 43.930311 ], [ 1.535218, 43.931722 ], [ 1.535708, 43.931675 ], [ 1.536218, 43.931589 ], [ 1.542234, 43.93797 ], [ 1.536243, 43.942996 ], [ 1.533472, 43.940698 ], [ 1.532734, 43.94119 ], [ 1.532002, 43.941559 ], [ 1.531257, 43.942245 ], [ 1.525768, 43.945237 ], [ 1.522194, 43.944803 ], [ 1.520374, 43.944831 ], [ 1.520041, 43.946484 ], [ 1.515509439156472, 43.951476966594107 ], [ 1.515538, 43.951498 ], [ 1.515647531748098, 43.951664931930026 ], [ 1.522472, 43.951168 ], [ 1.526484, 43.945134 ], [ 1.530455, 43.943365 ], [ 1.532945, 43.945965 ], [ 1.538666, 43.949149 ], [ 1.542521, 43.95081 ], [ 1.548475, 43.947804 ], [ 1.547301, 43.939216 ], [ 1.548286, 43.935845 ], [ 1.54465, 43.927636 ], [ 1.543463, 43.928054 ], [ 1.542651, 43.926989 ], [ 1.542097, 43.924723 ], [ 1.541875, 43.923474 ], [ 1.542476, 43.923341 ], [ 1.543317, 43.923178 ], [ 1.543832, 43.923117 ], [ 1.544396, 43.923112 ], [ 1.546837, 43.923132 ], [ 1.548049, 43.923705 ], [ 1.55389, 43.924188 ], [ 1.559334, 43.919942 ], [ 1.563658, 43.919662 ], [ 1.569764, 43.919765 ], [ 1.575201, 43.912627 ], [ 1.575715, 43.91183 ], [ 1.576788, 43.911922 ], [ 1.581588, 43.912332 ], [ 1.585081, 43.91263 ], [ 1.579327, 43.911014 ], [ 1.575793, 43.910329 ], [ 1.568722, 43.908957 ], [ 1.567502, 43.909204 ] ] ], [ [ [ 1.501128, 43.996873 ], [ 1.50296, 43.995805 ], [ 1.511325, 43.996751 ], [ 1.516567, 43.997947 ], [ 1.517207, 43.997511 ], [ 1.517782, 43.997191 ], [ 1.518332, 43.996924 ], [ 1.526842, 43.999052 ], [ 1.527631, 43.999888 ], [ 1.529406, 44.002733 ], [ 1.529803, 44.002616 ], [ 1.530505, 44.002227 ], [ 1.531043, 44.001539 ], [ 1.539946, 44.000611 ], [ 1.543532, 44.000293 ], [ 1.548945, 44.005902 ], [ 1.54957, 44.007956 ], [ 1.556156, 44.008974 ], [ 1.556625, 44.008988 ], [ 1.558257, 44.008846 ], [ 1.558728, 44.008588 ], [ 1.563877, 44.006299 ], [ 1.568879, 44.009795 ], [ 1.570519, 44.013 ], [ 1.571658, 44.01953 ], [ 1.567755, 44.025511 ], [ 1.567751765806146, 44.025519271598704 ], [ 1.567753, 44.025519 ], [ 1.573491296028458, 44.024956391817206 ], [ 1.574798, 44.022993 ], [ 1.577718, 44.020888 ], [ 1.579909, 44.01416 ], [ 1.574253, 44.012032 ], [ 1.573503, 44.012102 ], [ 1.57311, 44.012049 ], [ 1.572912, 44.01202 ], [ 1.572397, 44.008457 ], [ 1.57114, 43.999809 ], [ 1.564861, 44.003459 ], [ 1.561056, 44.005075 ], [ 1.560326, 44.00573 ], [ 1.558332, 44.006529 ], [ 1.557682, 44.00681 ], [ 1.556569, 44.007068 ], [ 1.555633, 44.007253 ], [ 1.554388, 44.005625 ], [ 1.554424, 44.00516 ], [ 1.554933, 44.003722 ], [ 1.555308, 43.999898 ], [ 1.553675, 43.996689 ], [ 1.545492, 43.998341 ], [ 1.543802, 43.999262 ], [ 1.542155, 43.999027 ], [ 1.541931, 43.99881 ], [ 1.541015, 43.996982 ], [ 1.533034, 43.995828 ], [ 1.529665, 43.994559 ], [ 1.520929, 43.992969 ], [ 1.512723, 43.993437 ], [ 1.511738, 43.993612 ], [ 1.510979, 43.993562 ], [ 1.510011, 43.993402 ], [ 1.508228, 43.987843 ], [ 1.500318, 43.988629 ], [ 1.500309386271538, 43.988628339282556 ], [ 1.500172, 43.988868 ], [ 1.499676, 43.989567 ], [ 1.49536, 43.989247 ], [ 1.488587320645117, 43.990966700021012 ], [ 1.493607, 43.993123 ], [ 1.501128, 43.996873 ] ] ], [ [ [ 1.585944, 44.018678 ], [ 1.585215, 44.020354 ], [ 1.584659, 44.021872 ], [ 1.584059, 44.024984 ], [ 1.577772, 44.028243 ], [ 1.577081479307281, 44.028584116836761 ], [ 1.576693135118231, 44.029876745268886 ], [ 1.579792, 44.029649 ], [ 1.586538, 44.02516 ], [ 1.585944, 44.018678 ] ] ], [ [ [ 1.608707, 44.018551 ], [ 1.60863, 44.0175 ], [ 1.608608, 44.016795 ], [ 1.608119, 44.014168 ], [ 1.616536, 44.01218 ], [ 1.616924, 44.012834 ], [ 1.617908, 44.013781 ], [ 1.619875, 44.015361 ], [ 1.628388, 44.018157 ], [ 1.628698, 44.018869 ], [ 1.628971, 44.019289 ], [ 1.629039, 44.019331 ], [ 1.635834, 44.019014 ], [ 1.638894, 44.017118 ], [ 1.646577, 44.015077 ], [ 1.647154, 44.014457 ], [ 1.647892, 44.011572 ], [ 1.647566, 44.011452 ], [ 1.646332, 44.011287 ], [ 1.64432, 44.011032 ], [ 1.643912, 44.010935 ], [ 1.642618992725422, 44.010345942194022 ], [ 1.642597, 44.010624 ], [ 1.640257, 44.01336 ], [ 1.637499, 44.014818 ], [ 1.633492, 44.014879 ], [ 1.632749, 44.013325 ], [ 1.631942, 44.011908 ], [ 1.632063, 44.011575 ], [ 1.630978, 44.004424 ], [ 1.624612, 44.004566 ], [ 1.621492, 44.008346 ], [ 1.620136, 44.009797 ], [ 1.618677, 44.01059 ], [ 1.616575, 44.01032 ], [ 1.608232, 44.01159 ], [ 1.607009, 44.01377 ], [ 1.604684, 44.015311 ], [ 1.60325, 44.01625 ], [ 1.601278, 44.013238 ], [ 1.593238, 44.009581 ], [ 1.5914, 44.011428 ], [ 1.597385, 44.015052 ], [ 1.598428, 44.018497 ], [ 1.60456, 44.019526 ], [ 1.608707, 44.018551 ] ] ], [ [ [ 1.657138, 43.99894 ], [ 1.660619, 43.999859 ], [ 1.660727, 43.999453 ], [ 1.660814, 43.999013 ], [ 1.660887, 43.998277 ], [ 1.660901, 43.997779 ], [ 1.663332, 43.991369 ], [ 1.667068, 43.988501 ], [ 1.668103, 43.986331 ], [ 1.667992, 43.985726 ], [ 1.667325, 43.98491 ], [ 1.666578, 43.984857 ], [ 1.666094, 43.984863 ], [ 1.665561, 43.984923 ], [ 1.664357, 43.985266 ], [ 1.663728, 43.985514 ], [ 1.662722, 43.986157 ], [ 1.662064, 43.986706 ], [ 1.661597, 43.98726 ], [ 1.659362, 43.989666 ], [ 1.651386, 43.986761 ], [ 1.64822, 43.985048 ], [ 1.648591, 43.978515 ], [ 1.654919, 43.978328 ], [ 1.65651, 43.978926 ], [ 1.656937, 43.979026 ], [ 1.657091, 43.979047 ], [ 1.657569, 43.975478 ], [ 1.65794, 43.966829 ], [ 1.659129, 43.965892 ], [ 1.659398, 43.965527 ], [ 1.660567, 43.962592 ], [ 1.661123, 43.959302 ], [ 1.659728, 43.955984 ], [ 1.664443, 43.949263 ], [ 1.667487, 43.94855 ], [ 1.667474741643302, 43.948497666820671 ], [ 1.664074, 43.947685 ], [ 1.660868, 43.954074 ], [ 1.660574, 43.954282 ], [ 1.656386914529591, 43.956068756024301 ], [ 1.656519, 43.961172 ], [ 1.65704, 43.967759 ], [ 1.654315, 43.971744 ], [ 1.652169, 43.972538 ], [ 1.651007, 43.973164 ], [ 1.64645, 43.976319 ], [ 1.645812, 43.976413 ], [ 1.642693, 43.984546 ], [ 1.648603, 43.987795 ], [ 1.64911, 43.98773 ], [ 1.649624, 43.987644 ], [ 1.650354, 43.987775 ], [ 1.658233, 43.989929 ], [ 1.660068, 43.991596 ], [ 1.660142, 43.992239 ], [ 1.659302, 43.993367 ], [ 1.652635, 43.997075 ], [ 1.65205, 43.997474 ], [ 1.649936, 43.99456 ], [ 1.648467, 43.993891 ], [ 1.64316, 44.00066 ], [ 1.643239, 44.001141 ], [ 1.643264193572547, 44.00170494843163 ], [ 1.645607, 43.999502 ], [ 1.649109, 43.999248 ], [ 1.650547, 43.998741 ], [ 1.657138, 43.99894 ] ] ], [ [ [ 1.64479211102764, 43.949481173157231 ], [ 1.644888220990141, 43.949375361037283 ], [ 1.64167836242189, 43.947849078819836 ], [ 1.642821, 43.948651 ], [ 1.64479211102764, 43.949481173157231 ] ] ], [ [ [ 1.63787, 43.940312 ], [ 1.637779, 43.940385 ], [ 1.637465, 43.940551 ], [ 1.637199, 43.94061 ], [ 1.636581, 43.940679 ], [ 1.635958, 43.940748 ], [ 1.635754, 43.940766 ], [ 1.635535, 43.940784 ], [ 1.635299127370235, 43.940784 ], [ 1.636375, 43.943631 ], [ 1.639682, 43.946448 ], [ 1.640468983261781, 43.947000317338542 ], [ 1.639544, 43.940535 ], [ 1.63961, 43.940081 ], [ 1.639558444506971, 43.939661011349479 ], [ 1.63787, 43.940312 ] ] ], [ [ [ 1.625201980785844, 43.931742129284352 ], [ 1.627038, 43.9349 ], [ 1.628645595578107, 43.934613771780548 ], [ 1.628629, 43.934589 ], [ 1.627518, 43.933499 ], [ 1.627402, 43.933159 ], [ 1.625201980785844, 43.931742129284352 ] ] ], [ [ [ 1.608828219985029, 43.928283210212086 ], [ 1.608518, 43.928007 ], [ 1.608306986957041, 43.928041842102957 ], [ 1.608622, 43.928338 ], [ 1.608828219985029, 43.928283210212086 ] ] ] ] } },
{ "type": "Feature", "properties": { "codgeo": "82115", "value": 660, "isochrone_group": 11.0, "nb_agences": 1 }, "geometry": { "type": "MultiPolygon", "coordinates": [ [ [ [ 1.610341, 43.904924 ], [ 1.603429, 43.902014 ], [ 1.596462, 43.897934 ], [ 1.593085, 43.896685 ], [ 1.59088, 43.899252 ], [ 1.585899, 43.903718 ], [ 1.57989, 43.908572 ], [ 1.576254, 43.905958 ], [ 1.574513, 43.90418 ], [ 1.566487, 43.902136 ], [ 1.563242, 43.903694 ], [ 1.558805, 43.911185 ], [ 1.554684, 43.912042 ], [ 1.551713, 43.912658 ], [ 1.551111, 43.912777 ], [ 1.550367, 43.915041 ], [ 1.547041, 43.919809 ], [ 1.538587, 43.920735 ], [ 1.535896252080607, 43.921423715647308 ], [ 1.535490530945936, 43.921961408228427 ], [ 1.543917, 43.922056 ], [ 1.544455, 43.921647 ], [ 1.548675, 43.921595 ], [ 1.557011, 43.919006 ], [ 1.56206, 43.914514 ], [ 1.562033, 43.910914 ], [ 1.567502, 43.909204 ], [ 1.568722, 43.908957 ], [ 1.575793, 43.910329 ], [ 1.579327, 43.911014 ], [ 1.583870820198617, 43.912290123295271 ], [ 1.585806863340653, 43.911963479424983 ], [ 1.591099, 43.907104 ], [ 1.591187, 43.905795 ], [ 1.592667, 43.903863 ], [ 1.594478, 43.903376 ], [ 1.601449, 43.9048 ], [ 1.603871, 43.904391 ], [ 1.604258, 43.904346 ], [ 1.604669, 43.907923 ], [ 1.606551038640369, 43.913884888580093 ], [ 1.612097, 43.913569 ], [ 1.615055531899308, 43.908790990610207 ], [ 1.614481, 43.908063 ], [ 1.613862, 43.905092 ], [ 1.61344, 43.904979 ], [ 1.612815, 43.904872 ], [ 1.610341, 43.904924 ] ] ], [ [ [ 1.527984, 43.932307 ], [ 1.529605, 43.932023 ], [ 1.53692, 43.935681 ], [ 1.540327071029688, 43.939569770489861 ], [ 1.542234, 43.93797 ], [ 1.536218, 43.931589 ], [ 1.535708, 43.931675 ], [ 1.535218, 43.931722 ], [ 1.53441, 43.930311 ], [ 1.534339, 43.93009 ], [ 1.53270428810479, 43.925653949673269 ], [ 1.532456, 43.925983 ], [ 1.529863, 43.92636 ], [ 1.524965, 43.932305 ], [ 1.524937846238474, 43.93232414541113 ], [ 1.525245, 43.932327 ], [ 1.527984, 43.932307 ] ] ], [ [ [ 1.515559, 43.945252 ], [ 1.507898, 43.945578 ], [ 1.508697, 43.94646 ], [ 1.515317, 43.951689 ], [ 1.520041, 43.946484 ], [ 1.520374, 43.944831 ], [ 1.521155728723412, 43.944818973404246 ], [ 1.519048, 43.944374 ], [ 1.518397, 43.944316 ], [ 1.517987, 43.944344 ], [ 1.515559, 43.945252 ] ] ], [ [ [ 1.490901, 44.001598 ], [ 1.498992, 44.00062 ], [ 1.503319, 44.000211 ], [ 1.510368, 43.998672 ], [ 1.512528, 44.000451 ], [ 1.51302, 44.001107 ], [ 1.515997, 43.999489 ], [ 1.516411, 43.998798 ], [ 1.518332, 43.996924 ], [ 1.517782, 43.997191 ], [ 1.517207, 43.997511 ], [ 1.516567, 43.997947 ], [ 1.511325, 43.996751 ], [ 1.50296, 43.995805 ], [ 1.501128, 43.996873 ], [ 1.493607, 43.993123 ], [ 1.492349046072516, 43.992582621653966 ], [ 1.490931, 43.994359 ], [ 1.490295, 43.994648 ], [ 1.487564, 43.995301 ], [ 1.487066026496221, 43.995354038598045 ], [ 1.489181, 43.998435 ], [ 1.490901, 44.001598 ] ] ], [ [ [ 1.528774, 44.006877 ], [ 1.532223, 44.005845 ], [ 1.532254, 44.005826 ], [ 1.532427, 44.005453 ], [ 1.532611, 44.00483 ], [ 1.541006, 44.002511 ], [ 1.541344, 44.002738 ], [ 1.542135, 44.003183 ], [ 1.544186, 44.005052 ], [ 1.549359, 44.010512 ], [ 1.552211, 44.012709 ], [ 1.552719, 44.012049 ], [ 1.555698930821993, 44.008903350679752 ], [ 1.54957, 44.007956 ], [ 1.548945, 44.005902 ], [ 1.543532, 44.000293 ], [ 1.539946, 44.000611 ], [ 1.531043, 44.001539 ], [ 1.530505, 44.002227 ], [ 1.529803, 44.002616 ], [ 1.529406, 44.002733 ], [ 1.527631, 43.999888 ], [ 1.52751768879515, 43.999767938951521 ], [ 1.52681, 44.001871 ], [ 1.527349, 44.003292 ], [ 1.528733, 44.006741 ], [ 1.528774, 44.006877 ] ] ], [ [ [ 1.56757, 44.022872 ], [ 1.567564897122506, 44.022875951247329 ], [ 1.56757, 44.022875 ], [ 1.569411002657134, 44.022973323368618 ], [ 1.571658, 44.01953 ], [ 1.570519, 44.013 ], [ 1.568879, 44.009795 ], [ 1.563877, 44.006299 ], [ 1.561599987504543, 44.007311251233666 ], [ 1.56492, 44.007736 ], [ 1.567165, 44.013836 ], [ 1.570994, 44.018052 ], [ 1.56757, 44.022872 ] ] ], [ [ [ 1.588559, 44.025787 ], [ 1.588634, 44.025616 ], [ 1.588874, 44.024838 ], [ 1.59533, 44.019432 ], [ 1.601312, 44.023102 ], [ 1.606858, 44.024196 ], [ 1.609227, 44.023515 ], [ 1.611168, 44.020483 ], [ 1.610874, 44.017785 ], [ 1.617908, 44.013781 ], [ 1.616924, 44.012834 ], [ 1.616536, 44.01218 ], [ 1.608119, 44.014168 ], [ 1.608608, 44.016795 ], [ 1.60863, 44.0175 ], [ 1.608707, 44.018551 ], [ 1.60456, 44.019526 ], [ 1.598428, 44.018497 ], [ 1.597385, 44.015052 ], [ 1.5914, 44.011428 ], [ 1.586092, 44.017537 ], [ 1.585944, 44.018678 ], [ 1.586538, 44.02516 ], [ 1.581753042163131, 44.028344061033167 ], [ 1.580639, 44.031524 ], [ 1.580028294955671, 44.033649808167702 ], [ 1.582894, 44.03058 ], [ 1.583996, 44.029679 ], [ 1.588559, 44.025787 ] ] ], [ [ [ 1.627573, 44.022829 ], [ 1.629842, 44.025624 ], [ 1.633712, 44.026314 ], [ 1.63516, 44.025607 ], [ 1.641422, 44.021891 ], [ 1.643589, 44.020214 ], [ 1.65192, 44.016961 ], [ 1.652138, 44.01708 ], [ 1.653447, 44.017412 ], [ 1.653904, 44.017444 ], [ 1.654154, 44.013852 ], [ 1.660376, 44.007785 ], [ 1.662543, 44.00491 ], [ 1.665916, 43.998242 ], [ 1.666019, 43.994644 ], [ 1.671838, 43.989288 ], [ 1.676847, 43.985713 ], [ 1.676616, 43.982256 ], [ 1.675863, 43.982074 ], [ 1.674884, 43.982492 ], [ 1.674376, 43.982698 ], [ 1.672772, 43.983718 ], [ 1.672483, 43.983878 ], [ 1.665229, 43.978785 ], [ 1.662681, 43.974587 ], [ 1.661543, 43.965788 ], [ 1.664909, 43.964032 ], [ 1.665777, 43.960539 ], [ 1.666649, 43.957882 ], [ 1.665843505643479, 43.955181362944614 ], [ 1.663035, 43.956639 ], [ 1.660771660478551, 43.958466340837148 ], [ 1.661123, 43.959302 ], [ 1.660567, 43.962592 ], [ 1.659398, 43.965527 ], [ 1.659129, 43.965892 ], [ 1.65794, 43.966829 ], [ 1.657569, 43.975478 ], [ 1.657091, 43.979047 ], [ 1.656937, 43.979026 ], [ 1.65651, 43.978926 ], [ 1.654919, 43.978328 ], [ 1.648591, 43.978515 ], [ 1.64822, 43.985048 ], [ 1.651386, 43.986761 ], [ 1.659362, 43.989666 ], [ 1.661597, 43.98726 ], [ 1.662064, 43.986706 ], [ 1.662722, 43.986157 ], [ 1.663728, 43.985514 ], [ 1.664357, 43.985266 ], [ 1.665561, 43.984923 ], [ 1.666094, 43.984863 ], [ 1.666578, 43.984857 ], [ 1.667325, 43.98491 ], [ 1.667992, 43.985726 ], [ 1.668103, 43.986331 ], [ 1.667068, 43.988501 ], [ 1.663332, 43.991369 ], [ 1.660901, 43.997779 ], [ 1.660887, 43.998277 ], [ 1.660814, 43.999013 ], [ 1.660727, 43.999453 ], [ 1.660619, 43.999859 ], [ 1.657138, 43.99894 ], [ 1.650547, 43.998741 ], [ 1.649109, 43.999248 ], [ 1.645607, 43.999502 ], [ 1.639275, 44.005456 ], [ 1.641875, 44.010007 ], [ 1.643912, 44.010935 ], [ 1.64432, 44.011032 ], [ 1.646332, 44.011287 ], [ 1.647566, 44.011452 ], [ 1.647892, 44.011572 ], [ 1.647154, 44.014457 ], [ 1.646577, 44.015077 ], [ 1.638894, 44.017118 ], [ 1.635834, 44.019014 ], [ 1.629039, 44.019331 ], [ 1.628971, 44.019289 ], [ 1.628698, 44.018869 ], [ 1.628388, 44.018157 ], [ 1.619875, 44.015361 ], [ 1.617908, 44.013781 ], [ 1.62014, 44.015916 ], [ 1.620576, 44.016766 ], [ 1.621136, 44.017391 ], [ 1.627573, 44.022829 ] ] ], [ [ [ 1.676063, 43.939085 ], [ 1.674479840969431, 43.940067984618899 ], [ 1.671501, 43.943765 ], [ 1.671586, 43.944981 ], [ 1.671611, 43.945233 ], [ 1.672396828632452, 43.947122266695253 ], [ 1.677471, 43.942546 ], [ 1.678512, 43.941877 ], [ 1.677102, 43.938564 ], [ 1.676616, 43.938771 ], [ 1.676063, 43.939085 ] ] ] ] } },
{ "type": "Feature", "properties": { "codgeo": "82115", "value": 720, "isochrone_group": 12.0, "nb_agences": 1 }, "geometry": { "type": "MultiPolygon", "coordinates": [ [ [ [ 1.517987, 43.944344 ], [ 1.518397, 43.944316 ], [ 1.519048, 43.944374 ], [ 1.521819, 43.944959 ], [ 1.528151, 43.94671 ], [ 1.531223, 43.945766 ], [ 1.531938, 43.946107 ], [ 1.538341, 43.946628 ], [ 1.540407, 43.939661 ], [ 1.53692, 43.935681 ], [ 1.530658365373417, 43.932549754687081 ], [ 1.528417, 43.93318 ], [ 1.520766, 43.935545 ], [ 1.520082, 43.935996 ], [ 1.519849, 43.936082 ], [ 1.51783, 43.936178 ], [ 1.51254, 43.937961 ], [ 1.510289, 43.94284 ], [ 1.51019507218241, 43.945480252247556 ], [ 1.515559, 43.945252 ], [ 1.517987, 43.944344 ] ] ], [ [ [ 1.549083522454385, 43.916880934136358 ], [ 1.54841, 43.917021 ], [ 1.54568, 43.917781 ], [ 1.544061787131323, 43.920135324948703 ], [ 1.547041, 43.919809 ], [ 1.549083522454385, 43.916880934136358 ] ] ], [ [ [ 1.547808216300584, 43.910399208367345 ], [ 1.547999, 43.910736 ], [ 1.548131503146404, 43.910917203864251 ], [ 1.55218588460183, 43.912559953243111 ], [ 1.554684, 43.912042 ], [ 1.547808216300584, 43.910399208367345 ] ] ], [ [ [ 1.540530104975722, 43.91297299241981 ], [ 1.542810529525835, 43.913006511077675 ], [ 1.541020028971713, 43.912249060294734 ], [ 1.540530104975722, 43.91297299241981 ] ] ], [ [ [ 1.514359014475521, 44.00037924540765 ], [ 1.51302, 44.001107 ], [ 1.512528, 44.000451 ], [ 1.510368, 43.998672 ], [ 1.503319, 44.000211 ], [ 1.501527331905745, 44.000380353420518 ], [ 1.501881, 44.000679 ], [ 1.507775, 44.001851 ], [ 1.510476, 44.004232 ], [ 1.510648886352359, 44.004270865078837 ], [ 1.510931, 44.004027 ], [ 1.511884, 44.002894 ], [ 1.514359014475521, 44.00037924540765 ] ] ], [ [ [ 1.534231, 44.009516 ], [ 1.535085, 44.008274 ], [ 1.53575, 44.007478 ], [ 1.542154, 44.00401 ], [ 1.543387524754412, 44.004324379213067 ], [ 1.542135, 44.003183 ], [ 1.541344, 44.002738 ], [ 1.541006, 44.002511 ], [ 1.532611, 44.00483 ], [ 1.532427, 44.005453 ], [ 1.532254, 44.005826 ], [ 1.532223, 44.005845 ], [ 1.528774, 44.006877 ], [ 1.528733, 44.006741 ], [ 1.527349, 44.003292 ], [ 1.52681, 44.001871 ], [ 1.52388007175094, 44.00543188753845 ], [ 1.527452, 44.006186 ], [ 1.527295, 44.009783 ], [ 1.526186, 44.009734 ], [ 1.525456725401432, 44.010050504815887 ], [ 1.530477, 44.012207 ], [ 1.531069, 44.012361 ], [ 1.532365, 44.012475 ], [ 1.534231, 44.009516 ] ] ], [ [ [ 1.554062, 44.012325 ], [ 1.557682, 44.00681 ], [ 1.552719, 44.012049 ], [ 1.552211, 44.012709 ], [ 1.549359, 44.010512 ], [ 1.547289729435897, 44.00832792552098 ], [ 1.549018, 44.011183 ], [ 1.549066, 44.012462 ], [ 1.549201, 44.014042 ], [ 1.552434, 44.015623 ], [ 1.553824, 44.013643 ], [ 1.554062, 44.012325 ] ] ], [ [ [ 1.570393372671542, 44.017390666801546 ], [ 1.567165, 44.013836 ], [ 1.56492, 44.007736 ], [ 1.557682, 44.00681 ], [ 1.56417, 44.011044 ], [ 1.564388, 44.012616 ], [ 1.565495, 44.018974 ], [ 1.565487238271797, 44.01898173191362 ], [ 1.565496, 44.01898 ], [ 1.570393372671542, 44.017390666801546 ] ] ], [ [ [ 1.587436503960858, 44.02674443032749 ], [ 1.585241759031593, 44.028616432796213 ], [ 1.585539930143615, 44.030420493305904 ], [ 1.587436503960858, 44.02674443032749 ] ] ], [ [ [ 1.613722, 44.026522 ], [ 1.620611, 44.02995 ], [ 1.621899, 44.029438 ], [ 1.622358, 44.029249 ], [ 1.62492, 44.028027 ], [ 1.625459, 44.02783 ], [ 1.628838, 44.02626 ], [ 1.634995, 44.027523 ], [ 1.63532, 44.027748 ], [ 1.635714, 44.027952 ], [ 1.636125, 44.028105 ], [ 1.640488, 44.030284 ], [ 1.642038, 44.029327 ], [ 1.642448, 44.028989 ], [ 1.642787, 44.028554 ], [ 1.64528, 44.024926 ], [ 1.645334, 44.024855 ], [ 1.64601, 44.022568 ], [ 1.646549, 44.021557 ], [ 1.654193, 44.017444 ], [ 1.65658, 44.017616 ], [ 1.65787, 44.017563 ], [ 1.658633, 44.017425 ], [ 1.659647, 44.017215 ], [ 1.664702, 44.01593 ], [ 1.665549, 44.015385 ], [ 1.668097, 44.010183 ], [ 1.666748, 44.006845 ], [ 1.670835, 43.999835 ], [ 1.670864, 43.999371 ], [ 1.670852, 43.999003 ], [ 1.67064, 43.997988 ], [ 1.670553, 43.997373 ], [ 1.67286, 43.990316 ], [ 1.674526, 43.989028 ], [ 1.677735, 43.986986 ], [ 1.679552, 43.986303 ], [ 1.687438, 43.985199 ], [ 1.688622, 43.981799 ], [ 1.683066, 43.97839 ], [ 1.67965, 43.977252 ], [ 1.673376, 43.981467 ], [ 1.665285206658969, 43.978824462436471 ], [ 1.672483, 43.983878 ], [ 1.672772, 43.983718 ], [ 1.674376, 43.982698 ], [ 1.674884, 43.982492 ], [ 1.675863, 43.982074 ], [ 1.676616, 43.982256 ], [ 1.676847, 43.985713 ], [ 1.671838, 43.989288 ], [ 1.666019, 43.994644 ], [ 1.665916, 43.998242 ], [ 1.662543, 44.00491 ], [ 1.660376, 44.007785 ], [ 1.654154, 44.013852 ], [ 1.653904, 44.017444 ], [ 1.653447, 44.017412 ], [ 1.652138, 44.01708 ], [ 1.65192, 44.016961 ], [ 1.643589, 44.020214 ], [ 1.641422, 44.021891 ], [ 1.63516, 44.025607 ], [ 1.633712, 44.026314 ], [ 1.629842, 44.025624 ], [ 1.627573, 44.022829 ], [ 1.621136, 44.017391 ], [ 1.620576, 44.016766 ], [ 1.62014, 44.015916 ], [ 1.617908, 44.013781 ], [ 1.610874, 44.017785 ], [ 1.611168, 44.020483 ], [ 1.609227, 44.023515 ], [ 1.606858, 44.024196 ], [ 1.601312, 44.023102 ], [ 1.59533, 44.019432 ], [ 1.588874, 44.024838 ], [ 1.588634, 44.025616 ], [ 1.596538, 44.025621 ], [ 1.602057, 44.027371 ], [ 1.603124, 44.027261 ], [ 1.604288, 44.027024 ], [ 1.605413, 44.026474 ], [ 1.613722, 44.026522 ] ] ], [ [ [ 1.673308091362459, 43.955209564783587 ], [ 1.667354, 43.954807 ], [ 1.666152009612485, 43.956215705697829 ], [ 1.666649, 43.957882 ], [ 1.665777, 43.960539 ], [ 1.664909, 43.964032 ], [ 1.661543, 43.965788 ], [ 1.662681, 43.974587 ], [ 1.665195273785654, 43.978729433811679 ], [ 1.66522, 43.972808 ], [ 1.669549, 43.96599 ], [ 1.672052, 43.966885 ], [ 1.673264, 43.963495 ], [ 1.673404, 43.955504 ], [ 1.673308091362459, 43.955209564783587 ] ] ], [ [ [ 1.605773, 43.901241 ], [ 1.600173, 43.896756 ], [ 1.600909, 43.893297 ], [ 1.601266, 43.892397 ], [ 1.601328, 43.891884 ], [ 1.598043, 43.89105 ], [ 1.591787, 43.894364 ], [ 1.591514, 43.894713 ], [ 1.5911, 43.895405 ], [ 1.589911, 43.897497 ], [ 1.589573, 43.898629 ], [ 1.581317, 43.900519 ], [ 1.575005, 43.899356 ], [ 1.567265607847482, 43.896925595877669 ], [ 1.567538, 43.897712 ], [ 1.56754, 43.898579 ], [ 1.567692, 43.899952 ], [ 1.56718, 43.90126 ], [ 1.566884, 43.9016 ], [ 1.565383, 43.900732 ], [ 1.56184540925259, 43.899265514663647 ], [ 1.560545, 43.901886 ], [ 1.562021, 43.905169 ], [ 1.558805, 43.911185 ], [ 1.563242, 43.903694 ], [ 1.566487, 43.902136 ], [ 1.574513, 43.90418 ], [ 1.576254, 43.905958 ], [ 1.57989, 43.908572 ], [ 1.585899, 43.903718 ], [ 1.59088, 43.899252 ], [ 1.593085, 43.896685 ], [ 1.596462, 43.897934 ], [ 1.603429, 43.902014 ], [ 1.610145392100072, 43.904841647715742 ], [ 1.613339, 43.903279 ], [ 1.615384669129134, 43.901531505411327 ], [ 1.609421, 43.900853 ], [ 1.607602, 43.901211 ], [ 1.606131, 43.901224 ], [ 1.605773, 43.901241 ] ] ], [ [ [ 1.677102, 43.938564 ], [ 1.678512, 43.941877 ], [ 1.677471, 43.942546 ], [ 1.677040605557456, 43.942934161851575 ], [ 1.682062683886214, 43.942642476914251 ], [ 1.680985, 43.941156 ], [ 1.676768934871645, 43.938144010675643 ], [ 1.676063, 43.939085 ], [ 1.676616, 43.938771 ], [ 1.677102, 43.938564 ] ] ], [ [ [ 1.664890022432995, 43.941501402139323 ], [ 1.667832, 43.942182 ], [ 1.673776, 43.940505 ], [ 1.665287, 43.940189 ], [ 1.662566, 43.937043 ], [ 1.662187, 43.9364 ], [ 1.661240664995304, 43.93623815375728 ], [ 1.662301, 43.938876 ], [ 1.664890022432995, 43.941501402139323 ] ] ], [ [ [ 1.672367231877075, 43.947148959259657 ], [ 1.673497021299894, 43.948882601649835 ], [ 1.675073739655291, 43.944708028414247 ], [ 1.672367231877075, 43.947148959259657 ] ] ], [ [ [ 1.659837735912682, 43.921170620110239 ], [ 1.661718, 43.920711 ], [ 1.662642, 43.920586 ], [ 1.663689, 43.919074 ], [ 1.66345998635282, 43.918766403238592 ], [ 1.663333, 43.918803 ], [ 1.660692, 43.919444 ], [ 1.659837735912682, 43.921170620110239 ] ] ] ] } },
{ "type": "Feature", "properties": { "codgeo": "82115", "value": 780, "isochrone_group": 13.0, "nb_agences": 1 }, "geometry": { "type": "MultiPolygon", "coordinates": [ [ [ [ 1.519814, 43.995339 ], [ 1.51921, 43.996183 ], [ 1.518332, 43.996924 ], [ 1.516329578750479, 43.998392393278728 ], [ 1.514998, 43.99973 ], [ 1.513933575670743, 44.000811515278656 ], [ 1.518403, 44.006014 ], [ 1.523702, 44.005623 ], [ 1.523729159714241, 44.005615298443146 ], [ 1.52681, 44.001871 ], [ 1.527659, 43.999348 ], [ 1.519814, 43.995339 ] ] ], [ [ [ 1.55544, 44.016825 ], [ 1.55596, 44.016664 ], [ 1.556888, 44.016576 ], [ 1.563608, 44.015082 ], [ 1.56371, 44.015087 ], [ 1.564836202459026, 44.01519022875744 ], [ 1.564388, 44.012616 ], [ 1.56417, 44.011044 ], [ 1.557682, 44.00681 ], [ 1.554062, 44.012325 ], [ 1.553824, 44.013643 ], [ 1.552434, 44.015623 ], [ 1.549201, 44.014042 ], [ 1.549066, 44.012462 ], [ 1.549018, 44.011183 ], [ 1.545136, 44.00477 ], [ 1.542154, 44.00401 ], [ 1.536267189034663, 44.007197923239822 ], [ 1.537413292329912, 44.00992272583801 ], [ 1.540811, 44.011135 ], [ 1.54111, 44.014723 ], [ 1.542992189592833, 44.015614286780135 ], [ 1.546567, 44.015924 ], [ 1.547039, 44.01645 ], [ 1.548674814182712, 44.017830611441241 ], [ 1.55544, 44.016825 ] ] ], [ [ [ 1.600969, 44.028929 ], [ 1.604288, 44.027024 ], [ 1.603124, 44.027261 ], [ 1.602057, 44.027371 ], [ 1.596538, 44.025621 ], [ 1.589222247928033, 44.02561637212041 ], [ 1.589251598530969, 44.025769426633389 ], [ 1.594664, 44.027114 ], [ 1.594879, 44.027266 ], [ 1.598896, 44.030479 ], [ 1.599666, 44.029974 ], [ 1.600581, 44.029244 ], [ 1.600969, 44.028929 ] ] ], [ [ [ 1.625459, 44.02783 ], [ 1.62492, 44.028027 ], [ 1.622358, 44.029249 ], [ 1.621899, 44.029438 ], [ 1.620611, 44.02995 ], [ 1.613722, 44.026522 ], [ 1.605413, 44.026474 ], [ 1.604288, 44.027024 ], [ 1.61083, 44.032081 ], [ 1.61398, 44.033814 ], [ 1.616269, 44.033773 ], [ 1.621155, 44.033362 ], [ 1.623219, 44.030412 ], [ 1.625459, 44.02783 ] ] ], [ [ [ 1.641602, 44.035287 ], [ 1.645392, 44.030411 ], [ 1.650202, 44.028052 ], [ 1.650263, 44.028016 ], [ 1.650881, 44.025554 ], [ 1.650826, 44.025453 ], [ 1.650178, 44.024152 ], [ 1.654193, 44.017444 ], [ 1.646549, 44.021557 ], [ 1.64601, 44.022568 ], [ 1.645334, 44.024855 ], [ 1.64528, 44.024926 ], [ 1.642787, 44.028554 ], [ 1.642448, 44.028989 ], [ 1.642038, 44.029327 ], [ 1.640488, 44.030284 ], [ 1.636125, 44.028105 ], [ 1.635714, 44.027952 ], [ 1.63532, 44.027748 ], [ 1.634995, 44.027523 ], [ 1.636722, 44.032195 ], [ 1.637517, 44.034104 ], [ 1.639773, 44.036909 ], [ 1.641015, 44.03591 ], [ 1.641322, 44.035616 ], [ 1.641602, 44.035287 ] ] ], [ [ [ 1.672451, 44.006172 ], [ 1.672859, 44.005551 ], [ 1.67298, 44.004399 ], [ 1.672405, 44.003368 ], [ 1.671374, 44.002178 ], [ 1.670708, 44.002098 ], [ 1.670101, 44.002119 ], [ 1.66933580226774, 44.002406415733581 ], [ 1.666748, 44.006845 ], [ 1.668097, 44.010183 ], [ 1.665549, 44.015385 ], [ 1.664702, 44.01593 ], [ 1.659647, 44.017215 ], [ 1.658633, 44.017425 ], [ 1.65787, 44.017563 ], [ 1.663579, 44.019283 ], [ 1.665361, 44.017384 ], [ 1.665586, 44.017126 ], [ 1.667579, 44.014364 ], [ 1.670744, 44.007952 ], [ 1.672451, 44.006172 ] ] ], [ [ [ 1.693384, 43.987844 ], [ 1.69916, 43.987502 ], [ 1.700744, 43.984269 ], [ 1.699276, 43.983515 ], [ 1.697617, 43.983014 ], [ 1.691348, 43.978985 ], [ 1.686314, 43.971776 ], [ 1.683073, 43.97021 ], [ 1.677076, 43.964468 ], [ 1.67676, 43.964335 ], [ 1.676321, 43.964191 ], [ 1.675773, 43.955377 ], [ 1.676506, 43.953797 ], [ 1.677090064869254, 43.952118290678101 ], [ 1.676289, 43.951944 ], [ 1.673537, 43.954289 ], [ 1.673130341860994, 43.954663881784924 ], [ 1.673404, 43.955504 ], [ 1.673264, 43.963495 ], [ 1.672052, 43.966885 ], [ 1.669549, 43.96599 ], [ 1.66522, 43.972808 ], [ 1.665195, 43.978795 ], [ 1.673376, 43.981467 ], [ 1.67965, 43.977252 ], [ 1.683066, 43.97839 ], [ 1.688622, 43.981799 ], [ 1.687438, 43.985199 ], [ 1.679552, 43.986303 ], [ 1.677735, 43.986986 ], [ 1.674526, 43.989028 ], [ 1.678754, 43.98822 ], [ 1.680918, 43.987421 ], [ 1.687461, 43.985737 ], [ 1.692344, 43.98742 ], [ 1.692931, 43.987712 ], [ 1.693384, 43.987844 ] ] ], [ [ [ 1.575371, 43.897259 ], [ 1.566746448769348, 43.895203106976204 ], [ 1.566821, 43.895642 ], [ 1.568021783776129, 43.897163058078561 ], [ 1.575005, 43.899356 ], [ 1.581317, 43.900519 ], [ 1.589573, 43.898629 ], [ 1.589911, 43.897497 ], [ 1.5911, 43.895405 ], [ 1.5914569796703, 43.894808309343375 ], [ 1.586891, 43.895124 ], [ 1.586015, 43.894944 ], [ 1.584647, 43.894917 ], [ 1.579139, 43.897297 ], [ 1.57571, 43.8962 ], [ 1.575371, 43.897259 ] ] ], [ [ [ 1.599283, 43.886483 ], [ 1.598872370130081, 43.886382922651634 ], [ 1.598788, 43.887044 ], [ 1.597467700424165, 43.891354754282986 ], [ 1.598043, 43.89105 ], [ 1.601328, 43.891884 ], [ 1.601266, 43.892397 ], [ 1.600909, 43.893297 ], [ 1.600173, 43.896756 ], [ 1.605276582609885, 43.900843422858095 ], [ 1.607008, 43.897419 ], [ 1.604521, 43.895523 ], [ 1.604552, 43.894991 ], [ 1.604631, 43.894715 ], [ 1.600605, 43.886713 ], [ 1.599283, 43.886483 ] ] ], [ [ [ 1.566736599982783, 43.895145125858015 ], [ 1.566391303921447, 43.893019202806869 ], [ 1.566378, 43.893034 ], [ 1.566736599982783, 43.895145125858015 ] ] ] ] } },
{ "type": "Feature", "properties": { "codgeo": "82115", "value": 840, "isochrone_group": 14.0, "nb_agences": 1 }, "geometry": { "type": "MultiPolygon", "coordinates": [ [ [ [ 1.634963, 44.041594 ], [ 1.636214, 44.041338 ], [ 1.643538, 44.037395 ], [ 1.64588, 44.034661 ], [ 1.651095, 44.027755 ], [ 1.653183, 44.028379 ], [ 1.65371, 44.02852 ], [ 1.654282, 44.028551 ], [ 1.654674, 44.028505 ], [ 1.655981, 44.028244 ], [ 1.661468, 44.02119 ], [ 1.66297, 44.019863 ], [ 1.66327, 44.019614 ], [ 1.670459, 44.014309 ], [ 1.675029, 44.00705 ], [ 1.678101, 44.006422 ], [ 1.679539, 44.006477 ], [ 1.679555, 44.006479 ], [ 1.679919, 44.002897 ], [ 1.679904, 44.002896 ], [ 1.679136, 44.002813 ], [ 1.678021, 44.002823 ], [ 1.677503, 44.00277 ], [ 1.677047, 44.002776 ], [ 1.67426, 44.002174 ], [ 1.673671, 44.002059 ], [ 1.673113, 44.002039 ], [ 1.672203, 44.002155 ], [ 1.670708, 44.002098 ], [ 1.671374, 44.002178 ], [ 1.672405, 44.003368 ], [ 1.67298, 44.004399 ], [ 1.672859, 44.005551 ], [ 1.672451, 44.006172 ], [ 1.670744, 44.007952 ], [ 1.667579, 44.014364 ], [ 1.665586, 44.017126 ], [ 1.665361, 44.017384 ], [ 1.663579, 44.019283 ], [ 1.65787, 44.017563 ], [ 1.65658, 44.017616 ], [ 1.654193, 44.017444 ], [ 1.650178, 44.024152 ], [ 1.650826, 44.025453 ], [ 1.650881, 44.025554 ], [ 1.650263, 44.028016 ], [ 1.650202, 44.028052 ], [ 1.645392, 44.030411 ], [ 1.641602, 44.035287 ], [ 1.641322, 44.035616 ], [ 1.641015, 44.03591 ], [ 1.639773, 44.036909 ], [ 1.637517, 44.034104 ], [ 1.636722, 44.032195 ], [ 1.634995, 44.027523 ], [ 1.628838, 44.02626 ], [ 1.625459, 44.02783 ], [ 1.623219, 44.030412 ], [ 1.621155, 44.033362 ], [ 1.616761397305025, 44.033731580578724 ], [ 1.616445078251483, 44.035576660697977 ], [ 1.618817, 44.035264 ], [ 1.624244, 44.035935 ], [ 1.632121, 44.039385 ], [ 1.634963, 44.041594 ] ] ], [ [ [ 1.608490384012958, 44.030272464682582 ], [ 1.604288, 44.027024 ], [ 1.601023133347622, 44.028897929187316 ], [ 1.60396, 44.030547 ], [ 1.608490384012958, 44.030272464682582 ] ] ], [ [ [ 1.702838, 43.988036 ], [ 1.70341, 43.987653 ], [ 1.705012, 43.986193 ], [ 1.707753, 43.982119 ], [ 1.708055, 43.981619 ], [ 1.708258, 43.981182 ], [ 1.704993, 43.979665 ], [ 1.697849, 43.978623 ], [ 1.695794, 43.975667 ], [ 1.68808, 43.972396 ], [ 1.68838256956422, 43.97069495467499 ], [ 1.68682442180226, 43.972506955656037 ], [ 1.691348, 43.978985 ], [ 1.697617, 43.983014 ], [ 1.699276, 43.983515 ], [ 1.700744, 43.984269 ], [ 1.69916, 43.987502 ], [ 1.693384, 43.987844 ], [ 1.692931, 43.987712 ], [ 1.692344, 43.98742 ], [ 1.687461, 43.985737 ], [ 1.680918, 43.987421 ], [ 1.678754, 43.98822 ], [ 1.683907, 43.988566 ], [ 1.686872, 43.990607 ], [ 1.69289, 43.990208 ], [ 1.696463, 43.990654 ], [ 1.702405, 43.988221 ], [ 1.702838, 43.988036 ] ] ], [ [ [ 1.676224272864483, 43.954404269951048 ], [ 1.675773, 43.955377 ], [ 1.67580217398771, 43.955846232714727 ], [ 1.676296365970351, 43.954407362368237 ], [ 1.676224272864483, 43.954404269951048 ] ] ], [ [ [ 1.595423723188294, 43.891615566366241 ], [ 1.595438, 43.891601 ], [ 1.594599817675299, 43.888125125430754 ], [ 1.593635776001108, 43.887998418884244 ], [ 1.595423723188294, 43.891615566366241 ] ] ], [ [ [ 1.579506, 43.89171 ], [ 1.576272, 43.893291 ], [ 1.575919, 43.895175 ], [ 1.575697828166907, 43.896238023513988 ], [ 1.57571, 43.8962 ], [ 1.579139, 43.897297 ], [ 1.584647, 43.894917 ], [ 1.579506, 43.89171 ] ] ], [ [ [ 1.566746448769348, 43.895203106976204 ], [ 1.575371, 43.897259 ], [ 1.575649559288993, 43.896388810362701 ], [ 1.566746440565004, 43.895203058676159 ], [ 1.566746448769348, 43.895203106976204 ] ] ], [ [ [ 1.592355323066874, 43.894746198112635 ], [ 1.59242892618532, 43.894671102215725 ], [ 1.58661, 43.894868 ], [ 1.584647, 43.894917 ], [ 1.586015, 43.894944 ], [ 1.586891, 43.895124 ], [ 1.592355323066874, 43.894746198112635 ] ] ], [ [ [ 1.566590064277064, 43.894242933016891 ], [ 1.566391303921447, 43.893019202806869 ], [ 1.566391303921447, 43.893019202806869 ], [ 1.566590064277064, 43.894242933016891 ] ] ] ] } },
{ "type": "Feature", "properties": { "codgeo": "82115", "value": 900, "isochrone_group": 15.0, "nb_agences": 1 }, "geometry": { "type": "MultiPolygon", "coordinates": [ [ [ [ 1.629010373071283, 44.038022595162616 ], [ 1.624244, 44.035935 ], [ 1.623550194907906, 44.035849217207151 ], [ 1.626357997431701, 44.038760857204046 ], [ 1.62688, 44.038976 ], [ 1.627048474083147, 44.039476868895854 ], [ 1.627173, 44.039606 ], [ 1.629010373071283, 44.038022595162616 ] ] ], [ [ [ 1.649455, 44.038084 ], [ 1.649082, 44.037742 ], [ 1.648094, 44.036955 ], [ 1.647581, 44.036344 ], [ 1.646735, 44.035446 ], [ 1.651095, 44.027755 ], [ 1.64588, 44.034661 ], [ 1.643538, 44.037395 ], [ 1.637415340524953, 44.040691237890506 ], [ 1.636528737962859, 44.044365772723154 ], [ 1.640133, 44.043577 ], [ 1.643058, 44.043343 ], [ 1.647027, 44.040742 ], [ 1.649455, 44.038084 ] ] ], [ [ [ 1.66327, 44.019614 ], [ 1.66297, 44.019863 ], [ 1.661468, 44.02119 ], [ 1.655989992050843, 44.028232439962345 ], [ 1.656951, 44.028134 ], [ 1.657449, 44.028022 ], [ 1.660343, 44.027746 ], [ 1.661854, 44.026712 ], [ 1.664370240239951, 44.018802096470608 ], [ 1.66327, 44.019614 ] ] ], [ [ [ 1.683909, 44.011832 ], [ 1.68493, 44.01048 ], [ 1.684957, 44.010362 ], [ 1.685036, 44.00961 ], [ 1.684963, 44.00925 ], [ 1.684837, 44.003014 ], [ 1.685482, 43.999473 ], [ 1.693047, 43.995814 ], [ 1.693175, 43.995781 ], [ 1.693832, 43.995464 ], [ 1.694199, 43.995134 ], [ 1.694993, 43.993502 ], [ 1.701434231705379, 43.98861848893651 ], [ 1.696463, 43.990654 ], [ 1.69289, 43.990208 ], [ 1.686872, 43.990607 ], [ 1.683907, 43.988566 ], [ 1.678754, 43.98822 ], [ 1.674526, 43.989028 ], [ 1.671644, 43.989188 ], [ 1.671352, 43.989194 ], [ 1.670759, 43.989043 ], [ 1.663332, 43.991369 ], [ 1.662765, 43.991903 ], [ 1.660807, 43.997124 ], [ 1.660901, 43.997779 ], [ 1.660887, 43.998277 ], [ 1.660814, 43.999013 ], [ 1.66097, 44.001036 ], [ 1.669281, 44.002427 ], [ 1.670101, 44.002119 ], [ 1.670708, 44.002098 ], [ 1.672203, 44.002155 ], [ 1.673113, 44.002039 ], [ 1.673671, 44.002059 ], [ 1.67426, 44.002174 ], [ 1.677047, 44.002776 ], [ 1.677503, 44.00277 ], [ 1.678021, 44.002823 ], [ 1.679136, 44.002813 ], [ 1.679904, 44.002896 ], [ 1.679919, 44.002897 ], [ 1.679555, 44.006479 ], [ 1.679539, 44.006477 ], [ 1.678101, 44.006422 ], [ 1.675029, 44.00705 ], [ 1.670459, 44.014309 ], [ 1.667604464358529, 44.016415455915691 ], [ 1.672398, 44.014346 ], [ 1.676411, 44.009153 ], [ 1.682279, 44.01242 ], [ 1.682381, 44.012424 ], [ 1.683309, 44.012224 ], [ 1.683909, 44.011832 ] ] ], [ [ [ 1.713654, 43.977471 ], [ 1.712467, 43.977152 ], [ 1.708837, 43.97678 ], [ 1.701198, 43.97354 ], [ 1.700111, 43.973903 ], [ 1.698539, 43.974557 ], [ 1.69239971270965, 43.971289433797004 ], [ 1.690039453195112, 43.973226875214074 ], [ 1.695794, 43.975667 ], [ 1.697849, 43.978623 ], [ 1.704993, 43.979665 ], [ 1.708258, 43.981182 ], [ 1.708055, 43.981619 ], [ 1.707753, 43.982119 ], [ 1.705012, 43.986193 ], [ 1.70463389187961, 43.986537592918708 ], [ 1.711134, 43.981726 ], [ 1.714094, 43.981091 ], [ 1.714401, 43.981023 ], [ 1.714651, 43.980931 ], [ 1.714905, 43.980596 ], [ 1.713654, 43.977471 ] ] ], [ [ [ 1.681963620243627, 43.972386486811168 ], [ 1.682603, 43.971184 ], [ 1.683096, 43.970163 ], [ 1.683267472440983, 43.969667456692797 ], [ 1.683467, 43.969081 ], [ 1.683489079439254, 43.969027028037381 ], [ 1.683523, 43.968929 ], [ 1.683598220285252, 43.968760239302711 ], [ 1.683755, 43.968377 ], [ 1.682504, 43.960581 ], [ 1.681266, 43.957201 ], [ 1.674821644182915, 43.958701105536527 ], [ 1.674335, 43.960118 ], [ 1.671519, 43.96236 ], [ 1.669045, 43.965839 ], [ 1.668572, 43.96562 ], [ 1.667749, 43.965327 ], [ 1.667092, 43.965122 ], [ 1.660858, 43.966539 ], [ 1.662624, 43.974635 ], [ 1.663649, 43.977114 ], [ 1.665195, 43.978795 ], [ 1.673376, 43.981467 ], [ 1.678778803509596, 43.977474275703464 ], [ 1.680966, 43.974024 ], [ 1.681096035472301, 43.973807274212838 ], [ 1.681141, 43.973703 ], [ 1.681218447963802, 43.973603253393662 ], [ 1.681287, 43.973489 ], [ 1.681963620243627, 43.972386486811168 ] ] ], [ [ [ 1.575919, 43.895175 ], [ 1.576272, 43.893291 ], [ 1.579506, 43.89171 ], [ 1.583018595780589, 43.893901187447646 ], [ 1.58293796457886, 43.890764886802842 ], [ 1.582332, 43.89118 ], [ 1.581107, 43.891867 ], [ 1.579454, 43.888669 ], [ 1.572626, 43.886913 ], [ 1.571679, 43.887138 ], [ 1.566391303921447, 43.893019202806869 ], [ 1.566736599982783, 43.895145125858015 ], [ 1.566746440565004, 43.895203058676159 ], [ 1.575666, 43.896391 ], [ 1.575919, 43.895175 ] ] ] ] } },
{ "type": "Feature", "properties": { "codgeo": "82115", "value": 960, "isochrone_group": 16.0, "nb_agences": 1 }, "geometry": { "type": "MultiPolygon", "coordinates": [ [ [ [ 1.651412, 44.041644 ], [ 1.650411, 44.039657 ], [ 1.649247114995117, 44.03831157757125 ], [ 1.647027, 44.040742 ], [ 1.643058, 44.043343 ], [ 1.641230062143536, 44.043489235028531 ], [ 1.641168, 44.043757 ], [ 1.642761, 44.046985 ], [ 1.642854793525176, 44.048192591636649 ], [ 1.643172, 44.048109 ], [ 1.649378, 44.045045 ], [ 1.652348, 44.04301 ], [ 1.651412, 44.041644 ] ] ], [ [ [ 1.664614, 44.024587 ], [ 1.664395, 44.024088 ], [ 1.665361, 44.017384 ], [ 1.664571, 44.018171 ], [ 1.661854, 44.026712 ], [ 1.660343, 44.027746 ], [ 1.657449, 44.028022 ], [ 1.656951, 44.028134 ], [ 1.655965, 44.028235 ], [ 1.654674, 44.028505 ], [ 1.654282, 44.028551 ], [ 1.65371, 44.02852 ], [ 1.653183, 44.028379 ], [ 1.655742, 44.030309 ], [ 1.659209, 44.031277 ], [ 1.66043, 44.029844 ], [ 1.660933, 44.029206 ], [ 1.662569, 44.026836 ], [ 1.664614, 44.024587 ] ] ], [ [ [ 1.68216, 44.015331 ], [ 1.688909, 44.012374 ], [ 1.690116, 44.008983 ], [ 1.69338, 44.003968 ], [ 1.694363, 43.998846 ], [ 1.694811, 43.996559 ], [ 1.694862, 43.996054 ], [ 1.695736536915738, 43.992938276954455 ], [ 1.694993, 43.993502 ], [ 1.694199, 43.995134 ], [ 1.693832, 43.995464 ], [ 1.693175, 43.995781 ], [ 1.693047, 43.995814 ], [ 1.685482, 43.999473 ], [ 1.684837, 44.003014 ], [ 1.684963, 44.00925 ], [ 1.685036, 44.00961 ], [ 1.684957, 44.010362 ], [ 1.68493, 44.01048 ], [ 1.683909, 44.011832 ], [ 1.683309, 44.012224 ], [ 1.682381, 44.012424 ], [ 1.682279, 44.01242 ], [ 1.676411, 44.009153 ], [ 1.672398, 44.014346 ], [ 1.666809489029684, 44.016758661123767 ], [ 1.674765, 44.016945 ], [ 1.675086, 44.017513 ], [ 1.675862, 44.018464 ], [ 1.67628, 44.018827 ], [ 1.680608, 44.016435 ], [ 1.68216, 44.015331 ] ] ], [ [ [ 1.708654201140493, 43.986451536152003 ], [ 1.708249420525565, 43.983861260201166 ], [ 1.703916, 43.987069 ], [ 1.70341, 43.987653 ], [ 1.702838, 43.988036 ], [ 1.708654201140493, 43.986451536152003 ] ] ], [ [ [ 1.696012, 43.970487 ], [ 1.693844281933649, 43.972058289423238 ], [ 1.698539, 43.974557 ], [ 1.700111, 43.973903 ], [ 1.701198, 43.97354 ], [ 1.706024732779652, 43.975587206991214 ], [ 1.701652, 43.973418 ], [ 1.701325, 43.973032 ], [ 1.698813, 43.972035 ], [ 1.698022, 43.971717 ], [ 1.696610455249517, 43.970194379652845 ], [ 1.696012, 43.970487 ] ] ] ] } },
{ "type": "Feature", "properties": { "codgeo": "82115", "value": 1020, "isochrone_group": 17.0, "nb_agences": 1 }, "geometry": { "type": "MultiPolygon", "coordinates": [ [ [ [ 1.654089, 44.046158 ], [ 1.653791, 44.045489 ], [ 1.652779, 44.043836 ], [ 1.652576, 44.043379 ], [ 1.652334600096522, 44.043019181415339 ], [ 1.649378, 44.045045 ], [ 1.648393218251607, 44.045531202268286 ], [ 1.649254, 44.047554 ], [ 1.651849947103182, 44.049243406261532 ], [ 1.654074, 44.048231 ], [ 1.654089, 44.048179 ], [ 1.654179, 44.046787 ], [ 1.654089, 44.046158 ] ] ], [ [ [ 1.653183, 44.028379 ], [ 1.651095, 44.027755 ], [ 1.647240809374425, 44.034553756903968 ], [ 1.647488, 44.036242 ], [ 1.647487791695009, 44.036245062579333 ], [ 1.647581, 44.036344 ], [ 1.648094, 44.036955 ], [ 1.648135, 44.037026 ], [ 1.650411, 44.039657 ], [ 1.651412, 44.041644 ], [ 1.653987, 44.034283 ], [ 1.657577, 44.034547 ], [ 1.658884, 44.032121 ], [ 1.66043, 44.029844 ], [ 1.659209, 44.031277 ], [ 1.655742, 44.030309 ], [ 1.653183, 44.028379 ] ] ], [ [ [ 1.693385, 44.009618 ], [ 1.695356, 44.003248 ], [ 1.697563, 44.000103 ], [ 1.698107, 43.999465 ], [ 1.700037, 43.996934 ], [ 1.700416, 43.996431 ], [ 1.70074, 43.995821 ], [ 1.701822, 43.992989 ], [ 1.702536955462781, 43.992364638989386 ], [ 1.702299, 43.991917 ], [ 1.702021, 43.991204 ], [ 1.699499624568472, 43.989743790008902 ], [ 1.696042, 43.99185 ], [ 1.694862, 43.996054 ], [ 1.694811, 43.996559 ], [ 1.694363, 43.998846 ], [ 1.69338, 44.003968 ], [ 1.690116, 44.008983 ], [ 1.688909, 44.012374 ], [ 1.68216, 44.015331 ], [ 1.680608, 44.016435 ], [ 1.67628, 44.018827 ], [ 1.675862, 44.018464 ], [ 1.675086, 44.017513 ], [ 1.674765, 44.016945 ], [ 1.665842, 44.016736 ], [ 1.665586, 44.017126 ], [ 1.665361, 44.017384 ], [ 1.664395, 44.024088 ], [ 1.664614, 44.024587 ], [ 1.671607, 44.023822 ], [ 1.675084, 44.024759 ], [ 1.678584, 44.019813 ], [ 1.685213, 44.016697 ], [ 1.685372, 44.016659 ], [ 1.692891, 44.013184 ], [ 1.693385, 44.009618 ] ] ] ] } },
{ "type": "Feature", "properties": { "codgeo": "82115", "value": 1080, "isochrone_group": 18.0, "nb_agences": 1 }, "geometry": { "type": "MultiPolygon", "coordinates": [ [ [ [ 1.652576, 44.043379 ], [ 1.652779, 44.043836 ], [ 1.653210503356084, 44.044540817240708 ], [ 1.65402775511915, 44.045184161064107 ], [ 1.659101, 44.038652 ], [ 1.659091, 44.038125 ], [ 1.658864, 44.037263 ], [ 1.658884, 44.032121 ], [ 1.657577, 44.034547 ], [ 1.653987, 44.034283 ], [ 1.651412, 44.041644 ], [ 1.652576, 44.043379 ] ] ], [ [ [ 1.678584, 44.019813 ], [ 1.675084, 44.024759 ], [ 1.671607, 44.023822 ], [ 1.664614, 44.024587 ], [ 1.662569, 44.026836 ], [ 1.660933, 44.029206 ], [ 1.66043, 44.029844 ], [ 1.66832, 44.030693 ], [ 1.671125, 44.03295 ], [ 1.672377, 44.031835 ], [ 1.672786, 44.031366 ], [ 1.673108, 44.030796 ], [ 1.67591, 44.025186 ], [ 1.680713380866524, 44.01881207214057 ], [ 1.678584, 44.019813 ] ] ], [ [ [ 1.696995, 44.010552 ], [ 1.697605, 44.003612 ], [ 1.69954605049893, 43.998282092421114 ], [ 1.698353928211975, 43.999141178598691 ], [ 1.698107, 43.999465 ], [ 1.697934154599045, 43.999667712069481 ], [ 1.697778, 43.999895 ], [ 1.697634722143221, 44.000018884692324 ], [ 1.697563, 44.000103 ], [ 1.695356, 44.003248 ], [ 1.693385, 44.009618 ], [ 1.692891, 44.013184 ], [ 1.685438640252219, 44.016628201372974 ], [ 1.685682, 44.016554 ], [ 1.68626, 44.016333 ], [ 1.687078, 44.01603 ], [ 1.687469, 44.015802 ], [ 1.695989, 44.014126 ], [ 1.696651, 44.014164 ], [ 1.697102, 44.014151 ], [ 1.696995, 44.010552 ] ] ] ] } },
{ "type": "Feature", "properties": { "codgeo": "82115", "value": 1140, "isochrone_group": 19.0, "nb_agences": 1 }, "geometry": { "type": "MultiPolygon", "coordinates": [ [ [ [ 1.66832, 44.030693 ], [ 1.66043, 44.029844 ], [ 1.658884, 44.032121 ], [ 1.658864, 44.037263 ], [ 1.659091, 44.038125 ], [ 1.659101, 44.038652 ], [ 1.656960679750532, 44.041407813473747 ], [ 1.65824, 44.041435 ], [ 1.659919406000877, 44.041280455911028 ], [ 1.659648, 44.03942 ], [ 1.667183345757935, 44.037662267676275 ], [ 1.667438, 44.036426 ], [ 1.667379, 44.035977 ], [ 1.667336, 44.034156 ], [ 1.670935, 44.034071 ], [ 1.673594437128968, 44.035688358083391 ], [ 1.673108, 44.030796 ], [ 1.672786, 44.031366 ], [ 1.672377, 44.031835 ], [ 1.671125, 44.03295 ], [ 1.66832, 44.030693 ] ] ], [ [ [ 1.703211, 44.012767 ], [ 1.703614, 44.012201 ], [ 1.703652, 44.012121 ], [ 1.701403, 44.006058 ], [ 1.701099, 44.000264 ], [ 1.705423440947896, 43.995842539357575 ], [ 1.703992, 43.995871 ], [ 1.699323028498876, 43.998894485890013 ], [ 1.697605, 44.003612 ], [ 1.696995, 44.010552 ], [ 1.697102, 44.014151 ], [ 1.696651, 44.014164 ], [ 1.695989, 44.014126 ], [ 1.687469, 44.015802 ], [ 1.687078, 44.01603 ], [ 1.68626, 44.016333 ], [ 1.685682, 44.016554 ], [ 1.685213, 44.016697 ], [ 1.680727, 44.018794 ], [ 1.67591, 44.025186 ], [ 1.673108, 44.030796 ], [ 1.679229, 44.025496 ], [ 1.682402, 44.019597 ], [ 1.687976, 44.016944 ], [ 1.690089, 44.016167 ], [ 1.698711, 44.015421 ], [ 1.701832, 44.013666 ], [ 1.702244, 44.013439 ], [ 1.70291, 44.013047 ], [ 1.703211, 44.012767 ] ] ] ] } },
{ "type": "Feature", "properties": { "codgeo": "82115", "value": 1200, "isochrone_group": 20.0, "nb_agences": 1 }, "geometry": { "type": "MultiPolygon", "coordinates": [ [ [ [ 1.689811, 44.018112 ], [ 1.695054938722053, 44.015737332836167 ], [ 1.690089, 44.016167 ], [ 1.687976, 44.016944 ], [ 1.682402, 44.019597 ], [ 1.682174695175287, 44.020019587822567 ], [ 1.685021, 44.019148 ], [ 1.689811, 44.018112 ] ] ], [ [ [ 1.701099, 44.000264 ], [ 1.701403, 44.006058 ], [ 1.703652, 44.012121 ], [ 1.703614, 44.012201 ], [ 1.703211, 44.012767 ], [ 1.70291, 44.013047 ], [ 1.702244, 44.013439 ], [ 1.701832, 44.013666 ], [ 1.69882917926616, 44.015354545462316 ], [ 1.701776, 44.016452 ], [ 1.701884, 44.016302 ], [ 1.705504, 44.011598 ], [ 1.707525, 44.008619 ], [ 1.70697, 44.008243 ], [ 1.70538, 44.00738 ], [ 1.702726, 44.00493 ], [ 1.702318687657478, 43.999016948406847 ], [ 1.701099, 44.000264 ] ] ], [ [ [ 1.703304814586405, 43.998008697523716 ], [ 1.707220333439549, 43.995667057535115 ], [ 1.70569, 43.99557 ], [ 1.703304814586405, 43.998008697523716 ] ] ], [ [ [ 1.709827484122836, 43.995832409485494 ], [ 1.710378006478623, 43.996228188982698 ], [ 1.710193413613714, 43.995855617639677 ], [ 1.709827484122836, 43.995832409485494 ] ] ] ] } }
]
}
