{
"type": "FeatureCollection",
"name": "Credit_Agricole",
"crs": { "type": "name", "properties": { "name": "urn:ogc:def:crs:OGC:1.3:CRS84" } },
"features": [
{ "type": "Feature", "properties": { "codgeo": "34039", "value": 60, "isochrone_group": 1.0, "nb_agences": 1 }, "geometry": { "type": "Polygon", "coordinates": [ [ [ 3.658105, 43.446938 ], [ 3.658657, 43.446494 ], [ 3.658804, 43.446443 ], [ 3.65918, 43.446448 ], [ 3.659485, 43.446471 ], [ 3.659655, 43.446481 ], [ 3.659685, 43.446732 ], [ 3.659634, 43.44684 ], [ 3.659369, 43.447203 ], [ 3.65846, 43.447331 ], [ 3.658266, 43.447314 ], [ 3.658072, 43.447296 ], [ 3.658105, 43.446938 ] ] ] } },
{ "type": "Feature", "properties": { "codgeo": "34039", "value": 120, "isochrone_group": 2.0, "nb_agences": 1 }, "geometry": { "type": "Polygon", "coordinates": [ [ [ 3.657666, 43.446982 ], [ 3.654578, 43.448447 ], [ 3.654658, 43.448798 ], [ 3.656147, 43.448747 ], [ 3.660188, 43.447742 ], [ 3.660997, 43.447179 ], [ 3.661172, 43.44705 ], [ 3.660959, 43.44676 ], [ 3.660795, 43.446739 ], [ 3.659676832527114, 43.446663665476848 ], [ 3.659685, 43.446732 ], [ 3.659634, 43.44684 ], [ 3.659369, 43.447203 ], [ 3.65846, 43.447331 ], [ 3.658266, 43.447314 ], [ 3.658072, 43.447296 ], [ 3.658105, 43.446938 ], [ 3.658280785161514, 43.44679660758748 ], [ 3.657666, 43.446982 ] ] ] } },
{ "type": "Feature", "properties": { "codgeo": "34039", "value": 180, "isochrone_group": 3.0, "nb_agences": 1 }, "geometry": { "type": "Polygon", "coordinates": [ [ [ 3.651815, 43.448431 ], [ 3.651755, 43.448649 ], [ 3.651771, 43.448743 ], [ 3.651791, 43.44879 ], [ 3.655859, 43.449942 ], [ 3.656123, 43.449906 ], [ 3.656268, 43.44988 ], [ 3.660948, 43.448821 ], [ 3.662007, 43.448369 ], [ 3.662085, 43.448018 ], [ 3.662272, 43.446989 ], [ 3.660964669134588, 43.446767718540059 ], [ 3.661172, 43.44705 ], [ 3.660997, 43.447179 ], [ 3.660188, 43.447742 ], [ 3.656147, 43.448747 ], [ 3.654658, 43.448798 ], [ 3.654578, 43.448447 ], [ 3.657666, 43.446982 ], [ 3.658694, 43.446672 ], [ 3.651815, 43.448431 ] ] ] } },
{ "type": "Feature", "properties": { "codgeo": "34039", "value": 240, "isochrone_group": 4.0, "nb_agences": 1 }, "geometry": { "type": "MultiPolygon", "coordinates": [ [ [ [ 3.650028, 43.447821 ], [ 3.648762, 43.448138 ], [ 3.648666, 43.448274 ], [ 3.648637, 43.448364 ], [ 3.648718, 43.448496 ], [ 3.649272, 43.448915 ], [ 3.652183, 43.450916 ], [ 3.652536, 43.450989 ], [ 3.653437, 43.450957 ], [ 3.655998, 43.4509 ], [ 3.656357, 43.450877 ], [ 3.659886, 43.450652 ], [ 3.662959, 43.450152 ], [ 3.665078, 43.449057 ], [ 3.66493, 43.448729 ], [ 3.664612, 43.448281 ], [ 3.662272, 43.446989 ], [ 3.662085, 43.448018 ], [ 3.662007, 43.448369 ], [ 3.660948, 43.448821 ], [ 3.656268, 43.44988 ], [ 3.656123, 43.449906 ], [ 3.655859, 43.449942 ], [ 3.651791, 43.44879 ], [ 3.651771, 43.448743 ], [ 3.651755, 43.448649 ], [ 3.651815, 43.448431 ], [ 3.658694, 43.446672 ], [ 3.650028, 43.447821 ] ] ], [ [ [ 3.659171, 43.446628 ], [ 3.659474, 43.44665 ], [ 3.660795, 43.446739 ], [ 3.659171, 43.446628 ] ] ] ] } },
{ "type": "Feature", "properties": { "codgeo": "34039", "value": 300, "isochrone_group": 5.0, "nb_agences": 1 }, "geometry": { "type": "Polygon", "coordinates": [ [ [ 3.649028, 43.447632 ], [ 3.648872, 43.44763 ], [ 3.645362, 43.448005 ], [ 3.645383, 43.448365 ], [ 3.649736, 43.451413 ], [ 3.650152, 43.45161 ], [ 3.650567, 43.451806 ], [ 3.654489, 43.452914 ], [ 3.659886, 43.453717 ], [ 3.6651, 43.451685 ], [ 3.665806, 43.450586 ], [ 3.665806, 43.450585 ], [ 3.66576, 43.450446 ], [ 3.665101, 43.448615 ], [ 3.664804, 43.448006 ], [ 3.664598, 43.447667 ], [ 3.664221, 43.4471 ], [ 3.660795, 43.446739 ], [ 3.662272, 43.446989 ], [ 3.664612, 43.448281 ], [ 3.66493, 43.448729 ], [ 3.665078, 43.449057 ], [ 3.662959, 43.450152 ], [ 3.659886, 43.450652 ], [ 3.656357, 43.450877 ], [ 3.655998, 43.4509 ], [ 3.653437, 43.450957 ], [ 3.652536, 43.450989 ], [ 3.652183, 43.450916 ], [ 3.649272, 43.448915 ], [ 3.648718, 43.448496 ], [ 3.648637, 43.448364 ], [ 3.648666, 43.448274 ], [ 3.648762, 43.448138 ], [ 3.650028, 43.447821 ], [ 3.65463659949182, 43.447209959056515 ], [ 3.649028, 43.447632 ] ] ] } },
{ "type": "Feature", "properties": { "codgeo": "34039", "value": 360, "isochrone_group": 6.0, "nb_agences": 1 }, "geometry": { "type": "Polygon", "coordinates": [ [ [ 3.64235, 43.446276 ], [ 3.641322, 43.446269 ], [ 3.641137, 43.44636 ], [ 3.641087, 43.446716 ], [ 3.641907, 43.447797 ], [ 3.64386, 43.450198 ], [ 3.646124, 43.450834 ], [ 3.651928, 43.455123 ], [ 3.652154, 43.455404 ], [ 3.660703, 43.457065 ], [ 3.661975, 43.458408 ], [ 3.663245, 43.459751 ], [ 3.663718, 43.460261 ], [ 3.664192, 43.460772 ], [ 3.664456, 43.460527 ], [ 3.665681, 43.456027 ], [ 3.667438, 43.451704 ], [ 3.667191, 43.451056 ], [ 3.666944, 43.450409 ], [ 3.664221, 43.4471 ], [ 3.664598, 43.447667 ], [ 3.664804, 43.448006 ], [ 3.665101, 43.448615 ], [ 3.66576, 43.450446 ], [ 3.665806, 43.450585 ], [ 3.665806, 43.450586 ], [ 3.6651, 43.451685 ], [ 3.659886, 43.453717 ], [ 3.654489, 43.452914 ], [ 3.650567, 43.451806 ], [ 3.650152, 43.45161 ], [ 3.649736, 43.451413 ], [ 3.645383, 43.448365 ], [ 3.645362, 43.448005 ], [ 3.648872, 43.44763 ], [ 3.64894206462747, 43.44763089826445 ], [ 3.64235, 43.446276 ] ] ] } },
{ "type": "Feature", "properties": { "codgeo": "34039", "value": 420, "isochrone_group": 7.0, "nb_agences": 1 }, "geometry": { "type": "MultiPolygon", "coordinates": [ [ [ [ 3.665681, 43.456027 ], [ 3.664456, 43.460527 ], [ 3.664398341452364, 43.460580508879424 ], [ 3.665093, 43.46132 ], [ 3.665830108145264, 43.462090592211595 ], [ 3.667001, 43.460971 ], [ 3.667841770195282, 43.461850449695788 ], [ 3.666477, 43.457322 ], [ 3.666735, 43.455817 ], [ 3.66736, 43.452005 ], [ 3.667338542263603, 43.451948710184659 ], [ 3.665681, 43.456027 ] ] ], [ [ [ 3.636793682102846, 43.44386159537634 ], [ 3.635951475594145, 43.446248315824604 ], [ 3.639903, 43.449203 ], [ 3.641898, 43.451626 ], [ 3.641975, 43.451721 ], [ 3.642208, 43.451939 ], [ 3.648201, 43.458502 ], [ 3.648451, 43.458351 ], [ 3.649689, 43.457223 ], [ 3.654645908485501, 43.45588815721073 ], [ 3.652154, 43.455404 ], [ 3.651928, 43.455123 ], [ 3.646124, 43.450834 ], [ 3.64386, 43.450198 ], [ 3.641907, 43.447797 ], [ 3.641087, 43.446716 ], [ 3.641137, 43.44636 ], [ 3.641322, 43.446269 ], [ 3.64235, 43.446276 ], [ 3.649288, 43.447702 ], [ 3.642203, 43.446203 ], [ 3.638507, 43.444515 ], [ 3.637509, 43.444079 ], [ 3.636793682102846, 43.44386159537634 ] ] ], [ [ [ 3.659385741131259, 43.456809067495499 ], [ 3.661698775177167, 43.458237424221295 ], [ 3.661053, 43.45756 ], [ 3.660350179219086, 43.456996449840091 ], [ 3.659385741131259, 43.456809067495499 ] ] ] ] } },
{ "type": "Feature", "properties": { "codgeo": "34039", "value": 480, "isochrone_group": 8.0, "nb_agences": 1 }, "geometry": { "type": "MultiPolygon", "coordinates": [ [ [ [ 3.632239148822913, 43.447267779607962 ], [ 3.629784, 43.447078 ], [ 3.627295, 43.447939 ], [ 3.626725, 43.4482 ], [ 3.62670059823675, 43.448205048181357 ], [ 3.627757, 43.448268 ], [ 3.632239148822913, 43.447267779607962 ] ] ], [ [ [ 3.639678, 43.449662 ], [ 3.641430505626341, 43.451058211094036 ], [ 3.639903, 43.449203 ], [ 3.638506775685481, 43.448158997366164 ], [ 3.637158, 43.447648 ], [ 3.636468569537125, 43.447594707978872 ], [ 3.6394, 43.449498 ], [ 3.639678, 43.449662 ] ] ], [ [ [ 3.649671548008467, 43.457238901329937 ], [ 3.648451, 43.458351 ], [ 3.648201, 43.458502 ], [ 3.642289099232151, 43.452027812658194 ], [ 3.645462, 43.459297 ], [ 3.647497, 43.459998 ], [ 3.64778, 43.459776 ], [ 3.649671548008467, 43.457238901329937 ] ] ] ] } },
{ "type": "Feature", "properties": { "codgeo": "34039", "value": 540, "isochrone_group": 9.0, "nb_agences": 1 }, "geometry": { "type": "MultiPolygon", "coordinates": [ [ [ [ 3.637778, 43.450497 ], [ 3.642742, 43.456222 ], [ 3.642948, 43.459469 ], [ 3.643323, 43.460408 ], [ 3.643604, 43.460634 ], [ 3.647838, 43.461946 ], [ 3.648195, 43.461899 ], [ 3.64994, 43.461036 ], [ 3.650245, 43.460844 ], [ 3.653214305911717, 43.460124958543339 ], [ 3.650235, 43.459038 ], [ 3.648753, 43.458545 ], [ 3.648721445119195, 43.458513256919112 ], [ 3.64778, 43.459776 ], [ 3.647497, 43.459998 ], [ 3.645462, 43.459297 ], [ 3.642098, 43.45159 ], [ 3.639678, 43.449662 ], [ 3.6394, 43.449498 ], [ 3.639183444419175, 43.449357396798142 ], [ 3.63164, 43.449386 ], [ 3.631515, 43.449467 ], [ 3.631102, 43.449679 ], [ 3.630525, 43.449855 ], [ 3.630399138496405, 43.449912987147101 ], [ 3.631432, 43.449882 ], [ 3.637778, 43.450497 ] ] ], [ [ [ 3.666477, 43.457322 ], [ 3.667838522687776, 43.461839674127553 ], [ 3.667838522687777, 43.461839674127553 ], [ 3.666477, 43.457322 ] ] ] ] } },
{ "type": "Feature", "properties": { "codgeo": "34039", "value": 600, "isochrone_group": 10.0, "nb_agences": 1 }, "geometry": { "type": "MultiPolygon", "coordinates": [ [ [ [ 3.642948, 43.459469 ], [ 3.642742, 43.456222 ], [ 3.639802780398228, 43.452832186901652 ], [ 3.634665895913193, 43.452476899799542 ], [ 3.63976, 43.456384 ], [ 3.641056, 43.460632 ], [ 3.641372, 43.462229 ], [ 3.641634, 43.462476 ], [ 3.644385982299869, 43.463144162509138 ], [ 3.645099740323488, 43.461097488735106 ], [ 3.643604, 43.460634 ], [ 3.643323, 43.460408 ], [ 3.642948, 43.459469 ] ] ], [ [ [ 3.667226448073777, 43.459808746789612 ], [ 3.66709911342896, 43.459386237171849 ], [ 3.667099113428963, 43.459386237171849 ], [ 3.667226448073774, 43.459808746789612 ], [ 3.667226448073777, 43.459808746789612 ] ] ] ] } },
{ "type": "Feature", "properties": { "codgeo": "34039", "value": 660, "isochrone_group": 11.0, "nb_agences": 1 }, "geometry": { "type": "MultiPolygon", "coordinates": [ [ [ [ 3.638454640056393, 43.463203842754808 ], [ 3.640094231560842, 43.462395774795972 ], [ 3.641152377766787, 43.461119073713789 ], [ 3.641056, 43.460632 ], [ 3.63976, 43.456384 ], [ 3.637040012575153, 43.454297811097739 ], [ 3.634048, 43.455626 ], [ 3.633950490010204, 43.455775016191616 ], [ 3.635599, 43.455692 ], [ 3.637992, 43.461592 ], [ 3.638454640056393, 43.463203842754808 ] ] ], [ [ [ 3.659474, 43.44665 ], [ 3.65987077910085, 43.446676732278554 ], [ 3.660197, 43.446688 ], [ 3.660268440565837, 43.446703524004803 ], [ 3.660795, 43.446739 ], [ 3.661047738322553, 43.446765631212621 ], [ 3.656604, 43.445758 ], [ 3.654961641195728, 43.446410925518506 ], [ 3.657236829960929, 43.446626146077385 ], [ 3.657794, 43.446605 ], [ 3.658977269523735, 43.446645870316473 ], [ 3.659171, 43.446628 ], [ 3.659474, 43.44665 ] ] ], [ [ [ 3.66710468034866, 43.453562245617448 ], [ 3.666885922502646, 43.454896493471857 ], [ 3.667025, 43.455123 ], [ 3.667316802665879, 43.455555969737283 ], [ 3.66710468034866, 43.453562245617448 ] ] ], [ [ [ 3.667966, 43.458494 ], [ 3.668934666372526, 43.461739320450988 ], [ 3.668015324846479, 43.458300252003013 ], [ 3.667966, 43.458494 ] ] ] ] } },
{ "type": "Feature", "properties": { "codgeo": "34039", "value": 720, "isochrone_group": 12.0, "nb_agences": 1 }, "geometry": { "type": "Polygon", "coordinates": [ [ [ 3.61085, 43.424525 ], [ 3.609966645428419, 43.424308868063051 ], [ 3.611094, 43.426101 ], [ 3.613942124782102, 43.428485317316387 ], [ 3.615236500621589, 43.428964126325432 ], [ 3.613138, 43.426602 ], [ 3.612768, 43.425939 ], [ 3.61085, 43.424525 ] ] ] } },
{ "type": "Feature", "properties": { "codgeo": "34039", "value": 780, "isochrone_group": 13.0, "nb_agences": 1 }, "geometry": { "type": "Polygon", "coordinates": [ [ [ 3.609313, 43.421433 ], [ 3.608315, 43.421434 ], [ 3.606651280398551, 43.421733633441519 ], [ 3.609505, 43.423575 ], [ 3.609966645428419, 43.424308868063051 ], [ 3.610693010817803, 43.424486589177079 ], [ 3.61002, 43.421777 ], [ 3.609915, 43.421704 ], [ 3.609313, 43.421433 ] ] ] } },
{ "type": "Feature", "properties": { "codgeo": "34039", "value": 840, "isochrone_group": 14.0, "nb_agences": 1 }, "geometry": { "type": "Polygon", "coordinates": [ [ [ 3.608025998949586, 43.421486048662075 ], [ 3.605164998948126, 43.420743190403954 ], [ 3.606641, 43.421727 ], [ 3.606651280398551, 43.421733633441519 ], [ 3.608025998949586, 43.421486048662075 ] ] ] } },
{ "type": "Feature", "properties": { "codgeo": "34039", "value": 900, "isochrone_group": 15.0, "nb_agences": 1 }, "geometry": { "type": "Polygon", "coordinates": [ [ [ 3.593555, 43.416925 ], [ 3.592852, 43.416849 ], [ 3.592830107619145, 43.416848734937304 ], [ 3.593084, 43.417082 ], [ 3.593381, 43.416994 ], [ 3.595626, 43.417378 ], [ 3.595812687259406, 43.417383771188447 ], [ 3.593555, 43.416925 ] ] ] } },
{ "type": "Feature", "properties": { "codgeo": "34039", "value": 960, "isochrone_group": 16.0, "nb_agences": 1 }, "geometry": { "type": "MultiPolygon", "coordinates": [ [ [ [ 3.592852, 43.416849 ], [ 3.593101411106268, 43.416875963362855 ], [ 3.592654283139318, 43.41668719520078 ], [ 3.592830107619145, 43.416848734937304 ], [ 3.592852, 43.416849 ] ] ], [ [ [ 3.595104696093216, 43.417239904518084 ], [ 3.595812687259406, 43.417383771188447 ], [ 3.596196264627446, 43.417395628972905 ], [ 3.595104696093216, 43.417239904518084 ] ] ], [ [ [ 3.678754, 43.453394 ], [ 3.677868, 43.461919 ], [ 3.680495880362566, 43.456403730233703 ], [ 3.67929, 43.454128 ], [ 3.679102, 43.453875 ], [ 3.678631852863376, 43.453157460535941 ], [ 3.678657, 43.453248 ], [ 3.678754, 43.453394 ] ] ] ] } },
{ "type": "Feature", "properties": { "codgeo": "34039", "value": 1020, "isochrone_group": 17.0, "nb_agences": 1 }, "geometry": { "type": "MultiPolygon", "coordinates": [ [ [ [ 3.586425028167855, 43.409518664566335 ], [ 3.586462, 43.410998 ], [ 3.591677433726078, 43.415789709270534 ], [ 3.593211887800024, 43.416813471429222 ], [ 3.587515, 43.410732 ], [ 3.587079, 43.410193 ], [ 3.58695, 43.410033 ], [ 3.586425028167855, 43.409518664566335 ] ] ], [ [ [ 3.678754, 43.453394 ], [ 3.678657, 43.453248 ], [ 3.67864109615523, 43.453190739978595 ], [ 3.675497, 43.448523 ], [ 3.672923, 43.445286 ], [ 3.672594654783193, 43.444965493263176 ], [ 3.667771400189836, 43.449530828062386 ], [ 3.668457, 43.449831 ], [ 3.668644, 43.450321 ], [ 3.668091, 43.458003 ], [ 3.670600709365831, 43.463167276300695 ], [ 3.677554, 43.461879 ], [ 3.67789751791118, 43.461634981723677 ], [ 3.678754, 43.453394 ] ] ], [ [ [ 3.690426941374868, 43.44133287237441 ], [ 3.684443, 43.439537 ], [ 3.690426941374868, 43.44133287237441 ], [ 3.690426941374868, 43.44133287237441 ] ] ] ] } },
{ "type": "Feature", "properties": { "codgeo": "34039", "value": 1080, "isochrone_group": 18.0, "nb_agences": 1 }, "geometry": { "type": "MultiPolygon", "coordinates": [ [ [ [ 3.581019, 43.403227 ], [ 3.581938, 43.403631 ], [ 3.576549, 43.400894 ], [ 3.576379, 43.400974 ], [ 3.575577306974834, 43.401418264242054 ], [ 3.581019, 43.403227 ] ] ], [ [ [ 3.684443, 43.439537 ], [ 3.680476, 43.437623 ], [ 3.680247, 43.43747 ], [ 3.679407, 43.437489 ], [ 3.679376515265649, 43.437492832366594 ], [ 3.681571955355206, 43.438378623562556 ], [ 3.681859, 43.438347 ], [ 3.684443, 43.439537 ] ] ], [ [ [ 3.672836552535533, 43.438880427524808 ], [ 3.672064, 43.440022 ], [ 3.672088, 43.440354 ], [ 3.672109658751721, 43.440782397368579 ], [ 3.672836552535533, 43.438880427524808 ] ] ], [ [ [ 3.673393705570152, 43.443253382582142 ], [ 3.672825, 43.442855 ], [ 3.672161122061941, 43.441800439096262 ], [ 3.672202, 43.44261 ], [ 3.673180866330112, 43.444002126533881 ], [ 3.673393705570152, 43.443253382582142 ] ] ] ] } },
{ "type": "Feature", "properties": { "codgeo": "34039", "value": 1140, "isochrone_group": 19.0, "nb_agences": 1 }, "geometry": { "type": "MultiPolygon", "coordinates": [ [ [ [ 3.726259, 43.415167 ], [ 3.722224784412781, 43.414299136061445 ], [ 3.723930379250503, 43.414822154288473 ], [ 3.724517031328066, 43.415002050312268 ], [ 3.726259, 43.415167 ] ] ], [ [ [ 3.678864, 43.436661 ], [ 3.679298378255189, 43.436769898750242 ], [ 3.677761, 43.435943 ], [ 3.677743, 43.435931 ], [ 3.676384, 43.435845 ], [ 3.674028, 43.435805 ], [ 3.673241, 43.437398 ], [ 3.672726620717998, 43.439042869729413 ], [ 3.672937, 43.438732 ], [ 3.673181592379915, 43.438674358543295 ], [ 3.67357, 43.437131 ], [ 3.675226, 43.436582 ], [ 3.675295, 43.436578 ], [ 3.6756, 43.436683 ], [ 3.676392745023764, 43.437199320856088 ], [ 3.676544, 43.436949 ], [ 3.676565, 43.436934 ], [ 3.678021, 43.43638 ], [ 3.678029, 43.43638 ], [ 3.678864, 43.436661 ] ] ], [ [ [ 3.672156, 43.441699 ], [ 3.672119815718692, 43.440983296200592 ], [ 3.671982, 43.441424 ], [ 3.67201, 43.441927 ], [ 3.672173243717791, 43.442040500584909 ], [ 3.672156, 43.441699 ] ] ] ] } }
]
}
