{
"type": "FeatureCollection",
"name": "Others",
"crs": { "type": "name", "properties": { "name": "urn:ogc:def:crs:OGC:1.3:CRS84" } },
"features": [
{ "type": "Feature", "properties": { "codgeo": "31417", "value": 60, "isochrone_group": 1.0, "nb_agences": 2 }, "geometry": { "type": "MultiPolygon", "coordinates": [ [ [ [ 1.282327, 43.611984 ], [ 1.284973, 43.615783 ], [ 1.285319, 43.61588 ], [ 1.285461, 43.615576 ], [ 1.286752, 43.612103 ], [ 1.286898, 43.610965 ], [ 1.284187, 43.608475 ], [ 1.283839, 43.608569 ], [ 1.282266, 43.611629 ], [ 1.282327, 43.611984 ] ] ], [ [ [ 1.264216, 43.63093 ], [ 1.264423, 43.631224 ], [ 1.264535, 43.631146 ], [ 1.264699, 43.630988 ], [ 1.265097, 43.630634 ], [ 1.270757, 43.629684 ], [ 1.272687, 43.627757 ], [ 1.274016, 43.626261 ], [ 1.273828, 43.625954 ], [ 1.270037, 43.627651 ], [ 1.269087, 43.628046 ], [ 1.267375, 43.62874 ], [ 1.266611, 43.629039 ], [ 1.266585, 43.629052 ], [ 1.266366, 43.629181 ], [ 1.266353, 43.62919 ], [ 1.264896, 43.630171 ], [ 1.264216, 43.63093 ] ] ] ] } },
{ "type": "Feature", "properties": { "codgeo": "31417", "value": 120, "isochrone_group": 2.0, "nb_agences": 2 }, "geometry": { "type": "MultiPolygon", "coordinates": [ [ [ [ 1.283103, 43.617551 ], [ 1.283516, 43.617932 ], [ 1.284762, 43.618479 ], [ 1.285016, 43.618223 ], [ 1.28822, 43.614364 ], [ 1.288281, 43.613605 ], [ 1.287608, 43.60911 ], [ 1.28751, 43.608763 ], [ 1.282984, 43.605837 ], [ 1.282645, 43.605958 ], [ 1.280059, 43.609559 ], [ 1.280057, 43.609919 ], [ 1.280081, 43.61238 ], [ 1.283103, 43.617551 ] ], [ [ 1.282266, 43.611629 ], [ 1.283839, 43.608569 ], [ 1.284187, 43.608475 ], [ 1.286898, 43.610965 ], [ 1.286752, 43.612103 ], [ 1.285461, 43.615576 ], [ 1.285319, 43.61588 ], [ 1.284973, 43.615783 ], [ 1.282327, 43.611984 ], [ 1.282266, 43.611629 ] ] ], [ [ [ 1.259192, 43.631954 ], [ 1.26476, 43.632378 ], [ 1.266466, 43.63321 ], [ 1.266851, 43.632892 ], [ 1.267236, 43.632574 ], [ 1.267546, 43.63233 ], [ 1.267859, 43.632084 ], [ 1.273274, 43.630095 ], [ 1.273558, 43.629873 ], [ 1.276797, 43.625726 ], [ 1.278306, 43.62524 ], [ 1.28101, 43.624435 ], [ 1.28096, 43.624079 ], [ 1.278401, 43.623822 ], [ 1.273354, 43.62403 ], [ 1.269087, 43.628046 ], [ 1.270037, 43.627651 ], [ 1.273828, 43.625954 ], [ 1.274016, 43.626261 ], [ 1.272687, 43.627757 ], [ 1.270757, 43.629684 ], [ 1.265097, 43.630634 ], [ 1.264699, 43.630988 ], [ 1.264535, 43.631146 ], [ 1.264423, 43.631224 ], [ 1.264216, 43.63093 ], [ 1.264896, 43.630171 ], [ 1.266013141093954, 43.629418827444646 ], [ 1.260719, 43.63132 ], [ 1.26052, 43.631341 ], [ 1.260311, 43.631364 ], [ 1.259991, 43.631418 ], [ 1.259118, 43.631601 ], [ 1.258245, 43.631785 ], [ 1.258319, 43.632137 ], [ 1.259192, 43.631954 ] ] ] ] } },
{ "type": "Feature", "properties": { "codgeo": "31417", "value": 180, "isochrone_group": 3.0, "nb_agences": 2 }, "geometry": { "type": "MultiPolygon", "coordinates": [ [ [ [ 1.279591, 43.618308 ], [ 1.286789, 43.622037 ], [ 1.287148, 43.622063 ], [ 1.287871, 43.621659 ], [ 1.290098, 43.614558 ], [ 1.288302, 43.608776 ], [ 1.288259, 43.608708 ], [ 1.281563, 43.603011 ], [ 1.281296, 43.602801 ], [ 1.281028, 43.602592 ], [ 1.27906, 43.604159 ], [ 1.276502, 43.609738 ], [ 1.276514, 43.610098 ], [ 1.278043, 43.616114 ], [ 1.279591, 43.618308 ] ], [ [ 1.280057, 43.609919 ], [ 1.280059, 43.609559 ], [ 1.282645, 43.605958 ], [ 1.282984, 43.605837 ], [ 1.28751, 43.608763 ], [ 1.287608, 43.60911 ], [ 1.288281, 43.613605 ], [ 1.28822, 43.614364 ], [ 1.285016, 43.618223 ], [ 1.284762, 43.618479 ], [ 1.283516, 43.617932 ], [ 1.283103, 43.617551 ], [ 1.280081, 43.61238 ], [ 1.280057, 43.609919 ] ] ], [ [ [ 1.2563, 43.634327 ], [ 1.256421, 43.634153 ], [ 1.265408, 43.634007 ], [ 1.265607, 43.633914 ], [ 1.265786, 43.6338 ], [ 1.266119, 43.633512 ], [ 1.26643, 43.633239 ], [ 1.275253, 43.632352 ], [ 1.281683, 43.628074 ], [ 1.287933, 43.623475 ], [ 1.288085, 43.623149 ], [ 1.287409, 43.622651 ], [ 1.287153, 43.622606 ], [ 1.285764, 43.622474 ], [ 1.285441, 43.622478 ], [ 1.283963, 43.622609 ], [ 1.28376, 43.62263 ], [ 1.283547, 43.622653 ], [ 1.281819, 43.622853 ], [ 1.274839, 43.623453 ], [ 1.272316, 43.622984 ], [ 1.272007, 43.622919 ], [ 1.269576, 43.622528 ], [ 1.269438, 43.622506 ], [ 1.265201, 43.622779 ], [ 1.264241, 43.622877 ], [ 1.263282, 43.622974 ], [ 1.263318, 43.623332 ], [ 1.259991, 43.631418 ], [ 1.260311, 43.631364 ], [ 1.26052, 43.631341 ], [ 1.260719, 43.63132 ], [ 1.26606, 43.629402 ], [ 1.266353, 43.62919 ], [ 1.266366, 43.629181 ], [ 1.266585, 43.629052 ], [ 1.266611, 43.629039 ], [ 1.267375, 43.62874 ], [ 1.268136, 43.628442 ], [ 1.26814, 43.62844 ], [ 1.269087, 43.628046 ], [ 1.273354, 43.62403 ], [ 1.278401, 43.623822 ], [ 1.28096, 43.624079 ], [ 1.28101, 43.624435 ], [ 1.278306, 43.62524 ], [ 1.276797, 43.625726 ], [ 1.273558, 43.629873 ], [ 1.273274, 43.630095 ], [ 1.267859, 43.632084 ], [ 1.267546, 43.63233 ], [ 1.267236, 43.632574 ], [ 1.266851, 43.632892 ], [ 1.266466, 43.63321 ], [ 1.26476, 43.632378 ], [ 1.259192, 43.631954 ], [ 1.258319, 43.632137 ], [ 1.258245003599309, 43.631785017121047 ], [ 1.258207, 43.631793 ], [ 1.253643, 43.630798 ], [ 1.253365, 43.631026 ], [ 1.25232, 43.633284 ], [ 1.252278, 43.633641 ], [ 1.2563, 43.634327 ] ] ] ] } },
{ "type": "Feature", "properties": { "codgeo": "31417", "value": 240, "isochrone_group": 4.0, "nb_agences": 2 }, "geometry": { "type": "MultiPolygon", "coordinates": [ [ [ [ 1.29682, 43.61549 ], [ 1.296918, 43.615476 ], [ 1.296866, 43.61512 ], [ 1.294225, 43.614781 ], [ 1.288302, 43.608776 ], [ 1.287415, 43.605099 ], [ 1.281704, 43.601604 ], [ 1.278148, 43.596461 ], [ 1.277867, 43.59583 ], [ 1.277578, 43.595186 ], [ 1.277297, 43.594675 ], [ 1.27701, 43.594154 ], [ 1.276733, 43.593724 ], [ 1.276451, 43.593285 ], [ 1.276314, 43.593094 ], [ 1.276173, 43.592898 ], [ 1.276008, 43.592681 ], [ 1.275837, 43.592457 ], [ 1.275483, 43.592038 ], [ 1.27513, 43.591618 ], [ 1.274855, 43.59185 ], [ 1.275208, 43.59227 ], [ 1.277345, 43.597917 ], [ 1.273587, 43.604998 ], [ 1.273364, 43.605716 ], [ 1.272226, 43.614392 ], [ 1.274703, 43.619558 ], [ 1.275128, 43.61992 ], [ 1.278842688136917, 43.622345616797858 ], [ 1.27839, 43.622571 ], [ 1.272316, 43.622984 ], [ 1.274839, 43.623453 ], [ 1.281819, 43.622853 ], [ 1.283547, 43.622653 ], [ 1.28376, 43.62263 ], [ 1.283963, 43.622609 ], [ 1.285441, 43.622478 ], [ 1.285764, 43.622474 ], [ 1.287153, 43.622606 ], [ 1.287409, 43.622651 ], [ 1.288085, 43.623149 ], [ 1.287933, 43.623475 ], [ 1.281683, 43.628074 ], [ 1.275253, 43.632352 ], [ 1.271142325865163, 43.63276525716396 ], [ 1.27559, 43.632618 ], [ 1.276975, 43.633899 ], [ 1.282707, 43.635729 ], [ 1.282967, 43.635543 ], [ 1.283391, 43.634676 ], [ 1.28494, 43.630984 ], [ 1.289058, 43.627544 ], [ 1.293078, 43.62389 ], [ 1.293112, 43.623531 ], [ 1.291530038559331, 43.62243230020804 ], [ 1.295579, 43.615671 ], [ 1.29682, 43.61549 ] ], [ [ 1.290098, 43.614558 ], [ 1.287871, 43.621659 ], [ 1.287148, 43.622063 ], [ 1.286789, 43.622037 ], [ 1.279591, 43.618308 ], [ 1.278043, 43.616114 ], [ 1.276514, 43.610098 ], [ 1.276502, 43.609738 ], [ 1.27906, 43.604159 ], [ 1.281028, 43.602592 ], [ 1.281296, 43.602801 ], [ 1.281563, 43.603011 ], [ 1.288259, 43.608708 ], [ 1.288302, 43.608776 ], [ 1.290098, 43.614558 ] ] ], [ [ [ 1.263914157143177, 43.622910059183646 ], [ 1.264241, 43.622877 ], [ 1.265201, 43.622779 ], [ 1.263914157143177, 43.622910059183646 ] ] ], [ [ [ 1.262256, 43.623079 ], [ 1.261803, 43.623176 ], [ 1.261323, 43.623386 ], [ 1.258207, 43.631793 ], [ 1.259102, 43.631605 ], [ 1.259991, 43.631418 ], [ 1.263318, 43.623332 ], [ 1.263282045940985, 43.62297445685757 ], [ 1.262256, 43.623079 ] ] ], [ [ [ 1.25356, 43.6307 ], [ 1.253096, 43.630309 ], [ 1.25264, 43.629925 ], [ 1.252168, 43.629484 ], [ 1.250789, 43.627338 ], [ 1.25044, 43.627424 ], [ 1.246421, 43.633204 ], [ 1.246486, 43.633558 ], [ 1.247598, 43.633497 ], [ 1.248501, 43.633476 ], [ 1.250209, 43.633544 ], [ 1.257047, 43.636569 ], [ 1.265408, 43.634007 ], [ 1.256421, 43.634153 ], [ 1.2563, 43.634327 ], [ 1.252278, 43.633641 ], [ 1.25232, 43.633284 ], [ 1.253365, 43.631026 ], [ 1.253643, 43.630798 ], [ 1.258207, 43.631793 ], [ 1.25356, 43.6307 ] ] ] ] } },
{ "type": "Feature", "properties": { "codgeo": "31417", "value": 300, "isochrone_group": 5.0, "nb_agences": 2 }, "geometry": { "type": "MultiPolygon", "coordinates": [ [ [ [ 1.297363, 43.616537 ], [ 1.295299510632842, 43.616137715117929 ], [ 1.291530038559331, 43.62243230020804 ], [ 1.293112, 43.623531 ], [ 1.293078, 43.62389 ], [ 1.289058, 43.627544 ], [ 1.28494, 43.630984 ], [ 1.283391, 43.634676 ], [ 1.282967, 43.635543 ], [ 1.282707, 43.635729 ], [ 1.276975, 43.633899 ], [ 1.27559, 43.632618 ], [ 1.277043, 43.640866 ], [ 1.277169, 43.641203 ], [ 1.279177, 43.642774 ], [ 1.279497, 43.64294 ], [ 1.286161, 43.638519 ], [ 1.293321, 43.634462 ], [ 1.293622, 43.634264 ], [ 1.297784, 43.626435 ], [ 1.298046, 43.626188 ], [ 1.297808, 43.625935 ], [ 1.297569, 43.625682 ], [ 1.297121, 43.625277 ], [ 1.296683, 43.624883 ], [ 1.296506, 43.624745 ], [ 1.296339, 43.624615 ], [ 1.296322215794971, 43.624600819942245 ], [ 1.297652, 43.617329 ], [ 1.298572652702113, 43.616747374382982 ], [ 1.297363, 43.616537 ] ] ], [ [ [ 1.294155302319593, 43.613941076123041 ], [ 1.293807, 43.61404 ], [ 1.288302, 43.608776 ], [ 1.294082448592856, 43.614636475063342 ], [ 1.294155302319593, 43.613941076123041 ] ] ], [ [ [ 1.287452603529275, 43.605254882950554 ], [ 1.287452603529274, 43.605254882950554 ], [ 1.288302, 43.608776 ], [ 1.287452603529275, 43.605254882950554 ] ] ], [ [ [ 1.287211547831578, 43.604940924499239 ], [ 1.282622, 43.601375 ], [ 1.282129, 43.594758 ], [ 1.282033, 43.594411 ], [ 1.281214, 43.593959 ], [ 1.273313, 43.589828 ], [ 1.272975, 43.589531 ], [ 1.272286, 43.588937 ], [ 1.271589, 43.588336 ], [ 1.271318, 43.588128 ], [ 1.271041, 43.587916 ], [ 1.270825, 43.587765 ], [ 1.2706, 43.587609 ], [ 1.270348, 43.587453 ], [ 1.270089, 43.587292 ], [ 1.269827, 43.587145 ], [ 1.269557, 43.586995 ], [ 1.269328, 43.58688 ], [ 1.267933, 43.586265 ], [ 1.267736, 43.586194 ], [ 1.267532, 43.58612 ], [ 1.26723, 43.586025 ], [ 1.266922, 43.585927 ], [ 1.266601, 43.58584 ], [ 1.266274, 43.585751 ], [ 1.265962, 43.585678 ], [ 1.265641, 43.585603 ], [ 1.265341, 43.585548 ], [ 1.265035, 43.585492 ], [ 1.264753, 43.585449 ], [ 1.264463, 43.585405 ], [ 1.263979, 43.585355 ], [ 1.263486, 43.585304 ], [ 1.263146, 43.585285 ], [ 1.262798, 43.585266 ], [ 1.262315, 43.585265 ], [ 1.261824, 43.585265 ], [ 1.260356, 43.58533 ], [ 1.258889, 43.585396 ], [ 1.258905, 43.585756 ], [ 1.260373, 43.58569 ], [ 1.26691, 43.588284 ], [ 1.267326, 43.588438 ], [ 1.268209, 43.588819 ], [ 1.26829, 43.588845 ], [ 1.268797, 43.588969 ], [ 1.271811, 43.590902 ], [ 1.269713, 43.598406 ], [ 1.269058, 43.598633 ], [ 1.26835, 43.598796 ], [ 1.267856, 43.598897 ], [ 1.266007, 43.603773 ], [ 1.265928, 43.60399 ], [ 1.264756, 43.610288 ], [ 1.266579, 43.612853 ], [ 1.269099, 43.619125 ], [ 1.271900265905394, 43.622269206640837 ], [ 1.269438, 43.622506 ], [ 1.272316, 43.622984 ], [ 1.27839, 43.622571 ], [ 1.278842688136917, 43.622345616797858 ], [ 1.275128, 43.61992 ], [ 1.274703, 43.619558 ], [ 1.272226, 43.614392 ], [ 1.273364, 43.605716 ], [ 1.273587, 43.604998 ], [ 1.277345, 43.597917 ], [ 1.275208, 43.59227 ], [ 1.274855, 43.59185 ], [ 1.27513, 43.591618 ], [ 1.275483, 43.592038 ], [ 1.275837, 43.592457 ], [ 1.276008, 43.592681 ], [ 1.276173, 43.592898 ], [ 1.276314, 43.593094 ], [ 1.276451, 43.593285 ], [ 1.276733, 43.593724 ], [ 1.27701, 43.594154 ], [ 1.277297, 43.594675 ], [ 1.277578, 43.595186 ], [ 1.277867, 43.59583 ], [ 1.278148, 43.596461 ], [ 1.281704, 43.601604 ], [ 1.287151717308561, 43.604937877078171 ], [ 1.287211547831578, 43.604940924499239 ] ] ], [ [ [ 1.25074, 43.626829 ], [ 1.250671, 43.626474 ], [ 1.250391, 43.624438 ], [ 1.250309, 43.624088 ], [ 1.248934, 43.623187 ], [ 1.248609, 43.623342 ], [ 1.244006, 43.62724 ], [ 1.242048, 43.629006 ], [ 1.241884, 43.635409 ], [ 1.242234, 43.635493 ], [ 1.250209, 43.633544 ], [ 1.248501, 43.633476 ], [ 1.247598, 43.633497 ], [ 1.246486, 43.633558 ], [ 1.246421, 43.633204 ], [ 1.25044, 43.627424 ], [ 1.250789, 43.627338 ], [ 1.252168, 43.629484 ], [ 1.25074, 43.626829 ] ] ], [ [ [ 1.257343, 43.636936 ], [ 1.25755, 43.637053 ], [ 1.257631, 43.637028 ], [ 1.265408, 43.634007 ], [ 1.257047, 43.636569 ], [ 1.250209, 43.633544 ], [ 1.257343, 43.636936 ] ] ] ] } },
{ "type": "Feature", "properties": { "codgeo": "31417", "value": 360, "isochrone_group": 6.0, "nb_agences": 2 }, "geometry": { "type": "MultiPolygon", "coordinates": [ [ [ [ 1.297229814401901, 43.619637688612755 ], [ 1.296322215794971, 43.624600819942245 ], [ 1.296339, 43.624615 ], [ 1.296506, 43.624745 ], [ 1.296683, 43.624883 ], [ 1.297121, 43.625277 ], [ 1.297569, 43.625682 ], [ 1.297808, 43.625935 ], [ 1.298046, 43.626188 ], [ 1.297784, 43.626435 ], [ 1.293622, 43.634264 ], [ 1.293321, 43.634462 ], [ 1.29143336147408, 43.635531573952477 ], [ 1.295668, 43.638158 ], [ 1.297185497428687, 43.637825862092654 ], [ 1.298068, 43.63837 ], [ 1.298422, 43.638434 ], [ 1.300331, 43.638027 ], [ 1.300371, 43.637669 ], [ 1.297851, 43.636108 ], [ 1.300156359990294, 43.628397236307229 ], [ 1.300532, 43.628007 ], [ 1.301235, 43.626656 ], [ 1.302696950301782, 43.62088901344481 ], [ 1.302378, 43.620821 ], [ 1.297229814401901, 43.619637688612755 ] ] ], [ [ [ 1.276382, 43.59059 ], [ 1.277076, 43.591414 ], [ 1.277461, 43.591915 ], [ 1.277555408550989, 43.592046122987497 ], [ 1.281214, 43.593959 ], [ 1.282033, 43.594411 ], [ 1.282129, 43.594758 ], [ 1.282474207223219, 43.599391339140027 ], [ 1.28653937919965, 43.603199402996076 ], [ 1.290851657588275, 43.603476438091377 ], [ 1.290906687400095, 43.603417158294057 ], [ 1.290821, 43.603413 ], [ 1.288627, 43.60315 ], [ 1.286682, 43.595053 ], [ 1.287627, 43.592879 ], [ 1.287471, 43.592589 ], [ 1.285769, 43.589733 ], [ 1.285193, 43.589296 ], [ 1.284663, 43.589022 ], [ 1.284262, 43.588871 ], [ 1.282985, 43.588449 ], [ 1.274033, 43.588305 ], [ 1.273952, 43.588239 ], [ 1.272699, 43.587017 ], [ 1.269416, 43.580867 ], [ 1.269289, 43.580441 ], [ 1.26584, 43.581474 ], [ 1.257205, 43.583801 ], [ 1.256289, 43.58377 ], [ 1.255518, 43.583725 ], [ 1.254683, 43.583653 ], [ 1.253306, 43.583478 ], [ 1.252758, 43.583392 ], [ 1.251683, 43.583191 ], [ 1.25064, 43.582953 ], [ 1.249391, 43.582606 ], [ 1.247363, 43.581953 ], [ 1.246227, 43.581615 ], [ 1.245201, 43.581332 ], [ 1.244113, 43.581055 ], [ 1.242811, 43.580751 ], [ 1.241638, 43.580505 ], [ 1.240565, 43.580302 ], [ 1.240292403983304, 43.581738918198283 ], [ 1.246064, 43.584312 ], [ 1.246261, 43.5847 ], [ 1.24980345026961, 43.586961271291806 ], [ 1.25372467470949, 43.589361587444067 ], [ 1.254627, 43.588868 ], [ 1.255019, 43.588646 ], [ 1.256161, 43.58779 ], [ 1.25633, 43.587664 ], [ 1.256599, 43.587543 ], [ 1.256746, 43.587872 ], [ 1.25607, 43.588392 ], [ 1.255868, 43.588553 ], [ 1.255598, 43.588731 ], [ 1.255196, 43.588959 ], [ 1.254805, 43.589182 ], [ 1.254079099672658, 43.589578543136575 ], [ 1.255671, 43.590553 ], [ 1.259201, 43.597876 ], [ 1.259176216699456, 43.599524852049299 ], [ 1.259527, 43.599463 ], [ 1.260331, 43.599322 ], [ 1.260759, 43.599229 ], [ 1.261187, 43.599137 ], [ 1.261263, 43.599489 ], [ 1.259141865362033, 43.601810272952122 ], [ 1.259071, 43.606525 ], [ 1.258657, 43.613889 ], [ 1.262719, 43.619626 ], [ 1.263413901480767, 43.622961022183823 ], [ 1.262256, 43.623079 ], [ 1.263738, 43.622928 ], [ 1.265201, 43.622779 ], [ 1.265531, 43.622764 ], [ 1.269438, 43.622506 ], [ 1.271900265905394, 43.622269206640837 ], [ 1.269099, 43.619125 ], [ 1.266579, 43.612853 ], [ 1.264756, 43.610288 ], [ 1.265928, 43.60399 ], [ 1.266007, 43.603773 ], [ 1.267856, 43.598897 ], [ 1.26835, 43.598796 ], [ 1.269058, 43.598633 ], [ 1.269713, 43.598406 ], [ 1.271811, 43.590902 ], [ 1.268797, 43.588969 ], [ 1.26829, 43.588845 ], [ 1.268209, 43.588819 ], [ 1.267326, 43.588438 ], [ 1.26691, 43.588284 ], [ 1.260373, 43.58569 ], [ 1.258905, 43.585756 ], [ 1.258889, 43.585396 ], [ 1.260356, 43.58533 ], [ 1.261824, 43.585265 ], [ 1.262315, 43.585265 ], [ 1.262798, 43.585266 ], [ 1.263146, 43.585285 ], [ 1.263486, 43.585304 ], [ 1.263979, 43.585355 ], [ 1.264463, 43.585405 ], [ 1.264753, 43.585449 ], [ 1.265035, 43.585492 ], [ 1.265341, 43.585548 ], [ 1.265641, 43.585603 ], [ 1.265962, 43.585678 ], [ 1.266274, 43.585751 ], [ 1.266601, 43.58584 ], [ 1.266922, 43.585927 ], [ 1.26723, 43.586025 ], [ 1.267532, 43.58612 ], [ 1.267736, 43.586194 ], [ 1.267933, 43.586265 ], [ 1.269328, 43.58688 ], [ 1.269557, 43.586995 ], [ 1.269827, 43.587145 ], [ 1.270089, 43.587292 ], [ 1.270348, 43.587453 ], [ 1.2706, 43.587609 ], [ 1.270825, 43.587765 ], [ 1.271041, 43.587916 ], [ 1.271318, 43.588128 ], [ 1.271589, 43.588336 ], [ 1.272286, 43.588937 ], [ 1.272975, 43.589531 ], [ 1.273313, 43.589828 ], [ 1.275764791853374, 43.591109907625146 ], [ 1.276382, 43.59059 ] ] ], [ [ [ 1.250567, 43.624212 ], [ 1.250614, 43.620353 ], [ 1.250387, 43.620074 ], [ 1.245065, 43.623545 ], [ 1.244766, 43.623745 ], [ 1.243748, 43.62553 ], [ 1.243549, 43.625829 ], [ 1.237991, 43.629959 ], [ 1.235166, 43.630137 ], [ 1.233214, 43.633699 ], [ 1.233429, 43.633987 ], [ 1.242139, 43.636033 ], [ 1.244588, 43.636364 ], [ 1.250209, 43.633544 ], [ 1.242234, 43.635493 ], [ 1.241884, 43.635409 ], [ 1.242048, 43.629006 ], [ 1.244006, 43.62724 ], [ 1.248609, 43.623342 ], [ 1.248934, 43.623187 ], [ 1.250309, 43.624088 ], [ 1.250391, 43.624438 ], [ 1.250671, 43.626474 ], [ 1.250567, 43.624212 ] ] ], [ [ [ 1.274134, 43.64196 ], [ 1.273907, 43.642025 ], [ 1.273193, 43.642193 ], [ 1.272683, 43.642301 ], [ 1.272365, 43.642388 ], [ 1.272451306631235, 43.642703246326718 ], [ 1.27673, 43.640984 ], [ 1.277025129248099, 43.640764556117226 ], [ 1.276232747221894, 43.636266574732403 ], [ 1.274134, 43.64196 ] ] ] ] } },
{ "type": "Feature", "properties": { "codgeo": "31417", "value": 420, "isochrone_group": 7.0, "nb_agences": 2 }, "geometry": { "type": "MultiPolygon", "coordinates": [ [ [ [ 1.257064, 43.614045 ], [ 1.254982, 43.616259 ], [ 1.254861478399523, 43.616827687935469 ], [ 1.249497, 43.617237 ], [ 1.249144, 43.617307 ], [ 1.246191, 43.618339 ], [ 1.240789, 43.624184 ], [ 1.235111, 43.626318 ], [ 1.22967, 43.633456 ], [ 1.229483, 43.633763 ], [ 1.225144, 43.639283 ], [ 1.223137, 43.640665 ], [ 1.223341, 43.640962 ], [ 1.225348, 43.639579 ], [ 1.227355, 43.638197 ], [ 1.229992, 43.636381 ], [ 1.232629, 43.634565 ], [ 1.234027952161273, 43.634127695306766 ], [ 1.233429, 43.633987 ], [ 1.233214, 43.633699 ], [ 1.235166, 43.630137 ], [ 1.237991, 43.629959 ], [ 1.243549, 43.625829 ], [ 1.243748, 43.62553 ], [ 1.244766, 43.623745 ], [ 1.245065, 43.623545 ], [ 1.250387, 43.620074 ], [ 1.250614, 43.620353 ], [ 1.250567, 43.624212 ], [ 1.250671, 43.626474 ], [ 1.25074, 43.626829 ], [ 1.252168, 43.629484 ], [ 1.25264, 43.629925 ], [ 1.253096, 43.630309 ], [ 1.25356, 43.6307 ], [ 1.258207, 43.631793 ], [ 1.261323, 43.623386 ], [ 1.261803, 43.623176 ], [ 1.262256, 43.623079 ], [ 1.263413901480767, 43.622961022183823 ], [ 1.262719, 43.619626 ], [ 1.258657, 43.613889 ], [ 1.258901972313608, 43.609531569764727 ], [ 1.256783070793864, 43.609045098606252 ], [ 1.257064, 43.614045 ] ] ], [ [ [ 1.245213, 43.636644 ], [ 1.246116, 43.636756 ], [ 1.246362, 43.63677 ], [ 1.246547, 43.636768 ], [ 1.247505, 43.636674 ], [ 1.255761, 43.635453 ], [ 1.250209, 43.633544 ], [ 1.244588, 43.636364 ], [ 1.242139, 43.636033 ], [ 1.245104, 43.636627 ], [ 1.245213, 43.636644 ] ] ], [ [ [ 1.268614, 43.639403 ], [ 1.271965, 43.642781 ], [ 1.272422464929036, 43.64259789821449 ], [ 1.272365, 43.642388 ], [ 1.272683, 43.642301 ], [ 1.273193, 43.642193 ], [ 1.273777927688021, 43.642055369955756 ], [ 1.274154388629161, 43.641904690272732 ], [ 1.277062, 43.634017 ], [ 1.27559, 43.632618 ], [ 1.267859, 43.632084 ], [ 1.267546, 43.63233 ], [ 1.267236, 43.632574 ], [ 1.266831, 43.632908 ], [ 1.26643, 43.633239 ], [ 1.266119, 43.633512 ], [ 1.265786, 43.6338 ], [ 1.265607, 43.633914 ], [ 1.265408, 43.634007 ], [ 1.26832463274957, 43.639560503693261 ], [ 1.268614, 43.639403 ] ] ], [ [ [ 1.290013319965851, 43.634650829590719 ], [ 1.289072, 43.634067 ], [ 1.286780366699922, 43.635372591880127 ], [ 1.287136541912195, 43.636201272345183 ], [ 1.290013319965851, 43.634650829590719 ] ] ], [ [ [ 1.297285818518304, 43.639763353022623 ], [ 1.297709, 43.64037 ], [ 1.298063, 43.640434 ], [ 1.299691684431951, 43.640194548296456 ], [ 1.29975, 43.640205 ], [ 1.304733104922247, 43.640023568684548 ], [ 1.304812, 43.639621 ], [ 1.303778, 43.637944 ], [ 1.30378, 43.637896 ], [ 1.305537378284815, 43.636483140738029 ], [ 1.302885, 43.636639 ], [ 1.299189096275583, 43.632990976582931 ], [ 1.300180897751183, 43.628371745079058 ], [ 1.300156359990294, 43.628397236307229 ], [ 1.297851, 43.636108 ], [ 1.300371, 43.637669 ], [ 1.300331, 43.638027 ], [ 1.298422, 43.638434 ], [ 1.298068, 43.63837 ], [ 1.297185497428687, 43.637825862092654 ], [ 1.295668, 43.638158 ], [ 1.293879739314857, 43.637048877128137 ], [ 1.296207, 43.63957 ], [ 1.297285818518304, 43.639763353022623 ] ] ], [ [ [ 1.278474563368044, 43.588376446059534 ], [ 1.27696, 43.585173 ], [ 1.276554396626498, 43.584784414949858 ], [ 1.276542, 43.584802 ], [ 1.273631908968025, 43.582684356609349 ], [ 1.270045439273294, 43.582046120173857 ], [ 1.272699, 43.587017 ], [ 1.273952, 43.588239 ], [ 1.274033, 43.588305 ], [ 1.278474563368044, 43.588376446059534 ] ] ], [ [ [ 1.282985, 43.588449 ], [ 1.284262, 43.588871 ], [ 1.284663, 43.589022 ], [ 1.285193, 43.589296 ], [ 1.285769, 43.589733 ], [ 1.284724875175267, 43.588514539828346 ], [ 1.282686, 43.588249 ], [ 1.282487942745475, 43.588441004440931 ], [ 1.282985, 43.588449 ] ] ], [ [ [ 1.25965268220661, 43.583141387203845 ], [ 1.26584, 43.581474 ], [ 1.266680173803, 43.581222361977815 ], [ 1.266106, 43.581035 ], [ 1.264178510106505, 43.579816663882319 ], [ 1.25965268220661, 43.583141387203845 ] ] ], [ [ [ 1.290811, 43.597341 ], [ 1.291496, 43.595671 ], [ 1.293886554905028, 43.595198753517799 ], [ 1.293643, 43.594845 ], [ 1.293529, 43.594749 ], [ 1.291936, 43.594346 ], [ 1.285769, 43.589733 ], [ 1.287471, 43.592589 ], [ 1.287627, 43.592879 ], [ 1.286682, 43.595053 ], [ 1.287747041595269, 43.599486748995822 ], [ 1.289874, 43.598885 ], [ 1.290811, 43.597341 ] ] ] ] } },
{ "type": "Feature", "properties": { "codgeo": "31417", "value": 480, "isochrone_group": 8.0, "nb_agences": 2 }, "geometry": { "type": "MultiPolygon", "coordinates": [ [ [ [ 1.292620852289793, 43.593937834986889 ], [ 1.291738954452467, 43.594133425830755 ], [ 1.29209, 43.59426 ], [ 1.292620852289793, 43.593937834986889 ] ] ], [ [ [ 1.243475, 43.617151 ], [ 1.243408730765104, 43.617161765527484 ], [ 1.242813, 43.618657 ], [ 1.241419, 43.618884 ], [ 1.239081, 43.618959 ], [ 1.237894948379368, 43.618828547886942 ], [ 1.233881, 43.622829 ], [ 1.232046, 43.625241 ], [ 1.231651861539217, 43.630856013294078 ], [ 1.235111, 43.626318 ], [ 1.240789, 43.624184 ], [ 1.246191, 43.618339 ], [ 1.249144, 43.617307 ], [ 1.249497, 43.617237 ], [ 1.254861478399523, 43.616827687935469 ], [ 1.254982, 43.616259 ], [ 1.257064, 43.614045 ], [ 1.256661039768292, 43.606873223694294 ], [ 1.251768, 43.605276 ], [ 1.251646993239707, 43.60522421320853 ], [ 1.251502, 43.605173 ], [ 1.251311060968672, 43.605080445584051 ], [ 1.251296, 43.605074 ], [ 1.251240179660363, 43.605126308182371 ], [ 1.25126, 43.613986 ], [ 1.247411, 43.616376 ], [ 1.246677, 43.616557 ], [ 1.24662647008785, 43.617861303357373 ], [ 1.243475, 43.617151 ] ] ], [ [ [ 1.220947, 43.640207 ], [ 1.21825, 43.642092 ], [ 1.215484, 43.644028 ], [ 1.215064, 43.644354 ], [ 1.214984, 43.644418 ], [ 1.214707, 43.646784 ], [ 1.214752, 43.646849 ], [ 1.217231, 43.64723 ], [ 1.222925, 43.644398 ], [ 1.223181, 43.644285 ], [ 1.228273, 43.639531 ], [ 1.230911, 43.637715 ], [ 1.233548, 43.635899 ], [ 1.240824, 43.637107 ], [ 1.241512, 43.637536 ], [ 1.242017, 43.637648 ], [ 1.24458, 43.638151 ], [ 1.247157103312421, 43.636708136000664 ], [ 1.246547, 43.636768 ], [ 1.246362, 43.63677 ], [ 1.246116, 43.636756 ], [ 1.245213, 43.636644 ], [ 1.245104, 43.636627 ], [ 1.242139, 43.636033 ], [ 1.242041, 43.636005 ], [ 1.241921, 43.635915 ], [ 1.236599, 43.633324 ], [ 1.232629, 43.634565 ], [ 1.229992, 43.636381 ], [ 1.227355, 43.638197 ], [ 1.225348, 43.639579 ], [ 1.223341, 43.640962 ], [ 1.223137, 43.640665 ], [ 1.225144, 43.639283 ], [ 1.228516105221386, 43.634993066646217 ], [ 1.226231, 43.636567 ], [ 1.223594, 43.638383 ], [ 1.220947, 43.640207 ] ] ], [ [ [ 1.255761, 43.635453 ], [ 1.248133884682145, 43.636580992708701 ], [ 1.255886, 43.637683 ], [ 1.257162419095956, 43.636766719670867 ], [ 1.255761, 43.635453 ] ] ], [ [ [ 1.266941573524637, 43.636927047522015 ], [ 1.265408, 43.634007 ], [ 1.260286331196342, 43.635992314733521 ], [ 1.26564, 43.637473 ], [ 1.265639941928575, 43.637473675703248 ], [ 1.266941573524637, 43.636927047522015 ] ] ], [ [ [ 1.296109132162847, 43.639463979714321 ], [ 1.294519046530187, 43.637741439011293 ], [ 1.294735, 43.638446 ], [ 1.295495987199945, 43.641425153961841 ], [ 1.296109132162847, 43.639463979714321 ] ] ], [ [ [ 1.29941, 43.625283 ], [ 1.298961136378561, 43.627029880065798 ], [ 1.299050493176251, 43.627110622611056 ], [ 1.301618166507159, 43.625005259616671 ], [ 1.300467897241299, 43.623979148311925 ], [ 1.29941, 43.625283 ] ] ], [ [ [ 1.267943, 43.655862 ], [ 1.267610205717326, 43.655796587811302 ], [ 1.268966, 43.656595 ], [ 1.269036611082218, 43.656615514707717 ], [ 1.268677, 43.656202 ], [ 1.267943, 43.655862 ] ] ] ] } },
{ "type": "Feature", "properties": { "codgeo": "31417", "value": 540, "isochrone_group": 9.0, "nb_agences": 2 }, "geometry": { "type": "MultiPolygon", "coordinates": [ [ [ [ 1.261475891189122, 43.573870269886655 ], [ 1.259420364557681, 43.574245023326782 ], [ 1.261034773783182, 43.57505639866578 ], [ 1.261475891189122, 43.573870269886655 ] ] ], [ [ [ 1.232046, 43.625241 ], [ 1.233881, 43.622829 ], [ 1.235822524206314, 43.620894003861629 ], [ 1.234423547905025, 43.62030080378851 ], [ 1.230007, 43.625507 ], [ 1.230146, 43.629104 ], [ 1.226231, 43.636567 ], [ 1.228869, 43.63475 ], [ 1.231506, 43.632934 ], [ 1.232046, 43.625241 ] ] ], [ [ [ 1.209595, 43.652709 ], [ 1.216263, 43.652728 ], [ 1.219146, 43.650573 ], [ 1.222166949725891, 43.644775028165832 ], [ 1.217231, 43.64723 ], [ 1.214752, 43.646849 ], [ 1.214707, 43.646784 ], [ 1.214984, 43.644418 ], [ 1.215063761904819, 43.64435419047615 ], [ 1.213366, 43.645672 ], [ 1.207466, 43.648674 ], [ 1.20724, 43.652267 ], [ 1.209595, 43.652709 ] ] ], [ [ [ 1.265639941928575, 43.637473675703248 ], [ 1.26564, 43.637473 ], [ 1.25881, 43.635584 ], [ 1.255886, 43.637683 ], [ 1.262921274582452, 43.638317747620754 ], [ 1.263086018329526, 43.638554856865966 ], [ 1.265382, 43.637582 ], [ 1.265639941928575, 43.637473675703248 ] ] ], [ [ [ 1.268966, 43.656595 ], [ 1.267610205717326, 43.655796587811302 ], [ 1.265389, 43.65536 ], [ 1.266701, 43.652007 ], [ 1.265069, 43.644117 ], [ 1.265402, 43.651695 ], [ 1.264777, 43.65524 ], [ 1.271986, 43.660007 ], [ 1.269036611082218, 43.656615514707717 ], [ 1.268966, 43.656595 ] ] ], [ [ [ 1.298911, 43.627225 ], [ 1.301507406893464, 43.625664219930513 ], [ 1.301442, 43.625579 ], [ 1.301671678216539, 43.624961382706282 ], [ 1.298911, 43.627225 ] ] ], [ [ [ 1.304770104294257, 43.637175537659751 ], [ 1.306453448996041, 43.637777016560868 ], [ 1.311441, 43.635684 ], [ 1.304770104294257, 43.637175537659751 ] ] ] ] } },
{ "type": "Feature", "properties": { "codgeo": "31417", "value": 600, "isochrone_group": 10.0, "nb_agences": 2 }, "geometry": { "type": "MultiPolygon", "coordinates": [ [ [ [ 1.258126699393562, 43.574141491780729 ], [ 1.258515359586152, 43.574410019353238 ], [ 1.261475891189122, 43.573870269886655 ], [ 1.26226371026762, 43.571751888546082 ], [ 1.258126699393562, 43.574141491780729 ] ] ], [ [ [ 1.164864, 43.587204 ], [ 1.169474, 43.58635 ], [ 1.169531339673881, 43.586109841266804 ], [ 1.16219, 43.586264 ], [ 1.16041, 43.585623 ], [ 1.160409932406293, 43.585623187446579 ], [ 1.161978, 43.586188 ], [ 1.16397, 43.586906 ], [ 1.164864, 43.587204 ] ] ], [ [ [ 1.232497994889134, 43.622570632403971 ], [ 1.23098517988606, 43.621095540426246 ], [ 1.227574, 43.624958 ], [ 1.226789, 43.628471 ], [ 1.226231, 43.636567 ], [ 1.230146, 43.629104 ], [ 1.230007, 43.625507 ], [ 1.232497994889134, 43.622570632403971 ] ] ], [ [ [ 1.197113, 43.654601 ], [ 1.200521, 43.655761 ], [ 1.200573, 43.655682 ], [ 1.207007, 43.652252 ], [ 1.208389572468353, 43.652482758399564 ], [ 1.20724, 43.652267 ], [ 1.207466, 43.648674 ], [ 1.213366, 43.645672 ], [ 1.204874, 43.647538 ], [ 1.199293, 43.647969 ], [ 1.197583, 43.651137 ], [ 1.197113, 43.654601 ] ] ], [ [ [ 1.22265, 43.655296 ], [ 1.221416, 43.653632 ], [ 1.220544, 43.652485 ], [ 1.22040940382389, 43.64814820632558 ], [ 1.219146, 43.650573 ], [ 1.216263, 43.652728 ], [ 1.209595, 43.652709 ], [ 1.217678, 43.654664 ], [ 1.218525, 43.655776 ], [ 1.219758, 43.65744 ], [ 1.22265, 43.655296 ] ] ], [ [ [ 1.230911, 43.637715 ], [ 1.228273, 43.639531 ], [ 1.229176853357806, 43.638908787074385 ], [ 1.229177, 43.638909 ], [ 1.229988291475143, 43.638350192828341 ], [ 1.230911, 43.637715 ] ] ], [ [ [ 1.262384, 43.639031 ], [ 1.263055, 43.638568 ], [ 1.263086018329526, 43.638554856865966 ], [ 1.262921274582452, 43.638317747620754 ], [ 1.255886, 43.637683 ], [ 1.260664, 43.642446 ], [ 1.260669785444411, 43.642450441332471 ], [ 1.260496, 43.642118 ], [ 1.262384, 43.639031 ] ] ], [ [ [ 1.308704180670414, 43.63629592218826 ], [ 1.311441, 43.635684 ], [ 1.308704180670413, 43.63629592218826 ], [ 1.308704180670414, 43.63629592218826 ] ] ], [ [ [ 1.298846788605095, 43.63221693947397 ], [ 1.298908740427931, 43.627400664257515 ], [ 1.298846788605095, 43.63221693947397 ], [ 1.298846788605095, 43.63221693947397 ] ] ] ] } },
{ "type": "Feature", "properties": { "codgeo": "31417", "value": 660, "isochrone_group": 11.0, "nb_agences": 2 }, "geometry": { "type": "MultiPolygon", "coordinates": [ [ [ [ 1.227574, 43.624958 ], [ 1.228763494587544, 43.623611142047288 ], [ 1.227867545567199, 43.623124132942287 ], [ 1.226124, 43.627319 ], [ 1.225419, 43.629703 ], [ 1.223594, 43.638383 ], [ 1.226231, 43.636567 ], [ 1.226789, 43.628471 ], [ 1.227574, 43.624958 ] ] ], [ [ [ 1.220947, 43.640207 ], [ 1.218936, 43.641612 ], [ 1.218936252485692, 43.641612361165897 ], [ 1.21825, 43.642092 ], [ 1.220947, 43.640207 ] ] ], [ [ [ 1.199461, 43.646534 ], [ 1.191021, 43.648096 ], [ 1.189977, 43.651541 ], [ 1.193183, 43.6575 ], [ 1.192087, 43.66127 ], [ 1.191805, 43.661714 ], [ 1.192635, 43.663707 ], [ 1.192783, 43.663804 ], [ 1.194718, 43.66383 ], [ 1.195803, 43.662806 ], [ 1.1996, 43.657642 ], [ 1.200057, 43.657242 ], [ 1.200514, 43.656435 ], [ 1.207007, 43.652252 ], [ 1.200573, 43.655682 ], [ 1.200521, 43.655761 ], [ 1.197113, 43.654601 ], [ 1.197583, 43.651137 ], [ 1.199293, 43.647969 ], [ 1.204874, 43.647538 ], [ 1.213366, 43.645672 ], [ 1.215484, 43.644028 ], [ 1.206766, 43.64574 ], [ 1.20628, 43.645613 ], [ 1.205622, 43.645602 ], [ 1.199461, 43.646534 ] ] ], [ [ [ 1.221633, 43.658994 ], [ 1.222061, 43.659109 ], [ 1.22465, 43.659706 ], [ 1.225068, 43.659778 ], [ 1.225461, 43.659814 ], [ 1.225839, 43.659828 ], [ 1.225969, 43.65623 ], [ 1.221416, 43.653632 ], [ 1.22265, 43.655296 ], [ 1.219762597355482, 43.657436591725386 ], [ 1.22026, 43.658104 ], [ 1.220598, 43.65844 ], [ 1.221289, 43.65887 ], [ 1.221633, 43.658994 ] ] ], [ [ [ 1.225636, 43.641348 ], [ 1.22301, 43.643157 ], [ 1.220998782862305, 43.644562689397326 ], [ 1.220999, 43.644563 ], [ 1.223579, 43.643174 ], [ 1.22361, 43.64315 ], [ 1.225636, 43.641348 ] ] ] ] } },
{ "type": "Feature", "properties": { "codgeo": "31417", "value": 720, "isochrone_group": 12.0, "nb_agences": 2 }, "geometry": { "type": "MultiPolygon", "coordinates": [ [ [ [ 1.220793, 43.607461 ], [ 1.22072606951574, 43.607488712747582 ], [ 1.220798317053777, 43.607464829813722 ], [ 1.220793, 43.607461 ] ] ], [ [ [ 1.22513, 43.628149 ], [ 1.22522, 43.628261 ], [ 1.225582, 43.628726 ], [ 1.225609536667854, 43.629058688771408 ], [ 1.226124, 43.627319 ], [ 1.226597659738978, 43.626179402806223 ], [ 1.225448465733254, 43.624871077702707 ], [ 1.22513, 43.628149 ] ] ], [ [ [ 1.205622, 43.645602 ], [ 1.20628, 43.645613 ], [ 1.206766, 43.64574 ], [ 1.215484, 43.644028 ], [ 1.207142, 43.644773 ], [ 1.204369, 43.643045 ], [ 1.203752, 43.643319 ], [ 1.20303, 43.644229 ], [ 1.199522671277761, 43.646524670730258 ], [ 1.205622, 43.645602 ] ] ], [ [ [ 1.192014670249584, 43.647912100363762 ], [ 1.196725831741306, 43.647040200571105 ], [ 1.192808, 43.643823 ], [ 1.192807476767989, 43.643822913383886 ], [ 1.19268, 43.644567 ], [ 1.192472, 43.64596 ], [ 1.192055, 43.647748 ], [ 1.192014670249584, 43.647912100363762 ] ] ], [ [ [ 1.187731135779553, 43.646002448675951 ], [ 1.186501, 43.648235 ], [ 1.187745, 43.651613 ], [ 1.188418, 43.653698 ], [ 1.188531, 43.654077 ], [ 1.190285, 43.660144 ], [ 1.189864, 43.6656 ], [ 1.189281, 43.667749 ], [ 1.189269, 43.667963 ], [ 1.190412, 43.66975 ], [ 1.190477, 43.669782 ], [ 1.190626, 43.669851 ], [ 1.196806, 43.669809 ], [ 1.197196, 43.669566 ], [ 1.197704, 43.666879 ], [ 1.197396, 43.662961 ], [ 1.200057, 43.657242 ], [ 1.1996, 43.657642 ], [ 1.195803, 43.662806 ], [ 1.194718, 43.66383 ], [ 1.192783, 43.663804 ], [ 1.192635, 43.663707 ], [ 1.191805, 43.661714 ], [ 1.192087, 43.66127 ], [ 1.193183, 43.6575 ], [ 1.189977, 43.651541 ], [ 1.190013243821458, 43.651421402332446 ], [ 1.189969, 43.651441 ], [ 1.189324, 43.651492 ], [ 1.188712, 43.650852 ], [ 1.188105, 43.64902 ], [ 1.188297, 43.647735 ], [ 1.187731135779553, 43.646002448675951 ] ] ], [ [ [ 1.228293, 43.656246 ], [ 1.227608, 43.656201 ], [ 1.221416, 43.653632 ], [ 1.225969, 43.65623 ], [ 1.225839, 43.659828 ], [ 1.225461, 43.659814 ], [ 1.225068, 43.659778 ], [ 1.22465, 43.659706 ], [ 1.222061, 43.659109 ], [ 1.221633, 43.658994 ], [ 1.225922, 43.66096 ], [ 1.229463, 43.66161 ], [ 1.23101, 43.657443 ], [ 1.230131, 43.656858 ], [ 1.229095, 43.656416 ], [ 1.228293, 43.656246 ] ] ], [ [ [ 1.220544, 43.652485 ], [ 1.220346747632221, 43.646129375006993 ], [ 1.222450306186947, 43.643781657250528 ], [ 1.220999, 43.644563 ], [ 1.220998782862305, 43.644562689397326 ], [ 1.220313, 43.645042 ], [ 1.220544, 43.652485 ] ] ], [ [ [ 1.247332778108142, 43.636609779509826 ], [ 1.24458, 43.638151 ], [ 1.245061, 43.638257 ], [ 1.246024, 43.638374 ], [ 1.246355, 43.63839 ], [ 1.246837, 43.638362 ], [ 1.247324, 43.638273 ], [ 1.247332778108142, 43.636609779509826 ] ] ], [ [ [ 1.255886, 43.637683 ], [ 1.261455, 43.644642 ], [ 1.260496, 43.642118 ], [ 1.255886, 43.637683 ] ] ] ] } },
{ "type": "Feature", "properties": { "codgeo": "31417", "value": 780, "isochrone_group": 13.0, "nb_agences": 2 }, "geometry": { "type": "MultiPolygon", "coordinates": [ [ [ [ 1.212885, 43.610527 ], [ 1.215353, 43.609765 ], [ 1.216748, 43.609099 ], [ 1.214817, 43.609812 ], [ 1.211625684480633, 43.61092829596987 ], [ 1.211664, 43.610977 ], [ 1.212885, 43.610527 ] ] ], [ [ [ 1.22376, 43.627069 ], [ 1.224942, 43.628057 ], [ 1.225582, 43.628726 ], [ 1.22522, 43.628261 ], [ 1.22513, 43.628149 ], [ 1.225371072856622, 43.62566767152579 ], [ 1.224047844331059, 43.625077564365895 ], [ 1.22376, 43.627069 ] ] ], [ [ [ 1.20303, 43.644229 ], [ 1.203752, 43.643319 ], [ 1.204369, 43.643045 ], [ 1.207142, 43.644773 ], [ 1.215484, 43.644028 ], [ 1.207335, 43.644055 ], [ 1.20613, 43.642047 ], [ 1.204606, 43.641483 ], [ 1.203903, 43.641243 ], [ 1.202837690426646, 43.644354873419253 ], [ 1.20303, 43.644229 ] ] ], [ [ [ 1.197617, 43.647772 ], [ 1.19615901135843, 43.646499728798879 ], [ 1.196287987565105, 43.64668065666347 ], [ 1.197617, 43.647772 ] ] ], [ [ [ 1.189662, 43.673742 ], [ 1.189921, 43.673485 ], [ 1.196938, 43.67073 ], [ 1.200984, 43.673601 ], [ 1.200989, 43.673605 ], [ 1.202745478479993, 43.673511203568161 ], [ 1.202746, 43.673499 ], [ 1.203246124723727, 43.673279016596332 ], [ 1.203032, 43.670641 ], [ 1.203027, 43.670638 ], [ 1.19902, 43.665591 ], [ 1.200057, 43.657242 ], [ 1.197396, 43.662961 ], [ 1.197704, 43.666879 ], [ 1.197196, 43.669566 ], [ 1.196806, 43.669809 ], [ 1.190626, 43.669851 ], [ 1.190477, 43.669782 ], [ 1.190412, 43.66975 ], [ 1.189269, 43.667963 ], [ 1.189281, 43.667749 ], [ 1.189864, 43.6656 ], [ 1.190285, 43.660144 ], [ 1.188999428699227, 43.655697271903207 ], [ 1.187513688438933, 43.65629930820436 ], [ 1.18701, 43.660574 ], [ 1.18692, 43.660777 ], [ 1.184269, 43.66586 ], [ 1.183652, 43.669407 ], [ 1.189662, 43.673742 ] ] ], [ [ [ 1.209104, 43.652602 ], [ 1.207007, 43.652252 ], [ 1.205912681788369, 43.652956995083812 ], [ 1.209595, 43.652709 ], [ 1.209104, 43.652602 ] ] ], [ [ [ 1.230131, 43.656858 ], [ 1.23101, 43.657443 ], [ 1.229463, 43.66161 ], [ 1.225922, 43.66096 ], [ 1.221633, 43.658994 ], [ 1.221289, 43.65887 ], [ 1.220598, 43.65844 ], [ 1.225184, 43.664906 ], [ 1.228732, 43.665514 ], [ 1.23235, 43.661956 ], [ 1.233621, 43.658587 ], [ 1.232333, 43.657952 ], [ 1.230131, 43.656858 ] ] ], [ [ [ 1.255886, 43.637683 ], [ 1.25985978898211, 43.642793465838892 ], [ 1.259922452982163, 43.64272693541082 ], [ 1.255886, 43.637683 ] ] ] ] } },
{ "type": "Feature", "properties": { "codgeo": "31417", "value": 840, "isochrone_group": 14.0, "nb_agences": 2 }, "geometry": { "type": "MultiPolygon", "coordinates": [ [ [ [ 1.092587467155985, 43.598116671532559 ], [ 1.09013, 43.598364 ], [ 1.090130070536742, 43.598364697963021 ], [ 1.092587467155985, 43.598116671532559 ] ] ], [ [ [ 1.111951, 43.599471 ], [ 1.108565247549252, 43.601417823238769 ], [ 1.109553, 43.601594 ], [ 1.109855, 43.601327 ], [ 1.112637706586825, 43.599853802395209 ], [ 1.111951, 43.599471 ] ] ], [ [ [ 1.127076, 43.596836 ], [ 1.127263766771748, 43.596618627842645 ], [ 1.12448, 43.595648 ], [ 1.123019575582609, 43.596855001294102 ], [ 1.127076, 43.596836 ] ] ], [ [ [ 1.189059, 43.679106 ], [ 1.190605, 43.678774 ], [ 1.191233, 43.678563 ], [ 1.191687, 43.678354 ], [ 1.193439, 43.67702 ], [ 1.200405628756286, 43.675524532866071 ], [ 1.200584, 43.674359 ], [ 1.199405, 43.672616 ], [ 1.197156176154685, 43.670884815556128 ], [ 1.196981016264407, 43.670760523898949 ], [ 1.196939, 43.670735 ], [ 1.196938412473358, 43.670730292686862 ], [ 1.196938, 43.67073 ], [ 1.189921, 43.673485 ], [ 1.189662, 43.673742 ], [ 1.183652, 43.669407 ], [ 1.184269, 43.66586 ], [ 1.185783156394361, 43.662956772179335 ], [ 1.183967, 43.662145 ], [ 1.181394, 43.659703 ], [ 1.179222027265339, 43.659107970502284 ], [ 1.17571, 43.663 ], [ 1.174167, 43.665546 ], [ 1.173893, 43.666817 ], [ 1.174336, 43.669142 ], [ 1.17594, 43.669778 ], [ 1.17879, 43.676969 ], [ 1.178864, 43.677052 ], [ 1.180592, 43.677527 ], [ 1.189059, 43.679106 ] ] ], [ [ [ 1.200408, 43.660309 ], [ 1.20051082789637, 43.656550931410052 ], [ 1.200465, 43.656577 ], [ 1.200423205385553, 43.656595330971257 ], [ 1.200057, 43.657242 ], [ 1.19902, 43.665591 ], [ 1.200789136805458, 43.667819308823837 ], [ 1.204405, 43.668126 ], [ 1.206355, 43.671152 ], [ 1.208421693017687, 43.672655510958549 ], [ 1.207345, 43.670044 ], [ 1.204392, 43.667985 ], [ 1.20236, 43.66596 ], [ 1.200408, 43.660309 ] ] ], [ [ [ 1.225104226555417, 43.664793523965834 ], [ 1.224277739740662, 43.667705398903394 ], [ 1.224811, 43.666938 ], [ 1.225392, 43.666319 ], [ 1.22548, 43.666244 ], [ 1.22714692704659, 43.665242375322528 ], [ 1.225184, 43.664906 ], [ 1.225104226555417, 43.664793523965834 ] ] ], [ [ [ 1.23235, 43.661956 ], [ 1.231931873912747, 43.662367191989631 ], [ 1.232518, 43.662015 ], [ 1.233532636104741, 43.6588212234171 ], [ 1.23235, 43.661956 ] ] ], [ [ [ 1.234195944011123, 43.658777435938205 ], [ 1.232333, 43.657952 ], [ 1.233621, 43.658587 ], [ 1.233620621731916, 43.658588002663386 ], [ 1.234081, 43.658734 ], [ 1.234195944011123, 43.658777435938205 ] ] ], [ [ [ 1.23461484914037, 43.658935735071196 ], [ 1.235293, 43.659192 ], [ 1.23621384182896, 43.659494409512988 ], [ 1.236214, 43.659494 ], [ 1.235706, 43.659297 ], [ 1.23461484914037, 43.658935735071196 ] ] ], [ [ [ 1.259479222220026, 43.648176888889139 ], [ 1.258576758497678, 43.648279784857486 ], [ 1.258577, 43.64828 ], [ 1.259479222220026, 43.648176888889139 ] ] ], [ [ [ 1.257264956239209, 43.642943221498101 ], [ 1.258030437604603, 43.640440840230404 ], [ 1.255886, 43.637683 ], [ 1.257264956239209, 43.642943221498101 ] ] ] ] } },
{ "type": "Feature", "properties": { "codgeo": "31417", "value": 900, "isochrone_group": 15.0, "nb_agences": 2 }, "geometry": { "type": "MultiPolygon", "coordinates": [ [ [ [ 1.173658, 43.682638 ], [ 1.174591, 43.682253 ], [ 1.174989, 43.682067 ], [ 1.176402, 43.681385 ], [ 1.18448, 43.681107 ], [ 1.190572, 43.681699 ], [ 1.190773164456788, 43.681829965741457 ], [ 1.190716, 43.681433 ], [ 1.190182361862603, 43.678864760583181 ], [ 1.189059, 43.679106 ], [ 1.180592, 43.677527 ], [ 1.178864, 43.677052 ], [ 1.17879, 43.676969 ], [ 1.17594, 43.669778 ], [ 1.174336, 43.669142 ], [ 1.173893, 43.666817 ], [ 1.174167, 43.665546 ], [ 1.17571, 43.663 ], [ 1.177210827722641, 43.661336782340747 ], [ 1.172763, 43.65885 ], [ 1.171409, 43.660251 ], [ 1.17122, 43.660339 ], [ 1.16939447437865, 43.658091014838433 ], [ 1.167891, 43.659783 ], [ 1.166768, 43.660005 ], [ 1.166607, 43.6601 ], [ 1.162295, 43.666936 ], [ 1.161151, 43.667614 ], [ 1.162985, 43.670711 ], [ 1.171455, 43.67197 ], [ 1.172285, 43.67931 ], [ 1.173658, 43.682638 ] ] ], [ [ [ 1.200514, 43.656435 ], [ 1.200408, 43.660309 ], [ 1.202112870895519, 43.66524456630664 ], [ 1.206652, 43.664691 ], [ 1.20705, 43.664438 ], [ 1.207274, 43.664479 ], [ 1.207441, 43.664512 ], [ 1.207968, 43.66468 ], [ 1.209045, 43.665113 ], [ 1.209564, 43.665787 ], [ 1.208981, 43.667476 ], [ 1.208155, 43.669921 ], [ 1.210162490180084, 43.671225249465721 ], [ 1.209339, 43.668654 ], [ 1.209599, 43.667203 ], [ 1.209679, 43.665937 ], [ 1.208694, 43.663718 ], [ 1.201953, 43.659718 ], [ 1.202964704766727, 43.654856176953764 ], [ 1.207002062426823, 43.652255180943882 ], [ 1.200514, 43.656435 ] ] ], [ [ [ 1.221633, 43.658994 ], [ 1.221289, 43.65887 ], [ 1.220598, 43.65844 ], [ 1.223683, 43.665661 ], [ 1.223669, 43.665777 ], [ 1.223326093064167, 43.666835452622742 ], [ 1.22409, 43.666013 ], [ 1.224519, 43.665307 ], [ 1.225137078768012, 43.663622170667281 ], [ 1.221633, 43.658994 ] ] ], [ [ [ 1.234195944011123, 43.658777435938205 ], [ 1.232333, 43.657952 ], [ 1.234195944011119, 43.658777435938205 ], [ 1.234195944011123, 43.658777435938205 ] ] ], [ [ [ 1.229095, 43.656416 ], [ 1.230131, 43.656858 ], [ 1.229735488322606, 43.656689258531451 ], [ 1.229731, 43.656658 ], [ 1.229095, 43.656416 ] ] ], [ [ [ 1.209327931664915, 43.652650799772211 ], [ 1.209595, 43.652709 ], [ 1.209327931664934, 43.652650799772211 ], [ 1.209327931664915, 43.652650799772211 ] ] ], [ [ [ 1.236429932901149, 43.659798017542791 ], [ 1.236824413376785, 43.66041075319788 ], [ 1.236919428990131, 43.660136786684717 ], [ 1.236429932901149, 43.659798017542791 ] ] ], [ [ [ 1.239377993935497, 43.661888422918715 ], [ 1.239379, 43.661839 ], [ 1.239359917739065, 43.661825793599952 ], [ 1.239377993935497, 43.661888422918715 ] ] ], [ [ [ 1.255110987974003, 43.644411673329429 ], [ 1.256673, 43.644239 ], [ 1.257320057642861, 43.643153413511314 ], [ 1.255918551386422, 43.63780717181762 ], [ 1.254869876640782, 43.637862197149779 ], [ 1.255110987974003, 43.644411673329429 ] ] ], [ [ [ 1.268071, 43.667055 ], [ 1.268378, 43.666184 ], [ 1.271145060028317, 43.661446713471491 ], [ 1.269185577908695, 43.657282745759204 ], [ 1.269185577908694, 43.657282745759204 ], [ 1.271113535833495, 43.661379723460165 ], [ 1.268484, 43.665517 ], [ 1.263393, 43.66873 ], [ 1.259865, 43.670374 ], [ 1.260291, 43.670371 ], [ 1.268071, 43.667055 ] ] ] ] } },
{ "type": "Feature", "properties": { "codgeo": "31417", "value": 960, "isochrone_group": 16.0, "nb_agences": 2 }, "geometry": { "type": "MultiPolygon", "coordinates": [ [ [ [ 1.117492261032349, 43.585313926482293 ], [ 1.117781570044064, 43.586465884371563 ], [ 1.118131, 43.58559 ], [ 1.117492261032349, 43.585313926482293 ] ] ], [ [ [ 1.116383036851844, 43.589971460654795 ], [ 1.111594, 43.593478 ], [ 1.114878, 43.593744 ], [ 1.116383036851844, 43.589971460654795 ] ] ], [ [ [ 1.153858, 43.674473 ], [ 1.157483, 43.673279 ], [ 1.159027, 43.672912 ], [ 1.166729, 43.675121 ], [ 1.169139, 43.681383 ], [ 1.168743, 43.683899 ], [ 1.169269, 43.687202 ], [ 1.172731, 43.688188 ], [ 1.173032, 43.687131 ], [ 1.173119, 43.686511 ], [ 1.176402, 43.681385 ], [ 1.174989, 43.682067 ], [ 1.174591, 43.682253 ], [ 1.173658, 43.682638 ], [ 1.172285, 43.67931 ], [ 1.171455, 43.67197 ], [ 1.162985, 43.670711 ], [ 1.161151, 43.667614 ], [ 1.162295, 43.666936 ], [ 1.16514648577256, 43.662415416340153 ], [ 1.165057, 43.662428 ], [ 1.162728, 43.662235 ], [ 1.159651803271665, 43.661737343217446 ], [ 1.160871, 43.666693 ], [ 1.155276, 43.669075 ], [ 1.154153, 43.668953 ], [ 1.153544, 43.668968 ], [ 1.153006, 43.669052 ], [ 1.152388, 43.669211 ], [ 1.150798, 43.669601 ], [ 1.151387, 43.673153 ], [ 1.153858, 43.674473 ] ] ], [ [ [ 1.186907, 43.68371 ], [ 1.185967319148228, 43.681251532655224 ], [ 1.18448, 43.681107 ], [ 1.181755555852934, 43.681200760271466 ], [ 1.187429, 43.685247 ], [ 1.186907, 43.68371 ] ] ], [ [ [ 1.241345946654934, 43.668640562427974 ], [ 1.241486, 43.668596 ], [ 1.243142, 43.669069 ], [ 1.243319, 43.669315 ], [ 1.249727, 43.674785 ], [ 1.253015, 43.673321 ], [ 1.257058, 43.671886 ], [ 1.259865, 43.670374 ], [ 1.263393, 43.66873 ], [ 1.268484, 43.665517 ], [ 1.271113535833495, 43.661379723460165 ], [ 1.269714645415673, 43.658407032627949 ], [ 1.265389, 43.65536 ], [ 1.26124, 43.647976 ], [ 1.261239935598742, 43.647975807463595 ], [ 1.259296, 43.648198 ], [ 1.258408, 43.647678 ], [ 1.258407987010599, 43.647677875294775 ], [ 1.257069, 43.647817 ], [ 1.255507, 43.64799 ], [ 1.255506975999021, 43.647989783142663 ], [ 1.254158, 43.648139 ], [ 1.251248, 43.648461 ], [ 1.250852, 43.644883 ], [ 1.245061, 43.638257 ], [ 1.24458, 43.638151 ], [ 1.242017, 43.637648 ], [ 1.241512, 43.637536 ], [ 1.240824, 43.637107 ], [ 1.235244662070268, 43.636180688809908 ], [ 1.231857111044985, 43.637063449883328 ], [ 1.230911, 43.637715 ], [ 1.230268619282495, 43.638157215080732 ], [ 1.230163, 43.63823 ], [ 1.230162964224971, 43.638229948054374 ], [ 1.229819270654401, 43.638466546812602 ], [ 1.228329, 43.639493 ], [ 1.228328742844849, 43.639492626608693 ], [ 1.228273, 43.639531 ], [ 1.225666, 43.641328 ], [ 1.223058, 43.643124 ], [ 1.22305796905001, 43.643123955060382 ], [ 1.22301, 43.643157 ], [ 1.220359408362914, 43.646537313615418 ], [ 1.220544, 43.652485 ], [ 1.221416, 43.653632 ], [ 1.227608, 43.656201 ], [ 1.228293, 43.656246 ], [ 1.228474872213341, 43.656284551466683 ], [ 1.228695, 43.656314 ], [ 1.228835042832741, 43.656360896859816 ], [ 1.229095, 43.656416 ], [ 1.229731, 43.656658 ], [ 1.229731442054925, 43.656661078652981 ], [ 1.229776, 43.656676 ], [ 1.230143707066165, 43.656864313138229 ], [ 1.232333, 43.657952 ], [ 1.234195944011123, 43.658777435938205 ], [ 1.23461484914037, 43.658935735071196 ], [ 1.235706, 43.659297 ], [ 1.235790228321431, 43.659355292511059 ], [ 1.23624, 43.659503 ], [ 1.236429932901151, 43.659798017542791 ], [ 1.239379, 43.661839 ], [ 1.239355, 43.663018 ], [ 1.238827136682593, 43.663007146461382 ], [ 1.239343, 43.6636 ], [ 1.240681, 43.666403 ], [ 1.241345946654934, 43.668640562427974 ] ] ], [ [ [ 1.201953, 43.659718 ], [ 1.208085393958982, 43.663356863052357 ], [ 1.212495, 43.661824 ], [ 1.212738, 43.661818 ], [ 1.213494, 43.662005 ], [ 1.21365, 43.662135 ], [ 1.214239, 43.663036 ], [ 1.220109, 43.669436 ], [ 1.223485826735998, 43.666342401866913 ], [ 1.223669, 43.665777 ], [ 1.223683, 43.665661 ], [ 1.220598, 43.65844 ], [ 1.22026, 43.658104 ], [ 1.21985701597602, 43.657563281378778 ], [ 1.219852, 43.657567 ], [ 1.218525, 43.655776 ], [ 1.217678, 43.654664 ], [ 1.209293, 43.65265 ], [ 1.207002062426823, 43.652255180943882 ], [ 1.202964704766727, 43.654856176953764 ], [ 1.201953, 43.659718 ] ] ] ] } },
{ "type": "Feature", "properties": { "codgeo": "31417", "value": 1020, "isochrone_group": 17.0, "nb_agences": 2 }, "geometry": { "type": "MultiPolygon", "coordinates": [ [ [ [ 1.114945, 43.585891 ], [ 1.109289, 43.592789 ], [ 1.109607235121868, 43.592848611766357 ], [ 1.109621, 43.592836 ], [ 1.109983, 43.592919 ], [ 1.111594, 43.593478 ], [ 1.116383036851844, 43.589971460654795 ], [ 1.117781570044064, 43.586465884371563 ], [ 1.117492261032349, 43.585313926482293 ], [ 1.114615654780983, 43.584070609811256 ], [ 1.114945, 43.585891 ] ] ], [ [ [ 1.04962, 43.601839 ], [ 1.05004, 43.601847 ], [ 1.052163, 43.601539 ], [ 1.049435, 43.601404 ], [ 1.048873, 43.601383 ], [ 1.048860722084199, 43.601720220924086 ], [ 1.04962, 43.601839 ] ] ], [ [ [ 1.136332, 43.602289 ], [ 1.132229536737674, 43.602781844802699 ], [ 1.137079, 43.604037 ], [ 1.137236, 43.611513 ], [ 1.137344579979508, 43.611957118111391 ], [ 1.140478, 43.611445 ], [ 1.141086, 43.61096 ], [ 1.143389, 43.609607 ], [ 1.143399480540478, 43.609597533705376 ], [ 1.144642, 43.608057 ], [ 1.139600737322223, 43.600893048754585 ], [ 1.136332, 43.602289 ] ] ], [ [ [ 1.151476, 43.677454 ], [ 1.152843, 43.677422 ], [ 1.153616, 43.67738 ], [ 1.15432, 43.677247 ], [ 1.160861, 43.677382 ], [ 1.164833, 43.677952 ], [ 1.168743, 43.683899 ], [ 1.169139, 43.681383 ], [ 1.166729, 43.675121 ], [ 1.159027, 43.672912 ], [ 1.157483, 43.673279 ], [ 1.153858, 43.674473 ], [ 1.151387, 43.673153 ], [ 1.150798, 43.669601 ], [ 1.152388, 43.669211 ], [ 1.153006, 43.669052 ], [ 1.153544, 43.668968 ], [ 1.154153, 43.668953 ], [ 1.155276, 43.669075 ], [ 1.160871, 43.666693 ], [ 1.159445337055312, 43.660898122046937 ], [ 1.153523403192276, 43.661635593485549 ], [ 1.149093, 43.668104 ], [ 1.146881, 43.668457 ], [ 1.141493, 43.670035 ], [ 1.14093, 43.670001 ], [ 1.140465, 43.670035 ], [ 1.140135, 43.670093 ], [ 1.139373, 43.67027 ], [ 1.14019, 43.673776 ], [ 1.143981, 43.674365 ], [ 1.151476, 43.677454 ] ] ], [ [ [ 1.18197302961539, 43.68788292651336 ], [ 1.181974, 43.687874 ], [ 1.180984, 43.684412 ], [ 1.17767944692776, 43.681014985304813 ], [ 1.176402, 43.681385 ], [ 1.173119, 43.686511 ], [ 1.173032, 43.687131 ], [ 1.172731, 43.688188 ], [ 1.169269, 43.687202 ], [ 1.168743, 43.683899 ], [ 1.166569, 43.687192 ], [ 1.166157, 43.688647 ], [ 1.166112, 43.688806 ], [ 1.165561, 43.690648 ], [ 1.169251, 43.694721 ], [ 1.172803, 43.694132 ], [ 1.174687, 43.692833 ], [ 1.18197302961539, 43.68788292651336 ] ] ] ] } },
{ "type": "Feature", "properties": { "codgeo": "31417", "value": 1080, "isochrone_group": 18.0, "nb_agences": 2 }, "geometry": { "type": "MultiPolygon", "coordinates": [ [ [ [ 1.048860722084199, 43.601720220924086 ], [ 1.048871447621068, 43.601425637094657 ], [ 1.046443, 43.601342 ], [ 1.048860722084199, 43.601720220924086 ] ] ], [ [ [ 1.040783, 43.600777 ], [ 1.040781159675203, 43.600795947941805 ], [ 1.043933, 43.601156 ], [ 1.041791, 43.600875 ], [ 1.040783, 43.600777 ] ] ], [ [ [ 1.047861, 43.605945 ], [ 1.047867199392244, 43.605945218626303 ], [ 1.044099, 43.604788 ], [ 1.043292, 43.604699 ], [ 1.040472708977494, 43.604369793936804 ], [ 1.044497, 43.605415 ], [ 1.046217, 43.605796 ], [ 1.047861, 43.605945 ] ] ], [ [ [ 1.065228854944502, 43.595319067230498 ], [ 1.065239, 43.595399 ], [ 1.065355601516435, 43.595370847266317 ], [ 1.065228854944502, 43.595319067230498 ] ] ], [ [ [ 1.128826, 43.674675 ], [ 1.12901, 43.675171 ], [ 1.132883, 43.677085 ], [ 1.138614, 43.675948 ], [ 1.142578, 43.675624 ], [ 1.149609, 43.677502 ], [ 1.150035, 43.6777 ], [ 1.150948, 43.678093 ], [ 1.152484, 43.678868 ], [ 1.153093, 43.678636 ], [ 1.15493069870746, 43.677259604238749 ], [ 1.15432, 43.677247 ], [ 1.153616, 43.67738 ], [ 1.152843, 43.677422 ], [ 1.151476, 43.677454 ], [ 1.143981, 43.674365 ], [ 1.14019, 43.673776 ], [ 1.139373, 43.67027 ], [ 1.140135, 43.670093 ], [ 1.140465, 43.670035 ], [ 1.14093, 43.670001 ], [ 1.141493, 43.670035 ], [ 1.146881, 43.668457 ], [ 1.149093, 43.668104 ], [ 1.154056, 43.660858 ], [ 1.152128512508472, 43.658892437750673 ], [ 1.149162, 43.658695 ], [ 1.148527052006341, 43.659263621882019 ], [ 1.149999, 43.662076 ], [ 1.147727, 43.666343 ], [ 1.1402, 43.667924 ], [ 1.137926, 43.667103 ], [ 1.137405, 43.667484 ], [ 1.13014, 43.671092 ], [ 1.129627, 43.671178 ], [ 1.128769, 43.671332 ], [ 1.128258, 43.671651 ], [ 1.128826, 43.674675 ] ] ], [ [ [ 1.169317, 43.697209 ], [ 1.16944, 43.697638 ], [ 1.172181, 43.701709 ], [ 1.173333, 43.702401 ], [ 1.173943, 43.702649 ], [ 1.174054, 43.702632 ], [ 1.175581, 43.700526 ], [ 1.176658461411544, 43.698626399786285 ], [ 1.178502, 43.695155 ], [ 1.176205, 43.693254 ], [ 1.175308, 43.692965 ], [ 1.175536520122677, 43.692255842445384 ], [ 1.174687, 43.692833 ], [ 1.172803, 43.694132 ], [ 1.169251, 43.694721 ], [ 1.165561, 43.690648 ], [ 1.166112, 43.688806 ], [ 1.166157, 43.688647 ], [ 1.166569, 43.687192 ], [ 1.168743, 43.683899 ], [ 1.164833, 43.677952 ], [ 1.160861, 43.677382 ], [ 1.156498463813831, 43.677291961414902 ], [ 1.162476, 43.680332 ], [ 1.161574, 43.685061 ], [ 1.160858, 43.686115 ], [ 1.159963, 43.688281 ], [ 1.161349, 43.688974 ], [ 1.16327, 43.689935 ], [ 1.16387, 43.690154 ], [ 1.169317, 43.697209 ] ] ] ] } },
{ "type": "Feature", "properties": { "codgeo": "31417", "value": 1140, "isochrone_group": 19.0, "nb_agences": 2 }, "geometry": { "type": "MultiPolygon", "coordinates": [ [ [ [ 1.064682, 43.592258 ], [ 1.058057, 43.590748 ], [ 1.05985, 43.591957 ], [ 1.061863, 43.593314 ], [ 1.065103832184314, 43.592582199184179 ], [ 1.064682, 43.592258 ] ] ], [ [ [ 1.056383, 43.589626 ], [ 1.058057, 43.590748 ], [ 1.056095427078798, 43.589181712764585 ], [ 1.056383, 43.589626 ] ] ], [ [ [ 1.028434, 43.599756 ], [ 1.028983, 43.599796 ], [ 1.029482, 43.599862 ], [ 1.030743, 43.600082 ], [ 1.033636, 43.600583 ], [ 1.034604, 43.60064 ], [ 1.036723, 43.600659 ], [ 1.030433, 43.599697 ], [ 1.030378, 43.599689 ], [ 1.028434, 43.599756 ] ] ], [ [ [ 1.130468, 43.680493 ], [ 1.131996, 43.680135 ], [ 1.132489, 43.68 ], [ 1.133022, 43.679684 ], [ 1.1336, 43.678905 ], [ 1.137395702804682, 43.676189703701105 ], [ 1.132883, 43.677085 ], [ 1.12901, 43.675171 ], [ 1.128826, 43.674675 ], [ 1.12826662810101, 43.671696935523698 ], [ 1.128207, 43.671843 ], [ 1.126616, 43.673964 ], [ 1.125764, 43.673412 ], [ 1.124273, 43.67239 ], [ 1.123451, 43.671489 ], [ 1.123128, 43.669118 ], [ 1.122108693610299, 43.66811304041606 ], [ 1.118755, 43.67135 ], [ 1.117158, 43.671831 ], [ 1.116352, 43.672068 ], [ 1.117369, 43.675522 ], [ 1.118174, 43.675285 ], [ 1.118728, 43.675154 ], [ 1.119916, 43.674757 ], [ 1.127345, 43.679655 ], [ 1.127582, 43.680431 ], [ 1.127624, 43.680505 ], [ 1.130468, 43.680493 ] ] ], [ [ [ 1.159963, 43.688281 ], [ 1.160858, 43.686115 ], [ 1.161574, 43.685061 ], [ 1.162476, 43.680332 ], [ 1.155539, 43.676804 ], [ 1.153093, 43.678636 ], [ 1.152484, 43.678868 ], [ 1.150948, 43.678093 ], [ 1.150035, 43.6777 ], [ 1.149609, 43.677502 ], [ 1.142578, 43.675624 ], [ 1.140435576624535, 43.675799112304141 ], [ 1.144521, 43.678133 ], [ 1.145582, 43.681573 ], [ 1.152321, 43.683182 ], [ 1.154653, 43.686383 ], [ 1.155274, 43.686925 ], [ 1.155676, 43.687262 ], [ 1.161349, 43.688974 ], [ 1.159963, 43.688281 ] ] ], [ [ [ 1.16944, 43.697638 ], [ 1.169602198980016, 43.699845913802875 ], [ 1.170359, 43.699016 ], [ 1.170358687362726, 43.69900245686015 ], [ 1.16944, 43.697638 ] ] ], [ [ [ 1.149101651030949, 43.663761294036497 ], [ 1.146051, 43.661694 ], [ 1.144662, 43.662844 ], [ 1.144185, 43.663189 ], [ 1.139808, 43.667115 ], [ 1.139256302639082, 43.667583289563183 ], [ 1.1402, 43.667924 ], [ 1.147727, 43.666343 ], [ 1.149101651030949, 43.663761294036497 ] ] ], [ [ [ 1.128294744601483, 43.671628061589288 ], [ 1.128769, 43.671332 ], [ 1.129627, 43.671178 ], [ 1.13014, 43.671092 ], [ 1.131475120533633, 43.67042894220436 ], [ 1.128574, 43.670944 ], [ 1.128294744601483, 43.671628061589288 ] ] ] ] } },
{ "type": "Feature", "properties": { "codgeo": "31417", "value": 1200, "isochrone_group": 20.0, "nb_agences": 2 }, "geometry": { "type": "MultiPolygon", "coordinates": [ [ [ [ 1.053362, 43.591763 ], [ 1.052529, 43.590922 ], [ 1.051167, 43.589616 ], [ 1.047854, 43.586398 ], [ 1.046328, 43.584911 ], [ 1.045894, 43.584498 ], [ 1.044823, 43.583572 ], [ 1.047192, 43.586872 ], [ 1.048729, 43.590128 ], [ 1.053362, 43.591763 ] ] ], [ [ [ 1.054381, 43.586533 ], [ 1.056095427078798, 43.589181712764585 ], [ 1.058057, 43.590748 ], [ 1.06379986839969, 43.592056940571098 ], [ 1.065182091040208, 43.591159855356949 ], [ 1.061071, 43.589376 ], [ 1.05878, 43.586599 ], [ 1.054886069886781, 43.584630202960298 ], [ 1.054381, 43.586533 ] ] ], [ [ [ 1.044257726151781, 43.583042952891752 ], [ 1.044254, 43.583047 ], [ 1.044823, 43.583572 ], [ 1.044257726151781, 43.583042952891752 ] ] ], [ [ [ 1.041000762775504, 43.600821034411972 ], [ 1.041000762775504, 43.600821034411972 ], [ 1.03995, 43.600701 ], [ 1.041000762775504, 43.600821034411972 ] ] ], [ [ [ 1.029381, 43.597588 ], [ 1.024762433177231, 43.59946567754416 ], [ 1.025319, 43.600163 ], [ 1.027189, 43.599821 ], [ 1.027406447020483, 43.59980070945376 ], [ 1.027406, 43.599795 ], [ 1.027832, 43.599761 ], [ 1.028434, 43.599756 ], [ 1.030378, 43.599689 ], [ 1.030433, 43.599697 ], [ 1.036723, 43.600659 ], [ 1.029381, 43.597588 ] ] ], [ [ [ 1.13313, 43.685753 ], [ 1.134085, 43.686484 ], [ 1.136274, 43.683626 ], [ 1.138294809490968, 43.675546518187595 ], [ 1.1336, 43.678905 ], [ 1.133022, 43.679684 ], [ 1.132489, 43.68 ], [ 1.131996, 43.680135 ], [ 1.130468, 43.680493 ], [ 1.127624, 43.680505 ], [ 1.127582, 43.680431 ], [ 1.127345, 43.679655 ], [ 1.119916, 43.674757 ], [ 1.118728, 43.675154 ], [ 1.118174, 43.675285 ], [ 1.117369, 43.675522 ], [ 1.116631857383489, 43.673018469422395 ], [ 1.11281, 43.671483 ], [ 1.112887, 43.671184 ], [ 1.113027, 43.670807 ], [ 1.113633, 43.668408 ], [ 1.113447079976696, 43.667716395509188 ], [ 1.110412, 43.670906 ], [ 1.108578, 43.676141 ], [ 1.107985, 43.678703 ], [ 1.108056, 43.679368 ], [ 1.108346, 43.680139 ], [ 1.111929, 43.679788 ], [ 1.116833, 43.678701 ], [ 1.11712, 43.678291 ], [ 1.117372, 43.677847 ], [ 1.12622, 43.679304 ], [ 1.125639, 43.682857 ], [ 1.13313, 43.685753 ] ] ], [ [ [ 1.158001, 43.693521 ], [ 1.158457, 43.693558 ], [ 1.16005, 43.693669 ], [ 1.163784070869857, 43.692363084124196 ], [ 1.164093565824387, 43.690443564327353 ], [ 1.16387, 43.690154 ], [ 1.16327, 43.689935 ], [ 1.161349, 43.688974 ], [ 1.155676, 43.687262 ], [ 1.155274, 43.686925 ], [ 1.154653, 43.686383 ], [ 1.152321, 43.683182 ], [ 1.148528148984016, 43.682276420940084 ], [ 1.147977, 43.684711 ], [ 1.148452, 43.688279 ], [ 1.153486, 43.6918 ], [ 1.154001, 43.692159 ], [ 1.154404, 43.692327 ], [ 1.156841, 43.693201 ], [ 1.157278, 43.693367 ], [ 1.157617, 43.693458 ], [ 1.158001, 43.693521 ] ] ] ] } }
]
}
