{
"type": "FeatureCollection",
"name": "Credit_Agricole",
"crs": { "type": "name", "properties": { "name": "urn:ogc:def:crs:OGC:1.3:CRS84" } },
"features": [
{ "type": "Feature", "properties": { "codgeo": "11397", "value": 60, "isochrone_group": 1.0, "nb_agences": 1 }, "geometry": { "type": "Polygon", "coordinates": [ [ [ 2.44063, 43.210103 ], [ 2.440781, 43.210072 ], [ 2.441512, 43.209914 ], [ 2.441612, 43.209896 ], [ 2.442691, 43.21034 ], [ 2.442016, 43.210861 ], [ 2.441708, 43.211019 ], [ 2.440751, 43.21053 ], [ 2.440703, 43.210455 ], [ 2.44063, 43.210103 ] ] ] } },
{ "type": "Feature", "properties": { "codgeo": "11397", "value": 120, "isochrone_group": 2.0, "nb_agences": 1 }, "geometry": { "type": "Polygon", "coordinates": [ [ [ 2.438119, 43.20773 ], [ 2.440015, 43.211511 ], [ 2.440452, 43.211737 ], [ 2.440593, 43.211804 ], [ 2.440777, 43.211891 ], [ 2.44217, 43.211317 ], [ 2.442743, 43.210556 ], [ 2.443154, 43.209845 ], [ 2.443195, 43.209722 ], [ 2.443118, 43.20937 ], [ 2.442953, 43.209077 ], [ 2.439908, 43.207569 ], [ 2.438276, 43.207406 ], [ 2.438119, 43.20773 ] ], [ [ 2.440781, 43.210072 ], [ 2.441512, 43.209914 ], [ 2.441612, 43.209896 ], [ 2.442691, 43.21034 ], [ 2.442016, 43.210861 ], [ 2.441708, 43.211019 ], [ 2.440751, 43.21053 ], [ 2.440703, 43.210455 ], [ 2.44063, 43.210103 ], [ 2.440781, 43.210072 ] ] ] } },
{ "type": "Feature", "properties": { "codgeo": "11397", "value": 180, "isochrone_group": 3.0, "nb_agences": 1 }, "geometry": { "type": "Polygon", "coordinates": [ [ [ 2.431292, 43.206326 ], [ 2.434233, 43.213812 ], [ 2.43454, 43.214001 ], [ 2.439805, 43.214657 ], [ 2.439996, 43.214633 ], [ 2.440248, 43.214591 ], [ 2.440408, 43.214486 ], [ 2.444998, 43.211153 ], [ 2.447825, 43.208918 ], [ 2.44763, 43.208616 ], [ 2.443041, 43.204637 ], [ 2.442692, 43.204548 ], [ 2.439052, 43.204343 ], [ 2.431509, 43.205916 ], [ 2.431221, 43.205973 ], [ 2.431292, 43.206326 ] ], [ [ 2.439908, 43.207569 ], [ 2.442953, 43.209077 ], [ 2.443118, 43.20937 ], [ 2.443195, 43.209722 ], [ 2.443154, 43.209845 ], [ 2.442743, 43.210556 ], [ 2.44217, 43.211317 ], [ 2.440777, 43.211891 ], [ 2.440593, 43.211804 ], [ 2.440452, 43.211737 ], [ 2.440015, 43.211511 ], [ 2.438119, 43.20773 ], [ 2.438276, 43.207406 ], [ 2.439908, 43.207569 ] ] ] } },
{ "type": "Feature", "properties": { "codgeo": "11397", "value": 240, "isochrone_group": 4.0, "nb_agences": 1 }, "geometry": { "type": "Polygon", "coordinates": [ [ [ 2.420491, 43.206261 ], [ 2.420737, 43.206283 ], [ 2.420984, 43.206304 ], [ 2.421333, 43.206313 ], [ 2.421654, 43.206301 ], [ 2.421964, 43.206289 ], [ 2.424168, 43.206517 ], [ 2.424351, 43.206503 ], [ 2.426992, 43.206486 ], [ 2.431229, 43.21318 ], [ 2.428126, 43.218587 ], [ 2.428257, 43.218923 ], [ 2.428541, 43.219264 ], [ 2.428877, 43.219392 ], [ 2.43136, 43.217909 ], [ 2.436054, 43.215648 ], [ 2.440421, 43.215601 ], [ 2.445502, 43.216162 ], [ 2.447935, 43.215225 ], [ 2.448203, 43.214985 ], [ 2.449773, 43.213331 ], [ 2.456127, 43.207647 ], [ 2.456184, 43.207292 ], [ 2.45396, 43.206721 ], [ 2.453226, 43.206689 ], [ 2.447546, 43.204851 ], [ 2.44522, 43.201826 ], [ 2.443419, 43.201562 ], [ 2.443327, 43.201577 ], [ 2.438803, 43.202096 ], [ 2.434057, 43.201101 ], [ 2.433402, 43.201323 ], [ 2.432747, 43.201545 ], [ 2.432449, 43.201653 ], [ 2.432154, 43.20176 ], [ 2.424816, 43.204794 ], [ 2.420522, 43.205903 ], [ 2.420491, 43.206261 ] ], [ [ 2.431509, 43.205916 ], [ 2.439052, 43.204343 ], [ 2.442692, 43.204548 ], [ 2.443041, 43.204637 ], [ 2.44763, 43.208616 ], [ 2.447825, 43.208918 ], [ 2.444998, 43.211153 ], [ 2.440408, 43.214486 ], [ 2.440248, 43.214591 ], [ 2.439996, 43.214633 ], [ 2.439805, 43.214657 ], [ 2.43454, 43.214001 ], [ 2.434233, 43.213812 ], [ 2.431292, 43.206326 ], [ 2.431221, 43.205973 ], [ 2.431509, 43.205916 ] ] ] } },
{ "type": "Feature", "properties": { "codgeo": "11397", "value": 300, "isochrone_group": 5.0, "nb_agences": 1 }, "geometry": { "type": "Polygon", "coordinates": [ [ [ 2.419693, 43.209702 ], [ 2.420051, 43.209735 ], [ 2.422047, 43.208063 ], [ 2.428441, 43.213746 ], [ 2.424711, 43.219041 ], [ 2.423627, 43.219364 ], [ 2.423729, 43.219709 ], [ 2.425808, 43.222303 ], [ 2.428844, 43.22642 ], [ 2.436063, 43.224162 ], [ 2.436338, 43.22393 ], [ 2.440386, 43.219185 ], [ 2.446372, 43.219159 ], [ 2.450079, 43.221717 ], [ 2.455979, 43.220051 ], [ 2.456202, 43.219769 ], [ 2.453946, 43.212956 ], [ 2.456561, 43.209179 ], [ 2.459902, 43.207014 ], [ 2.461046, 43.206584 ], [ 2.461236, 43.206529 ], [ 2.461947, 43.206353 ], [ 2.462673, 43.206173 ], [ 2.462951, 43.206079 ], [ 2.463243, 43.205979 ], [ 2.463527, 43.205855 ], [ 2.463808, 43.205732 ], [ 2.464901, 43.205324 ], [ 2.465444, 43.205144 ], [ 2.465331, 43.204802 ], [ 2.463628, 43.204847 ], [ 2.463297, 43.204988 ], [ 2.457343, 43.205099 ], [ 2.457015, 43.197398 ], [ 2.456879, 43.197065 ], [ 2.453345, 43.197504 ], [ 2.452989, 43.197562 ], [ 2.447892, 43.199068 ], [ 2.443877, 43.196718 ], [ 2.44366, 43.196431 ], [ 2.438411, 43.197089 ], [ 2.432154, 43.20176 ], [ 2.427977, 43.202704 ], [ 2.423072, 43.202723 ], [ 2.421431, 43.203212 ], [ 2.413725, 43.204134 ], [ 2.413283249107451, 43.204108051881676 ], [ 2.413125, 43.205976 ], [ 2.411289, 43.206046 ], [ 2.411151839026598, 43.206059709225542 ], [ 2.415438, 43.206909 ], [ 2.419693, 43.209702 ] ], [ [ 2.432449, 43.201653 ], [ 2.432747, 43.201545 ], [ 2.433402, 43.201323 ], [ 2.434057, 43.201101 ], [ 2.438803, 43.202096 ], [ 2.443327, 43.201577 ], [ 2.443419, 43.201562 ], [ 2.44522, 43.201826 ], [ 2.447546, 43.204851 ], [ 2.453226, 43.206689 ], [ 2.45396, 43.206721 ], [ 2.456184, 43.207292 ], [ 2.456127, 43.207647 ], [ 2.449773, 43.213331 ], [ 2.448203, 43.214985 ], [ 2.447935, 43.215225 ], [ 2.445502, 43.216162 ], [ 2.440421, 43.215601 ], [ 2.436054, 43.215648 ], [ 2.43136, 43.217909 ], [ 2.428877, 43.219392 ], [ 2.428541, 43.219264 ], [ 2.428257, 43.218923 ], [ 2.428126, 43.218587 ], [ 2.431229, 43.21318 ], [ 2.426992, 43.206486 ], [ 2.424351, 43.206503 ], [ 2.424168, 43.206517 ], [ 2.421964, 43.206289 ], [ 2.421654, 43.206301 ], [ 2.421333, 43.206313 ], [ 2.420984, 43.206304 ], [ 2.420737, 43.206283 ], [ 2.420491, 43.206261 ], [ 2.420522, 43.205903 ], [ 2.424816, 43.204794 ], [ 2.432154, 43.20176 ], [ 2.432449, 43.201653 ] ] ] } },
{ "type": "Feature", "properties": { "codgeo": "11397", "value": 360, "isochrone_group": 6.0, "nb_agences": 1 }, "geometry": { "type": "MultiPolygon", "coordinates": [ [ [ [ 2.405112, 43.203195 ], [ 2.406750610825804, 43.202781805210847 ], [ 2.404506899637159, 43.202796125386712 ], [ 2.405112, 43.203195 ] ] ], [ [ [ 2.414679, 43.213035 ], [ 2.420964, 43.218448 ], [ 2.421631, 43.221986 ], [ 2.420486, 43.230396 ], [ 2.420471, 43.230494 ], [ 2.42149, 43.232293 ], [ 2.421584, 43.232331 ], [ 2.427813, 43.231285 ], [ 2.433713, 43.233452 ], [ 2.434775, 43.233674 ], [ 2.437343, 43.232027 ], [ 2.43794, 43.228477 ], [ 2.438284, 43.225853 ], [ 2.438434, 43.225152 ], [ 2.447352, 43.225705 ], [ 2.447443, 43.227311 ], [ 2.449048, 43.229466 ], [ 2.449181, 43.22948 ], [ 2.450287, 43.228972 ], [ 2.450763, 43.228703 ], [ 2.450902, 43.228372 ], [ 2.451109, 43.227849 ], [ 2.451406, 43.227123 ], [ 2.457929, 43.223929 ], [ 2.460334, 43.225122 ], [ 2.460874, 43.22551 ], [ 2.461503, 43.225854 ], [ 2.461871, 43.226082 ], [ 2.463768, 43.223022 ], [ 2.465779, 43.21507 ], [ 2.472456, 43.209576 ], [ 2.477498, 43.202741 ], [ 2.478823, 43.202321 ], [ 2.478018, 43.198812 ], [ 2.477309, 43.198974 ], [ 2.476635, 43.199187 ], [ 2.475986, 43.199474 ], [ 2.468729, 43.194522 ], [ 2.467494, 43.19114 ], [ 2.466155, 43.191533 ], [ 2.457522, 43.191744 ], [ 2.448864, 43.189648 ], [ 2.447797, 43.188993 ], [ 2.447004, 43.190219 ], [ 2.444919, 43.192267 ], [ 2.436791, 43.19383 ], [ 2.436666, 43.193804 ], [ 2.436375, 43.193742 ], [ 2.436171, 43.193722 ], [ 2.435434, 43.197139 ], [ 2.432228, 43.20001 ], [ 2.42658, 43.199508 ], [ 2.426279, 43.199447 ], [ 2.418094, 43.199202 ], [ 2.417579557824369, 43.199452573075654 ], [ 2.418055, 43.199448 ], [ 2.421202, 43.201197 ], [ 2.424387274793548, 43.202717905153705 ], [ 2.427977, 43.202704 ], [ 2.432154, 43.20176 ], [ 2.438411, 43.197089 ], [ 2.44366, 43.196431 ], [ 2.443877, 43.196718 ], [ 2.447892, 43.199068 ], [ 2.452989, 43.197562 ], [ 2.453345, 43.197504 ], [ 2.456879, 43.197065 ], [ 2.457015, 43.197398 ], [ 2.457343, 43.205099 ], [ 2.463297, 43.204988 ], [ 2.463628, 43.204847 ], [ 2.465331, 43.204802 ], [ 2.465444, 43.205144 ], [ 2.464901, 43.205324 ], [ 2.463808, 43.205732 ], [ 2.463527, 43.205855 ], [ 2.463243, 43.205979 ], [ 2.462951, 43.206079 ], [ 2.462673, 43.206173 ], [ 2.461947, 43.206353 ], [ 2.461236, 43.206529 ], [ 2.461046, 43.206584 ], [ 2.459902, 43.207014 ], [ 2.456561, 43.209179 ], [ 2.453946, 43.212956 ], [ 2.456202, 43.219769 ], [ 2.455979, 43.220051 ], [ 2.450079, 43.221717 ], [ 2.446372, 43.219159 ], [ 2.440386, 43.219185 ], [ 2.436338, 43.22393 ], [ 2.436063, 43.224162 ], [ 2.428844, 43.22642 ], [ 2.425808, 43.222303 ], [ 2.423729, 43.219709 ], [ 2.423627, 43.219364 ], [ 2.424711, 43.219041 ], [ 2.428441, 43.213746 ], [ 2.422047, 43.208063 ], [ 2.420051, 43.209735 ], [ 2.419693, 43.209702 ], [ 2.41574186748757, 43.207108459904298 ], [ 2.414647, 43.20737 ], [ 2.409965166975157, 43.210054037573464 ], [ 2.412418, 43.211567 ], [ 2.414679, 43.213035 ] ] ] ] } },
{ "type": "Feature", "properties": { "codgeo": "11397", "value": 420, "isochrone_group": 7.0, "nb_agences": 1 }, "geometry": { "type": "MultiPolygon", "coordinates": [ [ [ [ 2.418794, 43.192277 ], [ 2.418515, 43.192093 ], [ 2.416539, 43.195102 ], [ 2.413348617126067, 43.200518265740151 ], [ 2.413373, 43.200506 ], [ 2.416951, 43.195392 ], [ 2.418503, 43.193846 ], [ 2.41877, 43.193526 ], [ 2.41952862826266, 43.192890338932855 ], [ 2.419381, 43.192744 ], [ 2.418794, 43.192277 ] ] ], [ [ [ 2.418023, 43.221352 ], [ 2.417678, 43.22948 ], [ 2.417658, 43.229516 ], [ 2.417459, 43.230547 ], [ 2.417025, 43.232432 ], [ 2.420177, 43.234172 ], [ 2.421713, 43.234444 ], [ 2.422284, 43.234336 ], [ 2.425743, 43.234224 ], [ 2.430529, 43.239015 ], [ 2.432693, 43.241891 ], [ 2.433432, 43.241335 ], [ 2.434097, 43.240574 ], [ 2.435599, 43.238817 ], [ 2.443234, 43.234336 ], [ 2.443371, 43.234246 ], [ 2.443799, 43.233847 ], [ 2.446436, 43.232054 ], [ 2.453525, 43.230891 ], [ 2.459443, 43.228458 ], [ 2.46543, 43.23198 ], [ 2.465919, 43.232347 ], [ 2.466277, 43.232546 ], [ 2.467096, 43.232341 ], [ 2.467309, 43.232247 ], [ 2.468028, 43.229401 ], [ 2.46698, 43.227463 ], [ 2.466316, 43.22467 ], [ 2.464899, 43.221361 ], [ 2.471008, 43.216423 ], [ 2.472141, 43.216663 ], [ 2.472321, 43.216659 ], [ 2.473566, 43.216189 ], [ 2.474073, 43.214914 ], [ 2.474752, 43.21279 ], [ 2.47352219499438, 43.208130652362833 ], [ 2.472456, 43.209576 ], [ 2.465779, 43.21507 ], [ 2.463768, 43.223022 ], [ 2.461871, 43.226082 ], [ 2.461503, 43.225854 ], [ 2.460874, 43.22551 ], [ 2.460334, 43.225122 ], [ 2.457929, 43.223929 ], [ 2.451406, 43.227123 ], [ 2.451109, 43.227849 ], [ 2.450902, 43.228372 ], [ 2.450763, 43.228703 ], [ 2.450287, 43.228972 ], [ 2.449181, 43.22948 ], [ 2.449048, 43.229466 ], [ 2.447443, 43.227311 ], [ 2.447352, 43.225705 ], [ 2.438434, 43.225152 ], [ 2.438284, 43.225853 ], [ 2.43794, 43.228477 ], [ 2.437343, 43.232027 ], [ 2.434775, 43.233674 ], [ 2.433713, 43.233452 ], [ 2.427813, 43.231285 ], [ 2.421584, 43.232331 ], [ 2.42149, 43.232293 ], [ 2.420471, 43.230494 ], [ 2.420486, 43.230396 ], [ 2.421631, 43.221986 ], [ 2.420964, 43.218448 ], [ 2.415022106949489, 43.213330503248628 ], [ 2.412771, 43.216176 ], [ 2.411422029262206, 43.218067814178774 ], [ 2.413573, 43.21857 ], [ 2.418023, 43.221352 ] ] ], [ [ [ 2.480742, 43.202129 ], [ 2.481331, 43.202039 ], [ 2.481368, 43.202035 ], [ 2.483947, 43.201633 ], [ 2.486512, 43.20132 ], [ 2.487532, 43.201233 ], [ 2.490125, 43.201086 ], [ 2.491854, 43.201049 ], [ 2.49287, 43.201009 ], [ 2.492728, 43.197411 ], [ 2.491712, 43.197451 ], [ 2.489486, 43.197311 ], [ 2.487331, 43.197638 ], [ 2.483923, 43.196835 ], [ 2.483434, 43.189176 ], [ 2.482225, 43.185785 ], [ 2.480041, 43.186563 ], [ 2.479406, 43.186808 ], [ 2.477258, 43.187589 ], [ 2.475076, 43.188382 ], [ 2.469824, 43.189211 ], [ 2.469543, 43.189338 ], [ 2.468957, 43.189665 ], [ 2.461354, 43.191078 ], [ 2.456613, 43.185999 ], [ 2.456138, 43.184485 ], [ 2.455597, 43.182502 ], [ 2.453942, 43.180505 ], [ 2.453599, 43.180544 ], [ 2.45205, 43.181884 ], [ 2.44769, 43.186485 ], [ 2.445489, 43.188456 ], [ 2.437975, 43.192641 ], [ 2.431986, 43.19451 ], [ 2.425966, 43.198136 ], [ 2.421898, 43.195373 ], [ 2.419839, 43.193198 ], [ 2.420376, 43.194008 ], [ 2.421536, 43.195829 ], [ 2.423297845069546, 43.199357765674037 ], [ 2.426279, 43.199447 ], [ 2.42658, 43.199508 ], [ 2.432228, 43.20001 ], [ 2.435434, 43.197139 ], [ 2.436171, 43.193722 ], [ 2.436375, 43.193742 ], [ 2.436666, 43.193804 ], [ 2.436791, 43.19383 ], [ 2.444919, 43.192267 ], [ 2.447004, 43.190219 ], [ 2.447797, 43.188993 ], [ 2.448864, 43.189648 ], [ 2.457522, 43.191744 ], [ 2.466155, 43.191533 ], [ 2.467494, 43.19114 ], [ 2.468729, 43.194522 ], [ 2.475986, 43.199474 ], [ 2.476635, 43.199187 ], [ 2.477309, 43.198974 ], [ 2.478018, 43.198812 ], [ 2.478823, 43.202321 ], [ 2.478791223897412, 43.202331072424954 ], [ 2.480742, 43.202129 ] ] ] ] } },
{ "type": "Feature", "properties": { "codgeo": "11397", "value": 480, "isochrone_group": 8.0, "nb_agences": 1 }, "geometry": { "type": "MultiPolygon", "coordinates": [ [ [ [ 2.400021, 43.184948 ], [ 2.399261, 43.184839 ], [ 2.399109145269405, 43.185896051288758 ], [ 2.400991, 43.18511 ], [ 2.400991267286219, 43.185109915242144 ], [ 2.400938, 43.1851 ], [ 2.400021, 43.184948 ] ] ], [ [ [ 2.424408, 43.243176 ], [ 2.426438, 43.246149 ], [ 2.429213, 43.244672 ], [ 2.435563, 43.247325 ], [ 2.435938, 43.247756 ], [ 2.438655, 43.245394 ], [ 2.438396, 43.244644 ], [ 2.438043, 43.243578 ], [ 2.437937, 43.240815 ], [ 2.443806, 43.235147 ], [ 2.445778, 43.235559 ], [ 2.448512, 43.233217 ], [ 2.454632, 43.230926 ], [ 2.46053, 43.232328 ], [ 2.468341, 43.235379 ], [ 2.470538, 43.237413 ], [ 2.471073, 43.237961 ], [ 2.472053, 43.23907 ], [ 2.472594, 43.239067 ], [ 2.47438, 43.237695 ], [ 2.474393, 43.237566 ], [ 2.474375, 43.237067 ], [ 2.473597, 43.235383 ], [ 2.47266, 43.233776 ], [ 2.471227, 43.231941 ], [ 2.468722, 43.230022 ], [ 2.468646, 43.222606 ], [ 2.472733, 43.219149 ], [ 2.472941, 43.219077 ], [ 2.475478, 43.218635 ], [ 2.477689, 43.215894 ], [ 2.477902, 43.215625 ], [ 2.47792, 43.214184 ], [ 2.476627, 43.208477 ], [ 2.482085, 43.204836 ], [ 2.485178, 43.202993 ], [ 2.490125, 43.201086 ], [ 2.487532, 43.201233 ], [ 2.486512, 43.20132 ], [ 2.483947, 43.201633 ], [ 2.481368, 43.202035 ], [ 2.481331, 43.202039 ], [ 2.480742, 43.202129 ], [ 2.478734, 43.202337 ], [ 2.477498, 43.202741 ], [ 2.473479, 43.207967 ], [ 2.474752, 43.21279 ], [ 2.474073, 43.214914 ], [ 2.473566, 43.216189 ], [ 2.472321, 43.216659 ], [ 2.472141, 43.216663 ], [ 2.471008, 43.216423 ], [ 2.464899, 43.221361 ], [ 2.466316, 43.22467 ], [ 2.46698, 43.227463 ], [ 2.468028, 43.229401 ], [ 2.467309, 43.232247 ], [ 2.467096, 43.232341 ], [ 2.466277, 43.232546 ], [ 2.465919, 43.232347 ], [ 2.46543, 43.23198 ], [ 2.459443, 43.228458 ], [ 2.453525, 43.230891 ], [ 2.446436, 43.232054 ], [ 2.443799, 43.233847 ], [ 2.443371, 43.234246 ], [ 2.443234, 43.234336 ], [ 2.435599, 43.238817 ], [ 2.434097, 43.240574 ], [ 2.433432, 43.241335 ], [ 2.432693, 43.241891 ], [ 2.430529, 43.239015 ], [ 2.425743, 43.234224 ], [ 2.422284, 43.234336 ], [ 2.421713, 43.234444 ], [ 2.420177344567977, 43.234172061017269 ], [ 2.420168, 43.234189 ], [ 2.419838, 43.234622 ], [ 2.419462, 43.234932 ], [ 2.418580122177133, 43.236824860028669 ], [ 2.420534, 43.236378 ], [ 2.424408, 43.243176 ] ] ], [ [ [ 2.496215, 43.20413 ], [ 2.499588, 43.202872 ], [ 2.505879, 43.200719 ], [ 2.506228, 43.197136 ], [ 2.505608, 43.197075 ], [ 2.504182, 43.197095 ], [ 2.501042, 43.197167 ], [ 2.497386, 43.195034 ], [ 2.500374, 43.186983 ], [ 2.500098, 43.183393 ], [ 2.497854, 43.183566 ], [ 2.488946, 43.183733 ], [ 2.487837, 43.183741 ], [ 2.487121, 43.183895 ], [ 2.483289, 43.18547 ], [ 2.482228776824794, 43.185795593228178 ], [ 2.483434, 43.189176 ], [ 2.483923, 43.196835 ], [ 2.487331, 43.197638 ], [ 2.489486, 43.197311 ], [ 2.491712, 43.197451 ], [ 2.492728, 43.197411 ], [ 2.49287, 43.201009 ], [ 2.491854, 43.201049 ], [ 2.490125, 43.201086 ], [ 2.496215, 43.20413 ] ] ], [ [ [ 2.468488, 43.188753 ], [ 2.46248, 43.185443 ], [ 2.458226, 43.183157 ], [ 2.457067, 43.175566 ], [ 2.456894, 43.175103 ], [ 2.454726, 43.172785 ], [ 2.449787, 43.174852 ], [ 2.449576, 43.174961 ], [ 2.448408, 43.178178 ], [ 2.443767, 43.185843 ], [ 2.443608, 43.186079 ], [ 2.436297, 43.191168 ], [ 2.428667, 43.193447 ], [ 2.420991, 43.19191 ], [ 2.421446, 43.192166 ], [ 2.423986, 43.194167 ], [ 2.423860033831085, 43.196705620323307 ], [ 2.425966, 43.198136 ], [ 2.431986, 43.19451 ], [ 2.437975, 43.192641 ], [ 2.445489, 43.188456 ], [ 2.44769, 43.186485 ], [ 2.45205, 43.181884 ], [ 2.453599, 43.180544 ], [ 2.453942, 43.180505 ], [ 2.455597, 43.182502 ], [ 2.456138, 43.184485 ], [ 2.456613, 43.185999 ], [ 2.461354, 43.191078 ], [ 2.468957, 43.189665 ], [ 2.469543, 43.189338 ], [ 2.469824, 43.189211 ], [ 2.475076, 43.188382 ], [ 2.468488, 43.188753 ] ] ], [ [ [ 2.412016, 43.219713 ], [ 2.415190532536313, 43.219581230453031 ], [ 2.414637174597444, 43.219235288478679 ], [ 2.412016, 43.219713 ] ] ], [ [ [ 2.417871109401511, 43.224930454447865 ], [ 2.418023, 43.221352 ], [ 2.415541217615572, 43.219800467731815 ], [ 2.417871109401511, 43.224930454447865 ] ] ], [ [ [ 2.415606, 43.229487 ], [ 2.415239, 43.230093 ], [ 2.415141, 43.230306 ], [ 2.414781, 43.231166 ], [ 2.414665944275544, 43.232211961131426 ], [ 2.415742, 43.23195 ], [ 2.417145005020534, 43.231910780037538 ], [ 2.417459, 43.230547 ], [ 2.417658, 43.229516 ], [ 2.417678, 43.22948 ], [ 2.417788478350942, 43.226877194097263 ], [ 2.415606, 43.229487 ] ] ] ] } },
{ "type": "Feature", "properties": { "codgeo": "11397", "value": 540, "isochrone_group": 9.0, "nb_agences": 1 }, "geometry": { "type": "MultiPolygon", "coordinates": [ [ [ [ 2.437722, 43.250931 ], [ 2.439816, 43.251646 ], [ 2.441245, 43.251671 ], [ 2.441487, 43.251181 ], [ 2.441603, 43.248522 ], [ 2.44083, 43.246373 ], [ 2.441187, 43.242017 ], [ 2.447297, 43.237571 ], [ 2.449751, 43.236326 ], [ 2.454632, 43.230926 ], [ 2.448512, 43.233217 ], [ 2.445778, 43.235559 ], [ 2.443806, 43.235147 ], [ 2.437937, 43.240815 ], [ 2.438043, 43.243578 ], [ 2.438396, 43.244644 ], [ 2.438655, 43.245394 ], [ 2.435938, 43.247756 ], [ 2.435563, 43.247325 ], [ 2.429213, 43.244672 ], [ 2.428813975605088, 43.244884381632914 ], [ 2.428858461655996, 43.246849883571322 ], [ 2.430898, 43.246505 ], [ 2.437722, 43.250931 ] ] ], [ [ [ 2.458992, 43.233135 ], [ 2.459093, 43.233226 ], [ 2.461383, 43.233224 ], [ 2.464627212160887, 43.233928383344363 ], [ 2.46053, 43.232328 ], [ 2.454632, 43.230926 ], [ 2.458992, 43.233135 ] ] ], [ [ [ 2.467844, 43.240104 ], [ 2.470037, 43.242959 ], [ 2.474449, 43.245161 ], [ 2.478028, 43.247284 ], [ 2.478676, 43.247683 ], [ 2.480561, 43.244616 ], [ 2.477679, 43.237534 ], [ 2.477485, 43.237315 ], [ 2.475371, 43.234371 ], [ 2.474222, 43.23096 ], [ 2.468719655359354, 43.22979321243379 ], [ 2.468722, 43.230022 ], [ 2.471227, 43.231941 ], [ 2.47266, 43.233776 ], [ 2.473597, 43.235383 ], [ 2.474375, 43.237067 ], [ 2.474393, 43.237566 ], [ 2.47438, 43.237695 ], [ 2.472594, 43.239067 ], [ 2.472053, 43.23907 ], [ 2.471073, 43.237961 ], [ 2.470538, 43.237413 ], [ 2.468341, 43.235379 ], [ 2.467653223311429, 43.235110352365005 ], [ 2.467844, 43.240104 ] ] ], [ [ [ 2.472504, 43.220579 ], [ 2.473097, 43.220391 ], [ 2.475779, 43.22025 ], [ 2.478994, 43.219889 ], [ 2.479347, 43.219911 ], [ 2.479802, 43.21989 ], [ 2.480209, 43.219818 ], [ 2.480601, 43.219712 ], [ 2.482713, 43.217663 ], [ 2.482033, 43.214128 ], [ 2.48537, 43.206148 ], [ 2.490125, 43.201086 ], [ 2.485178, 43.202993 ], [ 2.482085, 43.204836 ], [ 2.476627, 43.208477 ], [ 2.47792, 43.214184 ], [ 2.477902, 43.215625 ], [ 2.477689, 43.215894 ], [ 2.475478, 43.218635 ], [ 2.472941, 43.219077 ], [ 2.472733, 43.219149 ], [ 2.468646, 43.222606 ], [ 2.468649315364507, 43.222929509778702 ], [ 2.472504, 43.220579 ] ] ], [ [ [ 2.494448, 43.206239 ], [ 2.501066, 43.209712 ], [ 2.502847, 43.210061 ], [ 2.503006, 43.210011 ], [ 2.504244, 43.209388 ], [ 2.506214, 43.206507 ], [ 2.514194, 43.204171 ], [ 2.516315, 43.204557 ], [ 2.518679, 43.204958 ], [ 2.519281, 43.201409 ], [ 2.516918, 43.201008 ], [ 2.514839, 43.200629 ], [ 2.51393, 43.200402 ], [ 2.513725, 43.200334 ], [ 2.513172, 43.200128 ], [ 2.512681, 43.199905 ], [ 2.511942, 43.199509 ], [ 2.511342, 43.199155 ], [ 2.510395, 43.198598 ], [ 2.509, 43.197857 ], [ 2.511037, 43.189311 ], [ 2.511435, 43.185733 ], [ 2.506604, 43.183232 ], [ 2.504145, 43.182244 ], [ 2.503853, 43.182257 ], [ 2.503802, 43.18226 ], [ 2.503383, 43.182292 ], [ 2.50128, 43.182985 ], [ 2.493257, 43.180229 ], [ 2.492052, 43.178502 ], [ 2.491767, 43.177937 ], [ 2.491643, 43.177927 ], [ 2.488027, 43.17915 ], [ 2.4876, 43.179442 ], [ 2.486134, 43.181187 ], [ 2.484792, 43.182546 ], [ 2.479406, 43.186808 ], [ 2.480041, 43.186563 ], [ 2.481993, 43.185868 ], [ 2.483289, 43.18547 ], [ 2.487121, 43.183895 ], [ 2.487837, 43.183741 ], [ 2.488946, 43.183733 ], [ 2.497854, 43.183566 ], [ 2.500098, 43.183393 ], [ 2.500374, 43.186983 ], [ 2.497386, 43.195034 ], [ 2.501042, 43.197167 ], [ 2.504182, 43.197095 ], [ 2.505608, 43.197075 ], [ 2.506228, 43.197136 ], [ 2.505879, 43.200719 ], [ 2.499588, 43.202872 ], [ 2.496215, 43.20413 ], [ 2.490125, 43.201086 ], [ 2.494448, 43.206239 ] ] ], [ [ [ 2.468161, 43.183916 ], [ 2.462901, 43.179848 ], [ 2.460241, 43.176255 ], [ 2.458811, 43.169747 ], [ 2.458515, 43.167514 ], [ 2.458323, 43.16618 ], [ 2.456239, 43.16629 ], [ 2.454796, 43.167866 ], [ 2.454495, 43.168223 ], [ 2.454299, 43.168513 ], [ 2.445958, 43.17186 ], [ 2.444168, 43.171357 ], [ 2.443842, 43.171261 ], [ 2.442596, 43.171086 ], [ 2.44174, 43.170921 ], [ 2.440038, 43.174093 ], [ 2.440403, 43.174289 ], [ 2.441633, 43.174569 ], [ 2.441964, 43.17463 ], [ 2.444358, 43.175928 ], [ 2.440942, 43.18394 ], [ 2.43347, 43.188914 ], [ 2.432025, 43.191239 ], [ 2.427175273091339, 43.193148304812574 ], [ 2.428667, 43.193447 ], [ 2.436297, 43.191168 ], [ 2.443608, 43.186079 ], [ 2.443767, 43.185843 ], [ 2.448408, 43.178178 ], [ 2.449576, 43.174961 ], [ 2.449787, 43.174852 ], [ 2.454726, 43.172785 ], [ 2.456894, 43.175103 ], [ 2.457067, 43.175566 ], [ 2.458226, 43.183157 ], [ 2.46248, 43.185443 ], [ 2.468488, 43.188753 ], [ 2.475076, 43.188382 ], [ 2.468161, 43.183916 ] ] ], [ [ [ 2.407014816008162, 43.221295161211302 ], [ 2.414611, 43.225709 ], [ 2.412564, 43.233427 ], [ 2.411494, 43.234385 ], [ 2.407538, 43.238988 ], [ 2.407357928143696, 43.239131101796403 ], [ 2.407754, 43.23885 ], [ 2.41192, 43.23422 ], [ 2.412638, 43.233338 ], [ 2.413765, 43.231526 ], [ 2.414069920566316, 43.231436039395142 ], [ 2.415203121594923, 43.230170980615092 ], [ 2.415239, 43.230093 ], [ 2.415606, 43.229487 ], [ 2.418415, 43.226128 ], [ 2.415437, 43.219571 ], [ 2.412016, 43.219713 ], [ 2.410417, 43.219972 ], [ 2.409041, 43.219749 ], [ 2.408907532964902, 43.219686124853588 ], [ 2.407014816008162, 43.221295161211302 ] ] ], [ [ [ 2.420032443926024, 43.238273380749995 ], [ 2.422221972322929, 43.239340012351903 ], [ 2.420682913779179, 43.236639310240299 ], [ 2.420032443926024, 43.238273380749995 ] ] ] ] } },
{ "type": "Feature", "properties": { "codgeo": "11397", "value": 600, "isochrone_group": 10.0, "nb_agences": 1 }, "geometry": { "type": "MultiPolygon", "coordinates": [ [ [ [ 2.440477, 43.256085 ], [ 2.440667, 43.256141 ], [ 2.441214, 43.256181 ], [ 2.442889, 43.254286 ], [ 2.443542, 43.252664 ], [ 2.443897, 43.250914 ], [ 2.444485, 43.245377 ], [ 2.449053, 43.240999 ], [ 2.448654, 43.238518 ], [ 2.448535, 43.238092 ], [ 2.450542400395852, 43.235450449469859 ], [ 2.449751, 43.236326 ], [ 2.447297, 43.237571 ], [ 2.441187, 43.242017 ], [ 2.44083, 43.246373 ], [ 2.441603, 43.248522 ], [ 2.441487, 43.251181 ], [ 2.441245, 43.251671 ], [ 2.439816, 43.251646 ], [ 2.437722, 43.250931 ], [ 2.435035341152095, 43.249188451339265 ], [ 2.435494, 43.250328 ], [ 2.436616, 43.250352 ], [ 2.436646, 43.251923 ], [ 2.436542, 43.253951 ], [ 2.436203359508136, 43.254267025891536 ], [ 2.439537, 43.2556 ], [ 2.440477, 43.256085 ] ] ], [ [ [ 2.45789, 43.233577 ], [ 2.458579, 43.234796 ], [ 2.460097, 43.235197 ], [ 2.463576, 43.242797 ], [ 2.464979, 43.246113 ], [ 2.467707, 43.244959 ], [ 2.474449, 43.245161 ], [ 2.470037, 43.242959 ], [ 2.467844, 43.240104 ], [ 2.467633, 43.234581 ], [ 2.461383, 43.233224 ], [ 2.459093, 43.233226 ], [ 2.458992, 43.233135 ], [ 2.454632, 43.230926 ], [ 2.45435171094636, 43.231236092376484 ], [ 2.45789, 43.233577 ] ] ], [ [ [ 2.479393, 43.250992 ], [ 2.487971, 43.253609 ], [ 2.4908, 43.251382 ], [ 2.488845, 43.247804 ], [ 2.488094, 43.246671 ], [ 2.484146, 43.242356 ], [ 2.478085, 43.235829 ], [ 2.477049, 43.233703 ], [ 2.476372, 43.233624 ], [ 2.47487064934029, 43.232885624803941 ], [ 2.475371, 43.234371 ], [ 2.477485, 43.237315 ], [ 2.477679, 43.237534 ], [ 2.480561, 43.244616 ], [ 2.478676, 43.247683 ], [ 2.478028, 43.247284 ], [ 2.474449, 43.245161 ], [ 2.479393, 43.250992 ] ] ], [ [ [ 2.473044, 43.223342 ], [ 2.476146, 43.222868 ], [ 2.481567, 43.222237 ], [ 2.483406, 43.220891 ], [ 2.484283, 43.220183 ], [ 2.489502, 43.216407 ], [ 2.494119, 43.216764 ], [ 2.495609, 43.216682 ], [ 2.495808, 43.216539 ], [ 2.5024, 43.213782 ], [ 2.505896, 43.213837 ], [ 2.509462, 43.21334 ], [ 2.510135, 43.213029 ], [ 2.509756, 43.209449 ], [ 2.515711, 43.204913 ], [ 2.516606, 43.205026 ], [ 2.519455, 43.205087 ], [ 2.52056, 43.205214 ], [ 2.521271, 43.205249 ], [ 2.522013, 43.205266 ], [ 2.522404, 43.20526 ], [ 2.524549, 43.2052 ], [ 2.525375, 43.205249 ], [ 2.530701, 43.206029 ], [ 2.532809, 43.205583 ], [ 2.533079, 43.203831 ], [ 2.533059, 43.203457 ], [ 2.532432, 43.202003 ], [ 2.53237, 43.202009 ], [ 2.530424, 43.202308 ], [ 2.52575, 43.201669 ], [ 2.525198, 43.201623 ], [ 2.524678, 43.201602 ], [ 2.522519, 43.201602 ], [ 2.522107, 43.20153 ], [ 2.520327, 43.20103 ], [ 2.51988, 43.200973 ], [ 2.519607, 43.200964 ], [ 2.516918, 43.201008 ], [ 2.519281, 43.201409 ], [ 2.518679, 43.204958 ], [ 2.516315, 43.204557 ], [ 2.514194, 43.204171 ], [ 2.506214, 43.206507 ], [ 2.504244, 43.209388 ], [ 2.503006, 43.210011 ], [ 2.502847, 43.210061 ], [ 2.501066, 43.209712 ], [ 2.494448, 43.206239 ], [ 2.490125, 43.201086 ], [ 2.48537, 43.206148 ], [ 2.482033, 43.214128 ], [ 2.482713, 43.217663 ], [ 2.480601, 43.219712 ], [ 2.480209, 43.219818 ], [ 2.479802, 43.21989 ], [ 2.479347, 43.219911 ], [ 2.478994, 43.219889 ], [ 2.475779, 43.22025 ], [ 2.473097, 43.220391 ], [ 2.472504, 43.220579 ], [ 2.467412, 43.223684 ], [ 2.468464, 43.229739 ], [ 2.472379038651491, 43.230569194892936 ], [ 2.473044, 43.223342 ] ] ], [ [ [ 2.511239, 43.189331 ], [ 2.512689, 43.189406 ], [ 2.514256, 43.189385 ], [ 2.515474, 43.189218 ], [ 2.519019, 43.188921 ], [ 2.520952, 43.188142 ], [ 2.52076, 43.186434 ], [ 2.520101, 43.184644 ], [ 2.518489, 43.184315 ], [ 2.518054, 43.18425 ], [ 2.509757, 43.181217 ], [ 2.508093, 43.180609 ], [ 2.507943, 43.180607 ], [ 2.50652, 43.181321 ], [ 2.503802, 43.18226 ], [ 2.503853, 43.182257 ], [ 2.504145, 43.182244 ], [ 2.506604, 43.183232 ], [ 2.511435, 43.185733 ], [ 2.511037, 43.189311 ], [ 2.509, 43.197857 ], [ 2.511239, 43.189331 ] ] ], [ [ [ 2.496259, 43.177397 ], [ 2.495981, 43.176476 ], [ 2.495908, 43.176313 ], [ 2.495809, 43.176156 ], [ 2.495517, 43.176008 ], [ 2.49414, 43.175363 ], [ 2.490319, 43.174255 ], [ 2.487687, 43.174292 ], [ 2.483782, 43.177662 ], [ 2.479999, 43.179713 ], [ 2.473091, 43.183362 ], [ 2.467918, 43.180627 ], [ 2.464361, 43.178236 ], [ 2.462198, 43.169578 ], [ 2.462354, 43.169072 ], [ 2.462518, 43.167974 ], [ 2.462173, 43.166575 ], [ 2.46173, 43.16615 ], [ 2.456896, 43.162447 ], [ 2.452273, 43.165084 ], [ 2.451499, 43.1686 ], [ 2.443233, 43.170592 ], [ 2.441939, 43.16925 ], [ 2.441015, 43.169034 ], [ 2.440323, 43.169343 ], [ 2.436862, 43.171056 ], [ 2.436791, 43.171099 ], [ 2.437756, 43.173775 ], [ 2.437804, 43.181931 ], [ 2.43648, 43.183444 ], [ 2.432235, 43.186872 ], [ 2.429086, 43.190107 ], [ 2.422985814266191, 43.191289893158689 ], [ 2.426145548416009, 43.19355370048028 ], [ 2.432025, 43.191239 ], [ 2.43347, 43.188914 ], [ 2.440942, 43.18394 ], [ 2.444358, 43.175928 ], [ 2.441964, 43.17463 ], [ 2.441633, 43.174569 ], [ 2.440403, 43.174289 ], [ 2.440038, 43.174093 ], [ 2.44174, 43.170921 ], [ 2.442596, 43.171086 ], [ 2.443842, 43.171261 ], [ 2.444168, 43.171357 ], [ 2.445958, 43.17186 ], [ 2.454299, 43.168513 ], [ 2.454495, 43.168223 ], [ 2.454796, 43.167866 ], [ 2.456239, 43.16629 ], [ 2.458323, 43.16618 ], [ 2.458515, 43.167514 ], [ 2.458811, 43.169747 ], [ 2.460241, 43.176255 ], [ 2.462901, 43.179848 ], [ 2.468161, 43.183916 ], [ 2.468862660136664, 43.184369161846767 ], [ 2.469429, 43.184096 ], [ 2.469876111275914, 43.185023691534084 ], [ 2.475076, 43.188382 ], [ 2.477258, 43.187589 ], [ 2.479406, 43.186808 ], [ 2.484792, 43.182546 ], [ 2.486134, 43.181187 ], [ 2.4876, 43.179442 ], [ 2.488027, 43.17915 ], [ 2.491643, 43.177927 ], [ 2.491767, 43.177937 ], [ 2.492052, 43.178502 ], [ 2.493257, 43.180229 ], [ 2.50128, 43.182985 ], [ 2.503383, 43.182292 ], [ 2.503802, 43.18226 ], [ 2.496259, 43.177397 ] ] ], [ [ [ 2.405669384388863, 43.222233529129781 ], [ 2.406913, 43.221236 ], [ 2.406274, 43.221661 ], [ 2.406091747934254, 43.221796756263146 ], [ 2.405669384388863, 43.222233529129781 ] ] ], [ [ [ 2.402749857487851, 43.241387224135835 ], [ 2.403612, 43.241278 ], [ 2.405593607318669, 43.240165246860435 ], [ 2.403312, 43.241295 ], [ 2.402749857487851, 43.241387224135835 ] ] ], [ [ [ 2.405072952941233, 43.222850308385425 ], [ 2.404655164666449, 43.223282349891889 ], [ 2.404934, 43.223007 ], [ 2.405072952941233, 43.222850308385425 ] ] ], [ [ [ 2.404563579455899, 43.223377059616212 ], [ 2.404563, 43.223379 ], [ 2.404553762129329, 43.223391209800539 ], [ 2.404555695554647, 43.22339935265687 ], [ 2.40460703310463, 43.223332123506246 ], [ 2.404563579455899, 43.223377059616212 ] ] ] ] } },
{ "type": "Feature", "properties": { "codgeo": "11397", "value": 660, "isochrone_group": 11.0, "nb_agences": 1 }, "geometry": { "type": "MultiPolygon", "coordinates": [ [ [ [ 2.439201, 43.261002 ], [ 2.442909, 43.2607 ], [ 2.443851, 43.26034 ], [ 2.445654, 43.258371 ], [ 2.445947, 43.251345 ], [ 2.44973, 43.245933 ], [ 2.451379, 43.242332 ], [ 2.451542, 43.241766 ], [ 2.451557, 43.241627 ], [ 2.457248, 43.236061 ], [ 2.460340175934758, 43.235728226531798 ], [ 2.460097, 43.235197 ], [ 2.458579, 43.234796 ], [ 2.45789, 43.233577 ], [ 2.453948, 43.230969 ], [ 2.448535, 43.238092 ], [ 2.448654, 43.238518 ], [ 2.449053, 43.240999 ], [ 2.444485, 43.245377 ], [ 2.443897, 43.250914 ], [ 2.443542, 43.252664 ], [ 2.442889, 43.254286 ], [ 2.441214, 43.256181 ], [ 2.440667, 43.256141 ], [ 2.440477, 43.256085 ], [ 2.439537, 43.2556 ], [ 2.439113352495458, 43.255430602263189 ], [ 2.437147, 43.257502 ], [ 2.437011926947533, 43.258563339817421 ], [ 2.438877, 43.259958 ], [ 2.439201, 43.261002 ] ] ], [ [ [ 2.460985, 43.244529 ], [ 2.46048, 43.245206 ], [ 2.460267, 43.246176 ], [ 2.460624, 43.247229 ], [ 2.460766, 43.24742 ], [ 2.462204, 43.247931 ], [ 2.462673, 43.248061 ], [ 2.46346, 43.248087 ], [ 2.463543, 43.248073 ], [ 2.465645, 43.247926 ], [ 2.472288, 43.251457 ], [ 2.473357, 43.252859 ], [ 2.473809, 43.253211 ], [ 2.477391, 43.253178 ], [ 2.477665, 43.25307 ], [ 2.478442, 43.252483 ], [ 2.48444464298765, 43.2525331692351 ], [ 2.479393, 43.250992 ], [ 2.474449, 43.245161 ], [ 2.467707, 43.244959 ], [ 2.464979, 43.246113 ], [ 2.463576, 43.242797 ], [ 2.461285749817788, 43.237793866517741 ], [ 2.460985, 43.244529 ] ] ], [ [ [ 2.488281, 43.253972 ], [ 2.488758, 43.254339 ], [ 2.491622, 43.257279 ], [ 2.493549, 43.25712 ], [ 2.501044, 43.257356 ], [ 2.501595, 43.253799 ], [ 2.500184, 43.25358 ], [ 2.49872, 43.253233 ], [ 2.496647, 43.252895 ], [ 2.495712, 43.252652 ], [ 2.49525, 43.252566 ], [ 2.489924, 43.248697 ], [ 2.490674, 43.242208 ], [ 2.490782, 43.241907 ], [ 2.490778, 43.241741 ], [ 2.490748, 43.241335 ], [ 2.489285, 43.240022 ], [ 2.482751, 43.237637 ], [ 2.480814, 43.23478 ], [ 2.477049, 43.233703 ], [ 2.478085, 43.235829 ], [ 2.484146, 43.242356 ], [ 2.488094, 43.246671 ], [ 2.488845, 43.247804 ], [ 2.4908, 43.251382 ], [ 2.487971, 43.253609 ], [ 2.487923089784873, 43.253594383418871 ], [ 2.488281, 43.253972 ] ] ], [ [ [ 2.4752, 43.223957 ], [ 2.477587, 43.22424 ], [ 2.480018, 43.224453 ], [ 2.485755, 43.223601 ], [ 2.48618, 43.22373 ], [ 2.488085, 43.224156 ], [ 2.490262, 43.225296 ], [ 2.490885, 43.225505 ], [ 2.492532, 43.22421 ], [ 2.493263, 43.222803 ], [ 2.501126, 43.219406 ], [ 2.501823, 43.219643 ], [ 2.502857, 43.219934 ], [ 2.504125, 43.220208 ], [ 2.504528, 43.220237 ], [ 2.50617, 43.220286 ], [ 2.508245, 43.22045 ], [ 2.50904, 43.220539 ], [ 2.509939, 43.219514 ], [ 2.51031, 43.219064 ], [ 2.514551, 43.212524 ], [ 2.515733, 43.211232 ], [ 2.522404, 43.20526 ], [ 2.522013, 43.205266 ], [ 2.521271, 43.205249 ], [ 2.52056, 43.205214 ], [ 2.519455, 43.205087 ], [ 2.516606, 43.205026 ], [ 2.515711, 43.204913 ], [ 2.509756, 43.209449 ], [ 2.510135, 43.213029 ], [ 2.509462, 43.21334 ], [ 2.505896, 43.213837 ], [ 2.5024, 43.213782 ], [ 2.495808, 43.216539 ], [ 2.495609, 43.216682 ], [ 2.494119, 43.216764 ], [ 2.489502, 43.216407 ], [ 2.484283, 43.220183 ], [ 2.483406, 43.220891 ], [ 2.481567, 43.222237 ], [ 2.476146, 43.222868 ], [ 2.473044, 43.223342 ], [ 2.472283, 43.231613 ], [ 2.4752, 43.223957 ] ] ], [ [ [ 2.533896, 43.205469 ], [ 2.538286, 43.205897 ], [ 2.539388, 43.205239 ], [ 2.539869, 43.204762 ], [ 2.539931, 43.204612 ], [ 2.540341, 43.202943 ], [ 2.540285, 43.202788 ], [ 2.538543, 43.20174 ], [ 2.536511, 43.201115 ], [ 2.535628, 43.200805 ], [ 2.533692, 43.200812 ], [ 2.533396, 43.200835 ], [ 2.532629, 43.201095 ], [ 2.52575, 43.201669 ], [ 2.530424, 43.202308 ], [ 2.53237, 43.202009 ], [ 2.532432, 43.202003 ], [ 2.533059, 43.203457 ], [ 2.533079, 43.203831 ], [ 2.532830806778295, 43.205441498238635 ], [ 2.533896, 43.205469 ] ] ], [ [ [ 2.521432, 43.194996 ], [ 2.522927, 43.191721 ], [ 2.527941, 43.188116 ], [ 2.53136, 43.188214 ], [ 2.534778, 43.188311 ], [ 2.53488, 43.184713 ], [ 2.531462, 43.184615 ], [ 2.528044, 43.184518 ], [ 2.525178, 43.184443 ], [ 2.518446, 43.183332 ], [ 2.511401, 43.180617 ], [ 2.507301, 43.178125 ], [ 2.507203, 43.178059 ], [ 2.500144, 43.17465 ], [ 2.499588, 43.174405 ], [ 2.498133, 43.174115 ], [ 2.493809, 43.173394 ], [ 2.48621, 43.171787 ], [ 2.485942, 43.171808 ], [ 2.481749, 43.172398 ], [ 2.479963, 43.178087 ], [ 2.473976, 43.179495 ], [ 2.473722, 43.179493 ], [ 2.473237, 43.179537 ], [ 2.468872, 43.178857 ], [ 2.465656, 43.178694 ], [ 2.463812748869052, 43.176041474668658 ], [ 2.464361, 43.178236 ], [ 2.467918, 43.180627 ], [ 2.47207129244127, 43.182822873734182 ], [ 2.472181, 43.18277 ], [ 2.47472, 43.181545 ], [ 2.475568, 43.18115 ], [ 2.477434, 43.180325 ], [ 2.478229, 43.179991 ], [ 2.479469, 43.179501 ], [ 2.480717, 43.179042 ], [ 2.482118520874181, 43.178563875677256 ], [ 2.483782, 43.177662 ], [ 2.487687, 43.174292 ], [ 2.490319, 43.174255 ], [ 2.49414, 43.175363 ], [ 2.495517, 43.176008 ], [ 2.495809, 43.176156 ], [ 2.495908, 43.176313 ], [ 2.495981, 43.176476 ], [ 2.496259, 43.177397 ], [ 2.503802, 43.18226 ], [ 2.50652, 43.181321 ], [ 2.507943, 43.180607 ], [ 2.508093, 43.180609 ], [ 2.509757, 43.181217 ], [ 2.518054, 43.18425 ], [ 2.518489, 43.184315 ], [ 2.520101, 43.184644 ], [ 2.52076, 43.186434 ], [ 2.520952, 43.188142 ], [ 2.519019, 43.188921 ], [ 2.515474, 43.189218 ], [ 2.514256, 43.189385 ], [ 2.512689, 43.189406 ], [ 2.511239, 43.189331 ], [ 2.509, 43.197857 ], [ 2.510395, 43.198598 ], [ 2.511342, 43.199155 ], [ 2.511942, 43.199509 ], [ 2.512681, 43.199905 ], [ 2.513172, 43.200128 ], [ 2.513725, 43.200334 ], [ 2.51393, 43.200402 ], [ 2.514839, 43.200629 ], [ 2.516918, 43.201008 ], [ 2.519607, 43.200964 ], [ 2.51988, 43.200973 ], [ 2.520327, 43.20103 ], [ 2.522107, 43.20153 ], [ 2.522519, 43.201602 ], [ 2.524678, 43.201602 ], [ 2.525198, 43.201623 ], [ 2.52575, 43.201669 ], [ 2.521432, 43.194996 ] ] ], [ [ [ 2.462527, 43.169121 ], [ 2.462518, 43.167974 ], [ 2.462354, 43.169072 ], [ 2.462198, 43.169578 ], [ 2.462272169360774, 43.16987488318334 ], [ 2.462527, 43.169121 ] ] ], [ [ [ 2.460723, 43.159384 ], [ 2.458934, 43.157387 ], [ 2.458101, 43.156917 ], [ 2.457124, 43.156493 ], [ 2.4567, 43.156528 ], [ 2.456297, 43.156816 ], [ 2.454096, 43.158359 ], [ 2.452882, 43.159572 ], [ 2.44906, 43.164071 ], [ 2.440265, 43.165663 ], [ 2.436866, 43.167484 ], [ 2.434285, 43.171999 ], [ 2.433843, 43.17278 ], [ 2.435414, 43.175765 ], [ 2.436673, 43.179343 ], [ 2.433749, 43.185267 ], [ 2.432866, 43.186075 ], [ 2.432398, 43.18664 ], [ 2.432241230293899, 43.186866968799173 ], [ 2.43648, 43.183444 ], [ 2.437804, 43.181931 ], [ 2.437756, 43.173775 ], [ 2.436791, 43.171099 ], [ 2.436862, 43.171056 ], [ 2.440323, 43.169343 ], [ 2.441015, 43.169034 ], [ 2.441939, 43.16925 ], [ 2.443233, 43.170592 ], [ 2.451499, 43.1686 ], [ 2.452273, 43.165084 ], [ 2.456896, 43.162447 ], [ 2.46173, 43.16615 ], [ 2.462173, 43.166575 ], [ 2.460723, 43.159384 ] ] ], [ [ [ 2.415017, 43.226697 ], [ 2.41836, 43.225362 ], [ 2.418497822771397, 43.225356003775353 ], [ 2.416082, 43.218307 ], [ 2.41258785567384, 43.219515255514658 ], [ 2.415017, 43.226697 ] ] ] ] } },
{ "type": "Feature", "properties": { "codgeo": "11397", "value": 720, "isochrone_group": 12.0, "nb_agences": 1 }, "geometry": { "type": "MultiPolygon", "coordinates": [ [ [ [ 2.450965, 43.265417 ], [ 2.450781, 43.264739 ], [ 2.450589, 43.264353 ], [ 2.450091, 43.263581 ], [ 2.448537, 43.258633 ], [ 2.449682, 43.251096 ], [ 2.450731, 43.249008 ], [ 2.455938, 43.246431 ], [ 2.460468, 43.248449 ], [ 2.461735, 43.249408 ], [ 2.468257, 43.254516 ], [ 2.471635, 43.25576 ], [ 2.476614, 43.254455 ], [ 2.476687, 43.254397 ], [ 2.477356, 43.253506 ], [ 2.477720814448754, 43.253027833872046 ], [ 2.477665, 43.25307 ], [ 2.477391, 43.253178 ], [ 2.473809, 43.253211 ], [ 2.473357, 43.252859 ], [ 2.472288, 43.251457 ], [ 2.465645, 43.247926 ], [ 2.463543, 43.248073 ], [ 2.46346, 43.248087 ], [ 2.462673, 43.248061 ], [ 2.462204, 43.247931 ], [ 2.460766, 43.24742 ], [ 2.460624, 43.247229 ], [ 2.460267, 43.246176 ], [ 2.46048, 43.245206 ], [ 2.460985, 43.244529 ], [ 2.461383, 43.235616 ], [ 2.457248, 43.236061 ], [ 2.451557, 43.241627 ], [ 2.451542, 43.241766 ], [ 2.451379, 43.242332 ], [ 2.44973, 43.245933 ], [ 2.445947, 43.251345 ], [ 2.445654, 43.258371 ], [ 2.443851, 43.26034 ], [ 2.443199218437111, 43.260589088495365 ], [ 2.442811, 43.265422 ], [ 2.4431459126573, 43.267525346949874 ], [ 2.443478078550875, 43.268091684391258 ], [ 2.448082, 43.266396 ], [ 2.450989, 43.265726 ], [ 2.450965, 43.265417 ] ] ], [ [ [ 2.485458, 43.257437 ], [ 2.485365, 43.257882 ], [ 2.486187, 43.259678 ], [ 2.48734, 43.259601 ], [ 2.488889, 43.258618 ], [ 2.49388, 43.257343 ], [ 2.500173, 43.25919 ], [ 2.502484107067401, 43.259670939720237 ], [ 2.502349, 43.258263 ], [ 2.500153506979181, 43.257327960459911 ], [ 2.493549, 43.25712 ], [ 2.491622, 43.257279 ], [ 2.488758, 43.254339 ], [ 2.488281, 43.253972 ], [ 2.486937, 43.252554 ], [ 2.478595898656306, 43.252484286263048 ], [ 2.485458, 43.257437 ] ] ], [ [ [ 2.504134309564161, 43.252483681784369 ], [ 2.502039, 43.250198 ], [ 2.498504, 43.250879 ], [ 2.493467, 43.248452 ], [ 2.494014, 43.239566 ], [ 2.494368, 43.239057 ], [ 2.494496, 43.238793 ], [ 2.495962, 43.231256 ], [ 2.498721, 43.226777 ], [ 2.504737, 43.221927 ], [ 2.508054, 43.223129 ], [ 2.508541, 43.223261 ], [ 2.508858, 43.223305 ], [ 2.516911, 43.223369 ], [ 2.519086, 43.22419 ], [ 2.520358, 43.220822 ], [ 2.519273, 43.213045 ], [ 2.519447, 43.212331 ], [ 2.521553, 43.207425 ], [ 2.528985, 43.206828 ], [ 2.531141, 43.209711 ], [ 2.534922, 43.21429 ], [ 2.538462, 43.214942 ], [ 2.542806, 43.212326 ], [ 2.546244, 43.205829 ], [ 2.546872, 43.202284 ], [ 2.54425, 43.201327 ], [ 2.541773, 43.199355 ], [ 2.538173, 43.199294 ], [ 2.532443, 43.194422 ], [ 2.537961, 43.188403 ], [ 2.539986, 43.188447 ], [ 2.540639, 43.188545 ], [ 2.541836, 43.18882 ], [ 2.542923, 43.188978 ], [ 2.546882, 43.189297 ], [ 2.547496, 43.189354 ], [ 2.548826, 43.187792 ], [ 2.54884, 43.187702 ], [ 2.54783, 43.185769 ], [ 2.547216, 43.185712 ], [ 2.540544, 43.184891 ], [ 2.538065, 43.184805 ], [ 2.535813, 43.184739 ], [ 2.533714282102629, 43.184679576842029 ], [ 2.53488, 43.184713 ], [ 2.534778, 43.188311 ], [ 2.53136, 43.188214 ], [ 2.527941, 43.188116 ], [ 2.522927, 43.191721 ], [ 2.521432, 43.194996 ], [ 2.52575, 43.201669 ], [ 2.532629, 43.201095 ], [ 2.533396, 43.200835 ], [ 2.533692, 43.200812 ], [ 2.535628, 43.200805 ], [ 2.536511, 43.201115 ], [ 2.538543, 43.20174 ], [ 2.540285, 43.202788 ], [ 2.540341, 43.202943 ], [ 2.539931, 43.204612 ], [ 2.539869, 43.204762 ], [ 2.539388, 43.205239 ], [ 2.538286, 43.205897 ], [ 2.533896, 43.205469 ], [ 2.525375, 43.205249 ], [ 2.524549, 43.2052 ], [ 2.522404, 43.20526 ], [ 2.515733, 43.211232 ], [ 2.514551, 43.212524 ], [ 2.51031, 43.219064 ], [ 2.509939, 43.219514 ], [ 2.50904, 43.220539 ], [ 2.508245, 43.22045 ], [ 2.50617, 43.220286 ], [ 2.504528, 43.220237 ], [ 2.504125, 43.220208 ], [ 2.502857, 43.219934 ], [ 2.501823, 43.219643 ], [ 2.501126, 43.219406 ], [ 2.493263, 43.222803 ], [ 2.492532, 43.22421 ], [ 2.490885, 43.225505 ], [ 2.490262, 43.225296 ], [ 2.488085, 43.224156 ], [ 2.48618, 43.22373 ], [ 2.485755, 43.223601 ], [ 2.480018, 43.224453 ], [ 2.477587, 43.22424 ], [ 2.4752, 43.223957 ], [ 2.472283, 43.231613 ], [ 2.476372, 43.233624 ], [ 2.477049, 43.233703 ], [ 2.480814, 43.23478 ], [ 2.482751, 43.237637 ], [ 2.489285, 43.240022 ], [ 2.490748, 43.241335 ], [ 2.490778, 43.241741 ], [ 2.490782, 43.241907 ], [ 2.490674, 43.242208 ], [ 2.489924, 43.248697 ], [ 2.49525, 43.252566 ], [ 2.495712, 43.252652 ], [ 2.496647, 43.252895 ], [ 2.49872, 43.253233 ], [ 2.498779856051811, 43.253247187192592 ], [ 2.504134309564161, 43.252483681784369 ] ] ], [ [ [ 2.521781, 43.179977 ], [ 2.514143, 43.178288 ], [ 2.50569, 43.176079 ], [ 2.50493, 43.175781 ], [ 2.499588, 43.174405 ], [ 2.500144, 43.17465 ], [ 2.503698066557976, 43.17636636391785 ], [ 2.503728, 43.176374 ], [ 2.50452, 43.176605 ], [ 2.505246, 43.176844 ], [ 2.505994, 43.177125 ], [ 2.511244, 43.179215 ], [ 2.510892544008996, 43.180307957968395 ], [ 2.511401, 43.180617 ], [ 2.518446, 43.183332 ], [ 2.525178, 43.184443 ], [ 2.528044, 43.184518 ], [ 2.521781, 43.179977 ] ] ], [ [ [ 2.489206, 43.170547 ], [ 2.485143, 43.170314 ], [ 2.477336, 43.171446 ], [ 2.476728, 43.174994 ], [ 2.469486, 43.178369 ], [ 2.465656, 43.178694 ], [ 2.468872, 43.178857 ], [ 2.473237, 43.179537 ], [ 2.473722, 43.179493 ], [ 2.473976, 43.179495 ], [ 2.479963, 43.178087 ], [ 2.481749, 43.172398 ], [ 2.485942, 43.171808 ], [ 2.48621, 43.171787 ], [ 2.493809, 43.173394 ], [ 2.495837775093035, 43.173732285578645 ], [ 2.489206, 43.170547 ] ] ], [ [ [ 2.464012, 43.157028 ], [ 2.466202, 43.155015 ], [ 2.466082, 43.154082 ], [ 2.465856, 43.151432 ], [ 2.465134, 43.151502 ], [ 2.464725, 43.151561 ], [ 2.464272, 43.151665 ], [ 2.459539, 43.153041 ], [ 2.454048, 43.155191 ], [ 2.446059, 43.158806 ], [ 2.445816, 43.159001 ], [ 2.445451, 43.159398 ], [ 2.439193, 43.164319 ], [ 2.43581, 43.165549 ], [ 2.43249, 43.167676 ], [ 2.429348, 43.173934 ], [ 2.429165, 43.177194 ], [ 2.429649, 43.177521 ], [ 2.433074, 43.179986 ], [ 2.433651595802396, 43.185356130907884 ], [ 2.433749, 43.185267 ], [ 2.436673, 43.179343 ], [ 2.435414, 43.175765 ], [ 2.433843, 43.17278 ], [ 2.434285, 43.171999 ], [ 2.436866, 43.167484 ], [ 2.440265, 43.165663 ], [ 2.44906, 43.164071 ], [ 2.452882, 43.159572 ], [ 2.454096, 43.158359 ], [ 2.456297, 43.156816 ], [ 2.4567, 43.156528 ], [ 2.457124, 43.156493 ], [ 2.458101, 43.156917 ], [ 2.458934, 43.157387 ], [ 2.460723, 43.159384 ], [ 2.460836907317245, 43.159948901736755 ], [ 2.464012, 43.157028 ] ] ] ] } },
{ "type": "Feature", "properties": { "codgeo": "11397", "value": 780, "isochrone_group": 13.0, "nb_agences": 1 }, "geometry": { "type": "MultiPolygon", "coordinates": [ [ [ [ 2.477562, 43.152408 ], [ 2.477083, 43.14884 ], [ 2.476104, 43.148971 ], [ 2.475267, 43.149106 ], [ 2.474897, 43.149178 ], [ 2.466093, 43.150865 ], [ 2.462767, 43.151358 ], [ 2.458746, 43.152459 ], [ 2.455825, 43.153684 ], [ 2.454136, 43.15513 ], [ 2.446697, 43.155998 ], [ 2.44637, 43.155953 ], [ 2.444877, 43.157355 ], [ 2.443421, 43.160647 ], [ 2.437461, 43.162516 ], [ 2.436858, 43.162408 ], [ 2.435904, 43.162289 ], [ 2.435559, 43.162289 ], [ 2.434923, 43.162355 ], [ 2.434639, 43.162416 ], [ 2.428716, 43.166859 ], [ 2.426832, 43.16987 ], [ 2.424608, 43.175741 ], [ 2.424522, 43.1776 ], [ 2.427026, 43.179518 ], [ 2.431107, 43.183342 ], [ 2.431547627516487, 43.188286666911587 ], [ 2.433759092603075, 43.186355570116831 ], [ 2.433074, 43.179986 ], [ 2.429649, 43.177521 ], [ 2.429165, 43.177194 ], [ 2.429348, 43.173934 ], [ 2.43249, 43.167676 ], [ 2.43581, 43.165549 ], [ 2.439193, 43.164319 ], [ 2.445451, 43.159398 ], [ 2.445816, 43.159001 ], [ 2.446059, 43.158806 ], [ 2.454048, 43.155191 ], [ 2.459539, 43.153041 ], [ 2.464272, 43.151665 ], [ 2.464725, 43.151561 ], [ 2.465134, 43.151502 ], [ 2.465856, 43.151432 ], [ 2.466082, 43.154082 ], [ 2.466202, 43.155015 ], [ 2.464012, 43.157028 ], [ 2.460552, 43.160211 ], [ 2.46173, 43.16615 ], [ 2.462173, 43.166575 ], [ 2.462518, 43.167974 ], [ 2.463596, 43.163968 ], [ 2.468205, 43.159926 ], [ 2.472612, 43.154543 ], [ 2.474755, 43.153266 ], [ 2.477562, 43.152408 ] ] ], [ [ [ 2.512615, 43.175405 ], [ 2.50493, 43.175781 ], [ 2.50569, 43.176079 ], [ 2.514143, 43.178288 ], [ 2.521781, 43.179977 ], [ 2.521830421826162, 43.180012833388552 ], [ 2.52747, 43.179083 ], [ 2.528624, 43.178701 ], [ 2.530611, 43.17799 ], [ 2.530620122418587, 43.177986740353688 ], [ 2.522306, 43.176837 ], [ 2.518892, 43.175521 ], [ 2.518603, 43.175495 ], [ 2.517983, 43.175511 ], [ 2.512615, 43.175405 ] ] ], [ [ [ 2.472096, 43.174901 ], [ 2.471453, 43.174792 ], [ 2.470552, 43.174872 ], [ 2.469531, 43.17565 ], [ 2.463177756608384, 43.173221483033586 ], [ 2.464013916732293, 43.176330964713777 ], [ 2.465656, 43.178694 ], [ 2.469486, 43.178369 ], [ 2.475553470891863, 43.17554136754211 ], [ 2.472096, 43.174901 ] ] ], [ [ [ 2.450487, 43.258374 ], [ 2.454323, 43.250726 ], [ 2.4552, 43.250539 ], [ 2.461383, 43.250924 ], [ 2.464769, 43.256317 ], [ 2.469267, 43.259524 ], [ 2.472564, 43.260147 ], [ 2.481307, 43.260097 ], [ 2.485023, 43.261341 ], [ 2.48732, 43.262564 ], [ 2.488154, 43.262169 ], [ 2.493458, 43.260597 ], [ 2.496152, 43.260264 ], [ 2.499212850254306, 43.259159112174721 ], [ 2.495301434189579, 43.257760191951071 ], [ 2.49388, 43.257343 ], [ 2.488889, 43.258618 ], [ 2.48734, 43.259601 ], [ 2.486187, 43.259678 ], [ 2.485365, 43.257882 ], [ 2.485458, 43.257437 ], [ 2.478299, 43.25227 ], [ 2.477356, 43.253506 ], [ 2.476687, 43.254397 ], [ 2.476614, 43.254455 ], [ 2.471635, 43.25576 ], [ 2.468257, 43.254516 ], [ 2.461735, 43.249408 ], [ 2.460468, 43.248449 ], [ 2.455938, 43.246431 ], [ 2.450731, 43.249008 ], [ 2.449682, 43.251096 ], [ 2.448537, 43.258633 ], [ 2.450091, 43.263581 ], [ 2.450589, 43.264353 ], [ 2.450781, 43.264739 ], [ 2.450965, 43.265417 ], [ 2.450989, 43.265726 ], [ 2.449424054162372, 43.266086685831176 ], [ 2.45321549164307, 43.272365993528524 ], [ 2.454549964955697, 43.271977155315859 ], [ 2.455413, 43.271203 ], [ 2.455297, 43.270473 ], [ 2.452824, 43.262872 ], [ 2.451719, 43.260395 ], [ 2.450487, 43.258374 ] ] ], [ [ [ 2.49568, 43.234881 ], [ 2.495808, 43.235026 ], [ 2.49671, 43.236202 ], [ 2.496885, 43.236511 ], [ 2.497757, 43.237428 ], [ 2.49825, 43.23765 ], [ 2.498825, 43.23782 ], [ 2.500125, 43.236995 ], [ 2.500207, 43.23684 ], [ 2.500406, 43.235752 ], [ 2.500016, 43.234734 ], [ 2.499845, 43.234368 ], [ 2.498721, 43.226777 ], [ 2.495962, 43.231256 ], [ 2.495298834855427, 43.234665465003175 ], [ 2.49568, 43.234881 ] ] ], [ [ [ 2.506815, 43.224165 ], [ 2.508778, 43.226573 ], [ 2.510335, 43.226692 ], [ 2.514289, 43.224926 ], [ 2.523138, 43.225841 ], [ 2.526003, 43.22751 ], [ 2.526935239351682, 43.228053589286766 ], [ 2.528748, 43.224943 ], [ 2.53394, 43.22516 ], [ 2.534324839048417, 43.22514157220656 ], [ 2.535596, 43.224201 ], [ 2.54307, 43.221636 ], [ 2.549824, 43.218478 ], [ 2.549851, 43.214878 ], [ 2.551196, 43.20616 ], [ 2.553183, 43.206233 ], [ 2.553879, 43.206231 ], [ 2.556453, 43.206094 ], [ 2.556955992473839, 43.206067218045511 ], [ 2.555109, 43.206165 ], [ 2.554918, 43.20257 ], [ 2.55587763940767, 43.202391756531156 ], [ 2.553126, 43.201624 ], [ 2.547341, 43.195376 ], [ 2.551343, 43.189983 ], [ 2.553504, 43.189515 ], [ 2.555058, 43.188216 ], [ 2.555079, 43.188134 ], [ 2.554188, 43.186116 ], [ 2.55242, 43.184655 ], [ 2.550841, 43.183918 ], [ 2.546594, 43.182751 ], [ 2.546184, 43.182647 ], [ 2.545408, 43.182749 ], [ 2.544628, 43.183045 ], [ 2.536446, 43.179884 ], [ 2.535516, 43.176406 ], [ 2.534182, 43.176763 ], [ 2.533624, 43.176936 ], [ 2.532654, 43.17726 ], [ 2.532598011231459, 43.177280031414725 ], [ 2.53381, 43.18067 ], [ 2.531823, 43.18138 ], [ 2.529836, 43.18209 ], [ 2.528602, 43.1825 ], [ 2.527898, 43.182724 ], [ 2.526981, 43.182977 ], [ 2.526185429832742, 43.183170440183709 ], [ 2.528044, 43.184518 ], [ 2.531928, 43.184629 ], [ 2.535813, 43.184739 ], [ 2.538065, 43.184805 ], [ 2.540544, 43.184891 ], [ 2.547216, 43.185712 ], [ 2.54783, 43.185769 ], [ 2.54884, 43.187702 ], [ 2.548826, 43.187792 ], [ 2.547496, 43.189354 ], [ 2.546882, 43.189297 ], [ 2.542923, 43.188978 ], [ 2.541836, 43.18882 ], [ 2.540639, 43.188545 ], [ 2.539986, 43.188447 ], [ 2.537961, 43.188403 ], [ 2.532443, 43.194422 ], [ 2.538173, 43.199294 ], [ 2.541773, 43.199355 ], [ 2.54425, 43.201327 ], [ 2.546872, 43.202284 ], [ 2.546244, 43.205829 ], [ 2.542806, 43.212326 ], [ 2.538462, 43.214942 ], [ 2.534922, 43.21429 ], [ 2.531141, 43.209711 ], [ 2.528985, 43.206828 ], [ 2.521553, 43.207425 ], [ 2.519447, 43.212331 ], [ 2.519273, 43.213045 ], [ 2.520358, 43.220822 ], [ 2.519086, 43.22419 ], [ 2.516911, 43.223369 ], [ 2.508858, 43.223305 ], [ 2.508541, 43.223261 ], [ 2.508054, 43.223129 ], [ 2.504737, 43.221927 ], [ 2.498721, 43.226777 ], [ 2.506815, 43.224165 ] ] ], [ [ [ 2.511262, 43.255805 ], [ 2.510761, 43.253588 ], [ 2.511074, 43.255287 ], [ 2.511193719965661, 43.255616866713908 ], [ 2.511207, 43.255619 ], [ 2.511262, 43.255805 ] ] ], [ [ [ 2.49944, 43.246886 ], [ 2.497818, 43.249138 ], [ 2.495668148331995, 43.249512589041437 ], [ 2.498504, 43.250879 ], [ 2.498541648182166, 43.250871747266736 ], [ 2.501532549579534, 43.247445694231637 ], [ 2.49999, 43.247138 ], [ 2.49944, 43.246886 ] ] ] ] } },
{ "type": "Feature", "properties": { "codgeo": "11397", "value": 840, "isochrone_group": 14.0, "nb_agences": 1 }, "geometry": { "type": "MultiPolygon", "coordinates": [ [ [ [ 2.472848138417655, 43.260145375051927 ], [ 2.472564, 43.260147 ], [ 2.469267, 43.259524 ], [ 2.464769, 43.256317 ], [ 2.461383, 43.250924 ], [ 2.4552, 43.250539 ], [ 2.454323, 43.250726 ], [ 2.450487, 43.258374 ], [ 2.451772, 43.260251 ], [ 2.45179824900996, 43.260572646875723 ], [ 2.452824, 43.262872 ], [ 2.453827550507138, 43.265956507644447 ], [ 2.458360508930952, 43.267061062852029 ], [ 2.458328, 43.26696 ], [ 2.464733, 43.261662 ], [ 2.466844, 43.261768 ], [ 2.46824, 43.261587 ], [ 2.472348, 43.261585 ], [ 2.472848138417655, 43.260145375051927 ] ] ], [ [ [ 2.482297, 43.263749 ], [ 2.484737, 43.266396 ], [ 2.485657, 43.265549 ], [ 2.486545, 43.264789 ], [ 2.487135554393167, 43.264573098393889 ], [ 2.486661741505133, 43.262213521053887 ], [ 2.485023, 43.261341 ], [ 2.481307, 43.260097 ], [ 2.481265224209073, 43.260097238909943 ], [ 2.482297, 43.263749 ] ] ], [ [ [ 2.497818, 43.249138 ], [ 2.49944, 43.246886 ], [ 2.49970458822595, 43.247007229514445 ], [ 2.502229, 43.241829 ], [ 2.505822, 43.242048 ], [ 2.506961532717813, 43.243888541327692 ], [ 2.505934, 43.240416 ], [ 2.50584, 43.239652 ], [ 2.505405, 43.238384 ], [ 2.50531, 43.235451 ], [ 2.510838, 43.231108 ], [ 2.517272, 43.227715 ], [ 2.520389434677104, 43.227649189683831 ], [ 2.519328842529013, 43.225447127349305 ], [ 2.514289, 43.224926 ], [ 2.510335, 43.226692 ], [ 2.508778, 43.226573 ], [ 2.506815, 43.224165 ], [ 2.498721, 43.226777 ], [ 2.499845, 43.234368 ], [ 2.500016, 43.234734 ], [ 2.500406, 43.235752 ], [ 2.500207, 43.23684 ], [ 2.500125, 43.236995 ], [ 2.498825, 43.23782 ], [ 2.49825, 43.23765 ], [ 2.497757, 43.237428 ], [ 2.496885, 43.236511 ], [ 2.49671, 43.236202 ], [ 2.495808, 43.235026 ], [ 2.49568, 43.234881 ], [ 2.492854, 43.233283 ], [ 2.488221, 43.240231 ], [ 2.489035, 43.241888 ], [ 2.488853, 43.243775 ], [ 2.488845, 43.247804 ], [ 2.48998764270583, 43.250257751964448 ], [ 2.497818, 43.249138 ] ] ], [ [ [ 2.554309, 43.216972 ], [ 2.555423, 43.216439 ], [ 2.556672108160465, 43.216601698962073 ], [ 2.558361052735083, 43.216146574565336 ], [ 2.558379, 43.214828 ], [ 2.558601319770769, 43.214375434859392 ], [ 2.557083, 43.212381 ], [ 2.558356282188905, 43.210056383893679 ], [ 2.553783, 43.206233 ], [ 2.553388714285715, 43.206232408866995 ], [ 2.553183, 43.206233 ], [ 2.553157473278588, 43.206232062178842 ], [ 2.553116, 43.206232 ], [ 2.553086315263593, 43.206229447918581 ], [ 2.551196, 43.20616 ], [ 2.549851, 43.214878 ], [ 2.549825722932677, 43.218248275643077 ], [ 2.554309, 43.216972 ] ] ], [ [ [ 2.556510700882697, 43.202485763006628 ], [ 2.55651277567026, 43.202485652576961 ], [ 2.551802, 43.19519 ], [ 2.556884, 43.191307 ], [ 2.560047, 43.190877 ], [ 2.563873, 43.189393 ], [ 2.563731, 43.185796 ], [ 2.561099, 43.183357 ], [ 2.558054, 43.178215 ], [ 2.551226, 43.177151 ], [ 2.556629, 43.17812 ], [ 2.556255, 43.1817 ], [ 2.555547, 43.181626 ], [ 2.554687, 43.181511 ], [ 2.553845, 43.181378 ], [ 2.552758, 43.18117 ], [ 2.550458, 43.180668 ], [ 2.547282, 43.179955 ], [ 2.545608, 43.179626 ], [ 2.542878, 43.179322 ], [ 2.536957686883833, 43.180081682991919 ], [ 2.544628, 43.183045 ], [ 2.545408, 43.182749 ], [ 2.546184, 43.182647 ], [ 2.546594, 43.182751 ], [ 2.550841, 43.183918 ], [ 2.55242, 43.184655 ], [ 2.554188, 43.186116 ], [ 2.555079, 43.188134 ], [ 2.555058, 43.188216 ], [ 2.553504, 43.189515 ], [ 2.551343, 43.189983 ], [ 2.547341, 43.195376 ], [ 2.553126, 43.201624 ], [ 2.556041051800917, 43.202437351506958 ], [ 2.556510700882697, 43.202485763006628 ] ] ], [ [ [ 2.512992, 43.172407 ], [ 2.51241, 43.172583 ], [ 2.504554326932706, 43.175684233594055 ], [ 2.50493, 43.175781 ], [ 2.512615, 43.175405 ], [ 2.517983, 43.175511 ], [ 2.518603, 43.175495 ], [ 2.518892, 43.175521 ], [ 2.522306, 43.176837 ], [ 2.530622, 43.177987 ], [ 2.532654, 43.17726 ], [ 2.533624, 43.176936 ], [ 2.534182, 43.176763 ], [ 2.532688, 43.176891 ], [ 2.526879, 43.175965 ], [ 2.523406, 43.172857 ], [ 2.51596, 43.172617 ], [ 2.514276, 43.172306 ], [ 2.513347, 43.17238 ], [ 2.512992, 43.172407 ] ] ], [ [ [ 2.472159, 43.159885 ], [ 2.472611, 43.159821 ], [ 2.473082, 43.159721 ], [ 2.475013, 43.159333 ], [ 2.480440236667441, 43.152543517043341 ], [ 2.472596875857927, 43.154561473623048 ], [ 2.468208955206998, 43.159921168849721 ], [ 2.468406, 43.159956 ], [ 2.469219, 43.160023 ], [ 2.470675, 43.160021 ], [ 2.47117, 43.159992 ], [ 2.471368, 43.159968 ], [ 2.472159, 43.159885 ] ] ], [ [ [ 2.477677441415603, 43.147749955241409 ], [ 2.473467, 43.147376 ], [ 2.473236, 43.147404 ], [ 2.472701, 43.147554 ], [ 2.471995, 43.148044 ], [ 2.467979518240952, 43.150503510191669 ], [ 2.474797965908729, 43.149196976659709 ], [ 2.477677441415603, 43.147749955241409 ] ] ], [ [ [ 2.461893, 43.149706 ], [ 2.454836, 43.15181 ], [ 2.453406, 43.152166 ], [ 2.446133, 43.155525 ], [ 2.444853, 43.154991 ], [ 2.44472, 43.154921 ], [ 2.442533, 43.153157 ], [ 2.442378, 43.153253 ], [ 2.44194, 43.153588 ], [ 2.44154, 43.15403 ], [ 2.441284, 43.154541 ], [ 2.441194, 43.155479 ], [ 2.435559, 43.162289 ], [ 2.435904, 43.162289 ], [ 2.436858, 43.162408 ], [ 2.437461, 43.162516 ], [ 2.443421, 43.160647 ], [ 2.444877, 43.157355 ], [ 2.44637, 43.155953 ], [ 2.446697, 43.155998 ], [ 2.454136, 43.15513 ], [ 2.455825, 43.153684 ], [ 2.458746, 43.152459 ], [ 2.462767, 43.151358 ], [ 2.465391970551327, 43.150968910859355 ], [ 2.461893, 43.149706 ] ] ], [ [ [ 2.434196, 43.162401 ], [ 2.433589, 43.16247 ], [ 2.431817, 43.162564 ], [ 2.428975, 43.16288 ], [ 2.424855, 43.166156 ], [ 2.421508439558284, 43.169424605106769 ], [ 2.421651, 43.169431 ], [ 2.422186, 43.16951 ], [ 2.425003, 43.169772 ], [ 2.426535, 43.169851 ], [ 2.426815291054714, 43.169914108910874 ], [ 2.426832, 43.16987 ], [ 2.428716, 43.166859 ], [ 2.434639, 43.162416 ], [ 2.434923, 43.162355 ], [ 2.434196, 43.162401 ] ] ], [ [ [ 2.463292975527715, 43.165291546804028 ], [ 2.467225530169715, 43.160784975277508 ], [ 2.463596, 43.163968 ], [ 2.463257602744143, 43.165225531917415 ], [ 2.463292975527715, 43.165291546804028 ] ] ], [ [ [ 2.487662, 43.151875 ], [ 2.489746, 43.151735 ], [ 2.489745946504813, 43.151734202677574 ], [ 2.487683, 43.151873 ], [ 2.486223846580332, 43.151986598521255 ], [ 2.486265, 43.151985 ], [ 2.487662, 43.151875 ] ] ], [ [ [ 2.4874, 43.148284 ], [ 2.487624317969212, 43.148148240858383 ], [ 2.486753261160863, 43.148150668214683 ], [ 2.4874, 43.148284 ] ] ] ] } },
{ "type": "Feature", "properties": { "codgeo": "11397", "value": 900, "isochrone_group": 15.0, "nb_agences": 1 }, "geometry": { "type": "MultiPolygon", "coordinates": [ [ [ [ 2.485309447757891, 43.26987535400562 ], [ 2.486925, 43.267265 ], [ 2.485705281974223, 43.265507677589632 ], [ 2.485657, 43.265549 ], [ 2.484737, 43.266396 ], [ 2.482297, 43.263749 ], [ 2.481301846890192, 43.260226857459919 ], [ 2.479977, 43.260232 ], [ 2.478933982751905, 43.258513033977451 ], [ 2.473072, 43.259501 ], [ 2.472348, 43.261585 ], [ 2.46824, 43.261587 ], [ 2.466844, 43.261768 ], [ 2.464733, 43.261662 ], [ 2.461176242493194, 43.264604029862781 ], [ 2.462735, 43.264514 ], [ 2.465978, 43.266076 ], [ 2.467453978477308, 43.266918259659676 ], [ 2.469485, 43.264878 ], [ 2.469929, 43.264768 ], [ 2.470322, 43.264645 ], [ 2.470897, 43.26442 ], [ 2.471743, 43.263729 ], [ 2.480424, 43.26522 ], [ 2.482299, 43.265671 ], [ 2.485309447757891, 43.26987535400562 ] ] ], [ [ [ 2.505766, 43.239381 ], [ 2.50580401278043, 43.239547099323183 ], [ 2.50584, 43.239652 ], [ 2.505853929353847, 43.239765213046155 ], [ 2.505904, 43.239984 ], [ 2.505901078708948, 43.240148426953553 ], [ 2.505934, 43.240416 ], [ 2.509441, 43.235983 ], [ 2.516236849279364, 43.233692273817105 ], [ 2.516022, 43.232325 ], [ 2.515684, 43.231549 ], [ 2.515637, 43.231284 ], [ 2.515465136646583, 43.22866785784241 ], [ 2.510838, 43.231108 ], [ 2.50531, 43.235451 ], [ 2.505405, 43.238384 ], [ 2.505687905844157, 43.239208654276752 ], [ 2.505766, 43.239381 ] ] ], [ [ [ 2.511454, 43.247326 ], [ 2.505934, 43.240416 ], [ 2.506447240487181, 43.242150493483173 ], [ 2.511454, 43.247326 ] ] ], [ [ [ 2.559258266043019, 43.202340233661452 ], [ 2.560579692486271, 43.201793102167642 ], [ 2.566586, 43.199167 ], [ 2.569337, 43.200911 ], [ 2.576164, 43.204255 ], [ 2.576679, 43.204294 ], [ 2.576758, 43.204329 ], [ 2.582003057555567, 43.204089020847121 ], [ 2.581687, 43.203646 ], [ 2.580125, 43.203526 ], [ 2.576518, 43.203705 ], [ 2.569146, 43.200759 ], [ 2.566246, 43.198609 ], [ 2.564908, 43.19281 ], [ 2.570975, 43.189145 ], [ 2.571541, 43.189108 ], [ 2.573, 43.189049 ], [ 2.572889, 43.186096 ], [ 2.57949961201454, 43.180876992474261 ], [ 2.577596, 43.180673 ], [ 2.57563, 43.180462 ], [ 2.568019, 43.180767 ], [ 2.565509, 43.181288 ], [ 2.564406, 43.181497 ], [ 2.562649, 43.181748 ], [ 2.56092, 43.181891 ], [ 2.560247509115641, 43.181919112930267 ], [ 2.561099, 43.183357 ], [ 2.563731, 43.185796 ], [ 2.563873, 43.189393 ], [ 2.560047, 43.190877 ], [ 2.556884, 43.191307 ], [ 2.551802, 43.19519 ], [ 2.556513, 43.202486 ], [ 2.559258266043019, 43.202340233661452 ] ] ], [ [ [ 2.579976, 43.177307 ], [ 2.580857, 43.177387 ], [ 2.581843708457194, 43.177447310924428 ], [ 2.581851, 43.17735 ], [ 2.578003451036113, 43.176984991466881 ], [ 2.579927, 43.17719 ], [ 2.579915241592681, 43.177300485822066 ], [ 2.579976, 43.177307 ] ] ], [ [ [ 2.559912, 43.178223 ], [ 2.56476, 43.177653 ], [ 2.56728, 43.177136 ], [ 2.559206, 43.176273 ], [ 2.555621, 43.176599 ], [ 2.547086, 43.176175 ], [ 2.546494513537846, 43.176042438813866 ], [ 2.548071, 43.176442 ], [ 2.551226, 43.177151 ], [ 2.557010901003936, 43.178052454989469 ], [ 2.559912, 43.178223 ] ] ], [ [ [ 2.525683, 43.170838 ], [ 2.525134, 43.171176 ], [ 2.522344445304728, 43.172822783893793 ], [ 2.523406, 43.172857 ], [ 2.526879, 43.175965 ], [ 2.532688, 43.176891 ], [ 2.534182, 43.176763 ], [ 2.536928, 43.176109 ], [ 2.538448146866563, 43.175601525821492 ], [ 2.537965, 43.175583 ], [ 2.537659, 43.175629 ], [ 2.536761, 43.175908 ], [ 2.53649, 43.175971 ], [ 2.529108, 43.173331 ], [ 2.527726, 43.170354 ], [ 2.526427, 43.170582 ], [ 2.525683, 43.170838 ] ] ], [ [ [ 2.513889, 43.170716 ], [ 2.513467, 43.170214 ], [ 2.512755, 43.169796 ], [ 2.511996, 43.169686 ], [ 2.511597, 43.169726 ], [ 2.510769, 43.169885 ], [ 2.510273, 43.169984 ], [ 2.509719, 43.170522 ], [ 2.509665, 43.170573 ], [ 2.502940580941396, 43.175366197558162 ], [ 2.504408, 43.175742 ], [ 2.51241, 43.172583 ], [ 2.512992, 43.172407 ], [ 2.513347, 43.17238 ], [ 2.514276, 43.172306 ], [ 2.51596, 43.172617 ], [ 2.520742990461702, 43.172771165687728 ], [ 2.513889, 43.170716 ] ] ], [ [ [ 2.475769, 43.160174 ], [ 2.48052, 43.159185 ], [ 2.481099, 43.159182 ], [ 2.486265, 43.151985 ], [ 2.486223846580332, 43.151986598521255 ], [ 2.486193, 43.151989 ], [ 2.480897, 43.152426 ], [ 2.480440236667441, 43.152543517043341 ], [ 2.475013, 43.159333 ], [ 2.473082, 43.159721 ], [ 2.472611, 43.159821 ], [ 2.472159, 43.159885 ], [ 2.475769, 43.160174 ] ] ], [ [ [ 2.496547, 43.151583 ], [ 2.496943, 43.151543 ], [ 2.498529, 43.151389 ], [ 2.500054, 43.151051 ], [ 2.502179, 43.150549 ], [ 2.502178886064753, 43.150548517839248 ], [ 2.501978, 43.150596 ], [ 2.499927, 43.151076 ], [ 2.499055, 43.151212 ], [ 2.490702, 43.15163 ], [ 2.489893226002973, 43.151722404096247 ], [ 2.489943, 43.151719 ], [ 2.496547, 43.151583 ] ] ], [ [ [ 2.480313, 43.142953 ], [ 2.480468690763857, 43.142883721334719 ], [ 2.48046, 43.142879 ], [ 2.480313, 43.142953 ] ] ], [ [ [ 2.472368, 43.146379 ], [ 2.464375, 43.147397 ], [ 2.461838, 43.147296 ], [ 2.458754, 43.147735 ], [ 2.451184, 43.150408 ], [ 2.44385, 43.150303 ], [ 2.44204, 43.150334 ], [ 2.441209, 43.15036 ], [ 2.440502, 43.15389 ], [ 2.439691952008133, 43.15729425232027 ], [ 2.441194, 43.155479 ], [ 2.441284, 43.154541 ], [ 2.44154, 43.15403 ], [ 2.44194, 43.153588 ], [ 2.442378, 43.153253 ], [ 2.442533, 43.153157 ], [ 2.44472, 43.154921 ], [ 2.444853, 43.154991 ], [ 2.446133, 43.155525 ], [ 2.453406, 43.152166 ], [ 2.454836, 43.15181 ], [ 2.461893, 43.149706 ], [ 2.464310557244134, 43.150578587880325 ], [ 2.469018, 43.147702 ], [ 2.472025, 43.147554 ], [ 2.472801, 43.147514 ], [ 2.479344, 43.144229 ], [ 2.480313, 43.142953 ], [ 2.473602, 43.145662 ], [ 2.472368, 43.146379 ] ] ], [ [ [ 2.433797, 43.160374 ], [ 2.431943, 43.160593 ], [ 2.424411, 43.161477 ], [ 2.422544, 43.161769 ], [ 2.422428, 43.161887 ], [ 2.422197, 43.162651 ], [ 2.422764, 43.164567 ], [ 2.422760410430721, 43.168201797851829 ], [ 2.424855, 43.166156 ], [ 2.428975, 43.16288 ], [ 2.431817, 43.162564 ], [ 2.433589, 43.16247 ], [ 2.434196, 43.162401 ], [ 2.434923, 43.162355 ], [ 2.435559, 43.162289 ], [ 2.438389774939326, 43.158867956994349 ], [ 2.433797, 43.160374 ] ] ] ] } },
{ "type": "Feature", "properties": { "codgeo": "11397", "value": 960, "isochrone_group": 16.0, "nb_agences": 1 }, "geometry": { "type": "MultiPolygon", "coordinates": [ [ [ [ 2.471038647166868, 43.266977862924051 ], [ 2.471743, 43.263729 ], [ 2.470897, 43.26442 ], [ 2.470322, 43.264645 ], [ 2.469929, 43.264768 ], [ 2.469485, 43.264878 ], [ 2.469473375817389, 43.264889677055422 ], [ 2.471038647166868, 43.266977862924051 ] ] ], [ [ [ 2.585163, 43.205664 ], [ 2.585258608506585, 43.203881493617267 ], [ 2.585216, 43.203884 ], [ 2.584447, 43.203781 ], [ 2.580379, 43.202045 ], [ 2.576788, 43.201777 ], [ 2.571783, 43.194836 ], [ 2.576812, 43.191716 ], [ 2.577591938116885, 43.191195619005349 ], [ 2.574459, 43.18897 ], [ 2.573135, 43.189042 ], [ 2.572970013366761, 43.186032040812897 ], [ 2.572889, 43.186096 ], [ 2.573, 43.189049 ], [ 2.571541, 43.189108 ], [ 2.570975, 43.189145 ], [ 2.564908, 43.19281 ], [ 2.566246, 43.198609 ], [ 2.569146, 43.200759 ], [ 2.576518, 43.203705 ], [ 2.580125, 43.203526 ], [ 2.581687, 43.203646 ], [ 2.582866436773099, 43.205299227613565 ], [ 2.585163, 43.205664 ] ] ], [ [ [ 2.574538, 43.185336 ], [ 2.578428, 43.184701 ], [ 2.583479481758875, 43.181114708528739 ], [ 2.583319, 43.181114 ], [ 2.582451, 43.181091 ], [ 2.580533, 43.180972 ], [ 2.579593, 43.180887 ], [ 2.579499606264681, 43.180876997013712 ], [ 2.573784871543881, 43.185388718991923 ], [ 2.574538, 43.185336 ] ] ], [ [ [ 2.589163087292397, 43.180679412485198 ], [ 2.590837823655521, 43.180884457335708 ], [ 2.591342974867686, 43.180246265574084 ], [ 2.590593, 43.180414 ], [ 2.589789, 43.180571 ], [ 2.589163087292397, 43.180679412485198 ] ] ], [ [ [ 2.601409, 43.171318 ], [ 2.600658, 43.171792 ], [ 2.600564736850154, 43.171854104537637 ], [ 2.600636300687759, 43.17196137865858 ], [ 2.601488930802249, 43.171444699267504 ], [ 2.601409, 43.171318 ] ] ], [ [ [ 2.568302, 43.176951 ], [ 2.569684, 43.176759 ], [ 2.570575, 43.176674 ], [ 2.571599, 43.176609 ], [ 2.572467, 43.176591 ], [ 2.573359, 43.176598 ], [ 2.574177, 43.17663 ], [ 2.576005, 43.176772 ], [ 2.569233, 43.171234 ], [ 2.56065, 43.169763 ], [ 2.560068, 43.169672 ], [ 2.55994, 43.16968 ], [ 2.555384, 43.172797 ], [ 2.548468856739309, 43.176243697276803 ], [ 2.555621, 43.176599 ], [ 2.559206, 43.176273 ], [ 2.56728, 43.177136 ], [ 2.568302, 43.176951 ] ] ], [ [ [ 2.526903, 43.169298 ], [ 2.525134, 43.171176 ], [ 2.525683, 43.170838 ], [ 2.526427, 43.170582 ], [ 2.527726, 43.170354 ], [ 2.529108, 43.173331 ], [ 2.53649, 43.175971 ], [ 2.536761, 43.175908 ], [ 2.537659, 43.175629 ], [ 2.537965, 43.175583 ], [ 2.540912, 43.175696 ], [ 2.543819, 43.175533 ], [ 2.544283, 43.175579 ], [ 2.544797, 43.175662 ], [ 2.547086, 43.176175 ], [ 2.547640729515366, 43.176202557740424 ], [ 2.543327, 43.173802 ], [ 2.539515, 43.174032 ], [ 2.531885, 43.171681 ], [ 2.530552, 43.170636 ], [ 2.529452, 43.169568 ], [ 2.52858, 43.169253 ], [ 2.528025, 43.169265 ], [ 2.526903, 43.169298 ] ] ], [ [ [ 2.507885, 43.16984 ], [ 2.507405, 43.169767 ], [ 2.505675, 43.169419 ], [ 2.505019, 43.169467 ], [ 2.504918, 43.16949 ], [ 2.497683, 43.174084 ], [ 2.498133, 43.174115 ], [ 2.499588, 43.174405 ], [ 2.500144, 43.17465 ], [ 2.502527, 43.175661 ], [ 2.509665, 43.170573 ], [ 2.509719, 43.170522 ], [ 2.510273, 43.169984 ], [ 2.510769, 43.169885 ], [ 2.511597, 43.169726 ], [ 2.507885, 43.16984 ] ] ], [ [ [ 2.473840009633394, 43.175652892375169 ], [ 2.472389, 43.174957 ], [ 2.473840009633392, 43.175652892375169 ], [ 2.473840009633394, 43.175652892375169 ] ] ], [ [ [ 2.476872, 43.161022 ], [ 2.47757, 43.16146 ], [ 2.478173, 43.161743 ], [ 2.479177, 43.162179 ], [ 2.485617, 43.159473 ], [ 2.487824, 43.156629 ], [ 2.489943, 43.151719 ], [ 2.489893226002973, 43.151722404096247 ], [ 2.489853, 43.151727 ], [ 2.488190939566697, 43.151838825264178 ], [ 2.487662, 43.151875 ], [ 2.486265, 43.151985 ], [ 2.481099, 43.159182 ], [ 2.48052, 43.159185 ], [ 2.475769, 43.160174 ], [ 2.472159, 43.159885 ], [ 2.476872, 43.161022 ] ] ], [ [ [ 2.503902191176737, 43.150141191176402 ], [ 2.502178886064753, 43.150548517839248 ], [ 2.502178887341329, 43.150548523241582 ], [ 2.503899, 43.150142 ], [ 2.503902191176737, 43.150141191176402 ] ] ], [ [ [ 2.469148369269548, 43.144538749021436 ], [ 2.469227, 43.144545 ], [ 2.469925, 43.144652 ], [ 2.470309, 43.144734 ], [ 2.470931, 43.145032 ], [ 2.47394340274314, 43.145524187448778 ], [ 2.474640275347797, 43.145242883934245 ], [ 2.478506926444331, 43.141573869989614 ], [ 2.473065, 43.143918 ], [ 2.469148369269548, 43.144538749021436 ] ] ], [ [ [ 2.465127, 43.145214 ], [ 2.46465, 43.145422 ], [ 2.463359, 43.147259 ], [ 2.463248848200084, 43.147352166995717 ], [ 2.464375, 43.147397 ], [ 2.465095287844687, 43.147305263101977 ], [ 2.465639, 43.146589 ], [ 2.46631, 43.145351 ], [ 2.467573, 43.1448 ], [ 2.467639307575112, 43.14477792106355 ], [ 2.46591, 43.145052 ], [ 2.465127, 43.145214 ] ] ], [ [ [ 2.441282, 43.149128 ], [ 2.440965, 43.149073 ], [ 2.435822, 43.149449 ], [ 2.435724, 43.149471 ], [ 2.435169, 43.153029 ], [ 2.431494, 43.158964 ], [ 2.42606839399316, 43.161282478453288 ], [ 2.431943, 43.160593 ], [ 2.433797, 43.160374 ], [ 2.439396, 43.158538 ], [ 2.440502, 43.15389 ], [ 2.441209, 43.15036 ], [ 2.44204, 43.150334 ], [ 2.44385, 43.150303 ], [ 2.446135701643247, 43.150335724116793 ], [ 2.441282, 43.149128 ] ] ], [ [ [ 2.421959, 43.163566 ], [ 2.422101, 43.16441 ], [ 2.417772207971776, 43.168927692666799 ], [ 2.41853, 43.169291 ], [ 2.421651, 43.169431 ], [ 2.422759538247252, 43.169084970832991 ], [ 2.422764, 43.164567 ], [ 2.422211392801865, 43.16269963599359 ], [ 2.421959, 43.163566 ] ] ] ] } },
{ "type": "Feature", "properties": { "codgeo": "11397", "value": 1020, "isochrone_group": 17.0, "nb_agences": 1 }, "geometry": { "type": "MultiPolygon", "coordinates": [ [ [ [ 2.573752638474839, 43.193614033000308 ], [ 2.571783, 43.194836 ], [ 2.573358794606045, 43.197021332739389 ], [ 2.575303, 43.195141 ], [ 2.573752638474839, 43.193614033000308 ] ] ], [ [ [ 2.628183045871132, 43.171369634156434 ], [ 2.628477947468221, 43.171446183592998 ], [ 2.628512, 43.171321 ], [ 2.628217986682344, 43.171241049010092 ], [ 2.628183045871132, 43.171369634156434 ] ] ], [ [ [ 2.551258, 43.168256 ], [ 2.548924, 43.175926 ], [ 2.547672269302335, 43.176002405566308 ], [ 2.548449174318502, 43.176253507535769 ], [ 2.555384, 43.172797 ], [ 2.557161675991116, 43.171580798054372 ], [ 2.555955, 43.171708 ], [ 2.555422, 43.171744 ], [ 2.554931, 43.171666 ], [ 2.553828, 43.171332 ], [ 2.553352, 43.170182 ], [ 2.553248, 43.169478 ], [ 2.553236, 43.167781 ], [ 2.55322877872017, 43.167669680411656 ], [ 2.552555, 43.167833 ], [ 2.552113, 43.167945 ], [ 2.551258, 43.168256 ] ] ], [ [ [ 2.579956, 43.177193 ], [ 2.580819, 43.177273 ], [ 2.581822, 43.177349 ], [ 2.582198306754028, 43.177362518531332 ], [ 2.583284546342327, 43.175558455327099 ], [ 2.578664, 43.172286 ], [ 2.577783, 43.168796 ], [ 2.569178, 43.168616 ], [ 2.567705, 43.168587 ], [ 2.563975396573236, 43.16756886253134 ], [ 2.563946, 43.16862 ], [ 2.562997, 43.169464 ], [ 2.562275681936302, 43.170041617980701 ], [ 2.569233, 43.171234 ], [ 2.576005, 43.176772 ], [ 2.577993, 43.176984 ], [ 2.579956, 43.177193 ] ] ], [ [ [ 2.535428, 43.170621 ], [ 2.530031743894357, 43.170130878617442 ], [ 2.530552, 43.170636 ], [ 2.531885, 43.171681 ], [ 2.539515, 43.174032 ], [ 2.541654197403317, 43.173902929852368 ], [ 2.537395, 43.170344 ], [ 2.535428, 43.170621 ] ] ], [ [ [ 2.488595, 43.160674 ], [ 2.491213, 43.161497 ], [ 2.493067, 43.158411 ], [ 2.492473, 43.158054 ], [ 2.492005, 43.157715 ], [ 2.493189100050592, 43.151542869499508 ], [ 2.489943, 43.151719 ], [ 2.487824, 43.156629 ], [ 2.485617, 43.159473 ], [ 2.479177, 43.162179 ], [ 2.478173, 43.161743 ], [ 2.47919, 43.162288 ], [ 2.480259, 43.163127 ], [ 2.480775, 43.163512 ], [ 2.487395, 43.160519 ], [ 2.488065, 43.160682 ], [ 2.488595, 43.160674 ] ] ], [ [ [ 2.476872, 43.161022 ], [ 2.472815921016199, 43.160043480627088 ], [ 2.472815921016197, 43.160043480627088 ], [ 2.476872, 43.161022 ] ] ], [ [ [ 2.498964057312975, 43.151216550944973 ], [ 2.498642, 43.151247 ], [ 2.49896405731304, 43.151216550944973 ], [ 2.498964057312975, 43.151216550944973 ] ] ], [ [ [ 2.499585773512405, 43.15112921880997 ], [ 2.499192, 43.151195 ], [ 2.499585773512425, 43.15112921880997 ], [ 2.499585773512405, 43.15112921880997 ] ] ], [ [ [ 2.499192, 43.151195 ], [ 2.499120897338446, 43.15120172243347 ], [ 2.499120897338408, 43.15120172243347 ], [ 2.499192, 43.151195 ] ] ], [ [ [ 2.500054, 43.151051 ], [ 2.499983498800866, 43.151062777462492 ], [ 2.49998349880085, 43.151062777462506 ], [ 2.500054, 43.151051 ] ] ], [ [ [ 2.509301, 43.15096 ], [ 2.509707, 43.150909 ], [ 2.509826, 43.150875 ], [ 2.510810572225076, 43.150435237356447 ], [ 2.503903, 43.150141 ], [ 2.503902191176737, 43.150141191176402 ], [ 2.503899, 43.150142 ], [ 2.501978, 43.150596 ], [ 2.50845, 43.150884 ], [ 2.508849, 43.150954 ], [ 2.509301, 43.15096 ] ] ], [ [ [ 2.464794, 43.142084 ], [ 2.464671, 43.141984 ], [ 2.462548, 43.142616 ], [ 2.461876, 43.143064 ], [ 2.461282, 43.143796 ], [ 2.461165, 43.14507 ], [ 2.458781739896229, 43.151031564672181 ], [ 2.458925, 43.150987 ], [ 2.458962675536787, 43.150977435312647 ], [ 2.462500228619237, 43.147985353537919 ], [ 2.463315, 43.147013 ], [ 2.46465, 43.145422 ], [ 2.465127, 43.145214 ], [ 2.46591, 43.145052 ], [ 2.466634714050362, 43.144937139659937 ], [ 2.465423, 43.143249 ], [ 2.465127, 43.142531 ], [ 2.464794, 43.142084 ] ] ], [ [ [ 2.430429, 43.157425 ], [ 2.428495, 43.158793 ], [ 2.424979, 43.161748 ], [ 2.431494, 43.158964 ], [ 2.435169, 43.153029 ], [ 2.435724, 43.149471 ], [ 2.435822, 43.149449 ], [ 2.440965, 43.149073 ], [ 2.441282, 43.149128 ], [ 2.44639, 43.150399 ], [ 2.447092, 43.15058 ], [ 2.453753388230352, 43.152723718639407 ], [ 2.453867186855037, 43.152620468415066 ], [ 2.448712, 43.150266 ], [ 2.447846, 43.150009 ], [ 2.446417, 43.149849 ], [ 2.445844, 43.149819 ], [ 2.437784, 43.147284 ], [ 2.434897, 43.146817 ], [ 2.43204, 43.149498 ], [ 2.432135, 43.150276 ], [ 2.430429, 43.157425 ] ] ], [ [ [ 2.410624, 43.165396 ], [ 2.411457, 43.1659 ], [ 2.410618, 43.164896 ], [ 2.410208, 43.165015 ], [ 2.409815010329349, 43.165103292251672 ], [ 2.410624, 43.165396 ] ] ] ] } },
{ "type": "Feature", "properties": { "codgeo": "11397", "value": 1080, "isochrone_group": 18.0, "nb_agences": 1 }, "geometry": { "type": "MultiPolygon", "coordinates": [ [ [ [ 2.547734, 43.171832 ], [ 2.54805, 43.169994 ], [ 2.548254, 43.16827 ], [ 2.548272408153918, 43.168027532670322 ], [ 2.548217, 43.168037 ], [ 2.54208, 43.168668 ], [ 2.541506, 43.168683 ], [ 2.541173, 43.168745 ], [ 2.539652, 43.169242 ], [ 2.535428, 43.170621 ], [ 2.537395, 43.170344 ], [ 2.542778883045122, 43.174842702519868 ], [ 2.546793805183162, 43.176056026963174 ], [ 2.548924, 43.175926 ], [ 2.549855777980104, 43.172863987528963 ], [ 2.549213, 43.172688 ], [ 2.547734, 43.171832 ] ] ], [ [ [ 2.495305, 43.162527 ], [ 2.496824, 43.161154 ], [ 2.496832, 43.160785 ], [ 2.496739, 43.158875 ], [ 2.500054, 43.151051 ], [ 2.49998349880085, 43.151062777462506 ], [ 2.499927, 43.151076 ], [ 2.499585773512425, 43.15112921880997 ], [ 2.499192, 43.151195 ], [ 2.499120897338408, 43.15120172243347 ], [ 2.499055, 43.151212 ], [ 2.499031866693613, 43.151213157634629 ], [ 2.499031, 43.151214 ], [ 2.498642, 43.151247 ], [ 2.497694, 43.151295 ], [ 2.497590866943486, 43.151285268001651 ], [ 2.493196330842338, 43.151505178942635 ], [ 2.492005, 43.157715 ], [ 2.492473, 43.158054 ], [ 2.493067, 43.158411 ], [ 2.491213, 43.161497 ], [ 2.488595, 43.160674 ], [ 2.488065, 43.160682 ], [ 2.487395, 43.160519 ], [ 2.480775, 43.163512 ], [ 2.480259, 43.163127 ], [ 2.47919, 43.162288 ], [ 2.478173, 43.161743 ], [ 2.47757, 43.16146 ], [ 2.476872, 43.161022 ], [ 2.472159, 43.159885 ], [ 2.471368, 43.159968 ], [ 2.47117, 43.159992 ], [ 2.468754, 43.168658 ], [ 2.467018, 43.171812 ], [ 2.465434399684791, 43.171747887445719 ], [ 2.466165244217667, 43.174363445319436 ], [ 2.469531, 43.17565 ], [ 2.470552, 43.174872 ], [ 2.471453, 43.174792 ], [ 2.472389, 43.174957 ], [ 2.475721, 43.176555 ], [ 2.484106, 43.173615 ], [ 2.485081, 43.172024 ], [ 2.486486, 43.171024 ], [ 2.489206, 43.170547 ], [ 2.496772, 43.174181 ], [ 2.497683, 43.174084 ], [ 2.502543, 43.17137 ], [ 2.504918, 43.16949 ], [ 2.498687, 43.170421 ], [ 2.495305, 43.162527 ] ] ], [ [ [ 2.580894, 43.170233 ], [ 2.581758746988058, 43.168493566403335 ], [ 2.579765349709259, 43.167769539352996 ], [ 2.578828, 43.168788 ], [ 2.57677231508895, 43.167315941382441 ], [ 2.576466, 43.167614 ], [ 2.574635345098874, 43.168730157131634 ], [ 2.577783, 43.168796 ], [ 2.578664, 43.172286 ], [ 2.579488538399458, 43.172869971002086 ], [ 2.580143, 43.17231 ], [ 2.580894, 43.170233 ] ] ], [ [ [ 2.512363, 43.149836 ], [ 2.511469, 43.15041 ], [ 2.511298, 43.150456 ], [ 2.510810572225076, 43.150435237356447 ], [ 2.509826, 43.150875 ], [ 2.516939191911952, 43.149418512978706 ], [ 2.512363, 43.149836 ] ] ], [ [ [ 2.457877, 43.142371 ], [ 2.45767, 43.142805 ], [ 2.457523, 43.143256 ], [ 2.458327482830656, 43.148573369835653 ], [ 2.458536, 43.148489 ], [ 2.459879152418083, 43.1482864611433 ], [ 2.461165, 43.14507 ], [ 2.461282, 43.143796 ], [ 2.461876, 43.143064 ], [ 2.462548, 43.142616 ], [ 2.464538, 43.141829 ], [ 2.464794, 43.142084 ], [ 2.469119615285254, 43.144248915231458 ], [ 2.46657, 43.141896 ], [ 2.467417, 43.139985 ], [ 2.466602, 43.138758 ], [ 2.465448, 43.138464 ], [ 2.464724, 43.138661 ], [ 2.459739, 43.140603 ], [ 2.459103, 43.140966 ], [ 2.458264, 43.141769 ], [ 2.457877, 43.142371 ] ] ], [ [ [ 2.438102, 43.145234 ], [ 2.437571, 43.145362 ], [ 2.437455, 43.145401 ], [ 2.436877, 43.145659 ], [ 2.435724, 43.14621 ], [ 2.428933, 43.150614 ], [ 2.427812, 43.154882 ], [ 2.426319, 43.158158 ], [ 2.424987624479579, 43.161667194893582 ], [ 2.425094601312292, 43.161650843606985 ], [ 2.428495, 43.158793 ], [ 2.430429, 43.157425 ], [ 2.432135, 43.150276 ], [ 2.43204, 43.149498 ], [ 2.434897, 43.146817 ], [ 2.437784, 43.147284 ], [ 2.445844, 43.149819 ], [ 2.446417, 43.149849 ], [ 2.447846, 43.150009 ], [ 2.445577, 43.149201 ], [ 2.441639, 43.145032 ], [ 2.441495, 43.144947 ], [ 2.441098, 43.144881 ], [ 2.440353, 43.144858 ], [ 2.43978, 43.14491 ], [ 2.438102, 43.145234 ] ] ] ] } },
{ "type": "Feature", "properties": { "codgeo": "11397", "value": 1140, "isochrone_group": 19.0, "nb_agences": 1 }, "geometry": { "type": "MultiPolygon", "coordinates": [ [ [ [ 2.540968, 43.167615 ], [ 2.540275, 43.167483 ], [ 2.538282, 43.167451 ], [ 2.537394, 43.167361 ], [ 2.529163, 43.169898 ], [ 2.529945, 43.170123 ], [ 2.535428, 43.170621 ], [ 2.539652, 43.169242 ], [ 2.541173, 43.168745 ], [ 2.541506, 43.168683 ], [ 2.54190443762811, 43.168672587866858 ], [ 2.54184, 43.168238 ], [ 2.542267, 43.168174 ], [ 2.542818, 43.168136 ], [ 2.544017904526823, 43.168148333820405 ], [ 2.542025, 43.168067 ], [ 2.541209, 43.167657 ], [ 2.540968, 43.167615 ] ] ], [ [ [ 2.581698798965306, 43.165943921226109 ], [ 2.581219109902297, 43.167114623868613 ], [ 2.583727, 43.166792 ], [ 2.584835083686694, 43.167000873872382 ], [ 2.581698798965306, 43.165943921226109 ] ] ], [ [ [ 2.594097867775143, 43.173942195851041 ], [ 2.594819, 43.174878 ], [ 2.596643, 43.174029 ], [ 2.596989355753983, 43.173843643232878 ], [ 2.594097867775143, 43.173942195851041 ] ] ], [ [ [ 2.499165, 43.156875 ], [ 2.503169113552176, 43.151180091561713 ], [ 2.502432, 43.151504 ], [ 2.499933839853349, 43.151334599694543 ], [ 2.496739, 43.158875 ], [ 2.496832, 43.160785 ], [ 2.496824, 43.161154 ], [ 2.495305, 43.162527 ], [ 2.498687, 43.170421 ], [ 2.504918, 43.16949 ], [ 2.49792, 43.164721 ], [ 2.49993, 43.160393 ], [ 2.499165, 43.156875 ] ] ], [ [ [ 2.511351337078652, 43.1505626741573 ], [ 2.509826, 43.150875 ], [ 2.511398372373069, 43.150656744746129 ], [ 2.511351337078652, 43.1505626741573 ] ] ], [ [ [ 2.457877, 43.142371 ], [ 2.458264, 43.141769 ], [ 2.459103, 43.140966 ], [ 2.459739, 43.140603 ], [ 2.464724, 43.138661 ], [ 2.465448, 43.138464 ], [ 2.466602, 43.138758 ], [ 2.467417, 43.139985 ], [ 2.466706800775847, 43.141587350315646 ], [ 2.466802, 43.1417 ], [ 2.470931, 43.145032 ], [ 2.471398, 43.145475 ], [ 2.471430585046317, 43.14548979990618 ], [ 2.472246633296866, 43.145554515121049 ], [ 2.469378, 43.140192 ], [ 2.469305, 43.139997 ], [ 2.469032, 43.139472 ], [ 2.468289, 43.138674 ], [ 2.467935, 43.138319 ], [ 2.467495, 43.138051 ], [ 2.467079, 43.137806 ], [ 2.466609, 43.137639 ], [ 2.465812, 43.137607 ], [ 2.459762, 43.138466 ], [ 2.45905, 43.138584 ], [ 2.458991, 43.138607 ], [ 2.457877, 43.142371 ] ] ], [ [ [ 2.455984, 43.14623 ], [ 2.447404, 43.144144 ], [ 2.44662, 43.143959 ], [ 2.445624, 43.143725 ], [ 2.43978, 43.14491 ], [ 2.440353, 43.144858 ], [ 2.441098, 43.144881 ], [ 2.441495, 43.144947 ], [ 2.441639, 43.145032 ], [ 2.445577, 43.149201 ], [ 2.447846, 43.150009 ], [ 2.448712, 43.150266 ], [ 2.450885344087379, 43.15125860611743 ], [ 2.451494, 43.151365 ], [ 2.452671776267805, 43.151335017870331 ], [ 2.458270020674283, 43.148193563672812 ], [ 2.457524405607202, 43.143265290606408 ], [ 2.457478, 43.143412 ], [ 2.455984, 43.14623 ] ] ], [ [ [ 2.427009, 43.151758 ], [ 2.426667, 43.15237 ], [ 2.426875, 43.155349 ], [ 2.424953476174839, 43.161754079417193 ], [ 2.424954778500881, 43.161753769221399 ], [ 2.426319, 43.158158 ], [ 2.427812, 43.154882 ], [ 2.428933, 43.150614 ], [ 2.435724, 43.14621 ], [ 2.428221, 43.15079 ], [ 2.427009, 43.151758 ] ] ] ] } },
{ "type": "Feature", "properties": { "codgeo": "11397", "value": 1200, "isochrone_group": 20.0, "nb_agences": 1 }, "geometry": { "type": "MultiPolygon", "coordinates": [ [ [ [ 2.590794, 43.168159 ], [ 2.590588853111712, 43.168005890371191 ], [ 2.590722, 43.168136 ], [ 2.59083282135806, 43.168185405757953 ], [ 2.590794, 43.168159 ] ] ], [ [ [ 2.502544, 43.159911 ], [ 2.501852, 43.156378 ], [ 2.508849, 43.150954 ], [ 2.50845, 43.150884 ], [ 2.503531194840304, 43.15066511621044 ], [ 2.499165, 43.156875 ], [ 2.49993, 43.160393 ], [ 2.49792, 43.164721 ], [ 2.504918, 43.16949 ], [ 2.505018, 43.16948 ], [ 2.505675, 43.169419 ], [ 2.500547, 43.166477 ], [ 2.502544, 43.159911 ] ] ], [ [ [ 2.511321212171708, 43.150667455071257 ], [ 2.509826, 43.150875 ], [ 2.511321212171708, 43.150667455071257 ], [ 2.511321212171708, 43.150667455071257 ] ] ], [ [ [ 2.447599, 43.143805 ], [ 2.447033, 43.143512 ], [ 2.446063, 43.143205 ], [ 2.445248, 43.143147 ], [ 2.442455, 43.143321 ], [ 2.437455, 43.145401 ], [ 2.437571, 43.145362 ], [ 2.438102, 43.145234 ], [ 2.43978, 43.14491 ], [ 2.445624, 43.143725 ], [ 2.44662, 43.143959 ], [ 2.447404, 43.144144 ], [ 2.44804301913421, 43.14429936059603 ], [ 2.447958, 43.144165 ], [ 2.447599, 43.143805 ] ] ], [ [ [ 2.455854609097162, 43.14381578173159 ], [ 2.451010132276633, 43.145020735656061 ], [ 2.454817028494726, 43.145946281752927 ], [ 2.454944, 43.145805 ], [ 2.455854609097162, 43.14381578173159 ] ] ], [ [ [ 2.471315, 43.139004 ], [ 2.466609, 43.137639 ], [ 2.467079, 43.137806 ], [ 2.467495, 43.138051 ], [ 2.467935, 43.138319 ], [ 2.468289, 43.138674 ], [ 2.468618, 43.138978 ], [ 2.468657075969274, 43.139069322508064 ], [ 2.469032, 43.139472 ], [ 2.469305, 43.139997 ], [ 2.469378, 43.140192 ], [ 2.472462811228217, 43.145958630009822 ], [ 2.473806759924736, 43.146569042357179 ], [ 2.475676896225306, 43.143833243066446 ], [ 2.474079, 43.14131 ], [ 2.471315, 43.139004 ] ] ] ] } }
]
}
