{
"type": "FeatureCollection",
"name": "Credit_Agricole",
"crs": { "type": "name", "properties": { "name": "urn:ogc:def:crs:OGC:1.3:CRS84" } },
"features": [
{ "type": "Feature", "properties": { "codgeo": "31113", "value": 60, "isochrone_group": 1.0, "nb_agences": 3 }, "geometry": { "type": "Polygon", "coordinates": [ [ [ 1.503596, 43.512189 ], [ 1.503561, 43.511831 ], [ 1.501956, 43.511336 ], [ 1.500599, 43.511753 ], [ 1.498771, 43.512511 ], [ 1.497426, 43.513218 ], [ 1.495615, 43.51449 ], [ 1.49615, 43.517123 ], [ 1.496234, 43.517473 ], [ 1.496447989164638, 43.518378470108857 ], [ 1.495045, 43.519784 ], [ 1.494902, 43.520114 ], [ 1.494707, 43.521093 ], [ 1.494799, 43.522148 ], [ 1.495096, 43.522351 ], [ 1.497431, 43.520777 ], [ 1.497478, 43.52071 ], [ 1.498047962852521, 43.518664263766176 ], [ 1.500817, 43.517241 ], [ 1.50093, 43.517128 ], [ 1.500968, 43.51706 ], [ 1.500991161594369, 43.517017069967217 ], [ 1.500919, 43.51727 ], [ 1.500722, 43.51887 ], [ 1.500866, 43.519036 ], [ 1.504179, 43.521989 ], [ 1.504458, 43.522216 ], [ 1.504725, 43.522251 ], [ 1.509993, 43.520776 ], [ 1.510134, 43.520444 ], [ 1.509042, 43.51873 ], [ 1.508235, 43.517409 ], [ 1.502846, 43.515865 ], [ 1.501052772144716, 43.516902874765236 ], [ 1.503596, 43.512189 ] ] ] } },
{ "type": "Feature", "properties": { "codgeo": "31113", "value": 120, "isochrone_group": 2.0, "nb_agences": 3 }, "geometry": { "type": "Polygon", "coordinates": [ [ [ 1.513147, 43.51011 ], [ 1.513145, 43.50975 ], [ 1.510523, 43.509467 ], [ 1.505083, 43.508282 ], [ 1.501265, 43.509722 ], [ 1.49869, 43.510518 ], [ 1.498326, 43.510722 ], [ 1.497963, 43.510926 ], [ 1.494229, 43.513357 ], [ 1.492055, 43.514869 ], [ 1.491958, 43.514961 ], [ 1.49196, 43.515216 ], [ 1.49199, 43.51532 ], [ 1.49342931733591, 43.518825557771279 ], [ 1.492572, 43.519426 ], [ 1.492568, 43.519672 ], [ 1.492563, 43.520738 ], [ 1.492686, 43.521076 ], [ 1.491713, 43.526452 ], [ 1.491128, 43.526904 ], [ 1.490543, 43.527356 ], [ 1.490763, 43.52764 ], [ 1.493607, 43.52596 ], [ 1.499548, 43.525181 ], [ 1.499822434525024, 43.525174842815147 ], [ 1.499825, 43.525178 ], [ 1.500178, 43.525248 ], [ 1.503615, 43.524898 ], [ 1.50446, 43.524786 ], [ 1.507217, 43.52338 ], [ 1.511458, 43.522515 ], [ 1.513693, 43.522158 ], [ 1.514362, 43.5218 ], [ 1.514763, 43.521347 ], [ 1.514863, 43.521001 ], [ 1.511317, 43.516932 ], [ 1.510567, 43.516333 ], [ 1.508658712297815, 43.512530055222072 ], [ 1.508847, 43.512356 ], [ 1.513147, 43.51011 ] ], [ [ 1.501052772144716, 43.516902874765236 ], [ 1.502846, 43.515865 ], [ 1.508235, 43.517409 ], [ 1.509042, 43.51873 ], [ 1.510134, 43.520444 ], [ 1.509993, 43.520776 ], [ 1.504725, 43.522251 ], [ 1.504458, 43.522216 ], [ 1.504179, 43.521989 ], [ 1.500866, 43.519036 ], [ 1.500722, 43.51887 ], [ 1.500919, 43.51727 ], [ 1.500991161594369, 43.517017069967217 ], [ 1.500968, 43.51706 ], [ 1.50093, 43.517128 ], [ 1.500817, 43.517241 ], [ 1.498047962852521, 43.518664263766176 ], [ 1.497478, 43.52071 ], [ 1.497431, 43.520777 ], [ 1.495096, 43.522351 ], [ 1.494799, 43.522148 ], [ 1.494707, 43.521093 ], [ 1.494902, 43.520114 ], [ 1.495045, 43.519784 ], [ 1.496447989164638, 43.518378470108857 ], [ 1.496234, 43.517473 ], [ 1.49615, 43.517123 ], [ 1.495615, 43.51449 ], [ 1.497426, 43.513218 ], [ 1.498771, 43.512511 ], [ 1.500599, 43.511753 ], [ 1.501956, 43.511336 ], [ 1.503561, 43.511831 ], [ 1.503596, 43.512189 ], [ 1.501052772144716, 43.516902874765236 ] ] ] } },
{ "type": "Feature", "properties": { "codgeo": "31113", "value": 180, "isochrone_group": 3.0, "nb_agences": 3 }, "geometry": { "type": "Polygon", "coordinates": [ [ [ 1.519587, 43.511861 ], [ 1.521202, 43.511606 ], [ 1.521269, 43.511252 ], [ 1.516337, 43.508479 ], [ 1.508843, 43.504862 ], [ 1.502563, 43.507201 ], [ 1.494354, 43.509564 ], [ 1.489075, 43.508677 ], [ 1.484228, 43.513791 ], [ 1.484145, 43.514142 ], [ 1.48544, 43.515556 ], [ 1.485679, 43.515825 ], [ 1.486481, 43.51596 ], [ 1.489961605271187, 43.519653516511177 ], [ 1.486226, 43.527001 ], [ 1.484055, 43.527708 ], [ 1.483385, 43.527986 ], [ 1.483439, 43.528342 ], [ 1.484591, 43.534359 ], [ 1.484889, 43.534561 ], [ 1.488329, 43.533203 ], [ 1.493296, 43.528145 ], [ 1.498382251661376, 43.526339375923513 ], [ 1.498599, 43.526407 ], [ 1.506512, 43.525183 ], [ 1.507563, 43.525111 ], [ 1.508612, 43.525067 ], [ 1.516415, 43.527176 ], [ 1.516805, 43.527185 ], [ 1.517033, 43.526907 ], [ 1.517234, 43.521938 ], [ 1.51724, 43.521662 ], [ 1.517132, 43.521541 ], [ 1.515302, 43.518835 ], [ 1.51691, 43.511303 ], [ 1.516923756473527, 43.511289575808433 ], [ 1.519228, 43.511834 ], [ 1.519587, 43.511861 ] ], [ [ 1.508658712297815, 43.512530055222072 ], [ 1.510567, 43.516333 ], [ 1.511317, 43.516932 ], [ 1.514863, 43.521001 ], [ 1.514763, 43.521347 ], [ 1.514362, 43.5218 ], [ 1.513693, 43.522158 ], [ 1.511458, 43.522515 ], [ 1.507217, 43.52338 ], [ 1.50446, 43.524786 ], [ 1.503615, 43.524898 ], [ 1.500178, 43.525248 ], [ 1.499825, 43.525178 ], [ 1.499822434525024, 43.525174842815147 ], [ 1.499548, 43.525181 ], [ 1.493607, 43.52596 ], [ 1.490763, 43.52764 ], [ 1.490543, 43.527356 ], [ 1.491128, 43.526904 ], [ 1.491713, 43.526452 ], [ 1.492686, 43.521076 ], [ 1.492563, 43.520738 ], [ 1.492568, 43.519672 ], [ 1.492572, 43.519426 ], [ 1.49342931733591, 43.518825557771279 ], [ 1.49199, 43.51532 ], [ 1.49196, 43.515216 ], [ 1.491958, 43.514961 ], [ 1.492055, 43.514869 ], [ 1.494229, 43.513357 ], [ 1.497963, 43.510926 ], [ 1.498326, 43.510722 ], [ 1.49869, 43.510518 ], [ 1.501265, 43.509722 ], [ 1.505083, 43.508282 ], [ 1.510523, 43.509467 ], [ 1.513145, 43.50975 ], [ 1.513147, 43.51011 ], [ 1.508847, 43.512356 ], [ 1.508658712297815, 43.512530055222072 ] ] ] } },
{ "type": "Feature", "properties": { "codgeo": "31113", "value": 240, "isochrone_group": 4.0, "nb_agences": 3 }, "geometry": { "type": "Polygon", "coordinates": [ [ [ 1.527522, 43.515661 ], [ 1.527761, 43.515726 ], [ 1.528707, 43.512253 ], [ 1.524808, 43.507285 ], [ 1.516681, 43.504825 ], [ 1.514071, 43.502765 ], [ 1.511642, 43.500109 ], [ 1.508611, 43.500083 ], [ 1.508013, 43.500191 ], [ 1.507776, 43.500278 ], [ 1.506918, 43.501702 ], [ 1.500485, 43.506602 ], [ 1.497336, 43.504944 ], [ 1.492239, 43.505359 ], [ 1.485109, 43.501171 ], [ 1.484512, 43.501233 ], [ 1.484395, 43.501263 ], [ 1.483593, 43.50211 ], [ 1.48356, 43.502177 ], [ 1.483384, 43.502703 ], [ 1.483284, 43.503531 ], [ 1.483281, 43.503992 ], [ 1.483334, 43.504411 ], [ 1.479903, 43.512697 ], [ 1.476739, 43.513503 ], [ 1.476563, 43.513608 ], [ 1.476126, 43.513971 ], [ 1.474911, 43.515965 ], [ 1.475158, 43.516265 ], [ 1.475781, 43.5169 ], [ 1.476227, 43.517232 ], [ 1.476958, 43.517491 ], [ 1.47757, 43.517517 ], [ 1.478005, 43.517463 ], [ 1.478424, 43.517371 ], [ 1.483166, 43.518897 ], [ 1.480915, 43.526365 ], [ 1.480482, 43.526769 ], [ 1.479306, 43.527956 ], [ 1.47937919251974, 43.528415379367317 ], [ 1.478442, 43.529589 ], [ 1.476839, 43.531593 ], [ 1.47686, 43.531783 ], [ 1.47702, 43.532105 ], [ 1.480797, 43.538214 ], [ 1.48102, 43.538497 ], [ 1.481541, 43.539055 ], [ 1.4819, 43.539031 ], [ 1.483372486520759, 43.537611369710916 ], [ 1.483949, 43.537899 ], [ 1.491375, 43.535652 ], [ 1.492077421734098, 43.534471915287895 ], [ 1.493187, 43.534255 ], [ 1.493257, 43.534241 ], [ 1.493316, 43.534154 ], [ 1.493364, 43.53405 ], [ 1.495809217929261, 43.529308720848398 ], [ 1.500679, 43.526709 ], [ 1.50377, 43.52657 ], [ 1.50455, 43.526533 ], [ 1.505958276223556, 43.525996755949876 ], [ 1.507095, 43.525959 ], [ 1.514686, 43.529445 ], [ 1.520675, 43.530095 ], [ 1.520955, 43.530023 ], [ 1.520869, 43.529674 ], [ 1.519599, 43.526631 ], [ 1.51844, 43.52356 ], [ 1.518071, 43.521393 ], [ 1.518581366506569, 43.518707166348214 ], [ 1.521785, 43.515666 ], [ 1.527522, 43.515661 ] ], [ [ 1.516923756473527, 43.511289575808433 ], [ 1.51691, 43.511303 ], [ 1.515302, 43.518835 ], [ 1.517132, 43.521541 ], [ 1.51724, 43.521662 ], [ 1.517234, 43.521938 ], [ 1.517033, 43.526907 ], [ 1.516805, 43.527185 ], [ 1.516415, 43.527176 ], [ 1.508612, 43.525067 ], [ 1.507563, 43.525111 ], [ 1.506512, 43.525183 ], [ 1.498599, 43.526407 ], [ 1.498382251661376, 43.526339375923513 ], [ 1.493296, 43.528145 ], [ 1.488329, 43.533203 ], [ 1.484889, 43.534561 ], [ 1.484591, 43.534359 ], [ 1.483439, 43.528342 ], [ 1.483385, 43.527986 ], [ 1.484055, 43.527708 ], [ 1.486226, 43.527001 ], [ 1.489961605271187, 43.519653516511177 ], [ 1.486481, 43.51596 ], [ 1.485679, 43.515825 ], [ 1.48544, 43.515556 ], [ 1.484145, 43.514142 ], [ 1.484228, 43.513791 ], [ 1.489075, 43.508677 ], [ 1.494354, 43.509564 ], [ 1.502563, 43.507201 ], [ 1.508843, 43.504862 ], [ 1.516337, 43.508479 ], [ 1.521269, 43.511252 ], [ 1.521202, 43.511606 ], [ 1.519587, 43.511861 ], [ 1.519228, 43.511834 ], [ 1.516923756473527, 43.511289575808433 ] ] ] } },
{ "type": "Feature", "properties": { "codgeo": "31113", "value": 300, "isochrone_group": 5.0, "nb_agences": 3 }, "geometry": { "type": "MultiPolygon", "coordinates": [ [ [ [ 1.517138, 43.49689 ], [ 1.515685, 43.496583 ], [ 1.509604, 43.497917 ], [ 1.506669, 43.498041 ], [ 1.505223, 43.498645 ], [ 1.505088, 43.498829 ], [ 1.499684, 43.504475 ], [ 1.494492, 43.50241 ], [ 1.494304, 43.502217 ], [ 1.491952, 43.499853 ], [ 1.4892, 43.49779 ], [ 1.487049, 43.494904 ], [ 1.478896, 43.496983 ], [ 1.478603, 43.497093 ], [ 1.478199, 43.499998 ], [ 1.477471, 43.504695 ], [ 1.473633, 43.508035 ], [ 1.471272, 43.514282 ], [ 1.471243, 43.51458 ], [ 1.472021, 43.516028 ], [ 1.472064, 43.516053 ], [ 1.475874, 43.519311 ], [ 1.476702, 43.520084 ], [ 1.478135263389315, 43.525589565161745 ], [ 1.47552, 43.52783 ], [ 1.471379, 43.53382 ], [ 1.471057, 43.534421 ], [ 1.47091, 43.537184 ], [ 1.471567, 43.537847 ], [ 1.473926322643385, 43.540248525177894 ], [ 1.474718, 43.538132 ], [ 1.47484, 43.537793 ], [ 1.480700196677619, 43.538057428250887 ], [ 1.47702, 43.532105 ], [ 1.47686, 43.531783 ], [ 1.476839, 43.531593 ], [ 1.478442, 43.529589 ], [ 1.47937919251974, 43.528415379367317 ], [ 1.479306, 43.527956 ], [ 1.480482, 43.526769 ], [ 1.480915, 43.526365 ], [ 1.483166, 43.518897 ], [ 1.478424, 43.517371 ], [ 1.478005, 43.517463 ], [ 1.47757, 43.517517 ], [ 1.476958, 43.517491 ], [ 1.476227, 43.517232 ], [ 1.475781, 43.5169 ], [ 1.475158, 43.516265 ], [ 1.474911, 43.515965 ], [ 1.476126, 43.513971 ], [ 1.476563, 43.513608 ], [ 1.476739, 43.513503 ], [ 1.479903, 43.512697 ], [ 1.483334, 43.504411 ], [ 1.483281, 43.503992 ], [ 1.483284, 43.503531 ], [ 1.483384, 43.502703 ], [ 1.48356, 43.502177 ], [ 1.483593, 43.50211 ], [ 1.484395, 43.501263 ], [ 1.484512, 43.501233 ], [ 1.485109, 43.501171 ], [ 1.492239, 43.505359 ], [ 1.497336, 43.504944 ], [ 1.500485, 43.506602 ], [ 1.506918, 43.501702 ], [ 1.507776, 43.500278 ], [ 1.508013, 43.500191 ], [ 1.508611, 43.500083 ], [ 1.511642, 43.500109 ], [ 1.514071, 43.502765 ], [ 1.516681, 43.504825 ], [ 1.524668974664951, 43.507242917764962 ], [ 1.517386, 43.50351 ], [ 1.518013, 43.499329 ], [ 1.517409, 43.497042 ], [ 1.517138, 43.49689 ] ] ], [ [ [ 1.482495, 43.545272 ], [ 1.482966, 43.543898 ], [ 1.483145, 43.543208 ], [ 1.483351689955034, 43.541434969687394 ], [ 1.483409, 43.541432 ], [ 1.487792042399226, 43.537117597431688 ], [ 1.491797077163317, 43.535756011999695 ], [ 1.493522, 43.536087 ], [ 1.494045335583278, 43.535972359127435 ], [ 1.496552, 43.536332 ], [ 1.496748, 43.536025 ], [ 1.497016, 43.535383 ], [ 1.499866, 43.529482 ], [ 1.500091, 43.529234 ], [ 1.506070763136923, 43.527584338071669 ], [ 1.510386, 43.530701 ], [ 1.510445, 43.531413 ], [ 1.510704, 43.532313 ], [ 1.51473, 43.535695 ], [ 1.522138, 43.53406 ], [ 1.52387, 43.534619 ], [ 1.523949, 43.534596 ], [ 1.524564, 43.534281 ], [ 1.525208, 43.533381 ], [ 1.525124, 43.532049 ], [ 1.525734, 43.524898 ], [ 1.528102, 43.522779 ], [ 1.529268726481466, 43.520131931574561 ], [ 1.528729, 43.520044 ], [ 1.528489, 43.519776 ], [ 1.530135450221707, 43.518165509210036 ], [ 1.530869179888873, 43.516500823728371 ], [ 1.53188692773585, 43.516452284984901 ], [ 1.533846, 43.514536 ], [ 1.533965, 43.514532 ], [ 1.534261, 43.514735 ], [ 1.535138, 43.515284 ], [ 1.535429950340508, 43.515336878592883 ], [ 1.534946, 43.513283 ], [ 1.53485, 43.513231 ], [ 1.533128, 43.512624 ], [ 1.528426, 43.505059 ], [ 1.526388, 43.504143 ], [ 1.524805469350971, 43.507284233985906 ], [ 1.524808, 43.507285 ], [ 1.528707, 43.512253 ], [ 1.527761, 43.515726 ], [ 1.527522, 43.515661 ], [ 1.521785, 43.515666 ], [ 1.518581366506569, 43.518707166348214 ], [ 1.518071, 43.521393 ], [ 1.51844, 43.52356 ], [ 1.519599, 43.526631 ], [ 1.520869, 43.529674 ], [ 1.520955, 43.530023 ], [ 1.520675, 43.530095 ], [ 1.514686, 43.529445 ], [ 1.507095, 43.525959 ], [ 1.505958276223556, 43.525996755949876 ], [ 1.50455, 43.526533 ], [ 1.50377, 43.52657 ], [ 1.500679, 43.526709 ], [ 1.495809217929261, 43.529308720848398 ], [ 1.493364, 43.53405 ], [ 1.493316, 43.534154 ], [ 1.493257, 43.534241 ], [ 1.493187, 43.534255 ], [ 1.492077421734098, 43.534471915287895 ], [ 1.491375, 43.535652 ], [ 1.483949, 43.537899 ], [ 1.483372486520759, 43.537611369710916 ], [ 1.4819, 43.539031 ], [ 1.481541, 43.539055 ], [ 1.481138939872313, 43.538624386657872 ], [ 1.481718, 43.541066 ], [ 1.481686, 43.541425 ], [ 1.48092750931668, 43.544717437819259 ], [ 1.480906572295247, 43.544817308236858 ], [ 1.482495, 43.545272 ] ] ] ] } },
{ "type": "Feature", "properties": { "codgeo": "31113", "value": 360, "isochrone_group": 6.0, "nb_agences": 3 }, "geometry": { "type": "MultiPolygon", "coordinates": [ [ [ [ 1.522501, 43.49348 ], [ 1.521947, 43.492892 ], [ 1.520692, 43.492528 ], [ 1.520602, 43.492558 ], [ 1.520101, 43.492811 ], [ 1.516735, 43.494813 ], [ 1.510415, 43.497549 ], [ 1.506848, 43.496618 ], [ 1.504521, 43.494857 ], [ 1.503996, 43.494416 ], [ 1.503301, 43.493937 ], [ 1.502775, 43.4937 ], [ 1.502266, 43.493573 ], [ 1.501996, 43.493542 ], [ 1.501031, 43.493477 ], [ 1.493266, 43.489907 ], [ 1.493002, 43.490084 ], [ 1.492332, 43.490666 ], [ 1.492004, 43.490929 ], [ 1.491041, 43.491624 ], [ 1.486401, 43.494189 ], [ 1.48411569437843, 43.495651987536753 ], [ 1.487049, 43.494904 ], [ 1.4892, 43.49779 ], [ 1.491952, 43.499853 ], [ 1.494304, 43.502217 ], [ 1.494492, 43.50241 ], [ 1.499684, 43.504475 ], [ 1.505088, 43.498829 ], [ 1.505223, 43.498645 ], [ 1.506669, 43.498041 ], [ 1.509604, 43.497917 ], [ 1.515685, 43.496583 ], [ 1.517138, 43.49689 ], [ 1.517409, 43.497042 ], [ 1.518013, 43.499329 ], [ 1.517386, 43.50351 ], [ 1.524794, 43.507307 ], [ 1.526356135296846, 43.504206249636631 ], [ 1.525739, 43.503952 ], [ 1.522173, 43.495884 ], [ 1.522481, 43.495513 ], [ 1.522528, 43.49353 ], [ 1.522501, 43.49348 ] ] ], [ [ [ 1.475935, 43.492101 ], [ 1.475487, 43.492047 ], [ 1.474556, 43.492064 ], [ 1.47222, 43.495597 ], [ 1.471934, 43.496229 ], [ 1.471926, 43.497244 ], [ 1.4723, 43.498012 ], [ 1.47342, 43.50607 ], [ 1.467454, 43.510553 ], [ 1.467086, 43.510612 ], [ 1.4667, 43.51071 ], [ 1.466101, 43.510919 ], [ 1.465524, 43.511189 ], [ 1.467053, 43.514448 ], [ 1.469285, 43.516091 ], [ 1.470491, 43.516975 ], [ 1.472564900375604, 43.521093845772143 ], [ 1.47107, 43.523921 ], [ 1.470438, 43.524389 ], [ 1.470231, 43.524627 ], [ 1.467542, 43.53309 ], [ 1.467528, 43.533166 ], [ 1.467581, 43.534127 ], [ 1.467645342917486, 43.534880941819388 ], [ 1.470158, 43.532979 ], [ 1.470217, 43.532972 ], [ 1.472144009012871, 43.532713406426687 ], [ 1.47552, 43.52783 ], [ 1.478135263389315, 43.525589565161745 ], [ 1.476702, 43.520084 ], [ 1.475874, 43.519311 ], [ 1.472064, 43.516053 ], [ 1.472021, 43.516028 ], [ 1.471243, 43.51458 ], [ 1.471272, 43.514282 ], [ 1.473633, 43.508035 ], [ 1.477471, 43.504695 ], [ 1.478199, 43.499998 ], [ 1.478603, 43.497093 ], [ 1.478896, 43.496983 ], [ 1.483001867720669, 43.495936011285259 ], [ 1.477099, 43.492817 ], [ 1.476529, 43.492333 ], [ 1.475935, 43.492101 ] ] ], [ [ [ 1.492101, 43.536709 ], [ 1.495448, 43.538037 ], [ 1.502098, 43.534742 ], [ 1.50261, 43.534525 ], [ 1.502828, 43.534393 ], [ 1.50354, 43.53325 ], [ 1.506501917265493, 43.527895737352956 ], [ 1.506070763136923, 43.527584338071669 ], [ 1.500091, 43.529234 ], [ 1.499866, 43.529482 ], [ 1.497016, 43.535383 ], [ 1.496748, 43.536025 ], [ 1.496552, 43.536332 ], [ 1.494045335583278, 43.535972359127435 ], [ 1.493522, 43.536087 ], [ 1.491797077163317, 43.535756011999695 ], [ 1.487792042399226, 43.537117597431688 ], [ 1.485936970970239, 43.538943617855111 ], [ 1.485239178781757, 43.541992889775315 ], [ 1.492101, 43.536709 ] ] ], [ [ [ 1.50984, 43.540737 ], [ 1.512119, 43.541108 ], [ 1.512178, 43.541084 ], [ 1.512977, 43.538486 ], [ 1.520388, 43.537017 ], [ 1.522159, 43.536933 ], [ 1.527906, 43.538328 ], [ 1.528023, 43.538332 ], [ 1.528024988636119, 43.538278217111888 ], [ 1.526521, 43.536705 ], [ 1.526695, 43.535998 ], [ 1.527111, 43.535485 ], [ 1.525161268246624, 43.531612106177697 ], [ 1.525124, 43.532049 ], [ 1.525208, 43.533381 ], [ 1.524564, 43.534281 ], [ 1.523949, 43.534596 ], [ 1.52387, 43.534619 ], [ 1.522138, 43.53406 ], [ 1.51473, 43.535695 ], [ 1.510704, 43.532313 ], [ 1.510445, 43.531413 ], [ 1.510386, 43.530701 ], [ 1.508493572581352, 43.529334202145115 ], [ 1.509498, 43.532419 ], [ 1.508869, 43.53727 ], [ 1.50984, 43.540737 ] ] ], [ [ [ 1.536433, 43.510424 ], [ 1.536065, 43.510726 ], [ 1.535719, 43.510976 ], [ 1.531355524825461, 43.509772282710443 ], [ 1.532411767426332, 43.511471660693367 ], [ 1.535678, 43.510996 ], [ 1.537592, 43.514046 ], [ 1.539182505474349, 43.514347350787894 ], [ 1.538715, 43.513207 ], [ 1.536433, 43.510424 ] ] ] ] } },
{ "type": "Feature", "properties": { "codgeo": "31113", "value": 420, "isochrone_group": 7.0, "nb_agences": 3 }, "geometry": { "type": "MultiPolygon", "coordinates": [ [ [ [ 1.473374, 43.487249 ], [ 1.472783, 43.487493 ], [ 1.471982, 43.489522 ], [ 1.470895, 43.492241 ], [ 1.471926, 43.497244 ], [ 1.471934, 43.496229 ], [ 1.47222, 43.495597 ], [ 1.474556, 43.492064 ], [ 1.475487, 43.492047 ], [ 1.475935, 43.492101 ], [ 1.476529, 43.492333 ], [ 1.477099, 43.492817 ], [ 1.483369, 43.49613 ], [ 1.484829674184541, 43.495194918010476 ], [ 1.47764, 43.492429 ], [ 1.47651, 43.489011 ], [ 1.475764, 43.487759 ], [ 1.473945, 43.487162 ], [ 1.473807, 43.487171 ], [ 1.473374, 43.487249 ] ] ], [ [ [ 1.463006, 43.517186 ], [ 1.46866651665596, 43.521937362522024 ], [ 1.468084, 43.523275 ], [ 1.462745, 43.529861 ], [ 1.460173, 43.53238 ], [ 1.462152508103918, 43.538016596557384 ], [ 1.463113, 43.537134 ], [ 1.465324582887011, 43.533116106394246 ], [ 1.466002, 43.531569 ], [ 1.46603, 43.531499 ], [ 1.467344058228883, 43.530549088859679 ], [ 1.467487, 43.530399 ], [ 1.467541856516858, 43.530406103721617 ], [ 1.467542, 43.530406 ], [ 1.467904, 43.530453 ], [ 1.468408826070948, 43.530361867222602 ], [ 1.470231, 43.524627 ], [ 1.470438, 43.524389 ], [ 1.47107, 43.523921 ], [ 1.472564900375604, 43.521093845772143 ], [ 1.470491, 43.516975 ], [ 1.469285, 43.516091 ], [ 1.467053, 43.514448 ], [ 1.465524, 43.511189 ], [ 1.466101, 43.510919 ], [ 1.4667, 43.51071 ], [ 1.467086, 43.510612 ], [ 1.467454, 43.510553 ], [ 1.47342, 43.50607 ], [ 1.4723, 43.498012 ], [ 1.469462, 43.506235 ], [ 1.462614, 43.511635 ], [ 1.45925, 43.513318 ], [ 1.460091, 43.516818 ], [ 1.463006, 43.517186 ] ] ], [ [ [ 1.498213531145601, 43.539208020763731 ], [ 1.501413607632698, 43.541341405088474 ], [ 1.507147, 43.535992 ], [ 1.509010509481811, 43.537775266090058 ], [ 1.508869, 43.53727 ], [ 1.509498, 43.532419 ], [ 1.507460802636183, 43.526162358712405 ], [ 1.50354, 43.53325 ], [ 1.502828, 43.534393 ], [ 1.50261, 43.534525 ], [ 1.502098, 43.534742 ], [ 1.495448, 43.538037 ], [ 1.492101, 43.536709 ], [ 1.490376989252713, 43.538036560493104 ], [ 1.488131, 43.542104 ], [ 1.488243076766282, 43.542872170901951 ], [ 1.488364945239266, 43.543671781429161 ], [ 1.493396, 43.541443 ], [ 1.495627, 43.540311 ], [ 1.498213531145601, 43.539208020763731 ] ] ], [ [ [ 1.509377, 43.543757 ], [ 1.509603, 43.54344 ], [ 1.516701, 43.541366 ], [ 1.521493120066326, 43.539173521433995 ], [ 1.520348101938564, 43.53702490854841 ], [ 1.512977, 43.538486 ], [ 1.512178, 43.541084 ], [ 1.512119, 43.541108 ], [ 1.50984, 43.540737 ], [ 1.509330477242536, 43.538917725643543 ], [ 1.506687, 43.54168 ], [ 1.504037255404466, 43.544448823362544 ], [ 1.505637, 43.545169 ], [ 1.509026392546749, 43.544271471381457 ], [ 1.509377, 43.543757 ] ] ], [ [ [ 1.529384, 43.49244 ], [ 1.529003, 43.490744 ], [ 1.528365, 43.488866 ], [ 1.528031, 43.488625 ], [ 1.526867, 43.487847 ], [ 1.519214, 43.488819 ], [ 1.515206, 43.492964 ], [ 1.513506, 43.494167 ], [ 1.513438, 43.494209 ], [ 1.504521, 43.494857 ], [ 1.506848, 43.496618 ], [ 1.510415, 43.497549 ], [ 1.516735, 43.494813 ], [ 1.520101, 43.492811 ], [ 1.520602, 43.492558 ], [ 1.520692, 43.492528 ], [ 1.521947, 43.492892 ], [ 1.522501, 43.49348 ], [ 1.522528, 43.49353 ], [ 1.522481, 43.495513 ], [ 1.522173, 43.495884 ], [ 1.525739, 43.503952 ], [ 1.528426, 43.505059 ], [ 1.524749, 43.498755 ], [ 1.52905, 43.496043 ], [ 1.529541, 43.496042 ], [ 1.529736, 43.496023 ], [ 1.529384, 43.49244 ] ] ], [ [ [ 1.493741, 43.487103 ], [ 1.491041, 43.491624 ], [ 1.492004, 43.490929 ], [ 1.492332, 43.490666 ], [ 1.493002, 43.490084 ], [ 1.493266, 43.489907 ], [ 1.501031, 43.493477 ], [ 1.501996, 43.493542 ], [ 1.502266, 43.493573 ], [ 1.502775, 43.4937 ], [ 1.503301, 43.493937 ], [ 1.503996, 43.494416 ], [ 1.504521, 43.494857 ], [ 1.502978, 43.487157 ], [ 1.500057, 43.485053 ], [ 1.495802, 43.486161 ], [ 1.493799, 43.486989 ], [ 1.493741, 43.487103 ] ] ] ] } },
{ "type": "Feature", "properties": { "codgeo": "31113", "value": 480, "isochrone_group": 8.0, "nb_agences": 3 }, "geometry": { "type": "MultiPolygon", "coordinates": [ [ [ [ 1.533552, 43.481749 ], [ 1.527686, 43.481891 ], [ 1.525698, 43.482334 ], [ 1.522771, 43.483993 ], [ 1.521954, 43.484639 ], [ 1.521662, 43.484918 ], [ 1.520478, 43.486703 ], [ 1.519854, 43.487369 ], [ 1.51541, 43.490162 ], [ 1.514913, 43.490476 ], [ 1.510998, 43.492083 ], [ 1.505865, 43.485489 ], [ 1.50707, 43.482097 ], [ 1.505916, 43.480923 ], [ 1.504187, 43.479317 ], [ 1.504104, 43.479318 ], [ 1.504044, 43.479332 ], [ 1.502368, 43.48031 ], [ 1.501192, 43.483138 ], [ 1.494116, 43.485713 ], [ 1.492931, 43.4856 ], [ 1.492511, 43.48559 ], [ 1.492025, 43.485619 ], [ 1.488458, 43.485525 ], [ 1.487843, 43.485489 ], [ 1.486456, 43.485392 ], [ 1.481884, 43.485274 ], [ 1.481398, 43.485426 ], [ 1.47726, 43.486186 ], [ 1.471249, 43.485157 ], [ 1.467987, 43.4869 ], [ 1.466953545185108, 43.487789822111807 ], [ 1.469514, 43.488694 ], [ 1.47029, 43.488636 ], [ 1.470692, 43.488631 ], [ 1.471112, 43.488627 ], [ 1.471421, 43.488657 ], [ 1.47161, 43.488712 ], [ 1.471758, 43.488781 ], [ 1.471968, 43.488939 ], [ 1.472143360300189, 43.489113260862574 ], [ 1.472783, 43.487493 ], [ 1.473374, 43.487249 ], [ 1.473807, 43.487171 ], [ 1.473945, 43.487162 ], [ 1.475764, 43.487759 ], [ 1.47651, 43.489011 ], [ 1.47764, 43.492429 ], [ 1.485230878484994, 43.495349264114637 ], [ 1.487097, 43.494868 ], [ 1.487097650828653, 43.494868872812027 ], [ 1.487643, 43.494463 ], [ 1.489248, 43.493113 ], [ 1.490589, 43.491995 ], [ 1.49059115892851, 43.491997571308119 ], [ 1.491041, 43.491624 ], [ 1.493741, 43.487103 ], [ 1.493799, 43.486989 ], [ 1.495802, 43.486161 ], [ 1.500057, 43.485053 ], [ 1.502978, 43.487157 ], [ 1.504521, 43.494857 ], [ 1.513438, 43.494209 ], [ 1.513506, 43.494167 ], [ 1.515206, 43.492964 ], [ 1.519214, 43.488819 ], [ 1.526867, 43.487847 ], [ 1.528031, 43.488625 ], [ 1.528365, 43.488866 ], [ 1.529003, 43.490744 ], [ 1.529288156916983, 43.492013359924414 ], [ 1.530892, 43.491718 ], [ 1.536549681806854, 43.491081697395735 ], [ 1.535475, 43.487981 ], [ 1.537702, 43.485153 ], [ 1.539338, 43.483403 ], [ 1.537236, 43.48048 ], [ 1.533552, 43.481749 ] ] ], [ [ [ 1.461232, 43.504692 ], [ 1.461484, 43.504949 ], [ 1.462324, 43.506466 ], [ 1.462444, 43.506805 ], [ 1.462556, 43.50752 ], [ 1.46248814270985, 43.511697966058051 ], [ 1.462614, 43.511635 ], [ 1.469462, 43.506235 ], [ 1.4723, 43.498012 ], [ 1.471926, 43.497244 ], [ 1.470895, 43.492241 ], [ 1.471862367935102, 43.489821245247896 ], [ 1.467139579120946, 43.492405100939649 ], [ 1.46746, 43.494125 ], [ 1.466774, 43.501208 ], [ 1.461097577053798, 43.503321147281326 ], [ 1.461232, 43.504692 ] ] ], [ [ [ 1.44939, 43.517195 ], [ 1.449282, 43.518132 ], [ 1.449277, 43.518208 ], [ 1.449557, 43.519287 ], [ 1.451037, 43.520396 ], [ 1.451828, 43.520001 ], [ 1.459757, 43.521173 ], [ 1.459186799192986, 43.526309041427545 ], [ 1.455661, 43.527758 ], [ 1.45497, 43.528152 ], [ 1.453945, 43.528753 ], [ 1.455626, 43.531936 ], [ 1.458285, 43.535637 ], [ 1.458235004693901, 43.536636283127528 ], [ 1.459626452414735, 43.532101478311347 ], [ 1.45965, 43.531994 ], [ 1.459333, 43.529466 ], [ 1.45961, 43.52876 ], [ 1.459736, 43.528556 ], [ 1.459789343065683, 43.528488992700758 ], [ 1.45988, 43.528352 ], [ 1.459918, 43.528304 ], [ 1.460018, 43.528183 ], [ 1.460905, 43.528198 ], [ 1.463052762144938, 43.529481355593447 ], [ 1.468084, 43.523275 ], [ 1.46866651665596, 43.521937362522024 ], [ 1.463006, 43.517186 ], [ 1.460091, 43.516818 ], [ 1.45925, 43.513318 ], [ 1.460333387960589, 43.512775983966208 ], [ 1.457025123630052, 43.511641762982663 ], [ 1.453004, 43.516394 ], [ 1.450366, 43.516711 ], [ 1.45005, 43.516855 ], [ 1.44939, 43.517195 ] ] ], [ [ [ 1.500144554499558, 43.540495369666374 ], [ 1.501028390837299, 43.541636909583652 ], [ 1.501398980797638, 43.541331653865107 ], [ 1.500144554499558, 43.540495369666374 ] ] ], [ [ [ 1.524749, 43.498755 ], [ 1.527362134365532, 43.503235065009612 ], [ 1.529575, 43.498749 ], [ 1.52804656125577, 43.496675719338384 ], [ 1.524749, 43.498755 ] ] ] ] } },
{ "type": "Feature", "properties": { "codgeo": "31113", "value": 540, "isochrone_group": 9.0, "nb_agences": 3 }, "geometry": { "type": "MultiPolygon", "coordinates": [ [ [ [ 1.444368, 43.519819 ], [ 1.444632, 43.521884 ], [ 1.444997522835314, 43.522262190479694 ], [ 1.445399, 43.522549 ], [ 1.44595, 43.522964 ], [ 1.447262, 43.524753 ], [ 1.447392908937488, 43.525238339253896 ], [ 1.450845, 43.530578 ], [ 1.450845827644088, 43.530579317315507 ], [ 1.450756, 43.530636 ], [ 1.450028, 43.531137 ], [ 1.448286, 43.532519 ], [ 1.447234, 43.533213 ], [ 1.446687, 43.533579 ], [ 1.448689, 43.536571 ], [ 1.453470502961008, 43.541808072183017 ], [ 1.454066, 43.539818 ], [ 1.453459, 43.533196 ], [ 1.451627, 43.530097 ], [ 1.453494, 43.528993 ], [ 1.459400180950153, 43.524387021095016 ], [ 1.459757, 43.521173 ], [ 1.451828, 43.520001 ], [ 1.451037, 43.520396 ], [ 1.449557, 43.519287 ], [ 1.449277, 43.518208 ], [ 1.449282, 43.518132 ], [ 1.44939, 43.517195 ], [ 1.45005, 43.516855 ], [ 1.450366, 43.516711 ], [ 1.453004, 43.516394 ], [ 1.454804580379337, 43.514266041369879 ], [ 1.452573398790857, 43.513069838282931 ], [ 1.448592, 43.517274 ], [ 1.444915, 43.518327 ], [ 1.444668, 43.518751 ], [ 1.444466, 43.519236 ], [ 1.444368, 43.519819 ] ] ], [ [ [ 1.465585, 43.49604 ], [ 1.46167, 43.497316 ], [ 1.462407224748528, 43.502833608122963 ], [ 1.466774, 43.501208 ], [ 1.467400708109013, 43.494737193096014 ], [ 1.466632, 43.495082 ], [ 1.465963, 43.49581 ], [ 1.465585, 43.49604 ] ] ], [ [ [ 1.535475, 43.487981 ], [ 1.535877820435855, 43.489143227059614 ], [ 1.538213946933212, 43.488818622160984 ], [ 1.536833381329886, 43.486256032599492 ], [ 1.535475, 43.487981 ] ] ], [ [ [ 1.524216, 43.478755 ], [ 1.522956, 43.481397 ], [ 1.521403, 43.483056 ], [ 1.512686, 43.48383 ], [ 1.512325, 43.48344 ], [ 1.511065, 43.47862 ], [ 1.510821, 43.475028 ], [ 1.506264, 43.47457 ], [ 1.499162, 43.474259 ], [ 1.498378, 43.474303 ], [ 1.496901, 43.474493 ], [ 1.496807, 43.474552 ], [ 1.495931, 43.475508 ], [ 1.495919, 43.475603 ], [ 1.496006, 43.476426 ], [ 1.496604, 43.477319 ], [ 1.494282697865705, 43.485150595705498 ], [ 1.492931, 43.4856 ], [ 1.494116, 43.485713 ], [ 1.501192, 43.483138 ], [ 1.502368, 43.48031 ], [ 1.504044, 43.479332 ], [ 1.504104, 43.479318 ], [ 1.504187, 43.479317 ], [ 1.505916, 43.480923 ], [ 1.50707, 43.482097 ], [ 1.505865, 43.485489 ], [ 1.510998, 43.492083 ], [ 1.514913, 43.490476 ], [ 1.51541, 43.490162 ], [ 1.519854, 43.487369 ], [ 1.520478, 43.486703 ], [ 1.521662, 43.484918 ], [ 1.521954, 43.484639 ], [ 1.522771, 43.483993 ], [ 1.525698, 43.482334 ], [ 1.527686, 43.481891 ], [ 1.533552, 43.481749 ], [ 1.533925187984175, 43.4816204507188 ], [ 1.536076778197276, 43.478326180084807 ], [ 1.532257, 43.478789 ], [ 1.525825, 43.477387 ], [ 1.525141, 43.477461 ], [ 1.524216, 43.478755 ] ] ], [ [ [ 1.539336915043682, 43.483401491281015 ], [ 1.539338, 43.483403 ], [ 1.539337713424232, 43.483403306544986 ], [ 1.53974, 43.483114 ], [ 1.539336915043682, 43.483401491281015 ] ] ], [ [ [ 1.486456, 43.485392 ], [ 1.487843, 43.485489 ], [ 1.488458, 43.485525 ], [ 1.492025, 43.485619 ], [ 1.487706, 43.484013 ], [ 1.484584, 43.48222 ], [ 1.478619031741197, 43.485268625618239 ], [ 1.478816504972642, 43.485900126684577 ], [ 1.481398, 43.485426 ], [ 1.481884, 43.485274 ], [ 1.486456, 43.485392 ] ] ] ] } },
{ "type": "Feature", "properties": { "codgeo": "31113", "value": 600, "isochrone_group": 10.0, "nb_agences": 3 }, "geometry": { "type": "MultiPolygon", "coordinates": [ [ [ [ 1.450756, 43.530636 ], [ 1.450845827644086, 43.530579317315507 ], [ 1.450845, 43.530578 ], [ 1.448446283572693, 43.526867688853521 ], [ 1.447469, 43.527363 ], [ 1.446030066914459, 43.534123008399085 ], [ 1.446463, 43.533755 ], [ 1.446695433161669, 43.53359160340645 ], [ 1.446687, 43.533579 ], [ 1.447234, 43.533213 ], [ 1.450028, 43.531137 ], [ 1.450756, 43.530636 ] ] ], [ [ [ 1.446418801307324, 43.540320136227493 ], [ 1.445914066529724, 43.541440909510641 ], [ 1.446861722721929, 43.541320579281738 ], [ 1.446418801307324, 43.540320136227493 ] ] ], [ [ [ 1.52092, 43.477182 ], [ 1.515603, 43.481788 ], [ 1.511938, 43.475835 ], [ 1.510926, 43.47238 ], [ 1.503361, 43.473176 ], [ 1.501229, 43.472795 ], [ 1.495794, 43.471677 ], [ 1.495358, 43.471663 ], [ 1.494804, 43.471713 ], [ 1.492529, 43.471939 ], [ 1.490782690750228, 43.473309778764907 ], [ 1.490886, 43.474036 ], [ 1.490498, 43.474091 ], [ 1.489765456963571, 43.474108264184316 ], [ 1.489697, 43.474162 ], [ 1.48477, 43.479625 ], [ 1.48451026847074, 43.479996763081864 ], [ 1.48533472503131, 43.482651149897855 ], [ 1.487706, 43.484013 ], [ 1.492025, 43.485619 ], [ 1.492511, 43.48559 ], [ 1.492931, 43.4856 ], [ 1.494282697865705, 43.485150595705498 ], [ 1.496604, 43.477319 ], [ 1.496006, 43.476426 ], [ 1.495919, 43.475603 ], [ 1.495931, 43.475508 ], [ 1.496807, 43.474552 ], [ 1.496901, 43.474493 ], [ 1.498378, 43.474303 ], [ 1.499162, 43.474259 ], [ 1.506264, 43.47457 ], [ 1.510821, 43.475028 ], [ 1.511065, 43.47862 ], [ 1.512325, 43.48344 ], [ 1.512686, 43.48383 ], [ 1.521403, 43.483056 ], [ 1.522956, 43.481397 ], [ 1.524216, 43.478755 ], [ 1.525141, 43.477461 ], [ 1.525825, 43.477387 ], [ 1.532195955316675, 43.478775693929407 ], [ 1.532787620832505, 43.475691060169446 ], [ 1.526336, 43.47436 ], [ 1.525293, 43.473532 ], [ 1.523592, 43.473146 ], [ 1.523322, 43.473555 ], [ 1.523061, 43.474131 ], [ 1.52092, 43.477182 ] ] ] ] } },
{ "type": "Feature", "properties": { "codgeo": "31113", "value": 660, "isochrone_group": 11.0, "nb_agences": 3 }, "geometry": { "type": "MultiPolygon", "coordinates": [ [ [ [ 1.52418, 43.46806 ], [ 1.524094368571746, 43.468022396210124 ], [ 1.523402, 43.46852 ], [ 1.519903929004093, 43.468566880170528 ], [ 1.520057, 43.469268 ], [ 1.520462, 43.469888 ], [ 1.521102, 43.470481 ], [ 1.522854940404359, 43.474424642142125 ], [ 1.523061, 43.474131 ], [ 1.523322, 43.473555 ], [ 1.523592, 43.473146 ], [ 1.525293, 43.473532 ], [ 1.526336, 43.47436 ], [ 1.531756802826784, 43.475478387908453 ], [ 1.533098, 43.474196 ], [ 1.532679167328006, 43.473282540046547 ], [ 1.526704, 43.471696 ], [ 1.526093, 43.470037 ], [ 1.525806, 43.469314 ], [ 1.525474, 43.468899 ], [ 1.525125, 43.468586 ], [ 1.524718, 43.468319 ], [ 1.52418, 43.46806 ] ] ], [ [ [ 1.501763, 43.471853 ], [ 1.498473358901528, 43.470071791772412 ], [ 1.497372567522889, 43.470653222257766 ], [ 1.497569, 43.470967 ], [ 1.496996001338896, 43.471924256209178 ], [ 1.501229, 43.472795 ], [ 1.503361, 43.473176 ], [ 1.505004360826554, 43.473003083249459 ], [ 1.50218, 43.472062 ], [ 1.501763, 43.471853 ] ] ] ] } },
{ "type": "Feature", "properties": { "codgeo": "31113", "value": 720, "isochrone_group": 12.0, "nb_agences": 3 }, "geometry": { "type": "MultiPolygon", "coordinates": [ [ [ [ 1.431546, 43.538681 ], [ 1.431469241158075, 43.538459126069334 ], [ 1.431309, 43.538078 ], [ 1.430869706534309, 43.537158421822902 ], [ 1.431546, 43.538681 ] ] ], [ [ [ 1.509806, 43.474603 ], [ 1.509750429610612, 43.474866959349605 ], [ 1.509875, 43.476623 ], [ 1.514432, 43.483197 ], [ 1.517053769334251, 43.48111012106714 ], [ 1.515605, 43.481782 ], [ 1.511807, 43.475877 ], [ 1.511471, 43.472292 ], [ 1.511285, 43.47231 ], [ 1.5057918564356, 43.472912629717406 ], [ 1.502978955548058, 43.466283608541147 ], [ 1.502929, 43.46632 ], [ 1.501143, 43.468057 ], [ 1.501489156071491, 43.471704724536522 ], [ 1.501763, 43.471853 ], [ 1.50218, 43.472062 ], [ 1.506747716026755, 43.473583973042771 ], [ 1.508251, 43.47341 ], [ 1.509537, 43.474153 ], [ 1.50972, 43.474438 ], [ 1.509729906193729, 43.474577645376129 ], [ 1.509806, 43.474603 ] ] ], [ [ [ 1.525806, 43.469314 ], [ 1.525871091406304, 43.469477975912056 ], [ 1.526029, 43.469807 ], [ 1.52673060139046, 43.47170306326182 ], [ 1.530237039388698, 43.472634100670419 ], [ 1.526868272243782, 43.470804332274298 ], [ 1.527683, 43.466382 ], [ 1.526801693621583, 43.46482467744864 ], [ 1.525653128213882, 43.46436525128555 ], [ 1.524466, 43.466034 ], [ 1.525754, 43.469234 ], [ 1.525771993456921, 43.469271491821132 ], [ 1.525806, 43.469314 ] ] ], [ [ [ 1.522424837422103, 43.473457026676087 ], [ 1.522343, 43.474428 ], [ 1.522012615907669, 43.475782601230449 ], [ 1.522606462574192, 43.475555382460172 ], [ 1.522952, 43.474643 ], [ 1.522424837422103, 43.473457026676087 ] ] ] ] } },
{ "type": "Feature", "properties": { "codgeo": "31113", "value": 780, "isochrone_group": 13.0, "nb_agences": 3 }, "geometry": { "type": "MultiPolygon", "coordinates": [ [ [ [ 1.518689841847858, 43.473564123804088 ], [ 1.516198, 43.471932 ], [ 1.513931, 43.469581 ], [ 1.513844, 43.469507 ], [ 1.513622, 43.468882 ], [ 1.506723023135065, 43.46409740309003 ], [ 1.506688760639346, 43.464114174221592 ], [ 1.505297044946477, 43.464898722949314 ], [ 1.503237091945409, 43.466096457911412 ], [ 1.503231526560059, 43.46610370215798 ], [ 1.503397358095037, 43.46726963665057 ], [ 1.5057918564356, 43.472912629717406 ], [ 1.511285, 43.47231 ], [ 1.511471, 43.472292 ], [ 1.511807, 43.475877 ], [ 1.51226179167345, 43.476584094479108 ], [ 1.513055, 43.475728 ], [ 1.518008916423698, 43.476474978859642 ], [ 1.51885517314859, 43.475841878432433 ], [ 1.518689841847858, 43.473564123804088 ] ] ], [ [ [ 1.420347, 43.522762 ], [ 1.420918, 43.52319 ], [ 1.420529112968591, 43.52289563016803 ], [ 1.420347082647653, 43.522761716769288 ], [ 1.420347, 43.522762 ] ] ], [ [ [ 1.427676, 43.530915 ], [ 1.429168, 43.533726 ], [ 1.429074435208811, 43.533538656799387 ], [ 1.428818, 43.533047 ], [ 1.428024975201996, 43.531555339697029 ], [ 1.427676, 43.530915 ] ] ], [ [ [ 1.429168, 43.533726 ], [ 1.431546, 43.538681 ], [ 1.43041395532771, 43.53613236305322 ], [ 1.429374, 43.534074 ], [ 1.42929697742889, 43.533943884200291 ], [ 1.429229, 43.533835 ], [ 1.429202891917088, 43.533784943626941 ], [ 1.429168, 43.533726 ] ] ] ] } }
]
}
