{
"type": "FeatureCollection",
"name": "Credit_Agricole",
"crs": { "type": "name", "properties": { "name": "urn:ogc:def:crs:OGC:1.3:CRS84" } },
"features": [
{ "type": "Feature", "properties": { "codgeo": "81060", "value": 60, "isochrone_group": 1.0, "nb_agences": 1 }, "geometry": { "type": "Polygon", "coordinates": [ [ [ 2.158262, 44.049765 ], [ 2.15879, 44.048692 ], [ 2.159096, 44.048503 ], [ 2.161813, 44.048467 ], [ 2.162089, 44.048699 ], [ 2.161204, 44.052031 ], [ 2.160844, 44.052015 ], [ 2.159841, 44.051464 ], [ 2.159146, 44.051116 ], [ 2.15837, 44.050205 ], [ 2.158287, 44.050025 ], [ 2.158262, 44.049765 ] ] ] } },
{ "type": "Feature", "properties": { "codgeo": "81060", "value": 120, "isochrone_group": 2.0, "nb_agences": 1 }, "geometry": { "type": "Polygon", "coordinates": [ [ [ 2.150983, 44.050164 ], [ 2.153235, 44.054056 ], [ 2.155001, 44.055418 ], [ 2.156376, 44.056493 ], [ 2.160156, 44.055376 ], [ 2.16259, 44.056501 ], [ 2.162602, 44.056509 ], [ 2.162767, 44.056517 ], [ 2.164177, 44.056402 ], [ 2.164221, 44.056045 ], [ 2.164425, 44.050455 ], [ 2.165413, 44.047625 ], [ 2.165561, 44.047296 ], [ 2.165041, 44.042621 ], [ 2.164711, 44.042476 ], [ 2.163837, 44.043221 ], [ 2.158034, 44.043768 ], [ 2.157676, 44.043729 ], [ 2.157636, 44.044097 ], [ 2.157596, 44.044466 ], [ 2.154051, 44.048968 ], [ 2.151203, 44.049839 ], [ 2.151149, 44.049844 ], [ 2.150983, 44.050164 ] ], [ [ 2.15879, 44.048692 ], [ 2.159096, 44.048503 ], [ 2.161813, 44.048467 ], [ 2.162089, 44.048699 ], [ 2.161204, 44.052031 ], [ 2.160844, 44.052015 ], [ 2.159841, 44.051464 ], [ 2.159146, 44.051116 ], [ 2.15837, 44.050205 ], [ 2.158287, 44.050025 ], [ 2.158262, 44.049765 ], [ 2.15879, 44.048692 ] ] ] } },
{ "type": "Feature", "properties": { "codgeo": "81060", "value": 180, "isochrone_group": 3.0, "nb_agences": 1 }, "geometry": { "type": "Polygon", "coordinates": [ [ [ 2.1446, 44.056966 ], [ 2.146228, 44.057217 ], [ 2.154889, 44.059025 ], [ 2.160163, 44.059288 ], [ 2.165406, 44.058349 ], [ 2.172858, 44.056624 ], [ 2.173335, 44.056337 ], [ 2.1734, 44.055983 ], [ 2.172482, 44.052706 ], [ 2.170987, 44.05003 ], [ 2.168446, 44.044067 ], [ 2.171552, 44.038824 ], [ 2.171809, 44.038527 ], [ 2.171841, 44.038321 ], [ 2.171873, 44.038116 ], [ 2.171517, 44.03806 ], [ 2.167839, 44.038972 ], [ 2.165967, 44.039406 ], [ 2.162008, 44.04019 ], [ 2.156905, 44.040764 ], [ 2.15593, 44.041678 ], [ 2.155836, 44.041799 ], [ 2.150442, 44.046585 ], [ 2.145416, 44.048465 ], [ 2.145108, 44.048651 ], [ 2.142687, 44.050174 ], [ 2.142711, 44.050533 ], [ 2.1446, 44.056966 ] ], [ [ 2.151203, 44.049839 ], [ 2.154051, 44.048968 ], [ 2.157596, 44.044466 ], [ 2.157636, 44.044097 ], [ 2.157676, 44.043729 ], [ 2.158034, 44.043768 ], [ 2.163837, 44.043221 ], [ 2.164711, 44.042476 ], [ 2.165041, 44.042621 ], [ 2.165561, 44.047296 ], [ 2.165413, 44.047625 ], [ 2.164425, 44.050455 ], [ 2.164221, 44.056045 ], [ 2.164177, 44.056402 ], [ 2.162767, 44.056517 ], [ 2.162602, 44.056509 ], [ 2.16259, 44.056501 ], [ 2.160156, 44.055376 ], [ 2.156376, 44.056493 ], [ 2.155001, 44.055418 ], [ 2.153235, 44.054056 ], [ 2.150983, 44.050164 ], [ 2.151149, 44.049844 ], [ 2.151203, 44.049839 ] ] ] } },
{ "type": "Feature", "properties": { "codgeo": "81060", "value": 240, "isochrone_group": 4.0, "nb_agences": 1 }, "geometry": { "type": "Polygon", "coordinates": [ [ [ 2.134971, 44.060384 ], [ 2.135098, 44.060721 ], [ 2.139003, 44.060269 ], [ 2.147483, 44.059797 ], [ 2.152442, 44.059457 ], [ 2.158679, 44.060804 ], [ 2.159024, 44.060908 ], [ 2.166394, 44.060327 ], [ 2.171922, 44.061366 ], [ 2.172277, 44.061425 ], [ 2.172991, 44.060931 ], [ 2.175658, 44.058481 ], [ 2.181953, 44.053862 ], [ 2.182084, 44.053527 ], [ 2.178181, 44.045546 ], [ 2.177839, 44.045433 ], [ 2.171207, 44.040822 ], [ 2.174072, 44.036667 ], [ 2.175626, 44.036037 ], [ 2.175821, 44.035938 ], [ 2.176009, 44.035818 ], [ 2.176863, 44.035212 ], [ 2.17936, 44.034214 ], [ 2.179879, 44.034119 ], [ 2.180398, 44.034024 ], [ 2.180333, 44.03367 ], [ 2.174109, 44.034301 ], [ 2.169731, 44.037222 ], [ 2.1665, 44.037934 ], [ 2.166146, 44.038001 ], [ 2.162744, 44.037931 ], [ 2.157441, 44.034527 ], [ 2.157081, 44.034517 ], [ 2.15281, 44.041626 ], [ 2.152668, 44.041806 ], [ 2.149522, 44.044866 ], [ 2.143548, 44.044355 ], [ 2.143256, 44.044566 ], [ 2.138787, 44.049005 ], [ 2.138595, 44.049201 ], [ 2.135506, 44.05623 ], [ 2.13527, 44.056769 ], [ 2.134971, 44.060384 ] ], [ [ 2.142687, 44.050174 ], [ 2.145108, 44.048651 ], [ 2.145416, 44.048465 ], [ 2.150442, 44.046585 ], [ 2.155836, 44.041799 ], [ 2.15593, 44.041678 ], [ 2.156905, 44.040764 ], [ 2.162008, 44.04019 ], [ 2.165967, 44.039406 ], [ 2.167839, 44.038972 ], [ 2.171517, 44.03806 ], [ 2.171873, 44.038116 ], [ 2.171841, 44.038321 ], [ 2.171809, 44.038527 ], [ 2.171552, 44.038824 ], [ 2.168446, 44.044067 ], [ 2.170987, 44.05003 ], [ 2.172482, 44.052706 ], [ 2.1734, 44.055983 ], [ 2.173335, 44.056337 ], [ 2.172858, 44.056624 ], [ 2.165406, 44.058349 ], [ 2.160163, 44.059288 ], [ 2.154889, 44.059025 ], [ 2.146228, 44.057217 ], [ 2.1446, 44.056966 ], [ 2.142711, 44.050533 ], [ 2.142687, 44.050174 ] ] ] } },
{ "type": "Feature", "properties": { "codgeo": "81060", "value": 300, "isochrone_group": 5.0, "nb_agences": 1 }, "geometry": { "type": "Polygon", "coordinates": [ [ [ 2.152256, 44.06001 ], [ 2.158368, 44.06277 ], [ 2.15873, 44.06304 ], [ 2.164221, 44.060702 ], [ 2.169022, 44.067703 ], [ 2.16928, 44.067955 ], [ 2.170165, 44.068055 ], [ 2.170519, 44.067995 ], [ 2.173355, 44.06461 ], [ 2.17555, 44.061564 ], [ 2.183672, 44.058002 ], [ 2.192263, 44.055709 ], [ 2.192254, 44.055349 ], [ 2.191314, 44.055144 ], [ 2.186868, 44.054217 ], [ 2.186517, 44.054139 ], [ 2.181692, 44.05129 ], [ 2.184464, 44.044159 ], [ 2.184496, 44.0438 ], [ 2.182773, 44.040351 ], [ 2.186623, 44.035037 ], [ 2.186911, 44.034821 ], [ 2.189789, 44.032753 ], [ 2.190627, 44.032031 ], [ 2.19056, 44.031677 ], [ 2.185968, 44.031574 ], [ 2.181438, 44.029784 ], [ 2.181116, 44.029945 ], [ 2.172784, 44.032746 ], [ 2.171955, 44.032748 ], [ 2.171126, 44.032749 ], [ 2.163867, 44.035931 ], [ 2.158743, 44.029704 ], [ 2.156996, 44.027898 ], [ 2.156908, 44.027871 ], [ 2.156823, 44.027898 ], [ 2.15667, 44.028051 ], [ 2.154927, 44.032452 ], [ 2.148779, 44.038266 ], [ 2.142082, 44.040026 ], [ 2.141731, 44.040108 ], [ 2.139407, 44.044049 ], [ 2.131923, 44.045318 ], [ 2.131685, 44.045588 ], [ 2.133627, 44.051099 ], [ 2.133139, 44.054874 ], [ 2.127222, 44.0615 ], [ 2.126402, 44.06162 ], [ 2.124934, 44.061666 ], [ 2.12428, 44.061622 ], [ 2.124256, 44.061981 ], [ 2.132782, 44.063789 ], [ 2.135977, 44.064436 ], [ 2.136333, 44.06449 ], [ 2.144149, 44.060384 ], [ 2.147483, 44.059797 ], [ 2.152256, 44.06001 ] ], [ [ 2.139003, 44.060269 ], [ 2.135098, 44.060721 ], [ 2.134971, 44.060384 ], [ 2.13527, 44.056769 ], [ 2.135506, 44.05623 ], [ 2.138595, 44.049201 ], [ 2.138787, 44.049005 ], [ 2.143256, 44.044566 ], [ 2.143548, 44.044355 ], [ 2.149522, 44.044866 ], [ 2.152668, 44.041806 ], [ 2.15281, 44.041626 ], [ 2.157081, 44.034517 ], [ 2.157441, 44.034527 ], [ 2.162744, 44.037931 ], [ 2.166146, 44.038001 ], [ 2.1665, 44.037934 ], [ 2.169731, 44.037222 ], [ 2.174109, 44.034301 ], [ 2.180333, 44.03367 ], [ 2.180398, 44.034024 ], [ 2.179879, 44.034119 ], [ 2.17936, 44.034214 ], [ 2.176863, 44.035212 ], [ 2.176009, 44.035818 ], [ 2.175821, 44.035938 ], [ 2.175626, 44.036037 ], [ 2.174072, 44.036667 ], [ 2.171207, 44.040822 ], [ 2.177839, 44.045433 ], [ 2.178181, 44.045546 ], [ 2.182084, 44.053527 ], [ 2.181953, 44.053862 ], [ 2.175658, 44.058481 ], [ 2.172991, 44.060931 ], [ 2.172277, 44.061425 ], [ 2.171922, 44.061366 ], [ 2.166394, 44.060327 ], [ 2.159024, 44.060908 ], [ 2.158679, 44.060804 ], [ 2.152442, 44.059457 ], [ 2.147483, 44.059797 ], [ 2.139003, 44.060269 ] ] ] } },
{ "type": "Feature", "properties": { "codgeo": "81060", "value": 360, "isochrone_group": 6.0, "nb_agences": 1 }, "geometry": { "type": "Polygon", "coordinates": [ [ [ 2.15355, 44.061001 ], [ 2.157038, 44.063799 ], [ 2.158877, 44.065686 ], [ 2.164602, 44.071964 ], [ 2.165792, 44.073588 ], [ 2.170391, 44.075827 ], [ 2.177043, 44.073339 ], [ 2.178649, 44.070117 ], [ 2.177458, 44.068437 ], [ 2.182, 44.060844 ], [ 2.183077, 44.060983 ], [ 2.183895, 44.061034 ], [ 2.184038, 44.061011 ], [ 2.190891, 44.057405 ], [ 2.194875, 44.05722 ], [ 2.200123, 44.058687 ], [ 2.201777, 44.055489 ], [ 2.199983, 44.054066 ], [ 2.195583, 44.052176 ], [ 2.192566, 44.043711 ], [ 2.188271, 44.038514 ], [ 2.194754, 44.03423 ], [ 2.195901, 44.034788 ], [ 2.197477, 44.031551 ], [ 2.197396, 44.029644 ], [ 2.195275, 44.026735 ], [ 2.188772, 44.024686 ], [ 2.186569, 44.0222 ], [ 2.185834, 44.021362 ], [ 2.185532, 44.020995 ], [ 2.184103, 44.019034 ], [ 2.181035, 44.020917 ], [ 2.177302, 44.02532 ], [ 2.177112, 44.02558 ], [ 2.176911, 44.025845 ], [ 2.1698, 44.031132 ], [ 2.168956, 44.03111 ], [ 2.16282, 44.024742 ], [ 2.162404, 44.024643 ], [ 2.156591, 44.02331 ], [ 2.155201, 44.022971 ], [ 2.154703, 44.022998 ], [ 2.153356, 44.02489 ], [ 2.152161, 44.026469 ], [ 2.151974, 44.027219 ], [ 2.148061, 44.033797 ], [ 2.141165, 44.035619 ], [ 2.137751, 44.036762 ], [ 2.13115, 44.03942 ], [ 2.124243, 44.041053 ], [ 2.124037, 44.041776 ], [ 2.123969, 44.04213 ], [ 2.123817, 44.044624 ], [ 2.124059, 44.044849 ], [ 2.124901, 44.045558 ], [ 2.125176, 44.045804 ], [ 2.12864, 44.052773 ], [ 2.123288, 44.059944 ], [ 2.120873, 44.059678 ], [ 2.118576, 44.060501 ], [ 2.117943, 44.061769 ], [ 2.118072, 44.06302 ], [ 2.119008, 44.064075 ], [ 2.122463, 44.06752 ], [ 2.122882, 44.06784 ], [ 2.123284, 44.068094 ], [ 2.12551, 44.069328 ], [ 2.126222, 44.069682 ], [ 2.130544, 44.067773 ], [ 2.1359, 44.065256 ], [ 2.141427, 44.062952 ], [ 2.1441, 44.060785 ], [ 2.145408561803628, 44.060162235519293 ], [ 2.144149, 44.060384 ], [ 2.136333, 44.06449 ], [ 2.135977, 44.064436 ], [ 2.132782, 44.063789 ], [ 2.124256, 44.061981 ], [ 2.12428, 44.061622 ], [ 2.124934, 44.061666 ], [ 2.126402, 44.06162 ], [ 2.127222, 44.0615 ], [ 2.133139, 44.054874 ], [ 2.133627, 44.051099 ], [ 2.131685, 44.045588 ], [ 2.131923, 44.045318 ], [ 2.139407, 44.044049 ], [ 2.141731, 44.040108 ], [ 2.142082, 44.040026 ], [ 2.148779, 44.038266 ], [ 2.154927, 44.032452 ], [ 2.15667, 44.028051 ], [ 2.156823, 44.027898 ], [ 2.156908, 44.027871 ], [ 2.156996, 44.027898 ], [ 2.158743, 44.029704 ], [ 2.163867, 44.035931 ], [ 2.171126, 44.032749 ], [ 2.171955, 44.032748 ], [ 2.172784, 44.032746 ], [ 2.181116, 44.029945 ], [ 2.181438, 44.029784 ], [ 2.185968, 44.031574 ], [ 2.19056, 44.031677 ], [ 2.190627, 44.032031 ], [ 2.189789, 44.032753 ], [ 2.186911, 44.034821 ], [ 2.186623, 44.035037 ], [ 2.182773, 44.040351 ], [ 2.184496, 44.0438 ], [ 2.184464, 44.044159 ], [ 2.181692, 44.05129 ], [ 2.186517, 44.054139 ], [ 2.186868, 44.054217 ], [ 2.191314, 44.055144 ], [ 2.192254, 44.055349 ], [ 2.192263, 44.055709 ], [ 2.183672, 44.058002 ], [ 2.17555, 44.061564 ], [ 2.173355, 44.06461 ], [ 2.170519, 44.067995 ], [ 2.170165, 44.068055 ], [ 2.16928, 44.067955 ], [ 2.169022, 44.067703 ], [ 2.164221, 44.060702 ], [ 2.15873, 44.06304 ], [ 2.158368, 44.06277 ], [ 2.152256, 44.06001 ], [ 2.151546155855741, 44.059978322480056 ], [ 2.15355, 44.061001 ] ] ] } },
{ "type": "Feature", "properties": { "codgeo": "81060", "value": 420, "isochrone_group": 7.0, "nb_agences": 1 }, "geometry": { "type": "MultiPolygon", "coordinates": [ [ [ [ 2.120035, 44.058503 ], [ 2.114943, 44.06052 ], [ 2.11457, 44.060556 ], [ 2.113973, 44.060664 ], [ 2.112413, 44.060999 ], [ 2.112769, 44.064581 ], [ 2.117687, 44.06871 ], [ 2.119413, 44.071869 ], [ 2.120859, 44.071199 ], [ 2.124823, 44.07056 ], [ 2.1299, 44.072484 ], [ 2.132293, 44.074294 ], [ 2.132443, 44.07423 ], [ 2.133388, 44.073374 ], [ 2.133494, 44.072987 ], [ 2.134331, 44.070663 ], [ 2.135002, 44.067726 ], [ 2.14311, 44.064405 ], [ 2.145482, 44.063108 ], [ 2.15355, 44.061001 ], [ 2.148771, 44.058562 ], [ 2.1441, 44.060785 ], [ 2.141427, 44.062952 ], [ 2.1359, 44.065256 ], [ 2.130544, 44.067773 ], [ 2.126222, 44.069682 ], [ 2.12551, 44.069328 ], [ 2.123284, 44.068094 ], [ 2.122882, 44.06784 ], [ 2.122463, 44.06752 ], [ 2.119008, 44.064075 ], [ 2.118072, 44.06302 ], [ 2.117943, 44.061769 ], [ 2.118576, 44.060501 ], [ 2.120873, 44.059678 ], [ 2.123288, 44.059944 ], [ 2.125608711740709, 44.056834541126186 ], [ 2.120035, 44.058503 ] ] ], [ [ [ 2.183888, 44.018651 ], [ 2.183148, 44.016782 ], [ 2.182942, 44.016246 ], [ 2.182607, 44.015056 ], [ 2.182318, 44.014298 ], [ 2.182025, 44.013526 ], [ 2.18157, 44.012531 ], [ 2.181264, 44.011941 ], [ 2.180954, 44.01142 ], [ 2.180424, 44.010589 ], [ 2.18007, 44.010097 ], [ 2.179599, 44.009497 ], [ 2.178893, 44.008675 ], [ 2.177, 44.006616 ], [ 2.175581, 44.004955 ], [ 2.172773, 44.007207 ], [ 2.173362, 44.007942 ], [ 2.174313, 44.009012 ], [ 2.176243, 44.011111 ], [ 2.176865, 44.01184 ], [ 2.177233, 44.012313 ], [ 2.177497, 44.012685 ], [ 2.177913, 44.013346 ], [ 2.178364, 44.014169 ], [ 2.178748, 44.015018 ], [ 2.178947, 44.015561 ], [ 2.176972, 44.02371 ], [ 2.168559, 44.025663 ], [ 2.167253, 44.023626 ], [ 2.166881, 44.023083 ], [ 2.164507, 44.021102 ], [ 2.157713, 44.016833 ], [ 2.155951, 44.015118 ], [ 2.154689, 44.014879 ], [ 2.154024, 44.015908 ], [ 2.153082, 44.017362 ], [ 2.151897, 44.019252 ], [ 2.151607, 44.020076 ], [ 2.151619, 44.021012 ], [ 2.14597, 44.027968 ], [ 2.145383, 44.028073 ], [ 2.143357, 44.028122 ], [ 2.137293, 44.031679 ], [ 2.137234, 44.031752 ], [ 2.137073, 44.032006 ], [ 2.136833, 44.032465 ], [ 2.133872, 44.035733 ], [ 2.127851, 44.034543 ], [ 2.126424, 44.036173 ], [ 2.119847, 44.039687 ], [ 2.117199, 44.040024 ], [ 2.115229, 44.040156 ], [ 2.115468, 44.043748 ], [ 2.118573, 44.046205 ], [ 2.126297, 44.048506 ], [ 2.126314, 44.051017 ], [ 2.127163464292912, 44.05475137024581 ], [ 2.12864, 44.052773 ], [ 2.125176, 44.045804 ], [ 2.124901, 44.045558 ], [ 2.124059, 44.044849 ], [ 2.123817, 44.044624 ], [ 2.123969, 44.04213 ], [ 2.124037, 44.041776 ], [ 2.124243, 44.041053 ], [ 2.13115, 44.03942 ], [ 2.137751, 44.036762 ], [ 2.141165, 44.035619 ], [ 2.148061, 44.033797 ], [ 2.151974, 44.027219 ], [ 2.152161, 44.026469 ], [ 2.153356, 44.02489 ], [ 2.154703, 44.022998 ], [ 2.155201, 44.022971 ], [ 2.156591, 44.02331 ], [ 2.162404, 44.024643 ], [ 2.16282, 44.024742 ], [ 2.168956, 44.03111 ], [ 2.1698, 44.031132 ], [ 2.176911, 44.025845 ], [ 2.177112, 44.02558 ], [ 2.177302, 44.02532 ], [ 2.181035, 44.020917 ], [ 2.184102383032746, 44.019034378666682 ], [ 2.183888, 44.018651 ] ] ], [ [ [ 2.159168, 44.067113 ], [ 2.158678, 44.073342 ], [ 2.159838, 44.07675 ], [ 2.162009, 44.076011 ], [ 2.168639, 44.081292 ], [ 2.16884, 44.081917 ], [ 2.169277, 44.082576 ], [ 2.16977, 44.083015 ], [ 2.170661, 44.083528 ], [ 2.17098, 44.08369 ], [ 2.171979, 44.082937 ], [ 2.172336, 44.082639 ], [ 2.17266, 44.082347 ], [ 2.172869, 44.082059 ], [ 2.178848, 44.076331 ], [ 2.185142, 44.077742 ], [ 2.186854, 44.078306 ], [ 2.187184, 44.078413 ], [ 2.188347, 44.078542 ], [ 2.189162, 44.075035 ], [ 2.184566, 44.070344 ], [ 2.184939, 44.062023 ], [ 2.193578, 44.061988 ], [ 2.195035, 44.062294 ], [ 2.200047, 44.06191 ], [ 2.208547, 44.059886 ], [ 2.208912, 44.059963 ], [ 2.210588, 44.060225 ], [ 2.211143, 44.056668 ], [ 2.206527, 44.054238 ], [ 2.207841, 44.045447 ], [ 2.211035, 44.043787 ], [ 2.209633, 44.041089 ], [ 2.208232, 44.038901 ], [ 2.207695, 44.038201 ], [ 2.206595, 44.037 ], [ 2.202514, 44.029279 ], [ 2.201156, 44.02082 ], [ 2.197626, 44.020113 ], [ 2.196258, 44.022856 ], [ 2.193244, 44.024824 ], [ 2.186569, 44.0222 ], [ 2.188772, 44.024686 ], [ 2.195275, 44.026735 ], [ 2.197396, 44.029644 ], [ 2.197477, 44.031551 ], [ 2.195901, 44.034788 ], [ 2.194754, 44.03423 ], [ 2.188271, 44.038514 ], [ 2.192566, 44.043711 ], [ 2.195583, 44.052176 ], [ 2.199983, 44.054066 ], [ 2.201777, 44.055489 ], [ 2.200123, 44.058687 ], [ 2.194875, 44.05722 ], [ 2.190891, 44.057405 ], [ 2.184038, 44.061011 ], [ 2.183895, 44.061034 ], [ 2.183077, 44.060983 ], [ 2.182, 44.060844 ], [ 2.177458, 44.068437 ], [ 2.178649, 44.070117 ], [ 2.177043, 44.073339 ], [ 2.170391, 44.075827 ], [ 2.165792, 44.073588 ], [ 2.164602, 44.071964 ], [ 2.158877, 44.065686 ], [ 2.157038, 44.063799 ], [ 2.159168, 44.067113 ] ] ] ] } },
{ "type": "Feature", "properties": { "codgeo": "81060", "value": 480, "isochrone_group": 8.0, "nb_agences": 1 }, "geometry": { "type": "MultiPolygon", "coordinates": [ [ [ [ 2.114734, 44.040189 ], [ 2.113301, 44.040269 ], [ 2.108149, 44.039965 ], [ 2.107513, 44.039896 ], [ 2.10681, 44.039881 ], [ 2.105532, 44.039946 ], [ 2.105603, 44.043545 ], [ 2.107232, 44.049083 ], [ 2.108445, 44.051145 ], [ 2.109133, 44.052141 ], [ 2.109151, 44.059686 ], [ 2.107438, 44.061286 ], [ 2.106345, 44.061842 ], [ 2.105652, 44.062356 ], [ 2.105612, 44.062936 ], [ 2.105617, 44.06315 ], [ 2.105644, 44.063595 ], [ 2.106429, 44.06773 ], [ 2.107225, 44.071241 ], [ 2.110609, 44.071926 ], [ 2.115244, 44.072823 ], [ 2.115882, 44.072892 ], [ 2.116313, 44.072895 ], [ 2.116785, 44.072854 ], [ 2.117806, 44.072586 ], [ 2.118685, 44.07223 ], [ 2.126633, 44.07457 ], [ 2.127743, 44.077994 ], [ 2.134673, 44.077857 ], [ 2.136549, 44.076752 ], [ 2.136844, 44.07613 ], [ 2.137156, 44.073204 ], [ 2.134626269101097, 44.069370592623081 ], [ 2.134331, 44.070663 ], [ 2.133494, 44.072987 ], [ 2.133388, 44.073374 ], [ 2.132443, 44.07423 ], [ 2.132293, 44.074294 ], [ 2.1299, 44.072484 ], [ 2.124823, 44.07056 ], [ 2.120859, 44.071199 ], [ 2.119413, 44.071869 ], [ 2.117687, 44.06871 ], [ 2.112769, 44.064581 ], [ 2.112413, 44.060999 ], [ 2.113973, 44.060664 ], [ 2.11457, 44.060556 ], [ 2.114943, 44.06052 ], [ 2.120035, 44.058503 ], [ 2.127508, 44.056266 ], [ 2.126314, 44.051017 ], [ 2.126297, 44.048506 ], [ 2.118573, 44.046205 ], [ 2.115468, 44.043748 ], [ 2.115229, 44.040156 ], [ 2.117199, 44.040024 ], [ 2.114734, 44.040189 ] ] ], [ [ [ 2.132611, 44.029478 ], [ 2.130519, 44.029076 ], [ 2.130457, 44.029106 ], [ 2.128054, 44.034313 ], [ 2.127852228143294, 44.034543242732205 ], [ 2.133872, 44.035733 ], [ 2.136833, 44.032465 ], [ 2.137073, 44.032006 ], [ 2.137234, 44.031752 ], [ 2.137293, 44.031679 ], [ 2.140278905836598, 44.029927537753835 ], [ 2.132611, 44.029478 ] ] ], [ [ [ 2.147211, 44.026406 ], [ 2.144861504632257, 44.028085612671759 ], [ 2.145383, 44.028073 ], [ 2.14597, 44.027968 ], [ 2.14727413359713, 44.026362131120273 ], [ 2.147211, 44.026406 ] ] ], [ [ [ 2.174585, 44.018557 ], [ 2.16979, 44.019025 ], [ 2.166994, 44.016758 ], [ 2.160081, 44.011472 ], [ 2.159996, 44.010349 ], [ 2.1582, 44.009702 ], [ 2.154665, 44.009657 ], [ 2.152994, 44.010654 ], [ 2.149882, 44.014115 ], [ 2.150886, 44.017573 ], [ 2.150356343940702, 44.022566794751022 ], [ 2.151619, 44.021012 ], [ 2.151607, 44.020076 ], [ 2.151897, 44.019252 ], [ 2.153082, 44.017362 ], [ 2.154024, 44.015908 ], [ 2.154689, 44.014879 ], [ 2.155951, 44.015118 ], [ 2.157713, 44.016833 ], [ 2.164507, 44.021102 ], [ 2.166881, 44.023083 ], [ 2.167253, 44.023626 ], [ 2.168559, 44.025663 ], [ 2.176972, 44.02371 ], [ 2.178947, 44.015561 ], [ 2.178748, 44.015018 ], [ 2.178364, 44.014169 ], [ 2.177913, 44.013346 ], [ 2.177497, 44.012685 ], [ 2.177233, 44.012313 ], [ 2.176865, 44.01184 ], [ 2.176243, 44.011111 ], [ 2.174585, 44.018557 ] ] ], [ [ [ 2.173193, 43.99687 ], [ 2.173207, 43.995654 ], [ 2.173132, 43.995245 ], [ 2.172873, 43.994487 ], [ 2.17272, 43.994222 ], [ 2.171866, 43.993464 ], [ 2.170898, 43.992851 ], [ 2.170825, 43.992856 ], [ 2.170146, 43.993035 ], [ 2.169321, 43.993696 ], [ 2.16895, 43.99462 ], [ 2.169554, 43.99783 ], [ 2.169575, 43.998796 ], [ 2.169647, 43.999754 ], [ 2.169862, 44.000893 ], [ 2.170021, 44.001565 ], [ 2.170214, 44.002242 ], [ 2.170426, 44.002882 ], [ 2.170767, 44.003796 ], [ 2.171217, 44.00476 ], [ 2.171647, 44.00554 ], [ 2.172295, 44.006559 ], [ 2.172683, 44.007093 ], [ 2.172773714719278, 44.007206426799229 ], [ 2.175581, 44.004955 ], [ 2.175581625452028, 44.004955732118255 ], [ 2.173193, 43.99687 ] ] ], [ [ [ 2.203362, 44.019843 ], [ 2.207667, 44.017646 ], [ 2.20771, 44.014484 ], [ 2.207368, 44.014278 ], [ 2.207053, 44.014098 ], [ 2.206494, 44.013928 ], [ 2.203328, 44.01498 ], [ 2.202991, 44.015095 ], [ 2.202574, 44.015291 ], [ 2.202118, 44.015606 ], [ 2.201753, 44.015977 ], [ 2.199238, 44.017895 ], [ 2.193922, 44.019597 ], [ 2.190322, 44.019652 ], [ 2.182607, 44.015056 ], [ 2.182942, 44.016246 ], [ 2.183148, 44.016782 ], [ 2.183888, 44.018651 ], [ 2.18411, 44.019048 ], [ 2.184517, 44.019708 ], [ 2.185532, 44.020995 ], [ 2.185834, 44.021362 ], [ 2.186569, 44.0222 ], [ 2.193244, 44.024824 ], [ 2.196258, 44.022856 ], [ 2.197626, 44.020113 ], [ 2.201156, 44.02082 ], [ 2.201580135831926, 44.023461947718886 ], [ 2.203362, 44.019843 ] ] ], [ [ [ 2.170542, 44.087578 ], [ 2.171882, 44.088536 ], [ 2.173752, 44.089209 ], [ 2.174523, 44.088278 ], [ 2.174648, 44.087294 ], [ 2.174777, 44.086407 ], [ 2.176957, 44.082385 ], [ 2.18555, 44.080134 ], [ 2.185885, 44.08062 ], [ 2.186601, 44.081621 ], [ 2.187245, 44.082578 ], [ 2.18775, 44.082908 ], [ 2.188386, 44.08314 ], [ 2.18878, 44.083204 ], [ 2.189136, 44.083225 ], [ 2.190291, 44.083214 ], [ 2.190775, 44.083133 ], [ 2.191238, 44.082968 ], [ 2.191939, 44.08262 ], [ 2.199767, 44.078954 ], [ 2.201013, 44.07796 ], [ 2.201143, 44.077721 ], [ 2.200203, 44.07538 ], [ 2.19965, 44.075313 ], [ 2.195628, 44.074067 ], [ 2.1934, 44.066382 ], [ 2.197453, 44.064468 ], [ 2.20101, 44.063843 ], [ 2.205621, 44.064949 ], [ 2.213249, 44.063036 ], [ 2.216472, 44.061434 ], [ 2.217779, 44.060153 ], [ 2.217878, 44.056554 ], [ 2.214556, 44.050607 ], [ 2.213928, 44.049301 ], [ 2.212809, 44.047083 ], [ 2.211572, 44.04482 ], [ 2.210612, 44.042972 ], [ 2.209633, 44.041089 ], [ 2.211035, 44.043787 ], [ 2.207841, 44.045447 ], [ 2.206527, 44.054238 ], [ 2.211143, 44.056668 ], [ 2.210588, 44.060225 ], [ 2.208912, 44.059963 ], [ 2.208547, 44.059886 ], [ 2.200047, 44.06191 ], [ 2.195035, 44.062294 ], [ 2.193578, 44.061988 ], [ 2.184939, 44.062023 ], [ 2.184566, 44.070344 ], [ 2.189162, 44.075035 ], [ 2.188347, 44.078542 ], [ 2.187184, 44.078413 ], [ 2.186854, 44.078306 ], [ 2.185142, 44.077742 ], [ 2.178848, 44.076331 ], [ 2.172869, 44.082059 ], [ 2.17266, 44.082347 ], [ 2.172336, 44.082639 ], [ 2.171979, 44.082937 ], [ 2.17098, 44.08369 ], [ 2.170661, 44.083528 ], [ 2.16977, 44.083015 ], [ 2.169277, 44.082576 ], [ 2.16884, 44.081917 ], [ 2.170542, 44.087578 ] ] ], [ [ [ 2.157559, 44.066283 ], [ 2.154239, 44.074163 ], [ 2.15465, 44.07774 ], [ 2.156915, 44.077479 ], [ 2.157867, 44.077349 ], [ 2.161383, 44.077431 ], [ 2.16884, 44.081917 ], [ 2.168639, 44.081292 ], [ 2.162009, 44.076011 ], [ 2.159838, 44.07675 ], [ 2.158678, 44.073342 ], [ 2.159168, 44.067113 ], [ 2.157038, 44.063799 ], [ 2.157559, 44.066283 ] ] ], [ [ [ 2.143386, 44.066099 ], [ 2.144088, 44.066327 ], [ 2.144389, 44.066386 ], [ 2.145414, 44.066091 ], [ 2.146267, 44.0658 ], [ 2.147237, 44.065283 ], [ 2.15355, 44.061001 ], [ 2.145482, 44.063108 ], [ 2.14311, 44.064405 ], [ 2.140164513520117, 44.065611457893411 ], [ 2.143386, 44.066099 ] ] ], [ [ [ 2.135076350060342, 44.067695546552741 ], [ 2.135002, 44.067726 ], [ 2.134937417146753, 44.068008682324873 ], [ 2.135076350060342, 44.067695546552741 ] ] ] ] } },
{ "type": "Feature", "properties": { "codgeo": "81060", "value": 540, "isochrone_group": 9.0, "nb_agences": 1 }, "geometry": { "type": "MultiPolygon", "coordinates": [ [ [ [ 2.100589, 44.039435 ], [ 2.097387, 44.04032 ], [ 2.097381, 44.04392 ], [ 2.097639, 44.043947 ], [ 2.100313, 44.052489 ], [ 2.099175, 44.053941 ], [ 2.099067, 44.055041 ], [ 2.101457, 44.057734 ], [ 2.101117, 44.065361 ], [ 2.101164, 44.072176 ], [ 2.100007, 44.075584 ], [ 2.10032, 44.075691 ], [ 2.101061, 44.075837 ], [ 2.101817, 44.075855 ], [ 2.102463, 44.075769 ], [ 2.103168, 44.075555 ], [ 2.104493, 44.074975 ], [ 2.105037, 44.074617 ], [ 2.112378080775276, 44.072268365794052 ], [ 2.110609, 44.071926 ], [ 2.107225, 44.071241 ], [ 2.106429, 44.06773 ], [ 2.105644, 44.063595 ], [ 2.105617, 44.06315 ], [ 2.105612, 44.062936 ], [ 2.105652, 44.062356 ], [ 2.106345, 44.061842 ], [ 2.107438, 44.061286 ], [ 2.109151, 44.059686 ], [ 2.109133, 44.052141 ], [ 2.108445, 44.051145 ], [ 2.107232, 44.049083 ], [ 2.105603, 44.043545 ], [ 2.105532, 44.039946 ], [ 2.10681, 44.039881 ], [ 2.102524, 44.039349 ], [ 2.102113, 44.039267 ], [ 2.101445, 44.039253 ], [ 2.100982, 44.039329 ], [ 2.100589, 44.039435 ] ] ], [ [ [ 2.12681, 44.02317 ], [ 2.12654, 44.023247 ], [ 2.124931, 44.024525 ], [ 2.125761, 44.027673 ], [ 2.12657, 44.030196 ], [ 2.126424, 44.036173 ], [ 2.128054, 44.034313 ], [ 2.130457, 44.029106 ], [ 2.130519, 44.029076 ], [ 2.132611, 44.029478 ], [ 2.141242, 44.029984 ], [ 2.141511775582355, 44.02984688767252 ], [ 2.135456, 44.028179 ], [ 2.130711, 44.025898 ], [ 2.129066, 44.024535 ], [ 2.128023, 44.023711 ], [ 2.12681, 44.02317 ] ] ], [ [ [ 2.150167, 44.024352 ], [ 2.150327071985717, 44.022842781653445 ], [ 2.148391425506337, 44.025585771992553 ], [ 2.150167, 44.024352 ] ] ], [ [ [ 2.176193, 43.988425 ], [ 2.176316, 43.98936 ], [ 2.176401, 43.990315 ], [ 2.176148, 43.992407 ], [ 2.175894, 43.992969 ], [ 2.175712, 43.993268 ], [ 2.174196, 43.993526 ], [ 2.173929, 43.99344 ], [ 2.172637, 43.991395 ], [ 2.171536709043413, 43.987689058030575 ], [ 2.168456, 43.993847 ], [ 2.167791, 43.994295 ], [ 2.167535, 43.994533 ], [ 2.167195, 43.99494 ], [ 2.166857, 43.995523 ], [ 2.166236, 43.996842 ], [ 2.16595, 43.997574 ], [ 2.16591, 44.001163 ], [ 2.161585, 44.006894 ], [ 2.16021, 44.007493 ], [ 2.159723, 44.007754 ], [ 2.159106, 44.00825 ], [ 2.151762, 44.007755 ], [ 2.150301, 44.005465 ], [ 2.146543, 44.005396 ], [ 2.146242, 44.00543 ], [ 2.146129, 44.011441 ], [ 2.14511, 44.014894 ], [ 2.147231, 44.016313 ], [ 2.147822, 44.016909 ], [ 2.148587, 44.017486 ], [ 2.148986, 44.01772 ], [ 2.150649777311202, 44.019800195559618 ], [ 2.150886, 44.017573 ], [ 2.149882, 44.014115 ], [ 2.152994, 44.010654 ], [ 2.154665, 44.009657 ], [ 2.1582, 44.009702 ], [ 2.159996, 44.010349 ], [ 2.160081, 44.011472 ], [ 2.166994, 44.016758 ], [ 2.16979, 44.019025 ], [ 2.174585, 44.018557 ], [ 2.176243, 44.011111 ], [ 2.174313, 44.009012 ], [ 2.173362, 44.007942 ], [ 2.172683, 44.007093 ], [ 2.172295, 44.006559 ], [ 2.171647, 44.00554 ], [ 2.171217, 44.00476 ], [ 2.170767, 44.003796 ], [ 2.170426, 44.002882 ], [ 2.170214, 44.002242 ], [ 2.170021, 44.001565 ], [ 2.169862, 44.000893 ], [ 2.169647, 43.999754 ], [ 2.169575, 43.998796 ], [ 2.169554, 43.99783 ], [ 2.16895, 43.99462 ], [ 2.169321, 43.993696 ], [ 2.170146, 43.993035 ], [ 2.170825, 43.992856 ], [ 2.170898, 43.992851 ], [ 2.171866, 43.993464 ], [ 2.17272, 43.994222 ], [ 2.172873, 43.994487 ], [ 2.173132, 43.995245 ], [ 2.173207, 43.995654 ], [ 2.173193, 43.99687 ], [ 2.174692094707893, 44.001944583048449 ], [ 2.176818, 43.99447 ], [ 2.178015, 43.991075 ], [ 2.177691, 43.989754 ], [ 2.176932261269092, 43.987495998090388 ], [ 2.176193, 43.988425 ] ] ], [ [ [ 2.17617, 44.005689 ], [ 2.177, 44.006616 ], [ 2.176238, 44.005565 ], [ 2.175687, 44.004874 ], [ 2.175462853391382, 44.004553677009667 ], [ 2.175582, 44.004957 ], [ 2.17617, 44.005689 ] ] ], [ [ [ 2.178546, 44.008113 ], [ 2.177, 44.006616 ], [ 2.178893, 44.008675 ], [ 2.179599, 44.009497 ], [ 2.178546, 44.008113 ] ] ], [ [ [ 2.216441, 44.015322 ], [ 2.219198, 44.013148 ], [ 2.217368, 44.010048 ], [ 2.215387, 44.011218 ], [ 2.212948, 44.012656 ], [ 2.204286, 44.01205 ], [ 2.20137, 44.010373 ], [ 2.20097, 44.010057 ], [ 2.199826, 44.009337 ], [ 2.19791, 44.012385 ], [ 2.19189, 44.013712 ], [ 2.190789, 44.016493 ], [ 2.182607, 44.015056 ], [ 2.190322, 44.019652 ], [ 2.193922, 44.019597 ], [ 2.199238, 44.017895 ], [ 2.201753, 44.015977 ], [ 2.202118, 44.015606 ], [ 2.202574, 44.015291 ], [ 2.202991, 44.015095 ], [ 2.203328, 44.01498 ], [ 2.206494, 44.013928 ], [ 2.207053, 44.014098 ], [ 2.207368, 44.014278 ], [ 2.20771, 44.014484 ], [ 2.207667, 44.017646 ], [ 2.203362, 44.019843 ], [ 2.209238, 44.017374 ], [ 2.211232, 44.017023 ], [ 2.212008, 44.016816 ], [ 2.214777, 44.015757 ], [ 2.216441, 44.015322 ] ] ], [ [ [ 2.200361, 44.025938 ], [ 2.200296, 44.026437 ], [ 2.200653, 44.030156 ], [ 2.201549498241911, 44.031348352872435 ], [ 2.200361, 44.025938 ] ] ], [ [ [ 2.132433, 44.08255 ], [ 2.135686, 44.081008 ], [ 2.143439, 44.077318 ], [ 2.14738, 44.077564 ], [ 2.149422, 44.077821 ], [ 2.150468, 44.07782 ], [ 2.153, 44.077798 ], [ 2.160037, 44.081335 ], [ 2.163302, 44.080814 ], [ 2.165821, 44.089107 ], [ 2.16579, 44.089192 ], [ 2.16564, 44.090055 ], [ 2.165721, 44.091181 ], [ 2.165903, 44.092636 ], [ 2.16596405162138, 44.09311806994544 ], [ 2.167616, 44.092244 ], [ 2.167324, 44.090947 ], [ 2.166416, 44.089249 ], [ 2.16641, 44.088889 ], [ 2.166678, 44.08795 ], [ 2.166929, 44.087692 ], [ 2.170205430247003, 44.0864585397346 ], [ 2.16884, 44.081917 ], [ 2.161383, 44.077431 ], [ 2.157867, 44.077349 ], [ 2.156915, 44.077479 ], [ 2.15465, 44.07774 ], [ 2.154239, 44.074163 ], [ 2.157559, 44.066283 ], [ 2.157038, 44.063799 ], [ 2.15355, 44.061001 ], [ 2.147237, 44.065283 ], [ 2.146267, 44.0658 ], [ 2.145414, 44.066091 ], [ 2.144389, 44.066386 ], [ 2.144088, 44.066327 ], [ 2.143386, 44.066099 ], [ 2.136263, 44.065021 ], [ 2.134451, 44.069105 ], [ 2.137156, 44.073204 ], [ 2.136844, 44.07613 ], [ 2.136549, 44.076752 ], [ 2.134673, 44.077857 ], [ 2.127743, 44.077994 ], [ 2.126633, 44.07457 ], [ 2.118685, 44.07223 ], [ 2.117806, 44.072586 ], [ 2.116785, 44.072854 ], [ 2.116313, 44.072895 ], [ 2.115882, 44.072892 ], [ 2.115244, 44.072823 ], [ 2.11954, 44.079411 ], [ 2.120423, 44.080714 ], [ 2.121883, 44.080238 ], [ 2.12665, 44.079968 ], [ 2.132433, 44.08255 ] ] ], [ [ [ 2.180343, 44.084919 ], [ 2.187461, 44.084462 ], [ 2.189601, 44.084917 ], [ 2.189887, 44.084931 ], [ 2.190347, 44.084879 ], [ 2.191297, 44.084543 ], [ 2.193838, 44.08346 ], [ 2.194768, 44.08219 ], [ 2.203309, 44.079719 ], [ 2.208189, 44.079973 ], [ 2.208849, 44.080006 ], [ 2.210741, 44.080038 ], [ 2.212634, 44.08007 ], [ 2.212694, 44.07647 ], [ 2.208158, 44.068895 ], [ 2.209458, 44.067515 ], [ 2.216697, 44.066784 ], [ 2.217253, 44.067215 ], [ 2.218014, 44.067747 ], [ 2.219042, 44.068352 ], [ 2.22047, 44.06907 ], [ 2.223181, 44.070401 ], [ 2.225411385260977, 44.07149726316149 ], [ 2.225657, 44.069915 ], [ 2.222672, 44.06845 ], [ 2.219678, 44.06698 ], [ 2.219371, 44.066806 ], [ 2.219056, 44.066628 ], [ 2.218899, 44.066529 ], [ 2.218734, 44.066424 ], [ 2.218402, 44.066188 ], [ 2.218064, 44.065947 ], [ 2.217826, 44.065762 ], [ 2.217579, 44.06557 ], [ 2.217375, 44.06539 ], [ 2.217162, 44.065201 ], [ 2.216824, 44.064855 ], [ 2.216477, 44.064498 ], [ 2.21621, 44.064172 ], [ 2.215933, 44.063833 ], [ 2.215682, 44.063459 ], [ 2.215424, 44.063074 ], [ 2.215307, 44.062869 ], [ 2.215191, 44.062665 ], [ 2.215503, 44.062486 ], [ 2.219855, 44.066666 ], [ 2.222831, 44.068126 ], [ 2.225816, 44.069591 ], [ 2.226579, 44.070001 ], [ 2.226715624926731, 44.070055189459538 ], [ 2.227479, 44.068502 ], [ 2.228006, 44.059847 ], [ 2.228256, 44.05827 ], [ 2.226903, 44.05642 ], [ 2.223092, 44.056601 ], [ 2.220667, 44.056658 ], [ 2.215331708502698, 44.051995662993839 ], [ 2.217878, 44.056554 ], [ 2.217779, 44.060153 ], [ 2.216472, 44.061434 ], [ 2.213249, 44.063036 ], [ 2.205621, 44.064949 ], [ 2.20101, 44.063843 ], [ 2.197453, 44.064468 ], [ 2.1934, 44.066382 ], [ 2.195628, 44.074067 ], [ 2.19965, 44.075313 ], [ 2.200203, 44.07538 ], [ 2.201143, 44.077721 ], [ 2.201013, 44.07796 ], [ 2.199767, 44.078954 ], [ 2.191939, 44.08262 ], [ 2.191238, 44.082968 ], [ 2.190775, 44.083133 ], [ 2.190291, 44.083214 ], [ 2.189136, 44.083225 ], [ 2.18878, 44.083204 ], [ 2.188386, 44.08314 ], [ 2.18775, 44.082908 ], [ 2.187245, 44.082578 ], [ 2.186601, 44.081621 ], [ 2.185885, 44.08062 ], [ 2.18555, 44.080134 ], [ 2.176957, 44.082385 ], [ 2.174777, 44.086407 ], [ 2.174648, 44.087294 ], [ 2.174523, 44.088278 ], [ 2.173752, 44.089209 ], [ 2.172479335669155, 44.088750976954742 ], [ 2.171339, 44.090502 ], [ 2.171461190046605, 44.093503943479348 ], [ 2.173618, 44.090716 ], [ 2.177786, 44.087453 ], [ 2.180343, 44.084919 ] ] ] ] } },
{ "type": "Feature", "properties": { "codgeo": "81060", "value": 600, "isochrone_group": 10.0, "nb_agences": 1 }, "geometry": { "type": "MultiPolygon", "coordinates": [ [ [ [ 2.087868, 44.04301 ], [ 2.089694, 44.043621 ], [ 2.090371, 44.043759 ], [ 2.095534, 44.046835 ], [ 2.09361, 44.053704 ], [ 2.094034, 44.056662 ], [ 2.094935, 44.062502 ], [ 2.09404, 44.071067 ], [ 2.093763, 44.071443 ], [ 2.094419, 44.072678 ], [ 2.098615, 44.07531 ], [ 2.098957, 44.075498 ], [ 2.100871, 44.076172 ], [ 2.10135, 44.076253 ], [ 2.103168, 44.075555 ], [ 2.102463, 44.075769 ], [ 2.101817, 44.075855 ], [ 2.101061, 44.075837 ], [ 2.10032, 44.075691 ], [ 2.100007, 44.075584 ], [ 2.101164, 44.072176 ], [ 2.101117, 44.065361 ], [ 2.101457, 44.057734 ], [ 2.099067, 44.055041 ], [ 2.099175, 44.053941 ], [ 2.100313, 44.052489 ], [ 2.097639, 44.043947 ], [ 2.097381, 44.04392 ], [ 2.097387, 44.04032 ], [ 2.100589, 44.039435 ], [ 2.100982, 44.039329 ], [ 2.101445, 44.039253 ], [ 2.102113, 44.039267 ], [ 2.102524, 44.039349 ], [ 2.10681, 44.039881 ], [ 2.100313, 44.037584 ], [ 2.096079, 44.037725 ], [ 2.090074, 44.03913 ], [ 2.087502, 44.039429 ], [ 2.087868, 44.04301 ] ] ], [ [ [ 2.130271, 44.016917 ], [ 2.12993, 44.016811 ], [ 2.128819, 44.016322 ], [ 2.127489, 44.016436 ], [ 2.127167, 44.016552 ], [ 2.126524, 44.017528 ], [ 2.126315, 44.018909 ], [ 2.120868, 44.023367 ], [ 2.11753, 44.022274 ], [ 2.117125, 44.022232 ], [ 2.116679, 44.022231 ], [ 2.115396, 44.022303 ], [ 2.115598, 44.025898 ], [ 2.118727, 44.02772 ], [ 2.120649, 44.029086 ], [ 2.123688, 44.031556 ], [ 2.121934613036597, 44.038716772470558 ], [ 2.126424, 44.036173 ], [ 2.12657, 44.030196 ], [ 2.125761, 44.027673 ], [ 2.124931, 44.024525 ], [ 2.12654, 44.023247 ], [ 2.12681, 44.02317 ], [ 2.128023, 44.023711 ], [ 2.129066, 44.024535 ], [ 2.130711, 44.025898 ], [ 2.135456, 44.028179 ], [ 2.141632, 44.02988 ], [ 2.134014, 44.025151 ], [ 2.132291, 44.020814 ], [ 2.132244, 44.020714 ], [ 2.131437, 44.019245 ], [ 2.130271, 44.016917 ] ] ], [ [ [ 2.153684, 44.002878 ], [ 2.145931, 44.005493 ], [ 2.145106, 44.005844 ], [ 2.139662, 44.008587 ], [ 2.138976, 44.009534 ], [ 2.138927, 44.009691 ], [ 2.140909, 44.011482 ], [ 2.142254, 44.014675 ], [ 2.142998, 44.016324 ], [ 2.143272, 44.016263 ], [ 2.148587, 44.017486 ], [ 2.147822, 44.016909 ], [ 2.147231, 44.016313 ], [ 2.14511, 44.014894 ], [ 2.146129, 44.011441 ], [ 2.146242, 44.00543 ], [ 2.146543, 44.005396 ], [ 2.150301, 44.005465 ], [ 2.151762, 44.007755 ], [ 2.159106, 44.00825 ], [ 2.159723, 44.007754 ], [ 2.16021, 44.007493 ], [ 2.161585, 44.006894 ], [ 2.16591, 44.001163 ], [ 2.165943183968747, 43.998185568404189 ], [ 2.16588, 43.998108 ], [ 2.165864, 43.997675 ], [ 2.166236, 43.996842 ], [ 2.166857, 43.995523 ], [ 2.167195, 43.99494 ], [ 2.163588, 43.997632 ], [ 2.162654, 43.998322 ], [ 2.161867, 43.998834 ], [ 2.154433, 44.002514 ], [ 2.153684, 44.002878 ] ] ], [ [ [ 2.177165371055415, 43.9956483739467 ], [ 2.174622, 44.003205 ], [ 2.175164709424076, 44.004127606020923 ], [ 2.175687, 44.004874 ], [ 2.176238, 44.005565 ], [ 2.177135, 43.996627 ], [ 2.179563, 43.994051 ], [ 2.179551, 43.989908 ], [ 2.17924, 43.992253 ], [ 2.17861, 43.994397 ], [ 2.177165371055415, 43.9956483739467 ] ] ], [ [ [ 2.177621, 44.007092 ], [ 2.176238, 44.005565 ], [ 2.177, 44.006616 ], [ 2.17852917483005, 44.008096708098691 ], [ 2.177621, 44.007092 ] ] ], [ [ [ 2.191009, 44.007589 ], [ 2.186981, 44.011291 ], [ 2.179051, 44.008674 ], [ 2.178557159432309, 44.008127667288058 ], [ 2.179599, 44.009497 ], [ 2.18007, 44.010097 ], [ 2.180424, 44.010589 ], [ 2.180954, 44.01142 ], [ 2.181264, 44.011941 ], [ 2.18157, 44.012531 ], [ 2.182025, 44.013526 ], [ 2.182318, 44.014298 ], [ 2.182607, 44.015056 ], [ 2.190789, 44.016493 ], [ 2.19189, 44.013712 ], [ 2.19791, 44.012385 ], [ 2.199826, 44.009337 ], [ 2.20097, 44.010057 ], [ 2.20137, 44.010373 ], [ 2.204286, 44.01205 ], [ 2.212948, 44.012656 ], [ 2.215387, 44.011218 ], [ 2.207778, 44.009827 ], [ 2.199336, 44.008197 ], [ 2.196979, 44.005476 ], [ 2.192764, 44.004446 ], [ 2.191009, 44.007589 ] ] ], [ [ [ 2.222957, 44.011885 ], [ 2.227537, 44.012464 ], [ 2.229376, 44.012699 ], [ 2.229832, 44.009128 ], [ 2.223948, 44.007538 ], [ 2.218596, 44.009334 ], [ 2.217371049995448, 44.010053166658963 ], [ 2.219198, 44.013148 ], [ 2.216441, 44.015322 ], [ 2.214777, 44.015757 ], [ 2.212008, 44.016816 ], [ 2.211232, 44.017023 ], [ 2.209238, 44.017374 ], [ 2.203362, 44.019843 ], [ 2.211505, 44.018236 ], [ 2.215057, 44.018821 ], [ 2.215353, 44.018251 ], [ 2.216159, 44.016983 ], [ 2.222957, 44.011885 ] ] ], [ [ [ 2.210244, 44.038007 ], [ 2.209651, 44.037756 ], [ 2.20496, 44.033835 ], [ 2.203866, 44.033126 ], [ 2.200361, 44.025938 ], [ 2.201777, 44.032384 ], [ 2.204165, 44.034827 ], [ 2.204654, 44.035212 ], [ 2.205612, 44.036048 ], [ 2.206595, 44.037 ], [ 2.207695, 44.038201 ], [ 2.208232, 44.038901 ], [ 2.209633, 44.041089 ], [ 2.210612, 44.042972 ], [ 2.211572, 44.04482 ], [ 2.212809, 44.047083 ], [ 2.212465, 44.040073 ], [ 2.212297, 44.039819 ], [ 2.211707, 44.039175 ], [ 2.210682, 44.038325 ], [ 2.210244, 44.038007 ] ] ], [ [ [ 2.194382, 44.090072 ], [ 2.19686, 44.087461 ], [ 2.204314, 44.082979 ], [ 2.211623, 44.083817 ], [ 2.215202, 44.084211 ], [ 2.216887, 44.083041 ], [ 2.220543273517814, 44.080477624485127 ], [ 2.218095, 44.080809 ], [ 2.215793, 44.080668 ], [ 2.214022, 44.080109 ], [ 2.213986, 44.076509 ], [ 2.215009, 44.075876 ], [ 2.217071, 44.067227 ], [ 2.216526940763234, 44.066801172717504 ], [ 2.209458, 44.067515 ], [ 2.208158, 44.068895 ], [ 2.212694, 44.07647 ], [ 2.212634, 44.08007 ], [ 2.210741, 44.080038 ], [ 2.208849, 44.080006 ], [ 2.208189, 44.079973 ], [ 2.203309, 44.079719 ], [ 2.194768, 44.08219 ], [ 2.193838, 44.08346 ], [ 2.191297, 44.084543 ], [ 2.190347, 44.084879 ], [ 2.189887, 44.084931 ], [ 2.189601, 44.084917 ], [ 2.187461, 44.084462 ], [ 2.180343, 44.084919 ], [ 2.177786, 44.087453 ], [ 2.173920057542465, 44.09047952836827 ], [ 2.178861, 44.090579 ], [ 2.180284, 44.091804 ], [ 2.181318, 44.090477 ], [ 2.189659, 44.088537 ], [ 2.194382, 44.090072 ] ] ], [ [ [ 2.229619, 44.06345 ], [ 2.235128, 44.060082 ], [ 2.238093, 44.060032 ], [ 2.238363, 44.056442 ], [ 2.231665, 44.054678 ], [ 2.22874, 44.05258 ], [ 2.22609, 44.054114 ], [ 2.220667, 44.056658 ], [ 2.223092, 44.056601 ], [ 2.226903, 44.05642 ], [ 2.228256, 44.05827 ], [ 2.228006, 44.059847 ], [ 2.22749551619351, 44.068230752078136 ], [ 2.230372406701619, 44.068510099504429 ], [ 2.229619, 44.06345 ] ] ], [ [ [ 2.171687901988547, 44.097990118832556 ], [ 2.17140209991404, 44.09759273511655 ], [ 2.171406, 44.098031 ], [ 2.171687901988547, 44.097990118832556 ] ] ], [ [ [ 2.161387, 44.08112 ], [ 2.162990932363757, 44.085631190244783 ], [ 2.163941, 44.085221 ], [ 2.164497697806808, 44.084750451731566 ], [ 2.163302, 44.080814 ], [ 2.161386313144267, 44.081119688469158 ], [ 2.161387, 44.08112 ] ] ], [ [ [ 2.123161, 44.083081 ], [ 2.129436, 44.083534 ], [ 2.132753, 44.082848 ], [ 2.135059, 44.082531 ], [ 2.137094, 44.082328 ], [ 2.145135, 44.079399 ], [ 2.146108, 44.079001 ], [ 2.150468, 44.07782 ], [ 2.149422, 44.077821 ], [ 2.14738, 44.077564 ], [ 2.143439, 44.077318 ], [ 2.135686, 44.081008 ], [ 2.132433, 44.08255 ], [ 2.12665, 44.079968 ], [ 2.121883, 44.080238 ], [ 2.120423, 44.080714 ], [ 2.11954, 44.079411 ], [ 2.115244, 44.072823 ], [ 2.112498, 44.07223 ], [ 2.111027877233492, 44.072700336823999 ], [ 2.114004, 44.078202 ], [ 2.114285, 44.080532 ], [ 2.114532, 44.081763 ], [ 2.119628, 44.083777 ], [ 2.123161, 44.083081 ] ] ] ] } },
{ "type": "Feature", "properties": { "codgeo": "81060", "value": 660, "isochrone_group": 11.0, "nb_agences": 1 }, "geometry": { "type": "MultiPolygon", "coordinates": [ [ [ [ 2.153259738604904, 44.003021098613203 ], [ 2.153684, 44.002878 ], [ 2.154433, 44.002514 ], [ 2.161867, 43.998834 ], [ 2.162654, 43.998322 ], [ 2.163080655593923, 43.99800680475397 ], [ 2.163087, 43.997957 ], [ 2.163588, 43.997632 ], [ 2.163945613699783, 43.996166164850045 ], [ 2.160856, 43.996182 ], [ 2.156146, 44.000134 ], [ 2.155452, 44.000652 ], [ 2.153259738604904, 44.003021098613203 ] ] ], [ [ [ 2.126845, 44.013707 ], [ 2.125077, 44.011362 ], [ 2.122897, 44.009975 ], [ 2.121601, 44.010233 ], [ 2.121484, 44.011135 ], [ 2.121453, 44.011626 ], [ 2.121334, 44.01315 ], [ 2.121295, 44.013638 ], [ 2.120707, 44.019099 ], [ 2.113263, 44.021985 ], [ 2.112485, 44.021766 ], [ 2.110286, 44.021375 ], [ 2.108721, 44.021098 ], [ 2.106385, 44.02037 ], [ 2.105314, 44.023807 ], [ 2.10765, 44.024535 ], [ 2.109235, 44.025265 ], [ 2.111764, 44.027827 ], [ 2.113084, 44.028327 ], [ 2.116276, 44.029991 ], [ 2.118198, 44.030338 ], [ 2.118685, 44.030383 ], [ 2.118749, 44.030387 ], [ 2.121643, 44.031384 ], [ 2.120278, 44.040174 ], [ 2.12158, 44.040165 ], [ 2.123688, 44.031556 ], [ 2.120649, 44.029086 ], [ 2.118727, 44.02772 ], [ 2.115598, 44.025898 ], [ 2.115396, 44.022303 ], [ 2.116679, 44.022231 ], [ 2.117125, 44.022232 ], [ 2.11753, 44.022274 ], [ 2.120868, 44.023367 ], [ 2.126315, 44.018909 ], [ 2.126524, 44.017528 ], [ 2.127167, 44.016552 ], [ 2.127489, 44.016436 ], [ 2.128819, 44.016322 ], [ 2.12993, 44.016811 ], [ 2.130271, 44.016917 ], [ 2.131437, 44.019245 ], [ 2.132244, 44.020714 ], [ 2.132291, 44.020814 ], [ 2.134014, 44.025151 ], [ 2.141632, 44.02988 ], [ 2.144577, 44.028289 ], [ 2.145383, 44.028073 ], [ 2.14597, 44.027968 ], [ 2.146728, 44.027943 ], [ 2.151619, 44.021012 ], [ 2.148986, 44.01772 ], [ 2.148587, 44.017486 ], [ 2.143272, 44.016263 ], [ 2.142998, 44.016324 ], [ 2.142254, 44.014675 ], [ 2.140909, 44.011482 ], [ 2.138927, 44.009691 ], [ 2.138976, 44.009534 ], [ 2.139662, 44.008587 ], [ 2.140432123566667, 44.008198967497542 ], [ 2.13566, 44.008444 ], [ 2.134885, 44.008543 ], [ 2.134846, 44.009296 ], [ 2.133396, 44.013271 ], [ 2.126845, 44.013707 ] ] ], [ [ [ 2.089843, 44.037951 ], [ 2.085741, 44.03981 ], [ 2.084308, 44.040372 ], [ 2.083561, 44.040651 ], [ 2.08241, 44.041458 ], [ 2.078943, 44.044795 ], [ 2.081189, 44.047608 ], [ 2.088584, 44.051419 ], [ 2.087745, 44.055299 ], [ 2.088621, 44.058791 ], [ 2.093059, 44.064922 ], [ 2.09089, 44.067761 ], [ 2.087968, 44.075533 ], [ 2.086613, 44.078453 ], [ 2.086666, 44.078514 ], [ 2.08723, 44.078961 ], [ 2.087907, 44.079228 ], [ 2.088327, 44.079308 ], [ 2.08901, 44.079334 ], [ 2.089528, 44.07931 ], [ 2.090524, 44.079213 ], [ 2.091156, 44.079068 ], [ 2.092396, 44.078539 ], [ 2.098858, 44.077233 ], [ 2.106064, 44.082599 ], [ 2.109402, 44.082639 ], [ 2.109664, 44.082562 ], [ 2.113545, 44.081866 ], [ 2.120031, 44.08463 ], [ 2.120956, 44.085363 ], [ 2.121418, 44.085522 ], [ 2.122677, 44.085804 ], [ 2.123212, 44.085836 ], [ 2.130301, 44.086489 ], [ 2.130733, 44.086468 ], [ 2.131207, 44.086415 ], [ 2.137689, 44.082253 ], [ 2.144667, 44.080675 ], [ 2.150468, 44.07782 ], [ 2.146108, 44.079001 ], [ 2.145135, 44.079399 ], [ 2.137094, 44.082328 ], [ 2.135059, 44.082531 ], [ 2.132753, 44.082848 ], [ 2.129436, 44.083534 ], [ 2.123161, 44.083081 ], [ 2.119628, 44.083777 ], [ 2.114532, 44.081763 ], [ 2.114285, 44.080532 ], [ 2.114004, 44.078202 ], [ 2.110609, 44.071926 ], [ 2.105577, 44.073968 ], [ 2.105037, 44.074617 ], [ 2.104493, 44.074975 ], [ 2.103168, 44.075555 ], [ 2.10135, 44.076253 ], [ 2.100871, 44.076172 ], [ 2.098957, 44.075498 ], [ 2.098615, 44.07531 ], [ 2.094419, 44.072678 ], [ 2.093763, 44.071443 ], [ 2.09404, 44.071067 ], [ 2.094935, 44.062502 ], [ 2.094034, 44.056662 ], [ 2.09361, 44.053704 ], [ 2.095534, 44.046835 ], [ 2.090371, 44.043759 ], [ 2.089694, 44.043621 ], [ 2.087868, 44.04301 ], [ 2.087502, 44.039429 ], [ 2.090074, 44.03913 ], [ 2.096079, 44.037725 ], [ 2.100313, 44.037584 ], [ 2.10681, 44.039881 ], [ 2.107513, 44.039896 ], [ 2.108149, 44.039965 ], [ 2.103487, 44.036897 ], [ 2.098833, 44.035523 ], [ 2.096758, 44.036318 ], [ 2.092905, 44.036931 ], [ 2.089843, 44.037951 ] ] ], [ [ [ 2.161787, 44.084317 ], [ 2.161903, 44.084124 ], [ 2.162088, 44.083903 ], [ 2.162256, 44.083747 ], [ 2.162305723177374, 44.083703983669793 ], [ 2.161387, 44.08112 ], [ 2.154793769151047, 44.078129569002982 ], [ 2.160004, 44.084627 ], [ 2.160134, 44.08574 ], [ 2.160446350172033, 44.086378710773943 ], [ 2.161687, 44.084486 ], [ 2.161787, 44.084317 ] ] ], [ [ [ 2.182484, 44.092931 ], [ 2.18317, 44.093023 ], [ 2.183547, 44.093082 ], [ 2.184015, 44.093106 ], [ 2.18521, 44.093286 ], [ 2.188556774292128, 44.09352752461043 ], [ 2.190680507169436, 44.088868995237156 ], [ 2.189659, 44.088537 ], [ 2.181318, 44.090477 ], [ 2.180284, 44.091804 ], [ 2.178861, 44.090579 ], [ 2.178813321039922, 44.090578040121585 ], [ 2.178656, 44.093072 ], [ 2.180259390315529, 44.093486013934196 ], [ 2.18032, 44.09307 ], [ 2.182058, 44.092894 ], [ 2.182484, 44.092931 ] ] ], [ [ [ 2.211036, 44.08933 ], [ 2.211851, 44.089227 ], [ 2.212317, 44.089124 ], [ 2.213009, 44.0889 ], [ 2.213682, 44.08854 ], [ 2.220416, 44.085438 ], [ 2.220566532826431, 44.08533904444802 ], [ 2.220429, 44.085325 ], [ 2.215011, 44.085869 ], [ 2.211432, 44.086263 ], [ 2.211361, 44.085616 ], [ 2.20916517888937, 44.083535203024944 ], [ 2.204314, 44.082979 ], [ 2.199843474007924, 44.08566707318171 ], [ 2.201228, 44.085598 ], [ 2.201578, 44.085683 ], [ 2.203046, 44.08714 ], [ 2.203289, 44.087406 ], [ 2.202532, 44.090268 ], [ 2.202492397847031, 44.09049677063188 ], [ 2.207883, 44.089282 ], [ 2.210341, 44.089292 ], [ 2.211036, 44.08933 ] ] ], [ [ [ 2.247554, 44.058723 ], [ 2.247403, 44.057608 ], [ 2.242883, 44.054241 ], [ 2.241837, 44.054137 ], [ 2.234828, 44.051661 ], [ 2.232331, 44.049067 ], [ 2.22688, 44.048732 ], [ 2.220853, 44.042277 ], [ 2.221383, 44.041527 ], [ 2.221483, 44.041246 ], [ 2.221606, 44.040801 ], [ 2.221814, 44.039241 ], [ 2.22166, 44.038335 ], [ 2.218111, 44.038936 ], [ 2.212752, 44.034044 ], [ 2.21021, 44.034695 ], [ 2.208669, 44.035166 ], [ 2.205922003936184, 44.034639096660364 ], [ 2.209651, 44.037756 ], [ 2.210244, 44.038007 ], [ 2.210682, 44.038325 ], [ 2.211707, 44.039175 ], [ 2.212297, 44.039819 ], [ 2.212465, 44.040073 ], [ 2.212809, 44.047083 ], [ 2.213928, 44.049301 ], [ 2.214556, 44.050607 ], [ 2.215149, 44.051836 ], [ 2.220667, 44.056658 ], [ 2.22609, 44.054114 ], [ 2.22874, 44.05258 ], [ 2.231665, 44.054678 ], [ 2.238363, 44.056442 ], [ 2.238093, 44.060032 ], [ 2.235128, 44.060082 ], [ 2.229619, 44.06345 ], [ 2.230419444001828, 44.068826015753864 ], [ 2.231204, 44.068965 ], [ 2.23631, 44.064524 ], [ 2.24208, 44.062472 ], [ 2.243612907089771, 44.063998297141495 ], [ 2.245286, 44.063833 ], [ 2.247875, 44.061177 ], [ 2.247554, 44.058723 ] ] ], [ [ [ 2.215496, 44.021494 ], [ 2.21562, 44.021417 ], [ 2.216159, 44.016983 ], [ 2.215353, 44.018251 ], [ 2.215057, 44.018821 ], [ 2.211505, 44.018236 ], [ 2.203362, 44.019843 ], [ 2.211657, 44.020996 ], [ 2.213086, 44.022631 ], [ 2.21392, 44.022328 ], [ 2.214351, 44.022112 ], [ 2.215496, 44.021494 ] ] ], [ [ [ 2.236924, 44.015565 ], [ 2.236422, 44.010735 ], [ 2.230757, 44.004763 ], [ 2.227213, 44.004131 ], [ 2.224081808465651, 44.007574158303939 ], [ 2.229832, 44.009128 ], [ 2.229376, 44.012699 ], [ 2.227537, 44.012464 ], [ 2.222957, 44.011885 ], [ 2.230851, 44.015556 ], [ 2.233511, 44.016712 ], [ 2.235482, 44.016324 ], [ 2.235894, 44.016102 ], [ 2.236924, 44.015565 ] ] ], [ [ [ 2.190127, 44.001123 ], [ 2.181998, 43.997489 ], [ 2.18158, 43.99661 ], [ 2.184755, 43.988713 ], [ 2.18400862883202, 43.987153017018272 ], [ 2.182629, 43.989287 ], [ 2.181116, 43.996029 ], [ 2.17879, 43.998777 ], [ 2.177621, 44.007092 ], [ 2.179051, 44.008674 ], [ 2.186981, 44.011291 ], [ 2.191009, 44.007589 ], [ 2.192764, 44.004446 ], [ 2.196979, 44.005476 ], [ 2.199336, 44.008197 ], [ 2.207778, 44.009827 ], [ 2.215387, 44.011218 ], [ 2.207697, 44.006994 ], [ 2.203117, 44.003468 ], [ 2.199781, 44.002115 ], [ 2.193083, 44.003177 ], [ 2.190127, 44.001123 ] ] ] ] } },
{ "type": "Feature", "properties": { "codgeo": "81060", "value": 720, "isochrone_group": 12.0, "nb_agences": 1 }, "geometry": { "type": "MultiPolygon", "coordinates": [ [ [ [ 2.152487, 44.001249 ], [ 2.146543, 44.005396 ], [ 2.152923, 44.003385 ], [ 2.155452, 44.000652 ], [ 2.156146, 44.000134 ], [ 2.160366559335497, 43.996592672931214 ], [ 2.160311477163477, 43.995734948699315 ], [ 2.15501, 43.998527 ], [ 2.153914, 43.998731 ], [ 2.153023, 44.000026 ], [ 2.152487, 44.001249 ] ] ], [ [ [ 2.125743, 44.005374 ], [ 2.124195, 44.003382 ], [ 2.123304, 44.003204 ], [ 2.118742, 44.006929 ], [ 2.116916, 44.013563 ], [ 2.117156, 44.017155 ], [ 2.110286, 44.021375 ], [ 2.112485, 44.021766 ], [ 2.113263, 44.021985 ], [ 2.120707, 44.019099 ], [ 2.121295, 44.013638 ], [ 2.121334, 44.01315 ], [ 2.121453, 44.011626 ], [ 2.121484, 44.011135 ], [ 2.121601, 44.010233 ], [ 2.122897, 44.009975 ], [ 2.125077, 44.011362 ], [ 2.126845, 44.013707 ], [ 2.133396, 44.013271 ], [ 2.134846, 44.009296 ], [ 2.134885, 44.008543 ], [ 2.13566, 44.008444 ], [ 2.140821, 44.008179 ], [ 2.14472, 44.006162 ], [ 2.145106, 44.005844 ], [ 2.145931, 44.005493 ], [ 2.146543, 44.005396 ], [ 2.138904, 44.001855 ], [ 2.136901, 44.001592 ], [ 2.13481, 44.001443 ], [ 2.133051, 44.005388 ], [ 2.125743, 44.005374 ] ] ], [ [ [ 2.097234, 44.01795 ], [ 2.096002, 44.018758 ], [ 2.095609, 44.019158 ], [ 2.095532, 44.021123 ], [ 2.096434, 44.021607 ], [ 2.098178, 44.022535 ], [ 2.099916, 44.02346 ], [ 2.102009, 44.025241 ], [ 2.102635, 44.033963 ], [ 2.099819, 44.034695 ], [ 2.095938, 44.034813 ], [ 2.095175, 44.03476 ], [ 2.088939, 44.035199 ], [ 2.087858, 44.034961 ], [ 2.087375, 44.034971 ], [ 2.086986, 44.035056 ], [ 2.086114, 44.035633 ], [ 2.085684, 44.036561 ], [ 2.08241, 44.041458 ], [ 2.083561, 44.040651 ], [ 2.084308, 44.040372 ], [ 2.085741, 44.03981 ], [ 2.089843, 44.037951 ], [ 2.092905, 44.036931 ], [ 2.096758, 44.036318 ], [ 2.098833, 44.035523 ], [ 2.103487, 44.036897 ], [ 2.108149, 44.039965 ], [ 2.108613, 44.040078 ], [ 2.113301, 44.040269 ], [ 2.114734, 44.040189 ], [ 2.117199, 44.040024 ], [ 2.118237, 44.040047 ], [ 2.119414, 44.040145 ], [ 2.120278, 44.040174 ], [ 2.121643, 44.031384 ], [ 2.118749, 44.030387 ], [ 2.118685, 44.030383 ], [ 2.118198, 44.030338 ], [ 2.116276, 44.029991 ], [ 2.113084, 44.028327 ], [ 2.111764, 44.027827 ], [ 2.109235, 44.025265 ], [ 2.10765, 44.024535 ], [ 2.105314, 44.023807 ], [ 2.106385, 44.02037 ], [ 2.108721, 44.021098 ], [ 2.110286, 44.021375 ], [ 2.106469, 44.019014 ], [ 2.106137, 44.018629 ], [ 2.105658, 44.018283 ], [ 2.102018, 44.018253 ], [ 2.097234, 44.01795 ] ] ], [ [ [ 2.071124, 44.049483 ], [ 2.072793, 44.051837 ], [ 2.073162, 44.051798 ], [ 2.075453, 44.051108 ], [ 2.082705, 44.05588 ], [ 2.082554, 44.059476 ], [ 2.083807, 44.061029 ], [ 2.083953, 44.061195 ], [ 2.084185, 44.061418 ], [ 2.084757, 44.061754 ], [ 2.086813, 44.061281 ], [ 2.090214, 44.069417 ], [ 2.090057, 44.06967 ], [ 2.08604, 44.075043 ], [ 2.080947, 44.074641 ], [ 2.080722, 44.074528 ], [ 2.078901, 44.073864 ], [ 2.07708, 44.07697 ], [ 2.081468, 44.081978 ], [ 2.081957, 44.082448 ], [ 2.082549, 44.082828 ], [ 2.082948, 44.083014 ], [ 2.090524, 44.079213 ], [ 2.089528, 44.07931 ], [ 2.08901, 44.079334 ], [ 2.088327, 44.079308 ], [ 2.087907, 44.079228 ], [ 2.08723, 44.078961 ], [ 2.086666, 44.078514 ], [ 2.086613, 44.078453 ], [ 2.087968, 44.075533 ], [ 2.09089, 44.067761 ], [ 2.093059, 44.064922 ], [ 2.088621, 44.058791 ], [ 2.087745, 44.055299 ], [ 2.088584, 44.051419 ], [ 2.081189, 44.047608 ], [ 2.078943, 44.044795 ], [ 2.08241, 44.041458 ], [ 2.078318, 44.042867 ], [ 2.074792, 44.043534 ], [ 2.071718, 44.048401 ], [ 2.071153, 44.049385 ], [ 2.071124, 44.049483 ] ] ], [ [ [ 2.101916, 44.088094 ], [ 2.103951, 44.088352 ], [ 2.105331, 44.088514 ], [ 2.107773, 44.086463 ], [ 2.10846, 44.085796 ], [ 2.113545, 44.081866 ], [ 2.109664, 44.082562 ], [ 2.109402, 44.082639 ], [ 2.106064, 44.082599 ], [ 2.098858, 44.077233 ], [ 2.092396, 44.078539 ], [ 2.100963, 44.081167 ], [ 2.101702, 44.085771 ], [ 2.10154, 44.087407 ], [ 2.101851, 44.088037 ], [ 2.101916, 44.088094 ] ] ], [ [ [ 2.138392053802298, 44.08209401190885 ], [ 2.137689, 44.082253 ], [ 2.131207, 44.086415 ], [ 2.130733, 44.086468 ], [ 2.130301, 44.086489 ], [ 2.123212, 44.085836 ], [ 2.122677, 44.085804 ], [ 2.121418, 44.085522 ], [ 2.120956, 44.085363 ], [ 2.127063, 44.089906 ], [ 2.1281, 44.089505 ], [ 2.1339, 44.088206 ], [ 2.134066, 44.08762 ], [ 2.138392053802298, 44.08209401190885 ] ] ], [ [ [ 2.212317, 44.089124 ], [ 2.211851, 44.089227 ], [ 2.211036, 44.08933 ], [ 2.210341, 44.089292 ], [ 2.208744114842883, 44.089285503315068 ], [ 2.210492694061997, 44.092219225041724 ], [ 2.210499, 44.092215 ], [ 2.213428043507926, 44.088833210841457 ], [ 2.213009, 44.0889 ], [ 2.212317, 44.089124 ] ] ], [ [ [ 2.243036, 44.083211 ], [ 2.246233, 44.083931 ], [ 2.2469, 44.0841 ], [ 2.247676, 44.084261 ], [ 2.248532, 44.084387 ], [ 2.249611659851476, 44.084522129840927 ], [ 2.248262, 44.083361 ], [ 2.242652, 44.081972 ], [ 2.242451, 44.082002 ], [ 2.24157, 44.082193 ], [ 2.240946, 44.082295 ], [ 2.238525314433941, 44.083663915796265 ], [ 2.243036, 44.083211 ] ] ], [ [ [ 2.251415, 44.063872 ], [ 2.252065, 44.06403 ], [ 2.257666, 44.06069 ], [ 2.257836966920085, 44.060653843359489 ], [ 2.257093, 44.057131 ], [ 2.257300113559456, 44.056755336561501 ], [ 2.251189, 44.054999 ], [ 2.246858, 44.052604 ], [ 2.243744, 44.051753 ], [ 2.242388, 44.051407 ], [ 2.236343, 44.045413 ], [ 2.236115, 44.045488 ], [ 2.235579, 44.045727 ], [ 2.234905, 44.046143 ], [ 2.226543, 44.045262 ], [ 2.221814, 44.039241 ], [ 2.221606, 44.040801 ], [ 2.221483, 44.041246 ], [ 2.221383, 44.041527 ], [ 2.220853, 44.042277 ], [ 2.22688, 44.048732 ], [ 2.232331, 44.049067 ], [ 2.234828, 44.051661 ], [ 2.241837, 44.054137 ], [ 2.242883, 44.054241 ], [ 2.247403, 44.057608 ], [ 2.247523975263418, 44.058501294163655 ], [ 2.247838, 44.058964 ], [ 2.247633937960261, 44.059334114499947 ], [ 2.247875, 44.061177 ], [ 2.246162351008212, 44.062933970151484 ], [ 2.248575130477815, 44.065004723576955 ], [ 2.251415, 44.063872 ] ] ], [ [ [ 2.213086829225171, 44.034349651160582 ], [ 2.218111, 44.038936 ], [ 2.221588683945997, 44.038347076908558 ], [ 2.221415, 44.037658 ], [ 2.219976, 44.032426 ], [ 2.21688, 44.030589 ], [ 2.215775, 44.03209 ], [ 2.213086829225171, 44.034349651160582 ] ] ], [ [ [ 2.234975, 44.020256 ], [ 2.237235, 44.021946 ], [ 2.239078, 44.022936 ], [ 2.239899, 44.023344 ], [ 2.240615, 44.021777 ], [ 2.241501, 44.02012 ], [ 2.240561, 44.011556 ], [ 2.240778, 44.009857 ], [ 2.238429, 44.007007 ], [ 2.231825, 44.001736 ], [ 2.229714, 43.998798 ], [ 2.226507, 43.997343 ], [ 2.223709, 43.999609 ], [ 2.224284, 44.000318 ], [ 2.223409, 44.008314 ], [ 2.227213, 44.004131 ], [ 2.230757, 44.004763 ], [ 2.236422, 44.010735 ], [ 2.236924, 44.015565 ], [ 2.235894, 44.016102 ], [ 2.235482, 44.016324 ], [ 2.233511, 44.016712 ], [ 2.230851, 44.015556 ], [ 2.222957, 44.011885 ], [ 2.216159, 44.016983 ], [ 2.216014150928701, 44.018174578445539 ], [ 2.224212, 44.017227 ], [ 2.225826, 44.017539 ], [ 2.227793, 44.017592 ], [ 2.234526, 44.019913 ], [ 2.234975, 44.020256 ] ] ], [ [ [ 2.204663, 44.000158 ], [ 2.202619, 43.998087 ], [ 2.194779, 43.997322 ], [ 2.193637, 43.998313 ], [ 2.191622, 43.999805 ], [ 2.187458234977521, 43.999929951397256 ], [ 2.190127, 44.001123 ], [ 2.193083, 44.003177 ], [ 2.199781, 44.002115 ], [ 2.203117, 44.003468 ], [ 2.204621401209125, 44.00462619184789 ], [ 2.204101, 44.002547 ], [ 2.204178, 44.002392 ], [ 2.204796, 44.001251 ], [ 2.204949, 44.000832 ], [ 2.204663, 44.000158 ] ] ], [ [ [ 2.185923348616263, 43.991272225827466 ], [ 2.183136554604554, 43.997997981108739 ], [ 2.187276377893347, 43.999848653741466 ], [ 2.185923348616263, 43.991272225827466 ] ] ] ] } },
{ "type": "Feature", "properties": { "codgeo": "81060", "value": 780, "isochrone_group": 13.0, "nb_agences": 1 }, "geometry": { "type": "MultiPolygon", "coordinates": [ [ [ [ 2.238733, 44.042358 ], [ 2.231939, 44.042932 ], [ 2.229464, 44.042783 ], [ 2.226606, 44.041667 ], [ 2.225967, 44.041427 ], [ 2.225659, 44.041353 ], [ 2.221415, 44.037658 ], [ 2.221814, 44.039241 ], [ 2.226543, 44.045262 ], [ 2.234905, 44.046143 ], [ 2.235579, 44.045727 ], [ 2.236115, 44.045488 ], [ 2.236343, 44.045413 ], [ 2.242388, 44.051407 ], [ 2.243744, 44.051753 ], [ 2.245876332554138, 44.052335728003719 ], [ 2.248736870529362, 44.050135182395586 ], [ 2.245902, 44.049076 ], [ 2.241687, 44.044415 ], [ 2.239187, 44.042534 ], [ 2.238733, 44.042358 ] ] ], [ [ [ 2.236582, 44.025344 ], [ 2.241309, 44.026679 ], [ 2.244909, 44.026697 ], [ 2.245958, 44.025351 ], [ 2.246624, 44.024025 ], [ 2.246818, 44.023409 ], [ 2.246519, 44.021826 ], [ 2.251235, 44.01489 ], [ 2.251699, 44.01132 ], [ 2.24835, 44.010884 ], [ 2.244622, 44.004483 ], [ 2.243788, 44.004635 ], [ 2.241982, 44.005025 ], [ 2.240967, 44.005093 ], [ 2.240329, 44.00526 ], [ 2.233858, 43.999398 ], [ 2.233897, 43.998887 ], [ 2.23389, 43.99792 ], [ 2.23395, 43.997 ], [ 2.233908, 43.996372 ], [ 2.233778, 43.995781 ], [ 2.226577, 43.994208 ], [ 2.222978, 43.994118 ], [ 2.222272139973726, 43.994072124727175 ], [ 2.218841, 43.998519 ], [ 2.218501, 43.998741 ], [ 2.217979, 43.9989 ], [ 2.215374, 43.999631 ], [ 2.214438, 43.999878 ], [ 2.21376, 43.999891 ], [ 2.213051, 43.999757 ], [ 2.2126, 43.999587 ], [ 2.20763, 43.998639 ], [ 2.205789, 43.99731 ], [ 2.199142, 43.994635 ], [ 2.195607, 43.995318 ], [ 2.190022, 43.992301 ], [ 2.187280075241051, 43.999872090068081 ], [ 2.18729, 43.999935 ], [ 2.191622, 43.999805 ], [ 2.193637, 43.998313 ], [ 2.194779, 43.997322 ], [ 2.202619, 43.998087 ], [ 2.204663, 44.000158 ], [ 2.204949, 44.000832 ], [ 2.204796, 44.001251 ], [ 2.204178, 44.002392 ], [ 2.204101, 44.002547 ], [ 2.206042, 44.010302 ], [ 2.207617, 44.011093 ], [ 2.215387, 44.011218 ], [ 2.218596, 44.009334 ], [ 2.223409, 44.008314 ], [ 2.224284, 44.000318 ], [ 2.223709, 43.999609 ], [ 2.226507, 43.997343 ], [ 2.229714, 43.998798 ], [ 2.231825, 44.001736 ], [ 2.238429, 44.007007 ], [ 2.240778, 44.009857 ], [ 2.240561, 44.011556 ], [ 2.241501, 44.02012 ], [ 2.240615, 44.021777 ], [ 2.239899, 44.023344 ], [ 2.239078, 44.022936 ], [ 2.237235, 44.021946 ], [ 2.234975, 44.020256 ], [ 2.234526, 44.019913 ], [ 2.227793, 44.017592 ], [ 2.225826, 44.017539 ], [ 2.224212, 44.017227 ], [ 2.215353, 44.018251 ], [ 2.214898, 44.019334 ], [ 2.214771, 44.019545 ], [ 2.211657, 44.020996 ], [ 2.203362, 44.019843 ], [ 2.200365, 44.025413 ], [ 2.200361, 44.025938 ], [ 2.200296, 44.026437 ], [ 2.203174, 44.034112 ], [ 2.204092, 44.034772 ], [ 2.204090896949678, 44.034773535135244 ], [ 2.204165, 44.034827 ], [ 2.204654, 44.035212 ], [ 2.205612, 44.036048 ], [ 2.209138, 44.037669 ], [ 2.215775, 44.03209 ], [ 2.21688, 44.030589 ], [ 2.219976, 44.032426 ], [ 2.221415, 44.037658 ], [ 2.223364, 44.030487 ], [ 2.223692, 44.030138 ], [ 2.223929, 44.029881 ], [ 2.225924, 44.022684 ], [ 2.226416, 44.022087 ], [ 2.235263, 44.021994 ], [ 2.236582, 44.025344 ] ] ], [ [ [ 2.153023, 44.000026 ], [ 2.153914, 43.998731 ], [ 2.15501, 43.998527 ], [ 2.156901454031982, 43.997530855618471 ], [ 2.15627230820508, 43.99538591578191 ], [ 2.156261, 43.995368 ], [ 2.155677792667042, 43.995025492822251 ], [ 2.154359, 43.996208 ], [ 2.153749, 43.996291 ], [ 2.152942, 43.996464 ], [ 2.152487, 44.001249 ], [ 2.153023, 44.000026 ] ] ], [ [ [ 2.139221058333334, 43.99621595 ], [ 2.139221, 43.996217 ], [ 2.139016, 43.999853 ], [ 2.139221, 43.996218 ], [ 2.139221058333334, 43.99621595 ] ] ], [ [ [ 2.139226946197331, 43.995376147817041 ], [ 2.139238724005514, 43.995595127806226 ], [ 2.139242, 43.99548 ], [ 2.139226946197331, 43.995376147817041 ] ] ], [ [ [ 2.110622, 44.013973 ], [ 2.105781, 44.014436 ], [ 2.102406, 44.013184 ], [ 2.102035, 44.014026 ], [ 2.093607, 44.016035 ], [ 2.08682, 44.018635 ], [ 2.086476, 44.022218 ], [ 2.088461, 44.023198 ], [ 2.090905, 44.031695 ], [ 2.087398, 44.032508 ], [ 2.086114, 44.035633 ], [ 2.086986, 44.035056 ], [ 2.087375, 44.034971 ], [ 2.087858, 44.034961 ], [ 2.088939, 44.035199 ], [ 2.095175, 44.03476 ], [ 2.095938, 44.034813 ], [ 2.099819, 44.034695 ], [ 2.102635, 44.033963 ], [ 2.102009, 44.025241 ], [ 2.099916, 44.02346 ], [ 2.098178, 44.022535 ], [ 2.096434, 44.021607 ], [ 2.095532, 44.021123 ], [ 2.095609, 44.019158 ], [ 2.096002, 44.018758 ], [ 2.097234, 44.01795 ], [ 2.102018, 44.018253 ], [ 2.105658, 44.018283 ], [ 2.106137, 44.018629 ], [ 2.106469, 44.019014 ], [ 2.110286, 44.021375 ], [ 2.117156, 44.017155 ], [ 2.116916, 44.013563 ], [ 2.118742, 44.006929 ], [ 2.122166831009697, 44.004132530137852 ], [ 2.117250214244482, 44.002112354981129 ], [ 2.116714, 44.002437 ], [ 2.115687, 44.003765 ], [ 2.115067, 44.006816 ], [ 2.113728, 44.010157 ], [ 2.110622, 44.013973 ] ] ], [ [ [ 2.133215498327006, 44.005019071119946 ], [ 2.130137941846989, 44.005382419428827 ], [ 2.133051, 44.005388 ], [ 2.133215498327006, 44.005019071119946 ] ] ], [ [ [ 2.139016, 43.999853 ], [ 2.138904156647611, 44.001855072612805 ], [ 2.144849733299557, 44.004611099177083 ], [ 2.139016, 43.999853 ] ] ], [ [ [ 2.067024, 44.051691 ], [ 2.069077, 44.054648 ], [ 2.07113, 44.054173 ], [ 2.076927, 44.060258 ], [ 2.081188, 44.064467 ], [ 2.08167, 44.065282 ], [ 2.076364, 44.072285 ], [ 2.075594, 44.072098 ], [ 2.075012, 44.072076 ], [ 2.07347, 44.071915 ], [ 2.072828, 44.071815 ], [ 2.072381, 44.071825 ], [ 2.072041, 44.07186 ], [ 2.071068, 44.072025 ], [ 2.070537, 44.072186 ], [ 2.069775, 44.072707 ], [ 2.06922092595856, 44.073192854715032 ], [ 2.069728, 44.07318 ], [ 2.071179, 44.076475 ], [ 2.070177784663332, 44.077529368660528 ], [ 2.076536, 44.079464 ], [ 2.07942, 44.084621 ], [ 2.078239, 44.088539 ], [ 2.078182, 44.089243 ], [ 2.078351, 44.090088 ], [ 2.078631, 44.090722 ], [ 2.081924, 44.089268 ], [ 2.082171, 44.088921 ], [ 2.083078, 44.08772 ], [ 2.083465, 44.086683 ], [ 2.084726, 44.084525 ], [ 2.085843, 44.08318 ], [ 2.094098, 44.082296 ], [ 2.096328, 44.081988 ], [ 2.10154, 44.087407 ], [ 2.101702, 44.085771 ], [ 2.100963, 44.081167 ], [ 2.092396, 44.078539 ], [ 2.091156, 44.079068 ], [ 2.090524, 44.079213 ], [ 2.082948, 44.083014 ], [ 2.082549, 44.082828 ], [ 2.081957, 44.082448 ], [ 2.081468, 44.081978 ], [ 2.07708, 44.07697 ], [ 2.078901, 44.073864 ], [ 2.080722, 44.074528 ], [ 2.080947, 44.074641 ], [ 2.08604, 44.075043 ], [ 2.090057, 44.06967 ], [ 2.090214, 44.069417 ], [ 2.086813, 44.061281 ], [ 2.084757, 44.061754 ], [ 2.084185, 44.061418 ], [ 2.083953, 44.061195 ], [ 2.083807, 44.061029 ], [ 2.082554, 44.059476 ], [ 2.082705, 44.05588 ], [ 2.075453, 44.051108 ], [ 2.073162, 44.051798 ], [ 2.072793, 44.051837 ], [ 2.071124, 44.049483 ], [ 2.071153, 44.049385 ], [ 2.071718, 44.048401 ], [ 2.074792, 44.043534 ], [ 2.078318, 44.042867 ], [ 2.08241, 44.041458 ], [ 2.085684, 44.036561 ], [ 2.077705, 44.039814 ], [ 2.074399, 44.038389 ], [ 2.067806, 44.043841 ], [ 2.065058993112243, 44.045607914073145 ], [ 2.065046381299838, 44.045755752540778 ], [ 2.06519, 44.046141 ], [ 2.067024, 44.051691 ] ] ], [ [ [ 2.109343867129747, 44.090798181361819 ], [ 2.109794, 44.090506 ], [ 2.110461, 44.089767 ], [ 2.11093, 44.088665 ], [ 2.111063, 44.087848 ], [ 2.110978, 44.087168 ], [ 2.113545, 44.081866 ], [ 2.10846, 44.085796 ], [ 2.107773, 44.086463 ], [ 2.105331, 44.088514 ], [ 2.103951, 44.088352 ], [ 2.101916, 44.088094 ], [ 2.101851, 44.088037 ], [ 2.10154, 44.087407 ], [ 2.101816, 44.088677 ], [ 2.102175, 44.089468 ], [ 2.103064, 44.090208 ], [ 2.103677, 44.090391 ], [ 2.104017734984854, 44.090459275213341 ], [ 2.104839, 44.09034 ], [ 2.109343867129747, 44.090798181361819 ] ] ], [ [ [ 2.134576, 44.089823 ], [ 2.137556, 44.086513 ], [ 2.138605, 44.081822 ], [ 2.134066, 44.08762 ], [ 2.1339, 44.088206 ], [ 2.1281, 44.089505 ], [ 2.127063, 44.089906 ], [ 2.120956, 44.085363 ], [ 2.123118, 44.090089 ], [ 2.123287, 44.09095 ], [ 2.123699, 44.091661 ], [ 2.124154, 44.092091 ], [ 2.12621, 44.093499 ], [ 2.132766, 44.092935 ], [ 2.134576, 44.089823 ] ] ], [ [ [ 2.151822, 44.077724 ], [ 2.150468, 44.07782 ], [ 2.157613, 44.082198 ], [ 2.158060758022462, 44.083431666634816 ], [ 2.158640651712669, 44.082926833216881 ], [ 2.154491, 44.077752 ], [ 2.154001, 44.07777 ], [ 2.153, 44.077798 ], [ 2.151822, 44.077724 ] ] ], [ [ [ 2.217673436026113, 44.087903851359762 ], [ 2.214486883223844, 44.088411719009123 ], [ 2.214235081578463, 44.089718650775005 ], [ 2.217673436026113, 44.087903851359762 ] ] ], [ [ [ 2.221148, 44.087733 ], [ 2.2236048226763, 44.088145143229632 ], [ 2.222731, 44.087791 ], [ 2.221148, 44.087733 ] ] ] ] } },
{ "type": "Feature", "properties": { "codgeo": "81060", "value": 840, "isochrone_group": 14.0, "nb_agences": 1 }, "geometry": { "type": "MultiPolygon", "coordinates": [ [ [ [ 2.240181, 44.039038 ], [ 2.243375, 44.031055 ], [ 2.244164, 44.030841 ], [ 2.244672, 44.03074 ], [ 2.245232, 44.030527 ], [ 2.246499, 44.029694 ], [ 2.246919, 44.029356 ], [ 2.247493, 44.028519 ], [ 2.250046, 44.020692 ], [ 2.254990882831699, 44.01805172180439 ], [ 2.25444, 44.018126 ], [ 2.250365789692214, 44.01616838055444 ], [ 2.246519, 44.021826 ], [ 2.246818, 44.023409 ], [ 2.246624, 44.024025 ], [ 2.245958, 44.025351 ], [ 2.244909, 44.026697 ], [ 2.241309, 44.026679 ], [ 2.236582, 44.025344 ], [ 2.235263, 44.021994 ], [ 2.226416, 44.022087 ], [ 2.225924, 44.022684 ], [ 2.223929, 44.029881 ], [ 2.223692, 44.030138 ], [ 2.223364, 44.030487 ], [ 2.221415, 44.037658 ], [ 2.225659, 44.041353 ], [ 2.225967, 44.041427 ], [ 2.226606, 44.041667 ], [ 2.229464, 44.042783 ], [ 2.231939, 44.042932 ], [ 2.238733, 44.042358 ], [ 2.239187, 44.042534 ], [ 2.241687, 44.044415 ], [ 2.245798194339037, 44.048961210394822 ], [ 2.246923561885491, 44.044723766745847 ], [ 2.242184, 44.040443 ], [ 2.240181, 44.039038 ] ] ], [ [ [ 2.256714, 44.010645 ], [ 2.249442, 44.005512 ], [ 2.249244, 44.004141 ], [ 2.248956, 44.003199 ], [ 2.248538, 44.002653 ], [ 2.248155, 44.002337 ], [ 2.247834, 44.002128 ], [ 2.240967, 44.005093 ], [ 2.241982, 44.005025 ], [ 2.243788, 44.004635 ], [ 2.244622, 44.004483 ], [ 2.24835, 44.010884 ], [ 2.251092809275382, 44.011241081171725 ], [ 2.2519, 44.011346 ], [ 2.256747, 44.010826 ], [ 2.25703047717374, 44.010761873741153 ], [ 2.256714, 44.010645 ] ] ], [ [ [ 2.082734, 44.015741 ], [ 2.079445, 44.016009 ], [ 2.077731, 44.019175 ], [ 2.079371, 44.024465 ], [ 2.080361, 44.027927 ], [ 2.076772, 44.033778 ], [ 2.076262, 44.034102 ], [ 2.075523, 44.03533 ], [ 2.074121, 44.037625 ], [ 2.073748, 44.038171 ], [ 2.066612, 44.042772 ], [ 2.065968823008825, 44.042618196806451 ], [ 2.067099, 44.042981 ], [ 2.067973278882863, 44.043702670791838 ], [ 2.074399, 44.038389 ], [ 2.077705, 44.039814 ], [ 2.085684, 44.036561 ], [ 2.086114, 44.035633 ], [ 2.087398, 44.032508 ], [ 2.090905, 44.031695 ], [ 2.088461, 44.023198 ], [ 2.086476, 44.022218 ], [ 2.08682, 44.018635 ], [ 2.093607, 44.016035 ], [ 2.102035, 44.014026 ], [ 2.102406, 44.013184 ], [ 2.105781, 44.014436 ], [ 2.110622, 44.013973 ], [ 2.113728, 44.010157 ], [ 2.115067, 44.006816 ], [ 2.115348689341456, 44.005429815837452 ], [ 2.112685, 44.005154 ], [ 2.110898400003585, 44.002573064914884 ], [ 2.110271, 44.003541 ], [ 2.109732, 44.005432 ], [ 2.102368, 44.008552 ], [ 2.094401, 44.011857 ], [ 2.091135, 44.013371 ], [ 2.082734, 44.015741 ] ] ], [ [ [ 2.074822, 44.064133 ], [ 2.071068, 44.072025 ], [ 2.071111734398267, 44.072017583580973 ], [ 2.071186, 44.072001 ], [ 2.071571502266007, 44.07193961677914 ], [ 2.072041, 44.07186 ], [ 2.072127324324304, 44.071851113672501 ], [ 2.072172, 44.071844 ], [ 2.072256665271943, 44.071837799163184 ], [ 2.072381, 44.071825 ], [ 2.072453598736421, 44.07182337586719 ], [ 2.072527, 44.071818 ], [ 2.072569886757149, 44.071820774345497 ], [ 2.072828, 44.071815 ], [ 2.073074743223316, 44.071853433523884 ], [ 2.073269, 44.071866 ], [ 2.075251, 44.072076 ], [ 2.075347693599738, 44.072088689448783 ], [ 2.075594, 44.072098 ], [ 2.075800167282518, 44.072148069197176 ], [ 2.076013, 44.072176 ], [ 2.076197252840915, 44.072244504261363 ], [ 2.076364, 44.072285 ], [ 2.08167, 44.065282 ], [ 2.081188, 44.064467 ], [ 2.076927, 44.060258 ], [ 2.07113, 44.054173 ], [ 2.069077, 44.054648 ], [ 2.06725266246817, 44.052020349692341 ], [ 2.062849754747493, 44.053177447313239 ], [ 2.063162, 44.054645 ], [ 2.064813, 44.057844 ], [ 2.069508, 44.060413 ], [ 2.069693, 44.060554 ], [ 2.069744, 44.060579 ], [ 2.071243, 44.061002 ], [ 2.074822, 44.064133 ] ] ], [ [ [ 2.059559, 44.071686 ], [ 2.061591216860101, 44.072548010384857 ], [ 2.061387, 44.0724 ], [ 2.059542813003788, 44.071640401300165 ], [ 2.059559, 44.071686 ] ] ], [ [ [ 2.081286, 44.092439 ], [ 2.08163, 44.091414 ], [ 2.082078, 44.089907 ], [ 2.083078, 44.08772 ], [ 2.082171, 44.088921 ], [ 2.081924, 44.089268 ], [ 2.078631, 44.090722 ], [ 2.078351, 44.090088 ], [ 2.078182, 44.089243 ], [ 2.078239, 44.088539 ], [ 2.07942, 44.084621 ], [ 2.076536, 44.079464 ], [ 2.07099465866906, 44.077777921118738 ], [ 2.069672, 44.078079 ], [ 2.06891, 44.078557 ], [ 2.06814, 44.078843 ], [ 2.068072130080538, 44.079639180549769 ], [ 2.072814, 44.080761 ], [ 2.074757, 44.088078 ], [ 2.073927125469503, 44.091401304885885 ], [ 2.076717638984786, 44.092012474358761 ], [ 2.076761, 44.092006 ], [ 2.080454489271609, 44.093362130216029 ], [ 2.081286, 44.092439 ] ] ], [ [ [ 2.061615206528656, 44.072558186141109 ], [ 2.063456, 44.073339 ], [ 2.067746494735687, 44.072670005228353 ], [ 2.061615206528656, 44.072558186141109 ] ] ], [ [ [ 2.096328, 44.081988 ], [ 2.095444210437218, 44.082110066002393 ], [ 2.097752795015027, 44.083469382230689 ], [ 2.096328, 44.081988 ] ] ], [ [ [ 2.124118, 44.095338 ], [ 2.126439611847577, 44.093479246936852 ], [ 2.12621, 44.093499 ], [ 2.124154, 44.092091 ], [ 2.123699, 44.091661 ], [ 2.123287, 44.09095 ], [ 2.123118, 44.090089 ], [ 2.120956, 44.085363 ], [ 2.120031, 44.08463 ], [ 2.113545, 44.081866 ], [ 2.110978, 44.087168 ], [ 2.111063, 44.087848 ], [ 2.11093, 44.088665 ], [ 2.110709402933894, 44.089183332551919 ], [ 2.111118, 44.089419 ], [ 2.115305, 44.091184 ], [ 2.118159, 44.092266 ], [ 2.118812, 44.09286 ], [ 2.118977324688127, 44.093061673799888 ], [ 2.120586, 44.093337 ], [ 2.12093, 44.094462 ], [ 2.121357, 44.095225 ], [ 2.123057, 44.095278 ], [ 2.124118, 44.095338 ] ] ], [ [ [ 2.100677589743766, 44.090542172666666 ], [ 2.102386446752003, 44.089644007420112 ], [ 2.102175, 44.089468 ], [ 2.101816, 44.088677 ], [ 2.10154, 44.087407 ], [ 2.098328834471396, 44.084068299693108 ], [ 2.100677589743766, 44.090542172666666 ] ] ], [ [ [ 2.134576081052382, 44.089822909972035 ], [ 2.135826, 44.09055 ], [ 2.142556, 44.08647 ], [ 2.146009, 44.08545 ], [ 2.152267, 44.082503 ], [ 2.153196600049577, 44.079491911968788 ], [ 2.150468, 44.07782 ], [ 2.144667, 44.080675 ], [ 2.138605, 44.081822 ], [ 2.137556, 44.086513 ], [ 2.134576081052382, 44.089822909972035 ] ] ], [ [ [ 2.13244533524337, 44.094337367037916 ], [ 2.13186043242334, 44.093012904227159 ], [ 2.127241331673977, 44.093410276530804 ], [ 2.13244533524337, 44.094337367037916 ] ] ] ] } },
{ "type": "Feature", "properties": { "codgeo": "81060", "value": 900, "isochrone_group": 15.0, "nb_agences": 1 }, "geometry": { "type": "MultiPolygon", "coordinates": [ [ [ [ 2.247493, 44.028519 ], [ 2.246919, 44.029356 ], [ 2.246499, 44.029694 ], [ 2.245232, 44.030527 ], [ 2.244672, 44.03074 ], [ 2.244164, 44.030841 ], [ 2.243375, 44.031055 ], [ 2.240181, 44.039038 ], [ 2.242184, 44.040443 ], [ 2.244870820488836, 44.042869733119765 ], [ 2.2449, 44.041428 ], [ 2.245178, 44.03937 ], [ 2.245308388697771, 44.038802367999942 ], [ 2.244075, 44.03818 ], [ 2.244707, 44.036243 ], [ 2.246431, 44.033057 ], [ 2.247493, 44.028519 ] ] ], [ [ [ 2.25114, 44.003293 ], [ 2.248141, 44.001302 ], [ 2.240967, 44.005093 ], [ 2.247834, 44.002128 ], [ 2.248155, 44.002337 ], [ 2.248538, 44.002653 ], [ 2.248956, 44.003199 ], [ 2.249244, 44.004141 ], [ 2.249442, 44.005512 ], [ 2.251956173159246, 44.007286649453576 ], [ 2.254536, 44.007101 ], [ 2.257126, 44.009602 ], [ 2.265155, 44.008924 ], [ 2.26495572509353, 44.008266522689873 ], [ 2.257181, 44.009544 ], [ 2.254592, 44.007044 ], [ 2.25114, 44.003293 ] ] ], [ [ [ 2.250252, 44.024655 ], [ 2.255758985784919, 44.021898907019818 ], [ 2.250574637185819, 44.020409738663858 ], [ 2.250046, 44.020692 ], [ 2.247493, 44.028519 ], [ 2.250252, 44.024655 ] ] ], [ [ [ 2.228953, 43.989084 ], [ 2.228986392338853, 43.988972555629864 ], [ 2.228732489691354, 43.989324845553256 ], [ 2.228953, 43.989084 ] ] ], [ [ [ 2.102368, 44.008552 ], [ 2.107493275345936, 44.006380509087556 ], [ 2.106529, 44.005162 ], [ 2.105668237151411, 44.003737000908508 ], [ 2.104594, 44.006078 ], [ 2.100155862779022, 44.009469674597128 ], [ 2.102368, 44.008552 ] ] ], [ [ [ 2.071691, 44.012886 ], [ 2.07482, 44.014198 ], [ 2.076065, 44.01722 ], [ 2.075613, 44.017709 ], [ 2.073641, 44.019882 ], [ 2.071137398638161, 44.023412587690316 ], [ 2.072316, 44.026427 ], [ 2.073768, 44.029721 ], [ 2.073062, 44.035596 ], [ 2.072946, 44.036327 ], [ 2.072939, 44.036888 ], [ 2.067406887469918, 44.042032768472737 ], [ 2.067474771451349, 44.042215720368887 ], [ 2.073748, 44.038171 ], [ 2.074121, 44.037625 ], [ 2.075523, 44.03533 ], [ 2.076262, 44.034102 ], [ 2.076772, 44.033778 ], [ 2.080361, 44.027927 ], [ 2.079371, 44.024465 ], [ 2.077731, 44.019175 ], [ 2.079445, 44.016009 ], [ 2.082734, 44.015741 ], [ 2.091135, 44.013371 ], [ 2.094401, 44.011857 ], [ 2.098714244006782, 44.010067710249487 ], [ 2.095875, 44.008739 ], [ 2.092608, 44.007225 ], [ 2.09203, 44.008473 ], [ 2.09104, 44.009947 ], [ 2.090723, 44.011089 ], [ 2.082538, 44.014365 ], [ 2.08139, 44.01303 ], [ 2.080681, 44.0122 ], [ 2.071763, 44.012754 ], [ 2.071630998363248, 44.012820414716423 ], [ 2.071691, 44.012886 ] ] ], [ [ [ 2.070494495135117, 44.07221506172521 ], [ 2.070537, 44.072186 ], [ 2.070707201394004, 44.072134394680916 ], [ 2.070877, 44.07207 ], [ 2.071038594507987, 44.07203391578949 ], [ 2.071068, 44.072025 ], [ 2.074822, 44.064133 ], [ 2.071243, 44.061002 ], [ 2.069744, 44.060579 ], [ 2.069693, 44.060554 ], [ 2.069508, 44.060413 ], [ 2.064813, 44.057844 ], [ 2.064804285985137, 44.057827115606578 ], [ 2.064715, 44.057899 ], [ 2.064349, 44.058105 ], [ 2.062575348595848, 44.059830100157335 ], [ 2.068216, 44.0624 ], [ 2.069111, 44.064176 ], [ 2.069148, 44.067776 ], [ 2.061205, 44.071512 ], [ 2.060786322780404, 44.07143283976832 ], [ 2.061844497009977, 44.072562367815721 ], [ 2.069775, 44.072707 ], [ 2.070056169058753, 44.072514757113396 ], [ 2.070376, 44.07226 ], [ 2.070494495135117, 44.07221506172521 ] ] ], [ [ [ 2.090524, 44.079213 ], [ 2.085843, 44.08318 ], [ 2.090776529293537, 44.079361691613961 ], [ 2.090524, 44.079213 ] ] ] ] } },
{ "type": "Feature", "properties": { "codgeo": "81060", "value": 960, "isochrone_group": 16.0, "nb_agences": 1 }, "geometry": { "type": "MultiPolygon", "coordinates": [ [ [ [ 2.246431, 44.033057 ], [ 2.24492323817506, 44.035843385831932 ], [ 2.248171, 44.037029 ], [ 2.2492, 44.037443 ], [ 2.250342, 44.038526 ], [ 2.250764905207941, 44.038686885070632 ], [ 2.250771, 44.031911 ], [ 2.251306, 44.031754 ], [ 2.252519, 44.031576 ], [ 2.25919, 44.025789 ], [ 2.258763, 44.025406 ], [ 2.258308, 44.024569 ], [ 2.257967, 44.023301 ], [ 2.255082831288318, 44.022237303510103 ], [ 2.250252, 44.024655 ], [ 2.247493, 44.028519 ], [ 2.246431, 44.033057 ] ] ], [ [ [ 2.250133, 43.999337 ], [ 2.24875, 44.000087 ], [ 2.244310147615965, 44.003326360383035 ], [ 2.248141, 44.001302 ], [ 2.25114, 44.003293 ], [ 2.254592, 44.007044 ], [ 2.254822735621642, 44.007266803806154 ], [ 2.256989225350293, 44.00587702887637 ], [ 2.25628, 44.00521 ], [ 2.251991, 44.000404 ], [ 2.251633, 43.999921 ], [ 2.250133, 43.999337 ] ] ], [ [ [ 2.101848686542271, 44.008175999555256 ], [ 2.100483, 44.005402 ], [ 2.10085, 44.00182 ], [ 2.100843010456402, 44.001792587940983 ], [ 2.097095, 44.003972 ], [ 2.094709, 44.004865 ], [ 2.091794, 44.005395 ], [ 2.09104, 44.009947 ], [ 2.09203, 44.008473 ], [ 2.092608, 44.007225 ], [ 2.095875, 44.008739 ], [ 2.099123, 44.010259 ], [ 2.101848686542271, 44.008175999555256 ] ] ], [ [ [ 2.079480880118658, 44.010360602095339 ], [ 2.079929772623584, 44.012246667410459 ], [ 2.080681, 44.0122 ], [ 2.08139, 44.01303 ], [ 2.08054, 44.011623 ], [ 2.080068009118076, 44.009939807901063 ], [ 2.07964, 44.010267 ], [ 2.079480880118658, 44.010360602095339 ] ] ], [ [ [ 2.069859, 44.03094 ], [ 2.069336, 44.032988 ], [ 2.069271290539343, 44.033051213288161 ], [ 2.070237, 44.038966 ], [ 2.067070388845913, 44.040734158512421 ], [ 2.067470780718059, 44.04197334886279 ], [ 2.072939, 44.036888 ], [ 2.072946, 44.036327 ], [ 2.073062, 44.035596 ], [ 2.073768, 44.029721 ], [ 2.072521461533266, 44.026893109015546 ], [ 2.069778, 44.029792 ], [ 2.069859, 44.03094 ] ] ], [ [ [ 2.062271878330288, 44.059691838078741 ], [ 2.06226, 44.059716 ], [ 2.062921325167185, 44.062023210556234 ], [ 2.063466, 44.062242 ], [ 2.064675, 44.067337 ], [ 2.064469348357118, 44.067423905437245 ], [ 2.064664, 44.068103 ], [ 2.065186, 44.068602 ], [ 2.066328104200811, 44.069102341521571 ], [ 2.069148, 44.067776 ], [ 2.069111, 44.064176 ], [ 2.068216, 44.0624 ], [ 2.062271878330288, 44.059691838078741 ] ] ] ] } },
{ "type": "Feature", "properties": { "codgeo": "81060", "value": 1020, "isochrone_group": 17.0, "nb_agences": 1 }, "geometry": { "type": "MultiPolygon", "coordinates": [ [ [ [ 2.251306, 44.031754 ], [ 2.250771, 44.031911 ], [ 2.250765536028279, 44.037985570560579 ], [ 2.25099152826157, 44.038063893084299 ], [ 2.250969, 44.037626 ], [ 2.252760367743257, 44.03136661682953 ], [ 2.252519, 44.031576 ], [ 2.251306, 44.031754 ] ] ], [ [ [ 2.255928578154794, 44.028618238227899 ], [ 2.253389121198808, 44.030821181925134 ], [ 2.256871391237114, 44.029584677891023 ], [ 2.255928578154794, 44.028618238227899 ] ] ], [ [ [ 2.277396, 44.02597 ], [ 2.273140429559864, 44.028069095272677 ], [ 2.278509, 44.026876 ], [ 2.278564905577976, 44.026709294826588 ], [ 2.277396, 44.02597 ] ] ], [ [ [ 2.251633, 43.999921 ], [ 2.251991, 44.000404 ], [ 2.254074886268652, 44.002739079833788 ], [ 2.25408923061467, 44.001538157841615 ], [ 2.251633, 43.999921 ] ] ], [ [ [ 2.091794, 44.005395 ], [ 2.094709, 44.004865 ], [ 2.094710295796338, 44.004864515026767 ], [ 2.094298, 44.004002 ], [ 2.094242, 44.00346 ], [ 2.094259, 44.003053 ], [ 2.094298951509252, 44.00259149687114 ], [ 2.089918, 44.003637 ], [ 2.089028, 44.003653 ], [ 2.088865622282241, 44.003585945803785 ], [ 2.088904, 44.003682 ], [ 2.089245, 44.005217 ], [ 2.08974, 44.007184 ], [ 2.088463, 44.007489 ], [ 2.08260385974555, 44.012068729119797 ], [ 2.084403767988954, 44.013618236905103 ], [ 2.090723, 44.011089 ], [ 2.09104, 44.009947 ], [ 2.091794, 44.005395 ] ] ], [ [ [ 2.069059911370283, 44.031756556094408 ], [ 2.069037, 44.031813 ], [ 2.069075992788905, 44.031855051723838 ], [ 2.069059911370283, 44.031756556094408 ] ] ], [ [ [ 2.101644, 44.085876 ], [ 2.101695992632376, 44.085831666996476 ], [ 2.101702, 44.085771 ], [ 2.10142, 44.081235 ], [ 2.101023, 44.079343 ], [ 2.093373022985724, 44.078268209840971 ], [ 2.09417, 44.086158 ], [ 2.097699, 44.086871 ], [ 2.101644, 44.085876 ] ] ] ] } },
{ "type": "Feature", "properties": { "codgeo": "81060", "value": 1080, "isochrone_group": 18.0, "nb_agences": 1 }, "geometry": { "type": "MultiPolygon", "coordinates": [ [ [ [ 2.260998840296893, 44.035864128546777 ], [ 2.254505, 44.032205 ], [ 2.252564536865154, 44.032050887553559 ], [ 2.252158656054859, 44.033469113109255 ], [ 2.256663, 44.037645 ], [ 2.260998840296893, 44.035864128546777 ] ] ], [ [ [ 2.271421461982308, 44.028451113561069 ], [ 2.270647, 44.029299 ], [ 2.27024, 44.029953 ], [ 2.269793, 44.030612 ], [ 2.269050268159649, 44.032379211783336 ], [ 2.272743, 44.030102 ], [ 2.275773118704175, 44.027484014196148 ], [ 2.271421461982308, 44.028451113561069 ] ] ] ] } },
{ "type": "Feature", "properties": { "codgeo": "81060", "value": 1140, "isochrone_group": 19.0, "nb_agences": 1 }, "geometry": { "type": "MultiPolygon", "coordinates": [ [ [ [ 2.268641, 44.033353 ], [ 2.26911885964745, 44.032336913194925 ], [ 2.26905026815965, 44.032379211783336 ], [ 2.268641, 44.033353 ] ] ], [ [ [ 2.244685, 44.127572 ], [ 2.241789684883102, 44.12591927210314 ], [ 2.241035110993136, 44.125936838625243 ], [ 2.244119, 44.127703 ], [ 2.248852409180358, 44.12793473910601 ], [ 2.248515851908386, 44.127749805161415 ], [ 2.247821677659661, 44.127368365232059 ], [ 2.245228, 44.127444 ], [ 2.244685, 44.127572 ] ] ], [ [ [ 2.231903, 44.128488 ], [ 2.237987117846708, 44.126029454262046 ], [ 2.236753, 44.126138 ], [ 2.23618, 44.126235 ], [ 2.231903, 44.128488 ] ] ] ] } },
{ "type": "Feature", "properties": { "codgeo": "81060", "value": 1200, "isochrone_group": 20.0, "nb_agences": 1 }, "geometry": { "type": "MultiPolygon", "coordinates": [ [ [ [ 2.27808, 44.039083 ], [ 2.28164, 44.040961 ], [ 2.287386, 44.035694 ], [ 2.28776, 44.03496 ], [ 2.288394, 44.033702 ], [ 2.289266, 44.032624 ], [ 2.290528, 44.033247 ], [ 2.296893826920889, 44.030824255826907 ], [ 2.295879102471482, 44.030105019585754 ], [ 2.289704, 44.0294 ], [ 2.288724, 44.030139 ], [ 2.288032, 44.030778 ], [ 2.287286, 44.031423 ], [ 2.285931, 44.032562 ], [ 2.283503, 44.035314 ], [ 2.28277, 44.036104 ], [ 2.280828, 44.03684 ], [ 2.279845, 44.03649 ], [ 2.278464, 44.035974 ], [ 2.274972080730246, 44.036925067934241 ], [ 2.276497, 44.037896 ], [ 2.277417, 44.038282 ], [ 2.27808, 44.039083 ] ] ], [ [ [ 2.235456, 44.129979 ], [ 2.238809321812231, 44.128815542270381 ], [ 2.238831, 44.127168 ], [ 2.236078353861769, 44.126800771267767 ], [ 2.231903, 44.128488 ], [ 2.231739641505345, 44.132226414426668 ], [ 2.235456, 44.129979 ] ] ] ] } }
]
}
