{
"type": "FeatureCollection",
"name": "BPCE",
"crs": { "type": "name", "properties": { "name": "urn:ogc:def:crs:OGC:1.3:CRS84" } },
"features": [
{ "type": "Feature", "properties": { "codgeo": "34213", "value": 60, "isochrone_group": 1.0, "nb_agences": 1 }, "geometry": { "type": "Polygon", "coordinates": [ [ [ 3.667172, 43.488005 ], [ 3.667558, 43.486424 ], [ 3.667683, 43.486087 ], [ 3.669383, 43.483119 ], [ 3.669624, 43.482852 ], [ 3.670906, 43.48209 ], [ 3.672443, 43.481182 ], [ 3.672561, 43.481121 ], [ 3.673001, 43.481148 ], [ 3.673022, 43.48121 ], [ 3.671669, 43.486688 ], [ 3.672336, 43.48833 ], [ 3.672337, 43.48869 ], [ 3.670864, 43.489752 ], [ 3.668965, 43.489677 ], [ 3.668711, 43.489631 ], [ 3.668613, 43.489604 ], [ 3.668473, 43.489557 ], [ 3.667437, 43.488809 ], [ 3.667172, 43.488005 ] ] ] } },
{ "type": "Feature", "properties": { "codgeo": "34213", "value": 120, "isochrone_group": 2.0, "nb_agences": 1 }, "geometry": { "type": "Polygon", "coordinates": [ [ [ 3.663193, 43.490795 ], [ 3.66896, 43.492452 ], [ 3.669279, 43.492617 ], [ 3.669924, 43.492511 ], [ 3.670115, 43.492458 ], [ 3.672209, 43.491549 ], [ 3.673512, 43.490965 ], [ 3.678821, 43.489401 ], [ 3.680151, 43.489441 ], [ 3.680253, 43.489096 ], [ 3.679034, 43.488587 ], [ 3.676827, 43.487797 ], [ 3.67608, 43.487719 ], [ 3.674307, 43.482284 ], [ 3.676043, 43.481255 ], [ 3.677638, 43.475669 ], [ 3.677368, 43.475431 ], [ 3.676278, 43.476667 ], [ 3.67485, 43.478099 ], [ 3.670364, 43.480001 ], [ 3.668449, 43.479981 ], [ 3.667726, 43.479909 ], [ 3.66769, 43.480268 ], [ 3.667612, 43.482144 ], [ 3.664404, 43.486006 ], [ 3.664232, 43.486323 ], [ 3.663116, 43.490443 ], [ 3.663193, 43.490795 ] ], [ [ 3.667558, 43.486424 ], [ 3.667683, 43.486087 ], [ 3.669383, 43.483119 ], [ 3.669624, 43.482852 ], [ 3.670906, 43.48209 ], [ 3.672443, 43.481182 ], [ 3.672561, 43.481121 ], [ 3.673001, 43.481148 ], [ 3.673022, 43.48121 ], [ 3.671669, 43.486688 ], [ 3.672336, 43.48833 ], [ 3.672337, 43.48869 ], [ 3.670864, 43.489752 ], [ 3.668965, 43.489677 ], [ 3.668711, 43.489631 ], [ 3.668613, 43.489604 ], [ 3.668473, 43.489557 ], [ 3.667437, 43.488809 ], [ 3.667172, 43.488005 ], [ 3.667558, 43.486424 ] ] ] } },
{ "type": "Feature", "properties": { "codgeo": "34213", "value": 180, "isochrone_group": 3.0, "nb_agences": 1 }, "geometry": { "type": "Polygon", "coordinates": [ [ [ 3.657989, 43.489079 ], [ 3.662297, 43.493405 ], [ 3.669193, 43.496323 ], [ 3.669549, 43.496268 ], [ 3.673632, 43.493287 ], [ 3.680905, 43.491156 ], [ 3.683306, 43.491148 ], [ 3.687957, 43.490687 ], [ 3.687986, 43.490097 ], [ 3.68736, 43.489388 ], [ 3.684816, 43.487455 ], [ 3.678616, 43.481416 ], [ 3.679232, 43.475101 ], [ 3.680447, 43.472554 ], [ 3.680269, 43.472241 ], [ 3.679876, 43.47194 ], [ 3.679517, 43.471914 ], [ 3.676529, 43.473433 ], [ 3.673847, 43.476939 ], [ 3.666251, 43.479111 ], [ 3.665808, 43.47909 ], [ 3.664826, 43.47901 ], [ 3.663844, 43.47893 ], [ 3.661952, 43.479446 ], [ 3.65844, 43.482853 ], [ 3.658291, 43.483181 ], [ 3.657989, 43.489079 ] ], [ [ 3.664232, 43.486323 ], [ 3.664404, 43.486006 ], [ 3.667612, 43.482144 ], [ 3.66769, 43.480268 ], [ 3.667726, 43.479909 ], [ 3.668449, 43.479981 ], [ 3.670364, 43.480001 ], [ 3.67485, 43.478099 ], [ 3.676278, 43.476667 ], [ 3.677368, 43.475431 ], [ 3.677638, 43.475669 ], [ 3.676043, 43.481255 ], [ 3.674307, 43.482284 ], [ 3.67608, 43.487719 ], [ 3.676827, 43.487797 ], [ 3.679034, 43.488587 ], [ 3.680253, 43.489096 ], [ 3.680151, 43.489441 ], [ 3.678821, 43.489401 ], [ 3.673512, 43.490965 ], [ 3.672209, 43.491549 ], [ 3.670115, 43.492458 ], [ 3.669924, 43.492511 ], [ 3.669279, 43.492617 ], [ 3.66896, 43.492452 ], [ 3.663193, 43.490795 ], [ 3.663116, 43.490443 ], [ 3.664232, 43.486323 ] ] ] } },
{ "type": "Feature", "properties": { "codgeo": "34213", "value": 240, "isochrone_group": 4.0, "nb_agences": 1 }, "geometry": { "type": "Polygon", "coordinates": [ [ [ 3.681716, 43.493197 ], [ 3.688281, 43.494824 ], [ 3.69588, 43.49426 ], [ 3.696142, 43.494013 ], [ 3.692364, 43.486802 ], [ 3.692054, 43.486618 ], [ 3.686143, 43.48352 ], [ 3.681029, 43.483103 ], [ 3.680215, 43.475278 ], [ 3.683444, 43.472596 ], [ 3.685948, 43.47028 ], [ 3.68592, 43.469921 ], [ 3.684019, 43.469274 ], [ 3.683373, 43.46939 ], [ 3.674873, 43.469103 ], [ 3.674258, 43.468755 ], [ 3.674081, 43.469069 ], [ 3.673319, 43.474864 ], [ 3.666329, 43.476917 ], [ 3.659131, 43.47701 ], [ 3.658945, 43.477032 ], [ 3.655353, 43.477752 ], [ 3.655243, 43.478095 ], [ 3.654651, 43.481997 ], [ 3.653137, 43.487242 ], [ 3.653312, 43.487557 ], [ 3.657132, 43.495516 ], [ 3.657226, 43.495863 ], [ 3.657632, 43.495754 ], [ 3.658037, 43.495644 ], [ 3.658353, 43.495572 ], [ 3.658675, 43.495498 ], [ 3.665407, 43.501277 ], [ 3.665281, 43.501653 ], [ 3.665623, 43.501768 ], [ 3.667511, 43.500231 ], [ 3.674723, 43.500837 ], [ 3.675061, 43.501087 ], [ 3.675398, 43.501337 ], [ 3.675613, 43.501048 ], [ 3.675275, 43.500798 ], [ 3.674938, 43.500548 ], [ 3.673774276357928, 43.493245312811958 ], [ 3.673632, 43.493287 ], [ 3.669549, 43.496268 ], [ 3.669193, 43.496323 ], [ 3.662297, 43.493405 ], [ 3.657989, 43.489079 ], [ 3.658291, 43.483181 ], [ 3.65844, 43.482853 ], [ 3.661952, 43.479446 ], [ 3.663844, 43.47893 ], [ 3.664826, 43.47901 ], [ 3.665808, 43.47909 ], [ 3.666251, 43.479111 ], [ 3.673847, 43.476939 ], [ 3.676529, 43.473433 ], [ 3.679517, 43.471914 ], [ 3.679876, 43.47194 ], [ 3.680269, 43.472241 ], [ 3.680447, 43.472554 ], [ 3.679232, 43.475101 ], [ 3.678616, 43.481416 ], [ 3.684816, 43.487455 ], [ 3.68736, 43.489388 ], [ 3.687986, 43.490097 ], [ 3.687957, 43.490687 ], [ 3.683306, 43.491148 ], [ 3.680905, 43.491156 ], [ 3.674054215989054, 43.493163290076645 ], [ 3.681716, 43.493197 ] ] ] } },
{ "type": "Feature", "properties": { "codgeo": "34213", "value": 300, "isochrone_group": 5.0, "nb_agences": 1 }, "geometry": { "type": "MultiPolygon", "coordinates": [ [ [ [ 3.673201, 43.468157 ], [ 3.670928, 43.466873 ], [ 3.670702, 43.466716 ], [ 3.668308, 43.464682 ], [ 3.6667, 43.463 ], [ 3.665093, 43.46132 ], [ 3.664109, 43.460273 ], [ 3.663125, 43.459226 ], [ 3.662863, 43.459472 ], [ 3.663847, 43.460519 ], [ 3.664831, 43.461566 ], [ 3.667491, 43.46539 ], [ 3.667944, 43.466206 ], [ 3.665038, 43.47434 ], [ 3.659131, 43.47701 ], [ 3.666329, 43.476917 ], [ 3.673319, 43.474864 ], [ 3.674081, 43.469069 ], [ 3.674258, 43.468755 ], [ 3.674873, 43.469103 ], [ 3.683373, 43.46939 ], [ 3.683689907957798, 43.469333093927098 ], [ 3.684051482421077, 43.466079875269308 ], [ 3.680905, 43.467132 ], [ 3.680769, 43.467215 ], [ 3.673201, 43.468157 ] ] ], [ [ [ 3.653391, 43.475993 ], [ 3.651926, 43.47667 ], [ 3.651615, 43.476933 ], [ 3.649663, 43.479051 ], [ 3.64954, 43.479389 ], [ 3.649765, 43.487858 ], [ 3.651169, 43.489131 ], [ 3.655673, 43.494163 ], [ 3.656994, 43.495787 ], [ 3.65969, 43.498092 ], [ 3.663032, 43.504845 ], [ 3.661917, 43.507931 ], [ 3.662137, 43.508215 ], [ 3.663377, 43.507942 ], [ 3.663668, 43.507841 ], [ 3.667174, 43.506784 ], [ 3.676011, 43.505735 ], [ 3.676303, 43.505945 ], [ 3.682245, 43.506268 ], [ 3.682473, 43.50599 ], [ 3.681574, 43.50525 ], [ 3.687253110328625, 43.498639297524562 ], [ 3.68472, 43.499728 ], [ 3.684435, 43.499509 ], [ 3.684571, 43.499332 ], [ 3.684717, 43.499181 ], [ 3.684891, 43.49904 ], [ 3.685153, 43.498867 ], [ 3.685396, 43.498742 ], [ 3.687217893023696, 43.494560530837717 ], [ 3.681716, 43.493197 ], [ 3.673761, 43.493162 ], [ 3.674938, 43.500548 ], [ 3.675275, 43.500798 ], [ 3.675613, 43.501048 ], [ 3.675398, 43.501337 ], [ 3.675061, 43.501087 ], [ 3.674723, 43.500837 ], [ 3.667511, 43.500231 ], [ 3.665623, 43.501768 ], [ 3.665281, 43.501653 ], [ 3.665407, 43.501277 ], [ 3.658675, 43.495498 ], [ 3.658353, 43.495572 ], [ 3.658037, 43.495644 ], [ 3.657632, 43.495754 ], [ 3.657226, 43.495863 ], [ 3.657132, 43.495516 ], [ 3.653312, 43.487557 ], [ 3.653137, 43.487242 ], [ 3.654651, 43.481997 ], [ 3.655243, 43.478095 ], [ 3.655353, 43.477752 ], [ 3.658945, 43.477032 ], [ 3.653391, 43.475993 ] ] ], [ [ [ 3.693507, 43.48496 ], [ 3.693599, 43.484812 ], [ 3.693667, 43.484613 ], [ 3.695444, 43.479932 ], [ 3.695675, 43.479656 ], [ 3.695049, 43.479132 ], [ 3.694423, 43.478607 ], [ 3.693129362299201, 43.475004167004542 ], [ 3.692831, 43.474716 ], [ 3.692676, 43.474578 ], [ 3.692443, 43.474298 ], [ 3.692229, 43.474038 ], [ 3.685224226725091, 43.470949432469929 ], [ 3.683444, 43.472596 ], [ 3.680215, 43.475278 ], [ 3.681029, 43.483103 ], [ 3.686143, 43.48352 ], [ 3.692054, 43.486618 ], [ 3.692364, 43.486802 ], [ 3.693501862314063, 43.488973817137833 ], [ 3.693507, 43.48496 ] ] ], [ [ [ 3.69735, 43.491464 ], [ 3.697749347369185, 43.49130049162256 ], [ 3.69632149122859, 43.491270091985129 ], [ 3.69735, 43.491464 ] ] ] ] } },
{ "type": "Feature", "properties": { "codgeo": "34213", "value": 360, "isochrone_group": 6.0, "nb_agences": 1 }, "geometry": { "type": "MultiPolygon", "coordinates": [ [ [ [ 3.663683, 43.459819 ], [ 3.662272, 43.458318 ], [ 3.661313, 43.457311 ], [ 3.660338, 43.45629 ], [ 3.660191, 43.456171 ], [ 3.660033, 43.456044 ], [ 3.659791, 43.455877 ], [ 3.659543, 43.455706 ], [ 3.659353, 43.455588 ], [ 3.659132, 43.455477 ], [ 3.658907, 43.455362 ], [ 3.658021, 43.454946 ], [ 3.656825, 43.454384 ], [ 3.65575, 43.45388 ], [ 3.65467, 43.453373 ], [ 3.654412, 43.453263 ], [ 3.654271, 43.453595 ], [ 3.657269, 43.457547 ], [ 3.65743, 43.457868 ], [ 3.66441, 43.461406 ], [ 3.665465, 43.466683 ], [ 3.665429, 43.467041 ], [ 3.6621, 43.473756 ], [ 3.654236, 43.474011 ], [ 3.64822, 43.473597 ], [ 3.644444, 43.47765 ], [ 3.644331, 43.477992 ], [ 3.64484, 43.478216 ], [ 3.645021, 43.478286 ], [ 3.645227, 43.478355 ], [ 3.645644, 43.478508 ], [ 3.64646, 43.487304 ], [ 3.646581, 43.487643 ], [ 3.653324, 43.492321 ], [ 3.656213, 43.499306 ], [ 3.656429, 43.499595 ], [ 3.660491, 43.505841 ], [ 3.655242, 43.510984 ], [ 3.655114, 43.51132 ], [ 3.655343, 43.511408 ], [ 3.65563, 43.511489 ], [ 3.658316, 43.512145 ], [ 3.658517, 43.512146 ], [ 3.666758, 43.511343 ], [ 3.667111, 43.511274 ], [ 3.673112, 43.5091 ], [ 3.674205, 43.507845 ], [ 3.682555, 43.509157 ], [ 3.689294, 43.510784 ], [ 3.690335, 43.510795 ], [ 3.690513, 43.510482 ], [ 3.694609295404122, 43.505970034170396 ], [ 3.693948, 43.500729 ], [ 3.688099, 43.498374 ], [ 3.684109, 43.504147 ], [ 3.684215, 43.505908 ], [ 3.68432, 43.507673 ], [ 3.684323, 43.507765 ], [ 3.683963, 43.507777 ], [ 3.683340272067449, 43.503193991496381 ], [ 3.681574, 43.50525 ], [ 3.682473, 43.50599 ], [ 3.682245, 43.506268 ], [ 3.676303, 43.505945 ], [ 3.676011, 43.505735 ], [ 3.667174, 43.506784 ], [ 3.663668, 43.507841 ], [ 3.663377, 43.507942 ], [ 3.662137, 43.508215 ], [ 3.661917, 43.507931 ], [ 3.663032, 43.504845 ], [ 3.65969, 43.498092 ], [ 3.656994, 43.495787 ], [ 3.655673, 43.494163 ], [ 3.651169, 43.489131 ], [ 3.649765, 43.487858 ], [ 3.64954, 43.479389 ], [ 3.649663, 43.479051 ], [ 3.651615, 43.476933 ], [ 3.651926, 43.47667 ], [ 3.653391, 43.475993 ], [ 3.658945, 43.477032 ], [ 3.659131, 43.47701 ], [ 3.665038, 43.47434 ], [ 3.667944, 43.466206 ], [ 3.667491, 43.46539 ], [ 3.664831, 43.461566 ], [ 3.663847, 43.460519 ], [ 3.662863, 43.459472 ], [ 3.663125, 43.459226 ], [ 3.664109, 43.460273 ], [ 3.665093, 43.46132 ], [ 3.663683, 43.459819 ] ] ], [ [ [ 3.695969, 43.489526 ], [ 3.697925, 43.482495 ], [ 3.696939, 43.481219 ], [ 3.696548, 43.480858 ], [ 3.695487, 43.479968 ], [ 3.695444014373889, 43.479931982826002 ], [ 3.695444, 43.479932 ], [ 3.693667, 43.484613 ], [ 3.693599, 43.484812 ], [ 3.693507, 43.48496 ], [ 3.693501906142587, 43.488939576104244 ], [ 3.695969, 43.489526 ] ] ], [ [ [ 3.694657, 43.478803 ], [ 3.697493323732816, 43.480192372547165 ], [ 3.696817, 43.47882 ], [ 3.694097289715621, 43.477699883765851 ], [ 3.694423, 43.478607 ], [ 3.694656879020986, 43.478803144546355 ], [ 3.694657, 43.478803 ] ] ] ] } },
{ "type": "Feature", "properties": { "codgeo": "34213", "value": 420, "isochrone_group": 7.0, "nb_agences": 1 }, "geometry": { "type": "MultiPolygon", "coordinates": [ [ [ [ 3.666274, 43.46021 ], [ 3.664864, 43.45871 ], [ 3.663445, 43.4572 ], [ 3.662111, 43.455672 ], [ 3.661676, 43.45523 ], [ 3.661288, 43.454884 ], [ 3.660837, 43.454541 ], [ 3.655817, 43.450258 ], [ 3.651528722287556, 43.449279195559711 ], [ 3.653864, 43.451138 ], [ 3.652402, 43.454428 ], [ 3.651917, 43.454212 ], [ 3.65026, 43.453453 ], [ 3.649043, 43.452877 ], [ 3.647072374690219, 43.45250228663555 ], [ 3.649666, 43.455779 ], [ 3.652265, 43.457391 ], [ 3.65747, 43.460809 ], [ 3.657715, 43.460816 ], [ 3.663371, 43.462505 ], [ 3.663446, 43.462578 ], [ 3.664937206173599, 43.464043030310968 ], [ 3.66441, 43.461406 ], [ 3.65743, 43.457868 ], [ 3.657269, 43.457547 ], [ 3.654271, 43.453595 ], [ 3.654412, 43.453263 ], [ 3.65467, 43.453373 ], [ 3.65575, 43.45388 ], [ 3.656825, 43.454384 ], [ 3.658021, 43.454946 ], [ 3.658907, 43.455362 ], [ 3.659132, 43.455477 ], [ 3.659353, 43.455588 ], [ 3.659543, 43.455706 ], [ 3.659791, 43.455877 ], [ 3.660033, 43.456044 ], [ 3.660191, 43.456171 ], [ 3.660338, 43.45629 ], [ 3.661313, 43.457311 ], [ 3.662272, 43.458318 ], [ 3.663683, 43.459819 ], [ 3.665093, 43.46132 ], [ 3.6667, 43.463 ], [ 3.668308, 43.464682 ], [ 3.670702, 43.466716 ], [ 3.670928, 43.466873 ], [ 3.673201, 43.468157 ], [ 3.674063698687307, 43.468068275572215 ], [ 3.674614, 43.467095 ], [ 3.676261927253408, 43.464012406667145 ], [ 3.67185, 43.46554 ], [ 3.669479, 43.463563 ], [ 3.667871, 43.461881 ], [ 3.666274, 43.46021 ] ] ], [ [ [ 3.660769, 43.471259 ], [ 3.660078, 43.471302 ], [ 3.65949, 43.471349 ], [ 3.656501, 43.470794 ], [ 3.654898, 43.470872 ], [ 3.654347, 43.470977 ], [ 3.653814, 43.471202 ], [ 3.646713, 43.4707 ], [ 3.646305, 43.470712 ], [ 3.638879, 43.474855 ], [ 3.638638, 43.476749 ], [ 3.6395, 43.478401 ], [ 3.640961, 43.478858 ], [ 3.643978, 43.487313 ], [ 3.645823, 43.490404 ], [ 3.651326, 43.493913 ], [ 3.653731, 43.500529 ], [ 3.649608, 43.507403 ], [ 3.644156, 43.508265 ], [ 3.642891, 43.508319 ], [ 3.641543, 43.508375 ], [ 3.641692, 43.511972 ], [ 3.64502, 43.51238 ], [ 3.646307, 43.512252 ], [ 3.647046, 43.512245 ], [ 3.647417, 43.51222 ], [ 3.655128, 43.516618 ], [ 3.655583, 43.516797 ], [ 3.658539, 43.515887 ], [ 3.665837, 43.514979 ], [ 3.671531, 43.51589 ], [ 3.675198, 43.515345 ], [ 3.677234920231292, 43.513771130574938 ], [ 3.676228, 43.513615 ], [ 3.676193, 43.513257 ], [ 3.677787, 43.512956 ], [ 3.682425345179308, 43.509136627889255 ], [ 3.674205, 43.507845 ], [ 3.673112, 43.5091 ], [ 3.667111, 43.511274 ], [ 3.666758, 43.511343 ], [ 3.658517, 43.512146 ], [ 3.658316, 43.512145 ], [ 3.65563, 43.511489 ], [ 3.655343, 43.511408 ], [ 3.655114, 43.51132 ], [ 3.655242, 43.510984 ], [ 3.660491, 43.505841 ], [ 3.656429, 43.499595 ], [ 3.656213, 43.499306 ], [ 3.653324, 43.492321 ], [ 3.646581, 43.487643 ], [ 3.64646, 43.487304 ], [ 3.645644, 43.478508 ], [ 3.645227, 43.478355 ], [ 3.645021, 43.478286 ], [ 3.64484, 43.478216 ], [ 3.644331, 43.477992 ], [ 3.644444, 43.47765 ], [ 3.64822, 43.473597 ], [ 3.654236, 43.474011 ], [ 3.6621, 43.473756 ], [ 3.665429, 43.467041 ], [ 3.665465, 43.466683 ], [ 3.665064862997312, 43.464681556433 ], [ 3.660769, 43.471259 ] ] ], [ [ [ 3.694, 43.514991 ], [ 3.696137, 43.515285 ], [ 3.69658, 43.515195 ], [ 3.697017, 43.515049 ], [ 3.699460071241898, 43.511003790352383 ], [ 3.696104, 43.510639 ], [ 3.695754, 43.510557 ], [ 3.694436, 43.510167 ], [ 3.694253, 43.509857 ], [ 3.694821, 43.50809 ], [ 3.69457416538699, 43.50600872899615 ], [ 3.690513, 43.510482 ], [ 3.690335, 43.510795 ], [ 3.689294, 43.510784 ], [ 3.684177952941925, 43.509548830306656 ], [ 3.684164, 43.509594 ], [ 3.684095, 43.509813 ], [ 3.683934, 43.510136 ], [ 3.683762, 43.510478 ], [ 3.683555, 43.510786 ], [ 3.683331, 43.511116 ], [ 3.683097, 43.511371 ], [ 3.682838, 43.511649 ], [ 3.682458, 43.511936 ], [ 3.68206, 43.512236 ], [ 3.681829, 43.51237 ], [ 3.681585, 43.512511 ], [ 3.681305, 43.512644 ], [ 3.681095623389738, 43.512742655419743 ], [ 3.685767, 43.514067 ], [ 3.690201, 43.514448 ], [ 3.694, 43.514991 ] ] ], [ [ [ 3.70657944820986, 43.484408580991712 ], [ 3.706731396935896, 43.485462984349425 ], [ 3.708349561506352, 43.486437621811255 ], [ 3.708331, 43.486382 ], [ 3.706763, 43.484619 ], [ 3.70657944820986, 43.484408580991712 ] ] ] ] } },
{ "type": "Feature", "properties": { "codgeo": "34213", "value": 480, "isochrone_group": 8.0, "nb_agences": 1 }, "geometry": { "type": "MultiPolygon", "coordinates": [ [ [ [ 3.65427, 43.448331 ], [ 3.653446367562027, 43.448166910192427 ], [ 3.656662, 43.450304 ], [ 3.661676, 43.45523 ], [ 3.662111, 43.455672 ], [ 3.662122258247638, 43.455684895504028 ], [ 3.662141, 43.455704 ], [ 3.663947, 43.457612 ], [ 3.66388621376609, 43.457669508658782 ], [ 3.664121792473936, 43.457920194951122 ], [ 3.664122, 43.45792 ], [ 3.666274, 43.46021 ], [ 3.665187, 43.458738 ], [ 3.662669, 43.450724 ], [ 3.661188, 43.450166 ], [ 3.659879, 43.449789 ], [ 3.65427, 43.448331 ] ] ], [ [ [ 3.644688914985278, 43.453607140277818 ], [ 3.646397, 43.458175 ], [ 3.646398, 43.458238 ], [ 3.64678, 43.458802 ], [ 3.64705, 43.459162 ], [ 3.648122, 43.460287 ], [ 3.648338, 43.468908 ], [ 3.643475, 43.469105 ], [ 3.639049, 43.471195 ], [ 3.63573, 43.472366 ], [ 3.632819, 43.476706 ], [ 3.632298, 43.477402 ], [ 3.632089, 43.477998 ], [ 3.631916, 43.478594 ], [ 3.631869, 43.479421 ], [ 3.634249, 43.482122 ], [ 3.639323, 43.481653 ], [ 3.642144, 43.489321 ], [ 3.644258, 43.492235 ], [ 3.64956, 43.495119 ], [ 3.652009735983065, 43.495793913623267 ], [ 3.651326, 43.493913 ], [ 3.645823, 43.490404 ], [ 3.643978, 43.487313 ], [ 3.640961, 43.478858 ], [ 3.6395, 43.478401 ], [ 3.638638, 43.476749 ], [ 3.638879, 43.474855 ], [ 3.646305, 43.470712 ], [ 3.646713, 43.4707 ], [ 3.653814, 43.471202 ], [ 3.654347, 43.470977 ], [ 3.654898, 43.470872 ], [ 3.656501, 43.470794 ], [ 3.65949, 43.471349 ], [ 3.660078, 43.471302 ], [ 3.660769, 43.471259 ], [ 3.665219967906754, 43.464444073582769 ], [ 3.664362539994925, 43.463478451525461 ], [ 3.663446, 43.462578 ], [ 3.663371, 43.462505 ], [ 3.657715, 43.460816 ], [ 3.65747, 43.460809 ], [ 3.652265, 43.457391 ], [ 3.649666, 43.455779 ], [ 3.648926998380797, 43.454845366112004 ], [ 3.644688914985278, 43.453607140277818 ] ] ], [ [ [ 3.643879, 43.508221 ], [ 3.643455, 43.508191 ], [ 3.643129, 43.508188 ], [ 3.642471, 43.508201 ], [ 3.63571, 43.506164 ], [ 3.635229, 43.505789 ], [ 3.633114, 43.504146 ], [ 3.630905, 43.506988 ], [ 3.634553, 43.512213 ], [ 3.634654, 43.512272 ], [ 3.635515, 43.512523 ], [ 3.643886, 43.514096 ], [ 3.651321, 43.517247 ], [ 3.656555, 43.517985 ], [ 3.659319, 43.518102 ], [ 3.667533, 43.519124 ], [ 3.668621, 43.518767 ], [ 3.66985, 43.517538 ], [ 3.676477631491126, 43.516391665505196 ], [ 3.672478, 43.516151 ], [ 3.669000328809315, 43.515485110387289 ], [ 3.665837, 43.514979 ], [ 3.658539, 43.515887 ], [ 3.655583, 43.516797 ], [ 3.655128, 43.516618 ], [ 3.647417, 43.51222 ], [ 3.647046, 43.512245 ], [ 3.646307, 43.512252 ], [ 3.64502, 43.51238 ], [ 3.641692, 43.511972 ], [ 3.641543, 43.508375 ], [ 3.642891, 43.508319 ], [ 3.64412709988549, 43.508266233680786 ], [ 3.643879, 43.508221 ] ] ], [ [ [ 3.695631, 43.517823 ], [ 3.696291, 43.518045 ], [ 3.699564, 43.516637 ], [ 3.699639, 43.516565 ], [ 3.701507053971886, 43.514770567581934 ], [ 3.699417, 43.515026 ], [ 3.698272, 43.515574 ], [ 3.696441, 43.51601 ], [ 3.695804, 43.515867 ], [ 3.694171, 43.515386 ], [ 3.688912117487278, 43.516531776440026 ], [ 3.690184, 43.516463 ], [ 3.694086, 43.517355 ], [ 3.694178, 43.517386 ], [ 3.695631, 43.517823 ] ] ], [ [ [ 3.711556, 43.486104 ], [ 3.711975196206471, 43.486296408042975 ], [ 3.7119762116128, 43.486296433355406 ], [ 3.711556, 43.486104 ] ] ] ] } },
{ "type": "Feature", "properties": { "codgeo": "34213", "value": 540, "isochrone_group": 9.0, "nb_agences": 1 }, "geometry": { "type": "MultiPolygon", "coordinates": [ [ [ [ 3.665458, 43.452691 ], [ 3.663839, 43.449534 ], [ 3.663724, 43.449449 ], [ 3.658629, 43.44831 ], [ 3.656132046667351, 43.447761943758493 ], [ 3.661188, 43.450166 ], [ 3.662967, 43.450819 ], [ 3.663412, 43.451004 ], [ 3.665187, 43.458738 ], [ 3.667139, 43.461023 ], [ 3.668508, 43.462485 ], [ 3.669765839244231, 43.463503313972687 ], [ 3.677596, 43.461874 ], [ 3.678066850091113, 43.461534237643626 ], [ 3.678553538196249, 43.460592526925254 ], [ 3.675184, 43.461434 ], [ 3.667874, 43.458741 ], [ 3.667041, 43.455146 ], [ 3.666578, 43.454395 ], [ 3.665991, 43.453572 ], [ 3.665458, 43.452691 ] ] ], [ [ [ 3.64283758903859, 43.444815719841934 ], [ 3.643963, 43.445242 ], [ 3.647971, 43.446484 ], [ 3.648110934828438, 43.446595125424004 ], [ 3.648619, 43.446683 ], [ 3.64998912171557, 43.446703979484461 ], [ 3.649402, 43.446607 ], [ 3.643109, 43.444844 ], [ 3.64283758903859, 43.444815719841934 ] ] ], [ [ [ 3.650510185841202, 43.446790047720263 ], [ 3.650614268198747, 43.446866488287419 ], [ 3.650917379353937, 43.446857307056611 ], [ 3.650510185841202, 43.446790047720263 ] ] ], [ [ [ 3.62808396207652, 43.439075063178507 ], [ 3.628423705877148, 43.439278999996887 ], [ 3.628084, 43.439075 ], [ 3.62808396207652, 43.439075063178507 ] ] ], [ [ [ 3.643801, 43.457781 ], [ 3.643982, 43.45878 ], [ 3.644186, 43.459247 ], [ 3.639583, 43.466738 ], [ 3.637766125971251, 43.466784286680806 ], [ 3.63737, 43.469181 ], [ 3.636892, 43.469797 ], [ 3.63562, 43.4708 ], [ 3.634494, 43.471347 ], [ 3.633697, 43.470873 ], [ 3.632242200722791, 43.47025148765055 ], [ 3.631204, 43.476107 ], [ 3.629976, 43.479491 ], [ 3.630534, 43.482082 ], [ 3.630695, 43.482984 ], [ 3.630842, 43.483455 ], [ 3.631525, 43.485115 ], [ 3.631836, 43.485626 ], [ 3.632129, 43.485939 ], [ 3.633186, 43.487074 ], [ 3.639875, 43.491198 ], [ 3.642212, 43.493911 ], [ 3.647121, 43.496249 ], [ 3.64766, 43.496026 ], [ 3.648367, 43.495721 ], [ 3.649288, 43.495262 ], [ 3.656892, 43.497139 ], [ 3.64956, 43.495119 ], [ 3.644258, 43.492235 ], [ 3.642144, 43.489321 ], [ 3.639323, 43.481653 ], [ 3.634249, 43.482122 ], [ 3.631869, 43.479421 ], [ 3.631916, 43.478594 ], [ 3.632089, 43.477998 ], [ 3.632298, 43.477402 ], [ 3.632819, 43.476706 ], [ 3.63573, 43.472366 ], [ 3.639049, 43.471195 ], [ 3.643475, 43.469105 ], [ 3.648338, 43.468908 ], [ 3.648122, 43.460287 ], [ 3.64705, 43.459162 ], [ 3.64678, 43.458802 ], [ 3.646398, 43.458238 ], [ 3.646397, 43.458175 ], [ 3.644688158318783, 43.453605116756535 ], [ 3.644324513355274, 43.45326392557412 ], [ 3.640688777420844, 43.452701203752007 ], [ 3.64087, 43.452906 ], [ 3.643801, 43.457781 ] ] ], [ [ [ 3.653204, 43.504368 ], [ 3.64465, 43.506725 ], [ 3.642598, 43.507051 ], [ 3.641759, 43.507002 ], [ 3.635229, 43.505789 ], [ 3.63571, 43.506164 ], [ 3.642471, 43.508201 ], [ 3.643129, 43.508188 ], [ 3.643455, 43.508191 ], [ 3.643879, 43.508221 ], [ 3.644603, 43.508353 ], [ 3.64825, 43.508273 ], [ 3.648749, 43.508155 ], [ 3.649511, 43.508076 ], [ 3.650072, 43.508087 ], [ 3.650509, 43.508141 ], [ 3.655521, 43.507136 ], [ 3.658604, 43.500306 ], [ 3.656892, 43.497139 ], [ 3.653204, 43.504368 ] ] ], [ [ [ 3.632646, 43.503782 ], [ 3.631174, 43.502624 ], [ 3.629706, 43.501235 ], [ 3.628829, 43.500374 ], [ 3.627393, 43.500103 ], [ 3.626747, 43.49995 ], [ 3.626069, 43.499881 ], [ 3.624945, 43.499854 ], [ 3.62256, 43.499326 ], [ 3.621545, 43.499471 ], [ 3.62121, 43.500119 ], [ 3.621528, 43.503071 ], [ 3.623433, 43.503354 ], [ 3.624731, 43.503448 ], [ 3.630716, 43.509573 ], [ 3.631422, 43.511547 ], [ 3.63719, 43.515251 ], [ 3.63762, 43.514992 ], [ 3.638239, 43.514373 ], [ 3.640917390910815, 43.5135381667546 ], [ 3.635515, 43.512523 ], [ 3.634654, 43.512272 ], [ 3.634553, 43.512213 ], [ 3.630905, 43.506988 ], [ 3.633114, 43.504146 ], [ 3.635229, 43.505789 ], [ 3.632646, 43.503782 ] ] ], [ [ [ 3.651329, 43.517705 ], [ 3.651507, 43.518334 ], [ 3.656066, 43.52089 ], [ 3.65853, 43.520414 ], [ 3.666314, 43.51945 ], [ 3.668552, 43.52069 ], [ 3.669043, 43.520277 ], [ 3.669448, 43.519831 ], [ 3.669816, 43.519253 ], [ 3.673840529574674, 43.517586643160826 ], [ 3.669808267708456, 43.517579732291559 ], [ 3.668621, 43.518767 ], [ 3.667533, 43.519124 ], [ 3.659319, 43.518102 ], [ 3.656555, 43.517985 ], [ 3.651321, 43.517247 ], [ 3.650338630199304, 43.516830665468454 ], [ 3.651329, 43.517705 ] ] ], [ [ [ 3.702769, 43.519403 ], [ 3.704452, 43.518962 ], [ 3.705032, 43.518442 ], [ 3.706787848395174, 43.516400120940403 ], [ 3.699564, 43.516637 ], [ 3.697824, 43.517888 ], [ 3.696301, 43.518462 ], [ 3.694283, 43.518668 ], [ 3.689253904008697, 43.523156152695528 ], [ 3.691027, 43.523086 ], [ 3.691501, 43.522954 ], [ 3.699444, 43.519738 ], [ 3.702769, 43.519403 ] ] ], [ [ [ 3.740906, 43.506568 ], [ 3.739677749115097, 43.505843894665716 ], [ 3.740427310847563, 43.507380043250393 ], [ 3.740906, 43.506568 ] ] ], [ [ [ 3.717236751093394, 43.487834634685427 ], [ 3.716309, 43.486681 ], [ 3.712243959919018, 43.486187516278832 ], [ 3.712281749834599, 43.486436352727992 ], [ 3.712285912147758, 43.486438258834035 ], [ 3.716242, 43.4867 ], [ 3.717190930733955, 43.487846007585048 ], [ 3.717236751093394, 43.487834634685427 ] ] ] ] } },
{ "type": "Feature", "properties": { "codgeo": "34213", "value": 600, "isochrone_group": 10.0, "nb_agences": 1 }, "geometry": { "type": "MultiPolygon", "coordinates": [ [ [ [ 3.664313, 43.447289 ], [ 3.66235, 43.446417 ], [ 3.661338, 43.446193 ], [ 3.661304, 43.446185 ], [ 3.660625, 43.446048 ], [ 3.658215419030916, 43.446317472560047 ], [ 3.661086, 43.447251 ], [ 3.662844627912367, 43.449252414169216 ], [ 3.663724, 43.449449 ], [ 3.663839, 43.449534 ], [ 3.665458, 43.452691 ], [ 3.666578, 43.454395 ], [ 3.66766, 43.456066 ], [ 3.668034715686124, 43.458224084784902 ], [ 3.668091, 43.458003 ], [ 3.668248, 43.455237 ], [ 3.668221, 43.455168 ], [ 3.666774, 43.450169 ], [ 3.666681, 43.449849 ], [ 3.666625, 43.449734 ], [ 3.665526, 43.448689 ], [ 3.664313, 43.447289 ] ] ], [ [ [ 3.626374014987431, 43.437775270628883 ], [ 3.627011, 43.438431 ], [ 3.62808396207652, 43.439075063178507 ], [ 3.628084, 43.439075 ], [ 3.628423705877148, 43.439278999996887 ], [ 3.630013, 43.440233 ], [ 3.634998, 43.442001 ], [ 3.635911, 43.442219 ], [ 3.636306, 43.442332 ], [ 3.636782, 43.442522 ], [ 3.637039, 43.442668 ], [ 3.639815311880637, 43.444293158174041 ], [ 3.641727, 43.4447 ], [ 3.642412878196818, 43.444771466324418 ], [ 3.639341, 43.442985 ], [ 3.631152, 43.439898 ], [ 3.626374014987431, 43.437775270628883 ] ] ], [ [ [ 3.651273, 43.446772 ], [ 3.651380581703625, 43.446843276666755 ], [ 3.65205, 43.446823 ], [ 3.647278428851115, 43.446012076126564 ], [ 3.649207156890138, 43.446552414205826 ], [ 3.650317, 43.446709 ], [ 3.651273, 43.446772 ] ] ], [ [ [ 3.626786, 43.478629 ], [ 3.627167, 43.480304 ], [ 3.631525, 43.485115 ], [ 3.630842, 43.483455 ], [ 3.630695, 43.482984 ], [ 3.630534, 43.482082 ], [ 3.629976, 43.479491 ], [ 3.631204, 43.476107 ], [ 3.632016790675687, 43.471522813402444 ], [ 3.630521, 43.470763 ], [ 3.629121769936849, 43.472385814333087 ], [ 3.628402, 43.475574 ], [ 3.628033, 43.475677 ], [ 3.627568, 43.476726 ], [ 3.626786, 43.478629 ] ] ], [ [ [ 3.63399, 43.488149 ], [ 3.634862, 43.488327 ], [ 3.634935670943799, 43.488152732691319 ], [ 3.633186, 43.487074 ], [ 3.632129, 43.485939 ], [ 3.631836, 43.485626 ], [ 3.63291, 43.488009 ], [ 3.63399, 43.488149 ] ] ], [ [ [ 3.645332, 43.497942 ], [ 3.641008, 43.505072 ], [ 3.635229, 43.505789 ], [ 3.641759, 43.507002 ], [ 3.642598, 43.507051 ], [ 3.64465, 43.506725 ], [ 3.653204, 43.504368 ], [ 3.656892, 43.497139 ], [ 3.649288, 43.495262 ], [ 3.648367, 43.495721 ], [ 3.64766, 43.496026 ], [ 3.647121, 43.496249 ], [ 3.643708363507505, 43.494623670173254 ], [ 3.643334, 43.494947 ], [ 3.645332, 43.497942 ] ] ], [ [ [ 3.627644, 43.496008 ], [ 3.626461, 43.496067 ], [ 3.626035, 43.496038 ], [ 3.625478, 43.496077 ], [ 3.624932, 43.496216 ], [ 3.620738, 43.497692 ], [ 3.619987, 43.498049 ], [ 3.619674, 43.498218 ], [ 3.614042, 43.500209 ], [ 3.613109, 43.500653 ], [ 3.612971, 43.500788 ], [ 3.612477, 43.501378 ], [ 3.61352, 43.502626 ], [ 3.615189, 43.503745 ], [ 3.615918, 43.50362 ], [ 3.619439, 43.503523 ], [ 3.623026, 43.503827 ], [ 3.626943, 43.509221 ], [ 3.626698, 43.512812 ], [ 3.633477, 43.516077 ], [ 3.635978, 43.516212 ], [ 3.636859, 43.515691 ], [ 3.63762, 43.514992 ], [ 3.63719, 43.515251 ], [ 3.631422, 43.511547 ], [ 3.630716, 43.509573 ], [ 3.624731, 43.503448 ], [ 3.623433, 43.503354 ], [ 3.621528, 43.503071 ], [ 3.62121, 43.500119 ], [ 3.621545, 43.499471 ], [ 3.62256, 43.499326 ], [ 3.624945, 43.499854 ], [ 3.626069, 43.499881 ], [ 3.626747, 43.49995 ], [ 3.627393, 43.500103 ], [ 3.628829, 43.500374 ], [ 3.629706, 43.501235 ], [ 3.631174, 43.502624 ], [ 3.632646, 43.503782 ], [ 3.635229, 43.505789 ], [ 3.631521, 43.500203 ], [ 3.627644, 43.496008 ] ] ], [ [ [ 3.644882366497436, 43.512302315250047 ], [ 3.638239, 43.514373 ], [ 3.644882366497437, 43.512302315250047 ], [ 3.644882366497436, 43.512302315250047 ] ] ], [ [ [ 3.658304, 43.522301 ], [ 3.667154, 43.522538 ], [ 3.667669, 43.522076 ], [ 3.673099526369787, 43.521683387203431 ], [ 3.669287, 43.520027 ], [ 3.66927256239986, 43.520024197949795 ], [ 3.669043, 43.520277 ], [ 3.668552, 43.52069 ], [ 3.666314, 43.51945 ], [ 3.65853, 43.520414 ], [ 3.656066, 43.52089 ], [ 3.651507, 43.518334 ], [ 3.651329, 43.517705 ], [ 3.650712816761071, 43.517161010993881 ], [ 3.65075, 43.519881 ], [ 3.650699, 43.520207 ], [ 3.657428, 43.522107 ], [ 3.658304, 43.522301 ] ] ], [ [ [ 3.710392, 43.523382 ], [ 3.711288742378761, 43.521936723426435 ], [ 3.704879, 43.520505 ], [ 3.698493, 43.520571 ], [ 3.695459956089328, 43.527247493841557 ], [ 3.695769, 43.527743 ], [ 3.696526505134527, 43.528614086187766 ], [ 3.701138, 43.523238 ], [ 3.709537, 43.522852 ], [ 3.710392, 43.523382 ] ] ], [ [ [ 3.748865, 43.513343 ], [ 3.746758, 43.511079 ], [ 3.745819, 43.51018 ], [ 3.74484, 43.509355 ], [ 3.744785321926901, 43.509311860291923 ], [ 3.744696243719789, 43.509424876518828 ], [ 3.745595, 43.510182 ], [ 3.746623, 43.511176 ], [ 3.748734, 43.513445 ], [ 3.753727258063063, 43.517347198009901 ], [ 3.753849, 43.517324 ], [ 3.753936428989937, 43.517312146501368 ], [ 3.748865, 43.513343 ] ] ], [ [ [ 3.718442687368391, 43.487535313763964 ], [ 3.717812, 43.48626 ], [ 3.717799936412634, 43.486263632047816 ], [ 3.7178, 43.486264 ], [ 3.71843290577095, 43.487537741617594 ], [ 3.718442687368391, 43.487535313763964 ] ] ] ] } },
{ "type": "Feature", "properties": { "codgeo": "34213", "value": 660, "isochrone_group": 11.0, "nb_agences": 1 }, "geometry": { "type": "MultiPolygon", "coordinates": [ [ [ [ 3.657187, 43.445378 ], [ 3.65205, 43.446823 ], [ 3.658451253090538, 43.445149597539121 ], [ 3.657945, 43.445035 ], [ 3.657187, 43.445378 ] ] ], [ [ [ 3.626374014987432, 43.437775270628883 ], [ 3.627769137507983, 43.438395085790056 ], [ 3.627374, 43.438111 ], [ 3.625682688211006, 43.437063600395824 ], [ 3.626374014987432, 43.437775270628883 ] ] ], [ [ [ 3.678942, 43.450946 ], [ 3.676876332321722, 43.447252952065945 ], [ 3.676933, 43.448193 ], [ 3.668457, 43.449831 ], [ 3.666376, 43.447385 ], [ 3.665635, 43.446409 ], [ 3.665421, 43.446295 ], [ 3.661959295842539, 43.445777436765077 ], [ 3.664829, 43.447371 ], [ 3.666202, 43.448861 ], [ 3.666245349468186, 43.449373003816419 ], [ 3.666625, 43.449734 ], [ 3.666681, 43.449849 ], [ 3.666774, 43.450169 ], [ 3.668221, 43.455168 ], [ 3.668248, 43.455237 ], [ 3.668091, 43.458003 ], [ 3.670678759721807, 43.463327881990395 ], [ 3.675666618095952, 43.462350406824434 ], [ 3.676615, 43.461531 ], [ 3.678437999479897, 43.460816087037799 ], [ 3.680064459824893, 43.4576689890838 ], [ 3.680415403284679, 43.45413735483239 ], [ 3.678942, 43.450946 ] ] ], [ [ [ 3.607436, 43.512336 ], [ 3.60812, 43.512249 ], [ 3.608963, 43.512071 ], [ 3.6097, 43.511829 ], [ 3.61015, 43.511643 ], [ 3.610877, 43.511242 ], [ 3.611475, 43.510822 ], [ 3.615025, 43.509353 ], [ 3.620596, 43.511564 ], [ 3.622302, 43.514734 ], [ 3.623166, 43.514354 ], [ 3.631239, 43.517291 ], [ 3.634524, 43.517657 ], [ 3.637992, 43.51692 ], [ 3.645124, 43.512227 ], [ 3.638239, 43.514373 ], [ 3.63762, 43.514992 ], [ 3.636859, 43.515691 ], [ 3.635978, 43.516212 ], [ 3.633477, 43.516077 ], [ 3.626698, 43.512812 ], [ 3.626943, 43.509221 ], [ 3.623026, 43.503827 ], [ 3.619439, 43.503523 ], [ 3.615918, 43.50362 ], [ 3.615189, 43.503745 ], [ 3.614611112175683, 43.503357548546781 ], [ 3.609861, 43.50498 ], [ 3.606611973523209, 43.505579465013064 ], [ 3.605458, 43.508602 ], [ 3.604685, 43.512118 ], [ 3.605209, 43.512233 ], [ 3.60596, 43.51233 ], [ 3.606627, 43.512365 ], [ 3.607436, 43.512336 ] ] ], [ [ [ 3.628595543145429, 43.474716710120838 ], [ 3.628235248936106, 43.475620545689935 ], [ 3.628402, 43.475574 ], [ 3.628595543145429, 43.474716710120838 ] ] ], [ [ [ 3.630539, 43.487233 ], [ 3.630835, 43.487535 ], [ 3.629804, 43.492224 ], [ 3.629797, 43.492255 ], [ 3.629745, 43.492437 ], [ 3.627914, 43.495287 ], [ 3.626926040783868, 43.496043806926238 ], [ 3.627644, 43.496008 ], [ 3.631521, 43.500203 ], [ 3.635229, 43.505789 ], [ 3.641008, 43.505072 ], [ 3.645332, 43.497942 ], [ 3.643334, 43.494947 ], [ 3.644405, 43.494022 ], [ 3.644871, 43.49346 ], [ 3.645349, 43.493106 ], [ 3.646348, 43.492673 ], [ 3.648696, 43.490998 ], [ 3.650851, 43.487726 ], [ 3.646926, 43.480487 ], [ 3.645668, 43.480224 ], [ 3.645283, 43.480106 ], [ 3.644908, 43.479957 ], [ 3.644444, 43.4798 ], [ 3.644118, 43.479666 ], [ 3.642475, 43.479253 ], [ 3.636241, 43.485065 ], [ 3.634862, 43.488327 ], [ 3.63399, 43.488149 ], [ 3.63291, 43.488009 ], [ 3.631836, 43.485626 ], [ 3.631525, 43.485115 ], [ 3.627167, 43.480304 ], [ 3.626923867431436, 43.479235110098827 ], [ 3.626817, 43.479498 ], [ 3.629953, 43.486832 ], [ 3.630539, 43.487233 ] ] ], [ [ [ 3.666669, 43.524363 ], [ 3.67360855936506, 43.524786444206249 ], [ 3.672473, 43.523896 ], [ 3.667726918206998, 43.522071812665722 ], [ 3.667669, 43.522076 ], [ 3.667154, 43.522538 ], [ 3.658304, 43.522301 ], [ 3.657428, 43.522107 ], [ 3.650699, 43.520207 ], [ 3.65075, 43.519881 ], [ 3.650710418828381, 43.516985599955312 ], [ 3.650581021622433, 43.516875377367754 ], [ 3.650019, 43.521098 ], [ 3.649282, 43.522257 ], [ 3.65232, 43.524188 ], [ 3.660419, 43.523682 ], [ 3.665529, 43.524697 ], [ 3.665949, 43.524599 ], [ 3.666669, 43.524363 ] ] ], [ [ [ 3.704172862796925, 43.525802384921029 ], [ 3.704070105590966, 43.524448756342501 ], [ 3.701325, 43.523478 ], [ 3.6987478565749, 43.526794515810785 ], [ 3.703095068254823, 43.526235453881078 ], [ 3.704172862796925, 43.525802384921029 ] ] ], [ [ [ 3.720943822555044, 43.486914516376636 ], [ 3.720383, 43.485128 ], [ 3.720367015763916, 43.485109926882366 ], [ 3.720367, 43.485133 ], [ 3.720927853808712, 43.486918479919289 ], [ 3.720943822555044, 43.486914516376636 ] ] ] ] } },
{ "type": "Feature", "properties": { "codgeo": "34213", "value": 720, "isochrone_group": 12.0, "nb_agences": 1 }, "geometry": { "type": "MultiPolygon", "coordinates": [ [ [ [ 3.675012460879035, 43.444366628584902 ], [ 3.674888, 43.44515 ], [ 3.674632, 43.446927 ], [ 3.668391292275104, 43.44974389786055 ], [ 3.668457, 43.449831 ], [ 3.676933, 43.448193 ], [ 3.676876332321722, 43.447252952065945 ], [ 3.676232, 43.446101 ], [ 3.675329, 43.444713 ], [ 3.675012460879035, 43.444366628584902 ] ] ], [ [ [ 3.623549, 43.432955 ], [ 3.616282, 43.430336 ], [ 3.616070902599445, 43.430267430882651 ], [ 3.617333, 43.431324 ], [ 3.621436, 43.433577 ], [ 3.623006, 43.434296 ], [ 3.623069, 43.434373 ], [ 3.625682688211001, 43.437063600395824 ], [ 3.627374, 43.438111 ], [ 3.629530989331021, 43.439661776643213 ], [ 3.624564, 43.433747 ], [ 3.624424, 43.433568 ], [ 3.623549, 43.432955 ] ] ], [ [ [ 3.605866853699827, 43.507531113547742 ], [ 3.603859, 43.507558 ], [ 3.596129690299778, 43.509897120151756 ], [ 3.599422, 43.510719 ], [ 3.602018, 43.51141 ], [ 3.604601, 43.512098 ], [ 3.604685282710319, 43.512116714088648 ], [ 3.605458, 43.508602 ], [ 3.605866853699827, 43.507531113547742 ] ] ], [ [ [ 3.616585, 43.517052 ], [ 3.617453, 43.517014 ], [ 3.617923, 43.51694 ], [ 3.618305, 43.516821 ], [ 3.619453, 43.516206 ], [ 3.621324, 43.515544 ], [ 3.629589, 43.518519 ], [ 3.633045, 43.519529 ], [ 3.635282, 43.520239 ], [ 3.638375, 43.518472 ], [ 3.638387, 43.518416 ], [ 3.642050629951074, 43.514249339545657 ], [ 3.637992, 43.51692 ], [ 3.634524, 43.517657 ], [ 3.631239, 43.517291 ], [ 3.623166, 43.514354 ], [ 3.622302, 43.514734 ], [ 3.620596, 43.511564 ], [ 3.615025, 43.509353 ], [ 3.611475, 43.510822 ], [ 3.610877, 43.511242 ], [ 3.61015, 43.511643 ], [ 3.6097, 43.511829 ], [ 3.608963, 43.512071 ], [ 3.60812, 43.512249 ], [ 3.607436, 43.512336 ], [ 3.606627, 43.512365 ], [ 3.60596, 43.51233 ], [ 3.605209, 43.512233 ], [ 3.608164, 43.512915 ], [ 3.615829, 43.517061 ], [ 3.616585, 43.517052 ] ] ], [ [ [ 3.64974, 43.525905 ], [ 3.65033, 43.525873 ], [ 3.656526, 43.525235 ], [ 3.660105, 43.525626 ], [ 3.662752, 43.525986 ], [ 3.668669416532636, 43.526657614155532 ], [ 3.667300792250147, 43.524401551261505 ], [ 3.666669, 43.524363 ], [ 3.665949, 43.524599 ], [ 3.665529, 43.524697 ], [ 3.660419, 43.523682 ], [ 3.65232, 43.524188 ], [ 3.649299086054382, 43.52226786016162 ], [ 3.649211, 43.522411 ], [ 3.649136, 43.522504 ], [ 3.648978, 43.52275 ], [ 3.647907, 43.524805 ], [ 3.648021, 43.524988 ], [ 3.648988, 43.525752 ], [ 3.64974, 43.525905 ] ] ], [ [ [ 3.68532877471513, 43.530864700844816 ], [ 3.685324, 43.530819 ], [ 3.685098847926988, 43.530594939573412 ], [ 3.684297, 43.530835 ], [ 3.681505, 43.530467 ], [ 3.681153, 43.530055 ], [ 3.680882, 43.529574 ], [ 3.679608659806162, 43.529476856184388 ], [ 3.68201, 43.530856 ], [ 3.682111, 43.530908 ], [ 3.682549, 43.531073 ], [ 3.683314, 43.531308 ], [ 3.683792, 43.531383 ], [ 3.684139, 43.531377 ], [ 3.684738, 43.531236 ], [ 3.68532877471513, 43.530864700844816 ] ] ], [ [ [ 3.698945, 43.436297 ], [ 3.698411044403326, 43.437368738832049 ], [ 3.698411724885569, 43.437367785810061 ], [ 3.698945155984563, 43.436297077677686 ], [ 3.698945, 43.436297 ] ] ] ] } },
{ "type": "Feature", "properties": { "codgeo": "34213", "value": 780, "isochrone_group": 13.0, "nb_agences": 1 }, "geometry": { "type": "MultiPolygon", "coordinates": [ [ [ [ 3.672833, 43.442145 ], [ 3.672558, 43.443012 ], [ 3.672568, 43.443386 ], [ 3.67266, 43.445029 ], [ 3.664970269191016, 43.447545188275129 ], [ 3.665902861131224, 43.4485568018845 ], [ 3.666181, 43.448715 ], [ 3.668333011603758, 43.449770204283723 ], [ 3.674632, 43.446927 ], [ 3.674888, 43.44515 ], [ 3.675012460879035, 43.444366628584902 ], [ 3.67413, 43.443401 ], [ 3.673511892132132, 43.441349836895121 ], [ 3.672852, 43.442103 ], [ 3.672833, 43.442145 ] ] ], [ [ [ 3.616282, 43.430336 ], [ 3.622457239841478, 43.432561533665201 ], [ 3.621593, 43.431448 ], [ 3.620984, 43.430918 ], [ 3.620373, 43.430418 ], [ 3.6197, 43.43009 ], [ 3.612024, 43.426698 ], [ 3.611720377834743, 43.426625374327763 ], [ 3.616070902599445, 43.430267430882651 ], [ 3.616282, 43.430336 ] ] ], [ [ [ 3.592182, 43.511504 ], [ 3.592251594373939, 43.511496454201179 ], [ 3.588419, 43.511563 ], [ 3.586232757794066, 43.513214272661266 ], [ 3.591045, 43.511759 ], [ 3.59155, 43.511686 ], [ 3.592182, 43.511504 ] ] ], [ [ [ 3.632834, 43.521746 ], [ 3.637893, 43.522081 ], [ 3.646482, 43.52406 ], [ 3.648988, 43.525752 ], [ 3.648021, 43.524988 ], [ 3.647907, 43.524805 ], [ 3.648978, 43.52275 ], [ 3.649136, 43.522504 ], [ 3.649211, 43.522411 ], [ 3.650008396442809, 43.521115230780431 ], [ 3.650008, 43.521115 ], [ 3.650697, 43.516004 ], [ 3.645124, 43.512227 ], [ 3.643339849014426, 43.51278310573931 ], [ 3.638387, 43.518416 ], [ 3.638375, 43.518472 ], [ 3.635282, 43.520239 ], [ 3.633045, 43.519529 ], [ 3.629589, 43.518519 ], [ 3.621324, 43.515544 ], [ 3.619453, 43.516206 ], [ 3.618305, 43.516821 ], [ 3.617923, 43.51694 ], [ 3.617453, 43.517014 ], [ 3.616585, 43.517052 ], [ 3.615829, 43.517061 ], [ 3.608164, 43.512915 ], [ 3.605209, 43.512233 ], [ 3.604601, 43.512098 ], [ 3.610233, 43.517491 ], [ 3.612821, 43.520074 ], [ 3.613044, 43.520111 ], [ 3.61954, 43.51879 ], [ 3.622775, 43.51721 ], [ 3.62924, 43.521944 ], [ 3.632834, 43.521746 ] ] ], [ [ [ 3.665887, 43.529425 ], [ 3.664628580658948, 43.526198987902347 ], [ 3.662752, 43.525986 ], [ 3.660105, 43.525626 ], [ 3.656526, 43.525235 ], [ 3.65033, 43.525873 ], [ 3.64974, 43.525905 ], [ 3.656782, 43.528037 ], [ 3.658517, 43.529317 ], [ 3.666119102966509, 43.530290903449092 ], [ 3.665887, 43.529425 ] ] ], [ [ [ 3.599497090902773, 43.51073898760162 ], [ 3.602018, 43.51141 ], [ 3.599497090902778, 43.51073898760162 ], [ 3.599497090902773, 43.51073898760162 ] ] ], [ [ [ 3.682983750878292, 43.531914073033292 ], [ 3.68133, 43.532717 ], [ 3.682983750878294, 43.531914073033292 ], [ 3.682983750878292, 43.531914073033292 ] ] ], [ [ [ 3.680456921115053, 43.438408654811333 ], [ 3.684443, 43.439537 ], [ 3.681875, 43.438358 ], [ 3.680456921115053, 43.438408654811333 ] ] ], [ [ [ 3.690116, 43.441409 ], [ 3.691300971360161, 43.441118884038133 ], [ 3.684443, 43.439537 ], [ 3.690116, 43.441409 ] ] ], [ [ [ 3.696891970105342, 43.439750042534307 ], [ 3.698410302341901, 43.43737022827429 ], [ 3.69841217138854, 43.43736647678287 ], [ 3.692327608588792, 43.440867532944701 ], [ 3.696891970105342, 43.439750042534307 ] ] ] ] } },
{ "type": "Feature", "properties": { "codgeo": "34213", "value": 840, "isochrone_group": 14.0, "nb_agences": 1 }, "geometry": { "type": "MultiPolygon", "coordinates": [ [ [ [ 3.609566071530204, 43.423672084131717 ], [ 3.611094, 43.426101 ], [ 3.611720377834743, 43.426625374327763 ], [ 3.612024, 43.426698 ], [ 3.614322328963066, 43.427713624262985 ], [ 3.612624, 43.425677 ], [ 3.612531, 43.425498 ], [ 3.612385, 43.425255 ], [ 3.61008, 43.423693 ], [ 3.609987, 43.423648 ], [ 3.609566071530204, 43.423672084131717 ] ] ], [ [ [ 3.578529871649278, 43.522677369110831 ], [ 3.57855, 43.522695 ], [ 3.578721, 43.5225 ], [ 3.578529871649278, 43.522677369110831 ] ] ], [ [ [ 3.588679598717325, 43.515368824029068 ], [ 3.591804360781524, 43.513131350645203 ], [ 3.589168, 43.513362 ], [ 3.588679598717325, 43.515368824029068 ] ] ], [ [ [ 3.647774, 43.526179 ], [ 3.655228, 43.530367 ], [ 3.658682, 43.530944 ], [ 3.660629795705992, 43.5319518197566 ], [ 3.659250586381179, 43.529410979561973 ], [ 3.658517, 43.529317 ], [ 3.656782, 43.528037 ], [ 3.64974, 43.525905 ], [ 3.648988, 43.525752 ], [ 3.646482, 43.52406 ], [ 3.637893, 43.522081 ], [ 3.632834, 43.521746 ], [ 3.62924, 43.521944 ], [ 3.622775, 43.51721 ], [ 3.61954, 43.51879 ], [ 3.613044, 43.520111 ], [ 3.621022, 43.521025 ], [ 3.629256, 43.523815 ], [ 3.632856, 43.523847 ], [ 3.641123, 43.523242 ], [ 3.645656, 43.525646 ], [ 3.647774, 43.526179 ] ] ], [ [ [ 3.607827, 43.517568 ], [ 3.611305, 43.519948 ], [ 3.611449, 43.52003 ], [ 3.613044, 43.520111 ], [ 3.612821, 43.520074 ], [ 3.610233, 43.517491 ], [ 3.607494183204968, 43.514868407852326 ], [ 3.604809027677977, 43.514415047399353 ], [ 3.606791, 43.516549 ], [ 3.607233, 43.517156 ], [ 3.607827, 43.517568 ] ] ], [ [ [ 3.673511892132132, 43.441349836895121 ], [ 3.672965, 43.439535 ], [ 3.672329, 43.441551 ], [ 3.672349, 43.441985 ], [ 3.672729202568865, 43.44247224499199 ], [ 3.672833, 43.442145 ], [ 3.672852, 43.442103 ], [ 3.673511892132132, 43.441349836895121 ] ] ], [ [ [ 3.674938577682583, 43.436692261763199 ], [ 3.674173, 43.436622 ], [ 3.67357, 43.437131 ], [ 3.674938577682583, 43.436692261763199 ] ] ], [ [ [ 3.676778, 43.437451 ], [ 3.680315466159583, 43.438413707685434 ], [ 3.681875, 43.438358 ], [ 3.684443, 43.439537 ], [ 3.679839, 43.43721 ], [ 3.679772, 43.43716 ], [ 3.67973, 43.437132 ], [ 3.675725041314792, 43.43676444035821 ], [ 3.676403, 43.437206 ], [ 3.676551, 43.437303 ], [ 3.676778, 43.437451 ] ] ] ] } },
{ "type": "Feature", "properties": { "codgeo": "34213", "value": 900, "isochrone_group": 15.0, "nb_agences": 1 }, "geometry": { "type": "MultiPolygon", "coordinates": [ [ [ [ 3.609566071530204, 43.423672084131717 ], [ 3.609987, 43.423648 ], [ 3.61008, 43.423693 ], [ 3.61102036163981, 43.424330242898648 ], [ 3.610944, 43.422494 ], [ 3.61094, 43.422489 ], [ 3.608992, 43.42185 ], [ 3.608154, 43.421759 ], [ 3.606987, 43.421686 ], [ 3.606562805817094, 43.42167488066891 ], [ 3.606641, 43.421727 ], [ 3.609505, 43.423575 ], [ 3.609566071530204, 43.423672084131717 ] ] ], [ [ [ 3.569826503124052, 43.520536786883191 ], [ 3.569512, 43.522119 ], [ 3.569874, 43.52085 ], [ 3.569826503124052, 43.520536786883191 ] ] ], [ [ [ 3.643837, 43.527818 ], [ 3.645311, 43.527914 ], [ 3.646061, 43.527657 ], [ 3.647081, 43.52692 ], [ 3.654725, 43.530808 ], [ 3.658698262198066, 43.534862282374711 ], [ 3.659261, 43.53131 ], [ 3.659209622030472, 43.531216999834989 ], [ 3.658682, 43.530944 ], [ 3.655228, 43.530367 ], [ 3.647774, 43.526179 ], [ 3.645656, 43.525646 ], [ 3.641123, 43.523242 ], [ 3.632856, 43.523847 ], [ 3.629256, 43.523815 ], [ 3.621022, 43.521025 ], [ 3.613044, 43.520111 ], [ 3.611449, 43.52003 ], [ 3.611305, 43.519948 ], [ 3.607827, 43.517568 ], [ 3.607233, 43.517156 ], [ 3.60489097942627, 43.5171122488468 ], [ 3.61064, 43.522049 ], [ 3.614237, 43.521901 ], [ 3.622244, 43.521976 ], [ 3.623296, 43.522859 ], [ 3.62888, 43.524678 ], [ 3.632218, 43.526027 ], [ 3.640535, 43.525378 ], [ 3.642606, 43.526644 ], [ 3.643837, 43.527818 ] ] ], [ [ [ 3.679450379751519, 43.437106337533429 ], [ 3.679668, 43.437102 ], [ 3.679720176509468, 43.43713109843798 ], [ 3.67973, 43.437132 ], [ 3.679772, 43.43716 ], [ 3.684443, 43.439537 ], [ 3.677386, 43.435698 ], [ 3.676944, 43.43541 ], [ 3.674507672198375, 43.436652714921948 ], [ 3.67493857768259, 43.436692261763199 ], [ 3.675295, 43.436578 ], [ 3.6756, 43.436683 ], [ 3.675725041314792, 43.43676444035821 ], [ 3.679450379751519, 43.437106337533429 ] ] ], [ [ [ 3.72444344274871, 43.414979484479247 ], [ 3.726259, 43.415167 ], [ 3.720236404085913, 43.413689402067064 ], [ 3.72444344274871, 43.414979484479247 ] ] ] ] } },
{ "type": "Feature", "properties": { "codgeo": "34213", "value": 960, "isochrone_group": 16.0, "nb_agences": 1 }, "geometry": { "type": "MultiPolygon", "coordinates": [ [ [ [ 3.608235, 43.421387 ], [ 3.604808667998415, 43.420505682573413 ], [ 3.606562805817093, 43.42167488066891 ], [ 3.606987, 43.421686 ], [ 3.608154, 43.421759 ], [ 3.60848509997195, 43.421794954770228 ], [ 3.608235, 43.421387 ] ] ], [ [ [ 3.593065805517471, 43.518443059728305 ], [ 3.59168, 43.518348 ], [ 3.58682, 43.520129 ], [ 3.58571, 43.520536 ], [ 3.593065805517471, 43.518443059728305 ] ] ], [ [ [ 3.600473889400306, 43.515531946679161 ], [ 3.600173775824321, 43.515437592259261 ], [ 3.599936294010178, 43.515906488833934 ], [ 3.600473889400306, 43.515531946679161 ] ] ], [ [ [ 3.651986, 43.532181 ], [ 3.65289, 43.532625 ], [ 3.657498712276205, 43.539756125255487 ], [ 3.657828, 43.538745 ], [ 3.658056, 43.53796 ], [ 3.658365, 43.536966 ], [ 3.658178297908592, 43.534331715311886 ], [ 3.654725, 43.530808 ], [ 3.647081, 43.52692 ], [ 3.646061, 43.527657 ], [ 3.645311, 43.527914 ], [ 3.643837, 43.527818 ], [ 3.642606, 43.526644 ], [ 3.640535, 43.525378 ], [ 3.632218, 43.526027 ], [ 3.62888, 43.524678 ], [ 3.623296, 43.522859 ], [ 3.622244, 43.521976 ], [ 3.614237, 43.521901 ], [ 3.610640662661995, 43.522048972734517 ], [ 3.610645, 43.522153 ], [ 3.610651, 43.522829 ], [ 3.610641, 43.523541 ], [ 3.610668, 43.523747 ], [ 3.614237, 43.523277 ], [ 3.620588, 43.52347 ], [ 3.627586, 43.528297 ], [ 3.628679, 43.528858 ], [ 3.629033, 43.528999 ], [ 3.629838, 43.529082 ], [ 3.630319, 43.528976 ], [ 3.631845, 43.528416 ], [ 3.639599, 43.52748 ], [ 3.642315, 43.529129 ], [ 3.645875, 43.529373 ], [ 3.651986, 43.532181 ] ] ], [ [ [ 3.675941, 43.536276 ], [ 3.674621626206477, 43.536690504779152 ], [ 3.676397721675183, 43.536842439870718 ], [ 3.675941, 43.536276 ] ] ], [ [ [ 3.699168, 43.425042 ], [ 3.699824, 43.422623 ], [ 3.699340144628953, 43.421853844275866 ], [ 3.699075, 43.424402 ], [ 3.699149, 43.42515 ], [ 3.699168, 43.425042 ] ] ] ] } },
{ "type": "Feature", "properties": { "codgeo": "34213", "value": 1020, "isochrone_group": 17.0, "nb_agences": 1 }, "geometry": { "type": "MultiPolygon", "coordinates": [ [ [ [ 3.695289631891458, 43.415414988278535 ], [ 3.694283914568652, 43.415551370738584 ], [ 3.695470613688848, 43.415702684135098 ], [ 3.695289631891458, 43.415414988278535 ] ] ], [ [ [ 3.60076, 43.417873 ], [ 3.600757249376193, 43.417872662304646 ], [ 3.601157, 43.418084 ], [ 3.60076, 43.417873 ] ] ], [ [ [ 3.595626, 43.417378 ], [ 3.597098984074421, 43.417423535344653 ], [ 3.593079, 43.41693 ], [ 3.592910474569426, 43.416922572527987 ], [ 3.592983979474829, 43.41699010557609 ], [ 3.593040652458131, 43.417042174200439 ], [ 3.593111017647795, 43.417073994771016 ], [ 3.593381, 43.416994 ], [ 3.595626, 43.417378 ] ] ], [ [ [ 3.571956933433854, 43.533569930626108 ], [ 3.567264827945657, 43.533295126430218 ], [ 3.566763821335568, 43.533782519772295 ], [ 3.565210143665479, 43.536017396265123 ], [ 3.565575, 43.535803 ], [ 3.565658, 43.535747 ], [ 3.571956933433854, 43.533569930626108 ] ] ], [ [ [ 3.601957032602171, 43.5144986423376 ], [ 3.600104257427241, 43.515789468894198 ], [ 3.598993, 43.5184 ], [ 3.602885410269013, 43.514538273145241 ], [ 3.601957032602171, 43.5144986423376 ] ] ], [ [ [ 3.612015, 43.527091 ], [ 3.612644, 43.527264 ], [ 3.612663, 43.527269 ], [ 3.612918, 43.527336 ], [ 3.613551, 43.527238 ], [ 3.614203, 43.527093 ], [ 3.614664, 43.524183 ], [ 3.617441248664806, 43.523374373640735 ], [ 3.614237, 43.523277 ], [ 3.610686576318552, 43.523744553693007 ], [ 3.610789, 43.524202 ], [ 3.6112, 43.525162 ], [ 3.612015, 43.527091 ] ] ], [ [ [ 3.642315, 43.529129 ], [ 3.639599, 43.52748 ], [ 3.642569, 43.531564 ], [ 3.642879, 43.532119 ], [ 3.643018, 43.532291 ], [ 3.650455, 43.534395 ], [ 3.656239574867358, 43.537807844252399 ], [ 3.65289, 43.532625 ], [ 3.651986, 43.532181 ], [ 3.645875, 43.529373 ], [ 3.642315, 43.529129 ] ] ], [ [ [ 3.631845, 43.528416 ], [ 3.630319, 43.528976 ], [ 3.629838, 43.529082 ], [ 3.629033, 43.528999 ], [ 3.628679, 43.528858 ], [ 3.627586, 43.528297 ], [ 3.62480774979947, 43.526380650511875 ], [ 3.62528, 43.527192 ], [ 3.626678, 43.528825 ], [ 3.629757, 43.53069 ], [ 3.629943, 43.530384 ], [ 3.630876, 43.52878 ], [ 3.639599, 43.52748 ], [ 3.631845, 43.528416 ] ] ], [ [ [ 3.610343477764148, 43.519290029062304 ], [ 3.610343477764148, 43.519290029062304 ], [ 3.610582, 43.520642 ], [ 3.610343477764148, 43.519290029062304 ] ] ] ] } },
{ "type": "Feature", "properties": { "codgeo": "34213", "value": 1080, "isochrone_group": 18.0, "nb_agences": 1 }, "geometry": { "type": "MultiPolygon", "coordinates": [ [ [ [ 3.600579327562927, 43.516826177271476 ], [ 3.600579327562924, 43.516826177271476 ], [ 3.598993, 43.5184 ], [ 3.600579327562927, 43.516826177271476 ] ] ], [ [ [ 3.61641, 43.527357 ], [ 3.617101, 43.526746 ], [ 3.6173, 43.526447 ], [ 3.622937577820082, 43.523167601419502 ], [ 3.622785227707084, 43.522905856297804 ], [ 3.616124084003944, 43.523757880554534 ], [ 3.614664, 43.524183 ], [ 3.614203, 43.527093 ], [ 3.613551, 43.527238 ], [ 3.612918, 43.527336 ], [ 3.612663, 43.527269 ], [ 3.612644, 43.527264 ], [ 3.612015, 43.527091 ], [ 3.611269259430506, 43.525325928149023 ], [ 3.611257, 43.525331 ], [ 3.610789, 43.524202 ], [ 3.610641, 43.523541 ], [ 3.610651, 43.522829 ], [ 3.610645061742434, 43.522159956314184 ], [ 3.610644, 43.52216 ], [ 3.610330257572524, 43.521917201816038 ], [ 3.610124, 43.522962 ], [ 3.609317, 43.52647 ], [ 3.614209, 43.528629 ], [ 3.61641, 43.527357 ] ] ], [ [ [ 3.629757, 43.53069 ], [ 3.626678, 43.528825 ], [ 3.625529218089482, 43.527483110972895 ], [ 3.626299, 43.529408 ], [ 3.625776, 43.530387 ], [ 3.628221, 43.533029 ], [ 3.628571, 43.532705 ], [ 3.629009, 43.532167 ], [ 3.62934, 43.531545 ], [ 3.629943, 43.530384 ], [ 3.629757, 43.53069 ] ] ], [ [ [ 3.642879, 43.532119 ], [ 3.642569, 43.531564 ], [ 3.639599, 43.52748 ], [ 3.637305723199185, 43.527821770015045 ], [ 3.640073, 43.53213 ], [ 3.642636, 43.533338 ], [ 3.644108, 43.533949 ], [ 3.649295, 43.535242 ], [ 3.649982, 43.534729 ], [ 3.657828, 43.538745 ], [ 3.650455, 43.534395 ], [ 3.643018, 43.532291 ], [ 3.642879, 43.532119 ] ] ], [ [ [ 3.710098, 43.409472 ], [ 3.711738403546149, 43.410238339083243 ], [ 3.712935, 43.410752 ], [ 3.708044723305294, 43.408034612428153 ], [ 3.710098, 43.409472 ] ] ], [ [ [ 3.706645121766472, 43.407054827354585 ], [ 3.704555, 43.405114 ], [ 3.703615189069674, 43.404933735923947 ], [ 3.706645121766472, 43.407054827354585 ] ] ], [ [ [ 3.691255, 43.41595 ], [ 3.691262, 43.41595 ], [ 3.694782836028329, 43.415614987117308 ], [ 3.693455262502265, 43.415445711134936 ], [ 3.690451956298159, 43.41556537065415 ], [ 3.691255, 43.41595 ] ] ] ] } },
{ "type": "Feature", "properties": { "codgeo": "34213", "value": 1140, "isochrone_group": 19.0, "nb_agences": 1 }, "geometry": { "type": "MultiPolygon", "coordinates": [ [ [ [ 3.70350628878472, 43.404803132255346 ], [ 3.703537, 43.404879 ], [ 3.703615189069674, 43.404933735923947 ], [ 3.703714332897839, 43.404952752589956 ], [ 3.70350628878472, 43.404803132255346 ] ] ], [ [ [ 3.698103663506094, 43.417349430161465 ], [ 3.696212, 43.415479 ], [ 3.695558234363029, 43.415541206790927 ], [ 3.698172240172786, 43.417847682505389 ], [ 3.698103663506094, 43.417349430161465 ] ] ], [ [ [ 3.595845, 43.521703 ], [ 3.595994, 43.521464 ], [ 3.594446517840659, 43.523127746107257 ], [ 3.594652, 43.523027 ], [ 3.595245, 43.522588 ], [ 3.595845, 43.521703 ] ] ], [ [ [ 3.61641, 43.527357 ], [ 3.614209, 43.528629 ], [ 3.609317, 43.52647 ], [ 3.610124, 43.522962 ], [ 3.610582, 43.520642 ], [ 3.610121, 43.518029 ], [ 3.608846609735083, 43.515096726587039 ], [ 3.608663020332047, 43.515065701731814 ], [ 3.607392, 43.522298 ], [ 3.606668, 43.525825 ], [ 3.610037, 43.529449 ], [ 3.613617, 43.529834 ], [ 3.61641, 43.527357 ] ] ], [ [ [ 3.626768, 43.534275 ], [ 3.62725, 43.534023 ], [ 3.627719, 43.53369 ], [ 3.628286, 43.533041 ], [ 3.628571, 43.532705 ], [ 3.628221, 43.533029 ], [ 3.625776, 43.530387 ], [ 3.626299, 43.529408 ], [ 3.625440462843013, 43.527261172787952 ], [ 3.621128, 43.525195 ], [ 3.619876936811138, 43.52494798691491 ], [ 3.6173, 43.526447 ], [ 3.617101, 43.526746 ], [ 3.61641, 43.527357 ], [ 3.62391, 43.531565 ], [ 3.625386, 43.534848 ], [ 3.626768, 43.534275 ] ] ], [ [ [ 3.647195, 43.536899 ], [ 3.651069, 43.536501 ], [ 3.657828, 43.538745 ], [ 3.649982, 43.534729 ], [ 3.649295, 43.535242 ], [ 3.644108, 43.533949 ], [ 3.642636, 43.533338 ], [ 3.640073, 43.53213 ], [ 3.63810309448437, 43.52906315608778 ], [ 3.637957, 43.529025 ], [ 3.630280163032252, 43.529804354229647 ], [ 3.629943, 43.530384 ], [ 3.62934, 43.531545 ], [ 3.638171, 43.531273 ], [ 3.640644, 43.53382 ], [ 3.642223, 43.534477 ], [ 3.646362, 43.536956 ], [ 3.647195, 43.536899 ] ] ], [ [ [ 3.578757149625201, 43.535964006945946 ], [ 3.578777, 43.53597 ], [ 3.579232, 43.534945 ], [ 3.578757149625201, 43.535964006945946 ] ] ], [ [ [ 3.564093, 43.541701 ], [ 3.563819292106718, 43.541976830158418 ], [ 3.563987, 43.541841 ], [ 3.564336235336796, 43.541542685975983 ], [ 3.564093, 43.541701 ] ] ] ] } },
{ "type": "Feature", "properties": { "codgeo": "34213", "value": 1200, "isochrone_group": 20.0, "nb_agences": 1 }, "geometry": { "type": "MultiPolygon", "coordinates": [ [ [ [ 3.575577306974834, 43.401418264242054 ], [ 3.581019, 43.403227 ], [ 3.581938, 43.403631 ], [ 3.578773, 43.401202 ], [ 3.578485, 43.401016 ], [ 3.577495, 43.400721 ], [ 3.576379, 43.400974 ], [ 3.575577306974834, 43.401418264242054 ] ] ], [ [ [ 3.570497, 43.538302 ], [ 3.569659873667238, 43.539220874349752 ], [ 3.570586, 43.538375 ], [ 3.570854549753309, 43.53832751430302 ], [ 3.570497, 43.538302 ] ] ], [ [ [ 3.579356328909713, 43.524298747235761 ], [ 3.584013, 43.520864 ], [ 3.579356328909733, 43.524298747235747 ], [ 3.579356328909713, 43.524298747235761 ] ] ], [ [ [ 3.634207815983367, 43.531395068401373 ], [ 3.62934, 43.531545 ], [ 3.629009, 43.532167 ], [ 3.628571, 43.532705 ], [ 3.634207815983367, 43.531395068401373 ] ] ], [ [ [ 3.63790321124698, 43.531281248051272 ], [ 3.640644, 43.53382 ], [ 3.638171, 43.531273 ], [ 3.63790321124698, 43.531281248051272 ] ] ], [ [ [ 3.642894, 43.536654 ], [ 3.649843, 43.539502 ], [ 3.657828, 43.538745 ], [ 3.651069, 43.536501 ], [ 3.647195, 43.536899 ], [ 3.646362, 43.536956 ], [ 3.642223, 43.534477 ], [ 3.640644, 43.53382 ], [ 3.642894, 43.536654 ] ] ], [ [ [ 3.603844, 43.525114 ], [ 3.607762, 43.530737 ], [ 3.610062, 43.532113 ], [ 3.610071, 43.53212 ], [ 3.611902, 43.533326 ], [ 3.618981, 43.534456 ], [ 3.621331, 43.537183 ], [ 3.625192, 43.534954 ], [ 3.626768, 43.534275 ], [ 3.625386, 43.534848 ], [ 3.62391, 43.531565 ], [ 3.61641, 43.527357 ], [ 3.613617, 43.529834 ], [ 3.610037, 43.529449 ], [ 3.606668, 43.525825 ], [ 3.607392, 43.522298 ], [ 3.608183183767706, 43.517796044485415 ], [ 3.607827, 43.517568 ], [ 3.607233, 43.517156 ], [ 3.600422128255554, 43.517028751997508 ], [ 3.598993, 43.5184 ], [ 3.598095, 43.521909 ], [ 3.596239, 43.522592 ], [ 3.594382, 43.523275 ], [ 3.597232, 43.522227 ], [ 3.603844, 43.525114 ] ] ], [ [ [ 3.661369, 43.544566 ], [ 3.659748250340412, 43.541901672474317 ], [ 3.660983, 43.546053 ], [ 3.661386, 43.548187 ], [ 3.661449280941036, 43.548175034214367 ], [ 3.661369, 43.544566 ] ] ], [ [ [ 3.756270428842079, 43.425721453941165 ], [ 3.756270428842083, 43.425721453941186 ], [ 3.75872821263038, 43.426490349117394 ], [ 3.758728212630394, 43.426490349117394 ], [ 3.756270428842079, 43.425721453941165 ] ] ] ] } }
]
}
