{
"type": "FeatureCollection",
"name": "Credit_Agricole",
"crs": { "type": "name", "properties": { "name": "urn:ogc:def:crs:OGC:1.3:CRS84" } },
"features": [
{ "type": "Feature", "properties": { "codgeo": "66101", "value": 60, "isochrone_group": 1.0, "nb_agences": 1 }, "geometry": { "type": "Polygon", "coordinates": [ [ [ 2.763384, 42.626618 ], [ 2.763609, 42.626337 ], [ 2.764776, 42.624846 ], [ 2.766375, 42.623133 ], [ 2.768791, 42.620886 ], [ 2.774378, 42.621394 ], [ 2.775507, 42.620788 ], [ 2.775677, 42.621105 ], [ 2.774549, 42.621711 ], [ 2.770672, 42.625627 ], [ 2.770103, 42.626489 ], [ 2.769806, 42.626692 ], [ 2.767228, 42.628424 ], [ 2.762717, 42.628103 ], [ 2.762546, 42.627786 ], [ 2.763384, 42.626618 ] ] ] } },
{ "type": "Feature", "properties": { "codgeo": "66101", "value": 120, "isochrone_group": 2.0, "nb_agences": 1 }, "geometry": { "type": "Polygon", "coordinates": [ [ [ 2.756982, 42.627995 ], [ 2.757021, 42.628353 ], [ 2.75987, 42.63191 ], [ 2.760141, 42.632148 ], [ 2.760435, 42.631893 ], [ 2.760543, 42.63177 ], [ 2.762726, 42.630098 ], [ 2.768108, 42.629883 ], [ 2.769285, 42.630832 ], [ 2.769478, 42.630927 ], [ 2.769672, 42.631022 ], [ 2.769678, 42.631025 ], [ 2.770159, 42.631239 ], [ 2.770639, 42.631453 ], [ 2.77145, 42.631681 ], [ 2.775561, 42.627568 ], [ 2.775749, 42.627262 ], [ 2.775927, 42.62647 ], [ 2.776633, 42.623004 ], [ 2.77679, 42.62268 ], [ 2.781128, 42.618984 ], [ 2.783255, 42.618408 ], [ 2.783737, 42.618332 ], [ 2.784213, 42.618256 ], [ 2.784477, 42.618223 ], [ 2.785723, 42.618164 ], [ 2.786721, 42.618136 ], [ 2.786711, 42.617776 ], [ 2.785712, 42.617804 ], [ 2.784714, 42.617832 ], [ 2.784433, 42.617866 ], [ 2.784169, 42.617898 ], [ 2.78368, 42.617976 ], [ 2.783198, 42.618053 ], [ 2.781798, 42.618316 ], [ 2.780402, 42.618579 ], [ 2.780094, 42.618652 ], [ 2.779795, 42.618724 ], [ 2.779555, 42.618795 ], [ 2.779325, 42.618863 ], [ 2.778985, 42.618988 ], [ 2.778648, 42.619135 ], [ 2.778319, 42.619277 ], [ 2.775778, 42.620642 ], [ 2.770393, 42.619337 ], [ 2.769229, 42.617204 ], [ 2.768881, 42.617112 ], [ 2.765597, 42.618157 ], [ 2.765348, 42.618417 ], [ 2.763856, 42.622395 ], [ 2.762633, 42.624231 ], [ 2.757952, 42.627929 ], [ 2.757679, 42.62794 ], [ 2.757394, 42.627952 ], [ 2.757188, 42.627973 ], [ 2.756982, 42.627995 ] ], [ [ 2.763609, 42.626337 ], [ 2.764776, 42.624846 ], [ 2.766375, 42.623133 ], [ 2.768791, 42.620886 ], [ 2.774378, 42.621394 ], [ 2.775507, 42.620788 ], [ 2.775677, 42.621105 ], [ 2.774549, 42.621711 ], [ 2.770672, 42.625627 ], [ 2.770103, 42.626489 ], [ 2.769806, 42.626692 ], [ 2.767228, 42.628424 ], [ 2.762717, 42.628103 ], [ 2.762546, 42.627786 ], [ 2.763384, 42.626618 ], [ 2.763609, 42.626337 ] ] ] } },
{ "type": "Feature", "properties": { "codgeo": "66101", "value": 180, "isochrone_group": 3.0, "nb_agences": 1 }, "geometry": { "type": "Polygon", "coordinates": [ [ [ 2.769764, 42.614159 ], [ 2.769465, 42.613958 ], [ 2.764012, 42.615436 ], [ 2.76194, 42.618832 ], [ 2.762097, 42.623891 ], [ 2.756969, 42.626459 ], [ 2.756557, 42.626441 ], [ 2.755506, 42.626555 ], [ 2.75158, 42.627314 ], [ 2.751258, 42.627475 ], [ 2.751594, 42.630151 ], [ 2.751642, 42.630342 ], [ 2.751807, 42.630441 ], [ 2.756581470931863, 42.632552870219627 ], [ 2.75656, 42.632459 ], [ 2.756827, 42.631151 ], [ 2.756921, 42.63099 ], [ 2.756956, 42.630968 ], [ 2.759431, 42.631911 ], [ 2.761098, 42.634353 ], [ 2.761303, 42.634649 ], [ 2.761703939675017, 42.637140132539635 ], [ 2.761757, 42.637191 ], [ 2.761802, 42.637205 ], [ 2.761931, 42.637153 ], [ 2.761944, 42.637139 ], [ 2.762224, 42.636413 ], [ 2.76231, 42.6362 ], [ 2.762366, 42.635878 ], [ 2.766827, 42.631106 ], [ 2.770989, 42.631642 ], [ 2.771716, 42.632079 ], [ 2.771864, 42.632182 ], [ 2.77278, 42.632934 ], [ 2.773699, 42.633687 ], [ 2.774755, 42.634524 ], [ 2.775812, 42.635362 ], [ 2.776077, 42.635388 ], [ 2.776307, 42.635112 ], [ 2.780707, 42.628596 ], [ 2.785494, 42.62384 ], [ 2.792876, 42.620453 ], [ 2.798375, 42.617211 ], [ 2.798345, 42.616852 ], [ 2.791026, 42.615412 ], [ 2.787975, 42.615698 ], [ 2.781798, 42.618316 ], [ 2.774395, 42.617044 ], [ 2.769764, 42.614159 ] ], [ [ 2.783198, 42.618053 ], [ 2.78368, 42.617976 ], [ 2.784169, 42.617898 ], [ 2.784433, 42.617866 ], [ 2.784714, 42.617832 ], [ 2.785712, 42.617804 ], [ 2.786711, 42.617776 ], [ 2.786721, 42.618136 ], [ 2.785723, 42.618164 ], [ 2.784477, 42.618223 ], [ 2.784213, 42.618256 ], [ 2.783737, 42.618332 ], [ 2.783255, 42.618408 ], [ 2.781128, 42.618984 ], [ 2.77679, 42.62268 ], [ 2.776633, 42.623004 ], [ 2.775927, 42.62647 ], [ 2.775749, 42.627262 ], [ 2.775561, 42.627568 ], [ 2.77145, 42.631681 ], [ 2.770639, 42.631453 ], [ 2.770159, 42.631239 ], [ 2.769678, 42.631025 ], [ 2.769672, 42.631022 ], [ 2.769478, 42.630927 ], [ 2.769285, 42.630832 ], [ 2.768108, 42.629883 ], [ 2.762726, 42.630098 ], [ 2.760543, 42.63177 ], [ 2.760435, 42.631893 ], [ 2.760141, 42.632148 ], [ 2.75987, 42.63191 ], [ 2.757021, 42.628353 ], [ 2.756982, 42.627995 ], [ 2.757188, 42.627973 ], [ 2.757394, 42.627952 ], [ 2.757679, 42.62794 ], [ 2.757952, 42.627929 ], [ 2.762633, 42.624231 ], [ 2.763856, 42.622395 ], [ 2.765348, 42.618417 ], [ 2.765597, 42.618157 ], [ 2.768881, 42.617112 ], [ 2.769229, 42.617204 ], [ 2.770393, 42.619337 ], [ 2.775778, 42.620642 ], [ 2.778319, 42.619277 ], [ 2.778648, 42.619135 ], [ 2.778985, 42.618988 ], [ 2.779325, 42.618863 ], [ 2.779555, 42.618795 ], [ 2.779795, 42.618724 ], [ 2.780094, 42.618652 ], [ 2.780402, 42.618579 ], [ 2.781798, 42.618316 ], [ 2.783198, 42.618053 ] ] ] } },
{ "type": "Feature", "properties": { "codgeo": "66101", "value": 240, "isochrone_group": 4.0, "nb_agences": 1 }, "geometry": { "type": "Polygon", "coordinates": [ [ [ 2.74961, 42.634197 ], [ 2.750563, 42.634382 ], [ 2.758199, 42.637439 ], [ 2.759584, 42.638765 ], [ 2.760827, 42.640342 ], [ 2.761245, 42.640675 ], [ 2.761502, 42.640846 ], [ 2.763124184213455, 42.640230727497858 ], [ 2.762888, 42.640149 ], [ 2.756964, 42.634151 ], [ 2.756931, 42.634081 ], [ 2.756438552361127, 42.632489653692048 ], [ 2.751807, 42.630441 ], [ 2.751642, 42.630342 ], [ 2.751594, 42.630151 ], [ 2.751258, 42.627475 ], [ 2.75158, 42.627314 ], [ 2.755506, 42.626555 ], [ 2.756557, 42.626441 ], [ 2.756969, 42.626459 ], [ 2.762097, 42.623891 ], [ 2.76194, 42.618832 ], [ 2.764012, 42.615436 ], [ 2.769465, 42.613958 ], [ 2.769764, 42.614159 ], [ 2.774395, 42.617044 ], [ 2.781798, 42.618316 ], [ 2.787975, 42.615698 ], [ 2.791026, 42.615412 ], [ 2.798345, 42.616852 ], [ 2.798375, 42.617211 ], [ 2.792876, 42.620453 ], [ 2.785494, 42.62384 ], [ 2.780707, 42.628596 ], [ 2.776307, 42.635112 ], [ 2.776077, 42.635388 ], [ 2.775812, 42.635362 ], [ 2.774755, 42.634524 ], [ 2.773699, 42.633687 ], [ 2.77278, 42.632934 ], [ 2.771864, 42.632182 ], [ 2.771716, 42.632079 ], [ 2.770989, 42.631642 ], [ 2.766827, 42.631106 ], [ 2.76369867444587, 42.634452417741386 ], [ 2.765316696770037, 42.639096862388477 ], [ 2.765726, 42.638684 ], [ 2.773628, 42.635455 ], [ 2.775032, 42.636811 ], [ 2.776839, 42.638765 ], [ 2.777132, 42.638914 ], [ 2.780455, 42.63753 ], [ 2.784575, 42.633778 ], [ 2.78662, 42.631836 ], [ 2.791235, 42.628171 ], [ 2.796401, 42.625199 ], [ 2.799315, 42.619894 ], [ 2.803136, 42.618464 ], [ 2.803484681457252, 42.618436766432922 ], [ 2.803484, 42.616451 ], [ 2.808736710395412, 42.614296164012657 ], [ 2.800488, 42.611528 ], [ 2.795751, 42.610906 ], [ 2.795026, 42.611104 ], [ 2.79424, 42.611359 ], [ 2.793839, 42.611515 ], [ 2.793346, 42.611778 ], [ 2.785147, 42.611993 ], [ 2.783522, 42.610927 ], [ 2.781892, 42.609766 ], [ 2.781169, 42.611067 ], [ 2.772215, 42.610396 ], [ 2.77117, 42.608216 ], [ 2.77098, 42.608157 ], [ 2.770721, 42.608097 ], [ 2.77018, 42.608015 ], [ 2.769051, 42.608679 ], [ 2.761925, 42.612255 ], [ 2.757208, 42.615018 ], [ 2.755956, 42.618394 ], [ 2.749921, 42.621016 ], [ 2.749915, 42.621022 ], [ 2.748276, 42.624178 ], [ 2.744533, 42.629971 ], [ 2.744562, 42.632429 ], [ 2.745349, 42.633041 ], [ 2.74961, 42.634197 ] ] ] } },
{ "type": "Feature", "properties": { "codgeo": "66101", "value": 300, "isochrone_group": 5.0, "nb_agences": 1 }, "geometry": { "type": "MultiPolygon", "coordinates": [ [ [ [ 2.737229, 42.628951 ], [ 2.739887, 42.631891 ], [ 2.74612, 42.634114 ], [ 2.748913, 42.635727 ], [ 2.751837, 42.635752 ], [ 2.754519, 42.636526 ], [ 2.755931880188804, 42.637960969384643 ], [ 2.75550073905677, 42.636358776885345 ], [ 2.750563, 42.634382 ], [ 2.74961, 42.634197 ], [ 2.745349, 42.633041 ], [ 2.744562, 42.632429 ], [ 2.744533, 42.629971 ], [ 2.748276, 42.624178 ], [ 2.749915, 42.621022 ], [ 2.749921, 42.621016 ], [ 2.755956, 42.618394 ], [ 2.757208, 42.615018 ], [ 2.761925, 42.612255 ], [ 2.769051, 42.608679 ], [ 2.77018, 42.608015 ], [ 2.770721, 42.608097 ], [ 2.77098, 42.608157 ], [ 2.77117, 42.608216 ], [ 2.772215, 42.610396 ], [ 2.781169, 42.611067 ], [ 2.781892, 42.609766 ], [ 2.783522, 42.610927 ], [ 2.785147, 42.611993 ], [ 2.793346, 42.611778 ], [ 2.793839, 42.611515 ], [ 2.79424, 42.611359 ], [ 2.795026, 42.611104 ], [ 2.795751, 42.610906 ], [ 2.800488, 42.611528 ], [ 2.801717859995982, 42.611940725628401 ], [ 2.803703639158682, 42.609743482461674 ], [ 2.799848, 42.609465 ], [ 2.79911, 42.609401 ], [ 2.796055, 42.609138 ], [ 2.794662, 42.609085 ], [ 2.786002, 42.609703 ], [ 2.782835, 42.607991 ], [ 2.777718, 42.60761 ], [ 2.774197, 42.605274 ], [ 2.770366, 42.605582 ], [ 2.768553, 42.606222 ], [ 2.759936, 42.608418 ], [ 2.752534, 42.613333 ], [ 2.752092, 42.613255 ], [ 2.750769, 42.613152 ], [ 2.748685, 42.615774 ], [ 2.747885, 42.61734 ], [ 2.747633, 42.618165 ], [ 2.746051, 42.621847 ], [ 2.739595, 42.626077 ], [ 2.736533, 42.627969 ], [ 2.736846, 42.628476 ], [ 2.737229, 42.628951 ] ] ], [ [ [ 2.776468, 42.641616 ], [ 2.779571, 42.643441 ], [ 2.77989, 42.642898 ], [ 2.786887, 42.637898 ], [ 2.788564, 42.637427 ], [ 2.789048, 42.637296 ], [ 2.791086, 42.636717 ], [ 2.791486, 42.63634 ], [ 2.792372, 42.633536 ], [ 2.792459, 42.630455 ], [ 2.796500394575379, 42.629258221947161 ], [ 2.796858605972189, 42.624365918434286 ], [ 2.796401, 42.625199 ], [ 2.791235, 42.628171 ], [ 2.78662, 42.631836 ], [ 2.784575, 42.633778 ], [ 2.780455, 42.63753 ], [ 2.777132, 42.638914 ], [ 2.776839, 42.638765 ], [ 2.775032, 42.636811 ], [ 2.773628, 42.635455 ], [ 2.768037383705325, 42.637739497597501 ], [ 2.768105, 42.637918 ], [ 2.771902993269753, 42.642852618992805 ], [ 2.776468, 42.641616 ] ] ], [ [ [ 2.815307, 42.609915 ], [ 2.814814, 42.610005 ], [ 2.812929396375353, 42.610097324402275 ], [ 2.815622518407458, 42.61105437808957 ], [ 2.815545, 42.609899 ], [ 2.815307, 42.609915 ] ] ] ] } },
{ "type": "Feature", "properties": { "codgeo": "66101", "value": 360, "isochrone_group": 6.0, "nb_agences": 1 }, "geometry": { "type": "MultiPolygon", "coordinates": [ [ [ [ 2.774416, 42.600512 ], [ 2.771401, 42.600845 ], [ 2.766408, 42.605564 ], [ 2.759494, 42.605686 ], [ 2.75837, 42.605539 ], [ 2.75817, 42.605553 ], [ 2.751629, 42.610714 ], [ 2.74715, 42.612353 ], [ 2.745571, 42.613417 ], [ 2.744293, 42.616331 ], [ 2.743014, 42.621804 ], [ 2.735485, 42.624279 ], [ 2.734725, 42.624084 ], [ 2.734041, 42.624231 ], [ 2.73236, 42.625203 ], [ 2.731449, 42.628686 ], [ 2.733633, 42.633497 ], [ 2.734476, 42.633791 ], [ 2.742558, 42.637478 ], [ 2.747601, 42.638681 ], [ 2.751004, 42.639855 ], [ 2.751949212650569, 42.640477817691405 ], [ 2.750288, 42.637307 ], [ 2.749650815668095, 42.635733308273508 ], [ 2.748913, 42.635727 ], [ 2.74612, 42.634114 ], [ 2.739887, 42.631891 ], [ 2.737229, 42.628951 ], [ 2.736846, 42.628476 ], [ 2.736533, 42.627969 ], [ 2.739595, 42.626077 ], [ 2.746051, 42.621847 ], [ 2.747633, 42.618165 ], [ 2.747885, 42.61734 ], [ 2.748685, 42.615774 ], [ 2.750769, 42.613152 ], [ 2.752092, 42.613255 ], [ 2.752534, 42.613333 ], [ 2.759936, 42.608418 ], [ 2.768553, 42.606222 ], [ 2.770366, 42.605582 ], [ 2.774197, 42.605274 ], [ 2.777718, 42.60761 ], [ 2.782502450676892, 42.607966239145561 ], [ 2.779017, 42.602455 ], [ 2.77893, 42.601997 ], [ 2.774416, 42.600512 ] ] ], [ [ [ 2.75735614278922, 42.644040541639853 ], [ 2.756796, 42.642586 ], [ 2.754141547855077, 42.641922386963778 ], [ 2.75735614278922, 42.644040541639853 ] ] ], [ [ [ 2.774772, 42.646375 ], [ 2.77744, 42.647247 ], [ 2.777651, 42.647336 ], [ 2.780683, 42.645971 ], [ 2.780775, 42.64591 ], [ 2.781886, 42.644855 ], [ 2.785535, 42.640779 ], [ 2.790569, 42.641356 ], [ 2.79076, 42.641322 ], [ 2.793588, 42.639174 ], [ 2.794682118167317, 42.638428528562969 ], [ 2.79179276815649, 42.635369144570213 ], [ 2.791486, 42.63634 ], [ 2.791086, 42.636717 ], [ 2.789048, 42.637296 ], [ 2.788564, 42.637427 ], [ 2.786887, 42.637898 ], [ 2.77989, 42.642898 ], [ 2.779571, 42.643441 ], [ 2.776468, 42.641616 ], [ 2.774121840751443, 42.642251553298898 ], [ 2.777792, 42.645438 ], [ 2.777661, 42.645774 ], [ 2.774773, 42.646093 ], [ 2.770271310277123, 42.647840424096444 ], [ 2.774772, 42.646375 ] ] ], [ [ [ 2.824549, 42.614249 ], [ 2.825104, 42.614225 ], [ 2.826808, 42.614233 ], [ 2.826935, 42.614186 ], [ 2.828502, 42.613575 ], [ 2.828306104252174, 42.612692213392798 ], [ 2.827105, 42.613396 ], [ 2.824489, 42.61263 ], [ 2.824243, 42.612623 ], [ 2.824009, 42.612617 ], [ 2.823041, 42.612532 ], [ 2.822083, 42.612448 ], [ 2.81552, 42.616608 ], [ 2.816695569424934, 42.618164182924133 ], [ 2.823964, 42.614236 ], [ 2.824549, 42.614249 ] ] ], [ [ [ 2.826611, 42.609845 ], [ 2.824284246462543, 42.610182125483867 ], [ 2.824387, 42.610229 ], [ 2.827882810225982, 42.610784676851686 ], [ 2.827722, 42.61006 ], [ 2.826611, 42.609845 ] ] ], [ [ [ 2.813314, 42.606897 ], [ 2.811292719730299, 42.606787095871859 ], [ 2.811794, 42.607074 ], [ 2.81366565711842, 42.606922983193108 ], [ 2.813636, 42.606907 ], [ 2.813314, 42.606897 ] ] ], [ [ [ 2.797954474122711, 42.609301522649517 ], [ 2.799202686595757, 42.607024462808944 ], [ 2.796055, 42.609138 ], [ 2.797954474122711, 42.609301522649517 ] ] ], [ [ [ 2.786002, 42.609703 ], [ 2.787141724374466, 42.609621666320614 ], [ 2.786156, 42.609343 ], [ 2.78428303423057, 42.608773770635537 ], [ 2.786002, 42.609703 ] ] ] ] } },
{ "type": "Feature", "properties": { "codgeo": "66101", "value": 420, "isochrone_group": 7.0, "nb_agences": 1 }, "geometry": { "type": "MultiPolygon", "coordinates": [ [ [ [ 2.741993, 42.613454 ], [ 2.741787, 42.615696 ], [ 2.736919, 42.622973 ], [ 2.732605, 42.624383 ], [ 2.728871, 42.62535 ], [ 2.727934, 42.625466 ], [ 2.727353, 42.625565 ], [ 2.726085, 42.625938 ], [ 2.722009, 42.626989 ], [ 2.721956, 42.630589 ], [ 2.723074, 42.630605 ], [ 2.730201, 42.635581 ], [ 2.730758, 42.636317 ], [ 2.7311, 42.636555 ], [ 2.737251, 42.640165 ], [ 2.742916, 42.644519 ], [ 2.746494, 42.645401 ], [ 2.750333, 42.644429 ], [ 2.7566, 42.64802 ], [ 2.757955, 42.650511 ], [ 2.758019775787953, 42.650577249139879 ], [ 2.758057, 42.649478 ], [ 2.758107, 42.64876 ], [ 2.755846, 42.643898 ], [ 2.750062, 42.644118 ], [ 2.748392, 42.644686 ], [ 2.744058, 42.643828 ], [ 2.740536, 42.639228 ], [ 2.740525585831274, 42.636550814768604 ], [ 2.734476, 42.633791 ], [ 2.733633, 42.633497 ], [ 2.731449, 42.628686 ], [ 2.73236, 42.625203 ], [ 2.734041, 42.624231 ], [ 2.734725, 42.624084 ], [ 2.735485, 42.624279 ], [ 2.743014, 42.621804 ], [ 2.744293, 42.616331 ], [ 2.745571, 42.613417 ], [ 2.74715, 42.612353 ], [ 2.751629, 42.610714 ], [ 2.752114145802245, 42.610331208762368 ], [ 2.747426, 42.611478 ], [ 2.744244, 42.610644 ], [ 2.742225, 42.612122 ], [ 2.741993, 42.613454 ] ] ], [ [ [ 2.780483869308583, 42.64903394901247 ], [ 2.780418, 42.648998 ], [ 2.778436, 42.648235 ], [ 2.780483869308583, 42.64903394901247 ] ] ], [ [ [ 2.785547, 42.651374 ], [ 2.786904, 42.64804 ], [ 2.787766050541505, 42.647404539489152 ], [ 2.78459, 42.644755 ], [ 2.784155, 42.644769 ], [ 2.784079437829914, 42.642404889669848 ], [ 2.782020902959453, 42.644704310917319 ], [ 2.78666, 42.64794 ], [ 2.785302, 42.651274 ], [ 2.78268, 42.650207 ], [ 2.785547, 42.651374 ] ] ], [ [ [ 2.769794, 42.65282 ], [ 2.770579308371855, 42.65442993192837 ], [ 2.774763, 42.647817 ], [ 2.769757792368886, 42.652794668662025 ], [ 2.769794, 42.65282 ] ] ], [ [ [ 2.775317, 42.593417 ], [ 2.768279, 42.595613 ], [ 2.766433, 42.597232 ], [ 2.75943, 42.602414 ], [ 2.755552, 42.605258 ], [ 2.753128727810493, 42.609530680136068 ], [ 2.75817, 42.605553 ], [ 2.75837, 42.605539 ], [ 2.759494, 42.605686 ], [ 2.766408, 42.605564 ], [ 2.771401, 42.600845 ], [ 2.774416, 42.600512 ], [ 2.77893, 42.601997 ], [ 2.779017, 42.602455 ], [ 2.780840133382861, 42.605337761800023 ], [ 2.78114, 42.600426 ], [ 2.780689, 42.597174 ], [ 2.778448, 42.595194 ], [ 2.775317, 42.593417 ] ] ], [ [ [ 2.781507567040427, 42.606393116427483 ], [ 2.782711, 42.608296 ], [ 2.786156, 42.609343 ], [ 2.781507567040427, 42.606393116427483 ] ] ] ] } },
{ "type": "Feature", "properties": { "codgeo": "66101", "value": 480, "isochrone_group": 8.0, "nb_agences": 1 }, "geometry": { "type": "MultiPolygon", "coordinates": [ [ [ [ 2.823744493793163, 42.600074109746146 ], [ 2.823832, 42.600061 ], [ 2.823882391638938, 42.599867220231722 ], [ 2.823744493793163, 42.600074109746146 ] ] ], [ [ [ 2.796024, 42.59115 ], [ 2.794308, 42.589549 ], [ 2.79428, 42.589528 ], [ 2.794275682105463, 42.589533833794029 ], [ 2.796024, 42.59115 ] ] ], [ [ [ 2.783065, 42.587974 ], [ 2.783067, 42.58797 ], [ 2.781332, 42.586515 ], [ 2.780815, 42.586398 ], [ 2.779813, 42.58643 ], [ 2.773807, 42.589017 ], [ 2.771374, 42.591477 ], [ 2.763313, 42.595479 ], [ 2.761513, 42.596076 ], [ 2.753789, 42.600021 ], [ 2.752868, 42.603347 ], [ 2.752084, 42.605325 ], [ 2.752065, 42.608925 ], [ 2.745063760160245, 42.610858858571227 ], [ 2.747426, 42.611478 ], [ 2.752765, 42.610172 ], [ 2.755552, 42.605258 ], [ 2.75943, 42.602414 ], [ 2.766433, 42.597232 ], [ 2.768279, 42.595613 ], [ 2.775317, 42.593417 ], [ 2.778448, 42.595194 ], [ 2.780689, 42.597174 ], [ 2.78114, 42.600426 ], [ 2.780803, 42.605946 ], [ 2.782073055834304, 42.60675197415825 ], [ 2.783624, 42.606609 ], [ 2.787914, 42.600049 ], [ 2.788046, 42.596816 ], [ 2.788278667334506, 42.594449532517736 ], [ 2.784413, 42.596554 ], [ 2.783498, 42.595341 ], [ 2.78222, 42.589552 ], [ 2.783065, 42.587974 ] ] ], [ [ [ 2.741715, 42.608384 ], [ 2.740322, 42.60773 ], [ 2.735877, 42.612637 ], [ 2.735401, 42.614187 ], [ 2.735573, 42.614974 ], [ 2.735623, 42.615129 ], [ 2.735111505082187, 42.623563766767305 ], [ 2.736919, 42.622973 ], [ 2.741787, 42.615696 ], [ 2.741993, 42.613454 ], [ 2.742225, 42.612122 ], [ 2.744244, 42.610644 ], [ 2.744389109132327, 42.610682033003265 ], [ 2.74411, 42.610493 ], [ 2.743862, 42.610292 ], [ 2.743281, 42.609759 ], [ 2.742464, 42.60872 ], [ 2.741715, 42.608384 ] ] ], [ [ [ 2.713172, 42.629115 ], [ 2.713881, 42.62944 ], [ 2.714398, 42.629611 ], [ 2.715656, 42.630118 ], [ 2.716147, 42.630289 ], [ 2.716913, 42.630372 ], [ 2.717463, 42.630323 ], [ 2.720324, 42.630275 ], [ 2.721124, 42.630435 ], [ 2.721664, 42.630566 ], [ 2.724578, 42.632227 ], [ 2.724991, 42.640261 ], [ 2.722967, 42.641248 ], [ 2.724543, 42.644484 ], [ 2.73213, 42.649129 ], [ 2.734308, 42.651996 ], [ 2.73699, 42.650553 ], [ 2.745117, 42.651211 ], [ 2.746918, 42.652177 ], [ 2.747952, 42.650931 ], [ 2.752112065420362, 42.648883595253906 ], [ 2.751532, 42.648338 ], [ 2.748282, 42.650384 ], [ 2.743824, 42.649741 ], [ 2.737505, 42.649269 ], [ 2.734726, 42.64698 ], [ 2.72954, 42.642578 ], [ 2.728576, 42.63911 ], [ 2.730675630458345, 42.636208159815688 ], [ 2.730201, 42.635581 ], [ 2.723074, 42.630605 ], [ 2.721956, 42.630589 ], [ 2.722009, 42.626989 ], [ 2.726085, 42.625938 ], [ 2.72016, 42.62655 ], [ 2.718855, 42.626429 ], [ 2.713917, 42.625291 ], [ 2.712225, 42.628469 ], [ 2.713172, 42.629115 ] ] ] ] } },
{ "type": "Feature", "properties": { "codgeo": "66101", "value": 540, "isochrone_group": 9.0, "nb_agences": 1 }, "geometry": { "type": "MultiPolygon", "coordinates": [ [ [ [ 2.809522, 42.59588 ], [ 2.809857, 42.597771 ], [ 2.809675131823048, 42.598443994177323 ], [ 2.813366, 42.603675 ], [ 2.818676857842769, 42.602918509578679 ], [ 2.820974, 42.598005 ], [ 2.820769365886467, 42.597419195089493 ], [ 2.816244, 42.599678 ], [ 2.813114, 42.597898 ], [ 2.809345607732485, 42.594937288557993 ], [ 2.809522, 42.59588 ] ] ], [ [ [ 2.842269863039885, 42.602985696827815 ], [ 2.845137711415861, 42.606111621016098 ], [ 2.845997197135588, 42.60647364144787 ], [ 2.84611, 42.605994 ], [ 2.846308287704981, 42.60570901002405 ], [ 2.842269863039885, 42.602985696827815 ] ] ], [ [ [ 2.779958, 42.582261 ], [ 2.779788, 42.582437 ], [ 2.779051, 42.583986 ], [ 2.77837, 42.58505 ], [ 2.770708, 42.589204 ], [ 2.763036, 42.591397 ], [ 2.757435, 42.592757 ], [ 2.754765, 42.595172 ], [ 2.749145, 42.597961 ], [ 2.74759, 42.600699 ], [ 2.747599, 42.601212 ], [ 2.747552, 42.604299 ], [ 2.739572, 42.606813 ], [ 2.739037, 42.606356 ], [ 2.73733, 42.604844 ], [ 2.735988, 42.604403 ], [ 2.735623, 42.604418 ], [ 2.735415, 42.604521 ], [ 2.734288, 42.606769 ], [ 2.731766, 42.613734 ], [ 2.732326, 42.61696 ], [ 2.732382, 42.622864 ], [ 2.727934, 42.625466 ], [ 2.728871, 42.62535 ], [ 2.729867, 42.625246 ], [ 2.730214, 42.625203 ], [ 2.732539258329231, 42.624732436013169 ], [ 2.735101, 42.623737 ], [ 2.735623, 42.615129 ], [ 2.735573, 42.614974 ], [ 2.735401, 42.614187 ], [ 2.735877, 42.612637 ], [ 2.740322, 42.60773 ], [ 2.741715, 42.608384 ], [ 2.742464, 42.60872 ], [ 2.743281, 42.609759 ], [ 2.743862, 42.610292 ], [ 2.74411, 42.610493 ], [ 2.74477, 42.61094 ], [ 2.752065, 42.608925 ], [ 2.752084, 42.605325 ], [ 2.752868, 42.603347 ], [ 2.753789, 42.600021 ], [ 2.761513, 42.596076 ], [ 2.763313, 42.595479 ], [ 2.771374, 42.591477 ], [ 2.773807, 42.589017 ], [ 2.779813, 42.58643 ], [ 2.780461187537385, 42.586409299399996 ], [ 2.78022, 42.585593 ], [ 2.780285, 42.585461 ], [ 2.781701, 42.584357 ], [ 2.785354, 42.583967 ], [ 2.786914682503288, 42.584060701402706 ], [ 2.784236, 42.582095 ], [ 2.783505, 42.582003 ], [ 2.782775, 42.582047 ], [ 2.779958, 42.582261 ] ] ], [ [ [ 2.786205358987065, 42.595578240608816 ], [ 2.784344, 42.589424 ], [ 2.782721566133796, 42.588615347503975 ], [ 2.78222, 42.589552 ], [ 2.783498, 42.595341 ], [ 2.784413, 42.596554 ], [ 2.786205358987065, 42.595578240608816 ] ] ], [ [ [ 2.794275682105463, 42.589533833794029 ], [ 2.794238, 42.589499 ], [ 2.794275682105461, 42.589533833794029 ], [ 2.794275682105463, 42.589533833794029 ] ] ], [ [ [ 2.708978, 42.620014 ], [ 2.705908, 42.621575 ], [ 2.707383, 42.627356 ], [ 2.708884, 42.630628 ], [ 2.710471, 42.630161 ], [ 2.712962, 42.630171 ], [ 2.715077, 42.630792 ], [ 2.716472, 42.630702 ], [ 2.720977, 42.63822 ], [ 2.719115, 42.639496 ], [ 2.717847, 42.639856 ], [ 2.712585, 42.643985 ], [ 2.712909, 42.64757 ], [ 2.713284, 42.647536 ], [ 2.715286, 42.647537 ], [ 2.722536, 42.652008 ], [ 2.723816, 42.655373 ], [ 2.728341, 42.65531 ], [ 2.731586, 42.653751 ], [ 2.732132, 42.65344 ], [ 2.731735, 42.653614 ], [ 2.730982, 42.653897 ], [ 2.730397, 42.654065 ], [ 2.729699, 42.654215 ], [ 2.729006, 42.654309 ], [ 2.72657, 42.654481 ], [ 2.726317, 42.650889 ], [ 2.719039, 42.646496 ], [ 2.717615, 42.646844 ], [ 2.717205, 42.645871 ], [ 2.71676, 42.643347 ], [ 2.719865, 42.641206 ], [ 2.723161, 42.640391 ], [ 2.724984414183336, 42.640132887527677 ], [ 2.724578, 42.632227 ], [ 2.721664, 42.630566 ], [ 2.721124, 42.630435 ], [ 2.720324, 42.630275 ], [ 2.717463, 42.630323 ], [ 2.716913, 42.630372 ], [ 2.716147, 42.630289 ], [ 2.715656, 42.630118 ], [ 2.714398, 42.629611 ], [ 2.713881, 42.62944 ], [ 2.713172, 42.629115 ], [ 2.712225, 42.628469 ], [ 2.713917, 42.625291 ], [ 2.718855, 42.626429 ], [ 2.72016, 42.62655 ], [ 2.715906, 42.623824 ], [ 2.715505, 42.623599 ], [ 2.715205, 42.623439 ], [ 2.713871, 42.62297 ], [ 2.70946, 42.620275 ], [ 2.708978, 42.620014 ] ] ], [ [ [ 2.744348, 42.657572 ], [ 2.749033, 42.655595 ], [ 2.754447082420795, 42.652927348257933 ], [ 2.754098, 42.652399 ], [ 2.749441, 42.652961 ], [ 2.746346, 42.654746 ], [ 2.744488, 42.657191 ], [ 2.741233, 42.655652 ], [ 2.732652, 42.653162 ], [ 2.740845, 42.656743 ], [ 2.744348, 42.657572 ] ] ] ] } },
{ "type": "Feature", "properties": { "codgeo": "66101", "value": 600, "isochrone_group": 10.0, "nb_agences": 1 }, "geometry": { "type": "MultiPolygon", "coordinates": [ [ [ [ 2.822447924015759, 42.594291706423448 ], [ 2.821114, 42.593886 ], [ 2.821104771587911, 42.593932317125166 ], [ 2.822365, 42.594363 ], [ 2.822447924015759, 42.594291706423448 ] ] ], [ [ [ 2.779063, 42.578837 ], [ 2.777091, 42.579271 ], [ 2.77655, 42.579403 ], [ 2.776368, 42.579477 ], [ 2.775912, 42.580001 ], [ 2.772342, 42.584926 ], [ 2.764872, 42.58669 ], [ 2.764212, 42.587163 ], [ 2.763692, 42.587544 ], [ 2.763309, 42.588075 ], [ 2.755736, 42.591834 ], [ 2.754667, 42.591623 ], [ 2.753941, 42.59166 ], [ 2.747596, 42.59198 ], [ 2.742891, 42.59743 ], [ 2.742592, 42.601017 ], [ 2.73515, 42.602985 ], [ 2.73291, 42.602221 ], [ 2.732371, 42.602095 ], [ 2.731716, 42.60199 ], [ 2.731143, 42.605544 ], [ 2.729872, 42.611204 ], [ 2.727454, 42.616189 ], [ 2.726876, 42.618976 ], [ 2.718785, 42.622776 ], [ 2.715238, 42.621572 ], [ 2.713948, 42.620943 ], [ 2.712998, 42.620557 ], [ 2.70804, 42.61891 ], [ 2.703307, 42.61755 ], [ 2.702443, 42.618328 ], [ 2.701879, 42.619276 ], [ 2.704834, 42.621947 ], [ 2.704885, 42.62933 ], [ 2.704072, 42.630479 ], [ 2.703475, 42.632152 ], [ 2.703483, 42.63238 ], [ 2.707081, 42.632261 ], [ 2.713312, 42.634202 ], [ 2.709848, 42.64153 ], [ 2.708199, 42.641542 ], [ 2.705912, 42.646273 ], [ 2.707832, 42.644787 ], [ 2.711669, 42.642286 ], [ 2.714636826601572, 42.642374967305578 ], [ 2.717847, 42.639856 ], [ 2.718992872974875, 42.639530673287908 ], [ 2.720145, 42.638187 ], [ 2.719252054776089, 42.635341389968175 ], [ 2.716472, 42.630702 ], [ 2.715077, 42.630792 ], [ 2.712962, 42.630171 ], [ 2.710471, 42.630161 ], [ 2.708884, 42.630628 ], [ 2.707383, 42.627356 ], [ 2.705908, 42.621575 ], [ 2.708978, 42.620014 ], [ 2.70946, 42.620275 ], [ 2.713871, 42.62297 ], [ 2.715205, 42.623439 ], [ 2.715505, 42.623599 ], [ 2.715906, 42.623824 ], [ 2.719818333212424, 42.626331056966876 ], [ 2.727353, 42.625565 ], [ 2.727934, 42.625466 ], [ 2.732382, 42.622864 ], [ 2.732326, 42.61696 ], [ 2.731766, 42.613734 ], [ 2.734288, 42.606769 ], [ 2.735415, 42.604521 ], [ 2.735623, 42.604418 ], [ 2.735988, 42.604403 ], [ 2.73733, 42.604844 ], [ 2.739037, 42.606356 ], [ 2.739572, 42.606813 ], [ 2.747552, 42.604299 ], [ 2.747599, 42.601212 ], [ 2.74759, 42.600699 ], [ 2.749145, 42.597961 ], [ 2.754765, 42.595172 ], [ 2.757435, 42.592757 ], [ 2.763036, 42.591397 ], [ 2.770708, 42.589204 ], [ 2.776435772716086, 42.586098653111122 ], [ 2.776747, 42.584237 ], [ 2.779299, 42.58122 ], [ 2.779362, 42.581172 ], [ 2.781158, 42.580957 ], [ 2.785643, 42.58148 ], [ 2.78998, 42.586044 ], [ 2.79311, 42.588575 ], [ 2.793663, 42.589003 ], [ 2.794238, 42.589499 ], [ 2.793794, 42.58141 ], [ 2.793147, 42.581181 ], [ 2.789443, 42.580216 ], [ 2.787661, 42.57992 ], [ 2.779804, 42.578751 ], [ 2.779573, 42.57876 ], [ 2.779286, 42.578793 ], [ 2.779063, 42.578837 ] ] ], [ [ [ 2.704445, 42.647823 ], [ 2.704437, 42.64788 ], [ 2.705451049915937, 42.64918287164474 ], [ 2.70557, 42.648877 ], [ 2.705856, 42.648787 ], [ 2.707003, 42.648775 ], [ 2.707295, 42.648942 ], [ 2.707939699608548, 42.649341021241099 ], [ 2.70815251007147, 42.649119343675544 ], [ 2.708139, 42.649124 ], [ 2.705448338242415, 42.646756854731969 ], [ 2.705315, 42.646896 ], [ 2.704445, 42.647823 ] ] ], [ [ [ 2.715813, 42.653332 ], [ 2.717379188184525, 42.653117244094815 ], [ 2.716557775189136, 42.648321290602844 ], [ 2.715286, 42.647537 ], [ 2.713284, 42.647536 ], [ 2.712909, 42.64757 ], [ 2.712907793128847, 42.647556646194211 ], [ 2.712555, 42.647602 ], [ 2.71573885903311, 42.653299929539621 ], [ 2.715813, 42.653332 ] ] ], [ [ [ 2.745205930844168, 42.660225267164797 ], [ 2.744952, 42.660595 ], [ 2.744212, 42.663717 ], [ 2.741674, 42.663505 ], [ 2.744717, 42.663787 ], [ 2.745139, 42.660555 ], [ 2.745205930844168, 42.660225267164797 ] ] ], [ [ [ 2.732101, 42.656836 ], [ 2.730605, 42.657173 ], [ 2.732101411784658, 42.656836206512082 ], [ 2.732101, 42.656836 ] ] ], [ [ [ 2.741674, 42.663505 ], [ 2.739742, 42.660668 ], [ 2.733894744794189, 42.65773557205226 ], [ 2.738989, 42.662829 ], [ 2.741674, 42.663505 ] ] ], [ [ [ 2.754929, 42.655132 ], [ 2.75696191878328, 42.659544686268923 ], [ 2.757005357785455, 42.659460912769433 ], [ 2.755279, 42.655039 ], [ 2.749094043048295, 42.655564922586777 ], [ 2.749077192195142, 42.655573225417122 ], [ 2.754929, 42.655132 ] ] ] ] } },
{ "type": "Feature", "properties": { "codgeo": "66101", "value": 660, "isochrone_group": 11.0, "nb_agences": 1 }, "geometry": { "type": "MultiPolygon", "coordinates": [ [ [ [ 2.801448, 42.58225 ], [ 2.801002, 42.582208 ], [ 2.798252, 42.582071 ], [ 2.797671806866219, 42.582013953827207 ], [ 2.803684725800334, 42.583101059415959 ], [ 2.802958, 42.58275 ], [ 2.802471, 42.582526 ], [ 2.801936, 42.582348 ], [ 2.801448, 42.58225 ] ] ], [ [ [ 2.778068, 42.575083 ], [ 2.777066, 42.574086 ], [ 2.774525, 42.575275 ], [ 2.769191, 42.581049 ], [ 2.763624, 42.583604 ], [ 2.760842, 42.585163 ], [ 2.759211, 42.588372 ], [ 2.753941, 42.59166 ], [ 2.754667, 42.591623 ], [ 2.755736, 42.591834 ], [ 2.763309, 42.588075 ], [ 2.763692, 42.587544 ], [ 2.764212, 42.587163 ], [ 2.764872, 42.58669 ], [ 2.771635509487614, 42.585092833904135 ], [ 2.771776, 42.582971 ], [ 2.774496, 42.580302 ], [ 2.777964, 42.577972 ], [ 2.778077, 42.577915 ], [ 2.780225, 42.578317 ], [ 2.787747, 42.578564 ], [ 2.78837, 42.578806 ], [ 2.789671, 42.57931 ], [ 2.79364047056747, 42.580652366642475 ], [ 2.789465, 42.576748 ], [ 2.787702, 42.575914 ], [ 2.781417, 42.577092 ], [ 2.778068, 42.575083 ] ] ], [ [ [ 2.723445, 42.614445 ], [ 2.721682, 42.617475 ], [ 2.713679, 42.617861 ], [ 2.713043, 42.617815 ], [ 2.712461, 42.617777 ], [ 2.711805, 42.617815 ], [ 2.70371, 42.616554 ], [ 2.701912, 42.615808 ], [ 2.70136, 42.615534 ], [ 2.701017, 42.615422 ], [ 2.69997, 42.615128 ], [ 2.698973, 42.614861 ], [ 2.697543, 42.618164 ], [ 2.6992, 42.6208 ], [ 2.699488, 42.621078 ], [ 2.699791, 42.621317 ], [ 2.702022, 42.623131 ], [ 2.703306, 42.623452 ], [ 2.704847124427153, 42.623846953836534 ], [ 2.704834, 42.621947 ], [ 2.701879, 42.619276 ], [ 2.702443, 42.618328 ], [ 2.703307, 42.61755 ], [ 2.70804, 42.61891 ], [ 2.712998, 42.620557 ], [ 2.713948, 42.620943 ], [ 2.715238, 42.621572 ], [ 2.718785, 42.622776 ], [ 2.726876, 42.618976 ], [ 2.727454, 42.616189 ], [ 2.729872, 42.611204 ], [ 2.731143, 42.605544 ], [ 2.731716, 42.60199 ], [ 2.732371, 42.602095 ], [ 2.73291, 42.602221 ], [ 2.73515, 42.602985 ], [ 2.742592, 42.601017 ], [ 2.742891, 42.59743 ], [ 2.747596, 42.59198 ], [ 2.75001339827433, 42.591858082356545 ], [ 2.746751, 42.591376 ], [ 2.744209, 42.590215 ], [ 2.740866, 42.591145 ], [ 2.737737, 42.59433 ], [ 2.731763, 42.599535 ], [ 2.728554, 42.601167 ], [ 2.727451, 42.602833 ], [ 2.724047, 42.610157 ], [ 2.723445, 42.614445 ] ] ], [ [ [ 2.704491, 42.640885 ], [ 2.70554, 42.641022 ], [ 2.706103, 42.64115 ], [ 2.707283, 42.641448 ], [ 2.708237645157356, 42.641541718773873 ], [ 2.709848, 42.64153 ], [ 2.713312, 42.634202 ], [ 2.707623130112602, 42.632429877314799 ], [ 2.707063, 42.634682 ], [ 2.703661, 42.640676 ], [ 2.701324, 42.642237 ], [ 2.701161, 42.643266 ], [ 2.701111620307016, 42.646687759494647 ], [ 2.702523, 42.645202 ], [ 2.70337, 42.645499 ], [ 2.703371335451328, 42.645499684259818 ], [ 2.704491, 42.640885 ] ] ], [ [ [ 2.708574130530939, 42.649409200654972 ], [ 2.708293, 42.648973 ], [ 2.70815073308178, 42.649121194706481 ], [ 2.708574130530939, 42.649409200654972 ] ] ] ] } },
{ "type": "Feature", "properties": { "codgeo": "66101", "value": 720, "isochrone_group": 12.0, "nb_agences": 1 }, "geometry": { "type": "MultiPolygon", "coordinates": [ [ [ [ 2.828874708702044, 42.585148296073882 ], [ 2.829018239615607, 42.585086358327324 ], [ 2.824732, 42.583748 ], [ 2.828748479748423, 42.585134781628547 ], [ 2.828874708702044, 42.585148296073882 ] ] ], [ [ [ 2.808588, 42.581404 ], [ 2.808776581623025, 42.581093238733871 ], [ 2.808759, 42.581092 ], [ 2.808588, 42.581404 ] ] ], [ [ [ 2.769309, 42.56773 ], [ 2.767528, 42.568593 ], [ 2.767311, 42.569423 ], [ 2.767403, 42.569749 ], [ 2.767552, 42.570203 ], [ 2.76698, 42.57909 ], [ 2.760507, 42.580323 ], [ 2.758959, 42.5801 ], [ 2.756793, 42.585165 ], [ 2.75613, 42.585921 ], [ 2.747665, 42.588118 ], [ 2.744069, 42.587947 ], [ 2.736013, 42.591157 ], [ 2.735154, 42.590927 ], [ 2.728529, 42.59682 ], [ 2.727678, 42.596895 ], [ 2.727001, 42.597205 ], [ 2.726335, 42.597791 ], [ 2.726021, 42.598383 ], [ 2.722547, 42.604122 ], [ 2.722532, 42.604175 ], [ 2.72306, 42.605995 ], [ 2.721108, 42.613451 ], [ 2.713789, 42.616757 ], [ 2.711787, 42.616041 ], [ 2.70952663072725, 42.617460086639525 ], [ 2.711805, 42.617815 ], [ 2.712461, 42.617777 ], [ 2.713043, 42.617815 ], [ 2.713679, 42.617861 ], [ 2.721682, 42.617475 ], [ 2.723445, 42.614445 ], [ 2.724047, 42.610157 ], [ 2.727451, 42.602833 ], [ 2.728554, 42.601167 ], [ 2.731763, 42.599535 ], [ 2.737737, 42.59433 ], [ 2.740866, 42.591145 ], [ 2.744209, 42.590215 ], [ 2.746751, 42.591376 ], [ 2.751346, 42.592055 ], [ 2.75265, 42.591907 ], [ 2.753941, 42.59166 ], [ 2.759211, 42.588372 ], [ 2.760842, 42.585163 ], [ 2.763624, 42.583604 ], [ 2.766771269370811, 42.582159546390798 ], [ 2.76668, 42.581129 ], [ 2.772842, 42.574884 ], [ 2.77479, 42.571857 ], [ 2.775305, 42.572188 ], [ 2.775889, 42.572722 ], [ 2.777871, 42.574126 ], [ 2.782328951808442, 42.576921072517052 ], [ 2.783810555806154, 42.576643374902197 ], [ 2.788745, 42.574851 ], [ 2.788862, 42.574763 ], [ 2.790616, 42.576536 ], [ 2.791013, 42.57765 ], [ 2.798252, 42.582071 ], [ 2.793925, 42.575384 ], [ 2.791729, 42.572532 ], [ 2.790871, 42.573192 ], [ 2.789537, 42.574173 ], [ 2.780778, 42.573862 ], [ 2.774751, 42.571831 ], [ 2.771123, 42.568388 ], [ 2.770069, 42.567905 ], [ 2.76948, 42.567738 ], [ 2.769309, 42.56773 ] ] ], [ [ [ 2.690231, 42.619584 ], [ 2.697185, 42.620586 ], [ 2.6976, 42.620812 ], [ 2.698479, 42.621285 ], [ 2.702042, 42.624595 ], [ 2.702438, 42.62516 ], [ 2.702967, 42.62558 ], [ 2.705421, 42.633137 ], [ 2.698433, 42.638374 ], [ 2.69716, 42.642306 ], [ 2.696865098947526, 42.643257278211664 ], [ 2.698224, 42.641663 ], [ 2.698435, 42.641684 ], [ 2.698884123691801, 42.641728706820572 ], [ 2.699026, 42.641126 ], [ 2.70007, 42.639261 ], [ 2.700153, 42.63925 ], [ 2.702079, 42.639219 ], [ 2.703938223668033, 42.640187558299196 ], [ 2.707063, 42.634682 ], [ 2.707818370286006, 42.631644872520944 ], [ 2.707638, 42.631639 ], [ 2.705042, 42.629145 ], [ 2.703878383705305, 42.623598688441504 ], [ 2.703306, 42.623452 ], [ 2.702022, 42.623131 ], [ 2.699791, 42.621317 ], [ 2.699488, 42.621078 ], [ 2.6992, 42.6208 ], [ 2.697543, 42.618164 ], [ 2.698973, 42.614861 ], [ 2.69997, 42.615128 ], [ 2.701017, 42.615422 ], [ 2.696422, 42.61345 ], [ 2.690847, 42.615205 ], [ 2.689716, 42.615529 ], [ 2.688894, 42.616013 ], [ 2.68841, 42.61665 ], [ 2.688364, 42.617343 ], [ 2.688401, 42.61945 ], [ 2.688766, 42.619581 ], [ 2.689504, 42.619694 ], [ 2.690231, 42.619584 ] ] ], [ [ [ 2.695073304544322, 42.649621534084751 ], [ 2.695541895164745, 42.64752560793638 ], [ 2.694799719929219, 42.649919682575508 ], [ 2.695073304544322, 42.649621534084751 ] ] ], [ [ [ 2.690429936674297, 42.653027194247436 ], [ 2.691093, 42.652657 ], [ 2.693470157686285, 42.651335681838042 ], [ 2.69357670787898, 42.651252503124745 ], [ 2.694238669414783, 42.650531107176469 ], [ 2.690822, 42.652791 ], [ 2.690429936674297, 42.653027194247436 ] ] ], [ [ [ 2.842882233596478, 42.584035154595639 ], [ 2.843017, 42.58395 ], [ 2.843540560664469, 42.583602593641501 ], [ 2.843107688034447, 42.583102373484678 ], [ 2.84098468954675, 42.583442330758835 ], [ 2.842882233596478, 42.584035154595639 ] ] ] ] } },
{ "type": "Feature", "properties": { "codgeo": "66101", "value": 780, "isochrone_group": 13.0, "nb_agences": 1 }, "geometry": { "type": "MultiPolygon", "coordinates": [ [ [ [ 2.772454, 42.567424 ], [ 2.772833, 42.563844 ], [ 2.768733, 42.561517 ], [ 2.765679, 42.559768 ], [ 2.765129, 42.559446 ], [ 2.763064, 42.560748 ], [ 2.762967, 42.561039 ], [ 2.762229, 42.565257 ], [ 2.762824, 42.56751 ], [ 2.765633722672013, 42.574248229027027 ], [ 2.767552, 42.570203 ], [ 2.767403, 42.569749 ], [ 2.767311, 42.569423 ], [ 2.767334047149686, 42.569334847307637 ], [ 2.766834, 42.566532 ], [ 2.767153, 42.566074 ], [ 2.770545, 42.564868 ], [ 2.771013, 42.566184 ], [ 2.771188, 42.566726 ], [ 2.774751, 42.571831 ], [ 2.778758, 42.5729 ], [ 2.782278, 42.573656 ], [ 2.783667845283846, 42.57396460781861 ], [ 2.786440926805516, 42.574063069783818 ], [ 2.791612767059365, 42.57262140995433 ], [ 2.791729, 42.572532 ], [ 2.791736880585673, 42.572542234713247 ], [ 2.792353, 42.572125 ], [ 2.795604716886824, 42.57366344669915 ], [ 2.796523, 42.571271 ], [ 2.794145, 42.568568 ], [ 2.793487, 42.569147 ], [ 2.793215, 42.569445 ], [ 2.792674, 42.570536 ], [ 2.788525, 42.572972 ], [ 2.783581, 42.569533 ], [ 2.783277, 42.568986 ], [ 2.783196, 42.568909 ], [ 2.77979, 42.569906 ], [ 2.772454, 42.567424 ] ] ], [ [ [ 2.760398382427119, 42.578973159917531 ], [ 2.763783, 42.578151 ], [ 2.764811913678491, 42.575981245179975 ], [ 2.760398382427119, 42.578973159917531 ] ] ], [ [ [ 2.742144, 42.585127 ], [ 2.73996, 42.585977 ], [ 2.732253, 42.590081 ], [ 2.731636, 42.589925 ], [ 2.73019, 42.589647 ], [ 2.729244, 42.5895 ], [ 2.728576, 42.593016 ], [ 2.724177, 42.599115 ], [ 2.721043, 42.601677 ], [ 2.720974, 42.60174 ], [ 2.720368, 42.605213 ], [ 2.721108, 42.613451 ], [ 2.72306, 42.605995 ], [ 2.722532, 42.604175 ], [ 2.722547, 42.604122 ], [ 2.726021, 42.598383 ], [ 2.726335, 42.597791 ], [ 2.727001, 42.597205 ], [ 2.727678, 42.596895 ], [ 2.728529, 42.59682 ], [ 2.735154, 42.590927 ], [ 2.736013, 42.591157 ], [ 2.744069, 42.587947 ], [ 2.747665, 42.588118 ], [ 2.75613, 42.585921 ], [ 2.756346950526122, 42.585673617499651 ], [ 2.756467, 42.583311 ], [ 2.757117949864662, 42.579770272702355 ], [ 2.757035, 42.579755 ], [ 2.753892, 42.578178 ], [ 2.753701, 42.578074 ], [ 2.749345, 42.577897 ], [ 2.749011, 42.578617 ], [ 2.747967, 42.581223 ], [ 2.742144, 42.585127 ] ] ], [ [ [ 2.696428328328119, 42.613452715878807 ], [ 2.701017, 42.615422 ], [ 2.70136, 42.615534 ], [ 2.701912, 42.615808 ], [ 2.702312, 42.616082 ], [ 2.702758, 42.616528 ], [ 2.707386, 42.618804 ], [ 2.711787, 42.616041 ], [ 2.713789, 42.616757 ], [ 2.711357, 42.615757 ], [ 2.710874, 42.615528 ], [ 2.710403, 42.615376 ], [ 2.709528, 42.615007 ], [ 2.708612, 42.614842 ], [ 2.707388, 42.614564 ], [ 2.703015, 42.611981 ], [ 2.702386, 42.61149 ], [ 2.70188, 42.611259 ], [ 2.701379, 42.611109 ], [ 2.700176, 42.611026 ], [ 2.696428328328119, 42.613452715878807 ] ] ], [ [ [ 2.69625, 42.62294 ], [ 2.702744, 42.626123 ], [ 2.699169, 42.633076 ], [ 2.699095, 42.633173 ], [ 2.698806, 42.63372 ], [ 2.697634, 42.635658 ], [ 2.692388844744386, 42.638581461217861 ], [ 2.695565372534579, 42.638887801032752 ], [ 2.698383, 42.6353 ], [ 2.700829, 42.634525 ], [ 2.704855796583661, 42.631396477499074 ], [ 2.702967, 42.62558 ], [ 2.702438, 42.62516 ], [ 2.702042, 42.624595 ], [ 2.698479, 42.621285 ], [ 2.6976, 42.620812 ], [ 2.697185, 42.620586 ], [ 2.690231, 42.619584 ], [ 2.689504, 42.619694 ], [ 2.688766, 42.619581 ], [ 2.688401, 42.61945 ], [ 2.688364, 42.617343 ], [ 2.68841, 42.61665 ], [ 2.688894, 42.616013 ], [ 2.689716, 42.615529 ], [ 2.690847, 42.615205 ], [ 2.696051019893435, 42.613566783872102 ], [ 2.688715, 42.614051 ], [ 2.687232, 42.613294 ], [ 2.686404, 42.612726 ], [ 2.686325, 42.612689 ], [ 2.685958, 42.612616 ], [ 2.682163, 42.612827 ], [ 2.681663, 42.616392 ], [ 2.681925, 42.61652 ], [ 2.68685, 42.620061 ], [ 2.687334, 42.62003 ], [ 2.695795, 42.622547 ], [ 2.69625, 42.62294 ] ] ], [ [ [ 2.688480522451499, 42.654275562771289 ], [ 2.68634092146147, 42.655100588937039 ], [ 2.686347672849942, 42.655102849848433 ], [ 2.688480017826661, 42.654276371245764 ], [ 2.688480522451499, 42.654275562771289 ] ] ], [ [ [ 2.841713416914238, 42.582184366706237 ], [ 2.840578979401815, 42.581994041945052 ], [ 2.841751682615222, 42.582915002434355 ], [ 2.841713416914238, 42.582184366706237 ] ] ] ] } },
{ "type": "Feature", "properties": { "codgeo": "66101", "value": 840, "isochrone_group": 14.0, "nb_agences": 1 }, "geometry": { "type": "MultiPolygon", "coordinates": [ [ [ [ 2.775801, 42.563459 ], [ 2.768733, 42.561517 ], [ 2.77383, 42.563968 ], [ 2.774218, 42.564297 ], [ 2.778377163941509, 42.565587826593706 ], [ 2.776996, 42.563799 ], [ 2.776778, 42.563391 ], [ 2.775801, 42.563459 ] ] ], [ [ [ 2.793215, 42.569445 ], [ 2.793487, 42.569147 ], [ 2.794617, 42.56759 ], [ 2.795203, 42.567756 ], [ 2.796786, 42.568231 ], [ 2.793083, 42.56688 ], [ 2.791014, 42.566126 ], [ 2.784475473970425, 42.568287838476969 ], [ 2.784789, 42.569712 ], [ 2.793215, 42.569445 ] ] ], [ [ [ 2.798737, 42.569482 ], [ 2.797778640713213, 42.568867490790481 ], [ 2.796477255517772, 42.571219003643627 ], [ 2.796523, 42.571271 ], [ 2.796403737844573, 42.571581719369661 ], [ 2.79747, 42.577142 ], [ 2.803993, 42.577497 ], [ 2.804232, 42.577321 ], [ 2.804402, 42.577212 ], [ 2.805282458996873, 42.57664953636781 ], [ 2.801282, 42.571345 ], [ 2.798737, 42.569482 ] ] ], [ [ [ 2.762558, 42.572434 ], [ 2.760209, 42.575162 ], [ 2.755965, 42.5758 ], [ 2.751332, 42.57494 ], [ 2.743751, 42.577716 ], [ 2.740628, 42.579727 ], [ 2.736213, 42.585051 ], [ 2.727684, 42.586771 ], [ 2.72426, 42.587884 ], [ 2.724415, 42.58836 ], [ 2.724703, 42.588956 ], [ 2.725089, 42.589791 ], [ 2.725204, 42.590111 ], [ 2.725616, 42.59089 ], [ 2.726294, 42.593574 ], [ 2.720481, 42.599553 ], [ 2.717076, 42.599016 ], [ 2.716339, 42.598906 ], [ 2.715456, 42.602421 ], [ 2.716015, 42.604042 ], [ 2.717087, 42.605143 ], [ 2.717419, 42.605458 ], [ 2.717827, 42.605749 ], [ 2.719618, 42.6076 ], [ 2.720192756178212, 42.613864416597188 ], [ 2.721108, 42.613451 ], [ 2.720368, 42.605213 ], [ 2.720974, 42.60174 ], [ 2.721043, 42.601677 ], [ 2.724177, 42.599115 ], [ 2.728576, 42.593016 ], [ 2.729244, 42.5895 ], [ 2.73019, 42.589647 ], [ 2.731636, 42.589925 ], [ 2.732253, 42.590081 ], [ 2.73996, 42.585977 ], [ 2.742144, 42.585127 ], [ 2.747485270684648, 42.58154597290865 ], [ 2.747448, 42.581008 ], [ 2.7475, 42.578505 ], [ 2.748827, 42.577682 ], [ 2.753094, 42.577076 ], [ 2.754456, 42.577107 ], [ 2.754868, 42.577434 ], [ 2.761721926358892, 42.578075934913414 ], [ 2.764679581630363, 42.576070952532795 ], [ 2.765223, 42.575075 ], [ 2.763925270851488, 42.570151048987526 ], [ 2.763040385382452, 42.568028931736421 ], [ 2.761773, 42.567148 ], [ 2.761048, 42.566433 ], [ 2.76069, 42.566136 ], [ 2.760707, 42.564884 ], [ 2.760763, 42.564491 ], [ 2.761725, 42.559563 ], [ 2.763098, 42.557445 ], [ 2.764075, 42.557626 ], [ 2.764917, 42.557964 ], [ 2.765598, 42.558636 ], [ 2.768733, 42.561517 ], [ 2.764179, 42.555861 ], [ 2.763694, 42.555359 ], [ 2.761854, 42.553725 ], [ 2.761127, 42.55351 ], [ 2.760482, 42.553411 ], [ 2.759841, 42.553491 ], [ 2.757407, 42.555732 ], [ 2.754991, 42.562127 ], [ 2.755072, 42.562248 ], [ 2.755994, 42.563209 ], [ 2.756585, 42.563776 ], [ 2.757523, 42.564698 ], [ 2.757889, 42.565146 ], [ 2.758367, 42.565562 ], [ 2.758901, 42.56583 ], [ 2.762558, 42.572434 ] ] ], [ [ [ 2.678313, 42.618201 ], [ 2.683928, 42.619495 ], [ 2.685653, 42.619919 ], [ 2.686233, 42.620048 ], [ 2.686726, 42.620065 ], [ 2.691923, 42.621411 ], [ 2.694241, 42.622799 ], [ 2.694653, 42.62285 ], [ 2.695332, 42.622982 ], [ 2.696519, 42.623266 ], [ 2.69784, 42.631741 ], [ 2.690521119117257, 42.635502053249205 ], [ 2.693593034559151, 42.635481297063791 ], [ 2.698095, 42.633182 ], [ 2.698397, 42.632665 ], [ 2.698682, 42.632206 ], [ 2.698752, 42.632149 ], [ 2.701617076735813, 42.625570644479538 ], [ 2.69625, 42.62294 ], [ 2.695795, 42.622547 ], [ 2.687334, 42.62003 ], [ 2.68685, 42.620061 ], [ 2.681925, 42.61652 ], [ 2.681663, 42.616392 ], [ 2.682163, 42.612827 ], [ 2.685958, 42.612616 ], [ 2.686325, 42.612689 ], [ 2.686404, 42.612726 ], [ 2.687232, 42.613294 ], [ 2.688715, 42.614051 ], [ 2.696275, 42.613552 ], [ 2.700176, 42.611026 ], [ 2.701379, 42.611109 ], [ 2.70188, 42.611259 ], [ 2.702386, 42.61149 ], [ 2.703015, 42.611981 ], [ 2.707388, 42.614564 ], [ 2.708612, 42.614842 ], [ 2.709528, 42.615007 ], [ 2.706038, 42.61028 ], [ 2.700104, 42.608537 ], [ 2.697593, 42.609468 ], [ 2.688717, 42.61022 ], [ 2.68777, 42.610283 ], [ 2.680558, 42.61077 ], [ 2.677658, 42.610357 ], [ 2.676701, 42.610168 ], [ 2.676168, 42.610182 ], [ 2.674608, 42.610378 ], [ 2.673076, 42.612876 ], [ 2.673079, 42.612882 ], [ 2.673141, 42.613031 ], [ 2.673217, 42.613152 ], [ 2.675729, 42.615682 ], [ 2.678313, 42.618201 ] ] ] ] } },
{ "type": "Feature", "properties": { "codgeo": "66101", "value": 900, "isochrone_group": 15.0, "nb_agences": 1 }, "geometry": { "type": "MultiPolygon", "coordinates": [ [ [ [ 2.779013, 42.562115 ], [ 2.778746, 42.562223 ], [ 2.778381, 42.562429 ], [ 2.775574188966, 42.563396681518391 ], [ 2.775609464007428, 42.563406373670404 ], [ 2.778297, 42.562635 ], [ 2.780134, 42.565731 ], [ 2.78312, 42.568736 ], [ 2.789867, 42.565336 ], [ 2.793534113825259, 42.567044584061023 ], [ 2.793543439610894, 42.567047986474286 ], [ 2.789653, 42.565221 ], [ 2.783478, 42.561887 ], [ 2.78326, 42.561824 ], [ 2.781705, 42.561482 ], [ 2.781025, 42.561458 ], [ 2.780603, 42.561494 ], [ 2.779929, 42.561669 ], [ 2.779013, 42.562115 ] ] ], [ [ [ 2.748403, 42.559599 ], [ 2.748579, 42.559795 ], [ 2.749572, 42.56118 ], [ 2.749802, 42.561231 ], [ 2.752125, 42.562155 ], [ 2.752384, 42.562172 ], [ 2.756585, 42.563776 ], [ 2.753943, 42.561692 ], [ 2.754247, 42.558105 ], [ 2.756089, 42.552331 ], [ 2.757714, 42.551605 ], [ 2.759554, 42.551984 ], [ 2.763952, 42.553386 ], [ 2.765078056890176, 42.556977615232931 ], [ 2.768733, 42.561517 ], [ 2.769135366844288, 42.561627554104646 ], [ 2.768405, 42.556949 ], [ 2.768623, 42.554211 ], [ 2.767667, 42.553426 ], [ 2.764321, 42.553405 ], [ 2.758293, 42.548368 ], [ 2.757442, 42.547297 ], [ 2.756632, 42.546995 ], [ 2.755979, 42.546913 ], [ 2.754861926675451, 42.54841873873918 ], [ 2.754838, 42.549394 ], [ 2.75407, 42.550064 ], [ 2.753718, 42.550251 ], [ 2.753629507144539, 42.550281300430811 ], [ 2.74915, 42.556287 ], [ 2.748385, 42.557399 ], [ 2.748308, 42.558206 ], [ 2.748403, 42.559599 ] ] ], [ [ [ 2.736213, 42.585051 ], [ 2.739243996626821, 42.581395954464064 ], [ 2.739105, 42.580069 ], [ 2.741162, 42.576228 ], [ 2.74761, 42.575668 ], [ 2.750861, 42.574537 ], [ 2.751032, 42.574549 ], [ 2.75429, 42.574389 ], [ 2.759417, 42.574255 ], [ 2.758901, 42.56583 ], [ 2.758367, 42.565562 ], [ 2.757889, 42.565146 ], [ 2.757523, 42.564698 ], [ 2.7538, 42.572382 ], [ 2.749289, 42.571393 ], [ 2.749198, 42.571369 ], [ 2.745907, 42.572627 ], [ 2.742163, 42.57523 ], [ 2.738727, 42.576303 ], [ 2.734572, 42.580076 ], [ 2.726003, 42.582159 ], [ 2.723503, 42.582796 ], [ 2.721288, 42.585634 ], [ 2.721829, 42.586055 ], [ 2.722911, 42.586799 ], [ 2.724703, 42.588956 ], [ 2.724415, 42.58836 ], [ 2.72426, 42.587884 ], [ 2.727684, 42.586771 ], [ 2.736213, 42.585051 ] ] ], [ [ [ 2.68777, 42.610283 ], [ 2.688717, 42.61022 ], [ 2.697593, 42.609468 ], [ 2.700104, 42.608537 ], [ 2.706038, 42.61028 ], [ 2.709528, 42.615007 ], [ 2.710874, 42.615528 ], [ 2.711357, 42.615757 ], [ 2.713789, 42.616757 ], [ 2.720192756178212, 42.613864416597188 ], [ 2.719618, 42.6076 ], [ 2.717827, 42.605749 ], [ 2.717419, 42.605458 ], [ 2.717087, 42.605143 ], [ 2.716015, 42.604042 ], [ 2.715456, 42.602421 ], [ 2.716339, 42.598906 ], [ 2.717076, 42.599016 ], [ 2.720481, 42.599553 ], [ 2.726294, 42.593574 ], [ 2.725616, 42.59089 ], [ 2.725204, 42.590111 ], [ 2.725089, 42.589791 ], [ 2.724703, 42.588956 ], [ 2.721954, 42.597239 ], [ 2.716291, 42.598722 ], [ 2.715803, 42.598629 ], [ 2.714208, 42.598306 ], [ 2.713977, 42.598266 ], [ 2.710614, 42.598079 ], [ 2.708563, 42.598521 ], [ 2.708117, 42.60006 ], [ 2.70818, 42.601338 ], [ 2.704162, 42.609016 ], [ 2.699363, 42.607852 ], [ 2.698483, 42.607366 ], [ 2.690224, 42.608789 ], [ 2.68947, 42.608851 ], [ 2.688515, 42.609214 ], [ 2.683750150980584, 42.610554445711664 ], [ 2.68777, 42.610283 ] ] ], [ [ [ 2.683928, 42.619495 ], [ 2.678313, 42.618201 ], [ 2.675729, 42.615682 ], [ 2.673217, 42.613152 ], [ 2.673141, 42.613031 ], [ 2.673079, 42.612882 ], [ 2.673076, 42.612876 ], [ 2.674608, 42.610378 ], [ 2.676168, 42.610182 ], [ 2.676701, 42.610168 ], [ 2.677658, 42.610357 ], [ 2.680558, 42.61077 ], [ 2.681205688085158, 42.610726263990919 ], [ 2.677721, 42.60844 ], [ 2.677032, 42.608238 ], [ 2.668729, 42.608716 ], [ 2.668583, 42.609209 ], [ 2.66852, 42.609891 ], [ 2.668528, 42.610398 ], [ 2.66862, 42.611874 ], [ 2.668659, 42.612355 ], [ 2.668707, 42.612864 ], [ 2.669359, 42.61408 ], [ 2.671391, 42.618015 ], [ 2.673347, 42.619435 ], [ 2.677985, 42.622316 ], [ 2.678583, 42.62205 ], [ 2.6792, 42.621612 ], [ 2.684979668232613, 42.619753497003266 ], [ 2.683928, 42.619495 ] ] ], [ [ [ 2.696484, 42.631007 ], [ 2.697615, 42.630415 ], [ 2.697611277941571, 42.630273612077836 ], [ 2.697444302665788, 42.629202366459168 ], [ 2.696230812004413, 42.631077314746939 ], [ 2.696484, 42.631007 ] ] ], [ [ [ 2.689099740848103, 42.633063033684692 ], [ 2.689106, 42.633056 ], [ 2.694276537703182, 42.631620050995679 ], [ 2.687043, 42.631812 ], [ 2.688828, 42.632905 ], [ 2.689099740848103, 42.633063033684692 ] ] ] ] } },
{ "type": "Feature", "properties": { "codgeo": "66101", "value": 960, "isochrone_group": 16.0, "nb_agences": 1 }, "geometry": { "type": "MultiPolygon", "coordinates": [ [ [ [ 2.777564796779111, 42.562710395777117 ], [ 2.774866, 42.555932 ], [ 2.773645, 42.552546 ], [ 2.771547, 42.552697 ], [ 2.771029, 42.552704 ], [ 2.762469, 42.550395 ], [ 2.757743143045528, 42.54661030620673 ], [ 2.758587, 42.548086 ], [ 2.759004753526659, 42.548962741624713 ], [ 2.761122356863879, 42.550732212097437 ], [ 2.764835897760578, 42.553408231575901 ], [ 2.765816627146539, 42.553414386781228 ], [ 2.768931, 42.553016 ], [ 2.769706, 42.552894 ], [ 2.77017, 42.55464 ], [ 2.770268, 42.55645 ], [ 2.775713806634114, 42.563348546665189 ], [ 2.777564796779111, 42.562710395777117 ] ] ], [ [ [ 2.748385, 42.557399 ], [ 2.74915, 42.556287 ], [ 2.74958118798954, 42.554737209821113 ], [ 2.749003, 42.554768 ], [ 2.745577, 42.555675 ], [ 2.745211657546842, 42.555660234316335 ], [ 2.745611, 42.556413 ], [ 2.747819, 42.558706 ], [ 2.748201776214365, 42.558944159113885 ], [ 2.748385, 42.557399 ] ] ], [ [ [ 2.748684, 42.570299 ], [ 2.751352, 42.562584 ], [ 2.749318, 42.561104 ], [ 2.748701, 42.56086 ], [ 2.748447, 42.56073 ], [ 2.748259982199305, 42.559723857638538 ], [ 2.745336, 42.567523 ], [ 2.745111, 42.567942 ], [ 2.744907, 42.568468 ], [ 2.744805, 42.569107 ], [ 2.745202, 42.570342 ], [ 2.74308510017929, 42.574588913790933 ], [ 2.743861440373481, 42.574049166588622 ], [ 2.74549, 42.571742 ], [ 2.748684, 42.570299 ] ] ], [ [ [ 2.721288, 42.585634 ], [ 2.723503, 42.582796 ], [ 2.726003, 42.582159 ], [ 2.733395011803201, 42.580362108812466 ], [ 2.733816, 42.577633 ], [ 2.734002, 42.577592 ], [ 2.734379, 42.577557 ], [ 2.734748, 42.577673 ], [ 2.737744528522222, 42.577195145580191 ], [ 2.738727, 42.576303 ], [ 2.73922809749088, 42.576146516412194 ], [ 2.736738, 42.575848 ], [ 2.73139, 42.576633 ], [ 2.730837, 42.576693 ], [ 2.729923, 42.576757 ], [ 2.729608, 42.576819 ], [ 2.728449, 42.577106 ], [ 2.726597, 42.578652 ], [ 2.718256, 42.580468 ], [ 2.717723, 42.580384 ], [ 2.717595, 42.580385 ], [ 2.716674, 42.58244 ], [ 2.716647, 42.583858 ], [ 2.717515, 42.58594 ], [ 2.717831, 42.585864 ], [ 2.722911, 42.586799 ], [ 2.721829, 42.586055 ], [ 2.721288, 42.585634 ] ] ], [ [ [ 2.704162, 42.609016 ], [ 2.70818, 42.601338 ], [ 2.708117, 42.60006 ], [ 2.708563, 42.598521 ], [ 2.710614, 42.598079 ], [ 2.713977, 42.598266 ], [ 2.714208, 42.598306 ], [ 2.715803, 42.598629 ], [ 2.716291, 42.598722 ], [ 2.721954, 42.597239 ], [ 2.724703, 42.588956 ], [ 2.722911, 42.586799 ], [ 2.721715, 42.595005 ], [ 2.721255, 42.595561 ], [ 2.713229, 42.596977 ], [ 2.712779, 42.596765 ], [ 2.712351, 42.596624 ], [ 2.711634, 42.596312 ], [ 2.710537, 42.595805 ], [ 2.709703, 42.595652 ], [ 2.709503, 42.595612 ], [ 2.708706, 42.595657 ], [ 2.708338, 42.595781 ], [ 2.708108, 42.595884 ], [ 2.703133, 42.600715 ], [ 2.702858, 42.601025 ], [ 2.698483, 42.607366 ], [ 2.699363, 42.607852 ], [ 2.704162, 42.609016 ] ] ], [ [ [ 2.672103, 42.624446 ], [ 2.672885, 42.625078 ], [ 2.675668, 42.625171 ], [ 2.675843, 42.625084 ], [ 2.677465, 42.624305 ], [ 2.682007, 42.631883 ], [ 2.682894, 42.630249 ], [ 2.684625, 42.63015 ], [ 2.685618, 42.630324 ], [ 2.687617784280234, 42.63179674753642 ], [ 2.694313892293977, 42.63161905975506 ], [ 2.69537936497247, 42.631296666865516 ], [ 2.694525, 42.62284 ], [ 2.68814, 42.619871 ], [ 2.687334, 42.62003 ], [ 2.686726, 42.620065 ], [ 2.686233, 42.620048 ], [ 2.685653, 42.619919 ], [ 2.685223361184466, 42.61967513539787 ], [ 2.6792, 42.621612 ], [ 2.678583, 42.62205 ], [ 2.677985, 42.622316 ], [ 2.673347, 42.619435 ], [ 2.671391, 42.618015 ], [ 2.669359, 42.61408 ], [ 2.668707, 42.612864 ], [ 2.668659, 42.612355 ], [ 2.66862, 42.611874 ], [ 2.668528, 42.610398 ], [ 2.66852, 42.609891 ], [ 2.668583, 42.609209 ], [ 2.668729, 42.608716 ], [ 2.677032, 42.608238 ], [ 2.677721, 42.60844 ], [ 2.681309472428126, 42.610794355711135 ], [ 2.682733309544163, 42.610840503200002 ], [ 2.688515, 42.609214 ], [ 2.68947, 42.608851 ], [ 2.690224, 42.608789 ], [ 2.698483, 42.607366 ], [ 2.691856, 42.605247 ], [ 2.689223, 42.605674 ], [ 2.683278, 42.605798 ], [ 2.679949, 42.605052 ], [ 2.672052, 42.60466 ], [ 2.666668, 42.603023 ], [ 2.665799, 42.602839 ], [ 2.665325, 42.602879 ], [ 2.663259, 42.603156 ], [ 2.663548, 42.606676 ], [ 2.663557, 42.606708 ], [ 2.663578, 42.606741 ], [ 2.666653, 42.610004 ], [ 2.666838, 42.615903 ], [ 2.667283, 42.619138 ], [ 2.668443, 42.620368 ], [ 2.672103, 42.624446 ] ] ], [ [ [ 2.677597648772363, 42.652441003582524 ], [ 2.677938, 42.65223 ], [ 2.678528994249403, 42.651372058194262 ], [ 2.679172154890207, 42.645817061721722 ], [ 2.675857, 42.651561 ], [ 2.674706561099291, 42.652433854503229 ], [ 2.677597648772363, 42.652441003582524 ] ] ] ] } },
{ "type": "Feature", "properties": { "codgeo": "66101", "value": 1020, "isochrone_group": 17.0, "nb_agences": 1 }, "geometry": { "type": "MultiPolygon", "coordinates": [ [ [ [ 2.777659, 42.562947 ], [ 2.777688, 42.562997 ], [ 2.778782, 42.556839 ], [ 2.780375, 42.553611 ], [ 2.776955, 42.551001 ], [ 2.774686, 42.550689 ], [ 2.771029, 42.552704 ], [ 2.771547, 42.552697 ], [ 2.774019, 42.552449 ], [ 2.774649, 42.552415 ], [ 2.77607, 42.552571 ], [ 2.776284, 42.552829 ], [ 2.776623, 42.553398 ], [ 2.776619, 42.555049 ], [ 2.777659, 42.562947 ] ] ], [ [ [ 2.762683, 42.548781 ], [ 2.769348580953839, 42.55225071874095 ], [ 2.771029, 42.552704 ], [ 2.764712, 42.548953 ], [ 2.7608861341606, 42.546122338216385 ], [ 2.760601039580208, 42.547424823331575 ], [ 2.762683, 42.548781 ] ] ], [ [ [ 2.715399, 42.587219 ], [ 2.716125, 42.586893 ], [ 2.716331, 42.586811 ], [ 2.716729, 42.586564 ], [ 2.722684857773769, 42.588350607950218 ], [ 2.722911, 42.586799 ], [ 2.717831, 42.585864 ], [ 2.717515, 42.58594 ], [ 2.716647, 42.583858 ], [ 2.716674, 42.58244 ], [ 2.717595, 42.580385 ], [ 2.717723, 42.580384 ], [ 2.718256, 42.580468 ], [ 2.72651479031128, 42.578669898668593 ], [ 2.72798, 42.577154 ], [ 2.729608, 42.576819 ], [ 2.729923, 42.576757 ], [ 2.730837, 42.576693 ], [ 2.73139, 42.576633 ], [ 2.737136, 42.575656 ], [ 2.738273, 42.575274 ], [ 2.738621, 42.57519 ], [ 2.738965, 42.575131 ], [ 2.744347, 42.568235 ], [ 2.745356, 42.566375 ], [ 2.746511, 42.559442 ], [ 2.744657, 42.556356 ], [ 2.744648695821355, 42.556350186422101 ], [ 2.740664079408669, 42.558111152081075 ], [ 2.741278, 42.558861 ], [ 2.741878, 42.566774 ], [ 2.741392, 42.570341 ], [ 2.734516, 42.575473 ], [ 2.727131, 42.574703 ], [ 2.7264, 42.574423 ], [ 2.724613, 42.574222 ], [ 2.724406, 42.574231 ], [ 2.722425, 42.575418 ], [ 2.714001, 42.577473 ], [ 2.713216, 42.577721 ], [ 2.713018, 42.577837 ], [ 2.712989, 42.580151 ], [ 2.712658, 42.58469 ], [ 2.712892, 42.585758 ], [ 2.713382, 42.586552 ], [ 2.713905, 42.587001 ], [ 2.714757, 42.58727 ], [ 2.715399, 42.587219 ] ] ], [ [ [ 2.708706, 42.595657 ], [ 2.709503, 42.595612 ], [ 2.709703, 42.595652 ], [ 2.710537, 42.595805 ], [ 2.709425, 42.595488 ], [ 2.708706, 42.595657 ] ] ], [ [ [ 2.703133, 42.600715 ], [ 2.708108, 42.595884 ], [ 2.708338, 42.595781 ], [ 2.706447, 42.596587 ], [ 2.705637, 42.597302 ], [ 2.705609, 42.597331 ], [ 2.703133, 42.600715 ] ] ], [ [ [ 2.691884, 42.602223 ], [ 2.684123, 42.601938 ], [ 2.681755, 42.602936 ], [ 2.672879, 42.602745 ], [ 2.672434, 42.602602 ], [ 2.671782, 42.602493 ], [ 2.671314, 42.602488 ], [ 2.671016, 42.602519 ], [ 2.665799, 42.602839 ], [ 2.666668, 42.603023 ], [ 2.672052, 42.60466 ], [ 2.679949, 42.605052 ], [ 2.683278, 42.605798 ], [ 2.689223, 42.605674 ], [ 2.691856, 42.605247 ], [ 2.698483, 42.607366 ], [ 2.702858, 42.601025 ], [ 2.694284, 42.602939 ], [ 2.693808, 42.60269 ], [ 2.691884, 42.602223 ] ] ], [ [ [ 2.675293, 42.629353 ], [ 2.676838, 42.629361 ], [ 2.681882, 42.633171 ], [ 2.682007, 42.631883 ], [ 2.677465, 42.624305 ], [ 2.675843, 42.625084 ], [ 2.675668, 42.625171 ], [ 2.672885, 42.625078 ], [ 2.672103, 42.624446 ], [ 2.668443, 42.620368 ], [ 2.667283, 42.619138 ], [ 2.666838, 42.615903 ], [ 2.666653, 42.610004 ], [ 2.663578, 42.606741 ], [ 2.663557, 42.606708 ], [ 2.663548, 42.606676 ], [ 2.663259, 42.603156 ], [ 2.665325, 42.602879 ], [ 2.665799, 42.602839 ], [ 2.658866, 42.600554 ], [ 2.657299, 42.599626 ], [ 2.656472, 42.600489 ], [ 2.656096, 42.601048 ], [ 2.655999, 42.602226 ], [ 2.656167, 42.602996 ], [ 2.656364, 42.603583 ], [ 2.656585, 42.603851 ], [ 2.657749, 42.604787 ], [ 2.659439, 42.605986 ], [ 2.660124, 42.606315 ], [ 2.661058, 42.606487 ], [ 2.666545, 42.612666 ], [ 2.665767, 42.616679 ], [ 2.665287, 42.617753 ], [ 2.665339, 42.620208 ], [ 2.665622, 42.620412 ], [ 2.668265, 42.622509 ], [ 2.671703, 42.62553 ], [ 2.671909, 42.625741 ], [ 2.673069, 42.627021 ], [ 2.675293, 42.629353 ] ] ] ] } },
{ "type": "Feature", "properties": { "codgeo": "66101", "value": 1080, "isochrone_group": 18.0, "nb_agences": 1 }, "geometry": { "type": "MultiPolygon", "coordinates": [ [ [ [ 2.781984, 42.554423 ], [ 2.780272, 42.557025 ], [ 2.777688, 42.562997 ], [ 2.779526, 42.566092 ], [ 2.786755, 42.563808 ], [ 2.783936, 42.555759 ], [ 2.782014, 42.548839 ], [ 2.775578, 42.547788 ], [ 2.767013, 42.5482 ], [ 2.764161774582738, 42.5459028120043 ], [ 2.76399, 42.546206 ], [ 2.767415434243226, 42.550246998536402 ], [ 2.771029, 42.552704 ], [ 2.77496, 42.549509 ], [ 2.776126, 42.548783 ], [ 2.776621, 42.548783 ], [ 2.777148, 42.548843 ], [ 2.777745, 42.548965 ], [ 2.781707, 42.554105 ], [ 2.781984, 42.554423 ] ] ], [ [ [ 2.688363, 42.598829 ], [ 2.683932, 42.600266 ], [ 2.683216, 42.600625 ], [ 2.674789, 42.600361 ], [ 2.67306, 42.600452 ], [ 2.672357, 42.600968 ], [ 2.669774635490463, 42.602595142733954 ], [ 2.671016, 42.602519 ], [ 2.671314, 42.602488 ], [ 2.671782, 42.602493 ], [ 2.672434, 42.602602 ], [ 2.672879, 42.602745 ], [ 2.681755, 42.602936 ], [ 2.684123, 42.601938 ], [ 2.691884, 42.602223 ], [ 2.693808, 42.60269 ], [ 2.694284, 42.602939 ], [ 2.702858, 42.601025 ], [ 2.703133, 42.600715 ], [ 2.705609, 42.597331 ], [ 2.705637, 42.597302 ], [ 2.706447, 42.596587 ], [ 2.708338, 42.595781 ], [ 2.708706, 42.595657 ], [ 2.709425, 42.595488 ], [ 2.710537, 42.595805 ], [ 2.711634, 42.596312 ], [ 2.712351, 42.596624 ], [ 2.712779, 42.596765 ], [ 2.713229, 42.596977 ], [ 2.714926887201121, 42.59794460717373 ], [ 2.71948765051801, 42.597449112525069 ], [ 2.722936, 42.596076 ], [ 2.724542568981768, 42.589602445302674 ], [ 2.724418054809904, 42.588870523589854 ], [ 2.716729, 42.586564 ], [ 2.716331, 42.586811 ], [ 2.716125, 42.586893 ], [ 2.715399, 42.587219 ], [ 2.714757, 42.58727 ], [ 2.713905, 42.587001 ], [ 2.713382, 42.586552 ], [ 2.712892, 42.585758 ], [ 2.712658, 42.58469 ], [ 2.712989, 42.580151 ], [ 2.713018, 42.577837 ], [ 2.713216, 42.577721 ], [ 2.714001, 42.577473 ], [ 2.722425, 42.575418 ], [ 2.722622815868988, 42.575299470249135 ], [ 2.722785, 42.573251 ], [ 2.723059, 42.573254 ], [ 2.723684, 42.573365 ], [ 2.724245, 42.573603 ], [ 2.7264, 42.574423 ], [ 2.727131, 42.574703 ], [ 2.734516, 42.575473 ], [ 2.737585678883248, 42.57318190168283 ], [ 2.740007, 42.569976 ], [ 2.740982, 42.566511 ], [ 2.740806701155692, 42.559618099453473 ], [ 2.740726420717643, 42.559614987399698 ], [ 2.739805, 42.565755 ], [ 2.738403, 42.567717 ], [ 2.735728, 42.569373 ], [ 2.727713, 42.571999 ], [ 2.726592, 42.571677 ], [ 2.725694, 42.571935 ], [ 2.721559, 42.57248 ], [ 2.721279, 42.572473 ], [ 2.72096, 42.572463 ], [ 2.719579, 42.572516 ], [ 2.718852, 42.572569 ], [ 2.718069, 42.572732 ], [ 2.717325, 42.573021 ], [ 2.712382, 42.574798 ], [ 2.710043, 42.581838 ], [ 2.710502, 42.584005 ], [ 2.711104, 42.585349 ], [ 2.707036, 42.592652 ], [ 2.706813, 42.59288 ], [ 2.705518, 42.594052 ], [ 2.701104, 42.597276 ], [ 2.700041, 42.597947 ], [ 2.691758, 42.599643 ], [ 2.688363, 42.598829 ] ] ], [ [ [ 2.652719672291008, 42.60144583098127 ], [ 2.653265, 42.601163 ], [ 2.656261, 42.599968 ], [ 2.656731122623215, 42.600218597552804 ], [ 2.657299, 42.599626 ], [ 2.658866, 42.600554 ], [ 2.665799, 42.602839 ], [ 2.668711222655768, 42.602660370279878 ], [ 2.663029, 42.599122 ], [ 2.662776, 42.598208 ], [ 2.661949, 42.597422 ], [ 2.661148, 42.597222 ], [ 2.658354, 42.597474 ], [ 2.65741, 42.597724 ], [ 2.656006, 42.598446 ], [ 2.652739, 42.601422 ], [ 2.652719672291008, 42.60144583098127 ] ] ], [ [ [ 2.663197301008685, 42.608896101682639 ], [ 2.661058, 42.606487 ], [ 2.660124, 42.606315 ], [ 2.659439, 42.605986 ], [ 2.657749, 42.604787 ], [ 2.657411021222366, 42.604515223250985 ], [ 2.654615575806405, 42.605881038265935 ], [ 2.658968, 42.607262 ], [ 2.659658, 42.607389 ], [ 2.66082, 42.607453 ], [ 2.663197301008685, 42.608896101682639 ] ] ], [ [ [ 2.666545, 42.612666 ], [ 2.665620664862877, 42.6116250911587 ], [ 2.662887, 42.617938 ], [ 2.662604, 42.618362 ], [ 2.661933, 42.61962 ], [ 2.662285, 42.620345 ], [ 2.663499, 42.621601 ], [ 2.663957, 42.621854 ], [ 2.668383, 42.625966 ], [ 2.669252, 42.629233 ], [ 2.670703, 42.631739 ], [ 2.672013431822512, 42.637828226940499 ], [ 2.673168, 42.638435 ], [ 2.67476, 42.640086 ], [ 2.67938288922532, 42.639086948552354 ], [ 2.681882, 42.633171 ], [ 2.676838, 42.629361 ], [ 2.675293, 42.629353 ], [ 2.673069, 42.627021 ], [ 2.671909, 42.625741 ], [ 2.671703, 42.62553 ], [ 2.668265, 42.622509 ], [ 2.665622, 42.620412 ], [ 2.665339, 42.620208 ], [ 2.665287, 42.617753 ], [ 2.665767, 42.616679 ], [ 2.666545, 42.612666 ] ] ] ] } },
{ "type": "Feature", "properties": { "codgeo": "66101", "value": 1140, "isochrone_group": 19.0, "nb_agences": 1 }, "geometry": { "type": "MultiPolygon", "coordinates": [ [ [ [ 2.813533, 42.560753 ], [ 2.805371, 42.557357 ], [ 2.813411, 42.560899 ], [ 2.813862047974232, 42.56117420824981 ], [ 2.813533, 42.560753 ] ] ], [ [ [ 2.786511450109902, 42.553361342222715 ], [ 2.784415314161334, 42.548220404174579 ], [ 2.781386, 42.547518 ], [ 2.775584, 42.547071 ], [ 2.773465, 42.54653 ], [ 2.772821, 42.546464 ], [ 2.767444613385736, 42.545133386795065 ], [ 2.766419, 42.545922 ], [ 2.767886207175031, 42.548080481358149 ], [ 2.767956, 42.548127 ], [ 2.77519, 42.547505 ], [ 2.778852, 42.547958 ], [ 2.78208, 42.54855 ], [ 2.784258, 42.551233 ], [ 2.784394, 42.555804 ], [ 2.786969831994318, 42.55649573604645 ], [ 2.786511450109902, 42.553361342222715 ] ] ], [ [ [ 2.718069, 42.572732 ], [ 2.720191, 42.57196 ], [ 2.725694, 42.571935 ], [ 2.726592, 42.571677 ], [ 2.727713, 42.571999 ], [ 2.733702409980845, 42.570036655569602 ], [ 2.735763, 42.567644 ], [ 2.73889918278072, 42.567022627235538 ], [ 2.739694931190231, 42.565909033526935 ], [ 2.740514818598644, 42.560877450653791 ], [ 2.738360839196554, 42.559924844620255 ], [ 2.737184073085336, 42.560121163789645 ], [ 2.73246721446797, 42.562992833548847 ], [ 2.733116, 42.566502 ], [ 2.725869, 42.570228 ], [ 2.719936, 42.571242 ], [ 2.719022, 42.57113 ], [ 2.718532, 42.571238 ], [ 2.717428, 42.571516 ], [ 2.709726, 42.573754 ], [ 2.707536, 42.573982 ], [ 2.706935, 42.574131 ], [ 2.706536, 42.577625 ], [ 2.706577, 42.581225 ], [ 2.706877, 42.58535 ], [ 2.705486, 42.590417 ], [ 2.702674, 42.594889 ], [ 2.693969, 42.5965 ], [ 2.693491, 42.596749 ], [ 2.688441628023799, 42.59884785219775 ], [ 2.691758, 42.599643 ], [ 2.700041, 42.597947 ], [ 2.701104, 42.597276 ], [ 2.705518, 42.594052 ], [ 2.706813, 42.59288 ], [ 2.707036, 42.592652 ], [ 2.711104, 42.585349 ], [ 2.710502, 42.584005 ], [ 2.710043, 42.581838 ], [ 2.712382, 42.574798 ], [ 2.717325, 42.573021 ], [ 2.718069, 42.572732 ] ] ], [ [ [ 2.674789, 42.600361 ], [ 2.683216, 42.600625 ], [ 2.683932, 42.600266 ], [ 2.687938489118875, 42.598966671436756 ], [ 2.680375, 42.597214 ], [ 2.675964, 42.599699 ], [ 2.67306, 42.600452 ], [ 2.674789, 42.600361 ] ] ], [ [ [ 2.656637, 42.595786 ], [ 2.651873, 42.596663 ], [ 2.651654, 42.597279 ], [ 2.651631, 42.598435 ], [ 2.651589603756396, 42.598497861272946 ], [ 2.654813, 42.598131 ], [ 2.658354, 42.597474 ], [ 2.661148, 42.597222 ], [ 2.661949, 42.597422 ], [ 2.662776, 42.598208 ], [ 2.663029, 42.599122 ], [ 2.669194, 42.602961 ], [ 2.672357, 42.600968 ], [ 2.67306, 42.600452 ], [ 2.664471, 42.598036 ], [ 2.664007, 42.596859 ], [ 2.663098, 42.596189 ], [ 2.662291, 42.59601 ], [ 2.658589, 42.595484 ], [ 2.656637, 42.595786 ] ] ], [ [ [ 2.660003, 42.607428 ], [ 2.659658, 42.607389 ], [ 2.661181, 42.607968 ], [ 2.661914, 42.60821 ], [ 2.662136881063355, 42.608252391104209 ], [ 2.66086887044356, 42.607482666003214 ], [ 2.660003, 42.607428 ] ] ], [ [ [ 2.665601897645822, 42.611668430681426 ], [ 2.666052, 42.610629 ], [ 2.662689535441474, 42.608587870902547 ], [ 2.665601897645822, 42.611668430681426 ] ] ], [ [ [ 2.66139412760372, 42.617828798012482 ], [ 2.662956943311453, 42.617776478463369 ], [ 2.664115404054282, 42.615101221095507 ], [ 2.66139412760372, 42.617828798012482 ] ] ], [ [ [ 2.670703, 42.631739 ], [ 2.669252, 42.629233 ], [ 2.668383, 42.625966 ], [ 2.664795416745895, 42.622632935756691 ], [ 2.663180935221384, 42.623762756878349 ], [ 2.667682, 42.630165 ], [ 2.667547, 42.630777 ], [ 2.667502, 42.630954 ], [ 2.667052706116618, 42.634516445447872 ], [ 2.667841, 42.634914 ], [ 2.667861046773225, 42.634923992608549 ], [ 2.667862, 42.634924 ], [ 2.668485, 42.635205 ], [ 2.67108498539943, 42.633513984203773 ], [ 2.670703, 42.631739 ] ] ], [ [ [ 2.660896093220964, 42.617827260602589 ], [ 2.661107364902009, 42.617833787088763 ], [ 2.660969, 42.617819 ], [ 2.660896093220964, 42.617827260602589 ] ] ] ] } },
{ "type": "Feature", "properties": { "codgeo": "66101", "value": 1200, "isochrone_group": 20.0, "nb_agences": 1 }, "geometry": { "type": "MultiPolygon", "coordinates": [ [ [ [ 2.777397121987377, 42.546004272460642 ], [ 2.777859357810531, 42.547246299024685 ], [ 2.779472555759605, 42.547370583665028 ], [ 2.777397121987377, 42.546004272460642 ] ] ], [ [ [ 2.801538915225978, 42.553048224154892 ], [ 2.802005, 42.553507 ], [ 2.801568, 42.553022 ], [ 2.801538915225978, 42.553048224154892 ] ] ], [ [ [ 2.702674, 42.594889 ], [ 2.705486, 42.590417 ], [ 2.706877, 42.58535 ], [ 2.706577, 42.581225 ], [ 2.706536, 42.577625 ], [ 2.706910114887892, 42.574348916244894 ], [ 2.706912, 42.57413 ], [ 2.706949, 42.57402 ], [ 2.71032, 42.573281 ], [ 2.716571, 42.571509 ], [ 2.716653, 42.571477 ], [ 2.723334, 42.569382 ], [ 2.725418876743471, 42.570304929880692 ], [ 2.725869, 42.570228 ], [ 2.730891490546226, 42.567645717707293 ], [ 2.731930499638711, 42.565942048386539 ], [ 2.726909, 42.562636 ], [ 2.725776595637818, 42.562234759854398 ], [ 2.723407, 42.5679 ], [ 2.720435, 42.568417 ], [ 2.718206, 42.570978 ], [ 2.709905, 42.572596 ], [ 2.709205, 42.571831 ], [ 2.707818, 42.570411 ], [ 2.707598, 42.570362 ], [ 2.706519, 42.5707 ], [ 2.701622, 42.573479 ], [ 2.697257, 42.577099 ], [ 2.698119, 42.580154 ], [ 2.698483, 42.580484 ], [ 2.702999, 42.582471 ], [ 2.703433, 42.582906 ], [ 2.704435, 42.583468 ], [ 2.703627, 42.592179 ], [ 2.700689, 42.593623 ], [ 2.694615, 42.596168 ], [ 2.693692, 42.596401 ], [ 2.691779, 42.597149 ], [ 2.685461, 42.597779 ], [ 2.682664, 42.595513 ], [ 2.682356, 42.595893 ], [ 2.67585496774321, 42.599727271793853 ], [ 2.675964, 42.599699 ], [ 2.680375, 42.597214 ], [ 2.688078, 42.598999 ], [ 2.693491, 42.596749 ], [ 2.693969, 42.5965 ], [ 2.702674, 42.594889 ] ] ], [ [ [ 2.650114, 42.59538 ], [ 2.650016401401047, 42.596459744657842 ], [ 2.6516, 42.595651 ], [ 2.657751199147548, 42.595613618779431 ], [ 2.658589, 42.595484 ], [ 2.662291, 42.59601 ], [ 2.663098, 42.596189 ], [ 2.664007, 42.596859 ], [ 2.664471, 42.598036 ], [ 2.67306, 42.600452 ], [ 2.664944, 42.596866 ], [ 2.663661, 42.593804 ], [ 2.661737, 42.591568 ], [ 2.661414, 42.591594 ], [ 2.65943, 42.591886 ], [ 2.65125, 42.594346 ], [ 2.650259, 42.595138 ], [ 2.650114, 42.59538 ] ] ], [ [ [ 2.665689228471998, 42.633828812629972 ], [ 2.666580760419654, 42.632884921720468 ], [ 2.66522348366896, 42.633593926922394 ], [ 2.665689228471998, 42.633828812629972 ] ] ], [ [ [ 2.658305, 42.62308 ], [ 2.657747426892778, 42.623673075416313 ], [ 2.660072450380219, 42.622682778788125 ], [ 2.659618362973169, 42.622605487314587 ], [ 2.658305, 42.62308 ] ] ] ] } }
]
}
