{
"type": "FeatureCollection",
"name": "BPCE",
"crs": { "type": "name", "properties": { "name": "urn:ogc:def:crs:OGC:1.3:CRS84" } },
"features": [
{ "type": "Feature", "properties": { "codgeo": "30351", "value": 60, "isochrone_group": 1.0, "nb_agences": 1 }, "geometry": { "type": "Polygon", "coordinates": [ [ [ 4.782841, 43.954091 ], [ 4.78301, 43.953818 ], [ 4.783163, 43.953668 ], [ 4.784119, 43.952724 ], [ 4.784192, 43.952713 ], [ 4.789456, 43.952947 ], [ 4.793952, 43.95319 ], [ 4.79408, 43.953527 ], [ 4.792217, 43.955245 ], [ 4.790908, 43.956509 ], [ 4.790557, 43.95659 ], [ 4.787733, 43.955718 ], [ 4.78375, 43.955898 ], [ 4.783696, 43.955868 ], [ 4.782732, 43.95488 ], [ 4.782626, 43.954716 ], [ 4.782841, 43.954091 ] ] ] } },
{ "type": "Feature", "properties": { "codgeo": "30351", "value": 120, "isochrone_group": 2.0, "nb_agences": 1 }, "geometry": { "type": "Polygon", "coordinates": [ [ [ 4.776652, 43.958321 ], [ 4.778791, 43.958395 ], [ 4.781279, 43.958174 ], [ 4.783011, 43.957931 ], [ 4.787387, 43.957338 ], [ 4.789887, 43.957417 ], [ 4.794114, 43.958241 ], [ 4.795852, 43.958458 ], [ 4.797886, 43.958773 ], [ 4.798113, 43.958494 ], [ 4.797938, 43.958352 ], [ 4.797402, 43.957848 ], [ 4.797831, 43.952284 ], [ 4.79792, 43.952049 ], [ 4.797826, 43.951826 ], [ 4.793463, 43.951741 ], [ 4.788622, 43.94904 ], [ 4.788278, 43.948614 ], [ 4.787064, 43.949379 ], [ 4.782102, 43.951071 ], [ 4.780852, 43.953257 ], [ 4.780806, 43.953542 ], [ 4.777308, 43.957826 ], [ 4.776668, 43.957956 ], [ 4.776603, 43.957965 ], [ 4.776652, 43.958321 ] ], [ [ 4.78301, 43.953818 ], [ 4.783163, 43.953668 ], [ 4.784119, 43.952724 ], [ 4.784192, 43.952713 ], [ 4.789456, 43.952947 ], [ 4.793952, 43.95319 ], [ 4.79408, 43.953527 ], [ 4.792217, 43.955245 ], [ 4.790908, 43.956509 ], [ 4.790557, 43.95659 ], [ 4.787733, 43.955718 ], [ 4.78375, 43.955898 ], [ 4.783696, 43.955868 ], [ 4.782732, 43.95488 ], [ 4.782626, 43.954716 ], [ 4.782841, 43.954091 ], [ 4.78301, 43.953818 ] ] ] } },
{ "type": "Feature", "properties": { "codgeo": "30351", "value": 180, "isochrone_group": 3.0, "nb_agences": 1 }, "geometry": { "type": "Polygon", "coordinates": [ [ [ 4.791723, 43.959711 ], [ 4.798984, 43.963334 ], [ 4.800818, 43.96409 ], [ 4.801031, 43.9638 ], [ 4.801496, 43.959605 ], [ 4.801482, 43.959442 ], [ 4.802316, 43.950582 ], [ 4.802374, 43.950442 ], [ 4.802097, 43.950159 ], [ 4.798395, 43.950883 ], [ 4.791294, 43.947901 ], [ 4.783396, 43.944868 ], [ 4.775232, 43.947914 ], [ 4.775277, 43.948272 ], [ 4.775169094587126, 43.955501662662627 ], [ 4.77835779323531, 43.956540318404763 ], [ 4.780806, 43.953542 ], [ 4.780852, 43.953257 ], [ 4.782102, 43.951071 ], [ 4.787064, 43.949379 ], [ 4.788278, 43.948614 ], [ 4.788622, 43.94904 ], [ 4.793463, 43.951741 ], [ 4.797826, 43.951826 ], [ 4.79792, 43.952049 ], [ 4.797831, 43.952284 ], [ 4.797402, 43.957848 ], [ 4.797938, 43.958352 ], [ 4.798113, 43.958494 ], [ 4.797886, 43.958773 ], [ 4.795852, 43.958458 ], [ 4.794114, 43.958241 ], [ 4.789887, 43.957417 ], [ 4.787387, 43.957338 ], [ 4.783844593430628, 43.957818038184556 ], [ 4.783316002576466, 43.960326588850947 ], [ 4.789336, 43.958299 ], [ 4.791723, 43.959711 ] ] ] } },
{ "type": "Feature", "properties": { "codgeo": "30351", "value": 240, "isochrone_group": 4.0, "nb_agences": 1 }, "geometry": { "type": "MultiPolygon", "coordinates": [ [ [ [ 4.796349, 43.963299 ], [ 4.796744, 43.963692 ], [ 4.799521, 43.968082 ], [ 4.80471, 43.968265 ], [ 4.80503, 43.968208 ], [ 4.805219, 43.967936 ], [ 4.804795, 43.962695 ], [ 4.809978, 43.959969 ], [ 4.810127, 43.959641 ], [ 4.806396584844634, 43.953643908161794 ], [ 4.804107, 43.953092 ], [ 4.803784, 43.953001 ], [ 4.803444, 43.952904 ], [ 4.803183, 43.952805 ], [ 4.803119983805803, 43.952780506072941 ], [ 4.802952, 43.952717 ], [ 4.802952591753387, 43.952715442024285 ], [ 4.8029, 43.952695 ], [ 4.802605, 43.952534 ], [ 4.802293, 43.952363 ], [ 4.802157473639111, 43.952266104984979 ], [ 4.801482, 43.959442 ], [ 4.801496, 43.959605 ], [ 4.801031, 43.9638 ], [ 4.800818, 43.96409 ], [ 4.798984, 43.963334 ], [ 4.791723, 43.959711 ], [ 4.789336, 43.958299 ], [ 4.788572447116357, 43.958556171424675 ], [ 4.787878, 43.961862 ], [ 4.786007994510682, 43.964050982971514 ], [ 4.786238, 43.963837 ], [ 4.792331, 43.961196 ], [ 4.796349, 43.963299 ] ] ], [ [ [ 4.804095, 43.94988 ], [ 4.802101, 43.94915 ], [ 4.795589717524219, 43.945587777479396 ], [ 4.794114, 43.945123 ], [ 4.793953, 43.944801 ], [ 4.794099452958786, 43.944587874394756 ], [ 4.792669, 43.944602 ], [ 4.792571, 43.944609 ], [ 4.783869062980192, 43.945049666247009 ], [ 4.791294, 43.947901 ], [ 4.798395, 43.950883 ], [ 4.802097, 43.950159 ], [ 4.802374, 43.950442 ], [ 4.802316, 43.950582 ], [ 4.802208534658705, 43.951723658182111 ], [ 4.805748248852488, 43.952588803098081 ], [ 4.804095, 43.94988 ] ] ], [ [ [ 4.781507, 43.943033 ], [ 4.780602, 43.942596 ], [ 4.779697, 43.942159 ], [ 4.777632, 43.941157 ], [ 4.777087, 43.940885 ], [ 4.776542, 43.940614 ], [ 4.77559, 43.940401 ], [ 4.772958, 43.940095 ], [ 4.772842, 43.940436 ], [ 4.770864, 43.948815 ], [ 4.767603, 43.949681 ], [ 4.767381, 43.949692 ], [ 4.767165, 43.949703 ], [ 4.766841, 43.949708 ], [ 4.766523, 43.949713 ], [ 4.765607, 43.949697 ], [ 4.764687, 43.94968 ], [ 4.764263, 43.949681 ], [ 4.763836, 43.949681 ], [ 4.763595, 43.949685 ], [ 4.763345, 43.949689 ], [ 4.763011, 43.949713 ], [ 4.762663, 43.949737 ], [ 4.762272, 43.949796 ], [ 4.761867, 43.949858 ], [ 4.76166, 43.949906 ], [ 4.761446, 43.949956 ], [ 4.761255, 43.950008 ], [ 4.761049, 43.950065 ], [ 4.760708, 43.950192 ], [ 4.760356, 43.950324 ], [ 4.760167, 43.950409 ], [ 4.759961, 43.950503 ], [ 4.759622, 43.9507 ], [ 4.759284, 43.950898 ], [ 4.759465, 43.951209 ], [ 4.759804, 43.951011 ], [ 4.760834, 43.95053 ], [ 4.761741, 43.950257 ], [ 4.762326, 43.950152 ], [ 4.763036, 43.950072 ], [ 4.763601, 43.950045 ], [ 4.763842, 43.950041 ], [ 4.764263, 43.950041 ], [ 4.764687, 43.95004 ], [ 4.7656, 43.950057 ], [ 4.767048929800758, 43.954073086819832 ], [ 4.770718, 43.953197 ], [ 4.773736, 43.952982 ], [ 4.775205764450327, 43.953044781828076 ], [ 4.775277, 43.948272 ], [ 4.775232, 43.947914 ], [ 4.783395696731223, 43.944868113150022 ], [ 4.783258, 43.94477 ], [ 4.781507, 43.943033 ] ] ] ] } },
{ "type": "Feature", "properties": { "codgeo": "30351", "value": 300, "isochrone_group": 5.0, "nb_agences": 1 }, "geometry": { "type": "MultiPolygon", "coordinates": [ [ [ [ 4.805455, 43.972381 ], [ 4.807403, 43.97092 ], [ 4.808579, 43.969622 ], [ 4.815267, 43.965949 ], [ 4.816975, 43.963583 ], [ 4.816991, 43.963506 ], [ 4.817029, 43.962809 ], [ 4.816705, 43.962116 ], [ 4.814655016654834, 43.955357358259903 ], [ 4.811353, 43.955496 ], [ 4.809422, 43.95548 ], [ 4.807499298297711, 43.955416652903033 ], [ 4.810127, 43.959641 ], [ 4.809978, 43.959969 ], [ 4.804795, 43.962695 ], [ 4.805219, 43.967936 ], [ 4.80503, 43.968208 ], [ 4.80471, 43.968265 ], [ 4.799521, 43.968082 ], [ 4.796744, 43.963692 ], [ 4.796349, 43.963299 ], [ 4.792331, 43.961196 ], [ 4.790342882994707, 43.962057745775631 ], [ 4.790169, 43.9625 ], [ 4.792722, 43.967831 ], [ 4.791998, 43.97054 ], [ 4.79176, 43.970622 ], [ 4.789949817095597, 43.970835095200044 ], [ 4.794345, 43.971145 ], [ 4.801894, 43.971857 ], [ 4.805455, 43.972381 ] ] ], [ [ [ 4.792649, 43.943544 ], [ 4.785863, 43.94383 ], [ 4.784706, 43.942975 ], [ 4.783021, 43.941972 ], [ 4.780402, 43.9407 ], [ 4.778354, 43.939706 ], [ 4.777164, 43.939116 ], [ 4.775778, 43.938506 ], [ 4.774656, 43.938069 ], [ 4.772566, 43.937369 ], [ 4.771444, 43.93707 ], [ 4.765773, 43.936841 ], [ 4.759207, 43.936422 ], [ 4.758748, 43.939993 ], [ 4.759680075603905, 43.948744428840897 ], [ 4.760099, 43.948571 ], [ 4.760652, 43.948383 ], [ 4.761136, 43.948258 ], [ 4.762288, 43.948052 ], [ 4.76287, 43.947999 ], [ 4.763495, 43.94797 ], [ 4.768014, 43.947907 ], [ 4.768167172915289, 43.94953117671124 ], [ 4.770864, 43.948815 ], [ 4.772842, 43.940436 ], [ 4.772958, 43.940095 ], [ 4.77559, 43.940401 ], [ 4.776542, 43.940614 ], [ 4.777087, 43.940885 ], [ 4.777632, 43.941157 ], [ 4.779697, 43.942159 ], [ 4.780602, 43.942596 ], [ 4.781507, 43.943033 ], [ 4.783258, 43.94477 ], [ 4.783665, 43.94506 ], [ 4.792458177614078, 43.944614713327667 ], [ 4.792804844467466, 43.943350554454668 ], [ 4.792649, 43.943544 ] ] ] ] } },
{ "type": "Feature", "properties": { "codgeo": "30351", "value": 360, "isochrone_group": 6.0, "nb_agences": 1 }, "geometry": { "type": "MultiPolygon", "coordinates": [ [ [ [ 4.796546, 43.977278 ], [ 4.79659, 43.977278 ], [ 4.797307, 43.977139 ], [ 4.801943, 43.976122 ], [ 4.809335, 43.974179 ], [ 4.809398, 43.974128 ], [ 4.81113, 43.970978 ], [ 4.816983, 43.968205 ], [ 4.820554, 43.967749 ], [ 4.820293, 43.965697 ], [ 4.82016, 43.965181 ], [ 4.819857, 43.964286 ], [ 4.819752, 43.964061 ], [ 4.819407, 43.963593 ], [ 4.820319970180207, 43.95613721840742 ], [ 4.814716, 43.955095 ], [ 4.814583933125575, 43.955123001181349 ], [ 4.816705, 43.962116 ], [ 4.817029, 43.962809 ], [ 4.816991, 43.963506 ], [ 4.816975, 43.963583 ], [ 4.815267, 43.965949 ], [ 4.808579, 43.969622 ], [ 4.807403, 43.97092 ], [ 4.805455, 43.972381 ], [ 4.801894, 43.971857 ], [ 4.795394201515807, 43.971243957673778 ], [ 4.795366, 43.971277 ], [ 4.793971, 43.972344 ], [ 4.793106, 43.972898 ], [ 4.792299270566232, 43.973234733749806 ], [ 4.794593, 43.975514 ], [ 4.795945, 43.977182 ], [ 4.796546, 43.977278 ] ] ], [ [ [ 4.79107, 43.938682 ], [ 4.78729, 43.938029 ], [ 4.780402, 43.9407 ], [ 4.783021, 43.941972 ], [ 4.784706, 43.942975 ], [ 4.785863, 43.94383 ], [ 4.788286231823081, 43.943727871455728 ], [ 4.789647, 43.940859 ], [ 4.789781, 43.940525 ], [ 4.791101365368176, 43.938678954362153 ], [ 4.79107, 43.938682 ] ] ], [ [ [ 4.770103, 43.936768 ], [ 4.769109, 43.936562 ], [ 4.768035, 43.936387 ], [ 4.766862, 43.936227 ], [ 4.765759, 43.936123 ], [ 4.764662, 43.93605 ], [ 4.755976, 43.935836 ], [ 4.75545, 43.935707 ], [ 4.754146, 43.935351 ], [ 4.753485, 43.935142 ], [ 4.75248, 43.934798 ], [ 4.749405, 43.933492 ], [ 4.748209, 43.93286 ], [ 4.746503, 43.93603 ], [ 4.749307, 43.938399 ], [ 4.751216, 43.939315 ], [ 4.751571, 43.939542 ], [ 4.751687, 43.93957 ], [ 4.757822, 43.943335 ], [ 4.757196834794871, 43.949773584383429 ], [ 4.758327, 43.949473 ], [ 4.758687, 43.949244 ], [ 4.759384, 43.948867 ], [ 4.759680075603905, 43.948744428840897 ], [ 4.758748, 43.939993 ], [ 4.759207, 43.936422 ], [ 4.765773, 43.936841 ], [ 4.7714396991107, 43.937069826326294 ], [ 4.77135, 43.937046 ], [ 4.770103, 43.936768 ] ] ], [ [ [ 4.774931681105829, 43.974817811938735 ], [ 4.775671, 43.97579 ], [ 4.776160141915548, 43.975870211016002 ], [ 4.774931681105829, 43.974817811938735 ] ] ] ] } },
{ "type": "Feature", "properties": { "codgeo": "30351", "value": 420, "isochrone_group": 7.0, "nb_agences": 1 }, "geometry": { "type": "MultiPolygon", "coordinates": [ [ [ [ 4.803353, 43.982813 ], [ 4.806055, 43.980434 ], [ 4.807928, 43.976719 ], [ 4.811446, 43.973233 ], [ 4.81882, 43.97532 ], [ 4.81976, 43.976315 ], [ 4.819878, 43.976377 ], [ 4.820112, 43.976454 ], [ 4.822361, 43.974671 ], [ 4.825958, 43.967276 ], [ 4.830211, 43.960848 ], [ 4.83021117551213, 43.96084678808193 ], [ 4.829911600846235, 43.960798856135398 ], [ 4.829299, 43.960716 ], [ 4.829155505780385, 43.960677880924877 ], [ 4.82905, 43.960661 ], [ 4.828729063513127, 43.960564597024856 ], [ 4.828644, 43.960542 ], [ 4.828597627474414, 43.960525116237569 ], [ 4.828524, 43.960503 ], [ 4.828307573183488, 43.960419510435891 ], [ 4.827842, 43.96025 ], [ 4.827739024236508, 43.960200185009725 ], [ 4.827653, 43.960167 ], [ 4.827411586443579, 43.960041785499783 ], [ 4.827288, 43.959982 ], [ 4.827229101283888, 43.959947135520707 ], [ 4.827171, 43.959917 ], [ 4.827084276315795, 43.959861407894742 ], [ 4.826891, 43.959747 ], [ 4.826825037667699, 43.959695229274168 ], [ 4.826703, 43.959617 ], [ 4.825251, 43.958464 ], [ 4.824816630324623, 43.958119314359472 ], [ 4.820350992088342, 43.955883877633894 ], [ 4.819407, 43.963593 ], [ 4.819752, 43.964061 ], [ 4.819857, 43.964286 ], [ 4.82016, 43.965181 ], [ 4.820293, 43.965697 ], [ 4.820554, 43.967749 ], [ 4.816983, 43.968205 ], [ 4.81113, 43.970978 ], [ 4.809398, 43.974128 ], [ 4.809335, 43.974179 ], [ 4.801943, 43.976122 ], [ 4.797307, 43.977139 ], [ 4.79659, 43.977278 ], [ 4.796546, 43.977278 ], [ 4.795945, 43.977182 ], [ 4.795290046526113, 43.976373965684573 ], [ 4.790226763728157, 43.978673637304738 ], [ 4.797045, 43.978713 ], [ 4.797675, 43.979106 ], [ 4.802457, 43.982153 ], [ 4.803353, 43.982813 ] ] ], [ [ [ 4.783662, 43.935356 ], [ 4.781377, 43.933918 ], [ 4.780798, 43.933713 ], [ 4.780299, 43.934072 ], [ 4.772773527131097, 43.937438506694626 ], [ 4.774656, 43.938069 ], [ 4.775778, 43.938506 ], [ 4.777164, 43.939116 ], [ 4.778354, 43.939706 ], [ 4.780402, 43.9407 ], [ 4.780439785342788, 43.94068534775689 ], [ 4.780196, 43.93766 ], [ 4.78002, 43.937071 ], [ 4.779961, 43.936724 ], [ 4.783509, 43.936116 ], [ 4.785722, 43.937489 ], [ 4.79004, 43.937836 ], [ 4.792586910636179, 43.934961835286813 ], [ 4.792578, 43.934916 ], [ 4.792824399699332, 43.93422019204403 ], [ 4.790136, 43.936567 ], [ 4.783662, 43.935356 ] ] ], [ [ [ 4.75832213059351, 43.935893802434606 ], [ 4.75545, 43.935707 ], [ 4.755976, 43.935836 ], [ 4.75832213059351, 43.935893802434606 ] ] ], [ [ [ 4.743736, 43.928781 ], [ 4.742469, 43.927664 ], [ 4.741579, 43.927016 ], [ 4.740944, 43.926625 ], [ 4.738439, 43.925182 ], [ 4.736319, 43.928092 ], [ 4.736732, 43.928393 ], [ 4.737191, 43.928681 ], [ 4.74259, 43.933038 ], [ 4.743124, 43.933742 ], [ 4.744168, 43.934973 ], [ 4.744668, 43.935272 ], [ 4.744992, 43.935432 ], [ 4.745399, 43.935618 ], [ 4.751389, 43.941316 ], [ 4.751682, 43.942107 ], [ 4.751961, 43.94258 ], [ 4.752511, 43.9434 ], [ 4.75570227939707, 43.950036429481692 ], [ 4.757210185290622, 43.949636087458217 ], [ 4.757822, 43.943335 ], [ 4.751687, 43.93957 ], [ 4.751571, 43.939542 ], [ 4.751216, 43.939315 ], [ 4.749307, 43.938399 ], [ 4.746503, 43.93603 ], [ 4.748209, 43.93286 ], [ 4.749405, 43.933492 ], [ 4.744478, 43.929585 ], [ 4.743997, 43.929046 ], [ 4.743736, 43.928781 ] ] ], [ [ [ 4.772867, 43.978473 ], [ 4.772744400558171, 43.978408584664308 ], [ 4.773022, 43.978706 ], [ 4.773106, 43.978699 ], [ 4.773348850658938, 43.978699817089449 ], [ 4.772867, 43.978473 ] ] ] ] } },
{ "type": "Feature", "properties": { "codgeo": "30351", "value": 480, "isochrone_group": 8.0, "nb_agences": 1 }, "geometry": { "type": "MultiPolygon", "coordinates": [ [ [ [ 4.805756, 43.989598 ], [ 4.806436, 43.99044 ], [ 4.807355, 43.991311 ], [ 4.809832, 43.988699 ], [ 4.809153, 43.987853 ], [ 4.808404, 43.983014 ], [ 4.808298, 43.982748 ], [ 4.807878, 43.981597 ], [ 4.808565, 43.976909 ], [ 4.808852, 43.976454 ], [ 4.817242, 43.974959 ], [ 4.81821, 43.976338 ], [ 4.818743, 43.978321 ], [ 4.818765, 43.978829 ], [ 4.818981, 43.98075 ], [ 4.819198, 43.982671 ], [ 4.822775, 43.982268 ], [ 4.82562, 43.976173 ], [ 4.82867, 43.970349 ], [ 4.829016, 43.968866 ], [ 4.829062, 43.968407 ], [ 4.828692, 43.966749 ], [ 4.834441, 43.96071 ], [ 4.831105, 43.960887 ], [ 4.831023586349565, 43.960885026335745 ], [ 4.830946, 43.960889 ], [ 4.830732965779363, 43.960877980988599 ], [ 4.830445, 43.960871 ], [ 4.830350256844399, 43.960858185698839 ], [ 4.83025, 43.960853 ], [ 4.83021117551213, 43.96084678808193 ], [ 4.830211, 43.960848 ], [ 4.825958, 43.967276 ], [ 4.822361, 43.974671 ], [ 4.820112, 43.976454 ], [ 4.819878, 43.976377 ], [ 4.81976, 43.976315 ], [ 4.81882, 43.97532 ], [ 4.811446, 43.973233 ], [ 4.807928, 43.976719 ], [ 4.806055, 43.980434 ], [ 4.803353, 43.982813 ], [ 4.802457, 43.982153 ], [ 4.800266251115628, 43.980757096225304 ], [ 4.804664, 43.987148 ], [ 4.805008, 43.988191 ], [ 4.805463, 43.989131 ], [ 4.805756, 43.989598 ] ] ], [ [ [ 4.77228, 43.933585 ], [ 4.765709, 43.936344 ], [ 4.767813, 43.93656 ], [ 4.769438, 43.936825 ], [ 4.770747759925606, 43.937129663132367 ], [ 4.776336, 43.932029 ], [ 4.781715120322059, 43.930469534797354 ], [ 4.781855214934681, 43.929440538640897 ], [ 4.774975, 43.931198 ], [ 4.77228, 43.933585 ] ] ], [ [ [ 4.75545, 43.935707 ], [ 4.760400262783658, 43.936028963472708 ], [ 4.753485, 43.935142 ], [ 4.754146, 43.935351 ], [ 4.75545, 43.935707 ] ] ], [ [ [ 4.729185, 43.915473 ], [ 4.727733, 43.913331 ], [ 4.724753, 43.915351 ], [ 4.726205, 43.917493 ], [ 4.729151, 43.923501 ], [ 4.729451, 43.923758 ], [ 4.729796, 43.923997 ], [ 4.731466, 43.925161 ], [ 4.732018, 43.925556 ], [ 4.733245, 43.926332 ], [ 4.73428, 43.926929 ], [ 4.735687, 43.927774 ], [ 4.736732, 43.928393 ], [ 4.736319, 43.928092 ], [ 4.738439, 43.925182 ], [ 4.740944, 43.926625 ], [ 4.736367, 43.923402 ], [ 4.730637, 43.917614 ], [ 4.729185, 43.915473 ] ] ], [ [ [ 4.742324, 43.936442 ], [ 4.743126, 43.936728 ], [ 4.744, 43.936638 ], [ 4.751389, 43.941316 ], [ 4.745399, 43.935618 ], [ 4.744992, 43.935432 ], [ 4.744668, 43.935272 ], [ 4.744168, 43.934973 ], [ 4.743124, 43.933742 ], [ 4.74259, 43.933038 ], [ 4.737191, 43.928681 ], [ 4.736732, 43.928393 ], [ 4.741416, 43.934814 ], [ 4.741792, 43.935952 ], [ 4.742324, 43.936442 ] ] ], [ [ [ 4.753797, 43.951143 ], [ 4.755176129592511, 43.948942273928282 ], [ 4.752813612911128, 43.944029299097657 ], [ 4.751317333961958, 43.950949886275467 ], [ 4.75254, 43.950876 ], [ 4.753797, 43.951143 ] ] ], [ [ [ 4.791419819268234, 43.9804084681615 ], [ 4.790944, 43.98044 ], [ 4.790341893100734, 43.980632916434686 ], [ 4.791419819268234, 43.9804084681615 ] ] ], [ [ [ 4.78929551970076, 43.980871161672006 ], [ 4.786862, 43.981403 ], [ 4.784920811832329, 43.981551075795778 ], [ 4.785223, 43.981658 ], [ 4.785956, 43.981699 ], [ 4.785988, 43.981695 ], [ 4.78929551970076, 43.980871161672006 ] ] ], [ [ [ 4.790951, 43.931425 ], [ 4.786026605508801, 43.932879135321329 ], [ 4.788632, 43.935989 ], [ 4.79228609821763, 43.933771149423258 ], [ 4.792564753990466, 43.933301371804887 ], [ 4.790951, 43.931425 ] ] ] ] } },
{ "type": "Feature", "properties": { "codgeo": "30351", "value": 540, "isochrone_group": 9.0, "nb_agences": 1 }, "geometry": { "type": "MultiPolygon", "coordinates": [ [ [ [ 4.757232, 43.935562 ], [ 4.75248, 43.934798 ], [ 4.753485, 43.935142 ], [ 4.758286724813609, 43.935757877465392 ], [ 4.757232, 43.935562 ] ] ], [ [ [ 4.725047, 43.909727 ], [ 4.724562, 43.909251 ], [ 4.723822, 43.908606 ], [ 4.723322, 43.908231 ], [ 4.722794, 43.907872 ], [ 4.720773, 43.910851 ], [ 4.721949, 43.918138 ], [ 4.720662, 43.920028 ], [ 4.721834, 43.92082 ], [ 4.722416, 43.92126 ], [ 4.722511, 43.921305 ], [ 4.725652, 43.922321 ], [ 4.727094, 43.922904 ], [ 4.731466, 43.925161 ], [ 4.729796, 43.923997 ], [ 4.729451, 43.923758 ], [ 4.729151, 43.923501 ], [ 4.726205, 43.917493 ], [ 4.724753, 43.915351 ], [ 4.727732616787468, 43.91333125976152 ], [ 4.726586, 43.91164 ], [ 4.726181, 43.911079 ], [ 4.725765, 43.910527 ], [ 4.725469, 43.910182 ], [ 4.725047, 43.909727 ] ] ], [ [ [ 4.743126, 43.936728 ], [ 4.742324, 43.936442 ], [ 4.741792, 43.935952 ], [ 4.741416, 43.934814 ], [ 4.736732, 43.928393 ], [ 4.740407, 43.935926 ], [ 4.741766, 43.93758 ], [ 4.742125, 43.937601 ], [ 4.744, 43.936638 ], [ 4.743126, 43.936728 ] ] ], [ [ [ 4.75155148438926, 43.949866894066197 ], [ 4.752858, 43.943824 ], [ 4.75033232194122, 43.949417670647144 ], [ 4.75155148438926, 43.949866894066197 ] ] ], [ [ [ 4.823165, 43.99065 ], [ 4.824122, 43.989487 ], [ 4.825682, 43.984372 ], [ 4.829527, 43.978211 ], [ 4.831974, 43.976514 ], [ 4.834763, 43.969974 ], [ 4.834301, 43.966403 ], [ 4.840099, 43.960512 ], [ 4.838722, 43.960535 ], [ 4.83787308164443, 43.960534102623292 ], [ 4.837751104733835, 43.96053531381316 ], [ 4.835691998951503, 43.960643980265239 ], [ 4.835692, 43.960644 ], [ 4.834440438484063, 43.960710589840794 ], [ 4.828692, 43.966749 ], [ 4.829062, 43.968407 ], [ 4.829016, 43.968866 ], [ 4.82867, 43.970349 ], [ 4.82562, 43.976173 ], [ 4.822775, 43.982268 ], [ 4.819198, 43.982671 ], [ 4.818981, 43.98075 ], [ 4.818765, 43.978829 ], [ 4.818743, 43.978321 ], [ 4.81821, 43.976338 ], [ 4.817242, 43.974959 ], [ 4.808852, 43.976454 ], [ 4.808565, 43.976909 ], [ 4.807878, 43.981597 ], [ 4.808298, 43.982748 ], [ 4.808404, 43.983014 ], [ 4.809153, 43.987853 ], [ 4.809832, 43.988699 ], [ 4.808668191263005, 43.989926237957619 ], [ 4.809742, 43.991424 ], [ 4.814335557014196, 43.994870261812018 ], [ 4.814407, 43.994668 ], [ 4.821678, 43.991051 ], [ 4.823165, 43.99065 ] ] ], [ [ [ 4.775901, 43.930075 ], [ 4.778591952316162, 43.929137573627038 ], [ 4.779683762526342, 43.927054085709202 ], [ 4.775465, 43.928653 ], [ 4.775269638398362, 43.928626962758742 ], [ 4.774402201539024, 43.929950380047281 ], [ 4.775901, 43.930075 ] ] ], [ [ [ 4.768016, 43.931106 ], [ 4.761245178611046, 43.936134382044344 ], [ 4.761997, 43.936192 ], [ 4.762599524400658, 43.936210302685325 ], [ 4.768948, 43.932303 ], [ 4.768993681066878, 43.93225533838104 ], [ 4.768816, 43.932069 ], [ 4.768253, 43.931281 ], [ 4.768035085372424, 43.930759561426889 ], [ 4.768016, 43.931106 ] ] ], [ [ [ 4.805337792612147, 43.988872329792152 ], [ 4.805337792612146, 43.988872329792152 ], [ 4.805463, 43.989131 ], [ 4.805337792612147, 43.988872329792152 ] ] ], [ [ [ 4.808292615513584, 43.9903222831161 ], [ 4.807355, 43.991311 ], [ 4.806436, 43.99044 ], [ 4.805756, 43.989598 ], [ 4.807326, 43.991725 ], [ 4.809775175871448, 43.997916388698279 ], [ 4.810647, 43.996812 ], [ 4.808751, 43.990945 ], [ 4.808292615513584, 43.9903222831161 ] ] ], [ [ [ 4.79398457824885, 43.98009963933481 ], [ 4.799651, 43.979863 ], [ 4.796936672583694, 43.979259736237815 ], [ 4.794609347114655, 43.979744337315687 ], [ 4.79398457824885, 43.98009963933481 ] ] ] ] } },
{ "type": "Feature", "properties": { "codgeo": "30351", "value": 600, "isochrone_group": 10.0, "nb_agences": 1 }, "geometry": { "type": "MultiPolygon", "coordinates": [ [ [ [ 4.760986747489107, 43.936108458842284 ], [ 4.761061886327881, 43.936108747266353 ], [ 4.761343404527739, 43.936061434109774 ], [ 4.762247733401157, 43.935389830059407 ], [ 4.763130001477293, 43.932799563009716 ], [ 4.762740310339919, 43.93271811630899 ], [ 4.756012, 43.93528 ], [ 4.755013, 43.935025 ], [ 4.754159, 43.934731 ], [ 4.753266, 43.93449 ], [ 4.749852424829127, 43.933607651380335 ], [ 4.75248, 43.934798 ], [ 4.757232, 43.935562 ], [ 4.758702, 43.935835 ], [ 4.759959, 43.935998 ], [ 4.760986747489107, 43.936108458842284 ] ] ], [ [ [ 4.718585, 43.90619 ], [ 4.711071, 43.903958 ], [ 4.707877, 43.902853 ], [ 4.7067, 43.906255 ], [ 4.709894, 43.90736 ], [ 4.711904, 43.914204 ], [ 4.713759, 43.91517 ], [ 4.717061, 43.917382 ], [ 4.717287, 43.917555 ], [ 4.718507, 43.918473 ], [ 4.718886, 43.918767 ], [ 4.721418, 43.921205 ], [ 4.722679, 43.921959 ], [ 4.723771, 43.922076 ], [ 4.727094, 43.922904 ], [ 4.725652, 43.922321 ], [ 4.722511, 43.921305 ], [ 4.722416, 43.92126 ], [ 4.721834, 43.92082 ], [ 4.720662, 43.920028 ], [ 4.721949, 43.918138 ], [ 4.720773, 43.910851 ], [ 4.722792316154277, 43.907874482026926 ], [ 4.722698, 43.907811 ], [ 4.722156, 43.907493 ], [ 4.721704, 43.907256 ], [ 4.721184, 43.907009 ], [ 4.720569, 43.90676 ], [ 4.719899, 43.906528 ], [ 4.718585, 43.90619 ] ] ], [ [ [ 4.74292, 43.938927 ], [ 4.743875, 43.938955 ], [ 4.748133363333886, 43.940674272605158 ], [ 4.748686696998843, 43.939605163156131 ], [ 4.744, 43.936638 ], [ 4.742125, 43.937601 ], [ 4.741766, 43.93758 ], [ 4.740407, 43.935926 ], [ 4.736732, 43.928393 ], [ 4.735687, 43.927774 ], [ 4.738791, 43.935462 ], [ 4.739036, 43.937466 ], [ 4.739124, 43.937551 ], [ 4.739783, 43.937999 ], [ 4.740182, 43.938186 ], [ 4.741365, 43.938363 ], [ 4.74292, 43.938927 ] ] ], [ [ [ 4.705035, 43.952529 ], [ 4.704762685706752, 43.952412684849641 ], [ 4.705887, 43.957522 ], [ 4.707317534204311, 43.960340759637788 ], [ 4.707938, 43.959806 ], [ 4.705035, 43.952529 ] ] ], [ [ [ 4.788059, 43.985781 ], [ 4.788487, 43.985485 ], [ 4.789044, 43.984649 ], [ 4.791604, 43.982192 ], [ 4.797127913110267, 43.980567825661097 ], [ 4.790057, 43.982213 ], [ 4.786132, 43.98722 ], [ 4.78565480941232, 43.988550831527874 ], [ 4.788059, 43.985781 ] ] ], [ [ [ 4.837556, 43.976154 ], [ 4.840921, 43.970459 ], [ 4.841101, 43.970131 ], [ 4.841189, 43.968314 ], [ 4.847023583771726, 43.962989156900584 ], [ 4.845704314325342, 43.962256046655433 ], [ 4.845569116637475, 43.96220324054012 ], [ 4.840099, 43.960512 ], [ 4.834301, 43.966403 ], [ 4.834763, 43.969974 ], [ 4.831974, 43.976514 ], [ 4.829527, 43.978211 ], [ 4.825682, 43.984372 ], [ 4.824122, 43.989487 ], [ 4.823165, 43.99065 ], [ 4.821678, 43.991051 ], [ 4.819053495251799, 43.992356574704196 ], [ 4.81935, 43.992431 ], [ 4.823825, 43.993253 ], [ 4.824099, 43.99336 ], [ 4.825212, 43.994304 ], [ 4.825223, 43.99444 ], [ 4.825157, 43.995095 ], [ 4.825121121165971, 43.995119443590141 ], [ 4.825404, 43.995047 ], [ 4.827657, 43.98964 ], [ 4.829048, 43.983202 ], [ 4.83455, 43.977992 ], [ 4.837021, 43.977561 ], [ 4.837109, 43.977478 ], [ 4.837374, 43.977101 ], [ 4.837556, 43.976154 ] ] ], [ [ [ 4.807336397724427, 43.991751647858237 ], [ 4.807381693029193, 43.991867733148617 ], [ 4.807381993043851, 43.991866547490694 ], [ 4.807336707214274, 43.991752067278512 ], [ 4.807336397724427, 43.991751647858237 ] ] ] ] } },
{ "type": "Feature", "properties": { "codgeo": "30351", "value": 660, "isochrone_group": 11.0, "nb_agences": 1 }, "geometry": { "type": "MultiPolygon", "coordinates": [ [ [ [ 4.746155800738262, 43.930915458186412 ], [ 4.749405, 43.933492 ], [ 4.757674, 43.931389 ], [ 4.757674004668542, 43.931388983961739 ], [ 4.75765, 43.931382 ], [ 4.757650193467416, 43.931381335364428 ], [ 4.757037357714101, 43.931202770757814 ], [ 4.757037, 43.931204 ], [ 4.750084, 43.933169 ], [ 4.746155800738262, 43.930915458186412 ] ] ], [ [ [ 4.710487910434744, 43.903756273647573 ], [ 4.711071, 43.903958 ], [ 4.718585, 43.90619 ], [ 4.710487910434744, 43.903756273647573 ] ] ], [ [ [ 4.701276, 43.903907 ], [ 4.706137, 43.909199 ], [ 4.706546, 43.909962 ], [ 4.707588, 43.911103 ], [ 4.707895, 43.911396 ], [ 4.70939, 43.912619 ], [ 4.709764, 43.912927 ], [ 4.710474, 43.913415 ], [ 4.715396, 43.920843 ], [ 4.715663, 43.921046 ], [ 4.715979, 43.92123 ], [ 4.717096, 43.921426 ], [ 4.723569, 43.923594 ], [ 4.723973, 43.923852 ], [ 4.72437, 43.923866 ], [ 4.732018, 43.925556 ], [ 4.731466, 43.925161 ], [ 4.727094, 43.922904 ], [ 4.723771, 43.922076 ], [ 4.722679, 43.921959 ], [ 4.721418, 43.921205 ], [ 4.718886, 43.918767 ], [ 4.718507, 43.918473 ], [ 4.717287, 43.917555 ], [ 4.717061, 43.917382 ], [ 4.713759, 43.91517 ], [ 4.711904, 43.914204 ], [ 4.709894, 43.90736 ], [ 4.7067, 43.906255 ], [ 4.707877, 43.902853 ], [ 4.710486276389506, 43.903755708331389 ], [ 4.70294, 43.900714 ], [ 4.700519, 43.899637 ], [ 4.698065, 43.899966 ], [ 4.697564, 43.901576 ], [ 4.697592, 43.901638 ], [ 4.698074, 43.90228 ], [ 4.701276, 43.903907 ] ] ], [ [ [ 4.742617389222898, 43.946026700979431 ], [ 4.746523, 43.943581 ], [ 4.74569475853813, 43.939689709736406 ], [ 4.743875, 43.938955 ], [ 4.74292, 43.938927 ], [ 4.741365, 43.938363 ], [ 4.740182, 43.938186 ], [ 4.739783, 43.937999 ], [ 4.739124, 43.937551 ], [ 4.739036, 43.937466 ], [ 4.738791, 43.935462 ], [ 4.735687, 43.927774 ], [ 4.73428, 43.926929 ], [ 4.733245, 43.926332 ], [ 4.737746, 43.933347 ], [ 4.737088, 43.936844 ], [ 4.737291, 43.936907 ], [ 4.740709, 43.93943 ], [ 4.741295, 43.940139 ], [ 4.743644, 43.941418 ], [ 4.742617389222898, 43.946026700979431 ] ] ], [ [ [ 4.788021, 43.986141 ], [ 4.788027, 43.986193 ], [ 4.78815322247044, 43.986625032354539 ], [ 4.788231, 43.986304 ], [ 4.788595271826421, 43.985322495068409 ], [ 4.788487, 43.985485 ], [ 4.788221935703215, 43.985668315494976 ], [ 4.788021, 43.986141 ] ] ], [ [ [ 4.826309, 43.999808 ], [ 4.826299264373867, 43.999708072063839 ], [ 4.822717, 44.000059 ], [ 4.817657, 44.005278 ], [ 4.818058393777186, 44.006841551151496 ], [ 4.822727, 44.000159 ], [ 4.826309, 43.999808 ] ] ], [ [ [ 4.838289, 43.979746 ], [ 4.843372, 43.972947 ], [ 4.844948, 43.971357 ], [ 4.852974282872503, 43.972583389743136 ], [ 4.852279185408832, 43.97080451930124 ], [ 4.850027376398448, 43.965041764150016 ], [ 4.849703840766836, 43.964474630562734 ], [ 4.847153013776877, 43.96287103459801 ], [ 4.841189, 43.968314 ], [ 4.841101, 43.970131 ], [ 4.840921, 43.970459 ], [ 4.837556, 43.976154 ], [ 4.837374, 43.977101 ], [ 4.837109, 43.977478 ], [ 4.837021, 43.977561 ], [ 4.83455, 43.977992 ], [ 4.829048, 43.983202 ], [ 4.827657, 43.98964 ], [ 4.82547744868205, 43.994870729683157 ], [ 4.825798932533617, 43.996576299250151 ], [ 4.829846, 43.98891 ], [ 4.830331, 43.986264 ], [ 4.836657, 43.982192 ], [ 4.837105, 43.982206 ], [ 4.837508, 43.982055 ], [ 4.837941, 43.981091 ], [ 4.838223, 43.979988 ], [ 4.838289, 43.979746 ] ] ] ] } },
{ "type": "Feature", "properties": { "codgeo": "30351", "value": 720, "isochrone_group": 12.0, "nb_agences": 1 }, "geometry": { "type": "MultiPolygon", "coordinates": [ [ [ [ 4.698858, 43.902968 ], [ 4.70313, 43.909375 ], [ 4.703179, 43.909927 ], [ 4.703518, 43.913007 ], [ 4.704359, 43.913926 ], [ 4.705311, 43.914156 ], [ 4.706324, 43.913851 ], [ 4.713185146548002, 43.917506506818057 ], [ 4.710474, 43.913415 ], [ 4.709764, 43.912927 ], [ 4.70939, 43.912619 ], [ 4.707895, 43.911396 ], [ 4.707588, 43.911103 ], [ 4.706546, 43.909962 ], [ 4.706137, 43.909199 ], [ 4.701276, 43.903907 ], [ 4.698074, 43.90228 ], [ 4.697592, 43.901638 ], [ 4.697564, 43.901576 ], [ 4.698065, 43.899966 ], [ 4.700519, 43.899637 ], [ 4.70294, 43.900714 ], [ 4.710487, 43.903756 ], [ 4.705229, 43.897528 ], [ 4.702667, 43.894999 ], [ 4.694224, 43.894838 ], [ 4.691851, 43.897546 ], [ 4.694632, 43.901789 ], [ 4.694718, 43.901893 ], [ 4.698858, 43.902968 ] ] ], [ [ [ 4.717908, 43.923689 ], [ 4.723893, 43.930306 ], [ 4.728214097799545, 43.924715441067086 ], [ 4.72437, 43.923866 ], [ 4.723973, 43.923852 ], [ 4.723569, 43.923594 ], [ 4.717096, 43.921426 ], [ 4.715979, 43.92123 ], [ 4.715663, 43.921046 ], [ 4.715396, 43.920843 ], [ 4.713946806917042, 43.918655960946737 ], [ 4.71393, 43.919334 ], [ 4.713804241028392, 43.920010746120603 ], [ 4.714373, 43.92044 ], [ 4.716666, 43.921786 ], [ 4.716902, 43.922014 ], [ 4.717948, 43.922934 ], [ 4.717908, 43.923689 ] ] ], [ [ [ 4.727267558724964, 43.912645299119319 ], [ 4.726586, 43.91164 ], [ 4.727267558724963, 43.912645299119319 ], [ 4.727267558724964, 43.912645299119319 ] ] ], [ [ [ 4.828652, 43.997812 ], [ 4.825925, 44.004002 ], [ 4.822364, 44.003475 ], [ 4.821906995837174, 44.004883477506731 ], [ 4.823582, 44.00547 ], [ 4.824491, 44.00559 ], [ 4.825241, 44.005398 ], [ 4.825417, 44.005312 ], [ 4.82587, 44.004502 ], [ 4.829527, 43.997565 ], [ 4.828292592207358, 43.994841162078039 ], [ 4.828652, 43.997812 ] ] ], [ [ [ 4.83332, 43.987899 ], [ 4.836906549743039, 43.982199798429484 ], [ 4.836657, 43.982192 ], [ 4.830331, 43.986264 ], [ 4.829846, 43.98891 ], [ 4.8279984481965, 43.992409789693021 ], [ 4.828201881205298, 43.994091351722254 ], [ 4.83332, 43.987899 ] ] ], [ [ [ 4.852859, 43.97471 ], [ 4.852859108980796, 43.974688094859637 ], [ 4.852859, 43.974688 ], [ 4.85286, 43.974509 ], [ 4.852921, 43.974024 ], [ 4.853005, 43.972662 ], [ 4.852974282872503, 43.972583389743136 ], [ 4.844948, 43.971357 ], [ 4.843372, 43.972947 ], [ 4.838289, 43.979746 ], [ 4.838223, 43.979988 ], [ 4.837941, 43.981091 ], [ 4.837704981774392, 43.981616453971093 ], [ 4.840822, 43.979733 ], [ 4.841968, 43.979335 ], [ 4.842536, 43.9789 ], [ 4.842572, 43.978859 ], [ 4.847713, 43.973885 ], [ 4.853328928304721, 43.975420099453771 ], [ 4.853206386029877, 43.975004814256806 ], [ 4.852859, 43.97471 ] ] ], [ [ [ 4.752884605845486, 43.929596999437393 ], [ 4.752861, 43.929586 ], [ 4.752861092580529, 43.929583644982792 ], [ 4.752576, 43.92945 ], [ 4.751685, 43.928981 ], [ 4.750911691519819, 43.928529010832918 ], [ 4.743819120765873, 43.928778081043347 ], [ 4.744511, 43.929349 ], [ 4.744831699426454, 43.929585504864178 ], [ 4.752884605845486, 43.929596999437393 ] ] ] ] } },
{ "type": "Feature", "properties": { "codgeo": "30351", "value": 780, "isochrone_group": 13.0, "nb_agences": 1 }, "geometry": { "type": "MultiPolygon", "coordinates": [ [ [ [ 4.687506, 43.887343 ], [ 4.684865, 43.889789 ], [ 4.688557, 43.896451 ], [ 4.68936, 43.898359 ], [ 4.691659, 43.902446 ], [ 4.696259, 43.903959 ], [ 4.700281, 43.909251 ], [ 4.702695156110154, 43.912052226552291 ], [ 4.703179, 43.909929 ], [ 4.703179214564439, 43.909928949435027 ], [ 4.703179, 43.909927 ], [ 4.70313, 43.909375 ], [ 4.698858, 43.902968 ], [ 4.694718, 43.901893 ], [ 4.694632, 43.901789 ], [ 4.691851, 43.897546 ], [ 4.694224, 43.894838 ], [ 4.702667, 43.894999 ], [ 4.705229, 43.897528 ], [ 4.710487, 43.903756 ], [ 4.714264, 43.905063 ], [ 4.715808, 43.905545 ], [ 4.712757, 43.897622 ], [ 4.709265, 43.893765 ], [ 4.70608, 43.891945 ], [ 4.700247, 43.889348 ], [ 4.69755, 43.891732 ], [ 4.690132, 43.890651 ], [ 4.6889, 43.88899 ], [ 4.687802, 43.887662 ], [ 4.687506, 43.887343 ] ] ], [ [ [ 4.853543273612371, 43.978319006219664 ], [ 4.853408992276413, 43.977361197225996 ], [ 4.852937, 43.97602 ], [ 4.852946952244854, 43.975315687287342 ], [ 4.847713, 43.973885 ], [ 4.842572, 43.978859 ], [ 4.842536, 43.9789 ], [ 4.841968, 43.979335 ], [ 4.840822, 43.979733 ], [ 4.837009, 43.982037 ], [ 4.83332, 43.987899 ], [ 4.830631340222, 43.991151977837092 ], [ 4.830448, 43.995176 ], [ 4.831665, 43.997832 ], [ 4.827422, 44.004832 ], [ 4.825366, 44.008451 ], [ 4.824794155277225, 44.009010214693653 ], [ 4.825315, 44.009044 ], [ 4.82848, 44.004528 ], [ 4.829133, 44.003472 ], [ 4.83213, 43.997619 ], [ 4.832762, 43.99546 ], [ 4.835006, 43.987865 ], [ 4.836969, 43.985257 ], [ 4.843037, 43.983737 ], [ 4.843539, 43.983857 ], [ 4.845315, 43.982268 ], [ 4.848831, 43.978829 ], [ 4.853543273612371, 43.978319006219664 ] ] ], [ [ [ 4.740944, 43.926625 ], [ 4.747420205535622, 43.925041623916172 ], [ 4.747196275376685, 43.924663398909246 ], [ 4.740944, 43.926625 ] ] ] ] } },
{ "type": "Feature", "properties": { "codgeo": "30351", "value": 840, "isochrone_group": 14.0, "nb_agences": 1 }, "geometry": { "type": "MultiPolygon", "coordinates": [ [ [ [ 4.723322, 43.908231 ], [ 4.723822, 43.908606 ], [ 4.722664113376712, 43.90154998803262 ], [ 4.719695, 43.899887 ], [ 4.717836, 43.899239 ], [ 4.717831088803421, 43.899237288082105 ], [ 4.713847, 43.898263 ], [ 4.713299, 43.898164 ], [ 4.712937941452466, 43.898091878442443 ], [ 4.715725398139119, 43.905330495069236 ], [ 4.718585, 43.90619 ], [ 4.719899, 43.906528 ], [ 4.720569, 43.90676 ], [ 4.721184, 43.907009 ], [ 4.721704, 43.907256 ], [ 4.722156, 43.907493 ], [ 4.722698, 43.907811 ], [ 4.723322, 43.908231 ] ] ], [ [ [ 4.703653, 43.888279 ], [ 4.697327, 43.887147 ], [ 4.693165, 43.883068 ], [ 4.691735835672244, 43.880625615180897 ], [ 4.69144, 43.880531 ], [ 4.682836, 43.883166 ], [ 4.682253, 43.882916 ], [ 4.677978, 43.882669 ], [ 4.675987, 43.882276 ], [ 4.675289, 43.885807 ], [ 4.679099, 43.889094 ], [ 4.683352, 43.893494 ], [ 4.685597, 43.897392 ], [ 4.68786, 43.899483 ], [ 4.691421, 43.904809 ], [ 4.692156, 43.905718 ], [ 4.69516, 43.90873 ], [ 4.696299, 43.909272 ], [ 4.700922568365851, 43.913365399193232 ], [ 4.70147907393213, 43.910641165489366 ], [ 4.700281, 43.909251 ], [ 4.696259, 43.903959 ], [ 4.691659, 43.902446 ], [ 4.68936, 43.898359 ], [ 4.688557, 43.896451 ], [ 4.684865, 43.889789 ], [ 4.687506, 43.887343 ], [ 4.687802, 43.887662 ], [ 4.6889, 43.88899 ], [ 4.690132, 43.890651 ], [ 4.69755, 43.891732 ], [ 4.700247, 43.889348 ], [ 4.70608, 43.891945 ], [ 4.709265, 43.893765 ], [ 4.709356191584865, 43.893865723351318 ], [ 4.709358, 43.893764 ], [ 4.709745, 43.893771 ], [ 4.710131, 43.89379 ], [ 4.71076, 43.893858 ], [ 4.711373, 43.893966 ], [ 4.711746, 43.894053 ], [ 4.715432758443037, 43.894080938128667 ], [ 4.709926, 43.890543 ], [ 4.707128, 43.890315 ], [ 4.704608506539261, 43.888094618377941 ], [ 4.703653, 43.888279 ] ] ], [ [ [ 4.849283, 43.985023 ], [ 4.852592683782655, 43.985043487961157 ], [ 4.85302267959355, 43.983191886386173 ], [ 4.853362837609288, 43.978621961837518 ], [ 4.853337571368821, 43.978341268692809 ], [ 4.848831, 43.978829 ], [ 4.845315, 43.982268 ], [ 4.843539, 43.983857 ], [ 4.843037, 43.983737 ], [ 4.836969, 43.985257 ], [ 4.835006, 43.987865 ], [ 4.833705721660119, 43.992265897500637 ], [ 4.833871, 43.994333 ], [ 4.834054, 43.996833 ], [ 4.83404, 43.997929 ], [ 4.830271, 44.004709 ], [ 4.826698, 44.010122 ], [ 4.825606, 44.013553 ], [ 4.823775, 44.01297 ], [ 4.820861806215112, 44.015837992556364 ], [ 4.826096, 44.013709 ], [ 4.826364, 44.013794 ], [ 4.828148, 44.012979 ], [ 4.828149, 44.012977 ], [ 4.828514, 44.01191 ], [ 4.830598, 44.004731 ], [ 4.834877, 43.99811 ], [ 4.835485, 43.994562 ], [ 4.837887, 43.987884 ], [ 4.843839, 43.987712 ], [ 4.844675, 43.987443 ], [ 4.84512, 43.987179 ], [ 4.845361, 43.987017 ], [ 4.849283, 43.985023 ] ] ] ] } },
{ "type": "Feature", "properties": { "codgeo": "30351", "value": 900, "isochrone_group": 15.0, "nb_agences": 1 }, "geometry": { "type": "MultiPolygon", "coordinates": [ [ [ [ 4.843839, 43.987712 ], [ 4.837887, 43.987884 ], [ 4.836292803416515, 43.992316158528119 ], [ 4.837156, 43.995313 ], [ 4.838386, 43.988395 ], [ 4.844287, 43.989033 ], [ 4.847219, 43.986943 ], [ 4.851524, 43.985055 ], [ 4.852312331507471, 43.98636333673663 ], [ 4.852635029992914, 43.985043750097226 ], [ 4.849283, 43.985023 ], [ 4.845361, 43.987017 ], [ 4.84512, 43.987179 ], [ 4.844675, 43.987443 ], [ 4.843839, 43.987712 ] ] ], [ [ [ 4.817371, 44.022626 ], [ 4.81814, 44.019387 ], [ 4.825505159064128, 44.015405912817272 ], [ 4.818039, 44.018617 ], [ 4.81183, 44.025015 ], [ 4.811575732091065, 44.025492071227134 ], [ 4.8131, 44.025034 ], [ 4.816602, 44.025865 ], [ 4.817371, 44.022626 ] ] ], [ [ [ 4.826875, 44.014924 ], [ 4.82587, 44.015249 ], [ 4.825744997611196, 44.015302761722062 ], [ 4.826875, 44.014924 ] ] ], [ [ [ 4.837793, 43.997571 ], [ 4.837757942022798, 43.997319094646976 ], [ 4.833116, 44.004897 ], [ 4.830549, 44.010214 ], [ 4.830707, 44.013811 ], [ 4.826875, 44.014924 ], [ 4.831083, 44.013794 ], [ 4.830925, 44.010198 ], [ 4.833743, 44.004961 ], [ 4.837793, 43.997571 ] ] ], [ [ [ 4.661649, 43.883048 ], [ 4.662864, 43.883339 ], [ 4.666662, 43.884096 ], [ 4.66913, 43.89035 ], [ 4.671816, 43.890614 ], [ 4.676816, 43.892166 ], [ 4.683102, 43.896552 ], [ 4.684754, 43.899252 ], [ 4.68664, 43.900969 ], [ 4.690847, 43.907272 ], [ 4.695086, 43.910627 ], [ 4.698324859247633, 43.915215765078912 ], [ 4.699752, 43.913756 ], [ 4.700280112312739, 43.912796611434203 ], [ 4.696299, 43.909272 ], [ 4.69516, 43.90873 ], [ 4.692156, 43.905718 ], [ 4.691421, 43.904809 ], [ 4.68786, 43.899483 ], [ 4.685597, 43.897392 ], [ 4.683352, 43.893494 ], [ 4.679099, 43.889094 ], [ 4.675289, 43.885807 ], [ 4.675987, 43.882276 ], [ 4.677978, 43.882669 ], [ 4.682253, 43.882916 ], [ 4.682836, 43.883166 ], [ 4.691154522684084, 43.880618428257485 ], [ 4.688481, 43.877361 ], [ 4.686948, 43.876342 ], [ 4.686602714127229, 43.876019005310056 ], [ 4.683081, 43.875943 ], [ 4.678329, 43.87573 ], [ 4.676854, 43.876906 ], [ 4.676583, 43.877329 ], [ 4.671095, 43.881309 ], [ 4.667365, 43.880566 ], [ 4.663702, 43.879838 ], [ 4.662487, 43.879547 ], [ 4.661649, 43.883048 ] ] ], [ [ [ 4.725765, 43.910527 ], [ 4.725685322595892, 43.907073310257154 ], [ 4.724414, 43.905972 ], [ 4.723114864266029, 43.904296805903542 ], [ 4.723822, 43.908606 ], [ 4.724562, 43.909251 ], [ 4.725047, 43.909727 ], [ 4.725469, 43.910182 ], [ 4.725765, 43.910527 ] ] ], [ [ [ 4.713268032162496, 43.892690162098603 ], [ 4.715433, 43.893369 ], [ 4.717314655375246, 43.89330187216941 ], [ 4.71314222018558, 43.89260933142576 ], [ 4.713268032162496, 43.892690162098603 ] ] ], [ [ [ 4.712921991792022, 43.892467840848546 ], [ 4.709677, 43.889853 ], [ 4.709477100887042, 43.889279396292508 ], [ 4.708206, 43.890361 ], [ 4.708156094071547, 43.890398776071592 ], [ 4.709926, 43.890543 ], [ 4.712921991792022, 43.892467840848546 ] ] ] ] } },
{ "type": "Feature", "properties": { "codgeo": "30351", "value": 960, "isochrone_group": 16.0, "nb_agences": 1 }, "geometry": { "type": "MultiPolygon", "coordinates": [ [ [ [ 4.851793, 43.988487 ], [ 4.85256689709127, 43.986785820808372 ], [ 4.851524, 43.985055 ], [ 4.847219, 43.986943 ], [ 4.844287, 43.989033 ], [ 4.838386, 43.988395 ], [ 4.837878205287912, 43.991251035624579 ], [ 4.837862, 43.994938 ], [ 4.837914642342181, 43.996134150997349 ], [ 4.837966, 43.99493 ], [ 4.845724, 43.990507 ], [ 4.846456, 43.990918 ], [ 4.846911, 43.991071 ], [ 4.847466, 43.991188 ], [ 4.851381251022498, 43.991820272708694 ], [ 4.851378, 43.990622 ], [ 4.851355, 43.990003 ], [ 4.851424, 43.989616 ], [ 4.851566, 43.989107 ], [ 4.851604212465598, 43.989064618228575 ], [ 4.851793, 43.988487 ] ] ], [ [ [ 4.812071, 44.02714 ], [ 4.816479, 44.026384 ], [ 4.81731, 44.022885 ], [ 4.82179561148963, 44.017411033436375 ], [ 4.81814, 44.019387 ], [ 4.817371, 44.022626 ], [ 4.816602, 44.025865 ], [ 4.8131, 44.025034 ], [ 4.811575732091063, 44.025492071227134 ], [ 4.810634, 44.027259 ], [ 4.810625014698608, 44.027774358293314 ], [ 4.812071, 44.02714 ] ] ], [ [ [ 4.836749, 44.012452 ], [ 4.838007, 44.011977 ], [ 4.837621, 44.003019 ], [ 4.837720917274407, 44.000676301934249 ], [ 4.837211, 44.003294 ], [ 4.835721, 44.009011 ], [ 4.836488316142074, 44.012524868322494 ], [ 4.836749, 44.012452 ] ] ], [ [ [ 4.745296903525152, 43.924641739002872 ], [ 4.745260295995179, 43.924535538766442 ], [ 4.737983, 43.924809 ], [ 4.739243273158689, 43.925581933487415 ], [ 4.745296903525152, 43.924641739002872 ] ] ], [ [ [ 4.727775360373823, 43.902611745072278 ], [ 4.725606, 43.903635 ], [ 4.725765, 43.910527 ], [ 4.726181, 43.911079 ], [ 4.726586, 43.91164 ], [ 4.729366783754494, 43.906062983692379 ], [ 4.728965, 43.905132 ], [ 4.728421, 43.903217 ], [ 4.727775360373823, 43.902611745072278 ] ] ], [ [ [ 4.667365, 43.880566 ], [ 4.671092, 43.881308 ], [ 4.671095440668272, 43.881308680419153 ], [ 4.676583, 43.877329 ], [ 4.676854, 43.876906 ], [ 4.678329, 43.87573 ], [ 4.683081, 43.875943 ], [ 4.683994747904293, 43.875962720423132 ], [ 4.682995750407455, 43.874208955480483 ], [ 4.679756, 43.874728 ], [ 4.672609, 43.873643 ], [ 4.667293, 43.877101 ], [ 4.664756, 43.876404 ], [ 4.662534060808887, 43.875680813708165 ], [ 4.662534, 43.875681 ], [ 4.66182995602599, 43.875799986529721 ], [ 4.659566476203166, 43.877726613908393 ], [ 4.661144, 43.878184 ], [ 4.661776, 43.878276 ], [ 4.662059, 43.878359 ], [ 4.663999, 43.878841 ], [ 4.667365, 43.880566 ] ] ], [ [ [ 4.695086, 43.910627 ], [ 4.690847, 43.907272 ], [ 4.68664, 43.900969 ], [ 4.684754, 43.899252 ], [ 4.683102, 43.896552 ], [ 4.676816, 43.892166 ], [ 4.671816, 43.890614 ], [ 4.66913, 43.89035 ], [ 4.666662, 43.884096 ], [ 4.662932, 43.883354 ], [ 4.657735057922723, 43.885075582377084 ], [ 4.659316, 43.88739 ], [ 4.659302, 43.889288 ], [ 4.664813, 43.892427 ], [ 4.670537, 43.893388 ], [ 4.676953, 43.897218 ], [ 4.684291, 43.901922 ], [ 4.687934, 43.903852 ], [ 4.690831, 43.909039 ], [ 4.696904, 43.914736 ], [ 4.697035081007749, 43.915084248631153 ], [ 4.697380430082649, 43.913877712622636 ], [ 4.695086, 43.910627 ] ] ], [ [ [ 4.69945, 43.921901 ], [ 4.699771782312107, 43.922636003849554 ], [ 4.700489, 43.922198 ], [ 4.697806, 43.916459 ], [ 4.697322392600695, 43.91584756187293 ], [ 4.69855, 43.919109 ], [ 4.698904, 43.921548 ], [ 4.699351, 43.92183 ], [ 4.69945, 43.921901 ] ] ], [ [ [ 4.696883, 43.876183102443335 ], [ 4.697469748201184, 43.876738069169967 ], [ 4.697791572882693, 43.876625743187439 ], [ 4.697581, 43.876314 ], [ 4.696883, 43.874959088662798 ], [ 4.696883, 43.876183102443335 ] ] ] ] } },
{ "type": "Feature", "properties": { "codgeo": "30351", "value": 1020, "isochrone_group": 17.0, "nb_agences": 1 }, "geometry": { "type": "MultiPolygon", "coordinates": [ [ [ [ 4.726794, 43.911946 ], [ 4.728715, 43.91478 ], [ 4.730637, 43.917614 ], [ 4.731479, 43.918815 ], [ 4.733985, 43.921433 ], [ 4.736367, 43.923402 ], [ 4.743823, 43.923313 ], [ 4.743921241044572, 43.923266101008878 ], [ 4.743306, 43.92051 ], [ 4.739992, 43.917333 ], [ 4.738215351457379, 43.914883564743043 ], [ 4.731721, 43.911518 ], [ 4.731256, 43.909414 ], [ 4.729413247452922, 43.905969798163873 ], [ 4.726586, 43.91164 ], [ 4.726793628439243, 43.911946251947874 ], [ 4.726794, 43.911946 ] ] ], [ [ [ 4.667287, 43.897403 ], [ 4.671746, 43.898291 ], [ 4.67703, 43.900999 ], [ 4.677304, 43.901162 ], [ 4.685096, 43.904702 ], [ 4.690761, 43.911154 ], [ 4.695996186730998, 43.913884392525361 ], [ 4.690831, 43.909039 ], [ 4.687934, 43.903852 ], [ 4.684291, 43.901922 ], [ 4.676953, 43.897218 ], [ 4.670537, 43.893388 ], [ 4.664813, 43.892427 ], [ 4.659302, 43.889288 ], [ 4.659312734415598, 43.887832719942551 ], [ 4.658132, 43.886912 ], [ 4.657504, 43.886298 ], [ 4.656895, 43.885513 ], [ 4.649237433507261, 43.888211007534217 ], [ 4.648816, 43.889978 ], [ 4.649302, 43.890094 ], [ 4.64975, 43.890177 ], [ 4.650308, 43.890223 ], [ 4.650851, 43.890218 ], [ 4.65899, 43.893149 ], [ 4.660335955900294, 43.89396723768246 ], [ 4.662088, 43.894158 ], [ 4.662606574541152, 43.895365209417399 ], [ 4.665408, 43.897337 ], [ 4.667287, 43.897403 ] ] ], [ [ [ 4.69945, 43.921901 ], [ 4.699351, 43.92183 ], [ 4.698904, 43.921548 ], [ 4.69855, 43.919109 ], [ 4.697044425712265, 43.923713452427258 ], [ 4.69972682779085, 43.922533320311857 ], [ 4.69945, 43.921901 ] ] ], [ [ [ 4.680904, 43.9318 ], [ 4.679257112472309, 43.932471396577476 ], [ 4.681115, 43.931952 ], [ 4.681304305395497, 43.931782942088461 ], [ 4.680904, 43.9318 ] ] ], [ [ [ 4.811779293314157, 44.027267972639294 ], [ 4.815995, 44.027301 ], [ 4.816356, 44.026902 ], [ 4.816478950624357, 44.026384008468213 ], [ 4.812071, 44.02714 ], [ 4.811779293314157, 44.027267972639294 ] ] ], [ [ [ 4.81731, 44.022885 ], [ 4.817248695607431, 44.023143127640914 ], [ 4.821837403369732, 44.017388443684176 ], [ 4.821795611489627, 44.017411033436396 ], [ 4.81731, 44.022885 ] ] ], [ [ [ 4.842072, 44.011949 ], [ 4.842217, 44.011822 ], [ 4.842494, 44.011586 ], [ 4.842463, 44.009975 ], [ 4.841719246886316, 44.012200471379074 ], [ 4.842072, 44.011949 ] ] ], [ [ [ 4.842436896680018, 44.009263882282937 ], [ 4.84243, 44.009076 ], [ 4.842343, 44.008433 ], [ 4.840666, 44.000972 ], [ 4.841119, 43.994827 ], [ 4.848108, 43.994574 ], [ 4.850963056243477, 43.993762199991401 ], [ 4.85128020298827, 43.993036414804912 ], [ 4.851329799950724, 43.991811963890612 ], [ 4.847466, 43.991188 ], [ 4.846911, 43.991071 ], [ 4.846456, 43.990918 ], [ 4.845724, 43.990507 ], [ 4.840986215264152, 43.993208111354299 ], [ 4.8408, 43.994839 ], [ 4.840255, 44.001248 ], [ 4.842436896680018, 44.009263882282937 ] ] ], [ [ [ 4.836814, 44.013547 ], [ 4.83887, 44.01336 ], [ 4.839047039939367, 44.013324855595158 ], [ 4.832733, 44.013527 ], [ 4.83138, 44.013766 ], [ 4.836814, 44.013547 ] ] ] ] } },
{ "type": "Feature", "properties": { "codgeo": "30351", "value": 1080, "isochrone_group": 18.0, "nb_agences": 1 }, "geometry": { "type": "MultiPolygon", "coordinates": [ [ [ [ 4.668517, 43.901177 ], [ 4.675369, 43.906594 ], [ 4.675697, 43.907431 ], [ 4.676005, 43.908031 ], [ 4.676624, 43.908445 ], [ 4.67703, 43.908499 ], [ 4.678693, 43.907977 ], [ 4.67893, 43.907407 ], [ 4.682245763179361, 43.903407102881815 ], [ 4.677304, 43.901162 ], [ 4.67703, 43.900999 ], [ 4.671746, 43.898291 ], [ 4.669455677429907, 43.897834887319547 ], [ 4.665886291467747, 43.900504725354082 ], [ 4.668517, 43.901177 ] ] ], [ [ [ 4.692177, 43.914345 ], [ 4.698252697494525, 43.918886757863469 ], [ 4.698494340752984, 43.918701188978602 ], [ 4.697978, 43.914918 ], [ 4.690781016484574, 43.911164439524441 ], [ 4.690771, 43.911505 ], [ 4.690867, 43.912077 ], [ 4.691108, 43.913563 ], [ 4.691157, 43.913919 ], [ 4.6916, 43.914145 ], [ 4.692177, 43.914345 ] ] ], [ [ [ 4.648684, 43.888406 ], [ 4.648735, 43.889641 ], [ 4.648671945845856, 43.889880950343965 ], [ 4.648828755545619, 43.889924518365028 ], [ 4.649237433507261, 43.888211007534217 ], [ 4.648684, 43.888406 ] ] ], [ [ [ 4.650308, 43.890223 ], [ 4.64975, 43.890177 ], [ 4.649712440066659, 43.890170041351638 ], [ 4.650119, 43.890283 ], [ 4.650322326179159, 43.890472289016174 ], [ 4.650851, 43.890218 ], [ 4.650308, 43.890223 ] ] ], [ [ [ 4.651654041203214, 43.890914522387284 ], [ 4.65387189413052, 43.891305878203283 ], [ 4.650851, 43.890218 ], [ 4.651654041203214, 43.890914522387284 ] ] ], [ [ [ 4.678101, 43.932297 ], [ 4.678502289500861, 43.932251066065767 ], [ 4.679979231004952, 43.930562194134488 ], [ 4.679437, 43.930649 ], [ 4.675162987846202, 43.931220507016981 ], [ 4.677629352806073, 43.932611299014667 ], [ 4.678101, 43.932297 ] ] ], [ [ [ 4.817248749271617, 44.023143060340828 ], [ 4.816395, 44.026738 ], [ 4.816394896468584, 44.026738129003434 ], [ 4.816356, 44.026902 ], [ 4.815995, 44.027301 ], [ 4.813118814861974, 44.02727846693233 ], [ 4.813440898585114, 44.030178948975781 ], [ 4.815926, 44.027593 ], [ 4.816233, 44.02742 ], [ 4.817187, 44.023404 ], [ 4.819573675459537, 44.020331133617198 ], [ 4.819596254806293, 44.020199061041126 ], [ 4.817248749271617, 44.023143060340828 ] ] ], [ [ [ 4.821818820029677, 44.017411748992423 ], [ 4.821838490893168, 44.017415163127168 ], [ 4.822477232053169, 44.016592778068485 ], [ 4.822468784130614, 44.016596631059912 ], [ 4.821818820029677, 44.017411748992423 ] ] ], [ [ [ 4.810485002456983, 44.035804859078041 ], [ 4.810485, 44.035805 ], [ 4.810485022405538, 44.035804838669321 ], [ 4.810485002456983, 44.035804859078041 ] ] ], [ [ [ 4.846836, 43.996185 ], [ 4.847574, 43.995177 ], [ 4.85082596149994, 43.994075939090571 ], [ 4.850963056243478, 43.993762199991401 ], [ 4.848108, 43.994574 ], [ 4.844167826589962, 43.994716633262669 ], [ 4.843173, 43.998494 ], [ 4.844198181705504, 44.006406684138298 ], [ 4.844211, 44.006263 ], [ 4.844248, 44.00552 ], [ 4.845891, 43.997549 ], [ 4.84639, 43.996797 ], [ 4.846836, 43.996185 ] ] ], [ [ [ 4.832702, 44.013878 ], [ 4.832484246998127, 44.013931222825377 ], [ 4.833891, 44.013768 ], [ 4.832702, 44.013878 ] ] ] ] } },
{ "type": "Feature", "properties": { "codgeo": "30351", "value": 1140, "isochrone_group": 19.0, "nb_agences": 1 }, "geometry": { "type": "MultiPolygon", "coordinates": [ [ [ [ 4.691108, 43.913563 ], [ 4.690867, 43.912077 ], [ 4.690771, 43.911505 ], [ 4.690798, 43.910587 ], [ 4.690742, 43.909399 ], [ 4.690751, 43.907772 ], [ 4.68608, 43.902398 ], [ 4.682628, 43.902946 ], [ 4.67893, 43.907407 ], [ 4.678693, 43.907977 ], [ 4.67703, 43.908499 ], [ 4.676624, 43.908445 ], [ 4.676005, 43.908031 ], [ 4.675697, 43.907431 ], [ 4.675369, 43.906594 ], [ 4.668517, 43.901177 ], [ 4.668123609929707, 43.901076469604114 ], [ 4.664946, 43.903286 ], [ 4.665142937434245, 43.903791858899716 ], [ 4.665567, 43.903934 ], [ 4.668953, 43.911086 ], [ 4.671581, 43.911968 ], [ 4.672346, 43.912288 ], [ 4.675095, 43.912751 ], [ 4.677321, 43.912866 ], [ 4.677857, 43.912147 ], [ 4.677994, 43.911942 ], [ 4.678279, 43.911132 ], [ 4.679797, 43.908775 ], [ 4.682559, 43.906926 ], [ 4.688953, 43.912523 ], [ 4.690423, 43.914627 ], [ 4.690806, 43.915443 ], [ 4.691739, 43.916113 ], [ 4.692533655550276, 43.920312437958913 ], [ 4.695813080561234, 43.917063074343929 ], [ 4.692177, 43.914345 ], [ 4.6916, 43.914145 ], [ 4.691157, 43.913919 ], [ 4.691108, 43.913563 ] ] ], [ [ [ 4.81623257919536, 44.027420237130954 ], [ 4.815996802359012, 44.027553101602265 ], [ 4.815091, 44.028531 ], [ 4.811959567984747, 44.031720393250801 ], [ 4.810899, 44.032824 ], [ 4.810738555333422, 44.03397927910887 ], [ 4.81159251544951, 44.034444933956344 ], [ 4.815743, 44.029348 ], [ 4.816135, 44.027831 ], [ 4.81623257919536, 44.027420237130954 ] ] ], [ [ [ 4.842707221187439, 44.011381078716084 ], [ 4.84273997334116, 44.011327912654906 ], [ 4.842621, 44.011469 ], [ 4.842649447386513, 44.011474862027583 ], [ 4.842707221187439, 44.011381078716084 ] ] ], [ [ [ 4.848451, 43.999511 ], [ 4.85082596149994, 43.994075939090571 ], [ 4.847574, 43.995177 ], [ 4.846836, 43.996185 ], [ 4.84639, 43.996797 ], [ 4.845891, 43.997549 ], [ 4.844248, 44.00552 ], [ 4.844211, 44.006263 ], [ 4.844125, 44.007227 ], [ 4.843937, 44.008629 ], [ 4.84348387231447, 44.010120353034253 ], [ 4.845002, 44.007656 ], [ 4.845117, 44.002889 ], [ 4.8468, 43.999706 ], [ 4.846919, 43.999568 ], [ 4.847233, 43.999562 ], [ 4.848451, 43.999511 ] ] ] ] } },
{ "type": "Feature", "properties": { "codgeo": "30351", "value": 1200, "isochrone_group": 20.0, "nb_agences": 1 }, "geometry": { "type": "MultiPolygon", "coordinates": [ [ [ [ 4.671547, 43.913467 ], [ 4.67102653410778, 43.916257218870911 ], [ 4.671143, 43.916264 ], [ 4.674741, 43.916377 ], [ 4.67679, 43.913742 ], [ 4.679657, 43.91217 ], [ 4.685593, 43.912442 ], [ 4.691482, 43.917867 ], [ 4.69116241172797, 43.919886060608121 ], [ 4.691514, 43.919821 ], [ 4.692373592912652, 43.919466570694802 ], [ 4.691739, 43.916113 ], [ 4.690806, 43.915443 ], [ 4.690423, 43.914627 ], [ 4.688953, 43.912523 ], [ 4.682559, 43.906926 ], [ 4.679797, 43.908775 ], [ 4.678279, 43.911132 ], [ 4.677994, 43.911942 ], [ 4.677857, 43.912147 ], [ 4.677321, 43.912866 ], [ 4.675095, 43.912751 ], [ 4.673147788776404, 43.912423041179871 ], [ 4.671547, 43.913467 ] ] ], [ [ [ 4.814613, 44.031979 ], [ 4.815239, 44.0307 ], [ 4.815673, 44.029577 ], [ 4.815729067093368, 44.029365110075716 ], [ 4.814041779717506, 44.03143715545152 ], [ 4.814539374835408, 44.032047238827452 ], [ 4.814613, 44.031979 ] ] ], [ [ [ 4.816135, 44.027831 ], [ 4.81614840781352, 44.02777455936296 ], [ 4.816148407813518, 44.02777455936296 ], [ 4.816135, 44.027831 ] ] ] ] } }
]
}
