{
"type": "FeatureCollection",
"name": "Credit_Agricole",
"crs": { "type": "name", "properties": { "name": "urn:ogc:def:crs:OGC:1.3:CRS84" } },
"features": [
{ "type": "Feature", "properties": { "codgeo": "30351", "value": 60, "isochrone_group": 1.0, "nb_agences": 1 }, "geometry": { "type": "Polygon", "coordinates": [ [ [ 4.796512, 43.962975 ], [ 4.797654, 43.958585 ], [ 4.797881, 43.958305 ], [ 4.798048, 43.958442 ], [ 4.798216, 43.958578 ], [ 4.798698, 43.958994 ], [ 4.799889, 43.960099 ], [ 4.801497, 43.962657 ], [ 4.802671, 43.965353 ], [ 4.802412, 43.965603 ], [ 4.79677, 43.963592 ], [ 4.796501, 43.963335 ], [ 4.796512, 43.962975 ] ] ] } },
{ "type": "Feature", "properties": { "codgeo": "30351", "value": 120, "isochrone_group": 2.0, "nb_agences": 1 }, "geometry": { "type": "Polygon", "coordinates": [ [ [ 4.792073, 43.956018 ], [ 4.793529, 43.957879 ], [ 4.795077, 43.963165 ], [ 4.795351, 43.964554 ], [ 4.795934, 43.966256 ], [ 4.798136, 43.968284 ], [ 4.798308, 43.968347 ], [ 4.798668, 43.968364 ], [ 4.804358, 43.968992 ], [ 4.804748, 43.968947 ], [ 4.806165, 43.967406 ], [ 4.807001, 43.962858 ], [ 4.807028, 43.962499 ], [ 4.805946, 43.96242 ], [ 4.801482, 43.959442 ], [ 4.801225, 43.959322 ], [ 4.800718, 43.959202 ], [ 4.795604, 43.95623 ], [ 4.79549, 43.956146 ], [ 4.792695, 43.954991 ], [ 4.792072, 43.955255 ], [ 4.79193, 43.955349 ], [ 4.791893, 43.955542 ], [ 4.791983, 43.95578 ], [ 4.792073, 43.956018 ] ], [ [ 4.797654, 43.958585 ], [ 4.797881, 43.958305 ], [ 4.798048, 43.958442 ], [ 4.798216, 43.958578 ], [ 4.798698, 43.958994 ], [ 4.799889, 43.960099 ], [ 4.801497, 43.962657 ], [ 4.802671, 43.965353 ], [ 4.802412, 43.965603 ], [ 4.79677, 43.963592 ], [ 4.796501, 43.963335 ], [ 4.796512, 43.962975 ], [ 4.797654, 43.958585 ] ] ] } },
{ "type": "Feature", "properties": { "codgeo": "30351", "value": 180, "isochrone_group": 3.0, "nb_agences": 1 }, "geometry": { "type": "Polygon", "coordinates": [ [ [ 4.794559, 43.953344 ], [ 4.79443, 43.953007 ], [ 4.790209, 43.951052 ], [ 4.789908, 43.951249 ], [ 4.788213, 43.95421 ], [ 4.788138, 43.954562 ], [ 4.789017, 43.954922 ], [ 4.790881, 43.95606 ], [ 4.792144, 43.964261 ], [ 4.791507, 43.965303 ], [ 4.791541, 43.96544 ], [ 4.791595, 43.965652 ], [ 4.794989, 43.970503 ], [ 4.795726, 43.971536 ], [ 4.804122, 43.972993 ], [ 4.805764, 43.972222 ], [ 4.810472, 43.967863 ], [ 4.810706, 43.967589 ], [ 4.80935, 43.962676 ], [ 4.801482, 43.959442 ], [ 4.805946, 43.96242 ], [ 4.807028, 43.962499 ], [ 4.807001, 43.962858 ], [ 4.806165, 43.967406 ], [ 4.804748, 43.968947 ], [ 4.804358, 43.968992 ], [ 4.798668, 43.968364 ], [ 4.798308, 43.968347 ], [ 4.798136, 43.968284 ], [ 4.795934, 43.966256 ], [ 4.795351, 43.964554 ], [ 4.795077, 43.963165 ], [ 4.793529, 43.957879 ], [ 4.792073, 43.956018 ], [ 4.791983, 43.95578 ], [ 4.791893, 43.955542 ], [ 4.79193, 43.955349 ], [ 4.792072, 43.955255 ], [ 4.792695, 43.954991 ], [ 4.79549, 43.956146 ], [ 4.795604, 43.95623 ], [ 4.800718, 43.959202 ], [ 4.801225, 43.959322 ], [ 4.794559, 43.953344 ] ] ] } },
{ "type": "Feature", "properties": { "codgeo": "30351", "value": 240, "isochrone_group": 4.0, "nb_agences": 1 }, "geometry": { "type": "MultiPolygon", "coordinates": [ [ [ [ 4.787311, 43.965997 ], [ 4.787167, 43.966453 ], [ 4.787234, 43.966807 ], [ 4.79212, 43.971116 ], [ 4.795571, 43.97578 ], [ 4.796189, 43.976217 ], [ 4.798256, 43.977594 ], [ 4.79889, 43.977838 ], [ 4.799524, 43.978081 ], [ 4.80449, 43.975711 ], [ 4.809023, 43.973079 ], [ 4.809067, 43.973022 ], [ 4.811753, 43.969359 ], [ 4.811758, 43.968999 ], [ 4.810844, 43.964214 ], [ 4.810674, 43.963897 ], [ 4.80935, 43.962676 ], [ 4.810706, 43.967589 ], [ 4.810472, 43.967863 ], [ 4.805764, 43.972222 ], [ 4.804122, 43.972993 ], [ 4.795726, 43.971536 ], [ 4.794989, 43.970503 ], [ 4.791595, 43.965652 ], [ 4.791541, 43.96544 ], [ 4.791507, 43.965303 ], [ 4.792144, 43.964261 ], [ 4.790881, 43.95606 ], [ 4.789974957751075, 43.955506847596972 ], [ 4.788060735137397, 43.961682169741941 ], [ 4.788642, 43.964821 ], [ 4.787311, 43.965997 ] ] ], [ [ [ 4.797998, 43.952235 ], [ 4.797897, 43.95189 ], [ 4.797817, 43.951805 ], [ 4.793295, 43.951481 ], [ 4.788477, 43.948862 ], [ 4.787791, 43.94827 ], [ 4.786534, 43.947676 ], [ 4.786459, 43.947663 ], [ 4.783174, 43.949495 ], [ 4.782741593918661, 43.952621434640569 ], [ 4.783765, 43.952503 ], [ 4.784388, 43.952234 ], [ 4.788447216783871, 43.953800846078444 ], [ 4.789908, 43.951249 ], [ 4.790209, 43.951052 ], [ 4.79443, 43.953007 ], [ 4.794559, 43.953344 ], [ 4.801225, 43.959322 ], [ 4.801482, 43.959442 ], [ 4.797998, 43.952235 ] ] ] ] } },
{ "type": "Feature", "properties": { "codgeo": "30351", "value": 300, "isochrone_group": 5.0, "nb_agences": 1 }, "geometry": { "type": "MultiPolygon", "coordinates": [ [ [ [ 4.788933, 43.977048 ], [ 4.789274, 43.97693 ], [ 4.798021168273767, 43.977437559125782 ], [ 4.796189, 43.976217 ], [ 4.795571, 43.97578 ], [ 4.79212, 43.971116 ], [ 4.791751722540046, 43.970791213349379 ], [ 4.791086, 43.9712 ], [ 4.788276, 43.971109 ], [ 4.786365087980012, 43.971541055644607 ], [ 4.788182, 43.976187 ], [ 4.788291, 43.976561 ], [ 4.788933, 43.977048 ] ] ], [ [ [ 4.805802, 43.984388 ], [ 4.806152, 43.984302 ], [ 4.806074, 43.983984 ], [ 4.805996, 43.983666 ], [ 4.805773, 43.9826 ], [ 4.806349, 43.97708 ], [ 4.809204, 43.973221 ], [ 4.809368, 43.973052 ], [ 4.809735, 43.972689 ], [ 4.809944, 43.972491 ], [ 4.810138, 43.972276 ], [ 4.810685, 43.97158 ], [ 4.811225, 43.970893 ], [ 4.811375, 43.970643 ], [ 4.811966, 43.969249 ], [ 4.812199, 43.968696 ], [ 4.812444, 43.968042 ], [ 4.812413, 43.967882 ], [ 4.812278, 43.967492 ], [ 4.812142, 43.967099 ], [ 4.811907, 43.966458 ], [ 4.811671, 43.965817 ], [ 4.811587, 43.965588 ], [ 4.811503, 43.965359 ], [ 4.810674, 43.963897 ], [ 4.810844, 43.964214 ], [ 4.811758, 43.968999 ], [ 4.811753, 43.969359 ], [ 4.809067, 43.973022 ], [ 4.809023, 43.973079 ], [ 4.80449, 43.975711 ], [ 4.799524, 43.978081 ], [ 4.79889, 43.977838 ], [ 4.798256, 43.977594 ], [ 4.803966, 43.981527 ], [ 4.805802, 43.984388 ] ] ], [ [ [ 4.802363, 43.950502 ], [ 4.80241918134929, 43.950411955919627 ], [ 4.802241324960755, 43.950116662480369 ], [ 4.802006, 43.949999 ], [ 4.798637, 43.950654 ], [ 4.791205, 43.947726 ], [ 4.789524, 43.946897 ], [ 4.782365, 43.944227 ], [ 4.780425, 43.942804 ], [ 4.780237, 43.942664 ], [ 4.780062, 43.942553 ], [ 4.779876, 43.942435 ], [ 4.77961, 43.942291 ], [ 4.779392, 43.942192 ], [ 4.779159, 43.942086 ], [ 4.778936, 43.942007 ], [ 4.778692, 43.941922 ], [ 4.778421, 43.941859 ], [ 4.773047, 43.948477 ], [ 4.769433, 43.949467 ], [ 4.768911, 43.949542 ], [ 4.768032, 43.949645 ], [ 4.767665, 43.949675 ], [ 4.767695, 43.950034 ], [ 4.768062, 43.950004 ], [ 4.768429, 43.949974 ], [ 4.768962, 43.949898 ], [ 4.769831323780154, 43.949903992384506 ], [ 4.773675, 43.948348 ], [ 4.774034, 43.948336 ], [ 4.77516, 43.948684 ], [ 4.775349, 43.948842 ], [ 4.775993718848812, 43.949992876924419 ], [ 4.781375, 43.949312 ], [ 4.783599, 43.949069 ], [ 4.783969628919518, 43.949051288529489 ], [ 4.786459, 43.947663 ], [ 4.786534, 43.947676 ], [ 4.787791, 43.94827 ], [ 4.788477, 43.948862 ], [ 4.792996096855612, 43.951318520270831 ], [ 4.794124, 43.95139 ], [ 4.794183149755381, 43.951544635674637 ], [ 4.797817, 43.951805 ], [ 4.797897, 43.95189 ], [ 4.797998, 43.952235 ], [ 4.801482, 43.959442 ], [ 4.805173952315617, 43.961102178161703 ], [ 4.801142, 43.956649 ], [ 4.802363, 43.950502 ] ] ] ] } },
{ "type": "Feature", "properties": { "codgeo": "30351", "value": 360, "isochrone_group": 6.0, "nb_agences": 1 }, "geometry": { "type": "MultiPolygon", "coordinates": [ [ [ [ 4.784271, 43.980588 ], [ 4.784704, 43.981073 ], [ 4.785851, 43.981414 ], [ 4.785956, 43.981409 ], [ 4.788552, 43.980901 ], [ 4.789797, 43.980746 ], [ 4.797675, 43.979106 ], [ 4.799651, 43.979863 ], [ 4.804664, 43.987148 ], [ 4.805008, 43.988191 ], [ 4.805463, 43.989131 ], [ 4.805756, 43.989598 ], [ 4.807326, 43.991725 ], [ 4.807665, 43.992155 ], [ 4.808287, 43.992766 ], [ 4.809024, 43.992976 ], [ 4.811859, 43.990757 ], [ 4.808714, 43.983792 ], [ 4.808455, 43.981913 ], [ 4.811059, 43.973665 ], [ 4.811342, 43.973359 ], [ 4.812498, 43.971895 ], [ 4.812768, 43.97147 ], [ 4.813081, 43.970718 ], [ 4.813444, 43.969912 ], [ 4.813459, 43.969879 ], [ 4.814039, 43.96776 ], [ 4.813944, 43.967352 ], [ 4.813663, 43.966541 ], [ 4.811092, 43.9584 ], [ 4.80693, 43.951776 ], [ 4.805652, 43.949432 ], [ 4.805615861905175, 43.949411088543506 ], [ 4.804541, 43.951936 ], [ 4.804298, 43.952241 ], [ 4.804064, 43.952515 ], [ 4.802180195004345, 43.951422313110804 ], [ 4.801142, 43.956649 ], [ 4.806397, 43.962453 ], [ 4.807934, 43.962566 ], [ 4.808556, 43.962623 ], [ 4.80935, 43.962676 ], [ 4.810674, 43.963897 ], [ 4.811503, 43.965359 ], [ 4.811587, 43.965588 ], [ 4.811671, 43.965817 ], [ 4.811907, 43.966458 ], [ 4.812142, 43.967099 ], [ 4.812278, 43.967492 ], [ 4.812413, 43.967882 ], [ 4.812444, 43.968042 ], [ 4.812199, 43.968696 ], [ 4.811966, 43.969249 ], [ 4.811375, 43.970643 ], [ 4.811225, 43.970893 ], [ 4.810685, 43.97158 ], [ 4.810138, 43.972276 ], [ 4.809944, 43.972491 ], [ 4.809735, 43.972689 ], [ 4.809368, 43.973052 ], [ 4.809204, 43.973221 ], [ 4.806349, 43.97708 ], [ 4.805773, 43.9826 ], [ 4.805996, 43.983666 ], [ 4.806074, 43.983984 ], [ 4.806152, 43.984302 ], [ 4.805802, 43.984388 ], [ 4.803966, 43.981527 ], [ 4.798256, 43.977594 ], [ 4.798046, 43.977439 ], [ 4.789274, 43.97693 ], [ 4.788933, 43.977048 ], [ 4.788291, 43.976561 ], [ 4.788182, 43.976187 ], [ 4.787937225997423, 43.975561099360284 ], [ 4.784219957526687, 43.977088709002125 ], [ 4.784535, 43.978021 ], [ 4.784242, 43.980538 ], [ 4.784271, 43.980588 ] ] ], [ [ [ 4.78434, 43.942749 ], [ 4.783021, 43.941972 ], [ 4.780402, 43.9407 ], [ 4.778354, 43.939706 ], [ 4.777164, 43.939116 ], [ 4.775778, 43.938506 ], [ 4.774749, 43.938103 ], [ 4.767586, 43.937031 ], [ 4.766043, 43.936866 ], [ 4.765659, 43.940445 ], [ 4.761502, 43.94828 ], [ 4.761017, 43.948393 ], [ 4.760483, 43.948547 ], [ 4.759691, 43.948847 ], [ 4.759145, 43.949103 ], [ 4.758721913343748, 43.949360152344688 ], [ 4.759444, 43.949459 ], [ 4.765462, 43.948074 ], [ 4.772934, 43.94448 ], [ 4.774879, 43.944279 ], [ 4.776062776503491, 43.944763116691448 ], [ 4.778421, 43.941859 ], [ 4.778692, 43.941922 ], [ 4.778936, 43.942007 ], [ 4.779159, 43.942086 ], [ 4.779392, 43.942192 ], [ 4.77961, 43.942291 ], [ 4.779876, 43.942435 ], [ 4.780062, 43.942553 ], [ 4.780237, 43.942664 ], [ 4.780425, 43.942804 ], [ 4.782365, 43.944227 ], [ 4.78933848152991, 43.946827809566251 ], [ 4.792407321277178, 43.943520876328741 ], [ 4.78434, 43.942749 ] ] ], [ [ [ 4.791205, 43.947726 ], [ 4.798637, 43.950654 ], [ 4.800370476125859, 43.95031697807584 ], [ 4.793895, 43.946223 ], [ 4.793694, 43.946266 ], [ 4.791319, 43.947056 ], [ 4.790667381343578, 43.947460868610257 ], [ 4.791205, 43.947726 ] ] ] ] } },
{ "type": "Feature", "properties": { "codgeo": "30351", "value": 420, "isochrone_group": 7.0, "nb_agences": 1 }, "geometry": { "type": "MultiPolygon", "coordinates": [ [ [ [ 4.783593, 43.984421 ], [ 4.785183, 43.984681 ], [ 4.785862, 43.984531 ], [ 4.788073, 43.98327 ], [ 4.792635, 43.980156 ], [ 4.799651, 43.979863 ], [ 4.797675, 43.979106 ], [ 4.789797, 43.980746 ], [ 4.788552, 43.980901 ], [ 4.785956, 43.981409 ], [ 4.785851, 43.981414 ], [ 4.784704, 43.981073 ], [ 4.784271, 43.980588 ], [ 4.784242, 43.980538 ], [ 4.784335679700496, 43.979733249808369 ], [ 4.78125, 43.979358 ], [ 4.781166516358793, 43.979357969262281 ], [ 4.78219, 43.98101 ], [ 4.783539, 43.984377 ], [ 4.783593, 43.984421 ] ] ], [ [ [ 4.810019, 43.999536 ], [ 4.810145, 44.000993 ], [ 4.813732, 44.000683 ], [ 4.814766, 43.995632 ], [ 4.814718, 43.995237 ], [ 4.814679, 43.99494 ], [ 4.81463, 43.994866 ], [ 4.813341, 43.992863 ], [ 4.812609, 43.991727 ], [ 4.810336, 43.987229 ], [ 4.809868, 43.986337 ], [ 4.809837611418196, 43.986280379500087 ], [ 4.811859, 43.990757 ], [ 4.809024, 43.992976 ], [ 4.808287, 43.992766 ], [ 4.807665, 43.992155 ], [ 4.807326, 43.991725 ], [ 4.809792, 43.998045 ], [ 4.810019, 43.999536 ] ] ], [ [ [ 4.808714, 43.983792 ], [ 4.808715919579902, 43.98379625115232 ], [ 4.808713881250139, 43.983791138490389 ], [ 4.808714, 43.983792 ] ] ], [ [ [ 4.808455, 43.981913 ], [ 4.808472402061362, 43.982039248931649 ], [ 4.808674719465143, 43.981217052938362 ], [ 4.808455, 43.981913 ] ] ], [ [ [ 4.816975, 43.963583 ], [ 4.817027, 43.963028 ], [ 4.817012, 43.962775 ], [ 4.814983, 43.954822 ], [ 4.814737636437878, 43.953803290074248 ], [ 4.812307, 43.953875 ], [ 4.812003, 43.953882 ], [ 4.810717, 43.953871 ], [ 4.808433, 43.953893 ], [ 4.808261056397537, 43.953894432863365 ], [ 4.811092, 43.9584 ], [ 4.813663, 43.966541 ], [ 4.813944, 43.967352 ], [ 4.814039, 43.96776 ], [ 4.813459, 43.969879 ], [ 4.813444, 43.969912 ], [ 4.813081, 43.970718 ], [ 4.812768, 43.97147 ], [ 4.815969, 43.966197 ], [ 4.816975, 43.963583 ] ] ], [ [ [ 4.783021, 43.941972 ], [ 4.78319034433925, 43.942071757810162 ], [ 4.78350536531197, 43.941830329287214 ], [ 4.783021, 43.941972 ] ] ], [ [ [ 4.772566, 43.937369 ], [ 4.77135, 43.937046 ], [ 4.770103, 43.936768 ], [ 4.769109, 43.936562 ], [ 4.768106, 43.936398 ], [ 4.759198, 43.936422 ], [ 4.758463, 43.93631 ], [ 4.752697, 43.934871 ], [ 4.75147, 43.935749 ], [ 4.751432, 43.935802 ], [ 4.751525, 43.938275 ], [ 4.752314, 43.938547 ], [ 4.753067, 43.938786 ], [ 4.754499, 43.939179 ], [ 4.755115, 43.939332 ], [ 4.756484, 43.939618 ], [ 4.758726, 43.940999 ], [ 4.758490445018649, 43.945048769669462 ], [ 4.76355787678102, 43.944405139624898 ], [ 4.765659, 43.940445 ], [ 4.766043, 43.936866 ], [ 4.767586, 43.937031 ], [ 4.77473973522696, 43.938101613452922 ], [ 4.774656, 43.938069 ], [ 4.772566, 43.937369 ] ] ] ] } },
{ "type": "Feature", "properties": { "codgeo": "30351", "value": 480, "isochrone_group": 8.0, "nb_agences": 1 }, "geometry": { "type": "MultiPolygon", "coordinates": [ [ [ [ 4.783327, 43.989431 ], [ 4.784203, 43.990012 ], [ 4.784298, 43.989899 ], [ 4.784469, 43.989675 ], [ 4.78475, 43.989195 ], [ 4.788831, 43.984462 ], [ 4.790462, 43.982575 ], [ 4.798621, 43.980134 ], [ 4.803287854018477, 43.983951198087645 ], [ 4.802339, 43.981747 ], [ 4.799651, 43.979863 ], [ 4.792326433312339, 43.980366626187063 ], [ 4.788073, 43.98327 ], [ 4.785862, 43.984531 ], [ 4.785183, 43.984681 ], [ 4.783593, 43.984421 ], [ 4.783539, 43.984377 ], [ 4.782626273234523, 43.982098904359262 ], [ 4.782298, 43.982071 ], [ 4.780034587782817, 43.981385951478146 ], [ 4.780491, 43.981733 ], [ 4.781337, 43.984734 ], [ 4.781443, 43.987701 ], [ 4.783327, 43.989431 ] ] ], [ [ [ 4.807456, 44.009196 ], [ 4.807473, 44.009233 ], [ 4.810313, 44.009781 ], [ 4.81238, 44.007901 ], [ 4.813526, 44.004262 ], [ 4.814806, 44.001248 ], [ 4.821452, 43.996864 ], [ 4.821148, 43.993276 ], [ 4.818904, 43.993467 ], [ 4.812609, 43.991727 ], [ 4.813341, 43.992863 ], [ 4.81463, 43.994866 ], [ 4.814679, 43.99494 ], [ 4.814718, 43.995237 ], [ 4.814766, 43.995632 ], [ 4.813732, 44.000683 ], [ 4.810145, 44.000993 ], [ 4.810019, 43.999536 ], [ 4.809792, 43.998045 ], [ 4.809085, 44.004506 ], [ 4.807551, 44.007472 ], [ 4.807456, 44.009196 ] ] ], [ [ [ 4.820735, 43.965286 ], [ 4.820549, 43.964926 ], [ 4.819461, 43.963974 ], [ 4.821580220962653, 43.956266441977938 ], [ 4.820216548704144, 43.95537453096793 ], [ 4.819638724249621, 43.955168330288359 ], [ 4.815096018430784, 43.955264994371632 ], [ 4.817012, 43.962775 ], [ 4.817027, 43.963028 ], [ 4.816975, 43.963583 ], [ 4.815969, 43.966197 ], [ 4.812768, 43.97147 ], [ 4.812498, 43.971895 ], [ 4.820589, 43.968018 ], [ 4.820733, 43.965506 ], [ 4.820735, 43.965286 ] ] ], [ [ [ 4.776486881746691, 43.93881798980194 ], [ 4.776606662618708, 43.938644541287104 ], [ 4.776305808118, 43.938738296502166 ], [ 4.776486881746691, 43.93881798980194 ] ] ], [ [ [ 4.759198, 43.936422 ], [ 4.766301626318294, 43.936402861357024 ], [ 4.765899, 43.936361 ], [ 4.758463, 43.93631 ], [ 4.759198, 43.936422 ] ] ], [ [ [ 4.745329, 43.929956 ], [ 4.744057, 43.929111 ], [ 4.741365, 43.931502 ], [ 4.74259, 43.933038 ], [ 4.743124, 43.933742 ], [ 4.744344, 43.935087 ], [ 4.744668, 43.935272 ], [ 4.745399, 43.935618 ], [ 4.751296, 43.940837 ], [ 4.754559090186346, 43.94276674168502 ], [ 4.757158, 43.94198 ], [ 4.758492669631316, 43.940855275986095 ], [ 4.756484, 43.939618 ], [ 4.755115, 43.939332 ], [ 4.754499, 43.939179 ], [ 4.753067, 43.938786 ], [ 4.752314, 43.938547 ], [ 4.751525, 43.938275 ], [ 4.751432, 43.935802 ], [ 4.75147, 43.935749 ], [ 4.75269579320234, 43.934871863543876 ], [ 4.75248, 43.934798 ], [ 4.745608, 43.930158 ], [ 4.745329, 43.929956 ] ] ] ] } },
{ "type": "Feature", "properties": { "codgeo": "30351", "value": 540, "isochrone_group": 9.0, "nb_agences": 1 }, "geometry": { "type": "MultiPolygon", "coordinates": [ [ [ [ 4.752009605911303, 43.942647408866975 ], [ 4.751932844036713, 43.942532266055053 ], [ 4.751961, 43.94258 ], [ 4.752009605911303, 43.942647408866975 ] ] ], [ [ [ 4.751872576247824, 43.942430091631614 ], [ 4.751612734122278, 43.941920005770378 ], [ 4.751682, 43.942107 ], [ 4.751872576247824, 43.942430091631614 ] ] ], [ [ [ 4.742469, 43.927664 ], [ 4.741579, 43.927016 ], [ 4.740944, 43.926625 ], [ 4.736367, 43.923402 ], [ 4.733962, 43.921413 ], [ 4.732929984168865, 43.922661406247329 ], [ 4.734124, 43.92365 ], [ 4.735338, 43.924653 ], [ 4.736103, 43.925319 ], [ 4.736868, 43.925986 ], [ 4.736632, 43.926258 ], [ 4.735867, 43.925591 ], [ 4.735101, 43.924924 ], [ 4.733895, 43.923927 ], [ 4.732700106186579, 43.92293948445171 ], [ 4.731668, 43.924188 ], [ 4.733317, 43.926375 ], [ 4.73428, 43.926929 ], [ 4.735687, 43.927774 ], [ 4.736732, 43.928393 ], [ 4.741908, 43.933992 ], [ 4.744988, 43.935856 ], [ 4.751389, 43.941316 ], [ 4.751441405927006, 43.941457478116924 ], [ 4.751329, 43.941054 ], [ 4.751266536579059, 43.940810924098038 ], [ 4.745399, 43.935618 ], [ 4.744668, 43.935272 ], [ 4.744344, 43.935087 ], [ 4.743124, 43.933742 ], [ 4.74259, 43.933038 ], [ 4.741365, 43.931502 ], [ 4.744055887414702, 43.92911198818404 ], [ 4.743997, 43.929046 ], [ 4.743736, 43.928781 ], [ 4.742469, 43.927664 ] ] ], [ [ [ 4.75458417779344, 43.935277633854639 ], [ 4.757941811056585, 43.936171283195812 ], [ 4.759369570475505, 43.936316217737257 ], [ 4.765872845270306, 43.936360820617097 ], [ 4.765709, 43.936344 ], [ 4.763643, 43.936242 ], [ 4.761978, 43.93619 ], [ 4.75458417779344, 43.935277633854639 ] ] ], [ [ [ 4.801106, 44.008873 ], [ 4.800513, 44.00911 ], [ 4.800204, 44.009285 ], [ 4.801984, 44.012414 ], [ 4.803503, 44.013229 ], [ 4.809289, 44.01474 ], [ 4.814741, 44.010039 ], [ 4.817689, 44.007681 ], [ 4.817709, 44.005612 ], [ 4.822598, 43.999022 ], [ 4.824516, 43.998736 ], [ 4.826118, 43.99827 ], [ 4.825769, 43.996633 ], [ 4.825172, 43.994039 ], [ 4.824617, 43.991634 ], [ 4.824063, 43.989229 ], [ 4.820555, 43.990038 ], [ 4.816738, 43.991439 ], [ 4.810613, 43.989165 ], [ 4.812609, 43.991727 ], [ 4.818904, 43.993467 ], [ 4.821148, 43.993276 ], [ 4.821452, 43.996864 ], [ 4.814806, 44.001248 ], [ 4.813526, 44.004262 ], [ 4.81238, 44.007901 ], [ 4.810313, 44.009781 ], [ 4.807473, 44.009233 ], [ 4.807456, 44.009196 ], [ 4.807551, 44.007472 ], [ 4.809085, 44.004506 ], [ 4.802613, 44.008676 ], [ 4.801607, 44.008771 ], [ 4.801106, 44.008873 ] ] ], [ [ [ 4.820182, 43.97651 ], [ 4.820307, 43.976552 ], [ 4.82244, 43.9751 ], [ 4.826017, 43.967357 ], [ 4.830243976455584, 43.960852036232886 ], [ 4.82905, 43.960661 ], [ 4.828524, 43.960503 ], [ 4.827653, 43.960167 ], [ 4.827171, 43.959917 ], [ 4.826703, 43.959617 ], [ 4.824818, 43.95812 ], [ 4.824328478308616, 43.95773124658745 ], [ 4.822970788912071, 43.95665378291956 ], [ 4.821544036018952, 43.956398045788028 ], [ 4.819461, 43.963974 ], [ 4.820549, 43.964926 ], [ 4.820735, 43.965286 ], [ 4.820733, 43.965506 ], [ 4.820589, 43.968018 ], [ 4.812498, 43.971895 ], [ 4.811342, 43.973359 ], [ 4.811059, 43.973665 ], [ 4.810696, 43.974009 ], [ 4.810364, 43.974352 ], [ 4.810256225944873, 43.974789982074959 ], [ 4.818899, 43.975749 ], [ 4.81976, 43.976315 ], [ 4.820182, 43.97651 ] ] ], [ [ [ 4.798621, 43.980134 ], [ 4.793310177121694, 43.981722885726924 ], [ 4.797027, 43.982423 ], [ 4.797272, 43.982475 ], [ 4.804664, 43.987148 ], [ 4.803287854018477, 43.983951198087645 ], [ 4.798621, 43.980134 ] ] ], [ [ [ 4.782987, 43.995904 ], [ 4.783565, 43.995319 ], [ 4.786623, 43.990157 ], [ 4.786813, 43.989241 ], [ 4.787547630307896, 43.985950406947495 ], [ 4.78475, 43.989195 ], [ 4.784469, 43.989675 ], [ 4.784298, 43.989899 ], [ 4.784203, 43.990012 ], [ 4.783327, 43.989431 ], [ 4.781443, 43.987701 ], [ 4.781419984461815, 43.987056782058474 ], [ 4.777844, 43.987004 ], [ 4.777498518570733, 43.986766509523328 ], [ 4.778403, 43.989993 ], [ 4.780625, 43.995424 ], [ 4.780678, 43.995494 ], [ 4.782958, 43.995922 ], [ 4.782987, 43.995904 ] ] ], [ [ [ 4.736732, 43.964424 ], [ 4.735819996323009, 43.964297248321522 ], [ 4.740772, 43.968352 ], [ 4.736732, 43.964424 ] ] ] ] } },
{ "type": "Feature", "properties": { "codgeo": "30351", "value": 600, "isochrone_group": 10.0, "nb_agences": 1 }, "geometry": { "type": "MultiPolygon", "coordinates": [ [ [ [ 4.757570325015351, 43.935646111693885 ], [ 4.75248, 43.934798 ], [ 4.753485, 43.935142 ], [ 4.757570325015351, 43.935646111693885 ] ] ], [ [ [ 4.731412, 43.918725 ], [ 4.73226, 43.919806 ], [ 4.733173, 43.920723 ], [ 4.733947, 43.921401 ], [ 4.733961801990418, 43.921413239527709 ], [ 4.733962, 43.921413 ], [ 4.736367, 43.923402 ], [ 4.730637, 43.917614 ], [ 4.72873, 43.914801 ], [ 4.726823, 43.911989 ], [ 4.726822837104971, 43.911989110455842 ], [ 4.728626, 43.914649 ], [ 4.73062, 43.91759 ], [ 4.731412, 43.918725 ] ] ], [ [ [ 4.731653, 43.924175 ], [ 4.726748886229982, 43.922764470646378 ], [ 4.727094, 43.922904 ], [ 4.731466, 43.925161 ], [ 4.732018, 43.925556 ], [ 4.733245, 43.926332 ], [ 4.733315039133232, 43.926372399384093 ], [ 4.731668, 43.924188 ], [ 4.731668293931602, 43.924187644437588 ], [ 4.731653, 43.924175 ] ] ], [ [ [ 4.744988, 43.935856 ], [ 4.741908, 43.933992 ], [ 4.736732, 43.928393 ], [ 4.735687, 43.927774 ], [ 4.740491, 43.935172 ], [ 4.742324, 43.936442 ], [ 4.743126, 43.936728 ], [ 4.744, 43.936638 ], [ 4.751389, 43.941316 ], [ 4.744988, 43.935856 ] ] ], [ [ [ 4.752858, 43.943824 ], [ 4.751583449546751, 43.947966803734978 ], [ 4.753732361594446, 43.945028575452838 ], [ 4.752858, 43.943824 ] ] ], [ [ [ 4.788101, 43.991848 ], [ 4.790604, 43.988517 ], [ 4.797824, 43.983526 ], [ 4.799595, 43.984441 ], [ 4.805463, 43.989131 ], [ 4.805008, 43.988191 ], [ 4.804664, 43.987148 ], [ 4.797272, 43.982475 ], [ 4.797027, 43.982423 ], [ 4.790152, 43.981128 ], [ 4.787739861732555, 43.985564212623814 ], [ 4.787510911053483, 43.986114881680116 ], [ 4.786813, 43.989241 ], [ 4.786623, 43.990157 ], [ 4.783565, 43.995319 ], [ 4.782987, 43.995904 ], [ 4.782958, 43.995922 ], [ 4.780678, 43.995494 ], [ 4.780625, 43.995424 ], [ 4.778403, 43.989993 ], [ 4.777982449418956, 43.988492800658371 ], [ 4.776791, 43.986201 ], [ 4.77525261956607, 43.985370369263009 ], [ 4.776317, 43.991199 ], [ 4.777177, 43.998303 ], [ 4.77801, 44.000683 ], [ 4.778211, 44.000784 ], [ 4.780204, 44.000252 ], [ 4.78092, 43.999435 ], [ 4.781086, 43.999185 ], [ 4.78421, 43.995741 ], [ 4.788101, 43.991848 ] ] ], [ [ [ 4.799777, 44.009528 ], [ 4.800204268760781, 44.009285472445221 ], [ 4.800204, 44.009285 ], [ 4.800513, 44.00911 ], [ 4.801106, 44.008873 ], [ 4.801607, 44.008771 ], [ 4.802613, 44.008676 ], [ 4.809085, 44.004506 ], [ 4.809176812280763, 44.004017448570231 ], [ 4.800928, 44.006076 ], [ 4.798298, 44.009157 ], [ 4.79741228033568, 44.011237099211655 ], [ 4.797514, 44.011181 ], [ 4.797864, 44.010878 ], [ 4.799777, 44.009528 ] ] ], [ [ [ 4.815545, 44.01175 ], [ 4.81592590665385, 44.009091235451223 ], [ 4.814741, 44.010039 ], [ 4.809289, 44.01474 ], [ 4.805174872355786, 44.013665605449297 ], [ 4.807822, 44.016821 ], [ 4.808801, 44.016978 ], [ 4.809173770992109, 44.017736431714233 ], [ 4.809437, 44.017663 ], [ 4.815239, 44.015337 ], [ 4.815545, 44.01175 ] ] ], [ [ [ 4.826041, 43.986663 ], [ 4.824399, 43.984753 ], [ 4.825979, 43.9762 ], [ 4.830502, 43.968702 ], [ 4.830515, 43.968554 ], [ 4.834440655784823, 43.960710687728948 ], [ 4.831659, 43.960858 ], [ 4.831658980260665, 43.960857626511007 ], [ 4.831105, 43.960887 ], [ 4.831023586349565, 43.960885026335745 ], [ 4.830946, 43.960889 ], [ 4.830732965779363, 43.960877980988599 ], [ 4.830445, 43.960871 ], [ 4.830350256844417, 43.960858185698839 ], [ 4.83025, 43.960853 ], [ 4.830243976455584, 43.960852036232886 ], [ 4.826017, 43.967357 ], [ 4.82244, 43.9751 ], [ 4.820307, 43.976552 ], [ 4.820182, 43.97651 ], [ 4.81976, 43.976315 ], [ 4.818899, 43.975749 ], [ 4.809968, 43.974758 ], [ 4.80952176069645, 43.975375829563298 ], [ 4.810795, 43.980352 ], [ 4.810878, 43.980895 ], [ 4.810888, 43.981523 ], [ 4.810114, 43.983312 ], [ 4.812002314519228, 43.98968080428029 ], [ 4.816738, 43.991439 ], [ 4.820555, 43.990038 ], [ 4.824063, 43.989229 ], [ 4.824617, 43.991634 ], [ 4.825172, 43.994039 ], [ 4.825769, 43.996633 ], [ 4.826118, 43.99827 ], [ 4.824516, 43.998736 ], [ 4.822598, 43.999022 ], [ 4.818813290320527, 44.004123500672492 ], [ 4.820175, 44.003962 ], [ 4.825987, 44.003588 ], [ 4.827871, 43.997919 ], [ 4.827832, 43.997498 ], [ 4.82738, 43.994353 ], [ 4.826041, 43.986663 ] ] ], [ [ [ 4.80790635096706, 43.992778751200582 ], [ 4.807906350967058, 43.992778751200582 ], [ 4.809744, 43.997528 ], [ 4.80790635096706, 43.992778751200582 ] ] ] ] } },
{ "type": "Feature", "properties": { "codgeo": "30351", "value": 660, "isochrone_group": 11.0, "nb_agences": 1 }, "geometry": { "type": "MultiPolygon", "coordinates": [ [ [ [ 4.726393871325032, 43.922754142333439 ], [ 4.723584, 43.921995 ], [ 4.722679, 43.921959 ], [ 4.726393871325032, 43.922754142333439 ] ] ], [ [ [ 4.742324, 43.936442 ], [ 4.740491, 43.935172 ], [ 4.735687, 43.927774 ], [ 4.73933, 43.935725 ], [ 4.739551, 43.936178 ], [ 4.739958, 43.936745 ], [ 4.741177, 43.938341 ], [ 4.741632, 43.938428 ], [ 4.742307, 43.938558 ], [ 4.745429073256703, 43.937542750939883 ], [ 4.744, 43.936638 ], [ 4.743126, 43.936728 ], [ 4.743052, 43.936717 ], [ 4.743044543377687, 43.93669895187783 ], [ 4.742324, 43.936442 ] ] ], [ [ [ 4.756012, 43.93528 ], [ 4.755394533950885, 43.935118585419559 ], [ 4.756097788378936, 43.935400768707488 ], [ 4.756102552363766, 43.93540156244682 ], [ 4.756247041494913, 43.935333932001932 ], [ 4.756012, 43.93528 ] ] ], [ [ [ 4.828608, 43.985529 ], [ 4.829587, 43.97818 ], [ 4.832065, 43.97652 ], [ 4.835086, 43.969932 ], [ 4.834624, 43.966362 ], [ 4.840857757016655, 43.960714724043179 ], [ 4.837709149804619, 43.960537527926348 ], [ 4.837704396644204, 43.960537778767794 ], [ 4.837579086949726, 43.960544391813158 ], [ 4.835693993359527, 43.960643875013119 ], [ 4.835694, 43.960644 ], [ 4.834440687228584, 43.960710624905495 ], [ 4.830515, 43.968554 ], [ 4.830502, 43.968702 ], [ 4.825979, 43.9762 ], [ 4.824399, 43.984753 ], [ 4.826041, 43.986663 ], [ 4.82738, 43.994353 ], [ 4.827832, 43.997498 ], [ 4.827871, 43.997919 ], [ 4.825987, 44.003588 ], [ 4.820175, 44.003962 ], [ 4.8166, 44.004386 ], [ 4.815545, 44.01175 ], [ 4.815406172432033, 44.013377367602253 ], [ 4.816466, 44.006631 ], [ 4.820043, 44.007036 ], [ 4.824652, 44.007809 ], [ 4.825506, 44.007396 ], [ 4.826769, 44.004972 ], [ 4.830608, 43.998193 ], [ 4.830448, 43.995176 ], [ 4.829815, 43.98892 ], [ 4.828608, 43.985529 ] ] ], [ [ [ 4.771335, 43.986986 ], [ 4.770164504547555, 43.986727135528994 ], [ 4.775359, 43.99042 ], [ 4.776604161700561, 43.993571089210228 ], [ 4.776317, 43.991199 ], [ 4.77525261956607, 43.985370369263009 ], [ 4.772309295136822, 43.98378115525194 ], [ 4.771335, 43.986986 ] ] ], [ [ [ 4.784603, 43.998946 ], [ 4.790052, 44.004738 ], [ 4.789903, 44.006452 ], [ 4.790321, 44.006637 ], [ 4.791133549664579, 44.014881383520702 ], [ 4.796256, 44.012624 ], [ 4.797877, 44.008748 ], [ 4.798222, 44.00533 ], [ 4.798755, 44.00535 ], [ 4.799577, 44.005483 ], [ 4.801479345227693, 44.005938407766337 ], [ 4.809218938320816, 44.004006935708873 ], [ 4.809792, 43.998045 ], [ 4.807326, 43.991725 ], [ 4.805756, 43.989598 ], [ 4.805463, 43.989131 ], [ 4.799595, 43.984441 ], [ 4.797824, 43.983526 ], [ 4.790604, 43.988517 ], [ 4.788101, 43.991848 ], [ 4.78421, 43.995741 ], [ 4.781086, 43.999185 ], [ 4.78092, 43.999435 ], [ 4.780204, 44.000252 ], [ 4.778211, 44.000784 ], [ 4.77801, 44.000683 ], [ 4.777177, 43.998303 ], [ 4.776931819268924, 43.99627769312378 ], [ 4.776076, 43.999429 ], [ 4.775334, 44.000945 ], [ 4.775085, 44.002203 ], [ 4.775085, 44.002223 ], [ 4.776697, 44.003148 ], [ 4.777141, 44.003093 ], [ 4.77944, 44.002942 ], [ 4.779869, 44.002719 ], [ 4.781964, 44.000059 ], [ 4.784603, 43.998946 ] ] ], [ [ [ 4.812984165336792, 44.016240954744326 ], [ 4.814478467358761, 44.018013506108325 ], [ 4.815052070252986, 44.015411939433207 ], [ 4.812984165336792, 44.016240954744326 ] ] ] ] } },
{ "type": "Feature", "properties": { "codgeo": "30351", "value": 720, "isochrone_group": 12.0, "nb_agences": 1 }, "geometry": { "type": "MultiPolygon", "coordinates": [ [ [ [ 4.751389, 43.941316 ], [ 4.7454290732567, 43.937542750939883 ], [ 4.742307, 43.938558 ], [ 4.741632, 43.938428 ], [ 4.741177, 43.938341 ], [ 4.739958, 43.936745 ], [ 4.739551, 43.936178 ], [ 4.73933, 43.935725 ], [ 4.735687, 43.927774 ], [ 4.737908, 43.935635 ], [ 4.737885, 43.936136 ], [ 4.737972, 43.936842 ], [ 4.738484, 43.937183 ], [ 4.740952, 43.939669 ], [ 4.741295, 43.940139 ], [ 4.744513, 43.93914 ], [ 4.751682, 43.942107 ], [ 4.751540714467344, 43.941725577282149 ], [ 4.751516, 43.941728 ], [ 4.751389, 43.941316 ] ] ], [ [ [ 4.770678362745054, 43.988407509428185 ], [ 4.770598482970981, 43.988441107722259 ], [ 4.775359, 43.99042 ], [ 4.770678362745054, 43.988407509428185 ] ] ], [ [ [ 4.777554, 44.007007 ], [ 4.779256, 44.006913 ], [ 4.78, 44.006929 ], [ 4.780684, 44.006914 ], [ 4.784427, 44.007554 ], [ 4.784491, 44.007552 ], [ 4.788525, 44.007633 ], [ 4.788248, 44.016153 ], [ 4.791012925937244, 44.013657497384017 ], [ 4.790472303942197, 44.008172177210767 ], [ 4.788601, 44.006543 ], [ 4.787324, 44.005138 ], [ 4.787304, 44.005024 ], [ 4.78714, 44.004127 ], [ 4.787311, 44.003629 ], [ 4.788248, 44.002961 ], [ 4.788369086372001, 44.002949151452867 ], [ 4.784603, 43.998946 ], [ 4.782093625148852, 44.000004330507508 ], [ 4.781932405721676, 44.000099114930975 ], [ 4.779869, 44.002719 ], [ 4.77944, 44.002942 ], [ 4.777141, 44.003093 ], [ 4.776697, 44.003148 ], [ 4.775085, 44.002223 ], [ 4.775085, 44.002203 ], [ 4.775334, 44.000945 ], [ 4.776076, 43.999429 ], [ 4.776433502548071, 43.998112600289289 ], [ 4.775359, 43.99042 ], [ 4.774902, 43.997067 ], [ 4.773524, 43.998897 ], [ 4.771157, 44.000524 ], [ 4.770889, 44.00067 ], [ 4.769793, 44.001139 ], [ 4.770836, 44.005409 ], [ 4.770902, 44.005501 ], [ 4.772605, 44.006173 ], [ 4.775684, 44.007113 ], [ 4.775837, 44.007145 ], [ 4.777554, 44.007007 ] ] ], [ [ [ 4.832451, 43.984404 ], [ 4.836907, 43.977643 ], [ 4.837021, 43.977561 ], [ 4.837413, 43.977288 ], [ 4.837526, 43.977151 ], [ 4.840833, 43.97062 ], [ 4.841101, 43.970131 ], [ 4.841755, 43.968864 ], [ 4.84795049087939, 43.96340155636392 ], [ 4.84672904284619, 43.962656289686983 ], [ 4.842212677927106, 43.960892267753316 ], [ 4.842185578071636, 43.960882657902879 ], [ 4.842145982337805, 43.960868616902509 ], [ 4.841817181384308, 43.960752021151947 ], [ 4.841791851310616, 43.960743038881915 ], [ 4.841668459819966, 43.960699283158846 ], [ 4.840920816311545, 43.9606575974598 ], [ 4.834624, 43.966362 ], [ 4.835086, 43.969932 ], [ 4.832065, 43.97652 ], [ 4.829587, 43.97818 ], [ 4.828608, 43.985529 ], [ 4.829815, 43.98892 ], [ 4.830448, 43.995176 ], [ 4.830608, 43.998193 ], [ 4.826769, 44.004972 ], [ 4.825506, 44.007396 ], [ 4.824652, 44.007809 ], [ 4.820043, 44.007036 ], [ 4.816466, 44.006631 ], [ 4.816016002364274, 44.00949547490373 ], [ 4.818468, 44.014247 ], [ 4.817796, 44.017085 ], [ 4.817793, 44.017099 ], [ 4.817607, 44.017915 ], [ 4.816830640268122, 44.018223374424444 ], [ 4.817533, 44.018239 ], [ 4.824933, 44.013338 ], [ 4.826025, 44.009908 ], [ 4.82961, 44.004665 ], [ 4.832881, 43.997906 ], [ 4.833701, 43.996459 ], [ 4.833661, 43.994392 ], [ 4.833215, 43.987922 ], [ 4.832451, 43.984404 ] ] ] ] } },
{ "type": "Feature", "properties": { "codgeo": "30351", "value": 780, "isochrone_group": 13.0, "nb_agences": 1 }, "geometry": { "type": "MultiPolygon", "coordinates": [ [ [ [ 4.737885, 43.936136 ], [ 4.737908, 43.935635 ], [ 4.737078550458151, 43.932699249055183 ], [ 4.73586, 43.936085 ], [ 4.736769, 43.937759 ], [ 4.739771, 43.940497 ], [ 4.741807806362345, 43.947607628573046 ], [ 4.745602, 43.945454 ], [ 4.742814127406773, 43.939667400161788 ], [ 4.741295, 43.940139 ], [ 4.740952, 43.939669 ], [ 4.738484, 43.937183 ], [ 4.737972, 43.936842 ], [ 4.737885, 43.936136 ] ] ], [ [ [ 4.734402981082702, 43.92718247547915 ], [ 4.737077078769186, 43.932694040164144 ], [ 4.735687, 43.927774 ], [ 4.735235454307914, 43.927502815842367 ], [ 4.734402981082702, 43.92718247547915 ] ] ], [ [ [ 4.781200004451819, 44.007002229454777 ], [ 4.780684, 44.006914 ], [ 4.78, 44.006929 ], [ 4.779958760691541, 44.006928113133135 ], [ 4.779914, 44.006929 ], [ 4.779394, 44.006916 ], [ 4.779393993848629, 44.006915967609636 ], [ 4.779256, 44.006913 ], [ 4.777554, 44.007007 ], [ 4.775837, 44.007145 ], [ 4.775684, 44.007113 ], [ 4.772605, 44.006173 ], [ 4.770902, 44.005501 ], [ 4.770836, 44.005409 ], [ 4.770099317731611, 44.002393052458274 ], [ 4.76844, 44.003913 ], [ 4.766081, 44.002311 ], [ 4.76463166343505, 44.002088871708857 ], [ 4.764606, 44.008482 ], [ 4.76424, 44.008826 ], [ 4.765024, 44.0114 ], [ 4.765526, 44.011655 ], [ 4.766704, 44.011451 ], [ 4.76707, 44.011107 ], [ 4.775512, 44.00881 ], [ 4.779372, 44.008033 ], [ 4.78279, 44.008437 ], [ 4.784280052294933, 44.009861305782529 ], [ 4.783879, 44.007567 ], [ 4.781200004451819, 44.007002229454777 ] ] ], [ [ [ 4.77050329197022, 44.000835052067487 ], [ 4.770889, 44.00067 ], [ 4.771157, 44.000524 ], [ 4.771607947301082, 44.000214033266232 ], [ 4.769830931613432, 43.999635847401358 ], [ 4.769775, 44.00004 ], [ 4.77050329197022, 44.000835052067487 ] ] ], [ [ [ 4.828361, 44.013552 ], [ 4.829609, 44.011211 ], [ 4.833514, 44.003474 ], [ 4.837688, 43.996812 ], [ 4.837615, 43.996292 ], [ 4.837156, 43.995313 ], [ 4.834742, 43.987829 ], [ 4.837645, 43.982039 ], [ 4.837941, 43.981091 ], [ 4.84199, 43.975023 ], [ 4.844346, 43.973079 ], [ 4.852968, 43.973414 ], [ 4.852983986267182, 43.973421496343285 ], [ 4.853005, 43.972662 ], [ 4.850027376398448, 43.965041764150016 ], [ 4.849690586378307, 43.964451396618223 ], [ 4.848048381041187, 43.96331524851491 ], [ 4.841755, 43.968864 ], [ 4.841101, 43.970131 ], [ 4.840833, 43.97062 ], [ 4.837526, 43.977151 ], [ 4.837413, 43.977288 ], [ 4.837021, 43.977561 ], [ 4.836907, 43.977643 ], [ 4.832451, 43.984404 ], [ 4.833215, 43.987922 ], [ 4.833661, 43.994392 ], [ 4.833701, 43.996459 ], [ 4.832881, 43.997906 ], [ 4.82961, 44.004665 ], [ 4.826025, 44.009908 ], [ 4.824933, 44.013338 ], [ 4.818566953202043, 44.017554215588746 ], [ 4.818412, 44.018186 ], [ 4.818039, 44.018617 ], [ 4.81183, 44.025015 ], [ 4.811402537165135, 44.025817028930959 ], [ 4.813066, 44.025174 ], [ 4.816569, 44.026005 ], [ 4.817355, 44.022696 ], [ 4.81814, 44.019387 ], [ 4.825296, 44.014855 ], [ 4.826227, 44.014911 ], [ 4.827088, 44.01484 ], [ 4.827228, 44.014774 ], [ 4.827662, 44.014495 ], [ 4.828361, 44.013552 ] ] ] ] } },
{ "type": "Feature", "properties": { "codgeo": "30351", "value": 840, "isochrone_group": 14.0, "nb_agences": 1 }, "geometry": { "type": "MultiPolygon", "coordinates": [ [ [ [ 4.76707, 44.011107 ], [ 4.766704, 44.011451 ], [ 4.765526, 44.011655 ], [ 4.765024, 44.0114 ], [ 4.76424, 44.008826 ], [ 4.764606, 44.008482 ], [ 4.76462020695487, 44.004942844585557 ], [ 4.763295, 44.003705 ], [ 4.76139348644622, 44.003627742915178 ], [ 4.761662, 44.004132 ], [ 4.76085, 44.010273 ], [ 4.757366, 44.012229 ], [ 4.756668, 44.01232 ], [ 4.757133, 44.01589 ], [ 4.757831, 44.015799 ], [ 4.758915, 44.015614 ], [ 4.759392, 44.015502 ], [ 4.764625, 44.014686 ], [ 4.76541, 44.014051 ], [ 4.766119, 44.013203 ], [ 4.769046, 44.011108 ], [ 4.777308, 44.011634 ], [ 4.778276969172312, 44.0118859924509 ], [ 4.776904423053055, 44.008529711732564 ], [ 4.775512, 44.00881 ], [ 4.76707, 44.011107 ] ] ], [ [ [ 4.816569, 44.026005 ], [ 4.813066, 44.025174 ], [ 4.811402537165135, 44.025817028930959 ], [ 4.810634, 44.027259 ], [ 4.810621602321375, 44.027970077594162 ], [ 4.813128, 44.02705 ], [ 4.813453, 44.027038 ], [ 4.816446, 44.026524 ], [ 4.816758691756962, 44.025206412183479 ], [ 4.816569, 44.026005 ] ] ], [ [ [ 4.833514, 44.003474 ], [ 4.829609, 44.011211 ], [ 4.828361, 44.013552 ], [ 4.827662, 44.014495 ], [ 4.827228, 44.014774 ], [ 4.827088, 44.01484 ], [ 4.826227, 44.014911 ], [ 4.825296, 44.014855 ], [ 4.81814, 44.019387 ], [ 4.823493, 44.016159 ], [ 4.824192, 44.015958 ], [ 4.825395, 44.015429 ], [ 4.825637, 44.015338 ], [ 4.826875, 44.014924 ], [ 4.83138, 44.013766 ], [ 4.832733, 44.013527 ], [ 4.833955, 44.013233 ], [ 4.835453, 44.012757 ], [ 4.836384, 44.00385 ], [ 4.837948, 43.99868 ], [ 4.837687601300448, 43.996812636352765 ], [ 4.833514, 44.003474 ] ] ], [ [ [ 4.844346, 43.973079 ], [ 4.84199, 43.975023 ], [ 4.837941, 43.981091 ], [ 4.837645, 43.982039 ], [ 4.834742, 43.987829 ], [ 4.837156, 43.995313 ], [ 4.837615, 43.996292 ], [ 4.83794, 43.98741 ], [ 4.838061, 43.984197 ], [ 4.841968, 43.979335 ], [ 4.842536, 43.9789 ], [ 4.847724, 43.973966 ], [ 4.852946787334811, 43.975327357844186 ], [ 4.852954240749556, 43.974799885416061 ], [ 4.852859, 43.97472 ], [ 4.85286, 43.974509 ], [ 4.852902421979874, 43.974171710487887 ], [ 4.852895, 43.974161 ], [ 4.852949868241652, 43.973413295506951 ], [ 4.844346, 43.973079 ] ] ] ] } },
{ "type": "Feature", "properties": { "codgeo": "30351", "value": 900, "isochrone_group": 15.0, "nb_agences": 1 }, "geometry": { "type": "MultiPolygon", "coordinates": [ [ [ [ 4.817232, 44.023214 ], [ 4.822199076825313, 44.016939269756747 ], [ 4.81814, 44.019387 ], [ 4.817293, 44.022955 ], [ 4.816446, 44.026524 ], [ 4.813453, 44.027038 ], [ 4.813128, 44.02705 ], [ 4.810621602321375, 44.027970077594162 ], [ 4.810576157226002, 44.030576613064369 ], [ 4.815441, 44.027191 ], [ 4.815976, 44.02738 ], [ 4.816323, 44.027042 ], [ 4.817232, 44.023214 ] ] ], [ [ [ 4.847724, 43.973966 ], [ 4.842536, 43.9789 ], [ 4.841968, 43.979335 ], [ 4.838061, 43.984197 ], [ 4.83794, 43.98741 ], [ 4.837615, 43.996292 ], [ 4.837948, 43.99868 ], [ 4.836384, 44.00385 ], [ 4.835453, 44.012757 ], [ 4.833955, 44.013233 ], [ 4.839584, 44.012552 ], [ 4.840135, 44.01253 ], [ 4.841061, 44.012204 ], [ 4.841522, 44.011803 ], [ 4.841983, 44.011246 ], [ 4.839635, 44.008965 ], [ 4.839429, 44.001803 ], [ 4.83959, 43.994882 ], [ 4.839517, 43.991283 ], [ 4.843961, 43.98393 ], [ 4.84532, 43.982357 ], [ 4.849846, 43.978924 ], [ 4.853556311209771, 43.980771340310085 ], [ 4.853069148911782, 43.975359252287127 ], [ 4.847724, 43.973966 ] ] ], [ [ [ 4.747350123009139, 43.925058758486045 ], [ 4.747350123009136, 43.925058758486045 ], [ 4.746081235559396, 43.925368990462154 ], [ 4.747350123009139, 43.925058758486045 ] ] ] ] } },
{ "type": "Feature", "properties": { "codgeo": "30351", "value": 960, "isochrone_group": 16.0, "nb_agences": 1 }, "geometry": { "type": "MultiPolygon", "coordinates": [ [ [ [ 4.802238991370988, 44.036249812858586 ], [ 4.804119, 44.035951 ], [ 4.807334882684295, 44.03626066503444 ], [ 4.802416, 44.03557 ], [ 4.802238991370988, 44.036249812858586 ] ] ], [ [ [ 4.810485, 44.035805 ], [ 4.8098094953989, 44.036498951410756 ], [ 4.80981, 44.036499 ], [ 4.810485, 44.035805 ] ] ], [ [ [ 4.816322962434243, 44.027042036591439 ], [ 4.815976, 44.02738 ], [ 4.815441, 44.027191 ], [ 4.810576157226002, 44.030576613064369 ], [ 4.810485, 44.035805 ], [ 4.810935, 44.032699 ], [ 4.815907, 44.027672 ], [ 4.8162, 44.02756 ], [ 4.816322962434243, 44.027042036591439 ] ] ], [ [ [ 4.849535, 43.985027 ], [ 4.853046450356583, 43.985069236171938 ], [ 4.85367256779873, 43.982062882975207 ], [ 4.853556311209771, 43.980771340310085 ], [ 4.849846, 43.978924 ], [ 4.84532, 43.982357 ], [ 4.843961, 43.98393 ], [ 4.839517, 43.991283 ], [ 4.83959, 43.994882 ], [ 4.839429, 44.001803 ], [ 4.839635, 44.008965 ], [ 4.841983, 44.011246 ], [ 4.841522, 44.011803 ], [ 4.841061, 44.012204 ], [ 4.840135, 44.01253 ], [ 4.839584, 44.012552 ], [ 4.833955, 44.013233 ], [ 4.832733, 44.013527 ], [ 4.83138, 44.013766 ], [ 4.826875, 44.014924 ], [ 4.834018, 44.013761 ], [ 4.835687, 44.013649 ], [ 4.83887, 44.01336 ], [ 4.839676, 44.0132 ], [ 4.840411, 44.012945 ], [ 4.841156, 44.012602 ], [ 4.842072, 44.011949 ], [ 4.842217, 44.011822 ], [ 4.842621, 44.011469 ], [ 4.84273997334116, 44.011327912654906 ], [ 4.84348387231447, 44.010120353034253 ], [ 4.843937, 44.008629 ], [ 4.844092, 44.007486 ], [ 4.843167, 43.998756 ], [ 4.843173, 43.998494 ], [ 4.84307, 43.997844 ], [ 4.842523, 43.994776 ], [ 4.845495, 43.987006 ], [ 4.849535, 43.985027 ] ] ] ] } },
{ "type": "Feature", "properties": { "codgeo": "30351", "value": 1020, "isochrone_group": 17.0, "nb_agences": 1 }, "geometry": { "type": "MultiPolygon", "coordinates": [ [ [ [ 4.815907, 44.027672 ], [ 4.810935, 44.032699 ], [ 4.810485, 44.035805 ], [ 4.815737, 44.029374 ], [ 4.816135, 44.027831 ], [ 4.816199315529075, 44.027560261640772 ], [ 4.815907, 44.027672 ] ] ], [ [ [ 4.817142, 44.023592 ], [ 4.81814, 44.019387 ], [ 4.81717, 44.023474 ], [ 4.817123109668496, 44.02367151947891 ], [ 4.817142, 44.023592 ] ] ], [ [ [ 4.844211, 44.006263 ], [ 4.844247, 44.005164 ], [ 4.844305, 44.004344 ], [ 4.844339, 44.003103 ], [ 4.844223, 43.995599 ], [ 4.84607, 43.993531 ], [ 4.846465, 43.992899 ], [ 4.847239, 43.986972 ], [ 4.851524, 43.985055 ], [ 4.852806336151033, 43.986102438819984 ], [ 4.852885037306804, 43.985067294675225 ], [ 4.849535, 43.985027 ], [ 4.845495, 43.987006 ], [ 4.842523, 43.994776 ], [ 4.84307, 43.997844 ], [ 4.843173, 43.998494 ], [ 4.843167, 43.998756 ], [ 4.844091236221492, 44.007478791582301 ], [ 4.844125, 44.007227 ], [ 4.844211, 44.006263 ] ] ] ] } },
{ "type": "Feature", "properties": { "codgeo": "30351", "value": 1080, "isochrone_group": 18.0, "nb_agences": 1 }, "geometry": { "type": "MultiPolygon", "coordinates": [ [ [ [ 4.810478633899691, 44.035877943075072 ], [ 4.814602, 44.032001 ], [ 4.815239, 44.0307 ], [ 4.815673, 44.029577 ], [ 4.815721785063086, 44.029392630475868 ], [ 4.810485, 44.035805 ], [ 4.810478633899691, 44.035877943075072 ] ] ], [ [ [ 4.844758, 44.000549 ], [ 4.845212, 43.998931 ], [ 4.848144, 43.992439 ], [ 4.851607475383359, 43.992287457231761 ], [ 4.851907, 43.991602 ], [ 4.851378, 43.990622 ], [ 4.851355, 43.990003 ], [ 4.851424, 43.989616 ], [ 4.851793, 43.988487 ], [ 4.852508422123578, 43.985859096450582 ], [ 4.852229145698422, 43.98563097766209 ], [ 4.850944395881736, 43.985314300138789 ], [ 4.847239, 43.986972 ], [ 4.846465, 43.992899 ], [ 4.84607, 43.993531 ], [ 4.844223, 43.995599 ], [ 4.844339, 44.003103 ], [ 4.844305, 44.004344 ], [ 4.844455, 44.002432 ], [ 4.844591, 44.001527 ], [ 4.844758, 44.000549 ] ] ] ] } },
{ "type": "Feature", "properties": { "codgeo": "30351", "value": 1140, "isochrone_group": 19.0, "nb_agences": 1 }, "geometry": { "type": "MultiPolygon", "coordinates": [ [ [ [ 4.814468, 44.032236 ], [ 4.814571621871434, 44.032029562653022 ], [ 4.811749902141116, 44.034682649112504 ], [ 4.81209350051931, 44.034888649566646 ], [ 4.813014, 44.034228 ], [ 4.813624, 44.033473 ], [ 4.814468, 44.032236 ] ] ], [ [ [ 4.816698957494712, 44.025457002164771 ], [ 4.816698957494409, 44.025457002166057 ], [ 4.817142, 44.023592 ], [ 4.816698957494712, 44.025457002164771 ] ] ] ] } }
]
}
