{
"type": "FeatureCollection",
"name": "Others",
"crs": { "type": "name", "properties": { "name": "urn:ogc:def:crs:OGC:1.3:CRS84" } },
"features": [
{ "type": "Feature", "properties": { "codgeo": "30351", "value": 60, "isochrone_group": 1.0, "nb_agences": 2 }, "geometry": { "type": "MultiPolygon", "coordinates": [ [ [ [ 4.777157, 43.958277 ], [ 4.778614, 43.958357 ], [ 4.778973, 43.958386 ], [ 4.78099, 43.958194 ], [ 4.781279, 43.958174 ], [ 4.783011, 43.957931 ], [ 4.783563, 43.957686 ], [ 4.78478, 43.955809 ], [ 4.784781, 43.955449 ], [ 4.783814, 43.953343 ], [ 4.783587, 43.953424 ], [ 4.783373, 43.953528 ], [ 4.783188, 43.953648 ], [ 4.783037, 43.953786 ], [ 4.78256, 43.954446 ], [ 4.778911, 43.957964 ], [ 4.777639, 43.957887 ], [ 4.777387, 43.957902 ], [ 4.777135, 43.957918 ], [ 4.777157, 43.958277 ] ] ], [ [ [ 4.785502, 43.980095 ], [ 4.786159, 43.980336 ], [ 4.788647, 43.979796 ], [ 4.790473, 43.97889 ], [ 4.790736, 43.978256 ], [ 4.790721, 43.977896 ], [ 4.788818, 43.976269 ], [ 4.788594, 43.976225 ], [ 4.784436, 43.975516 ], [ 4.784271, 43.975678 ], [ 4.784247, 43.975933 ], [ 4.785502, 43.980095 ] ] ] ] } },
{ "type": "Feature", "properties": { "codgeo": "30351", "value": 120, "isochrone_group": 2.0, "nb_agences": 2 }, "geometry": { "type": "MultiPolygon", "coordinates": [ [ [ [ 4.775672, 43.959527 ], [ 4.779876, 43.96049 ], [ 4.783011, 43.957931 ], [ 4.786095, 43.957099 ], [ 4.786391, 43.957072 ], [ 4.786486, 43.957059 ], [ 4.791332, 43.954882 ], [ 4.79147, 43.954676 ], [ 4.791339, 43.954341 ], [ 4.788959, 43.953536 ], [ 4.783563, 43.952091 ], [ 4.783099, 43.952073 ], [ 4.781265, 43.953296 ], [ 4.77691, 43.956946 ], [ 4.775682, 43.957045 ], [ 4.774355, 43.958153 ], [ 4.774415, 43.958508 ], [ 4.775672, 43.959527 ] ], [ [ 4.781279, 43.958174 ], [ 4.78099, 43.958194 ], [ 4.778973, 43.958386 ], [ 4.778614, 43.958357 ], [ 4.777157, 43.958277 ], [ 4.777135, 43.957918 ], [ 4.777387, 43.957902 ], [ 4.777639, 43.957887 ], [ 4.778911, 43.957964 ], [ 4.78256, 43.954446 ], [ 4.783037, 43.953786 ], [ 4.783188, 43.953648 ], [ 4.783373, 43.953528 ], [ 4.783587, 43.953424 ], [ 4.783814, 43.953343 ], [ 4.784781, 43.955449 ], [ 4.78478, 43.955809 ], [ 4.783563, 43.957686 ], [ 4.783011, 43.957931 ], [ 4.781279, 43.958174 ] ] ], [ [ [ 4.778043, 43.974625 ], [ 4.779209, 43.974801 ], [ 4.782892, 43.978589 ], [ 4.783037, 43.980149 ], [ 4.784556, 43.984773 ], [ 4.784909, 43.984845 ], [ 4.78819, 43.981637 ], [ 4.791136, 43.979618 ], [ 4.791398, 43.979372 ], [ 4.792022, 43.978656 ], [ 4.792734, 43.977833 ], [ 4.792755, 43.977643 ], [ 4.792447, 43.971753 ], [ 4.79248, 43.971101 ], [ 4.792478, 43.971053 ], [ 4.792118, 43.971069 ], [ 4.790058, 43.972264 ], [ 4.785699, 43.974057 ], [ 4.783494, 43.973601 ], [ 4.78078, 43.971576 ], [ 4.78047, 43.971628 ], [ 4.777238, 43.974079 ], [ 4.777257, 43.974438 ], [ 4.778043, 43.974625 ] ], [ [ 4.784247, 43.975933 ], [ 4.784271, 43.975678 ], [ 4.784436, 43.975516 ], [ 4.788594, 43.976225 ], [ 4.788818, 43.976269 ], [ 4.790721, 43.977896 ], [ 4.790736, 43.978256 ], [ 4.790473, 43.97889 ], [ 4.788647, 43.979796 ], [ 4.786159, 43.980336 ], [ 4.785502, 43.980095 ], [ 4.784247, 43.975933 ] ] ] ] } },
{ "type": "Feature", "properties": { "codgeo": "30351", "value": 180, "isochrone_group": 3.0, "nb_agences": 2 }, "geometry": { "type": "MultiPolygon", "coordinates": [ [ [ [ 4.770576, 43.959633 ], [ 4.772966, 43.960529 ], [ 4.776159, 43.961731 ], [ 4.782798, 43.96406 ], [ 4.784892, 43.964977 ], [ 4.785919, 43.963951 ], [ 4.786493, 43.962396 ], [ 4.793018, 43.956694 ], [ 4.793284, 43.956451 ], [ 4.795677, 43.952775 ], [ 4.795697, 43.95264 ], [ 4.795681, 43.952555 ], [ 4.790625, 43.951706 ], [ 4.783567, 43.949873 ], [ 4.783294, 43.949861 ], [ 4.781246, 43.950407 ], [ 4.780985, 43.950567 ], [ 4.774486, 43.955062 ], [ 4.769212, 43.958505 ], [ 4.769156, 43.958861 ], [ 4.770576, 43.959633 ] ], [ [ 4.774355, 43.958153 ], [ 4.775682, 43.957045 ], [ 4.77691, 43.956946 ], [ 4.781265, 43.953296 ], [ 4.783099, 43.952073 ], [ 4.783563, 43.952091 ], [ 4.788959, 43.953536 ], [ 4.791339, 43.954341 ], [ 4.79147, 43.954676 ], [ 4.791332, 43.954882 ], [ 4.786486, 43.957059 ], [ 4.786391, 43.957072 ], [ 4.786095, 43.957099 ], [ 4.783011, 43.957931 ], [ 4.779876, 43.96049 ], [ 4.775672, 43.959527 ], [ 4.774415, 43.958508 ], [ 4.774355, 43.958153 ] ] ], [ [ [ 4.773245, 43.97668 ], [ 4.78092, 43.98009 ], [ 4.781229, 43.980517 ], [ 4.781394, 43.989154 ], [ 4.78147, 43.989506 ], [ 4.781701, 43.990294 ], [ 4.782057, 43.990349 ], [ 4.784714, 43.988012 ], [ 4.790236, 43.981287 ], [ 4.792683137513625, 43.977891791890855 ], [ 4.792022, 43.978656 ], [ 4.791398, 43.979372 ], [ 4.791136, 43.979618 ], [ 4.78819, 43.981637 ], [ 4.784909, 43.984845 ], [ 4.784556, 43.984773 ], [ 4.783037, 43.980149 ], [ 4.782892, 43.978589 ], [ 4.779209, 43.974801 ], [ 4.778043, 43.974625 ], [ 4.777257, 43.974438 ], [ 4.777238, 43.974079 ], [ 4.78047, 43.971628 ], [ 4.78078, 43.971576 ], [ 4.783494, 43.973601 ], [ 4.785699, 43.974057 ], [ 4.790058, 43.972264 ], [ 4.792118, 43.971069 ], [ 4.792478, 43.971053 ], [ 4.79248, 43.971101 ], [ 4.792447, 43.971753 ], [ 4.792755, 43.977643 ], [ 4.792735537264546, 43.977819091416002 ], [ 4.793527, 43.976721 ], [ 4.795474, 43.969363 ], [ 4.79542, 43.969014 ], [ 4.795085, 43.968882 ], [ 4.791716, 43.968563 ], [ 4.789568, 43.968583 ], [ 4.781074, 43.965913 ], [ 4.780956, 43.965878 ], [ 4.780684, 43.965947 ], [ 4.778983, 43.968622 ], [ 4.776781, 43.972 ], [ 4.773289, 43.976063 ], [ 4.773158, 43.976222 ], [ 4.772921, 43.976523 ], [ 4.772917, 43.97653 ], [ 4.773245, 43.97668 ] ] ] ] } },
{ "type": "Feature", "properties": { "codgeo": "30351", "value": 240, "isochrone_group": 4.0, "nb_agences": 2 }, "geometry": { "type": "MultiPolygon", "coordinates": [ [ [ [ 4.799273, 43.961486 ], [ 4.79929, 43.961483 ], [ 4.79946, 43.961406 ], [ 4.799506, 43.960002 ], [ 4.799957, 43.951662 ], [ 4.799856, 43.951316 ], [ 4.792717, 43.950501 ], [ 4.788815764114957, 43.948734118704927 ], [ 4.787503, 43.94961 ], [ 4.787444, 43.949636 ], [ 4.786759, 43.949835 ], [ 4.786085, 43.949898 ], [ 4.784046857988765, 43.949997621662426 ], [ 4.790625, 43.951706 ], [ 4.795681, 43.952555 ], [ 4.795697, 43.95264 ], [ 4.795677, 43.952775 ], [ 4.793284, 43.956451 ], [ 4.793018, 43.956694 ], [ 4.786493, 43.962396 ], [ 4.785919, 43.963951 ], [ 4.784892, 43.964977 ], [ 4.782798, 43.96406 ], [ 4.776159, 43.961731 ], [ 4.772966, 43.960529 ], [ 4.770576, 43.959633 ], [ 4.769490083832842, 43.959042628675327 ], [ 4.765902, 43.960122 ], [ 4.76537512681034, 43.960242767585456 ], [ 4.769779, 43.962587 ], [ 4.77013, 43.962664 ], [ 4.77731, 43.965724 ], [ 4.777536238563943, 43.9659146289125 ], [ 4.776691, 43.968142 ], [ 4.771581, 43.975202 ], [ 4.771288, 43.975411 ], [ 4.771283, 43.975418 ], [ 4.770354, 43.97696 ], [ 4.770234, 43.977303 ], [ 4.770458, 43.977585 ], [ 4.771583, 43.978691 ], [ 4.777446, 43.984514 ], [ 4.779801, 43.990754 ], [ 4.78123, 43.994995 ], [ 4.781533, 43.99519 ], [ 4.782195, 43.994906 ], [ 4.787448, 43.987694 ], [ 4.789936120789777, 43.981652209650264 ], [ 4.784714, 43.988012 ], [ 4.782057, 43.990349 ], [ 4.781701, 43.990294 ], [ 4.78147, 43.989506 ], [ 4.781394, 43.989154 ], [ 4.781229, 43.980517 ], [ 4.78092, 43.98009 ], [ 4.773245, 43.97668 ], [ 4.772917, 43.97653 ], [ 4.772921, 43.976523 ], [ 4.773158, 43.976222 ], [ 4.773289, 43.976063 ], [ 4.776781, 43.972 ], [ 4.778983, 43.968622 ], [ 4.780684, 43.965947 ], [ 4.780956, 43.965878 ], [ 4.781074, 43.965913 ], [ 4.789568, 43.968583 ], [ 4.791716, 43.968563 ], [ 4.795085, 43.968882 ], [ 4.79542, 43.969014 ], [ 4.795474, 43.969363 ], [ 4.793527, 43.976721 ], [ 4.79142322313991, 43.979639822589853 ], [ 4.793111, 43.977664 ], [ 4.796575, 43.973874 ], [ 4.798464, 43.968153 ], [ 4.798393, 43.967801 ], [ 4.795364, 43.966491 ], [ 4.79501, 43.966557 ], [ 4.788596207065426, 43.96685062279019 ], [ 4.788956, 43.961236 ], [ 4.79174, 43.959735 ], [ 4.799106, 43.961475 ], [ 4.799273, 43.961486 ] ] ], [ [ [ 4.780781480178595, 43.948458852583713 ], [ 4.786357, 43.948563 ], [ 4.786859685190016, 43.947997075178797 ], [ 4.780781480178595, 43.948458852583713 ] ] ], [ [ [ 4.773358, 43.953012 ], [ 4.771877, 43.953769 ], [ 4.770496330053695, 43.9545149845205 ], [ 4.770338, 43.956141 ], [ 4.770077459114026, 43.957940006497992 ], [ 4.774486, 43.955062 ], [ 4.780985, 43.950567 ], [ 4.781246, 43.950407 ], [ 4.782549868036693, 43.950059386744122 ], [ 4.781884, 43.949959 ], [ 4.781581, 43.949911 ], [ 4.779024108111787, 43.94876409358077 ], [ 4.773358, 43.953012 ] ] ] ] } },
{ "type": "Feature", "properties": { "codgeo": "30351", "value": 300, "isochrone_group": 5.0, "nb_agences": 2 }, "geometry": { "type": "MultiPolygon", "coordinates": [ [ [ [ 4.781398, 43.941509 ], [ 4.781106, 43.941297 ], [ 4.780786, 43.941093 ], [ 4.779547, 43.942558 ], [ 4.773089, 43.946764 ], [ 4.773941, 43.946535 ], [ 4.77484, 43.946338 ], [ 4.77576, 43.946215 ], [ 4.776303, 43.946187 ], [ 4.776816, 43.946189 ], [ 4.777267, 43.946216 ], [ 4.777715, 43.946268 ], [ 4.781527658306336, 43.941599117801381 ], [ 4.781398, 43.941509 ] ] ], [ [ [ 4.774334660346716, 43.952279793399931 ], [ 4.775213575635827, 43.951620866703699 ], [ 4.774243554751564, 43.951657532996705 ], [ 4.774334660346716, 43.952279793399931 ] ] ], [ [ [ 4.799506, 43.960002 ], [ 4.79946, 43.961406 ], [ 4.79929, 43.961483 ], [ 4.799273, 43.961486 ], [ 4.799106, 43.961475 ], [ 4.79174, 43.959735 ], [ 4.788956, 43.961236 ], [ 4.788596207065426, 43.96685062279019 ], [ 4.79501, 43.966557 ], [ 4.795364, 43.966491 ], [ 4.798393, 43.967801 ], [ 4.798464, 43.968153 ], [ 4.796575, 43.973874 ], [ 4.793111, 43.977664 ], [ 4.790152, 43.981128 ], [ 4.787448, 43.987694 ], [ 4.782195, 43.994906 ], [ 4.781533, 43.99519 ], [ 4.78123, 43.994995 ], [ 4.779801, 43.990754 ], [ 4.777446, 43.984514 ], [ 4.771583, 43.978691 ], [ 4.770458, 43.977585 ], [ 4.770234, 43.977303 ], [ 4.770354, 43.97696 ], [ 4.771283, 43.975418 ], [ 4.771288, 43.975411 ], [ 4.771581, 43.975202 ], [ 4.776691, 43.968142 ], [ 4.777536238563943, 43.9659146289125 ], [ 4.77731, 43.965724 ], [ 4.77013, 43.962664 ], [ 4.769779, 43.962587 ], [ 4.769145219630261, 43.962249631410472 ], [ 4.763079849158015, 43.964200322809162 ], [ 4.768341, 43.966705 ], [ 4.769409, 43.966887 ], [ 4.770838363239162, 43.968275893748888 ], [ 4.768551, 43.974666 ], [ 4.768172, 43.976376 ], [ 4.767998, 43.979971 ], [ 4.77014, 43.981362 ], [ 4.77107, 43.982006 ], [ 4.775035, 43.98946 ], [ 4.775756, 43.990605 ], [ 4.777102, 43.998829 ], [ 4.776796, 44.000152 ], [ 4.778096, 44.001538 ], [ 4.778103, 44.001541 ], [ 4.779986, 44.000983 ], [ 4.783469, 43.998582 ], [ 4.784136, 43.997952 ], [ 4.784342, 43.997705 ], [ 4.787876, 43.992689 ], [ 4.78926, 43.990734 ], [ 4.790742, 43.988788 ], [ 4.791104, 43.987385 ], [ 4.791101, 43.985768 ], [ 4.792635, 43.980156 ], [ 4.797675, 43.979106 ], [ 4.799651, 43.979863 ], [ 4.800356, 43.98017 ], [ 4.801076, 43.980557 ], [ 4.802893, 43.97745 ], [ 4.80437, 43.969848 ], [ 4.806378, 43.969077 ], [ 4.806436, 43.968986 ], [ 4.806645, 43.968343 ], [ 4.806651, 43.96827 ], [ 4.80467189172477, 43.965346834329125 ], [ 4.804558, 43.958273 ], [ 4.804548759154449, 43.955092943802825 ], [ 4.799808221302513, 43.954413251301652 ], [ 4.799506, 43.960002 ] ] ] ] } },
{ "type": "Feature", "properties": { "codgeo": "30351", "value": 360, "isochrone_group": 6.0, "nb_agences": 2 }, "geometry": { "type": "MultiPolygon", "coordinates": [ [ [ [ 4.76882, 43.937243 ], [ 4.767811, 43.937066 ], [ 4.767192, 43.940613 ], [ 4.76248607188956, 43.948033962525528 ], [ 4.762789240772835, 43.948006354362612 ], [ 4.767863, 43.946229 ], [ 4.774009, 43.942518 ], [ 4.775061, 43.939075 ], [ 4.775502996453805, 43.938472351887164 ], [ 4.76882, 43.937243 ] ] ], [ [ [ 4.804558, 43.958273 ], [ 4.80467189172477, 43.965346834329125 ], [ 4.806651, 43.96827 ], [ 4.806645, 43.968343 ], [ 4.806436, 43.968986 ], [ 4.806378, 43.969077 ], [ 4.80437, 43.969848 ], [ 4.802893, 43.97745 ], [ 4.801076, 43.980557 ], [ 4.800356, 43.98017 ], [ 4.799651, 43.979863 ], [ 4.797675, 43.979106 ], [ 4.792635, 43.980156 ], [ 4.791101, 43.985768 ], [ 4.791104, 43.987385 ], [ 4.790742, 43.988788 ], [ 4.78926, 43.990734 ], [ 4.787876, 43.992689 ], [ 4.784342, 43.997705 ], [ 4.784136, 43.997952 ], [ 4.783469, 43.998582 ], [ 4.779986, 44.000983 ], [ 4.778103, 44.001541 ], [ 4.778096, 44.001538 ], [ 4.776796, 44.000152 ], [ 4.777102, 43.998829 ], [ 4.776640886492623, 43.99601161702477 ], [ 4.775333, 43.999536 ], [ 4.775268, 43.999706 ], [ 4.775095, 44.000692 ], [ 4.775115, 44.002713 ], [ 4.775124, 44.00285 ], [ 4.775135, 44.002911 ], [ 4.777169, 44.004176 ], [ 4.777264, 44.004156 ], [ 4.777831, 44.003962 ], [ 4.778026, 44.003894 ], [ 4.77944, 44.002942 ], [ 4.784603, 43.998946 ], [ 4.784859, 43.998513 ], [ 4.79071, 43.992515 ], [ 4.791636, 43.992084 ], [ 4.792545, 43.991153 ], [ 4.793503, 43.990289 ], [ 4.793579, 43.990139 ], [ 4.793211, 43.987401 ], [ 4.79335, 43.985746 ], [ 4.799045, 43.979945 ], [ 4.802339, 43.981747 ], [ 4.802833, 43.982222 ], [ 4.804218, 43.984712 ], [ 4.804664, 43.987148 ], [ 4.804906, 43.987921 ], [ 4.808341, 43.986845 ], [ 4.80794, 43.982675 ], [ 4.807878, 43.981597 ], [ 4.807835, 43.981481 ], [ 4.807109, 43.980957 ], [ 4.805462, 43.972334 ], [ 4.807403, 43.97092 ], [ 4.808571, 43.969622 ], [ 4.809163, 43.968875 ], [ 4.811501, 43.966138 ], [ 4.810853, 43.965585 ], [ 4.809761363754589, 43.964866650263872 ], [ 4.811395, 43.962521 ], [ 4.813231, 43.959425 ], [ 4.810926636773325, 43.955448225314505 ], [ 4.808596, 43.955505 ], [ 4.807737, 43.955517 ], [ 4.807109, 43.955465 ], [ 4.804546185115702, 43.954207138729394 ], [ 4.804558, 43.958273 ] ] ], [ [ [ 4.764369629996737, 43.968034497741471 ], [ 4.765928, 43.968837 ], [ 4.766407861971756, 43.969453479033035 ], [ 4.766959, 43.973357 ], [ 4.765346, 43.977567 ], [ 4.764289, 43.979624 ], [ 4.767468, 43.985429 ], [ 4.767985, 43.985957 ], [ 4.768483, 43.986248 ], [ 4.76883, 43.986408 ], [ 4.769589, 43.986794 ], [ 4.775359, 43.99042 ], [ 4.776158644957789, 43.993065142743582 ], [ 4.775756, 43.990605 ], [ 4.775035, 43.98946 ], [ 4.77107, 43.982006 ], [ 4.77014, 43.981362 ], [ 4.767998, 43.979971 ], [ 4.768172, 43.976376 ], [ 4.768551, 43.974666 ], [ 4.770838363239162, 43.968275893748888 ], [ 4.769877575087636, 43.967342308344513 ], [ 4.765038, 43.967796 ], [ 4.764369629996737, 43.968034497741471 ] ] ] ] } },
{ "type": "Feature", "properties": { "codgeo": "30351", "value": 420, "isochrone_group": 7.0, "nb_agences": 2 }, "geometry": { "type": "MultiPolygon", "coordinates": [ [ [ [ 4.818809, 43.963624 ], [ 4.817947, 43.962532 ], [ 4.817909149249228, 43.955231106322493 ], [ 4.812348, 43.955495 ], [ 4.812038, 43.955501 ], [ 4.811206911191421, 43.955931911305484 ], [ 4.813231, 43.959425 ], [ 4.811395, 43.962521 ], [ 4.809761363754589, 43.964866650263872 ], [ 4.810853, 43.965585 ], [ 4.811501, 43.966138 ], [ 4.809163, 43.968875 ], [ 4.808571, 43.969622 ], [ 4.807403, 43.97092 ], [ 4.805462, 43.972334 ], [ 4.807109, 43.980957 ], [ 4.807835, 43.981481 ], [ 4.807878, 43.981597 ], [ 4.80794, 43.982675 ], [ 4.808341, 43.986845 ], [ 4.804917736625913, 43.98791732354892 ], [ 4.805008, 43.988191 ], [ 4.805463, 43.989131 ], [ 4.805756, 43.989598 ], [ 4.807326, 43.991725 ], [ 4.807665, 43.992155 ], [ 4.809307, 43.994354 ], [ 4.809622, 43.995005 ], [ 4.81303, 43.993847 ], [ 4.813191, 43.992625 ], [ 4.812609, 43.991727 ], [ 4.80995, 43.98386 ], [ 4.809696, 43.979077 ], [ 4.81109, 43.970979 ], [ 4.811998872947862, 43.968728649389995 ], [ 4.812498, 43.968287 ], [ 4.816652, 43.965891 ], [ 4.81884, 43.963678 ], [ 4.818809, 43.963624 ] ] ], [ [ [ 4.763761, 43.936762 ], [ 4.765773, 43.936841 ], [ 4.765927884023117, 43.936689491654299 ], [ 4.763761, 43.936762 ] ] ], [ [ [ 4.758463, 43.93631 ], [ 4.754147, 43.935351 ], [ 4.753196, 43.938823 ], [ 4.754499, 43.939179 ], [ 4.755115, 43.939332 ], [ 4.756484, 43.939618 ], [ 4.75889, 43.940553 ], [ 4.759054618094422, 43.946072547871779 ], [ 4.759379, 43.946357 ], [ 4.760592131013877, 43.946313699752501 ], [ 4.761351, 43.945241 ], [ 4.760224, 43.940169 ], [ 4.759832, 43.938281 ], [ 4.759994, 43.937848 ], [ 4.760516, 43.936581 ], [ 4.761825, 43.936687 ], [ 4.763761, 43.936762 ], [ 4.758463, 43.93631 ] ] ], [ [ [ 4.762000991051083, 43.970445647005022 ], [ 4.760894, 43.977993 ], [ 4.759719, 43.981396 ], [ 4.763605, 43.986159 ], [ 4.765442, 43.989255 ], [ 4.767894, 43.9878 ], [ 4.772842158370168, 43.988838359142157 ], [ 4.769589, 43.986794 ], [ 4.76883, 43.986408 ], [ 4.768483, 43.986248 ], [ 4.767985, 43.985957 ], [ 4.767468, 43.985429 ], [ 4.764289, 43.979624 ], [ 4.765346, 43.977567 ], [ 4.766959, 43.973357 ], [ 4.766427526321681, 43.969592754855618 ], [ 4.762595, 43.970341 ], [ 4.762000991051083, 43.970445647005022 ] ] ], [ [ [ 4.774257, 43.995995 ], [ 4.773242, 43.998565 ], [ 4.770889, 44.00067 ], [ 4.769424, 44.001297 ], [ 4.769001, 44.004167 ], [ 4.769411, 44.005006 ], [ 4.770182, 44.006004 ], [ 4.771061, 44.007119 ], [ 4.776751, 44.00781 ], [ 4.777436, 44.007845 ], [ 4.782742, 44.00695 ], [ 4.783969, 44.005246 ], [ 4.787045, 44.000216 ], [ 4.792397, 43.993474 ], [ 4.79479, 43.993165 ], [ 4.795202, 43.991972 ], [ 4.795168, 43.991755 ], [ 4.795039, 43.991029 ], [ 4.795306, 43.987918 ], [ 4.796347, 43.98452 ], [ 4.804664, 43.987148 ], [ 4.804218, 43.984712 ], [ 4.802833, 43.982222 ], [ 4.802339, 43.981747 ], [ 4.799045, 43.979945 ], [ 4.79335, 43.985746 ], [ 4.793211, 43.987401 ], [ 4.793579, 43.990139 ], [ 4.793503, 43.990289 ], [ 4.792545, 43.991153 ], [ 4.791636, 43.992084 ], [ 4.79071, 43.992515 ], [ 4.784859, 43.998513 ], [ 4.784603, 43.998946 ], [ 4.77944, 44.002942 ], [ 4.778026, 44.003894 ], [ 4.777831, 44.003962 ], [ 4.777264, 44.004156 ], [ 4.777169, 44.004176 ], [ 4.775135, 44.002911 ], [ 4.775124, 44.00285 ], [ 4.775115, 44.002713 ], [ 4.775095, 44.000692 ], [ 4.775268, 43.999706 ], [ 4.775333, 43.999536 ], [ 4.776866, 43.995405 ], [ 4.775359, 43.99042 ], [ 4.773955401652922, 43.989537946688657 ], [ 4.774875, 43.994471 ], [ 4.774257, 43.995995 ] ] ] ] } },
{ "type": "Feature", "properties": { "codgeo": "30351", "value": 480, "isochrone_group": 8.0, "nb_agences": 2 }, "geometry": { "type": "MultiPolygon", "coordinates": [ [ [ [ 4.822301, 43.965786 ], [ 4.821251, 43.964064 ], [ 4.822835941676301, 43.957234928626136 ], [ 4.821204524098567, 43.956229990819295 ], [ 4.817924471424168, 43.958186544929575 ], [ 4.817947, 43.962532 ], [ 4.818809, 43.963624 ], [ 4.81884, 43.963678 ], [ 4.816652, 43.965891 ], [ 4.812498, 43.968287 ], [ 4.811998872947862, 43.968728649389995 ], [ 4.81109, 43.970979 ], [ 4.810718978138884, 43.973134333594921 ], [ 4.811474, 43.973198 ], [ 4.812498, 43.971895 ], [ 4.812539146552001, 43.97183023227926 ], [ 4.817642, 43.970986 ], [ 4.820211, 43.97059 ], [ 4.82108, 43.969919 ], [ 4.822168, 43.966303 ], [ 4.822301, 43.965786 ] ] ], [ [ [ 4.743157, 43.930396 ], [ 4.743013, 43.930496 ], [ 4.742167, 43.932463 ], [ 4.74259, 43.933038 ], [ 4.743124, 43.933742 ], [ 4.743974, 43.934533 ], [ 4.744815, 43.935348 ], [ 4.747414, 43.93861 ], [ 4.75127, 43.940669 ], [ 4.754972758724384, 43.942675711905451 ], [ 4.756340065799845, 43.942334206100703 ], [ 4.751931, 43.939721 ], [ 4.751571, 43.939542 ], [ 4.751216, 43.939315 ], [ 4.747995, 43.936808 ], [ 4.748952, 43.934692 ], [ 4.749486, 43.933531 ], [ 4.750788, 43.934124 ], [ 4.751274, 43.93433 ], [ 4.75248, 43.934798 ], [ 4.74507, 43.930333 ], [ 4.743157, 43.930396 ] ] ], [ [ [ 4.755154031260824, 43.982397870243396 ], [ 4.757736, 43.987727 ], [ 4.759224, 43.988474 ], [ 4.759924, 43.988843 ], [ 4.760415, 43.989075 ], [ 4.76131, 43.989504 ], [ 4.762447, 43.990097 ], [ 4.763317, 43.998317 ], [ 4.765759, 44.004332 ], [ 4.762776, 44.0102 ], [ 4.76524, 44.012825 ], [ 4.76707, 44.011107 ], [ 4.767948, 44.010325 ], [ 4.776053, 44.009885 ], [ 4.77642, 44.010083 ], [ 4.777229, 44.010216 ], [ 4.777365, 44.010223 ], [ 4.778436, 44.009517 ], [ 4.786293, 44.006793 ], [ 4.787129, 44.006834 ], [ 4.791326, 44.007108 ], [ 4.793141, 44.006382 ], [ 4.793233, 44.006261 ], [ 4.792847, 44.003845 ], [ 4.794317, 43.995938 ], [ 4.796986, 43.993725 ], [ 4.798062, 43.988145 ], [ 4.805463, 43.989131 ], [ 4.805008, 43.988191 ], [ 4.804664, 43.987148 ], [ 4.796347, 43.98452 ], [ 4.795306, 43.987918 ], [ 4.795039, 43.991029 ], [ 4.795168, 43.991755 ], [ 4.795202, 43.991972 ], [ 4.79479, 43.993165 ], [ 4.792397, 43.993474 ], [ 4.787045, 44.000216 ], [ 4.783969, 44.005246 ], [ 4.782742, 44.00695 ], [ 4.777436, 44.007845 ], [ 4.776751, 44.00781 ], [ 4.771061, 44.007119 ], [ 4.770182, 44.006004 ], [ 4.769411, 44.005006 ], [ 4.769001, 44.004167 ], [ 4.769424, 44.001297 ], [ 4.770889, 44.00067 ], [ 4.773242, 43.998565 ], [ 4.774257, 43.995995 ], [ 4.774875, 43.994471 ], [ 4.773865, 43.989053 ], [ 4.767894, 43.9878 ], [ 4.765442, 43.989255 ], [ 4.763605, 43.986159 ], [ 4.759719, 43.981396 ], [ 4.760894, 43.977993 ], [ 4.761031585459915, 43.977054956253447 ], [ 4.760481, 43.977867 ], [ 4.759439, 43.981313 ], [ 4.755154031260824, 43.982397870243396 ] ] ], [ [ [ 4.809792, 43.998045 ], [ 4.810019, 43.999536 ], [ 4.810156, 44.001075 ], [ 4.810181, 44.002126 ], [ 4.81012, 44.003167 ], [ 4.813654, 44.003855 ], [ 4.817351, 43.997759 ], [ 4.815983, 43.994429 ], [ 4.81172640079614, 43.989115714578126 ], [ 4.812609, 43.991727 ], [ 4.813191, 43.992625 ], [ 4.81303, 43.993847 ], [ 4.809622, 43.995005 ], [ 4.809307, 43.994354 ], [ 4.807665, 43.992155 ], [ 4.80974, 43.99697 ], [ 4.809744, 43.997528 ], [ 4.809792, 43.998045 ] ] ] ] } },
{ "type": "Feature", "properties": { "codgeo": "30351", "value": 540, "isochrone_group": 9.0, "nb_agences": 2 }, "geometry": { "type": "MultiPolygon", "coordinates": [ [ [ [ 4.826471, 43.967913 ], [ 4.831105, 43.960887 ], [ 4.831023586349565, 43.960885026335745 ], [ 4.830946, 43.960889 ], [ 4.830732965779363, 43.960877980988599 ], [ 4.830445, 43.960871 ], [ 4.830350256844415, 43.960858185698839 ], [ 4.83025, 43.960853 ], [ 4.829911600846143, 43.960798856135384 ], [ 4.829299, 43.960716 ], [ 4.829155505780385, 43.960677880924877 ], [ 4.82905, 43.960661 ], [ 4.828729063513127, 43.960564597024856 ], [ 4.828644, 43.960542 ], [ 4.828597627474414, 43.960525116237569 ], [ 4.828524, 43.960503 ], [ 4.828307573183488, 43.960419510435891 ], [ 4.827842, 43.96025 ], [ 4.827739024236508, 43.960200185009725 ], [ 4.827653, 43.960167 ], [ 4.827411586443579, 43.960041785499783 ], [ 4.827288, 43.959982 ], [ 4.827229101283888, 43.959947135520707 ], [ 4.827171, 43.959917 ], [ 4.827084276315795, 43.959861407894742 ], [ 4.826891, 43.959747 ], [ 4.821679469068005, 43.96221784635874 ], [ 4.821251, 43.964064 ], [ 4.822301, 43.965786 ], [ 4.822168, 43.966303 ], [ 4.82108, 43.969919 ], [ 4.820211, 43.97059 ], [ 4.817642, 43.970986 ], [ 4.812539146552001, 43.97183023227926 ], [ 4.812498, 43.971895 ], [ 4.811474, 43.973198 ], [ 4.808782, 43.972971 ], [ 4.806905, 43.98132 ], [ 4.807101984769177, 43.981662056584732 ], [ 4.808298, 43.982748 ], [ 4.808770104453071, 43.983932160926528 ], [ 4.808982, 43.98223 ], [ 4.809577911128829, 43.977546579943059 ], [ 4.810364, 43.974352 ], [ 4.810696, 43.974009 ], [ 4.818759, 43.977733 ], [ 4.818746, 43.978119 ], [ 4.822344, 43.978238 ], [ 4.823714, 43.974749 ], [ 4.826471, 43.967913 ] ] ], [ [ [ 4.834663333333358, 43.960698266666689 ], [ 4.834441, 43.96071 ], [ 4.831105, 43.960887 ], [ 4.833914, 43.960738 ], [ 4.834663333333358, 43.960698266666689 ] ] ], [ [ [ 4.734097, 43.921525 ], [ 4.731803, 43.924299 ], [ 4.734271, 43.926924 ], [ 4.735687, 43.927774 ], [ 4.741786, 43.934315 ], [ 4.744465429936836, 43.935204734368327 ], [ 4.744168, 43.934973 ], [ 4.743124, 43.933742 ], [ 4.74259, 43.933038 ], [ 4.737589, 43.928899 ], [ 4.739307, 43.925736 ], [ 4.740944, 43.926625 ], [ 4.736367, 43.923402 ], [ 4.734097, 43.921525 ] ] ], [ [ [ 4.744478, 43.929585 ], [ 4.745015, 43.930261 ], [ 4.745138051487984, 43.930374005383776 ], [ 4.746532908509484, 43.931214496153139 ], [ 4.744478, 43.929585 ] ] ], [ [ [ 4.75792, 43.998148 ], [ 4.75948, 44.001393 ], [ 4.761568, 44.004545 ], [ 4.757366, 44.012229 ], [ 4.755137, 44.012171 ], [ 4.753976, 44.015579 ], [ 4.754279, 44.015682 ], [ 4.754896, 44.015837 ], [ 4.755723, 44.015947 ], [ 4.75632, 44.015964 ], [ 4.761615, 44.015917 ], [ 4.765969, 44.014799 ], [ 4.769134, 44.01123 ], [ 4.775258, 44.011749 ], [ 4.776157, 44.01201 ], [ 4.776408, 44.011978 ], [ 4.777396, 44.011744 ], [ 4.785564, 44.009446 ], [ 4.787637, 44.009046 ], [ 4.796472, 44.008873 ], [ 4.796856, 44.008941 ], [ 4.799481, 44.009542 ], [ 4.806262, 44.012157 ], [ 4.810682, 44.010523 ], [ 4.814883, 44.007836 ], [ 4.818139, 44.001059 ], [ 4.821875, 43.995777 ], [ 4.825157, 43.995095 ], [ 4.825362, 43.994883 ], [ 4.825172, 43.994039 ], [ 4.824998, 43.993286 ], [ 4.818836, 43.992238 ], [ 4.818383, 43.992182 ], [ 4.818286, 43.992181 ], [ 4.812295785125466, 43.989826446623013 ], [ 4.815983, 43.994429 ], [ 4.817351, 43.997759 ], [ 4.813654, 44.003855 ], [ 4.81012, 44.003167 ], [ 4.810181, 44.002126 ], [ 4.810156, 44.001075 ], [ 4.810019, 43.999536 ], [ 4.809792, 43.998045 ], [ 4.809744, 43.997528 ], [ 4.80974, 43.99697 ], [ 4.807665, 43.992155 ], [ 4.807326, 43.991725 ], [ 4.805756, 43.989598 ], [ 4.805463, 43.989131 ], [ 4.798062, 43.988145 ], [ 4.796986, 43.993725 ], [ 4.794317, 43.995938 ], [ 4.792847, 44.003845 ], [ 4.793233, 44.006261 ], [ 4.793141, 44.006382 ], [ 4.791326, 44.007108 ], [ 4.787129, 44.006834 ], [ 4.786293, 44.006793 ], [ 4.778436, 44.009517 ], [ 4.777365, 44.010223 ], [ 4.777229, 44.010216 ], [ 4.77642, 44.010083 ], [ 4.776053, 44.009885 ], [ 4.767948, 44.010325 ], [ 4.76707, 44.011107 ], [ 4.76524, 44.012825 ], [ 4.762776, 44.0102 ], [ 4.765759, 44.004332 ], [ 4.763317, 43.998317 ], [ 4.762447, 43.990097 ], [ 4.76131, 43.989504 ], [ 4.760415, 43.989075 ], [ 4.759924, 43.988843 ], [ 4.759224, 43.988474 ], [ 4.758632663819462, 43.98817713969968 ], [ 4.755483846374019, 43.989485629522868 ], [ 4.756709, 43.991111 ], [ 4.75792, 43.998148 ] ] ], [ [ [ 4.751961, 43.94258 ], [ 4.752009605911303, 43.942647408866975 ], [ 4.751932844036713, 43.942532266055053 ], [ 4.751961, 43.94258 ] ] ] ] } },
{ "type": "Feature", "properties": { "codgeo": "30351", "value": 600, "isochrone_group": 10.0, "nb_agences": 2 }, "geometry": { "type": "MultiPolygon", "coordinates": [ [ [ [ 4.730663, 43.924301 ], [ 4.728604, 43.920978 ], [ 4.731417, 43.918732 ], [ 4.733985, 43.921433 ], [ 4.734096714604649, 43.921525345111917 ], [ 4.734097, 43.921525 ], [ 4.736367, 43.923402 ], [ 4.730637, 43.917614 ], [ 4.728842, 43.914966 ], [ 4.727047, 43.912319 ], [ 4.724067, 43.914339 ], [ 4.725997, 43.922464 ], [ 4.727094, 43.922904 ], [ 4.731466, 43.925161 ], [ 4.730924, 43.924656 ], [ 4.730663, 43.924301 ] ] ], [ [ [ 4.832304, 43.968968 ], [ 4.832383, 43.968835 ], [ 4.832386, 43.968729 ], [ 4.832219, 43.968038 ], [ 4.834440851893026, 43.960710488446409 ], [ 4.832258, 43.960826 ], [ 4.832257991550354, 43.960825840960844 ], [ 4.831105, 43.960887 ], [ 4.826471, 43.967913 ], [ 4.823714, 43.974749 ], [ 4.822344, 43.978238 ], [ 4.818748494353795, 43.978119082498083 ], [ 4.818743, 43.978321 ], [ 4.818765, 43.978829 ], [ 4.819064, 43.981481 ], [ 4.819375, 43.984225 ], [ 4.819473, 43.984799 ], [ 4.819602, 43.985351 ], [ 4.819719, 43.986017 ], [ 4.821402, 43.985714 ], [ 4.822544, 43.985554 ], [ 4.823265, 43.985396 ], [ 4.823148, 43.98473 ], [ 4.825751, 43.976994 ], [ 4.82665, 43.976287 ], [ 4.829192, 43.974962 ], [ 4.832304, 43.968968 ] ] ], [ [ [ 4.776997, 44.014491 ], [ 4.779466, 44.013527 ], [ 4.784973, 44.012118 ], [ 4.790644, 44.009997 ], [ 4.796854, 44.01193 ], [ 4.799582, 44.014279 ], [ 4.8026, 44.01372 ], [ 4.808838, 44.01551 ], [ 4.811059, 44.014341 ], [ 4.818106, 44.0089 ], [ 4.819958, 44.002342 ], [ 4.826306, 43.999775 ], [ 4.826203, 43.99872 ], [ 4.825523, 43.994607 ], [ 4.82454, 43.989135 ], [ 4.823546, 43.986815 ], [ 4.821863, 43.987217 ], [ 4.82002, 43.987542 ], [ 4.816032, 43.990516 ], [ 4.810563692424915, 43.988788779193364 ], [ 4.810367, 43.987288 ], [ 4.809868, 43.986337 ], [ 4.809327, 43.985329 ], [ 4.808770104453071, 43.983932160926528 ], [ 4.80877, 43.983933 ], [ 4.810613, 43.989165 ], [ 4.818286, 43.992181 ], [ 4.818383, 43.992182 ], [ 4.818836, 43.992238 ], [ 4.824998, 43.993286 ], [ 4.825172, 43.994039 ], [ 4.825362, 43.994883 ], [ 4.825157, 43.995095 ], [ 4.821875, 43.995777 ], [ 4.818139, 44.001059 ], [ 4.814883, 44.007836 ], [ 4.810682, 44.010523 ], [ 4.806262, 44.012157 ], [ 4.799481, 44.009542 ], [ 4.796856, 44.008941 ], [ 4.796472, 44.008873 ], [ 4.787637, 44.009046 ], [ 4.785564, 44.009446 ], [ 4.777396, 44.011744 ], [ 4.776408, 44.011978 ], [ 4.776157, 44.01201 ], [ 4.775258, 44.011749 ], [ 4.769134, 44.01123 ], [ 4.765969, 44.014799 ], [ 4.761615, 44.015917 ], [ 4.75632, 44.015964 ], [ 4.755723, 44.015947 ], [ 4.754896, 44.015837 ], [ 4.754279, 44.015682 ], [ 4.753976, 44.015579 ], [ 4.755137, 44.012171 ], [ 4.757366, 44.012229 ], [ 4.761568, 44.004545 ], [ 4.75948, 44.001393 ], [ 4.75792, 43.998148 ], [ 4.757187406316622, 43.993890971304772 ], [ 4.754091729894146, 43.993224627069651 ], [ 4.753488, 44.000204 ], [ 4.754911, 44.003511 ], [ 4.748857, 44.009979 ], [ 4.747276, 44.009256 ], [ 4.746223, 44.008713 ], [ 4.744574, 44.011913 ], [ 4.750862, 44.015463 ], [ 4.756211, 44.017723 ], [ 4.76059, 44.017407 ], [ 4.765551, 44.016629 ], [ 4.770496, 44.014744 ], [ 4.776852, 44.014538 ], [ 4.776997, 44.014491 ] ] ] ] } },
{ "type": "Feature", "properties": { "codgeo": "30351", "value": 660, "isochrone_group": 11.0, "nb_agences": 2 }, "geometry": { "type": "MultiPolygon", "coordinates": [ [ [ [ 4.838177, 43.969145 ], [ 4.838868, 43.967981 ], [ 4.841317132068661, 43.96083942907967 ], [ 4.837555542867021, 43.960545634319452 ], [ 4.834441, 43.96071 ], [ 4.832219, 43.968038 ], [ 4.832386, 43.968729 ], [ 4.832383, 43.968835 ], [ 4.832304, 43.968968 ], [ 4.829192, 43.974962 ], [ 4.82665, 43.976287 ], [ 4.825751, 43.976994 ], [ 4.823148, 43.98473 ], [ 4.823265, 43.985396 ], [ 4.822544, 43.985554 ], [ 4.821402, 43.985714 ], [ 4.819719, 43.986017 ], [ 4.819602, 43.985351 ], [ 4.819473, 43.984799 ], [ 4.819375, 43.984225 ], [ 4.819064, 43.981481 ], [ 4.818796384193824, 43.979107364153919 ], [ 4.818796, 43.979107 ], [ 4.818398108567746, 43.977566317661712 ], [ 4.810696, 43.974009 ], [ 4.810364, 43.974352 ], [ 4.808852, 43.976454 ], [ 4.808298, 43.982748 ], [ 4.809327, 43.985329 ], [ 4.809868, 43.986337 ], [ 4.810367, 43.987288 ], [ 4.810563692424915, 43.988788779193364 ], [ 4.816032, 43.990516 ], [ 4.82002, 43.987542 ], [ 4.821863, 43.987217 ], [ 4.823546, 43.986815 ], [ 4.82454, 43.989135 ], [ 4.825523, 43.994607 ], [ 4.826203, 43.99872 ], [ 4.826306, 43.999775 ], [ 4.819958, 44.002342 ], [ 4.819253260089687, 44.004837509898394 ], [ 4.823582, 44.00547 ], [ 4.824491, 44.00559 ], [ 4.824647, 44.005571 ], [ 4.825892, 44.004303 ], [ 4.82952, 43.997568 ], [ 4.82824, 43.989396 ], [ 4.826742, 43.986122 ], [ 4.826633918087519, 43.985955313672754 ], [ 4.827299, 43.983938 ], [ 4.829037, 43.979962 ], [ 4.832815, 43.976748 ], [ 4.833604, 43.97624 ], [ 4.835702, 43.974597 ], [ 4.838177, 43.969145 ] ] ], [ [ [ 4.743932, 44.003815 ], [ 4.73688, 44.007706 ], [ 4.736713462876803, 44.007661925088939 ], [ 4.736725, 44.007774 ], [ 4.737574, 44.009263 ], [ 4.742821, 44.010873 ], [ 4.748174, 44.015862 ], [ 4.748294, 44.01594 ], [ 4.748859, 44.016144 ], [ 4.74911, 44.01615 ], [ 4.75196034736182, 44.015927061513871 ], [ 4.750862, 44.015463 ], [ 4.744574, 44.011913 ], [ 4.746223, 44.008713 ], [ 4.747276, 44.009256 ], [ 4.748857, 44.009979 ], [ 4.754911, 44.003511 ], [ 4.753488, 44.000204 ], [ 4.75415, 43.992551 ], [ 4.753981612127056, 43.992509838519965 ], [ 4.750014, 43.992946 ], [ 4.749654, 43.997496 ], [ 4.746985, 43.999912 ], [ 4.743932, 44.003815 ] ] ], [ [ [ 4.782838, 44.015206 ], [ 4.784538, 44.013751 ], [ 4.791903, 44.018667 ], [ 4.791833, 44.019142 ], [ 4.791827, 44.019295 ], [ 4.791859, 44.019366 ], [ 4.792006, 44.019589 ], [ 4.793319, 44.020785 ], [ 4.793485, 44.020802 ], [ 4.794321, 44.020619 ], [ 4.795373, 44.020082 ], [ 4.795512, 44.019958 ], [ 4.804396, 44.019383 ], [ 4.806659, 44.019217 ], [ 4.811093, 44.017716 ], [ 4.811274193500966, 44.014174848752837 ], [ 4.811059, 44.014341 ], [ 4.808838, 44.01551 ], [ 4.8026, 44.01372 ], [ 4.799582, 44.014279 ], [ 4.796854, 44.01193 ], [ 4.790644, 44.009997 ], [ 4.784973, 44.012118 ], [ 4.779466, 44.013527 ], [ 4.776997, 44.014491 ], [ 4.776852, 44.014538 ], [ 4.770496, 44.014744 ], [ 4.765551, 44.016629 ], [ 4.76059, 44.017407 ], [ 4.760229799510096, 44.017432993001805 ], [ 4.764013, 44.02001 ], [ 4.769898, 44.017294 ], [ 4.777209, 44.015541 ], [ 4.782838, 44.015206 ] ] ], [ [ [ 4.723322, 43.908231 ], [ 4.722698, 43.907811 ], [ 4.722156, 43.907493 ], [ 4.721704, 43.907256 ], [ 4.721184, 43.907009 ], [ 4.720569, 43.90676 ], [ 4.719899, 43.906528 ], [ 4.718585, 43.90619 ], [ 4.716737, 43.905801 ], [ 4.716423, 43.907016 ], [ 4.715984, 43.909321 ], [ 4.717789, 43.91782 ], [ 4.718357, 43.918336 ], [ 4.718507, 43.918473 ], [ 4.718886, 43.918767 ], [ 4.720469, 43.919898 ], [ 4.720905, 43.920173 ], [ 4.721555185071691, 43.920460458205028 ], [ 4.721825, 43.918288 ], [ 4.722107, 43.911882 ], [ 4.724638722644222, 43.909326298925045 ], [ 4.724562, 43.909251 ], [ 4.723822, 43.908606 ], [ 4.723322, 43.908231 ] ] ], [ [ [ 4.740862, 43.937851 ], [ 4.74183, 43.938455 ], [ 4.742271, 43.938547 ], [ 4.745418699333497, 43.937536183175283 ], [ 4.744, 43.936638 ], [ 4.743126, 43.936728 ], [ 4.742324, 43.936442 ], [ 4.740442, 43.935598 ], [ 4.736732, 43.928393 ], [ 4.735687, 43.927774 ], [ 4.739336, 43.935737 ], [ 4.739551, 43.936178 ], [ 4.739958, 43.936745 ], [ 4.740862, 43.937851 ] ] ] ] } },
{ "type": "Feature", "properties": { "codgeo": "30351", "value": 720, "isochrone_group": 12.0, "nb_agences": 2 }, "geometry": { "type": "MultiPolygon", "coordinates": [ [ [ [ 4.842319, 43.972078 ], [ 4.842713, 43.97097 ], [ 4.841036, 43.968011 ], [ 4.84715937934283, 43.96282437243331 ], [ 4.845569116637489, 43.96220324054012 ], [ 4.841301879779166, 43.96088390414431 ], [ 4.838868, 43.967981 ], [ 4.838177, 43.969145 ], [ 4.835702, 43.974597 ], [ 4.833604, 43.97624 ], [ 4.832815, 43.976748 ], [ 4.829037, 43.979962 ], [ 4.827299, 43.983938 ], [ 4.826633918087519, 43.985955313672754 ], [ 4.826742, 43.986122 ], [ 4.82824, 43.989396 ], [ 4.82952, 43.997568 ], [ 4.825892, 44.004303 ], [ 4.824647, 44.005571 ], [ 4.824491, 44.00559 ], [ 4.823582, 44.00547 ], [ 4.816608, 44.004451 ], [ 4.81192, 44.010844 ], [ 4.811277, 44.01412 ], [ 4.811093, 44.017716 ], [ 4.806659, 44.019217 ], [ 4.804396, 44.019383 ], [ 4.795512, 44.019958 ], [ 4.795373, 44.020082 ], [ 4.794321, 44.020619 ], [ 4.793485, 44.020802 ], [ 4.793319, 44.020785 ], [ 4.792006, 44.019589 ], [ 4.791859, 44.019366 ], [ 4.791827, 44.019295 ], [ 4.791833, 44.019142 ], [ 4.791903, 44.018667 ], [ 4.784538, 44.013751 ], [ 4.782838, 44.015206 ], [ 4.777209, 44.015541 ], [ 4.769898, 44.017294 ], [ 4.764013, 44.02001 ], [ 4.757831, 44.015799 ], [ 4.754465, 44.01576 ], [ 4.754173, 44.015754 ], [ 4.759544, 44.020086 ], [ 4.759711, 44.020635 ], [ 4.759883, 44.020991 ], [ 4.762301, 44.020769 ], [ 4.762976, 44.020579 ], [ 4.770499, 44.019195 ], [ 4.777166, 44.017202 ], [ 4.780111, 44.017288 ], [ 4.783299, 44.017771 ], [ 4.79036, 44.021377 ], [ 4.791772, 44.023415 ], [ 4.792669, 44.024197 ], [ 4.793477, 44.024683 ], [ 4.793619, 44.024674 ], [ 4.801139, 44.021562 ], [ 4.804253, 44.023367 ], [ 4.807394, 44.022116 ], [ 4.807887, 44.021629 ], [ 4.815743, 44.018499 ], [ 4.816008, 44.018459 ], [ 4.816106, 44.018407 ], [ 4.816458, 44.018209 ], [ 4.817118, 44.017714 ], [ 4.817147, 44.017542 ], [ 4.816805, 44.016131 ], [ 4.821724, 44.008785 ], [ 4.825317, 44.009017 ], [ 4.828453, 44.004537 ], [ 4.832119, 43.997624 ], [ 4.832748, 43.995442 ], [ 4.83077, 43.988364 ], [ 4.829041654195475, 43.984800340918198 ], [ 4.829545, 43.983293 ], [ 4.83455, 43.977992 ], [ 4.83742, 43.978305 ], [ 4.838728, 43.976367 ], [ 4.841913, 43.972451 ], [ 4.842319, 43.972078 ] ] ], [ [ [ 4.749877, 44.017459 ], [ 4.754173, 44.015754 ], [ 4.74911, 44.01615 ], [ 4.748859, 44.016144 ], [ 4.748294, 44.01594 ], [ 4.748174, 44.015862 ], [ 4.742821, 44.010873 ], [ 4.740505857364119, 44.010162616991856 ], [ 4.738980833082536, 44.011089937232235 ], [ 4.745243, 44.013348 ], [ 4.746757, 44.016614 ], [ 4.749877, 44.017459 ] ] ], [ [ [ 4.703084, 43.904811 ], [ 4.704769, 43.905554 ], [ 4.705469, 43.905828 ], [ 4.70989, 43.913019 ], [ 4.710474, 43.913415 ], [ 4.710894, 43.913674 ], [ 4.712402286622535, 43.914461584394708 ], [ 4.710352, 43.907519 ], [ 4.707618, 43.906573 ], [ 4.708795, 43.903171 ], [ 4.711529, 43.904117 ], [ 4.718585, 43.90619 ], [ 4.710487, 43.903756 ], [ 4.703118, 43.900803 ], [ 4.701507, 43.904023 ], [ 4.703084, 43.904811 ] ] ], [ [ [ 4.721418, 43.921205 ], [ 4.718886, 43.918767 ], [ 4.718507, 43.918473 ], [ 4.717287, 43.917555 ], [ 4.714009, 43.9153 ], [ 4.713307973937553, 43.914935082323645 ], [ 4.718375, 43.920566 ], [ 4.722679, 43.921959 ], [ 4.721418, 43.921205 ] ] ], [ [ [ 4.722679, 43.921959 ], [ 4.727094, 43.922904 ], [ 4.72366, 43.922027 ], [ 4.722679, 43.921959 ] ] ], [ [ [ 4.738484, 43.937183 ], [ 4.741295, 43.940139 ], [ 4.741336, 43.940183 ], [ 4.743875, 43.938955 ], [ 4.74292, 43.938927 ], [ 4.741632, 43.938428 ], [ 4.741365, 43.938363 ], [ 4.740182, 43.938186 ], [ 4.739783, 43.937999 ], [ 4.739492, 43.937826 ], [ 4.738696, 43.935319 ], [ 4.735687, 43.927774 ], [ 4.737908, 43.935635 ], [ 4.737885, 43.936136 ], [ 4.737901, 43.936348 ], [ 4.738156, 43.936943 ], [ 4.738484, 43.937183 ] ] ] ] } },
{ "type": "Feature", "properties": { "codgeo": "30351", "value": 780, "isochrone_group": 13.0, "nb_agences": 2 }, "geometry": { "type": "MultiPolygon", "coordinates": [ [ [ [ 4.852963, 43.97418 ], [ 4.853005, 43.972662 ], [ 4.849836, 43.964552 ], [ 4.847571561752956, 43.962985364475621 ], [ 4.84715937934283, 43.96282437243331 ], [ 4.841036, 43.968011 ], [ 4.842713, 43.97097 ], [ 4.842319, 43.972078 ], [ 4.841913, 43.972451 ], [ 4.838728, 43.976367 ], [ 4.83742, 43.978305 ], [ 4.83455, 43.977992 ], [ 4.829545, 43.983293 ], [ 4.829041654195475, 43.984800340918198 ], [ 4.83077, 43.988364 ], [ 4.832748, 43.995442 ], [ 4.832119, 43.997624 ], [ 4.828453, 44.004537 ], [ 4.825317, 44.009017 ], [ 4.821724, 44.008785 ], [ 4.816805, 44.016131 ], [ 4.817147, 44.017542 ], [ 4.817118, 44.017714 ], [ 4.816458, 44.018209 ], [ 4.816106, 44.018407 ], [ 4.816008, 44.018459 ], [ 4.815743, 44.018499 ], [ 4.807887, 44.021629 ], [ 4.807394, 44.022116 ], [ 4.804253, 44.023367 ], [ 4.801139, 44.021562 ], [ 4.793619, 44.024674 ], [ 4.793477, 44.024683 ], [ 4.792669, 44.024197 ], [ 4.791772, 44.023415 ], [ 4.79036, 44.021377 ], [ 4.783299, 44.017771 ], [ 4.780111, 44.017288 ], [ 4.777166, 44.017202 ], [ 4.770499, 44.019195 ], [ 4.762976, 44.020579 ], [ 4.762301, 44.020769 ], [ 4.759883, 44.020991 ], [ 4.759711, 44.020635 ], [ 4.759544, 44.020086 ], [ 4.754173, 44.015754 ], [ 4.749877, 44.017459 ], [ 4.746757, 44.016614 ], [ 4.746726678311305, 44.016548590069156 ], [ 4.743809921998055, 44.019590363652696 ], [ 4.752049, 44.019581 ], [ 4.752874, 44.019543 ], [ 4.760531, 44.02289 ], [ 4.761052, 44.0232 ], [ 4.761478, 44.023418 ], [ 4.762972, 44.023584 ], [ 4.769587, 44.019545 ], [ 4.773129, 44.020188 ], [ 4.776328, 44.0208 ], [ 4.782335, 44.021268 ], [ 4.782782, 44.021246 ], [ 4.790993, 44.024896 ], [ 4.79223, 44.026381 ], [ 4.794385, 44.02654 ], [ 4.802436, 44.027194 ], [ 4.803192, 44.027141 ], [ 4.803541, 44.027056 ], [ 4.807217, 44.025163 ], [ 4.813476, 44.019694 ], [ 4.815414, 44.020022 ], [ 4.816972, 44.020553 ], [ 4.817434, 44.018672 ], [ 4.823775, 44.01297 ], [ 4.825808, 44.013617 ], [ 4.825859, 44.013633 ], [ 4.828136, 44.012173 ], [ 4.830491, 44.004724 ], [ 4.834827, 43.998101 ], [ 4.835435, 43.994553 ], [ 4.833403, 43.987881 ], [ 4.833000814883451, 43.986029053350769 ], [ 4.835524, 43.982647 ], [ 4.838402, 43.981948 ], [ 4.838788, 43.980488 ], [ 4.842104, 43.975684 ], [ 4.845587, 43.974174 ], [ 4.85294558530975, 43.975412424232985 ], [ 4.852963, 43.97418 ] ] ], [ [ [ 4.695639, 43.900412 ], [ 4.696266, 43.9009 ], [ 4.69852, 43.902771 ], [ 4.698858, 43.902968 ], [ 4.700798, 43.903891 ], [ 4.705875, 43.91041 ], [ 4.706265, 43.910843 ], [ 4.706723, 43.911284 ], [ 4.709764, 43.912927 ], [ 4.70939, 43.912619 ], [ 4.707895, 43.911396 ], [ 4.707588, 43.911103 ], [ 4.706665, 43.910103 ], [ 4.701276, 43.903907 ], [ 4.700468, 43.903485 ], [ 4.699851, 43.903174 ], [ 4.698985, 43.902675 ], [ 4.700656, 43.899486 ], [ 4.700786, 43.899554 ], [ 4.702072, 43.900262 ], [ 4.70294, 43.900714 ], [ 4.697812, 43.897541 ], [ 4.695752, 43.897684 ], [ 4.695697, 43.897728 ], [ 4.695639, 43.900412 ] ] ], [ [ [ 4.716754004753722, 43.91997377937787 ], [ 4.715294, 43.918446 ], [ 4.710894, 43.913674 ], [ 4.710474, 43.913415 ], [ 4.70989, 43.913019 ], [ 4.709884253615646, 43.913009653189341 ], [ 4.709764, 43.912927 ], [ 4.714185, 43.919738 ], [ 4.7143, 43.919948 ], [ 4.714752753806374, 43.920372697373665 ], [ 4.716754004753722, 43.91997377937787 ] ] ], [ [ [ 4.722156, 43.907493 ], [ 4.722240178313976, 43.907542388752475 ], [ 4.722240178313977, 43.907542388752475 ], [ 4.722156, 43.907493 ] ] ] ] } },
{ "type": "Feature", "properties": { "codgeo": "30351", "value": 840, "isochrone_group": 14.0, "nb_agences": 2 }, "geometry": { "type": "MultiPolygon", "coordinates": [ [ [ [ 4.699380257288519, 43.895918254408905 ], [ 4.701534, 43.896148 ], [ 4.704096, 43.898676 ], [ 4.710487, 43.903756 ], [ 4.707009, 43.895551 ], [ 4.706393, 43.894463 ], [ 4.705134, 43.893475 ], [ 4.704891, 43.893424 ], [ 4.702892, 43.893426 ], [ 4.699380257288519, 43.895918254408905 ] ] ], [ [ [ 4.692038, 43.892878 ], [ 4.691585, 43.892392 ], [ 4.688949, 43.894844 ], [ 4.691424, 43.898647 ], [ 4.6919, 43.899448 ], [ 4.692092, 43.899601 ], [ 4.695028, 43.902325 ], [ 4.696347, 43.90312 ], [ 4.702019, 43.90848 ], [ 4.702326, 43.909988 ], [ 4.703128401479328, 43.912020256766858 ], [ 4.703317038509143, 43.91136536126529 ], [ 4.703179, 43.909927 ], [ 4.69852, 43.902771 ], [ 4.695203, 43.900994 ], [ 4.694793, 43.900737 ], [ 4.694216, 43.900352 ], [ 4.692727, 43.898294 ], [ 4.693068, 43.895799 ], [ 4.693095, 43.895777 ], [ 4.693778, 43.895353 ], [ 4.694925, 43.895443 ], [ 4.696071104739898, 43.895565258108888 ], [ 4.693846, 43.894509 ], [ 4.693149, 43.893942 ], [ 4.692665, 43.893506 ], [ 4.692038, 43.892878 ] ] ], [ [ [ 4.747088, 44.02202 ], [ 4.746086619461911, 44.024229641173896 ], [ 4.750763, 44.02278 ], [ 4.752686, 44.021995 ], [ 4.760531, 44.02289 ], [ 4.752874, 44.019543 ], [ 4.752049, 44.019581 ], [ 4.749496097510894, 44.019583901355269 ], [ 4.747088, 44.02202 ] ] ], [ [ [ 4.765448, 44.024884 ], [ 4.772665, 44.023104 ], [ 4.775813, 44.022512 ], [ 4.781985, 44.023614 ], [ 4.789468, 44.025634 ], [ 4.791738, 44.027449 ], [ 4.794141, 44.030184 ], [ 4.795961, 44.030369 ], [ 4.800808, 44.029245 ], [ 4.805311, 44.029232 ], [ 4.809759, 44.027272 ], [ 4.816525, 44.026193 ], [ 4.817332, 44.02279 ], [ 4.81814, 44.019387 ], [ 4.825617, 44.015346 ], [ 4.826875, 44.014924 ], [ 4.830959, 44.0138 ], [ 4.830801, 44.010203 ], [ 4.833707, 44.004957 ], [ 4.837782, 43.997488 ], [ 4.837615, 43.996292 ], [ 4.835825, 43.987833 ], [ 4.835825, 43.985638454601606 ], [ 4.839993, 43.981632 ], [ 4.842311, 43.981045 ], [ 4.846716, 43.976507 ], [ 4.853098052937453, 43.976590776793969 ], [ 4.852937, 43.97602 ], [ 4.85294558530975, 43.975412424232985 ], [ 4.845587, 43.974174 ], [ 4.842104, 43.975684 ], [ 4.838788, 43.980488 ], [ 4.838402, 43.981948 ], [ 4.835524, 43.982647 ], [ 4.833000814883451, 43.986029053350769 ], [ 4.833403, 43.987881 ], [ 4.835435, 43.994553 ], [ 4.834827, 43.998101 ], [ 4.830491, 44.004724 ], [ 4.828136, 44.012173 ], [ 4.825859, 44.013633 ], [ 4.825808, 44.013617 ], [ 4.823775, 44.01297 ], [ 4.817434, 44.018672 ], [ 4.816972, 44.020553 ], [ 4.815414, 44.020022 ], [ 4.813476, 44.019694 ], [ 4.807217, 44.025163 ], [ 4.803541, 44.027056 ], [ 4.803192, 44.027141 ], [ 4.802436, 44.027194 ], [ 4.794385, 44.02654 ], [ 4.79223, 44.026381 ], [ 4.790993, 44.024896 ], [ 4.782782, 44.021246 ], [ 4.782335, 44.021268 ], [ 4.776328, 44.0208 ], [ 4.773129, 44.020188 ], [ 4.769587, 44.019545 ], [ 4.762972, 44.023584 ], [ 4.761478, 44.023418 ], [ 4.761052, 44.0232 ], [ 4.760531, 44.02289 ], [ 4.761646, 44.023742 ], [ 4.762244, 44.024156 ], [ 4.763676, 44.024904 ], [ 4.764545, 44.025003 ], [ 4.765448, 44.024884 ] ] ] ] } },
{ "type": "Feature", "properties": { "codgeo": "30351", "value": 900, "isochrone_group": 15.0, "nb_agences": 2 }, "geometry": { "type": "MultiPolygon", "coordinates": [ [ [ [ 4.690300942396332, 43.890680267703821 ], [ 4.697763, 43.891973 ], [ 4.70046, 43.889589 ], [ 4.705946, 43.892644 ], [ 4.70752, 43.893783 ], [ 4.712595, 43.897565 ], [ 4.715721115231304, 43.905329207764019 ], [ 4.718585, 43.90619 ], [ 4.71497, 43.898367 ], [ 4.715285, 43.89478 ], [ 4.707699, 43.89226 ], [ 4.701463, 43.888237 ], [ 4.697425, 43.885524 ], [ 4.694581, 43.887732 ], [ 4.687417578546392, 43.886739917191768 ], [ 4.688957, 43.889063 ], [ 4.690300942396332, 43.890680267703821 ] ] ], [ [ [ 4.701347, 43.911556 ], [ 4.70135297039708, 43.911572552525485 ], [ 4.701629379434182, 43.910286495044161 ], [ 4.701151, 43.909706 ], [ 4.696215, 43.904161 ], [ 4.692958, 43.901301 ], [ 4.691826, 43.900531 ], [ 4.690661, 43.899423 ], [ 4.690594, 43.899361 ], [ 4.689762, 43.898519 ], [ 4.687852108046496, 43.894720722703823 ], [ 4.685935631502782, 43.893631476298644 ], [ 4.687037, 43.895837 ], [ 4.687142, 43.89756 ], [ 4.691346, 43.903039 ], [ 4.697974, 43.907088 ], [ 4.701347, 43.911556 ] ] ], [ [ [ 4.733488748130387, 44.027230242338263 ], [ 4.733476, 44.027178 ], [ 4.733448, 44.026863 ], [ 4.731441, 44.020821 ], [ 4.733488748130387, 44.027230242338263 ] ] ], [ [ [ 4.779031, 44.026475 ], [ 4.779683, 44.026536 ], [ 4.788316, 44.02779 ], [ 4.790137, 44.029327 ], [ 4.793084, 44.035559 ], [ 4.793579, 44.035575 ], [ 4.794356, 44.035571 ], [ 4.794697, 44.035555 ], [ 4.79502, 44.035523 ], [ 4.79903, 44.034741 ], [ 4.803669, 44.032691 ], [ 4.810634, 44.027259 ], [ 4.81602, 44.027194 ], [ 4.816401, 44.026711 ], [ 4.81652402703684, 44.026193155162169 ], [ 4.809759, 44.027272 ], [ 4.805311, 44.029232 ], [ 4.800808, 44.029245 ], [ 4.795961, 44.030369 ], [ 4.794141, 44.030184 ], [ 4.791738, 44.027449 ], [ 4.789468, 44.025634 ], [ 4.781985, 44.023614 ], [ 4.775813, 44.022512 ], [ 4.772665, 44.023104 ], [ 4.767962031451042, 44.024263939589446 ], [ 4.76879, 44.024265 ], [ 4.769615, 44.024354 ], [ 4.770487, 44.024471 ], [ 4.770806, 44.024495 ], [ 4.77851, 44.026349 ], [ 4.779031, 44.026475 ] ] ], [ [ [ 4.817271, 44.023049 ], [ 4.821916175685373, 44.017346137896929 ], [ 4.81814, 44.019387 ], [ 4.817332, 44.02279 ], [ 4.817039582589585, 44.024023081099912 ], [ 4.817271, 44.023049 ] ] ], [ [ [ 4.837486, 44.003109 ], [ 4.838052, 43.999053 ], [ 4.837932, 43.994933 ], [ 4.840003, 43.986641 ], [ 4.840039, 43.986331 ], [ 4.840038903618198, 43.986330884613338 ], [ 4.843427, 43.984937 ], [ 4.846571, 43.984983 ], [ 4.847242, 43.98231 ], [ 4.8536530224722, 43.983145083668184 ], [ 4.853681250250574, 43.982159339933865 ], [ 4.853180099988861, 43.976591853820288 ], [ 4.846716, 43.976507 ], [ 4.842311, 43.981045 ], [ 4.839993, 43.981632 ], [ 4.835825, 43.985638454601606 ], [ 4.835825, 43.987833 ], [ 4.837615, 43.996292 ], [ 4.837782, 43.997488 ], [ 4.833707, 44.004957 ], [ 4.830801, 44.010203 ], [ 4.830959, 44.0138 ], [ 4.826875, 44.014924 ], [ 4.83138, 44.013766 ], [ 4.832733, 44.013527 ], [ 4.833955, 44.013233 ], [ 4.836749, 44.012452 ], [ 4.837967, 44.011992 ], [ 4.837486, 44.003109 ] ] ], [ [ [ 4.756259035857314, 44.022402631241839 ], [ 4.756108, 44.02625 ], [ 4.755650343557936, 44.027639633548326 ], [ 4.761728493223267, 44.023799110693027 ], [ 4.761646, 44.023742 ], [ 4.760531, 44.02289 ], [ 4.756259035857314, 44.022402631241839 ] ] ], [ [ [ 4.749869, 43.922958 ], [ 4.749518, 43.923008 ], [ 4.749373117009242, 43.923046270978688 ], [ 4.75228, 43.923113 ], [ 4.752431322033581, 43.922895173640526 ], [ 4.750909, 43.922888 ], [ 4.749869, 43.922958 ] ] ], [ [ [ 4.734166, 43.921582 ], [ 4.736367, 43.923402 ], [ 4.730637, 43.917614 ], [ 4.733983646405632, 43.921431455980638 ], [ 4.734137963307209, 43.921559044370454 ], [ 4.734138, 43.921559 ], [ 4.734165925744745, 43.921582089792544 ], [ 4.734166, 43.921582 ] ] ], [ [ [ 4.727114872262489, 43.912420086587161 ], [ 4.726586, 43.91164 ], [ 4.728626, 43.914649 ], [ 4.730637, 43.917614 ], [ 4.728876, 43.915017 ], [ 4.727115, 43.91242 ], [ 4.727114872262489, 43.912420086587161 ] ] ] ] } },
{ "type": "Feature", "properties": { "codgeo": "30351", "value": 960, "isochrone_group": 16.0, "nb_agences": 2 }, "geometry": { "type": "MultiPolygon", "coordinates": [ [ [ [ 4.719019, 43.895839 ], [ 4.720877, 43.896486 ], [ 4.721545, 43.896718 ], [ 4.722091, 43.897903 ], [ 4.722087, 43.89821 ], [ 4.720364, 43.900119 ], [ 4.722698, 43.907811 ], [ 4.723322, 43.908231 ], [ 4.723822, 43.908606 ], [ 4.724562, 43.909251 ], [ 4.727524, 43.900933 ], [ 4.728531, 43.900887 ], [ 4.728367, 43.897291 ], [ 4.721014, 43.894653 ], [ 4.720266, 43.894357 ], [ 4.719732, 43.894308 ], [ 4.719396, 43.894293 ], [ 4.713457014026251, 43.89306191528793 ], [ 4.717159, 43.89519 ], [ 4.719019, 43.895839 ] ] ], [ [ [ 4.688022, 43.878835 ], [ 4.686569, 43.878169 ], [ 4.680779, 43.88237 ], [ 4.677978, 43.882669 ], [ 4.674816392119999, 43.882044832401967 ], [ 4.678068, 43.88269 ], [ 4.678219811944799, 43.882736689989422 ], [ 4.678222, 43.882728 ], [ 4.682963, 43.883371 ], [ 4.683084, 43.883418 ], [ 4.690501, 43.884205 ], [ 4.692636, 43.881306 ], [ 4.699732, 43.884079 ], [ 4.701526, 43.885326 ], [ 4.707128, 43.890315 ], [ 4.709851, 43.890989 ], [ 4.711184489058662, 43.891755555491962 ], [ 4.709705, 43.888839 ], [ 4.704418, 43.885189 ], [ 4.703499, 43.884518 ], [ 4.695599, 43.880415 ], [ 4.688022, 43.878835 ] ] ], [ [ [ 4.6918, 43.905344 ], [ 4.691421, 43.904809 ], [ 4.691085, 43.903772 ], [ 4.688155217738078, 43.900233489518364 ], [ 4.691101, 43.906002 ], [ 4.695126, 43.909762 ], [ 4.696898997520427, 43.909844338872624 ], [ 4.695155, 43.908654 ], [ 4.6918, 43.905344 ] ] ], [ [ [ 4.699678543612749, 43.913827750631206 ], [ 4.699752, 43.913756 ], [ 4.700538015438694, 43.912328094976345 ], [ 4.699063728751031, 43.911321843113498 ], [ 4.699678543612749, 43.913827750631206 ] ] ], [ [ [ 4.68581, 43.897401 ], [ 4.685619, 43.89725 ], [ 4.684924864563534, 43.895437338498816 ], [ 4.683208927286652, 43.89494521197382 ], [ 4.684205, 43.897033 ], [ 4.684322, 43.897102 ], [ 4.687648080900523, 43.899620983586196 ], [ 4.68581, 43.897401 ] ] ], [ [ [ 4.748752778550386, 44.031409486425702 ], [ 4.748724, 44.031389 ], [ 4.740046, 44.031629 ], [ 4.740045016152526, 44.031629848547205 ], [ 4.748752778550386, 44.031409486425702 ] ] ], [ [ [ 4.786707, 44.039406 ], [ 4.786713, 44.039845 ], [ 4.78672, 44.039923 ], [ 4.790245, 44.039826 ], [ 4.794471, 44.036588 ], [ 4.801645, 44.035387 ], [ 4.806989, 44.035763 ], [ 4.808814, 44.034805 ], [ 4.815095, 44.028518 ], [ 4.816278, 44.02723 ], [ 4.816562637712857, 44.026030913952937 ], [ 4.816563, 44.026031 ], [ 4.817210051419455, 44.02330665929604 ], [ 4.821063918511321, 44.018392450344351 ], [ 4.817271, 44.023049 ], [ 4.816401, 44.026711 ], [ 4.81602, 44.027194 ], [ 4.810634, 44.027259 ], [ 4.803669, 44.032691 ], [ 4.79903, 44.034741 ], [ 4.79502, 44.035523 ], [ 4.794697, 44.035555 ], [ 4.794356, 44.035571 ], [ 4.793579, 44.035575 ], [ 4.793084, 44.035559 ], [ 4.790137, 44.029327 ], [ 4.788316, 44.02779 ], [ 4.779683, 44.026536 ], [ 4.779031, 44.026475 ], [ 4.77851, 44.026349 ], [ 4.770806, 44.024495 ], [ 4.770487, 44.024471 ], [ 4.769615, 44.024354 ], [ 4.76879, 44.024265 ], [ 4.764886, 44.02426 ], [ 4.764083, 44.024247 ], [ 4.76372, 44.024144 ], [ 4.763297, 44.023959 ], [ 4.762924218171994, 44.023764196256373 ], [ 4.761486, 44.028042 ], [ 4.762643, 44.030221 ], [ 4.763033171099999, 44.031078748033146 ], [ 4.768769, 44.025364 ], [ 4.771742, 44.026299 ], [ 4.771839, 44.026346 ], [ 4.772214, 44.026467 ], [ 4.77637, 44.027173 ], [ 4.77997, 44.027167 ], [ 4.786328, 44.031994 ], [ 4.786762, 44.035568 ], [ 4.786707, 44.039406 ] ] ], [ [ [ 4.822752, 44.01632 ], [ 4.821884807150739, 44.017384648911282 ], [ 4.825838450931282, 44.015270632725702 ], [ 4.825637, 44.015338 ], [ 4.825395, 44.015429 ], [ 4.824192, 44.015958 ], [ 4.823345, 44.016197 ], [ 4.822752, 44.01632 ] ] ], [ [ [ 4.825838450931282, 44.015270632725702 ], [ 4.825838450931288, 44.015270632725702 ], [ 4.826875, 44.014924 ], [ 4.825838450931282, 44.015270632725702 ] ] ], [ [ [ 4.842072, 44.011949 ], [ 4.84248, 44.011598 ], [ 4.842463, 44.009975 ], [ 4.84243, 44.009076 ], [ 4.842346, 44.008457 ], [ 4.840531, 44.001063 ], [ 4.841014, 43.994831 ], [ 4.841595411710753, 43.988233672522519 ], [ 4.843457, 43.988096 ], [ 4.845273, 43.988994 ], [ 4.846428, 43.989119 ], [ 4.847129, 43.989077 ], [ 4.852265327992469, 43.987448729457995 ], [ 4.852792, 43.986291 ], [ 4.853432671193143, 43.983116381264594 ], [ 4.847242, 43.98231 ], [ 4.846571, 43.984983 ], [ 4.843427, 43.984937 ], [ 4.840038903618198, 43.986330884613338 ], [ 4.840039, 43.986331 ], [ 4.840003, 43.986641 ], [ 4.837932, 43.994933 ], [ 4.838052, 43.999053 ], [ 4.837486, 44.003109 ], [ 4.837967, 44.011992 ], [ 4.836749, 44.012452 ], [ 4.833955, 44.013233 ], [ 4.832733, 44.013527 ], [ 4.83138, 44.013766 ], [ 4.836931, 44.013536 ], [ 4.83887, 44.01336 ], [ 4.839676, 44.0132 ], [ 4.840411, 44.012945 ], [ 4.841156, 44.012602 ], [ 4.842072, 44.011949 ] ] ] ] } },
{ "type": "Feature", "properties": { "codgeo": "30351", "value": 1020, "isochrone_group": 17.0, "nb_agences": 2 }, "geometry": { "type": "MultiPolygon", "coordinates": [ [ [ [ 4.713487, 43.890776 ], [ 4.709332, 43.884709 ], [ 4.706885, 43.881542 ], [ 4.702853, 43.879012 ], [ 4.697733, 43.876549 ], [ 4.692812, 43.86977 ], [ 4.68942, 43.870976 ], [ 4.682086, 43.874677 ], [ 4.676621, 43.874671 ], [ 4.672521, 43.874517 ], [ 4.667365, 43.880566 ], [ 4.671092, 43.881308 ], [ 4.674535, 43.881989 ], [ 4.679925, 43.876125 ], [ 4.683646, 43.876638 ], [ 4.69201, 43.87652 ], [ 4.693351, 43.875731 ], [ 4.694085, 43.875958 ], [ 4.694296, 43.876038 ], [ 4.694865, 43.876296 ], [ 4.696356, 43.877668 ], [ 4.697595, 43.881048 ], [ 4.705489, 43.883408 ], [ 4.706304, 43.883342 ], [ 4.707434, 43.884871 ], [ 4.708898, 43.887786 ], [ 4.709178098687302, 43.888475241764453 ], [ 4.709705, 43.888839 ], [ 4.710503960827042, 43.890414012383062 ], [ 4.716727, 43.893558 ], [ 4.7172, 43.893629 ], [ 4.718066, 43.893847 ], [ 4.719401, 43.894217 ], [ 4.719657591263518, 43.894304678181406 ], [ 4.719732, 43.894308 ], [ 4.720266, 43.894357 ], [ 4.721014, 43.894653 ], [ 4.72485691132217, 43.896031702579613 ], [ 4.729686, 43.896823 ], [ 4.732872601708285, 43.8975243401051 ], [ 4.735610251915834, 43.896704302493717 ], [ 4.730972, 43.89602 ], [ 4.723646, 43.894548 ], [ 4.718776, 43.893654 ], [ 4.718183, 43.893446 ], [ 4.713487, 43.890776 ] ] ], [ [ [ 4.663635, 43.879823 ], [ 4.663660841500564, 43.879828147516079 ], [ 4.662920955055862, 43.879651034175943 ], [ 4.663635, 43.879823 ] ] ], [ [ [ 4.662435, 43.879534 ], [ 4.66245121287126, 43.879537904599836 ], [ 4.662003315437461, 43.879419265100992 ], [ 4.662435, 43.879534 ] ] ], [ [ [ 4.660777, 43.879087 ], [ 4.660785387623615, 43.879089307837269 ], [ 4.660682043565062, 43.879057590099222 ], [ 4.660777, 43.879087 ] ] ], [ [ [ 4.66017, 43.878899 ], [ 4.660207604390216, 43.878910646829247 ], [ 4.660152022327334, 43.878891070756779 ], [ 4.66017, 43.878899 ] ] ], [ [ [ 4.697806, 43.916459 ], [ 4.697418, 43.915514 ], [ 4.697331, 43.914218 ], [ 4.697486183483365, 43.913525504918155 ], [ 4.695096, 43.910409 ], [ 4.691032, 43.906745 ], [ 4.686712, 43.900955 ], [ 4.685242, 43.898868 ], [ 4.684307467568964, 43.897826326508792 ], [ 4.681194786999245, 43.897501874247105 ], [ 4.683755, 43.899867 ], [ 4.684057, 43.900212 ], [ 4.684571, 43.900629 ], [ 4.684986, 43.900883 ], [ 4.690814, 43.907398 ], [ 4.695126, 43.911804 ], [ 4.697677, 43.91626 ], [ 4.697806, 43.916459 ] ] ], [ [ [ 4.708893, 44.026048 ], [ 4.711052285070298, 44.027433890542923 ], [ 4.708376, 44.025569 ], [ 4.70527056311025, 44.025214185931887 ], [ 4.708893, 44.026048 ] ] ], [ [ [ 4.721587, 44.042368 ], [ 4.72034, 44.043107 ], [ 4.720340018085883, 44.043107030524247 ], [ 4.721587, 44.042368 ] ] ], [ [ [ 4.739883631086697, 44.036413625548782 ], [ 4.744475959157389, 44.034596790847836 ], [ 4.744087, 44.034408 ], [ 4.739883631086697, 44.036413625548782 ] ] ], [ [ [ 4.747198, 44.035918 ], [ 4.74586720981323, 44.035272068408233 ], [ 4.747743, 44.036599 ], [ 4.747859, 44.036662 ], [ 4.748230787803852, 44.036727705638228 ], [ 4.747198, 44.035918 ] ] ], [ [ [ 4.791501, 44.042511 ], [ 4.798728, 44.037373 ], [ 4.799358, 44.037421 ], [ 4.801843, 44.037339 ], [ 4.802399, 44.03737 ], [ 4.802638, 44.037356 ], [ 4.803564, 44.037241 ], [ 4.809056, 44.037236 ], [ 4.809716, 44.036595 ], [ 4.810485, 44.035805 ], [ 4.810935, 44.032699 ], [ 4.816155, 44.027748 ], [ 4.816439756454074, 44.026549040549355 ], [ 4.81644, 44.026549 ], [ 4.816562956911183, 44.026030989765957 ], [ 4.816562637712857, 44.026030913952937 ], [ 4.816278, 44.02723 ], [ 4.815095, 44.028518 ], [ 4.808814, 44.034805 ], [ 4.806989, 44.035763 ], [ 4.801645, 44.035387 ], [ 4.794471, 44.036588 ], [ 4.790245, 44.039826 ], [ 4.78672, 44.039923 ], [ 4.786713, 44.039845 ], [ 4.786707, 44.039406 ], [ 4.786762, 44.035568 ], [ 4.786328, 44.031994 ], [ 4.77997, 44.027167 ], [ 4.77637, 44.027173 ], [ 4.772214, 44.026467 ], [ 4.771839, 44.026346 ], [ 4.771742, 44.026299 ], [ 4.768769, 44.025364 ], [ 4.763682517570485, 44.030431788102902 ], [ 4.764275, 44.030533 ], [ 4.765651, 44.030778 ], [ 4.766095, 44.030912 ], [ 4.768168, 44.031255 ], [ 4.769265028467737, 44.033521414132281 ], [ 4.775702, 44.029125 ], [ 4.779903, 44.035313 ], [ 4.780888, 44.035519 ], [ 4.785594, 44.042519 ], [ 4.787245, 44.045186 ], [ 4.787271, 44.045215 ], [ 4.790016, 44.046086 ], [ 4.79143, 44.042775 ], [ 4.791501, 44.042511 ] ] ], [ [ [ 4.836931, 44.013536 ], [ 4.83138, 44.013766 ], [ 4.826875, 44.014924 ], [ 4.832298, 44.013924 ], [ 4.832701, 44.013878 ], [ 4.833891, 44.013768 ], [ 4.835687, 44.013649 ], [ 4.83887, 44.01336 ], [ 4.836931, 44.013536 ] ] ], [ [ [ 4.844204, 44.006357 ], [ 4.843173, 43.998494 ], [ 4.844444, 43.993685 ], [ 4.844451, 43.993098 ], [ 4.843573202451611, 43.989871596875126 ], [ 4.844896, 43.989807 ], [ 4.845834678108998, 43.989054787674135 ], [ 4.845273, 43.988994 ], [ 4.843457, 43.988096 ], [ 4.841595411710753, 43.988233672522519 ], [ 4.841014, 43.994831 ], [ 4.840531, 44.001063 ], [ 4.842346, 44.008457 ], [ 4.84243, 44.009076 ], [ 4.842463, 44.009975 ], [ 4.842479940616357, 44.011592330608643 ], [ 4.842621, 44.011469 ], [ 4.843159, 44.010831 ], [ 4.843446, 44.010245 ], [ 4.843937, 44.008629 ], [ 4.844125, 44.007227 ], [ 4.844204, 44.006357 ] ] ], [ [ [ 4.850415853063484, 43.989293594978868 ], [ 4.849655605949026, 43.988276039071494 ], [ 4.849102096978831, 43.988451507295522 ], [ 4.850415853063484, 43.989293594978868 ] ] ] ] } },
{ "type": "Feature", "properties": { "codgeo": "30351", "value": 1080, "isochrone_group": 18.0, "nb_agences": 2 }, "geometry": { "type": "MultiPolygon", "coordinates": [ [ [ [ 4.716433, 43.890481 ], [ 4.724151, 43.89457 ], [ 4.728425, 43.895065 ], [ 4.733111, 43.895458 ], [ 4.73448572705246, 43.895657267804026 ], [ 4.734613, 43.895643 ], [ 4.73471415039061, 43.89532342540079 ], [ 4.73189, 43.894997 ], [ 4.728823, 43.894825 ], [ 4.721768, 43.892794 ], [ 4.718626, 43.89046 ], [ 4.716183, 43.89039 ], [ 4.716433, 43.890481 ] ] ], [ [ [ 4.715325, 43.890294 ], [ 4.710644390116261, 43.886625310670375 ], [ 4.711390328489782, 43.887714506365228 ], [ 4.715325, 43.890294 ] ] ], [ [ [ 4.713834, 43.877687 ], [ 4.713717, 43.877511 ], [ 4.713385, 43.877135 ], [ 4.711288, 43.876484 ], [ 4.704794, 43.877553 ], [ 4.704523, 43.877552 ], [ 4.696826, 43.875204 ], [ 4.697581, 43.876314 ], [ 4.705828, 43.87868 ], [ 4.707226, 43.878434 ], [ 4.708645, 43.878019 ], [ 4.709923, 43.881384 ], [ 4.709333620399247, 43.884711366055889 ], [ 4.710462895490315, 43.886360297939781 ], [ 4.713249, 43.880181 ], [ 4.713803, 43.879843 ], [ 4.713909, 43.87975 ], [ 4.714113, 43.879017 ], [ 4.714264, 43.87851 ], [ 4.714111, 43.878184 ], [ 4.713834, 43.877687 ] ] ], [ [ [ 4.696826, 43.875204 ], [ 4.696093, 43.873341 ], [ 4.695788, 43.872798 ], [ 4.695571, 43.872407 ], [ 4.69196, 43.867478 ], [ 4.696489, 43.874617 ], [ 4.696826, 43.875204 ] ] ], [ [ [ 4.686732, 43.865533 ], [ 4.679999, 43.870956 ], [ 4.675548, 43.871941 ], [ 4.674705, 43.871969 ], [ 4.666079, 43.872327 ], [ 4.659507, 43.870934 ], [ 4.651988736329933, 43.87500013897219 ], [ 4.652697, 43.875474 ], [ 4.65357, 43.875988 ], [ 4.658375269107301, 43.878107414904747 ], [ 4.658438, 43.878127 ], [ 4.658838, 43.878227 ], [ 4.665976, 43.873006 ], [ 4.668425, 43.873678 ], [ 4.67715, 43.872136 ], [ 4.678129, 43.872264 ], [ 4.680946, 43.872877 ], [ 4.688092, 43.868425 ], [ 4.690588276081539, 43.865974393430257 ], [ 4.688257, 43.864203 ], [ 4.687828, 43.864303 ], [ 4.687601, 43.864385 ], [ 4.68723, 43.864564 ], [ 4.687196, 43.8646 ], [ 4.686732, 43.865533 ] ] ], [ [ [ 4.696295, 43.914235 ], [ 4.696279795607432, 43.914161324394044 ], [ 4.6958, 43.913439 ], [ 4.690973, 43.909417 ], [ 4.689783774392724, 43.907823384477048 ], [ 4.690742, 43.909399 ], [ 4.690831, 43.91032 ], [ 4.691151, 43.910528 ], [ 4.697010271535555, 43.915261043887043 ], [ 4.696404728043937, 43.914349408121979 ], [ 4.696385, 43.914335 ], [ 4.696295, 43.914235 ] ] ], [ [ [ 4.698274, 43.919265 ], [ 4.698904, 43.921548 ], [ 4.698916929808331, 43.922889637743545 ], [ 4.700489, 43.922198 ], [ 4.697759033843562, 43.916388293224124 ], [ 4.697310823886024, 43.91571352050638 ], [ 4.698274, 43.919265 ] ] ], [ [ [ 4.681584279918461, 43.899410315736205 ], [ 4.681379459890358, 43.899573798995547 ], [ 4.684375, 43.902328 ], [ 4.685928173737961, 43.902656707089569 ], [ 4.685609, 43.902229 ], [ 4.684006, 43.901127 ], [ 4.681584279918461, 43.899410315736205 ] ] ], [ [ [ 4.686113625966013, 44.00439601748964 ], [ 4.686119, 44.004397 ], [ 4.686119653087867, 44.004396185888744 ], [ 4.686113625966013, 44.00439601748964 ] ] ], [ [ [ 4.684873244538567, 44.013926772731779 ], [ 4.684634, 44.013862 ], [ 4.682908070431976, 44.013417536789966 ], [ 4.68443, 44.013931 ], [ 4.684873244538567, 44.013926772731779 ] ] ], [ [ [ 4.694134, 44.018555 ], [ 4.692771, 44.016065 ], [ 4.690377992021165, 44.015417120366557 ], [ 4.694263, 44.019015 ], [ 4.694134, 44.018555 ] ] ], [ [ [ 4.71415, 44.031756 ], [ 4.713075, 44.031563 ], [ 4.713035983908535, 44.031556979322808 ], [ 4.713036, 44.031557 ], [ 4.71415, 44.031756 ] ] ], [ [ [ 4.716832, 44.031894 ], [ 4.7171, 44.03043 ], [ 4.71683147562732, 44.031893998205227 ], [ 4.716832, 44.031894 ] ] ], [ [ [ 4.711903, 44.051139 ], [ 4.711903022203709, 44.051139017167344 ], [ 4.712681, 44.050133 ], [ 4.711903, 44.051139 ] ] ], [ [ [ 4.719519357077786, 44.050223041602877 ], [ 4.715594, 44.052267 ], [ 4.71475930725254, 44.053335568010027 ], [ 4.719519357077786, 44.050223041602877 ] ] ], [ [ [ 4.731488, 44.046859 ], [ 4.727097, 44.046017 ], [ 4.727089172086887, 44.046021475284178 ], [ 4.731277, 44.046905 ], [ 4.731488, 44.046859 ] ] ], [ [ [ 4.807375, 44.038806 ], [ 4.807774, 44.038514 ], [ 4.808353, 44.037978 ], [ 4.809716, 44.036595 ], [ 4.809056, 44.037236 ], [ 4.803564, 44.037241 ], [ 4.802638, 44.037356 ], [ 4.802399, 44.03737 ], [ 4.801843, 44.037339 ], [ 4.799358, 44.037421 ], [ 4.798728, 44.037373 ], [ 4.791501, 44.042511 ], [ 4.79143, 44.042775 ], [ 4.790016, 44.046086 ], [ 4.787271, 44.045215 ], [ 4.787245, 44.045186 ], [ 4.785594, 44.042519 ], [ 4.780888, 44.035519 ], [ 4.779903, 44.035313 ], [ 4.775702, 44.029125 ], [ 4.772775807541396, 44.031123572436471 ], [ 4.773739, 44.031692 ], [ 4.774837, 44.033913 ], [ 4.77498, 44.036527 ], [ 4.773649, 44.042785 ], [ 4.77467110902338, 44.045545683210896 ], [ 4.782755, 44.048519 ], [ 4.784612, 44.050379 ], [ 4.785634, 44.05068 ], [ 4.790652, 44.049144 ], [ 4.794342, 44.047167 ], [ 4.795699, 44.046245 ], [ 4.799263, 44.040054 ], [ 4.802796, 44.039367 ], [ 4.805602, 44.039964 ], [ 4.807375, 44.038806 ] ] ], [ [ [ 4.815312, 44.030531 ], [ 4.815673, 44.029577 ], [ 4.816135, 44.027831 ], [ 4.816154634884603, 44.027748346300065 ], [ 4.810935, 44.032699 ], [ 4.810485, 44.035805 ], [ 4.815312, 44.030531 ] ] ], [ [ [ 4.81644, 44.026549 ], [ 4.816439756454074, 44.026549040549355 ], [ 4.816316663284676, 44.027067321054155 ], [ 4.816317, 44.027067 ], [ 4.817229, 44.023227 ], [ 4.822201229965152, 44.01693735717803 ], [ 4.81814, 44.019387 ], [ 4.817148, 44.023567 ], [ 4.816839087853461, 44.024867666349117 ], [ 4.81644, 44.026549 ] ] ], [ [ [ 4.832298, 44.013924 ], [ 4.826875, 44.014924 ], [ 4.833891, 44.013768 ], [ 4.832701, 44.013878 ], [ 4.832298, 44.013924 ] ] ], [ [ [ 4.848916, 43.991538 ], [ 4.85176252512268, 43.991932628415718 ], [ 4.851907, 43.991602 ], [ 4.845581, 43.98931 ], [ 4.845541697660887, 43.989289568374979 ], [ 4.844896, 43.989807 ], [ 4.843573202451611, 43.989871596875126 ], [ 4.844451, 43.993098 ], [ 4.844444, 43.993685 ], [ 4.843173, 43.998494 ], [ 4.844203175250375, 44.006350709984183 ], [ 4.844211, 44.006263 ], [ 4.844305, 44.004344 ], [ 4.844575, 44.001641 ], [ 4.847029, 43.993104 ], [ 4.847165, 43.991894 ], [ 4.847225959471184, 43.990876139193006 ], [ 4.848916, 43.991538 ] ] ] ] } },
{ "type": "Feature", "properties": { "codgeo": "30351", "value": 1140, "isochrone_group": 19.0, "nb_agences": 2 }, "geometry": { "type": "MultiPolygon", "coordinates": [ [ [ [ 4.722573, 43.873856 ], [ 4.723017, 43.873531 ], [ 4.722673, 43.871762 ], [ 4.721431, 43.871671 ], [ 4.718, 43.871389 ], [ 4.716618, 43.872059 ], [ 4.714406, 43.872875 ], [ 4.713474, 43.873487 ], [ 4.712787, 43.874313 ], [ 4.713139, 43.874006 ], [ 4.713646, 43.873679 ], [ 4.714817, 43.873055 ], [ 4.71571, 43.872499 ], [ 4.716151, 43.872262 ], [ 4.716453, 43.872913 ], [ 4.717853, 43.875435 ], [ 4.715271, 43.879168 ], [ 4.713598, 43.882214 ], [ 4.71891, 43.887941 ], [ 4.719142, 43.888216 ], [ 4.723783, 43.892137 ], [ 4.731364, 43.89352 ], [ 4.731664374226726, 43.893562956059974 ], [ 4.733369168783689, 43.892981659671428 ], [ 4.731965, 43.892667 ], [ 4.728812, 43.892527 ], [ 4.725647, 43.891815 ], [ 4.719181, 43.8871 ], [ 4.716044, 43.881307 ], [ 4.720383, 43.875115 ], [ 4.722573, 43.873856 ] ] ], [ [ [ 4.706444, 43.877191 ], [ 4.70806390661589, 43.876456002169242 ], [ 4.70424359367247, 43.877466766005341 ], [ 4.704327299216947, 43.877492300709555 ], [ 4.706444, 43.877191 ] ] ], [ [ [ 4.694338, 43.865222 ], [ 4.692349287714755, 43.866630828736284 ], [ 4.694263030814569, 43.869227692732643 ], [ 4.69459, 43.864908 ], [ 4.694553548255898, 43.864834403136221 ], [ 4.694338, 43.865222 ] ] ], [ [ [ 4.67854, 43.86844 ], [ 4.684076, 43.865205 ], [ 4.684195243129131, 43.865122761428793 ], [ 4.682619094115164, 43.864867870182835 ], [ 4.682227, 43.865338 ], [ 4.676944251586762, 43.866232836346661 ], [ 4.675278, 43.868813 ], [ 4.674106736844754, 43.869084293545143 ], [ 4.672081013801275, 43.871192741902867 ], [ 4.675549, 43.870443 ], [ 4.67854, 43.86844 ] ] ], [ [ [ 4.660490269987306, 43.87114241373893 ], [ 4.66141149888293, 43.871337677258659 ], [ 4.662296120001254, 43.871461444443412 ], [ 4.661338120758603, 43.870781077953062 ], [ 4.660465, 43.870929 ], [ 4.660490269987306, 43.87114241373893 ] ] ], [ [ [ 4.79392, 44.047447 ], [ 4.794305336959585, 44.047186643043617 ], [ 4.790652, 44.049144 ], [ 4.785634, 44.05068 ], [ 4.784612, 44.050379 ], [ 4.782755, 44.048519 ], [ 4.777464590652189, 44.046573147070951 ], [ 4.777966, 44.04858 ], [ 4.776452, 44.051295 ], [ 4.775754122893435, 44.051554668480208 ], [ 4.775761034059106, 44.051589247461557 ], [ 4.776057, 44.0515 ], [ 4.776652223993628, 44.05227808799615 ], [ 4.780224, 44.054439 ], [ 4.780299, 44.054435 ], [ 4.785182, 44.053953 ], [ 4.791713, 44.048653 ], [ 4.79392, 44.047447 ] ] ], [ [ [ 4.814468, 44.032236 ], [ 4.815239, 44.0307 ], [ 4.815298694097812, 44.030545538083295 ], [ 4.810485, 44.035805 ], [ 4.809716, 44.036595 ], [ 4.813736, 44.03332 ], [ 4.814468, 44.032236 ] ] ], [ [ [ 4.816194, 44.027586 ], [ 4.816534549999433, 44.026151000002372 ], [ 4.816317, 44.027067 ], [ 4.816316344279734, 44.027067625221655 ], [ 4.816135, 44.027831 ], [ 4.816193130223004, 44.027586298892444 ], [ 4.816194, 44.027586 ] ] ], [ [ [ 4.833891, 44.013768 ], [ 4.829046807741281, 44.014566159385843 ], [ 4.829029714980559, 44.014570977936131 ], [ 4.833943, 44.013766 ], [ 4.835687, 44.013649 ], [ 4.833891, 44.013768 ] ] ], [ [ [ 4.844097245934058, 44.00743397447048 ], [ 4.843937, 44.008629 ], [ 4.844098, 44.007441 ], [ 4.844097245934058, 44.00743397447048 ] ] ], [ [ [ 4.847165, 43.991894 ], [ 4.847029, 43.993104 ], [ 4.844575, 44.001641 ], [ 4.844305, 44.004344 ], [ 4.845586, 43.998132 ], [ 4.846900794960753, 43.995730801691387 ], [ 4.847572, 43.995185 ], [ 4.850823673929562, 43.994081174158303 ], [ 4.851762525122679, 43.991932628415718 ], [ 4.848916, 43.991538 ], [ 4.847225959471184, 43.990876139193006 ], [ 4.847165, 43.991894 ] ] ], [ [ [ 4.690781811523872, 43.911137408188338 ], [ 4.690771, 43.911505 ], [ 4.690867, 43.912077 ], [ 4.691035, 43.912606 ], [ 4.691172, 43.912927 ], [ 4.695795059551576, 43.914279411338121 ], [ 4.693995507768765, 43.912825756645155 ], [ 4.690781811523872, 43.911137408188338 ] ] ], [ [ [ 4.67678, 44.007749 ], [ 4.682456, 44.004774 ], [ 4.686291, 43.998166 ], [ 4.685412508222932, 43.996302041432436 ], [ 4.682798, 44.001548 ], [ 4.682697, 44.001726 ], [ 4.682465, 44.002935 ], [ 4.67678, 44.007749 ] ] ], [ [ [ 4.669081, 44.005432 ], [ 4.671422, 44.006191 ], [ 4.667927924194337, 44.004983393109178 ], [ 4.669081, 44.005432 ] ] ], [ [ [ 4.674774, 44.014925 ], [ 4.6744433996732, 44.014876327546411 ], [ 4.674861, 44.01498 ], [ 4.675004656260693, 44.015034366426647 ], [ 4.674774, 44.014925 ] ] ], [ [ [ 4.675699, 44.015288 ], [ 4.675617372016551, 44.015266247487929 ], [ 4.681459, 44.017477 ], [ 4.675699, 44.015288 ] ] ], [ [ [ 4.69399, 44.034632 ], [ 4.692933830066063, 44.035018536419116 ], [ 4.692934, 44.035019 ], [ 4.69399, 44.034632 ] ] ], [ [ [ 4.708212197814358, 44.02933518482385 ], [ 4.708297, 44.028917 ], [ 4.708212, 44.029335 ], [ 4.708212197814358, 44.02933518482385 ] ] ], [ [ [ 4.709327, 44.055245 ], [ 4.709505, 44.054832 ], [ 4.708393125087461, 44.056867760778701 ], [ 4.709327, 44.055245 ] ] ], [ [ [ 4.707979420491096, 44.057586640345903 ], [ 4.708292661980595, 44.057042331898813 ], [ 4.708176, 44.057225 ], [ 4.707975, 44.057574 ], [ 4.707979420491096, 44.057586640345903 ] ] ], [ [ [ 4.722724, 44.049133 ], [ 4.725364, 44.04974 ], [ 4.732623412862254, 44.049767997735557 ], [ 4.731712, 44.049162 ], [ 4.73014, 44.048224 ], [ 4.729292, 44.0474 ], [ 4.724957802384473, 44.047104765095426 ], [ 4.721636, 44.048839 ], [ 4.716248004574963, 44.052362130777567 ], [ 4.715892145313362, 44.052888643737113 ], [ 4.722724, 44.049133 ] ] ], [ [ [ 4.756416, 44.044012 ], [ 4.756004503378497, 44.044100074078294 ], [ 4.758895098531436, 44.04608475561033 ], [ 4.756416, 44.044012 ] ] ] ] } },
{ "type": "Feature", "properties": { "codgeo": "30351", "value": 1200, "isochrone_group": 20.0, "nb_agences": 2 }, "geometry": { "type": "MultiPolygon", "coordinates": [ [ [ [ 4.730563, 43.866138 ], [ 4.730427, 43.865215 ], [ 4.730176, 43.864396 ], [ 4.728085, 43.864051 ], [ 4.727916, 43.864133 ], [ 4.727836, 43.864183 ], [ 4.724898, 43.865981 ], [ 4.724485, 43.866229 ], [ 4.72034, 43.868242 ], [ 4.71868, 43.868994 ], [ 4.713688, 43.872356 ], [ 4.710941, 43.87392 ], [ 4.710771, 43.874078 ], [ 4.707771447047196, 43.87653338000711 ], [ 4.710061288381527, 43.87592754251542 ], [ 4.712126, 43.874326 ], [ 4.712259, 43.874134 ], [ 4.712676, 43.873587 ], [ 4.713423, 43.872856 ], [ 4.714002, 43.872651 ], [ 4.720034, 43.869535 ], [ 4.720393, 43.86931 ], [ 4.72362, 43.867303 ], [ 4.724157, 43.867697 ], [ 4.724725, 43.868101 ], [ 4.72518, 43.868557 ], [ 4.725301, 43.868684 ], [ 4.725395, 43.868787 ], [ 4.726177, 43.869838 ], [ 4.725996, 43.87002 ], [ 4.722586, 43.876131 ], [ 4.721841, 43.877342 ], [ 4.71988, 43.885006 ], [ 4.726322, 43.890412 ], [ 4.728716222290361, 43.890741083553003 ], [ 4.728702261264052, 43.890340358469764 ], [ 4.727338, 43.889909 ], [ 4.722626, 43.884723 ], [ 4.723849, 43.877068 ], [ 4.724759, 43.875667 ], [ 4.729237, 43.868202 ], [ 4.730592, 43.866869 ], [ 4.730563, 43.866138 ] ] ], [ [ [ 4.694666370763521, 43.864672726285754 ], [ 4.694550591695091, 43.864828433775685 ], [ 4.69459, 43.864908 ], [ 4.694557357743118, 43.865339247120865 ], [ 4.694666370763521, 43.864672726285754 ] ] ], [ [ [ 4.694546190070871, 43.871232304209435 ], [ 4.694628791128198, 43.871352213995145 ], [ 4.694521420729346, 43.865814022311135 ], [ 4.694375264381265, 43.867744939788267 ], [ 4.694546190070871, 43.871232304209435 ] ] ], [ [ [ 4.69054, 43.913737 ], [ 4.691187, 43.914524 ], [ 4.692177, 43.914345 ], [ 4.691605, 43.91411 ], [ 4.691083, 43.913166 ], [ 4.690867, 43.912077 ], [ 4.690771, 43.911505 ], [ 4.69054, 43.913737 ] ] ], [ [ [ 4.69581041181104, 43.917061079376715 ], [ 4.697978, 43.914918 ], [ 4.692177, 43.914345 ], [ 4.69581041181104, 43.917061079376715 ] ] ], [ [ [ 4.664546, 44.005878 ], [ 4.6664, 44.00456 ], [ 4.664644, 44.004022 ], [ 4.664179, 44.003943 ], [ 4.661814, 44.005466 ], [ 4.661480122652679, 44.005838761097039 ], [ 4.661819, 44.005873 ], [ 4.662458, 44.005921 ], [ 4.663207, 44.006072 ], [ 4.663543, 44.006202 ], [ 4.663750203632418, 44.006310795110309 ], [ 4.663755, 44.006307 ], [ 4.664546, 44.005878 ] ] ], [ [ [ 4.689524, 44.03236 ], [ 4.689805439670402, 44.03214495807044 ], [ 4.688996, 44.032684 ], [ 4.689524, 44.03236 ] ] ], [ [ [ 4.694454, 44.035606 ], [ 4.695843, 44.033095 ], [ 4.695544, 44.033445 ], [ 4.694122, 44.035536 ], [ 4.693305243306646, 44.036445501958916 ], [ 4.694454, 44.035606 ] ] ], [ [ [ 4.707758170611124, 44.031559389747521 ], [ 4.708297, 44.028917 ], [ 4.707758, 44.031559 ], [ 4.707758170611124, 44.031559389747521 ] ] ], [ [ [ 4.706983, 44.053648 ], [ 4.712681, 44.050133 ], [ 4.706862070816239, 44.053688309727939 ], [ 4.706983, 44.053648 ] ] ], [ [ [ 4.701989, 44.053549 ], [ 4.701275, 44.053752 ], [ 4.701232648382854, 44.053939516736939 ], [ 4.701424, 44.053908 ], [ 4.704082962823419, 44.053805202510169 ], [ 4.701989, 44.053549 ] ] ], [ [ [ 4.709305, 44.069836 ], [ 4.709292730764383, 44.069928354992477 ], [ 4.709487, 44.069102 ], [ 4.709305, 44.069836 ] ] ], [ [ [ 4.737996334168524, 44.05198425060653 ], [ 4.737091, 44.051759 ], [ 4.737981, 44.051987 ], [ 4.737996334168524, 44.05198425060653 ] ] ], [ [ [ 4.808353, 44.037978 ], [ 4.809716, 44.036595 ], [ 4.802552082628644, 44.037974171184011 ], [ 4.807479, 44.038733 ], [ 4.807774, 44.038514 ], [ 4.808353, 44.037978 ] ] ], [ [ [ 4.813624, 44.033473 ], [ 4.813718868987245, 44.033333956235509 ], [ 4.809716, 44.036595 ], [ 4.810878, 44.036432 ], [ 4.812896, 44.034361 ], [ 4.813624, 44.033473 ] ] ], [ [ [ 4.816135, 44.027831 ], [ 4.815720789216883, 44.029396393998518 ], [ 4.815735, 44.029379 ], [ 4.816135, 44.027831 ] ] ] ] } }
]
}
