{
"type": "FeatureCollection",
"name": "Others",
"crs": { "type": "name", "properties": { "name": "urn:ogc:def:crs:OGC:1.3:CRS84" } },
"features": [
{ "type": "Feature", "properties": { "codgeo": "31254", "value": 60, "isochrone_group": 1.0, "nb_agences": 2 }, "geometry": { "type": "MultiPolygon", "coordinates": [ [ [ [ 1.532361, 43.533382 ], [ 1.532615, 43.533638 ], [ 1.536687, 43.533605 ], [ 1.536912, 43.533323 ], [ 1.538207, 43.531538 ], [ 1.538366, 43.531215 ], [ 1.540224, 43.525951 ], [ 1.540287, 43.525729 ], [ 1.540003, 43.525507 ], [ 1.53947, 43.525703 ], [ 1.537224, 43.527314 ], [ 1.535113, 43.528734 ], [ 1.53347, 43.530322 ], [ 1.532934, 43.531594 ], [ 1.532361, 43.533382 ] ] ], [ [ [ 1.506008, 43.543569 ], [ 1.507911, 43.543829 ], [ 1.508151, 43.543589 ], [ 1.508392, 43.543349 ], [ 1.508631, 43.543108 ], [ 1.50887, 43.542868 ], [ 1.508133, 43.541811 ], [ 1.507544, 43.541619 ], [ 1.507417, 43.541746 ], [ 1.507288, 43.541875 ], [ 1.50716, 43.542003 ], [ 1.50703, 43.542133 ], [ 1.50691, 43.542252 ], [ 1.506782, 43.54238 ], [ 1.506469, 43.542693 ], [ 1.506048, 43.543285 ], [ 1.506008, 43.543569 ] ] ] ] } },
{ "type": "Feature", "properties": { "codgeo": "31254", "value": 120, "isochrone_group": 2.0, "nb_agences": 2 }, "geometry": { "type": "MultiPolygon", "coordinates": [ [ [ [ 1.528573, 43.536508 ], [ 1.531425, 43.536181 ], [ 1.531776, 43.536101 ], [ 1.53603, 43.535332 ], [ 1.538676, 43.535367 ], [ 1.538877, 43.535384 ], [ 1.539072, 43.535376 ], [ 1.539304, 43.535362 ], [ 1.543026, 43.534506 ], [ 1.546046, 43.531333 ], [ 1.544033, 43.526242 ], [ 1.543975, 43.5206 ], [ 1.543937, 43.52054 ], [ 1.543818, 43.520498 ], [ 1.543632, 43.520731 ], [ 1.542464, 43.522448 ], [ 1.537632, 43.525552 ], [ 1.537456, 43.525638 ], [ 1.537319, 43.52579 ], [ 1.537181, 43.525942 ], [ 1.535113, 43.528734 ], [ 1.531424, 43.529588 ], [ 1.531131, 43.529796 ], [ 1.530473, 43.532326 ], [ 1.528305, 43.536267 ], [ 1.528573, 43.536508 ] ], [ [ 1.537224, 43.527314 ], [ 1.53947, 43.525703 ], [ 1.540003, 43.525507 ], [ 1.540287, 43.525729 ], [ 1.540224, 43.525951 ], [ 1.538366, 43.531215 ], [ 1.538207, 43.531538 ], [ 1.536912, 43.533323 ], [ 1.536687, 43.533605 ], [ 1.532615, 43.533638 ], [ 1.532361, 43.533382 ], [ 1.532934, 43.531594 ], [ 1.53347, 43.530322 ], [ 1.535113, 43.528734 ], [ 1.537224, 43.527314 ] ] ], [ [ [ 1.502589, 43.546021 ], [ 1.50702, 43.548281 ], [ 1.507088, 43.548284 ], [ 1.507191, 43.548282 ], [ 1.507301, 43.548058 ], [ 1.507029, 43.546836 ], [ 1.511003, 43.543183 ], [ 1.512488, 43.54165 ], [ 1.512303, 43.539925 ], [ 1.512201, 43.53958 ], [ 1.510401, 43.538485 ], [ 1.510273, 43.538424 ], [ 1.510154, 43.538501 ], [ 1.508005, 43.541 ], [ 1.50352, 43.544177 ], [ 1.50347, 43.544215 ], [ 1.502329, 43.545772 ], [ 1.502589, 43.546021 ] ], [ [ 1.506048, 43.543285 ], [ 1.506469, 43.542693 ], [ 1.506782, 43.54238 ], [ 1.50691, 43.542252 ], [ 1.50703, 43.542133 ], [ 1.50716, 43.542003 ], [ 1.507288, 43.541875 ], [ 1.507417, 43.541746 ], [ 1.507544, 43.541619 ], [ 1.508133, 43.541811 ], [ 1.50887, 43.542868 ], [ 1.508631, 43.543108 ], [ 1.508392, 43.543349 ], [ 1.508151, 43.543589 ], [ 1.507911, 43.543829 ], [ 1.506008, 43.543569 ], [ 1.506048, 43.543285 ] ] ] ] } },
{ "type": "Feature", "properties": { "codgeo": "31254", "value": 180, "isochrone_group": 3.0, "nb_agences": 2 }, "geometry": { "type": "MultiPolygon", "coordinates": [ [ [ [ 1.523789, 43.540286 ], [ 1.525488, 43.540367 ], [ 1.531707, 43.540219 ], [ 1.535577, 43.537168 ], [ 1.540376678275396, 43.53511530128862 ], [ 1.539304, 43.535362 ], [ 1.539072, 43.535376 ], [ 1.538877, 43.535384 ], [ 1.538676, 43.535367 ], [ 1.53603, 43.535332 ], [ 1.531776, 43.536101 ], [ 1.531425, 43.536181 ], [ 1.528573, 43.536508 ], [ 1.528305, 43.536267 ], [ 1.530473, 43.532326 ], [ 1.531131, 43.529796 ], [ 1.531424, 43.529588 ], [ 1.535113, 43.528734 ], [ 1.537181, 43.525942 ], [ 1.537319, 43.52579 ], [ 1.537456, 43.525638 ], [ 1.52992, 43.527922 ], [ 1.528773, 43.529518 ], [ 1.526093, 43.535504 ], [ 1.523457, 43.540146 ], [ 1.52345, 43.540166 ], [ 1.523789, 43.540286 ] ] ], [ [ [ 1.543661, 43.534404 ], [ 1.544301, 43.534302 ], [ 1.544652, 43.534229 ], [ 1.545021, 43.534152 ], [ 1.545457, 43.534015 ], [ 1.547856, 43.533191 ], [ 1.548266, 43.53297 ], [ 1.551655, 43.530742 ], [ 1.551695, 43.530504 ], [ 1.551678, 43.530474 ], [ 1.55153, 43.530404 ], [ 1.545245, 43.526363 ], [ 1.547003, 43.520837 ], [ 1.546952, 43.520481 ], [ 1.546512, 43.518135 ], [ 1.546267, 43.517871 ], [ 1.543326, 43.51839 ], [ 1.541943, 43.518681 ], [ 1.541856, 43.519031 ], [ 1.537456, 43.525638 ], [ 1.537632, 43.525552 ], [ 1.542464, 43.522448 ], [ 1.543632, 43.520731 ], [ 1.543818, 43.520498 ], [ 1.543937, 43.52054 ], [ 1.543975, 43.5206 ], [ 1.544033, 43.526242 ], [ 1.546046, 43.531333 ], [ 1.543026, 43.534506 ], [ 1.542900326314761, 43.534534902921706 ], [ 1.543661, 43.534404 ] ] ], [ [ [ 1.496755, 43.556508 ], [ 1.49687, 43.556206 ], [ 1.503837, 43.55056 ], [ 1.504189, 43.550484 ], [ 1.50763, 43.549957 ], [ 1.509856, 43.549385 ], [ 1.510149, 43.549283 ], [ 1.513629, 43.544887 ], [ 1.514498, 43.543228 ], [ 1.514819, 43.542576 ], [ 1.515702, 43.538679 ], [ 1.515538, 43.533008 ], [ 1.515339, 43.532708 ], [ 1.515052, 43.532899 ], [ 1.514765, 43.53309 ], [ 1.514482, 43.533306 ], [ 1.514208, 43.533515 ], [ 1.513766, 43.533905 ], [ 1.513334, 43.534287 ], [ 1.513038, 43.534573 ], [ 1.512747, 43.534855 ], [ 1.512163, 43.535449 ], [ 1.511582, 43.536041 ], [ 1.51138, 43.53625 ], [ 1.511178, 43.536459 ], [ 1.507638, 43.540166 ], [ 1.505841, 43.542055 ], [ 1.50429819494582, 43.543625756891217 ], [ 1.508005, 43.541 ], [ 1.510154, 43.538501 ], [ 1.510273, 43.538424 ], [ 1.510401, 43.538485 ], [ 1.512201, 43.53958 ], [ 1.512303, 43.539925 ], [ 1.512488, 43.54165 ], [ 1.511003, 43.543183 ], [ 1.507029, 43.546836 ], [ 1.507301, 43.548058 ], [ 1.507191, 43.548282 ], [ 1.507088, 43.548284 ], [ 1.50702, 43.548281 ], [ 1.502589, 43.546021 ], [ 1.502329, 43.545772 ], [ 1.502541569731516, 43.545481928946558 ], [ 1.499576, 43.548695 ], [ 1.498893, 43.54941 ], [ 1.498195, 43.550143 ], [ 1.498045, 43.550345 ], [ 1.497782, 43.550734 ], [ 1.497676, 43.550903 ], [ 1.497561, 43.551087 ], [ 1.497416, 43.551374 ], [ 1.497202, 43.551868 ], [ 1.496981, 43.55238 ], [ 1.496898, 43.552665 ], [ 1.496419, 43.55638 ], [ 1.496755, 43.556508 ] ] ] ] } },
{ "type": "Feature", "properties": { "codgeo": "31254", "value": 240, "isochrone_group": 4.0, "nb_agences": 2 }, "geometry": { "type": "MultiPolygon", "coordinates": [ [ [ [ 1.518329, 43.544815 ], [ 1.518501, 43.54472 ], [ 1.52189, 43.543065 ], [ 1.527127, 43.541505 ], [ 1.532316711272131, 43.542655848879512 ], [ 1.532641, 43.542264 ], [ 1.53274, 43.542222 ], [ 1.532914, 43.542229 ], [ 1.533402142056407, 43.542309778642021 ], [ 1.537394, 43.537852 ], [ 1.545021, 43.534152 ], [ 1.544652, 43.534229 ], [ 1.544301, 43.534302 ], [ 1.543661, 43.534404 ], [ 1.542708, 43.534568 ], [ 1.54238, 43.534633 ], [ 1.540513, 43.535057 ], [ 1.535577, 43.537168 ], [ 1.531707, 43.540219 ], [ 1.525488, 43.540367 ], [ 1.523789, 43.540286 ], [ 1.52345, 43.540166 ], [ 1.523457, 43.540146 ], [ 1.526093, 43.535504 ], [ 1.528773, 43.529518 ], [ 1.52992, 43.527922 ], [ 1.533926843498024, 43.526707611657443 ], [ 1.531938, 43.526531 ], [ 1.526689, 43.528866 ], [ 1.52275, 43.531767 ], [ 1.52247, 43.531994 ], [ 1.521563, 43.533799 ], [ 1.521517, 43.53939 ], [ 1.518126, 43.544518 ], [ 1.518228, 43.54473 ], [ 1.518329, 43.544815 ] ] ], [ [ [ 1.554112, 43.533679 ], [ 1.558904, 43.528667 ], [ 1.558768, 43.528334 ], [ 1.558329, 43.528512 ], [ 1.556887, 43.528936 ], [ 1.556677, 43.528966 ], [ 1.556042, 43.529034 ], [ 1.555401, 43.529102 ], [ 1.551007, 43.521269 ], [ 1.553058, 43.51955 ], [ 1.554161, 43.519136 ], [ 1.554195, 43.518778 ], [ 1.553666, 43.515511 ], [ 1.553534, 43.515175 ], [ 1.55175, 43.512731 ], [ 1.551496, 43.512477 ], [ 1.551426, 43.51249 ], [ 1.54744, 43.514262 ], [ 1.542821, 43.51636 ], [ 1.537691, 43.516211 ], [ 1.537522, 43.516529 ], [ 1.537812, 43.518922 ], [ 1.53783, 43.519014 ], [ 1.533973856259272, 43.526693363097642 ], [ 1.537456, 43.525638 ], [ 1.541856, 43.519031 ], [ 1.541943, 43.518681 ], [ 1.543326, 43.51839 ], [ 1.546267, 43.517871 ], [ 1.546512, 43.518135 ], [ 1.546952, 43.520481 ], [ 1.547003, 43.520837 ], [ 1.545245, 43.526363 ], [ 1.55153, 43.530404 ], [ 1.551678, 43.530474 ], [ 1.551695, 43.530504 ], [ 1.551655, 43.530742 ], [ 1.548266, 43.53297 ], [ 1.547856, 43.533191 ], [ 1.545457, 43.534015 ], [ 1.545021, 43.534152 ], [ 1.553853, 43.533928 ], [ 1.554112, 43.533679 ] ] ], [ [ [ 1.493974, 43.567976 ], [ 1.493947, 43.567636 ], [ 1.49393, 43.567394 ], [ 1.49628, 43.559134 ], [ 1.496618, 43.558678 ], [ 1.497083, 43.556344 ], [ 1.497242, 43.555964 ], [ 1.505518, 43.552664 ], [ 1.50657, 43.552562 ], [ 1.50942, 43.550773 ], [ 1.514354, 43.548411 ], [ 1.514564, 43.548153 ], [ 1.517996, 43.542261 ], [ 1.519341, 43.538056 ], [ 1.521395, 43.530461 ], [ 1.521735, 43.528692 ], [ 1.521733, 43.528681 ], [ 1.518684, 43.528265 ], [ 1.512747, 43.534855 ], [ 1.513038, 43.534573 ], [ 1.513334, 43.534287 ], [ 1.513766, 43.533905 ], [ 1.514208, 43.533515 ], [ 1.514482, 43.533306 ], [ 1.514765, 43.53309 ], [ 1.515052, 43.532899 ], [ 1.515339, 43.532708 ], [ 1.515538, 43.533008 ], [ 1.515702, 43.538679 ], [ 1.514819, 43.542576 ], [ 1.514498, 43.543228 ], [ 1.513629, 43.544887 ], [ 1.510149, 43.549283 ], [ 1.509856, 43.549385 ], [ 1.50763, 43.549957 ], [ 1.504189, 43.550484 ], [ 1.503837, 43.55056 ], [ 1.49687, 43.556206 ], [ 1.496755, 43.556508 ], [ 1.496419, 43.55638 ], [ 1.496898, 43.552665 ], [ 1.496981, 43.55238 ], [ 1.497202, 43.551868 ], [ 1.497416, 43.551374 ], [ 1.497561, 43.551087 ], [ 1.497676, 43.550903 ], [ 1.497782, 43.550734 ], [ 1.498045, 43.550345 ], [ 1.498195, 43.550143 ], [ 1.498893, 43.54941 ], [ 1.499576, 43.548695 ], [ 1.503578, 43.544359 ], [ 1.498566, 43.549453 ], [ 1.498359, 43.549694 ], [ 1.498152, 43.549934 ], [ 1.497943, 43.550246 ], [ 1.497747, 43.55054 ], [ 1.497559, 43.550867 ], [ 1.497378, 43.551184 ], [ 1.497221, 43.551524 ], [ 1.49115, 43.557682 ], [ 1.491089, 43.558037 ], [ 1.493533, 43.566285 ], [ 1.493544, 43.566726 ], [ 1.493555, 43.567175 ], [ 1.493571, 43.567418 ], [ 1.493588, 43.567664 ], [ 1.493615, 43.568004 ], [ 1.493641, 43.568345 ], [ 1.494, 43.568316 ], [ 1.493974, 43.567976 ] ] ], [ [ [ 1.505841, 43.542055 ], [ 1.507638, 43.540166 ], [ 1.503578, 43.544359 ], [ 1.505841, 43.542055 ] ] ] ] } },
{ "type": "Feature", "properties": { "codgeo": "31254", "value": 300, "isochrone_group": 5.0, "nb_agences": 2 }, "geometry": { "type": "Polygon", "coordinates": [ [ [ 1.545133053963656, 43.536870644008175 ], [ 1.545445, 43.536773 ], [ 1.551512, 43.53627 ], [ 1.551745, 43.536457 ], [ 1.552381, 43.537242 ], [ 1.552394, 43.53976 ], [ 1.55227490867541, 43.539865224242995 ], [ 1.552279, 43.539867 ], [ 1.552416, 43.539839 ], [ 1.555241, 43.539002 ], [ 1.556568, 43.535277 ], [ 1.560152, 43.529933 ], [ 1.563477, 43.528816 ], [ 1.564068, 43.528547 ], [ 1.565195, 43.527771 ], [ 1.566087, 43.526607 ], [ 1.566041, 43.525535 ], [ 1.566006, 43.525437 ], [ 1.56321, 43.516974 ], [ 1.562188, 43.510902 ], [ 1.557905, 43.506455 ], [ 1.556474, 43.506772 ], [ 1.555199, 43.507268 ], [ 1.548338, 43.510898 ], [ 1.54764, 43.512501 ], [ 1.539835, 43.516265 ], [ 1.535227, 43.513125 ], [ 1.53512, 43.513046 ], [ 1.53388, 43.512755 ], [ 1.532684, 43.51285 ], [ 1.532676, 43.512854 ], [ 1.531689, 43.513931 ], [ 1.52701, 43.518925 ], [ 1.52700972720794, 43.518925625652258 ], [ 1.525979, 43.519848 ], [ 1.523472, 43.522091 ], [ 1.516318227747856, 43.523288991531288 ], [ 1.515728, 43.52584 ], [ 1.515499, 43.526118 ], [ 1.512714196835612, 43.52557048954754 ], [ 1.51266, 43.525612 ], [ 1.511621, 43.53369 ], [ 1.510426, 43.534906 ], [ 1.510014, 43.535332 ], [ 1.509688, 43.535748 ], [ 1.509419, 43.536224 ], [ 1.503523, 43.542954 ], [ 1.502993, 43.543083 ], [ 1.502461, 43.543376 ], [ 1.502012, 43.543754 ], [ 1.500718, 43.545116 ], [ 1.498363, 43.547411 ], [ 1.497284, 43.548551 ], [ 1.496503, 43.549501 ], [ 1.495972, 43.550379 ], [ 1.495599, 43.551172 ], [ 1.489229872655908, 43.55503373315301 ], [ 1.490504, 43.555347 ], [ 1.490821, 43.555517 ], [ 1.490602, 43.555962 ], [ 1.490442, 43.556211 ], [ 1.489594, 43.557475 ], [ 1.489447, 43.557645 ], [ 1.488247, 43.557486 ], [ 1.487904, 43.557412 ], [ 1.487577, 43.557341 ], [ 1.487317, 43.557276 ], [ 1.487062, 43.557212 ], [ 1.486292, 43.556969 ], [ 1.48602809829667, 43.556885315380924 ], [ 1.485468, 43.558486 ], [ 1.487668, 43.560127 ], [ 1.491973, 43.56779 ], [ 1.492058, 43.568843 ], [ 1.492131, 43.569374 ], [ 1.4923, 43.570343 ], [ 1.492511, 43.571146 ], [ 1.492823, 43.572057 ], [ 1.493134, 43.572776 ], [ 1.493518, 43.573544 ], [ 1.496581, 43.579618 ], [ 1.500177, 43.579446 ], [ 1.50016, 43.579092 ], [ 1.500075, 43.578364 ], [ 1.499891, 43.577533 ], [ 1.499756, 43.577103 ], [ 1.499452, 43.576326 ], [ 1.499209, 43.57583 ], [ 1.499058, 43.575551 ], [ 1.498563, 43.574753 ], [ 1.497117, 43.571691 ], [ 1.497083, 43.571629 ], [ 1.496068, 43.564554 ], [ 1.499097, 43.56075 ], [ 1.504459, 43.55358 ], [ 1.505167, 43.553423 ], [ 1.505211, 43.553414 ], [ 1.511207, 43.552789 ], [ 1.514831391548772, 43.55267564770665 ], [ 1.514826, 43.552582 ], [ 1.5133, 43.551555 ], [ 1.51235973784331, 43.54936569136887 ], [ 1.50942, 43.550773 ], [ 1.50657, 43.552562 ], [ 1.505518, 43.552664 ], [ 1.497242, 43.555964 ], [ 1.497083, 43.556344 ], [ 1.496618, 43.558678 ], [ 1.49628, 43.559134 ], [ 1.49393, 43.567394 ], [ 1.493947, 43.567636 ], [ 1.493974, 43.567976 ], [ 1.494, 43.568316 ], [ 1.493641, 43.568345 ], [ 1.493615, 43.568004 ], [ 1.493588, 43.567664 ], [ 1.493571, 43.567418 ], [ 1.493555, 43.567175 ], [ 1.493544, 43.566726 ], [ 1.493533, 43.566285 ], [ 1.491089, 43.558037 ], [ 1.49115, 43.557682 ], [ 1.497221, 43.551524 ], [ 1.497378, 43.551184 ], [ 1.497559, 43.550867 ], [ 1.497747, 43.55054 ], [ 1.497943, 43.550246 ], [ 1.498152, 43.549934 ], [ 1.498359, 43.549694 ], [ 1.498566, 43.549453 ], [ 1.503578, 43.544359 ], [ 1.507638, 43.540166 ], [ 1.511178, 43.536459 ], [ 1.51138, 43.53625 ], [ 1.511582, 43.536041 ], [ 1.512163, 43.535449 ], [ 1.512747, 43.534855 ], [ 1.518684, 43.528265 ], [ 1.521733, 43.528681 ], [ 1.521735, 43.528692 ], [ 1.521395, 43.530461 ], [ 1.519341, 43.538056 ], [ 1.517996, 43.542261 ], [ 1.515074761303866, 43.547276133565745 ], [ 1.515298, 43.547354 ], [ 1.519612982598709, 43.547319745336573 ], [ 1.519931289589433, 43.546766756489426 ], [ 1.521232, 43.54566 ], [ 1.522832, 43.544717 ], [ 1.525877462262662, 43.545442742450803 ], [ 1.52749, 43.544366 ], [ 1.528258010996639, 43.54175580831474 ], [ 1.527127, 43.541505 ], [ 1.52189, 43.543065 ], [ 1.518501, 43.54472 ], [ 1.518329, 43.544815 ], [ 1.518228, 43.54473 ], [ 1.518126, 43.544518 ], [ 1.521517, 43.53939 ], [ 1.521563, 43.533799 ], [ 1.52247, 43.531994 ], [ 1.52275, 43.531767 ], [ 1.526689, 43.528866 ], [ 1.531938, 43.526531 ], [ 1.533965, 43.526711 ], [ 1.53783, 43.519014 ], [ 1.537812, 43.518922 ], [ 1.537522, 43.516529 ], [ 1.537691, 43.516211 ], [ 1.542821, 43.51636 ], [ 1.54744, 43.514262 ], [ 1.551426, 43.51249 ], [ 1.551496, 43.512477 ], [ 1.55175, 43.512731 ], [ 1.553534, 43.515175 ], [ 1.553666, 43.515511 ], [ 1.554195, 43.518778 ], [ 1.554161, 43.519136 ], [ 1.553058, 43.51955 ], [ 1.551007, 43.521269 ], [ 1.555401, 43.529102 ], [ 1.556042, 43.529034 ], [ 1.556677, 43.528966 ], [ 1.556887, 43.528936 ], [ 1.558329, 43.528512 ], [ 1.558768, 43.528334 ], [ 1.558904, 43.528667 ], [ 1.554112, 43.533679 ], [ 1.553853, 43.533928 ], [ 1.545021, 43.534152 ], [ 1.537394, 43.537852 ], [ 1.536723234382528, 43.538601055874636 ], [ 1.540080896545237, 43.538160071645585 ], [ 1.543285, 43.536105 ], [ 1.545133053963656, 43.536870644008175 ] ] ] } },
{ "type": "Feature", "properties": { "codgeo": "31254", "value": 360, "isochrone_group": 6.0, "nb_agences": 2 }, "geometry": { "type": "MultiPolygon", "coordinates": [ [ [ [ 1.481526614223532, 43.562963147744682 ], [ 1.486811, 43.56298 ], [ 1.487841839831313, 43.560436438937828 ], [ 1.487668, 43.560127 ], [ 1.485794824238609, 43.558729781170705 ], [ 1.48197, 43.558211 ], [ 1.480010121198784, 43.55773181032859 ], [ 1.481526614223532, 43.562963147744682 ] ] ], [ [ [ 1.495746, 43.58246 ], [ 1.495506245809242, 43.583000637761288 ], [ 1.498643, 43.584381 ], [ 1.49835205223164, 43.585042218894834 ], [ 1.498590680233348, 43.586042272370328 ], [ 1.500742, 43.582512 ], [ 1.500979, 43.581941 ], [ 1.501178, 43.580904 ], [ 1.501197, 43.580086 ], [ 1.501186, 43.579692 ], [ 1.501186, 43.57195 ], [ 1.501774, 43.569397 ], [ 1.502548, 43.56535 ], [ 1.503395, 43.561065 ], [ 1.508953, 43.556001 ], [ 1.509685858847283, 43.555499041885405 ], [ 1.509306, 43.554918 ], [ 1.50679, 43.554689 ], [ 1.506453, 43.554216 ], [ 1.506298, 43.553536 ], [ 1.506243959590929, 43.553306328261449 ], [ 1.505211, 43.553414 ], [ 1.505167, 43.553423 ], [ 1.504459, 43.55358 ], [ 1.499097, 43.56075 ], [ 1.496068, 43.564554 ], [ 1.497083, 43.571629 ], [ 1.497117, 43.571691 ], [ 1.498563, 43.574753 ], [ 1.499058, 43.575551 ], [ 1.499209, 43.57583 ], [ 1.499452, 43.576326 ], [ 1.499756, 43.577103 ], [ 1.499891, 43.577533 ], [ 1.500075, 43.578364 ], [ 1.50016, 43.579092 ], [ 1.500177, 43.579446 ], [ 1.496581, 43.579618 ], [ 1.495078357074312, 43.576638224247262 ], [ 1.494027004150098, 43.578787364849852 ], [ 1.495746, 43.58246 ] ] ], [ [ [ 1.492131, 43.569374 ], [ 1.492058, 43.568843 ], [ 1.491973, 43.56779 ], [ 1.490235047620387, 43.564696404393729 ], [ 1.490355, 43.56746 ], [ 1.491839, 43.569063 ], [ 1.491808730807686, 43.569448283576463 ], [ 1.492159628020709, 43.5695381452785 ], [ 1.492131, 43.569374 ] ] ], [ [ [ 1.500718, 43.545116 ], [ 1.502012, 43.543754 ], [ 1.502461, 43.543376 ], [ 1.498038387237725, 43.545808667603858 ], [ 1.499342348067765, 43.546456603475363 ], [ 1.500718, 43.545116 ] ] ], [ [ [ 1.49573, 43.547949 ], [ 1.496673, 43.546607 ], [ 1.496694335704741, 43.546559251103105 ], [ 1.49573, 43.547949 ] ] ], [ [ [ 1.559438, 43.539525 ], [ 1.562971, 43.536888 ], [ 1.567371, 43.530529 ], [ 1.567881, 43.527977 ], [ 1.568112, 43.524881 ], [ 1.565922, 43.517565 ], [ 1.569236, 43.511221 ], [ 1.569359, 43.510812 ], [ 1.568931, 43.509309 ], [ 1.568099, 43.506484 ], [ 1.568033, 43.506362 ], [ 1.56679, 43.505423 ], [ 1.56047, 43.501532 ], [ 1.557409, 43.499638 ], [ 1.557133, 43.500084 ], [ 1.554389, 43.503679 ], [ 1.552279105563615, 43.508812850139059 ], [ 1.555199, 43.507268 ], [ 1.556474, 43.506772 ], [ 1.557905, 43.506455 ], [ 1.562188, 43.510902 ], [ 1.56321, 43.516974 ], [ 1.566006, 43.525437 ], [ 1.566041, 43.525535 ], [ 1.566087, 43.526607 ], [ 1.565195, 43.527771 ], [ 1.564068, 43.528547 ], [ 1.563477, 43.528816 ], [ 1.560152, 43.529933 ], [ 1.557307842826912, 43.534173841499161 ], [ 1.557818, 43.534577 ], [ 1.55879, 43.538043 ], [ 1.558607, 43.538095 ], [ 1.553652771596276, 43.539472565371291 ], [ 1.552416, 43.539839 ], [ 1.552279, 43.539867 ], [ 1.552261522190562, 43.539859414108982 ], [ 1.551087, 43.540186 ], [ 1.551002116334468, 43.540235371111592 ], [ 1.551002385236451, 43.54023586678705 ], [ 1.551044, 43.540214 ], [ 1.559438, 43.539525 ] ] ], [ [ [ 1.540414063128614, 43.53794638279053 ], [ 1.54226738796418, 43.53852470009091 ], [ 1.54380897881961, 43.538104672437548 ], [ 1.54506633666518, 43.536843003202868 ], [ 1.543285, 43.536105 ], [ 1.540414063128614, 43.53794638279053 ] ] ], [ [ [ 1.535198751155148, 43.511019639130872 ], [ 1.535497, 43.51111 ], [ 1.537411, 43.514159 ], [ 1.537290855853226, 43.514531360108315 ], [ 1.539835, 43.516265 ], [ 1.542541549877967, 43.514959752883961 ], [ 1.537665, 43.514 ], [ 1.535751, 43.510951 ], [ 1.535198751155148, 43.511019639130872 ] ] ], [ [ [ 1.528367063342707, 43.517476576333948 ], [ 1.527610005360002, 43.51733683483819 ], [ 1.527847784082067, 43.518030814553128 ], [ 1.528367063342707, 43.517476576333948 ] ] ], [ [ [ 1.527009855901386, 43.518925330492095 ], [ 1.525979, 43.519848 ], [ 1.52700972720794, 43.518925625652258 ], [ 1.527009855901386, 43.518925330492095 ] ] ], [ [ [ 1.523472, 43.522091 ], [ 1.522114864590124, 43.521723169171047 ], [ 1.521974808999668, 43.522341723964352 ], [ 1.523472, 43.522091 ] ] ], [ [ [ 1.510014, 43.535332 ], [ 1.510426, 43.534906 ], [ 1.511621, 43.53369 ], [ 1.512348868887715, 43.528030977021196 ], [ 1.512110392856212, 43.527919161233491 ], [ 1.511883367107718, 43.530441440825278 ], [ 1.510014, 43.535332 ] ] ], [ [ [ 1.509933308161693, 43.535434968726186 ], [ 1.509857, 43.535517 ], [ 1.509783963339042, 43.53562554371458 ], [ 1.509933308161693, 43.535434968726186 ] ] ], [ [ [ 1.509688, 43.535748 ], [ 1.509616854478655, 43.5358738931902 ], [ 1.509616854478648, 43.5358738931902 ], [ 1.509688, 43.535748 ] ] ], [ [ [ 1.509616854478648, 43.5358738931902 ], [ 1.509532, 43.536 ], [ 1.509497521327154, 43.536085055198036 ], [ 1.509616854478648, 43.5358738931902 ] ] ] ] } },
{ "type": "Feature", "properties": { "codgeo": "31254", "value": 420, "isochrone_group": 7.0, "nb_agences": 2 }, "geometry": { "type": "MultiPolygon", "coordinates": [ [ [ [ 1.548872, 43.541392 ], [ 1.548380971811663, 43.542245380226703 ], [ 1.550726935546902, 43.541171863677015 ], [ 1.548872, 43.541392 ] ] ], [ [ [ 1.566849, 43.54324 ], [ 1.567492, 43.542944 ], [ 1.567773, 43.542744 ], [ 1.568057, 43.541141 ], [ 1.569842, 43.536339 ], [ 1.573808, 43.533921 ], [ 1.572842, 43.530453 ], [ 1.571376, 43.523083 ], [ 1.571045, 43.522718 ], [ 1.571008, 43.514237 ], [ 1.574041, 43.512203 ], [ 1.576478, 43.511605 ], [ 1.577638, 43.511288 ], [ 1.576487, 43.504755 ], [ 1.574395, 43.501826 ], [ 1.573856, 43.502125 ], [ 1.568779, 43.502735 ], [ 1.566791, 43.501861 ], [ 1.564671, 43.494476 ], [ 1.563182, 43.493366 ], [ 1.56156, 43.492664 ], [ 1.56092, 43.492821 ], [ 1.558621, 43.493719 ], [ 1.556754, 43.496798 ], [ 1.549396, 43.499166 ], [ 1.54856, 43.502667 ], [ 1.548338, 43.510898 ], [ 1.551903, 43.509728 ], [ 1.554389, 43.503679 ], [ 1.557133, 43.500084 ], [ 1.557409, 43.499638 ], [ 1.56047, 43.501532 ], [ 1.56679, 43.505423 ], [ 1.568033, 43.506362 ], [ 1.568099, 43.506484 ], [ 1.568931, 43.509309 ], [ 1.569359, 43.510812 ], [ 1.569236, 43.511221 ], [ 1.565922, 43.517565 ], [ 1.568112, 43.524881 ], [ 1.567881, 43.527977 ], [ 1.567371, 43.530529 ], [ 1.566163074277203, 43.532274727198008 ], [ 1.567641, 43.531867 ], [ 1.568598, 43.535338 ], [ 1.563626, 43.54196 ], [ 1.563031, 43.541636 ], [ 1.560197, 43.54 ], [ 1.562893, 43.543267 ], [ 1.566849, 43.54324 ] ] ], [ [ [ 1.554433869050199, 43.539935751277618 ], [ 1.554276881239884, 43.540022096337609 ], [ 1.560197, 43.54 ], [ 1.55965, 43.539673 ], [ 1.559445169957302, 43.539519648407179 ], [ 1.559438, 43.539525 ], [ 1.554433869050199, 43.539935751277618 ] ] ], [ [ [ 1.53820613615085, 43.508751146713806 ], [ 1.540655, 43.51139 ], [ 1.540789488017601, 43.514614929911687 ], [ 1.545815, 43.515604 ], [ 1.54764, 43.512501 ], [ 1.548338, 43.510898 ], [ 1.540931, 43.511134 ], [ 1.538482, 43.508495 ], [ 1.53820613615085, 43.508751146713806 ] ] ], [ [ [ 1.507189, 43.535948 ], [ 1.50439407622019, 43.538868312483636 ], [ 1.504398, 43.538865 ], [ 1.507447, 43.535679 ], [ 1.50877942202502, 43.536954047451076 ], [ 1.509419, 43.536224 ], [ 1.509497521327149, 43.53608505519805 ], [ 1.509532, 43.536 ], [ 1.509616854478655, 43.5358738931902 ], [ 1.509688, 43.535748 ], [ 1.509783963339032, 43.535625543714609 ], [ 1.509857, 43.535517 ], [ 1.509933308161701, 43.535434968726172 ], [ 1.510014, 43.535332 ], [ 1.511810917511645, 43.53063098039474 ], [ 1.509762975419621, 43.528384304761786 ], [ 1.510386, 43.530701 ], [ 1.507189, 43.535948 ] ] ], [ [ [ 1.501007, 43.5417 ], [ 1.501006421299409, 43.541700496397333 ], [ 1.501118, 43.541634 ], [ 1.502718609245142, 43.540282753963474 ], [ 1.501007, 43.5417 ] ] ], [ [ [ 1.480324796056094, 43.562205903183234 ], [ 1.481108, 43.562087 ], [ 1.481145141748526, 43.561647209458677 ], [ 1.480094593070796, 43.558023206897808 ], [ 1.478285754495731, 43.558974214672482 ], [ 1.480324796056094, 43.562205903183234 ] ] ], [ [ [ 1.493471129877465, 43.585603072282318 ], [ 1.494631, 43.58456 ], [ 1.494599235342179, 43.581775510095348 ], [ 1.492580704903412, 43.583705849005149 ], [ 1.493471129877465, 43.585603072282318 ] ] ], [ [ [ 1.505459, 43.569981 ], [ 1.503501, 43.567662 ], [ 1.503513, 43.56756 ], [ 1.503835, 43.566768 ], [ 1.503816454651836, 43.560681004613727 ], [ 1.503395, 43.561065 ], [ 1.502548, 43.56535 ], [ 1.501774, 43.569397 ], [ 1.501186, 43.57195 ], [ 1.501186, 43.579692 ], [ 1.501197, 43.580086 ], [ 1.501178, 43.580904 ], [ 1.500979, 43.581941 ], [ 1.500742, 43.582512 ], [ 1.50473, 43.576287 ], [ 1.507240814080535, 43.570494260398469 ], [ 1.505459, 43.569981 ] ] ], [ [ [ 1.536915, 43.50995 ], [ 1.535747658113993, 43.510951415363735 ], [ 1.535751, 43.510951 ], [ 1.535751811305719, 43.510952292409165 ], [ 1.536065, 43.510726 ], [ 1.536341, 43.510507 ], [ 1.536915, 43.50995 ] ] ], [ [ [ 1.528354330114574, 43.522715475108825 ], [ 1.529303, 43.522278 ], [ 1.529152634415391, 43.521839143803604 ], [ 1.52838, 43.522531 ], [ 1.528354330114574, 43.522715475108825 ] ] ] ] } },
{ "type": "Feature", "properties": { "codgeo": "31254", "value": 480, "isochrone_group": 8.0, "nb_agences": 2 }, "geometry": { "type": "MultiPolygon", "coordinates": [ [ [ [ 1.506104, 43.578667 ], [ 1.508408, 43.578571 ], [ 1.508529, 43.578564 ], [ 1.508937, 43.578512 ], [ 1.509373, 43.578416 ], [ 1.510084, 43.57574 ], [ 1.510166915893036, 43.575137275395349 ], [ 1.505056755435685, 43.575533137271968 ], [ 1.50473, 43.576287 ], [ 1.501557412953368, 43.581239195176849 ], [ 1.504862, 43.578815 ], [ 1.505266, 43.578811 ], [ 1.505603, 43.57877 ], [ 1.506104, 43.578667 ] ] ], [ [ [ 1.570219, 43.541715 ], [ 1.571365679951092, 43.537559626075797 ], [ 1.569192, 43.539395 ], [ 1.56899, 43.542089 ], [ 1.567781, 43.54495 ], [ 1.566442714524472, 43.547327267025061 ], [ 1.567476, 43.547814 ], [ 1.568653, 43.547231 ], [ 1.570219, 43.541715 ] ] ], [ [ [ 1.579628, 43.523368 ], [ 1.579536, 43.523195 ], [ 1.579319, 43.522871 ], [ 1.578181, 43.521996 ], [ 1.574004, 43.515309 ], [ 1.581393, 43.511847 ], [ 1.584417, 43.509893 ], [ 1.586906, 43.5089 ], [ 1.587189, 43.506881 ], [ 1.586233, 43.505363 ], [ 1.581958, 43.499949 ], [ 1.581534, 43.499407 ], [ 1.580537, 43.499204 ], [ 1.576908, 43.498291 ], [ 1.573575, 43.496765 ], [ 1.570482, 43.490247 ], [ 1.570468, 43.489624 ], [ 1.570341, 43.489328 ], [ 1.569875, 43.488469 ], [ 1.561583, 43.487321 ], [ 1.559701, 43.487746 ], [ 1.559048, 43.487921 ], [ 1.558619, 43.488087 ], [ 1.558101, 43.488385 ], [ 1.557579, 43.488864 ], [ 1.557305, 43.489315 ], [ 1.554284, 43.493117 ], [ 1.55372, 43.493896 ], [ 1.553444, 43.494458 ], [ 1.553021, 43.49525 ], [ 1.552782, 43.495698 ], [ 1.548973, 43.499065 ], [ 1.543595, 43.497333 ], [ 1.542705, 43.496871 ], [ 1.541046, 43.500066 ], [ 1.541936, 43.500528 ], [ 1.548136, 43.502566 ], [ 1.548338, 43.510898 ], [ 1.54856, 43.502667 ], [ 1.549396, 43.499166 ], [ 1.556754, 43.496798 ], [ 1.558621, 43.493719 ], [ 1.56092, 43.492821 ], [ 1.56156, 43.492664 ], [ 1.563182, 43.493366 ], [ 1.564671, 43.494476 ], [ 1.566791, 43.501861 ], [ 1.568779, 43.502735 ], [ 1.573856, 43.502125 ], [ 1.574395, 43.501826 ], [ 1.576487, 43.504755 ], [ 1.577638, 43.511288 ], [ 1.576478, 43.511605 ], [ 1.574041, 43.512203 ], [ 1.571008, 43.514237 ], [ 1.571045, 43.522718 ], [ 1.571376, 43.523083 ], [ 1.572585556710495, 43.529163786464068 ], [ 1.574765, 43.529961 ], [ 1.576227, 43.529516 ], [ 1.577642, 43.528927 ], [ 1.579108, 43.532215 ], [ 1.576777437741247, 43.533524325888962 ], [ 1.578931, 43.533384 ], [ 1.583285, 43.529304 ], [ 1.579628, 43.523368 ] ] ], [ [ [ 1.538399, 43.508572 ], [ 1.536915, 43.50995 ], [ 1.538399033726469, 43.508572036329291 ], [ 1.538399, 43.508572 ] ] ], [ [ [ 1.53093273281801, 43.511491616605078 ], [ 1.531654124479352, 43.511413902280921 ], [ 1.529055, 43.507881 ], [ 1.52834783479097, 43.507367558730827 ], [ 1.528295, 43.508928 ], [ 1.53093273281801, 43.511491616605078 ] ] ], [ [ [ 1.509930663642978, 43.531448309935961 ], [ 1.507307, 43.52569 ], [ 1.506896715972453, 43.525681430907341 ], [ 1.509287836444005, 43.53250333474454 ], [ 1.509930663642978, 43.531448309935961 ] ] ] ] } },
{ "type": "Feature", "properties": { "codgeo": "31254", "value": 540, "isochrone_group": 9.0, "nb_agences": 2 }, "geometry": { "type": "MultiPolygon", "coordinates": [ [ [ [ 1.512535, 43.579704 ], [ 1.513953, 43.578101 ], [ 1.514563108840663, 43.577184338226061 ], [ 1.513757, 43.577657 ], [ 1.513074, 43.577785 ], [ 1.512521, 43.577782 ], [ 1.511015311986121, 43.577505175653044 ], [ 1.509423858242455, 43.578224584167629 ], [ 1.509373, 43.578416 ], [ 1.508937, 43.578512 ], [ 1.508729559079134, 43.578538438548748 ], [ 1.508089, 43.578828 ], [ 1.50727, 43.578638 ], [ 1.507231509035121, 43.578620020456867 ], [ 1.506104, 43.578667 ], [ 1.505603, 43.57877 ], [ 1.505266, 43.578811 ], [ 1.504862, 43.578815 ], [ 1.502803417922221, 43.580325144739298 ], [ 1.501898139454552, 43.581285509427197 ], [ 1.504789, 43.585918 ], [ 1.505023232045244, 43.586166416413498 ], [ 1.510589, 43.581098 ], [ 1.511533, 43.580883 ], [ 1.512535, 43.579704 ] ] ], [ [ [ 1.572649, 43.544194 ], [ 1.572685, 43.538502 ], [ 1.577329933654157, 43.533488325313719 ], [ 1.574772, 43.533655 ], [ 1.571503, 43.540471 ], [ 1.571099, 43.54622 ], [ 1.568612, 43.548828 ], [ 1.568391369025226, 43.55004987535078 ], [ 1.568482, 43.549975 ], [ 1.572943, 43.545419 ], [ 1.572649, 43.544194 ] ] ], [ [ [ 1.5898, 43.52167 ], [ 1.589604, 43.52145 ], [ 1.589296, 43.521172 ], [ 1.587186, 43.513781 ], [ 1.59394, 43.508239 ], [ 1.595109, 43.507667 ], [ 1.595753, 43.507336 ], [ 1.594187, 43.504094 ], [ 1.587354, 43.498617 ], [ 1.586544, 43.497933 ], [ 1.584982, 43.497859 ], [ 1.584095, 43.498206 ], [ 1.576613, 43.493466 ], [ 1.57379, 43.488029 ], [ 1.57313, 43.483396 ], [ 1.571984, 43.481346 ], [ 1.571325, 43.481066 ], [ 1.570016, 43.481591 ], [ 1.56177, 43.483855 ], [ 1.560766, 43.485129 ], [ 1.560582, 43.485371 ], [ 1.557579, 43.488864 ], [ 1.558101, 43.488385 ], [ 1.558619, 43.488087 ], [ 1.559048, 43.487921 ], [ 1.559701, 43.487746 ], [ 1.561583, 43.487321 ], [ 1.569875, 43.488469 ], [ 1.570341, 43.489328 ], [ 1.570468, 43.489624 ], [ 1.570482, 43.490247 ], [ 1.573575, 43.496765 ], [ 1.576908, 43.498291 ], [ 1.580537, 43.499204 ], [ 1.581534, 43.499407 ], [ 1.581958, 43.499949 ], [ 1.586233, 43.505363 ], [ 1.587189, 43.506881 ], [ 1.586906, 43.5089 ], [ 1.584417, 43.509893 ], [ 1.581393, 43.511847 ], [ 1.574004, 43.515309 ], [ 1.578181, 43.521996 ], [ 1.579319, 43.522871 ], [ 1.579536, 43.523195 ], [ 1.579628, 43.523368 ], [ 1.580729562458299, 43.525156043410583 ], [ 1.584997, 43.522996 ], [ 1.587442, 43.525638 ], [ 1.58521, 43.528561 ], [ 1.581728836793316, 43.530762232862493 ], [ 1.581633987076733, 43.530851113625843 ], [ 1.585993, 43.52844 ], [ 1.586798, 43.52802 ], [ 1.588884, 43.525093 ], [ 1.589501, 43.523851 ], [ 1.5898, 43.52167 ] ] ], [ [ [ 1.534899, 43.497614 ], [ 1.534938, 43.497633 ], [ 1.535795, 43.498123 ], [ 1.535991, 43.49821 ], [ 1.540698, 43.499874 ], [ 1.541049325638699, 43.500059595288931 ], [ 1.542705, 43.496871 ], [ 1.543595, 43.497333 ], [ 1.548973, 43.499065 ], [ 1.551356996653812, 43.496957644596115 ], [ 1.543517, 43.495213 ], [ 1.54066, 43.493022 ], [ 1.534528, 43.494795 ], [ 1.534251, 43.495078 ], [ 1.534899, 43.497614 ] ] ], [ [ [ 1.543220406996994, 43.514632370667954 ], [ 1.54764, 43.512501 ], [ 1.543220406996993, 43.514632370667954 ], [ 1.543220406996994, 43.514632370667954 ] ] ], [ [ [ 1.529055, 43.507881 ], [ 1.529112263614612, 43.507958836500826 ], [ 1.529360324674124, 43.507621238609183 ], [ 1.52936, 43.507621 ], [ 1.528356993139435, 43.50709707285138 ], [ 1.528426, 43.505059 ], [ 1.52834783479097, 43.507367558730827 ], [ 1.529055, 43.507881 ] ] ], [ [ [ 1.533157068404701, 43.511251992630868 ], [ 1.532261, 43.509753 ], [ 1.532260864712784, 43.509752900574874 ], [ 1.531347209399687, 43.510996722960115 ], [ 1.531654124479352, 43.511413902280921 ], [ 1.533157068404701, 43.511251992630868 ] ] ] ] } },
{ "type": "Feature", "properties": { "codgeo": "31254", "value": 600, "isochrone_group": 10.0, "nb_agences": 2 }, "geometry": { "type": "MultiPolygon", "coordinates": [ [ [ [ 1.516412, 43.57978 ], [ 1.518071, 43.574658 ], [ 1.519537631629303, 43.572992885209182 ], [ 1.519406, 43.573036 ], [ 1.517626192769007, 43.574017861715745 ], [ 1.513312, 43.580011 ], [ 1.511746, 43.582874 ], [ 1.511679, 43.582892 ], [ 1.510071, 43.582504 ], [ 1.509965, 43.582373 ], [ 1.509531022512477, 43.582061437661508 ], [ 1.504603829058472, 43.586548341962555 ], [ 1.508488, 43.589841 ], [ 1.513586054404227, 43.586359320374108 ], [ 1.514242, 43.584743 ], [ 1.516391, 43.579881 ], [ 1.516412, 43.57978 ] ] ], [ [ [ 1.57251, 43.548667 ], [ 1.57238061982229, 43.5497688768451 ], [ 1.57381, 43.547874 ], [ 1.574000385891871, 43.545329795550245 ], [ 1.57251, 43.548667 ] ] ], [ [ [ 1.574182149714046, 43.542900811340104 ], [ 1.574209, 43.542542 ], [ 1.574144117926377, 43.542374928660422 ], [ 1.574182149714046, 43.542900811340104 ] ] ], [ [ [ 1.573964794853612, 43.53989534766211 ], [ 1.574344124772857, 43.536962821048128 ], [ 1.573798, 43.537589 ], [ 1.573964794853612, 43.53989534766211 ] ] ], [ [ [ 1.593756, 43.520183 ], [ 1.591398, 43.517463 ], [ 1.588968, 43.514536 ], [ 1.593436822850717, 43.508651882404699 ], [ 1.587186, 43.513781 ], [ 1.588916579241903, 43.519842948425072 ], [ 1.590404, 43.520173 ], [ 1.59073, 43.520622 ], [ 1.591577, 43.523653 ], [ 1.591168, 43.525696 ], [ 1.587396, 43.527726 ], [ 1.585993, 43.52844 ], [ 1.590378, 43.527658 ], [ 1.592935, 43.524698 ], [ 1.5933, 43.524112 ], [ 1.593389, 43.523896 ], [ 1.593756, 43.520183 ] ] ], [ [ [ 1.603133, 43.502686 ], [ 1.599066, 43.501267 ], [ 1.592454, 43.497042 ], [ 1.587676, 43.495361 ], [ 1.586317, 43.494534 ], [ 1.581602, 43.488186 ], [ 1.581347, 43.486748 ], [ 1.581189, 43.484609 ], [ 1.581125, 43.47704 ], [ 1.578843, 43.474255 ], [ 1.575577, 43.474268 ], [ 1.575421, 43.474364 ], [ 1.572349, 43.477568 ], [ 1.569569, 43.480277 ], [ 1.566582, 43.481685 ], [ 1.559731, 43.479193 ], [ 1.559539, 43.478997 ], [ 1.557084, 43.481377 ], [ 1.556732, 43.481826 ], [ 1.556455, 43.482614 ], [ 1.556736, 43.483913 ], [ 1.557305, 43.489315 ], [ 1.557579, 43.488864 ], [ 1.560582, 43.485371 ], [ 1.560766, 43.485129 ], [ 1.56177, 43.483855 ], [ 1.570016, 43.481591 ], [ 1.571325, 43.481066 ], [ 1.571984, 43.481346 ], [ 1.57313, 43.483396 ], [ 1.57379, 43.488029 ], [ 1.576613, 43.493466 ], [ 1.584095, 43.498206 ], [ 1.584982, 43.497859 ], [ 1.586544, 43.497933 ], [ 1.587354, 43.498617 ], [ 1.594187, 43.504094 ], [ 1.595753, 43.507336 ], [ 1.595109, 43.507667 ], [ 1.597331, 43.506785 ], [ 1.601981, 43.506307 ], [ 1.60439, 43.503631 ], [ 1.603751, 43.503056 ], [ 1.603133, 43.502686 ] ] ], [ [ [ 1.545662, 43.491708 ], [ 1.543942, 43.493925 ], [ 1.543172003745847, 43.494948426393833 ], [ 1.543517, 43.495213 ], [ 1.552145, 43.497133 ], [ 1.553021, 43.49525 ], [ 1.553444, 43.494458 ], [ 1.55372, 43.493896 ], [ 1.554284, 43.493117 ], [ 1.554770475905374, 43.492504758559313 ], [ 1.546156, 43.491786 ], [ 1.544842, 43.490302 ], [ 1.543314, 43.489577 ], [ 1.543007228921182, 43.489647845368864 ], [ 1.545662, 43.491708 ] ] ], [ [ [ 1.537869, 43.49343 ], [ 1.53804678043532, 43.493777583543405 ], [ 1.539965486636508, 43.493222810859997 ], [ 1.541098, 43.491718 ], [ 1.542637902596919, 43.489733137175953 ], [ 1.538168950451259, 43.490765191972024 ], [ 1.537869, 43.49343 ] ] ], [ [ [ 1.52936, 43.507621 ], [ 1.529360324674124, 43.507621238609183 ], [ 1.529445, 43.507506 ], [ 1.531746, 43.504374 ], [ 1.532742816199784, 43.503018208722189 ], [ 1.534178, 43.501065 ], [ 1.535926213935859, 43.498686040520731 ], [ 1.535223, 43.498763 ], [ 1.52977, 43.500054 ], [ 1.528426, 43.505059 ], [ 1.528356993139435, 43.50709707285138 ], [ 1.52936, 43.507621 ] ] ], [ [ [ 1.535355456187807, 43.514929576919506 ], [ 1.539835, 43.516265 ], [ 1.547227, 43.512258 ], [ 1.548027842499075, 43.511610295807991 ], [ 1.548338, 43.510898 ], [ 1.548136, 43.502566 ], [ 1.541936, 43.500528 ], [ 1.540698, 43.499874 ], [ 1.539763625658612, 43.499543683683015 ], [ 1.539446, 43.499976 ], [ 1.537079, 43.503197 ], [ 1.534713, 43.506417 ], [ 1.532346, 43.509637 ], [ 1.532260864712784, 43.509752900574874 ], [ 1.532261, 43.509753 ], [ 1.535355456187807, 43.514929576919506 ] ] ] ] } },
{ "type": "Feature", "properties": { "codgeo": "31254", "value": 660, "isochrone_group": 11.0, "nb_agences": 2 }, "geometry": { "type": "MultiPolygon", "coordinates": [ [ [ [ 1.526354, 43.570568 ], [ 1.532493737389228, 43.570334835095828 ], [ 1.530821, 43.569645 ], [ 1.52818, 43.569328 ], [ 1.528109, 43.569323 ], [ 1.52473, 43.569666 ], [ 1.520557, 43.572659 ], [ 1.51664, 43.579668 ], [ 1.515981731287824, 43.58244436718244 ], [ 1.51734850970377, 43.582851887582628 ], [ 1.517255, 43.582139 ], [ 1.517239, 43.580132 ], [ 1.522317, 43.573221 ], [ 1.526354, 43.570568 ] ] ], [ [ [ 1.57413675040783, 43.543507500815657 ], [ 1.574146, 43.543526 ], [ 1.575843168560665, 43.545974722401041 ], [ 1.574677, 43.543283 ], [ 1.574208937208509, 43.542542839108357 ], [ 1.57413675040783, 43.543507500815657 ] ] ], [ [ [ 1.594877, 43.527833 ], [ 1.594877726587784, 43.52724228413193 ], [ 1.590387, 43.529425 ], [ 1.589254, 43.52945 ], [ 1.581269, 43.531053 ], [ 1.589781, 43.530754 ], [ 1.594267, 43.531123 ], [ 1.594422, 43.530866 ], [ 1.59469, 43.529802 ], [ 1.594877, 43.527833 ] ] ], [ [ [ 1.607304, 43.509006 ], [ 1.611168, 43.507026 ], [ 1.611467, 43.506873 ], [ 1.611991, 43.504663 ], [ 1.611902, 43.504512 ], [ 1.608818, 43.502094 ], [ 1.60844, 43.502151 ], [ 1.603133, 43.502686 ], [ 1.603751, 43.503056 ], [ 1.60439, 43.503631 ], [ 1.601981, 43.506307 ], [ 1.597331, 43.506785 ], [ 1.595109, 43.507667 ], [ 1.594512, 43.507936 ], [ 1.593859, 43.508096 ], [ 1.588968, 43.514536 ], [ 1.590782497216171, 43.516721610432811 ], [ 1.595994, 43.513367 ], [ 1.596282, 43.513189 ], [ 1.598427, 43.51608 ], [ 1.598186, 43.516258 ], [ 1.596592, 43.517686 ], [ 1.594174, 43.522915 ], [ 1.594878, 43.52702 ], [ 1.595836, 43.520949 ], [ 1.600975, 43.514047 ], [ 1.607304, 43.509006 ] ] ], [ [ [ 1.591433, 43.48375 ], [ 1.587395, 43.478401 ], [ 1.588184, 43.471206 ], [ 1.590912, 43.467892 ], [ 1.588845, 43.464945 ], [ 1.587366, 43.465982 ], [ 1.586857, 43.466372 ], [ 1.584816, 43.467881 ], [ 1.584501, 43.468073 ], [ 1.578943, 43.472421 ], [ 1.574352, 43.468983 ], [ 1.570928, 43.470094 ], [ 1.567597, 43.478405 ], [ 1.558883, 43.478533 ], [ 1.55838, 43.478291 ], [ 1.557041421290521, 43.477527616045265 ], [ 1.557944, 43.478482 ], [ 1.555835, 43.480476 ], [ 1.554510895927551, 43.481777534116674 ], [ 1.556736, 43.483913 ], [ 1.556455, 43.482614 ], [ 1.556732, 43.481826 ], [ 1.557084, 43.481377 ], [ 1.559539, 43.478997 ], [ 1.559731, 43.479193 ], [ 1.566582, 43.481685 ], [ 1.569569, 43.480277 ], [ 1.572349, 43.477568 ], [ 1.575421, 43.474364 ], [ 1.575577, 43.474268 ], [ 1.578843, 43.474255 ], [ 1.581125, 43.47704 ], [ 1.581189, 43.484609 ], [ 1.581347, 43.486748 ], [ 1.581602, 43.488186 ], [ 1.586317, 43.494534 ], [ 1.587676, 43.495361 ], [ 1.592454, 43.497042 ], [ 1.598296483205878, 43.500775286682526 ], [ 1.596275, 43.496693 ], [ 1.589227, 43.492857 ], [ 1.590166, 43.48712 ], [ 1.590999, 43.484527 ], [ 1.591433, 43.48375 ] ] ], [ [ [ 1.551941, 43.47671 ], [ 1.551608, 43.477502 ], [ 1.55145, 43.478081 ], [ 1.551745, 43.479172 ], [ 1.551819472220891, 43.479250783770517 ], [ 1.553362, 43.47786 ], [ 1.554881438876965, 43.476422731916195 ], [ 1.553722, 43.476071 ], [ 1.551941, 43.47671 ] ] ], [ [ [ 1.543724, 43.488053 ], [ 1.540188561124062, 43.488546641239324 ], [ 1.540330524793631, 43.490266000417847 ], [ 1.542638321795095, 43.489733040366794 ], [ 1.542889, 43.48941 ], [ 1.545000556707001, 43.486431378944715 ], [ 1.544989, 43.486427 ], [ 1.543724, 43.488053 ] ] ], [ [ [ 1.555073, 43.49253 ], [ 1.557305, 43.489315 ], [ 1.556736, 43.483913 ], [ 1.550147, 43.489793 ], [ 1.5484843650108, 43.488282024283457 ], [ 1.549499, 43.487088 ], [ 1.547723, 43.489178 ], [ 1.547719843236411, 43.489181872173049 ], [ 1.54772, 43.489182 ], [ 1.545887418595078, 43.491482670620307 ], [ 1.546156, 43.491786 ], [ 1.555073, 43.49253 ] ] ] ] } },
{ "type": "Feature", "properties": { "codgeo": "31254", "value": 720, "isochrone_group": 12.0, "nb_agences": 2 }, "geometry": { "type": "MultiPolygon", "coordinates": [ [ [ [ 1.578125, 43.541481 ], [ 1.578089, 43.532669 ], [ 1.57743, 43.532909 ], [ 1.577137, 43.541833 ], [ 1.579722420560103, 43.543214416951002 ], [ 1.579728, 43.543191 ], [ 1.579399, 43.542636 ], [ 1.578125, 43.541481 ] ] ], [ [ [ 1.598482, 43.523391 ], [ 1.603592, 43.517289 ], [ 1.604107, 43.516885 ], [ 1.604376, 43.516557 ], [ 1.604651, 43.516019 ], [ 1.604793, 43.515143 ], [ 1.607029837248927, 43.509676066429051 ], [ 1.603937, 43.513255 ], [ 1.60368, 43.513579 ], [ 1.598527, 43.519549 ], [ 1.594878, 43.52702 ], [ 1.595427, 43.530782 ], [ 1.593282, 43.533673 ], [ 1.59287, 43.533367 ], [ 1.588649, 43.532072 ], [ 1.581269, 43.531053 ], [ 1.587705, 43.532865 ], [ 1.594332, 43.535334 ], [ 1.595565, 43.536236 ], [ 1.598129, 43.533709 ], [ 1.596699, 43.531281 ], [ 1.598482, 43.523391 ] ] ], [ [ [ 1.614079, 43.50149 ], [ 1.611855, 43.502631 ], [ 1.609683720134464, 43.502772765008132 ], [ 1.611902, 43.504512 ], [ 1.611991, 43.504663 ], [ 1.611467, 43.506873 ], [ 1.611168, 43.507026 ], [ 1.607849919300828, 43.508726258743373 ], [ 1.60785, 43.508727 ], [ 1.607645873333915, 43.508963208930254 ], [ 1.614814, 43.508066 ], [ 1.618153, 43.508184 ], [ 1.618263, 43.508145 ], [ 1.618907, 43.505306 ], [ 1.6154, 43.500791 ], [ 1.614079, 43.50149 ] ] ], [ [ [ 1.596032, 43.46434 ], [ 1.596217, 43.463171 ], [ 1.59483, 43.461266 ], [ 1.594039, 43.461342 ], [ 1.593763, 43.461526 ], [ 1.59019, 43.464002 ], [ 1.583887, 43.466415 ], [ 1.582946, 43.466569 ], [ 1.581927, 43.467033 ], [ 1.574100235415981, 43.46715551753293 ], [ 1.574213, 43.46738 ], [ 1.571614, 43.468686 ], [ 1.570594, 43.469229 ], [ 1.570570531396974, 43.469242418441709 ], [ 1.570809, 43.469708 ], [ 1.57092497744038, 43.470101541426899 ], [ 1.570928, 43.470094 ], [ 1.574352, 43.468983 ], [ 1.578943, 43.472421 ], [ 1.584501, 43.468073 ], [ 1.584816, 43.467881 ], [ 1.586857, 43.466372 ], [ 1.587366, 43.465982 ], [ 1.588845, 43.464945 ], [ 1.590912, 43.467892 ], [ 1.588184, 43.471206 ], [ 1.587395, 43.478401 ], [ 1.591433, 43.48375 ], [ 1.590999, 43.484527 ], [ 1.590166, 43.48712 ], [ 1.589227, 43.492857 ], [ 1.596275, 43.496693 ], [ 1.599154, 43.502507 ], [ 1.603133, 43.502686 ], [ 1.605218007850533, 43.502475809836056 ], [ 1.60027, 43.496089 ], [ 1.599537, 43.488322 ], [ 1.597248, 43.483956 ], [ 1.595585, 43.480763 ], [ 1.594171, 43.472274 ], [ 1.596032, 43.46434 ] ] ], [ [ [ 1.568904, 43.46605 ], [ 1.569940541130813, 43.465500017902272 ], [ 1.56994, 43.465499 ], [ 1.568904, 43.46605 ] ] ], [ [ [ 1.558829552353218, 43.472878638160225 ], [ 1.558895, 43.472822 ], [ 1.558829552353218, 43.472878638160225 ], [ 1.558829552353218, 43.472878638160225 ] ] ], [ [ [ 1.555150282042782, 43.473760606985877 ], [ 1.555182879986978, 43.476138425566845 ], [ 1.555544, 43.475797 ], [ 1.556263, 43.475137 ], [ 1.557268, 43.47423 ], [ 1.556699699745446, 43.474742883911325 ], [ 1.555150282042782, 43.473760606985877 ] ] ], [ [ [ 1.558883, 43.478533 ], [ 1.567597, 43.478405 ], [ 1.567816385525629, 43.477857622904978 ], [ 1.563421, 43.478002 ], [ 1.560197159651009, 43.476470024527558 ], [ 1.558678, 43.477808 ], [ 1.558238638569014, 43.478210382366193 ], [ 1.55838, 43.478291 ], [ 1.558883, 43.478533 ] ] ], [ [ [ 1.54689155082438, 43.482874980215371 ], [ 1.546924, 43.482822 ], [ 1.547433, 43.482052 ], [ 1.547568, 43.48193 ], [ 1.551076120535129, 43.479465717884366 ], [ 1.547028587476559, 43.479274143406073 ], [ 1.54689155082438, 43.482874980215371 ] ] ], [ [ [ 1.5484843650108, 43.488282024283457 ], [ 1.550147, 43.489793 ], [ 1.556736, 43.483913 ], [ 1.554510895927551, 43.481777534116674 ], [ 1.553371, 43.482898 ], [ 1.551766, 43.484574 ], [ 1.550926, 43.485483 ], [ 1.549499, 43.487088 ], [ 1.5484843650108, 43.488282024283457 ] ] ] ] } },
{ "type": "Feature", "properties": { "codgeo": "31254", "value": 780, "isochrone_group": 13.0, "nb_agences": 2 }, "geometry": { "type": "MultiPolygon", "coordinates": [ [ [ [ 1.602591, 43.541613 ], [ 1.604041, 43.540555 ], [ 1.602615, 43.533511 ], [ 1.602178, 43.529937 ], [ 1.602038, 43.522224 ], [ 1.605204, 43.520511 ], [ 1.606252, 43.512655 ], [ 1.612631, 43.509935 ], [ 1.615741, 43.509687 ], [ 1.620547, 43.510988 ], [ 1.621629, 43.509974 ], [ 1.622522, 43.509132 ], [ 1.62302, 43.508381 ], [ 1.623619, 43.506238 ], [ 1.624041, 43.504427 ], [ 1.623317, 43.497638 ], [ 1.623059, 43.497525 ], [ 1.62298, 43.497495 ], [ 1.621593, 43.497333 ], [ 1.612645, 43.496785 ], [ 1.607356, 43.492106 ], [ 1.606767, 43.491912 ], [ 1.606137, 43.491656 ], [ 1.605775, 43.491489 ], [ 1.604069, 43.490448 ], [ 1.606242, 43.481929 ], [ 1.605754, 43.478362 ], [ 1.60459, 43.478318 ], [ 1.603132, 43.478485 ], [ 1.602144, 43.478624 ], [ 1.596727, 43.471621 ], [ 1.598473, 43.464588 ], [ 1.602194, 43.461389 ], [ 1.600652, 43.458137 ], [ 1.594080507608183, 43.457312428197021 ], [ 1.592402, 43.45829 ], [ 1.58949, 43.459901 ], [ 1.589993451294894, 43.459622605248128 ], [ 1.590219, 43.460429 ], [ 1.583887, 43.466415 ], [ 1.59019, 43.464002 ], [ 1.593763, 43.461526 ], [ 1.594039, 43.461342 ], [ 1.59483, 43.461266 ], [ 1.596217, 43.463171 ], [ 1.596032, 43.46434 ], [ 1.594171, 43.472274 ], [ 1.595585, 43.480763 ], [ 1.597248, 43.483956 ], [ 1.599537, 43.488322 ], [ 1.60027, 43.496089 ], [ 1.605031799096478, 43.502235454537953 ], [ 1.60844, 43.502151 ], [ 1.60934, 43.502017 ], [ 1.612923346383274, 43.502082896032682 ], [ 1.614079, 43.50149 ], [ 1.6154, 43.500791 ], [ 1.618907, 43.505306 ], [ 1.618263, 43.508145 ], [ 1.618153, 43.508184 ], [ 1.614814, 43.508066 ], [ 1.607304, 43.509006 ], [ 1.604793, 43.515143 ], [ 1.604651, 43.516019 ], [ 1.604376, 43.516557 ], [ 1.601377, 43.522148 ], [ 1.59974, 43.530825 ], [ 1.600828, 43.536823 ], [ 1.599999, 43.539237 ], [ 1.599318146702734, 43.540512545715281 ], [ 1.599755, 43.540972 ], [ 1.601754, 43.542175 ], [ 1.602196, 43.541902 ], [ 1.602591, 43.541613 ] ] ], [ [ [ 1.581346, 43.458979 ], [ 1.576054845753518, 43.462489775309578 ], [ 1.576054845753537, 43.462489775309578 ], [ 1.581346, 43.458979 ] ] ], [ [ [ 1.570389, 43.460139 ], [ 1.569373, 43.460805 ], [ 1.564743, 43.463475 ], [ 1.564062, 43.463839 ], [ 1.562107680334351, 43.464912644102021 ], [ 1.562166, 43.46491 ], [ 1.563057, 43.465896 ], [ 1.563874, 43.46808 ], [ 1.562632, 43.468748 ], [ 1.561047, 43.469612 ], [ 1.559454, 43.470479 ], [ 1.559472650973965, 43.472348047014449 ], [ 1.559764, 43.472109 ], [ 1.561363, 43.470866 ], [ 1.562585, 43.46998 ], [ 1.563985, 43.469017 ], [ 1.565302, 43.468166 ], [ 1.566662, 43.46733 ], [ 1.568904, 43.46605 ], [ 1.56994, 43.465499 ], [ 1.569940541130813, 43.465500017902272 ], [ 1.569999, 43.465469 ], [ 1.572627, 43.464149 ], [ 1.575763, 43.462631 ], [ 1.575947999903918, 43.462541478210355 ], [ 1.571664, 43.460289 ], [ 1.57159, 43.460249 ], [ 1.570389, 43.460139 ] ] ], [ [ [ 1.583887, 43.466415 ], [ 1.580055681650398, 43.464553521598575 ], [ 1.577331, 43.465872 ], [ 1.574696974196168, 43.467146176385334 ], [ 1.581927, 43.467033 ], [ 1.582946, 43.466569 ], [ 1.583887, 43.466415 ] ] ], [ [ [ 1.545369276927821, 43.485939930821338 ], [ 1.545574, 43.485677 ], [ 1.546842, 43.484177 ], [ 1.547055305204429, 43.478572096351876 ], [ 1.545368, 43.485939 ], [ 1.545369276927821, 43.485939930821338 ] ] ], [ [ [ 1.568566, 43.477833 ], [ 1.571165, 43.470916 ], [ 1.570809, 43.469708 ], [ 1.570570531396974, 43.469242418441709 ], [ 1.568448, 43.470456 ], [ 1.567187, 43.471232 ], [ 1.56118, 43.475603 ], [ 1.560185556121332, 43.476464510506716 ], [ 1.563421, 43.478002 ], [ 1.568566, 43.477833 ] ] ] ] } },
{ "type": "Feature", "properties": { "codgeo": "31254", "value": 840, "isochrone_group": 14.0, "nb_agences": 2 }, "geometry": { "type": "MultiPolygon", "coordinates": [ [ [ [ 1.581847, 43.458578 ], [ 1.582366, 43.458345 ], [ 1.583159675820108, 43.458043133540826 ], [ 1.578159, 43.455805 ], [ 1.570083, 43.456224 ], [ 1.564516, 43.4566 ], [ 1.563545, 43.457686 ], [ 1.56356, 43.457774 ], [ 1.563966, 43.460157 ], [ 1.563467231957305, 43.462873377446542 ], [ 1.563721, 43.462556 ], [ 1.569660466647095, 43.460616562217545 ], [ 1.570389, 43.460139 ], [ 1.57159, 43.460249 ], [ 1.571664, 43.460289 ], [ 1.575948332859557, 43.46254165327462 ], [ 1.576053, 43.462491 ], [ 1.581346, 43.458979 ], [ 1.581847, 43.458578 ] ] ], [ [ [ 1.575065, 43.571659 ], [ 1.573742, 43.571515 ], [ 1.571326, 43.571778 ], [ 1.57095, 43.571792 ], [ 1.570412, 43.571726 ], [ 1.567446, 43.572195 ], [ 1.565816, 43.573009 ], [ 1.56507812909532, 43.573865186066001 ], [ 1.571396, 43.573091 ], [ 1.575694, 43.571898 ], [ 1.575916076661846, 43.571651026851391 ], [ 1.575065, 43.571659 ] ] ], [ [ [ 1.608321, 43.530176 ], [ 1.608244, 43.522361 ], [ 1.606171, 43.519417 ], [ 1.60559023597949, 43.517615704336961 ], [ 1.605302500105368, 43.519772625164357 ], [ 1.605498, 43.520899 ], [ 1.606333, 43.523488 ], [ 1.605587, 43.529175 ], [ 1.607035, 43.532471 ], [ 1.607911, 43.536133 ], [ 1.607309, 43.538822 ], [ 1.605325, 43.541667 ], [ 1.60729026814903, 43.544165048087855 ], [ 1.608813, 43.542248 ], [ 1.611857, 43.537639 ], [ 1.610544, 43.534287 ], [ 1.608321, 43.530176 ] ] ], [ [ [ 1.621629, 43.509974 ], [ 1.620547, 43.510988 ], [ 1.615741, 43.509687 ], [ 1.612631, 43.509935 ], [ 1.609217033830922, 43.51139071217743 ], [ 1.608354, 43.511858 ], [ 1.607835, 43.512125 ], [ 1.606027872823776, 43.514335098374445 ], [ 1.606000735660841, 43.514538523519484 ], [ 1.611738, 43.511667 ], [ 1.614867, 43.513601 ], [ 1.617336, 43.516656 ], [ 1.618678, 43.516421 ], [ 1.622129, 43.515395 ], [ 1.622399, 43.51475 ], [ 1.622522, 43.509132 ], [ 1.621629, 43.509974 ] ] ], [ [ [ 1.631737, 43.493202 ], [ 1.628125, 43.494815 ], [ 1.619617, 43.494539 ], [ 1.612039, 43.491738 ], [ 1.607962, 43.485191 ], [ 1.612363, 43.48211 ], [ 1.612816, 43.481466 ], [ 1.614945, 43.478985 ], [ 1.615241, 43.478195 ], [ 1.615422, 43.477372 ], [ 1.61542, 43.477134 ], [ 1.613822, 43.475565 ], [ 1.613001, 43.475834 ], [ 1.612028, 43.476546 ], [ 1.608106, 43.47801 ], [ 1.60576, 43.478361 ], [ 1.599868, 43.473177 ], [ 1.601374, 43.464593 ], [ 1.605244, 43.461503 ], [ 1.605404, 43.461409 ], [ 1.606904, 43.460485 ], [ 1.61056, 43.457412 ], [ 1.609007, 43.454164 ], [ 1.605578, 43.454369 ], [ 1.602779, 43.454543 ], [ 1.600027935421421, 43.453475700180405 ], [ 1.600242, 43.453329 ], [ 1.598132, 43.454775 ], [ 1.598066370951086, 43.454817016036458 ], [ 1.598067, 43.454818 ], [ 1.59657, 43.455775 ], [ 1.59510809820093, 43.457441367283806 ], [ 1.600652, 43.458137 ], [ 1.602194, 43.461389 ], [ 1.598473, 43.464588 ], [ 1.596727, 43.471621 ], [ 1.602144, 43.478624 ], [ 1.603132, 43.478485 ], [ 1.60459, 43.478318 ], [ 1.605754, 43.478362 ], [ 1.606242, 43.481929 ], [ 1.604069, 43.490448 ], [ 1.605775, 43.491489 ], [ 1.606137, 43.491656 ], [ 1.606767, 43.491912 ], [ 1.607356, 43.492106 ], [ 1.612645, 43.496785 ], [ 1.621593, 43.497333 ], [ 1.62298, 43.497495 ], [ 1.623059, 43.497525 ], [ 1.623317, 43.497638 ], [ 1.624041, 43.504427 ], [ 1.623619, 43.506238 ], [ 1.62302, 43.508381 ], [ 1.622522, 43.509132 ], [ 1.62844, 43.507795 ], [ 1.630297, 43.506277 ], [ 1.630559, 43.504885 ], [ 1.633379, 43.496411 ], [ 1.633367, 43.493864 ], [ 1.63301, 43.493456 ], [ 1.631905, 43.493127 ], [ 1.631737, 43.493202 ] ] ], [ [ [ 1.607968, 43.447274 ], [ 1.608948, 43.446407 ], [ 1.608946698112749, 43.446405527185433 ], [ 1.607968, 43.447274 ] ] ], [ [ [ 1.60650932033037, 43.443755302554976 ], [ 1.601141, 43.448203 ], [ 1.605584, 43.444576 ], [ 1.60650932033037, 43.443755302554976 ] ] ], [ [ [ 1.595076, 43.45138 ], [ 1.594536, 43.451195 ], [ 1.593842102727605, 43.45321787689425 ], [ 1.594631, 43.452742 ], [ 1.601141, 43.448203 ], [ 1.595950953911887, 43.451821681903844 ], [ 1.595695, 43.451664 ], [ 1.595076, 43.45138 ] ] ], [ [ [ 1.554691, 43.463841 ], [ 1.554618, 43.463775 ], [ 1.554590693980836, 43.46377070521951 ], [ 1.554691, 43.463841 ] ] ], [ [ [ 1.586165, 43.463169 ], [ 1.585566, 43.463301 ], [ 1.580602376403985, 43.464819137865106 ], [ 1.583887, 43.466415 ], [ 1.587644156142055, 43.462863146451923 ], [ 1.586165, 43.463169 ] ] ] ] } },
{ "type": "Feature", "properties": { "codgeo": "31254", "value": 900, "isochrone_group": 15.0, "nb_agences": 2 }, "geometry": { "type": "MultiPolygon", "coordinates": [ [ [ [ 1.620619, 43.533522 ], [ 1.619127, 43.530246 ], [ 1.619527, 43.52155 ], [ 1.621874, 43.520831 ], [ 1.624935, 43.514011 ], [ 1.627358, 43.511349 ], [ 1.633327, 43.505341 ], [ 1.635739, 43.503746 ], [ 1.63608, 43.503022 ], [ 1.635281, 43.502072 ], [ 1.636334, 43.49515 ], [ 1.639456, 43.493975 ], [ 1.642578, 43.4928 ], [ 1.64131, 43.489431 ], [ 1.638188, 43.490606 ], [ 1.632288, 43.491512 ], [ 1.631914, 43.491772 ], [ 1.628125, 43.494815 ], [ 1.631737, 43.493202 ], [ 1.631905, 43.493127 ], [ 1.63301, 43.493456 ], [ 1.633367, 43.493864 ], [ 1.633379, 43.496411 ], [ 1.630559, 43.504885 ], [ 1.630297, 43.506277 ], [ 1.62844, 43.507795 ], [ 1.625214728007547, 43.508523656413303 ], [ 1.622461255132763, 43.511906509464488 ], [ 1.622399, 43.51475 ], [ 1.622129, 43.515395 ], [ 1.618678, 43.516421 ], [ 1.617336, 43.516656 ], [ 1.614867, 43.513601 ], [ 1.611738, 43.511667 ], [ 1.609442652562838, 43.512815830481159 ], [ 1.606632, 43.518864 ], [ 1.609322, 43.521256 ], [ 1.610628, 43.527542 ], [ 1.61577, 43.53211 ], [ 1.617071, 43.535467 ], [ 1.615923, 43.535912 ], [ 1.61218, 43.541214 ], [ 1.61493309332583, 43.543143610496017 ], [ 1.615247, 43.542314 ], [ 1.619292, 43.534317 ], [ 1.619639, 43.534105 ], [ 1.620619, 43.533522 ] ] ], [ [ [ 1.612039, 43.491738 ], [ 1.619617, 43.494539 ], [ 1.619621272253526, 43.494539138592131 ], [ 1.617547, 43.492032 ], [ 1.616951, 43.491041 ], [ 1.615009, 43.490655 ], [ 1.610575, 43.48588 ], [ 1.612385262444062, 43.48207835096251 ], [ 1.612363, 43.48211 ], [ 1.607962, 43.485191 ], [ 1.612039, 43.491738 ] ] ], [ [ [ 1.618289, 43.474633 ], [ 1.617712, 43.474576 ], [ 1.612198, 43.473474 ], [ 1.611418, 43.473001 ], [ 1.610997, 43.472889 ], [ 1.610532, 43.472826 ], [ 1.606854, 43.471958 ], [ 1.60452, 43.463794 ], [ 1.606224, 43.462877 ], [ 1.613077, 43.458583 ], [ 1.613646, 43.458563 ], [ 1.614523, 43.458563 ], [ 1.6147, 43.458478 ], [ 1.614715, 43.458471 ], [ 1.615072, 43.458305 ], [ 1.617127, 43.456538 ], [ 1.618587, 43.455022 ], [ 1.618593, 43.454979 ], [ 1.61659, 43.452978 ], [ 1.613876, 43.452232 ], [ 1.613208, 43.452326 ], [ 1.606449, 43.452836 ], [ 1.604585, 43.453114 ], [ 1.603575, 43.453932 ], [ 1.602889, 43.454448 ], [ 1.602449541583949, 43.454415183695424 ], [ 1.602779, 43.454543 ], [ 1.605578, 43.454369 ], [ 1.609007, 43.454164 ], [ 1.61056, 43.457412 ], [ 1.606904, 43.460485 ], [ 1.605404, 43.461409 ], [ 1.605244, 43.461503 ], [ 1.601374, 43.464593 ], [ 1.599868, 43.473177 ], [ 1.60576, 43.478361 ], [ 1.608106, 43.47801 ], [ 1.612028, 43.476546 ], [ 1.613001, 43.475834 ], [ 1.613822, 43.475565 ], [ 1.61542, 43.477134 ], [ 1.615422, 43.477372 ], [ 1.615241, 43.478195 ], [ 1.614945, 43.478985 ], [ 1.612816, 43.481466 ], [ 1.619028, 43.478556 ], [ 1.619287, 43.478576 ], [ 1.620315, 43.478621 ], [ 1.620985, 43.475993 ], [ 1.620964, 43.475953 ], [ 1.62047, 43.475024 ], [ 1.618613, 43.474725 ], [ 1.618289, 43.474633 ] ] ], [ [ [ 1.600333388755194, 43.453594203501112 ], [ 1.600356603195201, 43.453603209748294 ], [ 1.601296, 43.452577 ], [ 1.600333388755194, 43.453594203501112 ] ] ], [ [ [ 1.621201, 43.436135 ], [ 1.624599572346981, 43.434056148186379 ], [ 1.623436, 43.434709 ], [ 1.621201, 43.436135 ] ] ], [ [ [ 1.623469062998344, 43.430529108625045 ], [ 1.623469, 43.430529 ], [ 1.62163, 43.431595 ], [ 1.623469062998344, 43.430529108625045 ] ] ], [ [ [ 1.613181588719594, 43.437362584541631 ], [ 1.613181, 43.437363 ], [ 1.613068, 43.437461 ], [ 1.613181588719594, 43.437362584541631 ] ] ], [ [ [ 1.608946698112748, 43.446405527185433 ], [ 1.608946698112749, 43.446405527185433 ], [ 1.609877, 43.44558 ], [ 1.608946698112748, 43.446405527185433 ] ] ], [ [ [ 1.613891150620554, 43.441938575309784 ], [ 1.614002, 43.441838 ], [ 1.613891150621813, 43.441938575308647 ], [ 1.613891150620554, 43.441938575309784 ] ] ], [ [ [ 1.587697, 43.450182 ], [ 1.579181, 43.451596 ], [ 1.579048, 43.45162 ], [ 1.577656, 43.453288 ], [ 1.569557, 43.453057 ], [ 1.56429, 43.455149 ], [ 1.559645, 43.454952 ], [ 1.557457, 43.455038 ], [ 1.556069, 43.457409 ], [ 1.55193565918077, 43.460232784307365 ], [ 1.55881, 43.461401 ], [ 1.56356, 43.457774 ], [ 1.563545, 43.457686 ], [ 1.564516, 43.4566 ], [ 1.570083, 43.456224 ], [ 1.578159, 43.455805 ], [ 1.583172809143938, 43.458049011572854 ], [ 1.590303176927516, 43.455332599583357 ], [ 1.590591, 43.455179 ], [ 1.593842102727605, 43.45321787689425 ], [ 1.594371557899752, 43.451674388143267 ], [ 1.593973, 43.450989 ], [ 1.591267, 43.448246 ], [ 1.59113, 43.448298 ], [ 1.590144, 43.448771 ], [ 1.589973, 43.44885 ], [ 1.589114, 43.449246 ], [ 1.588663, 43.449506 ], [ 1.587697, 43.450182 ] ] ], [ [ [ 1.541714, 43.458523 ], [ 1.5415, 43.458622 ], [ 1.54171534111456, 43.458525063969581 ], [ 1.541714, 43.458523 ] ] ], [ [ [ 1.534563604065325, 43.462392128144948 ], [ 1.535665, 43.462058 ], [ 1.541144, 43.458838 ], [ 1.5415, 43.458622 ], [ 1.534563604065325, 43.462392128144948 ] ] ] ] } },
{ "type": "Feature", "properties": { "codgeo": "31254", "value": 960, "isochrone_group": 16.0, "nb_agences": 2 }, "geometry": { "type": "MultiPolygon", "coordinates": [ [ [ [ 1.600469, 43.560304 ], [ 1.599769751835364, 43.565266539461845 ], [ 1.602704934080583, 43.560041182464253 ], [ 1.600469, 43.560304 ] ] ], [ [ [ 1.627961, 43.521926 ], [ 1.626034, 43.519277 ], [ 1.625880341758967, 43.512972411571461 ], [ 1.624935, 43.514011 ], [ 1.621874, 43.520831 ], [ 1.62014977329819, 43.521359214315545 ], [ 1.623631, 43.528334 ], [ 1.625238, 43.528877 ], [ 1.625481, 43.529105 ], [ 1.62571, 43.531273 ], [ 1.625518, 43.531409 ], [ 1.624864, 43.531777 ], [ 1.623995, 43.532418 ], [ 1.623216, 43.533166 ], [ 1.622884, 43.533494 ], [ 1.62202, 43.534323 ], [ 1.621787, 43.534512 ], [ 1.621374, 43.534789 ], [ 1.618961, 43.537853 ], [ 1.621590166530425, 43.540601231479357 ], [ 1.621673, 43.540223 ], [ 1.625512, 43.533888 ], [ 1.627713, 43.531039 ], [ 1.628707, 43.528048 ], [ 1.627961, 43.521926 ] ] ], [ [ [ 1.639585375642985, 43.493926308013933 ], [ 1.639456, 43.493975 ], [ 1.637830863920859, 43.494586638338546 ], [ 1.637831, 43.494587 ], [ 1.636763, 43.495015 ], [ 1.636265082437368, 43.495603036437359 ], [ 1.635281, 43.502072 ], [ 1.63608, 43.503022 ], [ 1.635739, 43.503746 ], [ 1.633327, 43.505341 ], [ 1.633140148944539, 43.505529071895005 ], [ 1.632801, 43.506985 ], [ 1.632383022683807, 43.50730750249766 ], [ 1.635929, 43.508634 ], [ 1.636706, 43.508986 ], [ 1.637611, 43.508983 ], [ 1.637978, 43.508876 ], [ 1.63975, 43.508187 ], [ 1.638446, 43.504831 ], [ 1.637693, 43.50276 ], [ 1.6357, 43.499762 ], [ 1.639584, 43.493927 ], [ 1.639585375642985, 43.493926308013933 ] ] ], [ [ [ 1.64131, 43.489431 ], [ 1.642458041821208, 43.492481278308873 ], [ 1.643713, 43.49185 ], [ 1.646327, 43.491393 ], [ 1.648628, 43.490526 ], [ 1.650929, 43.489659 ], [ 1.64966, 43.48629 ], [ 1.644372, 43.485674 ], [ 1.640783, 43.485959 ], [ 1.635870327247148, 43.490961900256615 ], [ 1.638188, 43.490606 ], [ 1.64131, 43.489431 ] ] ], [ [ [ 1.61469, 43.488788 ], [ 1.613891, 43.485278 ], [ 1.619287, 43.478576 ], [ 1.619028, 43.478556 ], [ 1.612816, 43.481466 ], [ 1.612424, 43.481997 ], [ 1.610575, 43.48588 ], [ 1.615009, 43.490655 ], [ 1.616615492108402, 43.49097431305551 ], [ 1.61469, 43.488788 ] ] ], [ [ [ 1.615026, 43.46864 ], [ 1.619241, 43.461662 ], [ 1.620203, 43.459601 ], [ 1.625115, 43.45396 ], [ 1.623995, 43.450539 ], [ 1.622593, 43.450998 ], [ 1.617784, 43.451649 ], [ 1.614322, 43.450418 ], [ 1.611066, 43.444502 ], [ 1.611065835274661, 43.44450181838674 ], [ 1.611596, 43.444021 ], [ 1.609877, 43.44558 ], [ 1.607968, 43.447274 ], [ 1.60791880489783, 43.447315770330171 ], [ 1.607919, 43.447316 ], [ 1.605914, 43.449018 ], [ 1.604309, 43.450309 ], [ 1.603333, 43.451058 ], [ 1.603255721697877, 43.451115626775128 ], [ 1.603256, 43.451116 ], [ 1.601296, 43.452577 ], [ 1.599835802954584, 43.454172138960203 ], [ 1.599813543789836, 43.454218342075748 ], [ 1.602889, 43.454448 ], [ 1.603575, 43.453932 ], [ 1.604585, 43.453114 ], [ 1.606449, 43.452836 ], [ 1.613208, 43.452326 ], [ 1.613876, 43.452232 ], [ 1.61659, 43.452978 ], [ 1.618593, 43.454979 ], [ 1.618587, 43.455022 ], [ 1.617127, 43.456538 ], [ 1.615072, 43.458305 ], [ 1.614715, 43.458471 ], [ 1.6147, 43.458478 ], [ 1.614523, 43.458563 ], [ 1.613646, 43.458563 ], [ 1.613077, 43.458583 ], [ 1.606224, 43.462877 ], [ 1.60452, 43.463794 ], [ 1.606854, 43.471958 ], [ 1.610532, 43.472826 ], [ 1.610997, 43.472889 ], [ 1.611418, 43.473001 ], [ 1.612198, 43.473474 ], [ 1.617712, 43.474576 ], [ 1.618289, 43.474633 ], [ 1.618613, 43.474725 ], [ 1.62047, 43.475024 ], [ 1.620964, 43.475953 ], [ 1.620985, 43.475993 ], [ 1.620315, 43.478621 ], [ 1.619287, 43.478576 ], [ 1.62398, 43.480075 ], [ 1.624608, 43.480018 ], [ 1.625877, 43.479685 ], [ 1.625088, 43.476809 ], [ 1.624964, 43.476203 ], [ 1.622821, 43.475328 ], [ 1.622212, 43.475156 ], [ 1.621664, 43.475079 ], [ 1.615068, 43.469648 ], [ 1.615026, 43.46864 ] ] ], [ [ [ 1.644852, 43.425194 ], [ 1.644851888949344, 43.425193724231079 ], [ 1.643172, 43.42587 ], [ 1.644852, 43.425194 ] ] ], [ [ [ 1.633717, 43.429661 ], [ 1.631093846273002, 43.43076512095341 ], [ 1.631093846272914, 43.430765120953474 ], [ 1.633717, 43.429661 ] ] ], [ [ [ 1.566111, 43.45132 ], [ 1.565741, 43.451362 ], [ 1.562992, 43.45255 ], [ 1.556604, 43.453068 ], [ 1.553023, 43.451193 ], [ 1.551982, 43.450257 ], [ 1.549385, 43.45275 ], [ 1.545473568255988, 43.456007767623021 ], [ 1.549732, 43.459668 ], [ 1.556069, 43.457409 ], [ 1.557457, 43.455038 ], [ 1.559645, 43.454952 ], [ 1.56429, 43.455149 ], [ 1.569557, 43.453057 ], [ 1.577136623651807, 43.453273186327131 ], [ 1.577839357748457, 43.453068286835915 ], [ 1.579048, 43.45162 ], [ 1.579181, 43.451596 ], [ 1.587697, 43.450182 ], [ 1.588663, 43.449506 ], [ 1.589114, 43.449246 ], [ 1.589973, 43.44885 ], [ 1.590144, 43.448771 ], [ 1.59113, 43.448298 ], [ 1.591267, 43.448246 ], [ 1.593092698475518, 43.450096661832362 ], [ 1.601141, 43.448203 ], [ 1.605582877343079, 43.444576182677594 ], [ 1.598449, 43.445737 ], [ 1.591346, 43.442778 ], [ 1.58964, 43.444201 ], [ 1.588778, 43.446336 ], [ 1.579904, 43.447321 ], [ 1.577834, 43.446408 ], [ 1.574235, 43.446454 ], [ 1.569484, 43.451248 ], [ 1.566199, 43.45132 ], [ 1.566111, 43.45132 ] ] ] ] } },
{ "type": "Feature", "properties": { "codgeo": "31254", "value": 1020, "isochrone_group": 17.0, "nb_agences": 2 }, "geometry": { "type": "MultiPolygon", "coordinates": [ [ [ [ 1.631957, 43.516846 ], [ 1.630076, 43.513777 ], [ 1.636706, 43.508986 ], [ 1.635929, 43.508634 ], [ 1.630851040058567, 43.506734410527557 ], [ 1.629378, 43.508535 ], [ 1.62631777714341, 43.511752729889828 ], [ 1.625867, 43.512425 ], [ 1.626034, 43.519277 ], [ 1.627961, 43.521926 ], [ 1.62802986386021, 43.522491126745606 ], [ 1.629556, 43.523384 ], [ 1.629974, 43.523547 ], [ 1.630028, 43.52359 ], [ 1.630774, 43.52414 ], [ 1.630834, 43.524195 ], [ 1.630757001409287, 43.532413849572393 ], [ 1.631783, 43.531708 ], [ 1.634727, 43.525185 ], [ 1.634494, 43.522932 ], [ 1.634394, 43.522777 ], [ 1.631957, 43.516846 ] ] ], [ [ [ 1.606765897204387, 43.561065331660977 ], [ 1.604747, 43.560102 ], [ 1.603735, 43.560041 ], [ 1.603285, 43.559973 ], [ 1.602216860507427, 43.560910075244237 ], [ 1.600039847871593, 43.564785701103261 ], [ 1.599856716442574, 43.566698170535751 ], [ 1.601132, 43.565962 ], [ 1.601542, 43.565621 ], [ 1.606765897204387, 43.561065331660977 ] ] ], [ [ [ 1.643859, 43.507131 ], [ 1.643953, 43.503532 ], [ 1.641038, 43.500192 ], [ 1.641438849915897, 43.493564505871184 ], [ 1.639584, 43.493927 ], [ 1.6357, 43.499762 ], [ 1.637693, 43.50276 ], [ 1.638446, 43.504831 ], [ 1.639749919171458, 43.508186791978055 ], [ 1.640279, 43.507981 ], [ 1.643859, 43.507131 ] ] ], [ [ [ 1.642821, 43.482827 ], [ 1.640829, 43.480421 ], [ 1.639646, 43.47999 ], [ 1.637948, 43.481788 ], [ 1.631249, 43.476033 ], [ 1.629713, 43.475153 ], [ 1.623093, 43.472881 ], [ 1.62263, 43.465213 ], [ 1.624572, 43.462181 ], [ 1.629951, 43.455641 ], [ 1.630405, 43.45425 ], [ 1.631907, 43.450794 ], [ 1.631663, 43.450208 ], [ 1.630884, 43.448589 ], [ 1.630223, 43.447838 ], [ 1.629844, 43.447981 ], [ 1.629443, 43.448169 ], [ 1.625825, 43.449991 ], [ 1.617625, 43.446909 ], [ 1.617980286112416, 43.438578967713347 ], [ 1.617417309296204, 43.439006170256071 ], [ 1.614002, 43.441838 ], [ 1.611596, 43.444021 ], [ 1.611065835274661, 43.44450181838674 ], [ 1.611066, 43.444502 ], [ 1.614322, 43.450418 ], [ 1.617784, 43.451649 ], [ 1.622593, 43.450998 ], [ 1.623995, 43.450539 ], [ 1.625115, 43.45396 ], [ 1.620203, 43.459601 ], [ 1.619241, 43.461662 ], [ 1.615026, 43.46864 ], [ 1.615068, 43.469648 ], [ 1.621664, 43.475079 ], [ 1.622212, 43.475156 ], [ 1.622821, 43.475328 ], [ 1.624964, 43.476203 ], [ 1.625088, 43.476809 ], [ 1.625877, 43.479685 ], [ 1.624608, 43.480018 ], [ 1.62398, 43.480075 ], [ 1.619287, 43.478576 ], [ 1.613891, 43.485278 ], [ 1.61469, 43.488788 ], [ 1.614843046898727, 43.488961778137728 ], [ 1.616827, 43.488787 ], [ 1.616919, 43.489837 ], [ 1.618753550190084, 43.49300540725968 ], [ 1.626583, 43.495496 ], [ 1.628125, 43.494815 ], [ 1.632354, 43.492706 ], [ 1.632491970403835, 43.492863719375755 ], [ 1.634094, 43.492157 ], [ 1.635066, 43.491781 ], [ 1.640783, 43.485959 ], [ 1.644372, 43.485674 ], [ 1.64966, 43.48629 ], [ 1.650929, 43.489659 ], [ 1.648628, 43.490526 ], [ 1.646327, 43.491393 ], [ 1.653696, 43.493067 ], [ 1.654643, 43.492379 ], [ 1.655118, 43.491878 ], [ 1.660818, 43.485918 ], [ 1.661821, 43.483601 ], [ 1.661674, 43.483304 ], [ 1.661584, 43.483158 ], [ 1.659562, 43.482544 ], [ 1.659514, 43.482562 ], [ 1.652669, 43.485158 ], [ 1.650599, 43.485937 ], [ 1.642821, 43.482827 ] ] ], [ [ [ 1.665559, 43.414449 ], [ 1.665558794429162, 43.414448684212232 ], [ 1.665421554450387, 43.414538443060877 ], [ 1.665559, 43.414449 ] ] ], [ [ [ 1.645025296756727, 43.42112417256368 ], [ 1.647265520302323, 43.420138462388067 ], [ 1.649233891394823, 43.416838705454801 ], [ 1.645025296756727, 43.42112417256368 ] ] ], [ [ [ 1.62664, 43.42886 ], [ 1.625206, 43.42959 ], [ 1.62664022258219, 43.42886043725882 ], [ 1.62664, 43.42886 ] ] ], [ [ [ 1.613697, 43.436917 ], [ 1.613150049460747, 43.437390038304237 ], [ 1.614981961912928, 43.436100664177985 ], [ 1.613697, 43.436917 ] ] ], [ [ [ 1.563615, 43.447848 ], [ 1.563048, 43.447694 ], [ 1.562446, 43.447685 ], [ 1.557627, 43.446378 ], [ 1.54877, 43.447549 ], [ 1.548206, 43.447361 ], [ 1.547543, 43.447256 ], [ 1.546589, 43.447195 ], [ 1.546, 43.447198 ], [ 1.54538, 43.44725 ], [ 1.544688, 43.44735 ], [ 1.543971, 43.44749 ], [ 1.542842, 43.447768 ], [ 1.541904, 43.448031 ], [ 1.541080947222644, 43.452106461679918 ], [ 1.543439, 43.451003 ], [ 1.551478595913376, 43.450740244662292 ], [ 1.551982, 43.450257 ], [ 1.553023, 43.451193 ], [ 1.556604, 43.453068 ], [ 1.557217184908715, 43.45301827711603 ], [ 1.565128618978284, 43.451626644835862 ], [ 1.565695000947648, 43.451381878819276 ], [ 1.566009, 43.451193 ], [ 1.567742262276735, 43.451286175073378 ], [ 1.569484, 43.451248 ], [ 1.574235, 43.446454 ], [ 1.577834, 43.446408 ], [ 1.579904, 43.447321 ], [ 1.588778, 43.446336 ], [ 1.58964, 43.444201 ], [ 1.591346, 43.442778 ], [ 1.598449, 43.445737 ], [ 1.605584, 43.444576 ], [ 1.607459, 43.442913 ], [ 1.609074948592854, 43.441342282986604 ], [ 1.601077, 43.440424 ], [ 1.597636, 43.438868 ], [ 1.59578, 43.437603 ], [ 1.595577, 43.437662 ], [ 1.589106, 43.440691 ], [ 1.587579, 43.441847 ], [ 1.579313, 43.443552 ], [ 1.576458, 43.439034 ], [ 1.57291, 43.439643 ], [ 1.572238, 43.444639 ], [ 1.564132, 43.448114 ], [ 1.563615, 43.447848 ] ] ] ] } },
{ "type": "Feature", "properties": { "codgeo": "31254", "value": 1080, "isochrone_group": 18.0, "nb_agences": 2 }, "geometry": { "type": "MultiPolygon", "coordinates": [ [ [ [ 1.589106, 43.440691 ], [ 1.595577, 43.437662 ], [ 1.59578, 43.437603 ], [ 1.597636, 43.438868 ], [ 1.601077, 43.440424 ], [ 1.60580079393339, 43.440966361525675 ], [ 1.601405, 43.436092 ], [ 1.601389, 43.436011 ], [ 1.600895, 43.435582 ], [ 1.599477, 43.434647 ], [ 1.599078, 43.434357 ], [ 1.59907, 43.434355 ], [ 1.596562, 43.434722 ], [ 1.591417, 43.437033 ], [ 1.586434, 43.440592 ], [ 1.584497, 43.44242 ], [ 1.577494047394599, 43.440673531393607 ], [ 1.578659228173166, 43.442517414671237 ], [ 1.580645212637602, 43.443277208982934 ], [ 1.587579, 43.441847 ], [ 1.589106, 43.440691 ] ] ], [ [ [ 1.574039, 43.430935 ], [ 1.573471, 43.430735 ], [ 1.573185, 43.43068 ], [ 1.57186, 43.433589 ], [ 1.571825, 43.433686 ], [ 1.571274, 43.437137 ], [ 1.570755, 43.443173 ], [ 1.563615, 43.447848 ], [ 1.564132, 43.448114 ], [ 1.572238, 43.444639 ], [ 1.57291, 43.439643 ], [ 1.576458, 43.439034 ], [ 1.576733047929033, 43.439469259734992 ], [ 1.576838, 43.435559 ], [ 1.575098, 43.432015 ], [ 1.574631, 43.431351 ], [ 1.574039, 43.430935 ] ] ], [ [ [ 1.556942, 43.440085 ], [ 1.555571, 43.440537 ], [ 1.555299, 43.440705 ], [ 1.55447, 43.442702 ], [ 1.547543, 43.447256 ], [ 1.548206, 43.447361 ], [ 1.54877, 43.447549 ], [ 1.557627, 43.446378 ], [ 1.562446, 43.447685 ], [ 1.563048, 43.447694 ], [ 1.563615, 43.447848 ], [ 1.560713, 43.44474 ], [ 1.560291, 43.444083 ], [ 1.55871, 43.441683 ], [ 1.558033, 43.440472 ], [ 1.556942, 43.440085 ] ] ], [ [ [ 1.544688, 43.44735 ], [ 1.540373122231526, 43.447231707006331 ], [ 1.541743955221581, 43.448823484248237 ], [ 1.541904, 43.448031 ], [ 1.542842, 43.447768 ], [ 1.543971, 43.44749 ], [ 1.544688, 43.44735 ] ] ], [ [ [ 1.636987, 43.532979 ], [ 1.635123314618383, 43.530563582383998 ], [ 1.634608, 43.531512 ], [ 1.637028474001807, 43.534718904500934 ], [ 1.636987, 43.532979 ] ] ], [ [ [ 1.637095, 43.515257 ], [ 1.640279, 43.507981 ], [ 1.637978, 43.508876 ], [ 1.637611, 43.508983 ], [ 1.636706, 43.508986 ], [ 1.630076, 43.513777 ], [ 1.631957, 43.516846 ], [ 1.632648165789303, 43.518528110913586 ], [ 1.636844, 43.52039 ], [ 1.637405, 43.520243 ], [ 1.637716, 43.520206 ], [ 1.638254, 43.520163 ], [ 1.639092, 43.523664 ], [ 1.638839, 43.523725 ], [ 1.642195, 43.52308 ], [ 1.643385, 43.521457 ], [ 1.642768, 43.519526 ], [ 1.641391, 43.51846 ], [ 1.637095, 43.515257 ] ] ], [ [ [ 1.61086, 43.561566 ], [ 1.611194030521263, 43.561444450855234 ], [ 1.611, 43.561404 ], [ 1.610462626536301, 43.561458773603746 ], [ 1.61086, 43.561566 ] ] ], [ [ [ 1.653492, 43.493211 ], [ 1.6536923565537, 43.493066172326103 ], [ 1.646327, 43.491393 ], [ 1.641459555270109, 43.493222171725577 ], [ 1.641038, 43.500192 ], [ 1.643953, 43.503532 ], [ 1.643859, 43.507131 ], [ 1.640279, 43.507981 ], [ 1.644957, 43.509974 ], [ 1.645131, 43.509867 ], [ 1.645682, 43.509458 ], [ 1.64608, 43.509057 ], [ 1.650295, 43.506082 ], [ 1.651028, 43.50537 ], [ 1.651338, 43.504358 ], [ 1.651296, 43.503814 ], [ 1.651272, 43.503705 ], [ 1.650159, 43.495775 ], [ 1.651564, 43.494364 ], [ 1.653492, 43.493211 ] ] ], [ [ [ 1.652669, 43.485158 ], [ 1.659514, 43.482562 ], [ 1.659562, 43.482544 ], [ 1.661584, 43.483158 ], [ 1.661674, 43.483304 ], [ 1.661821, 43.483601 ], [ 1.660818, 43.485918 ], [ 1.655118, 43.491878 ], [ 1.654643, 43.492379 ], [ 1.661516, 43.491414 ], [ 1.667238, 43.489243 ], [ 1.667266, 43.488517 ], [ 1.66723, 43.488055 ], [ 1.66668, 43.486629 ], [ 1.664084, 43.480868 ], [ 1.659664, 43.477879 ], [ 1.657906, 43.477016 ], [ 1.654349, 43.47757 ], [ 1.65458, 43.479056 ], [ 1.650599, 43.485937 ], [ 1.652669, 43.485158 ] ] ], [ [ [ 1.633495, 43.445875 ], [ 1.632678, 43.44622 ], [ 1.631701, 43.446676 ], [ 1.630669, 43.447096 ], [ 1.629688, 43.447954 ], [ 1.624525, 43.449116 ], [ 1.620788, 43.444026 ], [ 1.620739, 43.443832 ], [ 1.620514, 43.443099 ], [ 1.623436, 43.434709 ], [ 1.621201, 43.436135 ], [ 1.619605594112265, 43.437345638577469 ], [ 1.617977209456414, 43.438651102938813 ], [ 1.617625, 43.446909 ], [ 1.625825, 43.449991 ], [ 1.629443, 43.448169 ], [ 1.629844, 43.447981 ], [ 1.630223, 43.447838 ], [ 1.630884, 43.448589 ], [ 1.631663, 43.450208 ], [ 1.631907, 43.450794 ], [ 1.630405, 43.45425 ], [ 1.629951, 43.455641 ], [ 1.624572, 43.462181 ], [ 1.62263, 43.465213 ], [ 1.623093, 43.472881 ], [ 1.629713, 43.475153 ], [ 1.631249, 43.476033 ], [ 1.637948, 43.481788 ], [ 1.638982988704098, 43.480692057897542 ], [ 1.635936, 43.474465 ], [ 1.63368, 43.471659 ], [ 1.633514, 43.465268 ], [ 1.6377, 43.459101 ], [ 1.637973, 43.456491 ], [ 1.637787, 43.456274 ], [ 1.638089, 43.447947 ], [ 1.640168, 43.446936 ], [ 1.638594, 43.443699 ], [ 1.636211, 43.444606 ], [ 1.634211, 43.445646 ], [ 1.633495, 43.445875 ] ] ], [ [ [ 1.647912, 43.423945 ], [ 1.647910630361043, 43.423941680146797 ], [ 1.646205, 43.424649 ], [ 1.647912, 43.423945 ] ] ], [ [ [ 1.678683, 43.401132 ], [ 1.680373199435027, 43.400248381184994 ], [ 1.680373, 43.400248 ], [ 1.678683, 43.401132 ] ] ], [ [ [ 1.670664321563735, 43.406357437194018 ], [ 1.670664321563736, 43.406357437194018 ], [ 1.671088, 43.406046 ], [ 1.670664321563735, 43.406357437194018 ] ] ], [ [ [ 1.640601, 43.403 ], [ 1.641573, 43.403945 ], [ 1.640604261289405, 43.40299664645898 ], [ 1.640601, 43.403 ] ] ], [ [ [ 1.649660708506188, 43.411800564082419 ], [ 1.649660708506189, 43.411800564082419 ], [ 1.649109, 43.410821 ], [ 1.649660708506188, 43.411800564082419 ] ] ], [ [ [ 1.644832, 43.421321 ], [ 1.641005, 43.422846 ], [ 1.643342079295482, 43.421921134504814 ], [ 1.644832, 43.421321 ] ] ], [ [ [ 1.598740687397032, 43.567342409768322 ], [ 1.598901173333444, 43.567518219278092 ], [ 1.598967883428582, 43.567211258524914 ], [ 1.598740687397032, 43.567342409768322 ] ] ] ] } },
{ "type": "Feature", "properties": { "codgeo": "31254", "value": 1140, "isochrone_group": 19.0, "nb_agences": 2 }, "geometry": { "type": "MultiPolygon", "coordinates": [ [ [ [ 1.580454, 43.43246 ], [ 1.57982, 43.432136 ], [ 1.573471, 43.430735 ], [ 1.574039, 43.430935 ], [ 1.574631, 43.431351 ], [ 1.575098, 43.432015 ], [ 1.576838, 43.435559 ], [ 1.576811969898774, 43.436528818468382 ], [ 1.579180980464011, 43.441094236175282 ], [ 1.584497, 43.44242 ], [ 1.586434, 43.440592 ], [ 1.591417, 43.437033 ], [ 1.596562, 43.434722 ], [ 1.59907, 43.434355 ], [ 1.599078, 43.434357 ], [ 1.599477, 43.434647 ], [ 1.600895, 43.435582 ], [ 1.601389, 43.436011 ], [ 1.601405, 43.436092 ], [ 1.605365032281342, 43.440483158749728 ], [ 1.609177, 43.441354 ], [ 1.614342, 43.436366 ], [ 1.614997, 43.435838 ], [ 1.615240977780348, 43.435680688062519 ], [ 1.615337, 43.435589 ], [ 1.617865989559361, 43.433974857452576 ], [ 1.61064, 43.433488 ], [ 1.609141, 43.430214 ], [ 1.60248, 43.430004 ], [ 1.598921, 43.429468 ], [ 1.597887, 43.429294 ], [ 1.594362, 43.430581 ], [ 1.591748, 43.432839 ], [ 1.588062, 43.436767 ], [ 1.581976, 43.433659 ], [ 1.580454, 43.43246 ] ] ], [ [ [ 1.570879365132107, 43.441726626324865 ], [ 1.571274, 43.437137 ], [ 1.57137485733966, 43.436505314556847 ], [ 1.57172, 43.433183 ], [ 1.572079136937964, 43.433107891054675 ], [ 1.573185, 43.43068 ], [ 1.573471, 43.430735 ], [ 1.566004, 43.428138 ], [ 1.563703, 43.427619 ], [ 1.562921, 43.427951 ], [ 1.562483, 43.428889 ], [ 1.562646, 43.429652 ], [ 1.562808, 43.430159 ], [ 1.563146, 43.430809 ], [ 1.563852, 43.431541 ], [ 1.564476, 43.431927 ], [ 1.56572, 43.432541 ], [ 1.569037, 43.438129 ], [ 1.57051, 43.441414 ], [ 1.570879365132107, 43.441726626324865 ] ] ], [ [ [ 1.5558, 43.436353 ], [ 1.552888, 43.434237 ], [ 1.551173, 43.434923 ], [ 1.548709, 43.437548 ], [ 1.543489593212524, 43.442047591888148 ], [ 1.546777, 43.443504 ], [ 1.553280005318613, 43.443484335178134 ], [ 1.55447, 43.442702 ], [ 1.555299, 43.440705 ], [ 1.555571, 43.440537 ], [ 1.556942, 43.440085 ], [ 1.557669446613443, 43.440343040182761 ], [ 1.5558, 43.436353 ] ] ], [ [ [ 1.648935, 43.513155 ], [ 1.651028, 43.50537 ], [ 1.650295, 43.506082 ], [ 1.64608, 43.509057 ], [ 1.645682, 43.509458 ], [ 1.645131, 43.509867 ], [ 1.644957, 43.509974 ], [ 1.641952510763795, 43.508693977116778 ], [ 1.643229, 43.516126 ], [ 1.644917, 43.516761 ], [ 1.645758, 43.516865 ], [ 1.64667, 43.517184 ], [ 1.646637, 43.51729 ], [ 1.646069, 43.520856 ], [ 1.644113, 43.523879 ], [ 1.638871, 43.529989 ], [ 1.63879, 43.531256 ], [ 1.639832443557546, 43.537306845101035 ], [ 1.646925975597161, 43.538681059532834 ], [ 1.641161, 43.532722 ], [ 1.645531, 43.525157 ], [ 1.648132, 43.522667 ], [ 1.647533, 43.518382 ], [ 1.648935, 43.513155 ] ] ], [ [ [ 1.668119, 43.478929 ], [ 1.664678, 43.477539 ], [ 1.659276, 43.474408 ], [ 1.657494, 43.47128 ], [ 1.655825, 43.470055 ], [ 1.65505, 43.469594 ], [ 1.654719, 43.469449 ], [ 1.653848, 43.469431 ], [ 1.6534, 43.4697 ], [ 1.653276, 43.472747 ], [ 1.65383, 43.475275 ], [ 1.651794, 43.481591 ], [ 1.647286869064608, 43.483297897078927 ], [ 1.65131951990383, 43.484691610033089 ], [ 1.65458, 43.479056 ], [ 1.654349, 43.47757 ], [ 1.657906, 43.477016 ], [ 1.659664, 43.477879 ], [ 1.664084, 43.480868 ], [ 1.66668, 43.486629 ], [ 1.66723, 43.488055 ], [ 1.667266, 43.488517 ], [ 1.667238, 43.489243 ], [ 1.661516, 43.491414 ], [ 1.654643, 43.492379 ], [ 1.653492, 43.493211 ], [ 1.651347866381254, 43.494581056609292 ], [ 1.650159, 43.495775 ], [ 1.651272, 43.503705 ], [ 1.651296, 43.503814 ], [ 1.651338, 43.504358 ], [ 1.651028, 43.50537 ], [ 1.652823, 43.50342 ], [ 1.657083, 43.501041 ], [ 1.66017, 43.494624 ], [ 1.666109, 43.494824 ], [ 1.670423, 43.495807 ], [ 1.671203, 43.494582 ], [ 1.671025, 43.4934 ], [ 1.671969, 43.48506 ], [ 1.672303, 43.483638 ], [ 1.672586, 43.481438 ], [ 1.672543, 43.481192 ], [ 1.67231, 43.480038 ], [ 1.668119, 43.478929 ] ] ], [ [ [ 1.640007, 43.441754 ], [ 1.636986580291903, 43.444310804311897 ], [ 1.638594, 43.443699 ], [ 1.640168, 43.446936 ], [ 1.638089, 43.447947 ], [ 1.637787, 43.456274 ], [ 1.637973, 43.456491 ], [ 1.6377, 43.459101 ], [ 1.633514, 43.465268 ], [ 1.63368, 43.471659 ], [ 1.635936, 43.474465 ], [ 1.637744979136768, 43.47816196737142 ], [ 1.640731371125821, 43.478612705246682 ], [ 1.639004, 43.475129 ], [ 1.642071, 43.469741 ], [ 1.643279, 43.46635 ], [ 1.644139, 43.458887 ], [ 1.647191, 43.455733 ], [ 1.646518, 43.45372 ], [ 1.645858, 43.452389 ], [ 1.64756, 43.444447 ], [ 1.651291, 43.441477 ], [ 1.649703, 43.438246 ], [ 1.647185, 43.439484 ], [ 1.642676, 43.439338 ], [ 1.640007, 43.441754 ] ] ], [ [ [ 1.624525, 43.449116 ], [ 1.629688, 43.447954 ], [ 1.630669, 43.447096 ], [ 1.631701, 43.446676 ], [ 1.628007, 43.447249 ], [ 1.626239, 43.447388 ], [ 1.620739, 43.443832 ], [ 1.620788, 43.444026 ], [ 1.624525, 43.449116 ] ] ], [ [ [ 1.620665476018124, 43.44266406372617 ], [ 1.620514, 43.443099 ], [ 1.620739, 43.443832 ], [ 1.620665476018124, 43.44266406372617 ] ] ], [ [ [ 1.69739, 43.392533 ], [ 1.699225, 43.391955 ], [ 1.699867047190151, 43.391774167363231 ], [ 1.699867, 43.391774 ], [ 1.691605, 43.393666 ], [ 1.69091, 43.393946 ], [ 1.690426, 43.394311 ], [ 1.690395, 43.394336 ], [ 1.69739, 43.392533 ] ] ], [ [ [ 1.680373199435027, 43.400248381184994 ], [ 1.680373199435027, 43.400248381184994 ], [ 1.680504, 43.40018 ], [ 1.680373199435027, 43.400248381184994 ] ] ], [ [ [ 1.700844, 43.395239 ], [ 1.700843952543568, 43.395238831692367 ], [ 1.693745, 43.397815 ], [ 1.700844, 43.395239 ] ] ], [ [ [ 1.628737, 43.387028 ], [ 1.628736771547736, 43.387028377688132 ], [ 1.629774, 43.387656 ], [ 1.628737, 43.387028 ] ] ], [ [ [ 1.627911, 43.390736 ], [ 1.626908, 43.390128 ], [ 1.626893714758028, 43.390119939120588 ], [ 1.627911, 43.390736 ] ] ], [ [ [ 1.635872730599768, 43.397339487289827 ], [ 1.635872730599743, 43.397339487289791 ], [ 1.635102, 43.396506 ], [ 1.635872730599768, 43.397339487289827 ] ] ], [ [ [ 1.638529, 43.394909 ], [ 1.63859431366564, 43.394984591450587 ], [ 1.63859431366564, 43.394984591450587 ], [ 1.638529, 43.394909 ] ] ], [ [ [ 1.640186800759458, 43.423175458555548 ], [ 1.640186800766006, 43.423175458552898 ], [ 1.641005, 43.422846 ], [ 1.640186800759458, 43.423175458555548 ] ] ], [ [ [ 1.640974004808042, 43.426738908653697 ], [ 1.640974004807541, 43.42673890865391 ], [ 1.640974004807355, 43.426738908654009 ], [ 1.642296, 43.426207 ], [ 1.640974004808042, 43.426738908653697 ] ] ] ] } },
{ "type": "Feature", "properties": { "codgeo": "31254", "value": 1200, "isochrone_group": 20.0, "nb_agences": 2 }, "geometry": { "type": "MultiPolygon", "coordinates": [ [ [ [ 1.602956, 43.421972 ], [ 1.602709, 43.421631 ], [ 1.599797, 43.423748 ], [ 1.591403, 43.42674 ], [ 1.591334, 43.426773 ], [ 1.590976, 43.427052 ], [ 1.587494, 43.430806 ], [ 1.57982, 43.432136 ], [ 1.580454, 43.43246 ], [ 1.581976, 43.433659 ], [ 1.588062, 43.436767 ], [ 1.591748, 43.432839 ], [ 1.594362, 43.430581 ], [ 1.597887, 43.429294 ], [ 1.598921, 43.429468 ], [ 1.60248, 43.430004 ], [ 1.609141, 43.430214 ], [ 1.61064, 43.433488 ], [ 1.617918817923873, 43.433978416810461 ], [ 1.619901, 43.432676 ], [ 1.62163, 43.431595 ], [ 1.623697, 43.430397 ], [ 1.625172, 43.429608 ], [ 1.625172076081047, 43.429608142215102 ], [ 1.625206, 43.42959 ], [ 1.626761, 43.428799 ], [ 1.628079, 43.428174 ], [ 1.629671, 43.427458 ], [ 1.62345, 43.423737 ], [ 1.615918, 43.425414 ], [ 1.611923, 43.427438 ], [ 1.604559, 43.424942 ], [ 1.603734, 43.423428 ], [ 1.603316, 43.422597 ], [ 1.602956, 43.421972 ] ] ], [ [ [ 1.548538130778027, 43.437695304434463 ], [ 1.548709, 43.437548 ], [ 1.551173, 43.434923 ], [ 1.552888, 43.434237 ], [ 1.5558, 43.436353 ], [ 1.557847, 43.440722 ], [ 1.558303, 43.441094 ], [ 1.55871, 43.441683 ], [ 1.559823, 43.443587 ], [ 1.560291, 43.444083 ], [ 1.560713, 43.44474 ], [ 1.563615, 43.447848 ], [ 1.564132, 43.448114 ], [ 1.564597, 43.448443 ], [ 1.565197, 43.448994 ], [ 1.565233, 43.449037 ], [ 1.569299, 43.450936 ], [ 1.573791, 43.444191 ], [ 1.57051, 43.441414 ], [ 1.569037, 43.438129 ], [ 1.56572, 43.432541 ], [ 1.564476, 43.431927 ], [ 1.563852, 43.431541 ], [ 1.563146, 43.430809 ], [ 1.562957, 43.43048 ], [ 1.562970799031167, 43.430472075059932 ], [ 1.562808, 43.430159 ], [ 1.562646, 43.429652 ], [ 1.562483, 43.428889 ], [ 1.562921, 43.427951 ], [ 1.563703, 43.427619 ], [ 1.566004, 43.428138 ], [ 1.57085886419636, 43.4298265070735 ], [ 1.567249, 43.422309 ], [ 1.56558, 43.421811 ], [ 1.564546537622401, 43.4215410014911 ], [ 1.564345, 43.422005 ], [ 1.562790058621136, 43.422262418341241 ], [ 1.5617, 43.423276 ], [ 1.558898, 43.429719 ], [ 1.555591, 43.430934 ], [ 1.547649, 43.430953 ], [ 1.547126, 43.431017 ], [ 1.546246, 43.43128 ], [ 1.546173831594426, 43.431301150706695 ], [ 1.544643, 43.432987 ], [ 1.544242, 43.435656 ], [ 1.544138, 43.435739 ], [ 1.543931, 43.435832 ], [ 1.542946, 43.436162 ], [ 1.541396, 43.436314 ], [ 1.540880899151981, 43.436096325324691 ], [ 1.540331231963437, 43.441367775410825 ], [ 1.543003, 43.438712 ], [ 1.548538130778027, 43.437695304434463 ] ] ], [ [ [ 1.648787, 43.524082 ], [ 1.648755, 43.524721 ], [ 1.648653, 43.525366 ], [ 1.651178, 43.532452 ], [ 1.653648783170015, 43.533597402848869 ], [ 1.655142877269403, 43.533583277591738 ], [ 1.650465, 43.527883 ], [ 1.650275, 43.524288 ], [ 1.653132, 43.515783 ], [ 1.64867, 43.523533 ], [ 1.648787, 43.524082 ] ] ], [ [ [ 1.657853, 43.515336 ], [ 1.658497, 43.515271 ], [ 1.659246, 43.512673 ], [ 1.658442, 43.51187 ], [ 1.658134, 43.511689 ], [ 1.65749, 43.511754 ], [ 1.656434, 43.511842 ], [ 1.654653, 43.511834 ], [ 1.652809213870517, 43.50495437830746 ], [ 1.652746, 43.51199 ], [ 1.654286, 43.515244 ], [ 1.653414, 43.515657 ], [ 1.653132, 43.515783 ], [ 1.654873, 43.515535 ], [ 1.655463, 43.515552 ], [ 1.655976, 43.515526 ], [ 1.656735, 43.51543 ], [ 1.657853, 43.515336 ] ] ], [ [ [ 1.660563193217232, 43.494637241058015 ], [ 1.664043, 43.496489 ], [ 1.664303, 43.496764 ], [ 1.668531, 43.499121 ], [ 1.670009, 43.500988 ], [ 1.673397, 43.501434 ], [ 1.675034, 43.498897 ], [ 1.673373, 43.495703 ], [ 1.67110620823124, 43.492682545923145 ], [ 1.671025, 43.4934 ], [ 1.671203, 43.494582 ], [ 1.670423, 43.495807 ], [ 1.666109, 43.494824 ], [ 1.660563193217232, 43.494637241058015 ] ] ], [ [ [ 1.65021, 43.454798 ], [ 1.65308, 43.454149 ], [ 1.655545, 43.453739 ], [ 1.654955, 43.450188 ], [ 1.654887, 43.44225 ], [ 1.65773, 43.440042 ], [ 1.661451, 43.437337 ], [ 1.660184, 43.433968 ], [ 1.657422, 43.435006 ], [ 1.650668, 43.434194 ], [ 1.648587, 43.437131 ], [ 1.641669, 43.438568 ], [ 1.641119, 43.438437 ], [ 1.640624, 43.438451 ], [ 1.63848, 43.438345 ], [ 1.635532, 43.440411 ], [ 1.629789005597275, 43.446972581698098 ], [ 1.631701, 43.446676 ], [ 1.632678, 43.44622 ], [ 1.633495, 43.445875 ], [ 1.634211, 43.445646 ], [ 1.635126, 43.445313 ], [ 1.636515, 43.44471 ], [ 1.640007, 43.441754 ], [ 1.642676, 43.439338 ], [ 1.647185, 43.439484 ], [ 1.649703, 43.438246 ], [ 1.651291, 43.441477 ], [ 1.64756, 43.444447 ], [ 1.645858, 43.452389 ], [ 1.646518, 43.45372 ], [ 1.647191, 43.455733 ], [ 1.644139, 43.458887 ], [ 1.643279, 43.46635 ], [ 1.642071, 43.469741 ], [ 1.639004, 43.475129 ], [ 1.641170529114341, 43.479498384627242 ], [ 1.642242, 43.4798 ], [ 1.64366, 43.483109 ], [ 1.645647162255421, 43.483918870998451 ], [ 1.651794, 43.481591 ], [ 1.65383, 43.475275 ], [ 1.653276, 43.472747 ], [ 1.6534, 43.4697 ], [ 1.653848, 43.469431 ], [ 1.654719, 43.469449 ], [ 1.65505, 43.469594 ], [ 1.655825, 43.470055 ], [ 1.657494, 43.47128 ], [ 1.659276, 43.474408 ], [ 1.664678, 43.477539 ], [ 1.668119, 43.478929 ], [ 1.67231, 43.480038 ], [ 1.672543, 43.481192 ], [ 1.672586, 43.481438 ], [ 1.672303, 43.483638 ], [ 1.671969, 43.48506 ], [ 1.671714603354257, 43.487307529688039 ], [ 1.677832, 43.483638 ], [ 1.681174, 43.483826 ], [ 1.682452, 43.483518 ], [ 1.6846, 43.483132 ], [ 1.683964, 43.479589 ], [ 1.678895, 43.47785 ], [ 1.671644, 43.473918 ], [ 1.668059, 43.473592 ], [ 1.662909, 43.468903 ], [ 1.659341, 43.468426 ], [ 1.651435, 43.467033 ], [ 1.64686, 43.461598 ], [ 1.65021, 43.454798 ] ] ], [ [ [ 1.628308, 43.447199 ], [ 1.626239, 43.447388 ], [ 1.628007, 43.447249 ], [ 1.628394531643909, 43.447188887484593 ], [ 1.628308, 43.447199 ] ] ], [ [ [ 1.621018755807571, 43.439152706069997 ], [ 1.620504, 43.440099 ], [ 1.620739, 43.443832 ], [ 1.621018755807571, 43.439152706069997 ] ] ], [ [ [ 1.625337900609437, 43.433641742436123 ], [ 1.623436, 43.434709 ], [ 1.621424615055549, 43.438406600562949 ], [ 1.625337900609437, 43.433641742436123 ] ] ], [ [ [ 1.686306, 43.401362 ], [ 1.684049, 43.402445 ], [ 1.685975, 43.401521 ], [ 1.686458988387318, 43.401288554902251 ], [ 1.686306, 43.401362 ] ] ], [ [ [ 1.711268570609568, 43.38951365168711 ], [ 1.711922, 43.389446 ], [ 1.718934, 43.388475 ], [ 1.711268570609568, 43.38951365168711 ] ] ], [ [ [ 1.641066444707593, 43.397974451664979 ], [ 1.642323, 43.399532 ], [ 1.645796, 43.402778 ], [ 1.641066444707593, 43.397974451664979 ] ] ], [ [ [ 1.63981, 43.396415 ], [ 1.639809443058578, 43.396415449050167 ], [ 1.640937, 43.397814 ], [ 1.641007561697988, 43.397901463922892 ], [ 1.63981, 43.396415 ] ] ], [ [ [ 1.608125, 43.379324 ], [ 1.608754, 43.380033 ], [ 1.608125575994864, 43.379323489026454 ], [ 1.608125, 43.379324 ] ] ], [ [ [ 1.623096, 43.382439 ], [ 1.62303852463965, 43.38242440146265 ], [ 1.623299, 43.382582 ], [ 1.623096, 43.382439 ] ] ], [ [ [ 1.638135, 43.400073 ], [ 1.637007956568846, 43.398674228738635 ], [ 1.637007, 43.398675 ], [ 1.638199724009944, 43.400153332543752 ], [ 1.638135, 43.400073 ] ] ] ] } }
]
}
