{
"type": "FeatureCollection",
"name": "La_Banque_Postale",
"crs": { "type": "name", "properties": { "name": "urn:ogc:def:crs:OGC:1.3:CRS84" } },
"features": [
{ "type": "Feature", "properties": { "codgeo": "30344", "value": 60, "isochrone_group": 1.0, "nb_agences": 1 }, "geometry": { "type": "Polygon", "coordinates": [ [ [ 4.219711, 43.741707 ], [ 4.220971, 43.740298 ], [ 4.224223, 43.740931 ], [ 4.22466, 43.741002 ], [ 4.224914, 43.741123 ], [ 4.225087, 43.74125 ], [ 4.225261, 43.741377 ], [ 4.225355, 43.742765 ], [ 4.224732, 43.743144 ], [ 4.224463, 43.743303 ], [ 4.224193, 43.743462 ], [ 4.220559, 43.743082 ], [ 4.220076, 43.742944 ], [ 4.21969, 43.742066 ], [ 4.219711, 43.741707 ] ] ] } },
{ "type": "Feature", "properties": { "codgeo": "30344", "value": 120, "isochrone_group": 2.0, "nb_agences": 1 }, "geometry": { "type": "Polygon", "coordinates": [ [ [ 4.220474, 43.740167 ], [ 4.219909, 43.740003 ], [ 4.219308, 43.739832 ], [ 4.218405, 43.739528 ], [ 4.217231, 43.74109 ], [ 4.2172, 43.741449 ], [ 4.217948, 43.743574 ], [ 4.218148, 43.743853 ], [ 4.218586, 43.744147 ], [ 4.218907, 43.74431 ], [ 4.222657, 43.745304 ], [ 4.227396, 43.74519 ], [ 4.227609, 43.744551 ], [ 4.227686, 43.7442 ], [ 4.228306, 43.74139 ], [ 4.228588, 43.739604 ], [ 4.228454, 43.73927 ], [ 4.228098, 43.739413 ], [ 4.227386, 43.739675 ], [ 4.227019, 43.739797 ], [ 4.221210815140146, 43.740344679884295 ], [ 4.224223, 43.740931 ], [ 4.22466, 43.741002 ], [ 4.224914, 43.741123 ], [ 4.225087, 43.74125 ], [ 4.225261, 43.741377 ], [ 4.225355, 43.742765 ], [ 4.224732, 43.743144 ], [ 4.224463, 43.743303 ], [ 4.224193, 43.743462 ], [ 4.220559, 43.743082 ], [ 4.220076, 43.742944 ], [ 4.21969, 43.742066 ], [ 4.219711, 43.741707 ], [ 4.220971, 43.740298 ], [ 4.220972410608526, 43.740298274574165 ], [ 4.220474, 43.740167 ] ] ] } },
{ "type": "Feature", "properties": { "codgeo": "30344", "value": 180, "isochrone_group": 3.0, "nb_agences": 1 }, "geometry": { "type": "Polygon", "coordinates": [ [ [ 4.213417, 43.744276 ], [ 4.215292, 43.746417 ], [ 4.216039, 43.746888 ], [ 4.216471, 43.747118 ], [ 4.216733, 43.747233 ], [ 4.22546, 43.74825 ], [ 4.227387, 43.748861 ], [ 4.231005, 43.747791 ], [ 4.231163, 43.747645 ], [ 4.234017, 43.741826 ], [ 4.234381, 43.74074 ], [ 4.23559, 43.736863 ], [ 4.235655, 43.736509 ], [ 4.235449, 43.735205 ], [ 4.235118, 43.735063 ], [ 4.230485, 43.735745 ], [ 4.224511, 43.739727 ], [ 4.219084, 43.736789 ], [ 4.218834, 43.73653 ], [ 4.215358, 43.738574 ], [ 4.215068, 43.738787 ], [ 4.213487, 43.743923 ], [ 4.213417, 43.744276 ] ], [ [ 4.217231, 43.74109 ], [ 4.218405, 43.739528 ], [ 4.219308, 43.739832 ], [ 4.219909, 43.740003 ], [ 4.220474, 43.740167 ], [ 4.221165, 43.740349 ], [ 4.227019, 43.739797 ], [ 4.227386, 43.739675 ], [ 4.228098, 43.739413 ], [ 4.228454, 43.73927 ], [ 4.228588, 43.739604 ], [ 4.228306, 43.74139 ], [ 4.227686, 43.7442 ], [ 4.227609, 43.744551 ], [ 4.227396, 43.74519 ], [ 4.222657, 43.745304 ], [ 4.218907, 43.74431 ], [ 4.218586, 43.744147 ], [ 4.218148, 43.743853 ], [ 4.217948, 43.743574 ], [ 4.2172, 43.741449 ], [ 4.217231, 43.74109 ] ] ] } },
{ "type": "Feature", "properties": { "codgeo": "30344", "value": 240, "isochrone_group": 4.0, "nb_agences": 1 }, "geometry": { "type": "Polygon", "coordinates": [ [ [ 4.209099, 43.744857 ], [ 4.213308, 43.747377 ], [ 4.214654, 43.747942 ], [ 4.221835, 43.749567 ], [ 4.225195, 43.750519 ], [ 4.22578, 43.750483 ], [ 4.226126, 43.750442 ], [ 4.22643, 43.750401 ], [ 4.234055, 43.749239 ], [ 4.233795, 43.747857 ], [ 4.238351, 43.741073 ], [ 4.238653, 43.740976 ], [ 4.239159, 43.740835 ], [ 4.239983, 43.740635 ], [ 4.242735, 43.739562 ], [ 4.242917, 43.739252 ], [ 4.241356, 43.735745 ], [ 4.238965, 43.730329 ], [ 4.23869, 43.730096 ], [ 4.231681, 43.729161 ], [ 4.225437, 43.728985 ], [ 4.219453, 43.731886 ], [ 4.21896, 43.732382 ], [ 4.217274, 43.734138 ], [ 4.214653, 43.737686 ], [ 4.209294, 43.743511 ], [ 4.209099, 43.744857 ] ], [ [ 4.215068, 43.738787 ], [ 4.215358, 43.738574 ], [ 4.218834, 43.73653 ], [ 4.219084, 43.736789 ], [ 4.224511, 43.739727 ], [ 4.230485, 43.735745 ], [ 4.235118, 43.735063 ], [ 4.235449, 43.735205 ], [ 4.235655, 43.736509 ], [ 4.23559, 43.736863 ], [ 4.234381, 43.74074 ], [ 4.234017, 43.741826 ], [ 4.231163, 43.747645 ], [ 4.231005, 43.747791 ], [ 4.227387, 43.748861 ], [ 4.22546, 43.74825 ], [ 4.216733, 43.747233 ], [ 4.216471, 43.747118 ], [ 4.216039, 43.746888 ], [ 4.215292, 43.746417 ], [ 4.213417, 43.744276 ], [ 4.213487, 43.743923 ], [ 4.215068, 43.738787 ] ] ] } },
{ "type": "Feature", "properties": { "codgeo": "30344", "value": 300, "isochrone_group": 5.0, "nb_agences": 1 }, "geometry": { "type": "MultiPolygon", "coordinates": [ [ [ [ 4.236237, 43.746739 ], [ 4.243566, 43.743629 ], [ 4.246769, 43.744373 ], [ 4.252414, 43.746173 ], [ 4.252636, 43.74589 ], [ 4.250811, 43.741789 ], [ 4.24749, 43.738291 ], [ 4.246912, 43.737535 ], [ 4.24446, 43.734755 ], [ 4.24432, 43.726372 ], [ 4.244294, 43.726013 ], [ 4.244113, 43.726026 ], [ 4.243931, 43.726039 ], [ 4.243737, 43.726069 ], [ 4.243558, 43.726097 ], [ 4.242207, 43.726573 ], [ 4.241982, 43.726673 ], [ 4.241746, 43.726813 ], [ 4.233067, 43.726655 ], [ 4.23163, 43.72541 ], [ 4.230194, 43.723715 ], [ 4.227932, 43.722969 ], [ 4.227697, 43.723243 ], [ 4.222533, 43.726373 ], [ 4.218751, 43.7265 ], [ 4.213524, 43.731408 ], [ 4.21114, 43.733817 ], [ 4.209252, 43.736333 ], [ 4.202445, 43.740988 ], [ 4.200592, 43.742559 ], [ 4.200721, 43.743498 ], [ 4.200758, 43.743676 ], [ 4.2052, 43.746645 ], [ 4.205845, 43.753166 ], [ 4.20614, 43.753373 ], [ 4.209465, 43.750751 ], [ 4.214654, 43.747942 ], [ 4.213308, 43.747377 ], [ 4.209099, 43.744857 ], [ 4.209294, 43.743511 ], [ 4.214653, 43.737686 ], [ 4.217274, 43.734138 ], [ 4.21896, 43.732382 ], [ 4.219453, 43.731886 ], [ 4.225437, 43.728985 ], [ 4.231681, 43.729161 ], [ 4.23869, 43.730096 ], [ 4.238965, 43.730329 ], [ 4.241356, 43.735745 ], [ 4.242917, 43.739252 ], [ 4.242735, 43.739562 ], [ 4.239983, 43.740635 ], [ 4.239159, 43.740835 ], [ 4.238653, 43.740976 ], [ 4.238351, 43.741073 ], [ 4.233795, 43.747857 ], [ 4.234055, 43.749239 ], [ 4.236237, 43.746739 ] ] ], [ [ [ 4.220697, 43.75075 ], [ 4.221458, 43.751498 ], [ 4.221851, 43.751812 ], [ 4.22221, 43.751782 ], [ 4.225691571832374, 43.750488441733395 ], [ 4.225195, 43.750519 ], [ 4.221835, 43.749567 ], [ 4.214654, 43.747942 ], [ 4.220697, 43.75075 ] ] ] ] } },
{ "type": "Feature", "properties": { "codgeo": "30344", "value": 360, "isochrone_group": 6.0, "nb_agences": 1 }, "geometry": { "type": "MultiPolygon", "coordinates": [ [ [ [ 4.249315, 43.734073 ], [ 4.253691, 43.726693 ], [ 4.252909, 43.723179 ], [ 4.249248, 43.723498 ], [ 4.242965, 43.722453 ], [ 4.241514, 43.722061 ], [ 4.237206, 43.722463 ], [ 4.235605, 43.722482 ], [ 4.231974, 43.721271 ], [ 4.229054, 43.715668 ], [ 4.225609, 43.714623 ], [ 4.221419, 43.714795 ], [ 4.218607, 43.717042 ], [ 4.21177, 43.72024 ], [ 4.209147, 43.719214 ], [ 4.206916, 43.718175 ], [ 4.206098, 43.717724 ], [ 4.204885, 43.718369 ], [ 4.204788, 43.718464 ], [ 4.204509, 43.719005 ], [ 4.204478, 43.719069 ], [ 4.20436, 43.720877 ], [ 4.205177, 43.721327 ], [ 4.208747, 43.727253 ], [ 4.202911, 43.732367 ], [ 4.202286, 43.73241 ], [ 4.195602, 43.737126 ], [ 4.195386, 43.737195 ], [ 4.195353, 43.737206 ], [ 4.194573, 43.737469 ], [ 4.194173, 43.739312 ], [ 4.19558, 43.745094 ], [ 4.196174, 43.745202 ], [ 4.198212, 43.745829 ], [ 4.201596, 43.752743 ], [ 4.201228, 43.760146 ], [ 4.201085, 43.760536 ], [ 4.202482, 43.762027 ], [ 4.202663, 43.76216 ], [ 4.204516, 43.761809 ], [ 4.206808, 43.759033 ], [ 4.210934, 43.754834 ], [ 4.21428, 43.752786 ], [ 4.220075, 43.755435 ], [ 4.223723, 43.755256 ], [ 4.227688, 43.754235 ], [ 4.232704, 43.749298 ], [ 4.226406, 43.750223 ], [ 4.22221, 43.751782 ], [ 4.221851, 43.751812 ], [ 4.221458, 43.751498 ], [ 4.220697, 43.75075 ], [ 4.214654, 43.747942 ], [ 4.209465, 43.750751 ], [ 4.20614, 43.753373 ], [ 4.205845, 43.753166 ], [ 4.2052, 43.746645 ], [ 4.200758, 43.743676 ], [ 4.200721, 43.743498 ], [ 4.200592, 43.742559 ], [ 4.202445, 43.740988 ], [ 4.209252, 43.736333 ], [ 4.21114, 43.733817 ], [ 4.213524, 43.731408 ], [ 4.218751, 43.7265 ], [ 4.222533, 43.726373 ], [ 4.227697, 43.723243 ], [ 4.227932, 43.722969 ], [ 4.230194, 43.723715 ], [ 4.23163, 43.72541 ], [ 4.233067, 43.726655 ], [ 4.241746, 43.726813 ], [ 4.241982, 43.726673 ], [ 4.242207, 43.726573 ], [ 4.243558, 43.726097 ], [ 4.243737, 43.726069 ], [ 4.243931, 43.726039 ], [ 4.244113, 43.726026 ], [ 4.244294, 43.726013 ], [ 4.24432, 43.726372 ], [ 4.24446, 43.734755 ], [ 4.246912, 43.737535 ], [ 4.24749, 43.738291 ], [ 4.250811, 43.741789 ], [ 4.250868919724154, 43.741919152760964 ], [ 4.254636, 43.742406 ], [ 4.255953626784644, 43.741905129206977 ], [ 4.253766, 43.737392 ], [ 4.249315, 43.734073 ] ] ], [ [ [ 4.237216, 43.748346 ], [ 4.237838, 43.74833 ], [ 4.239305, 43.748288 ], [ 4.243576, 43.747091 ], [ 4.249073408488242, 43.747551717484704 ], [ 4.248329, 43.746375 ], [ 4.247024619996475, 43.744454508590543 ], [ 4.246769, 43.744373 ], [ 4.243566, 43.743629 ], [ 4.236237, 43.746739 ], [ 4.234296832190775, 43.748961923704442 ], [ 4.237216, 43.748346 ] ] ] ] } },
{ "type": "Feature", "properties": { "codgeo": "30344", "value": 420, "isochrone_group": 7.0, "nb_agences": 1 }, "geometry": { "type": "MultiPolygon", "coordinates": [ [ [ [ 4.250778, 43.732422 ], [ 4.256925, 43.728452 ], [ 4.257411, 43.728583 ], [ 4.258169, 43.728702 ], [ 4.259613549144342, 43.723060794675696 ], [ 4.258682, 43.723651 ], [ 4.258308, 43.72393 ], [ 4.257071, 43.724688 ], [ 4.255191, 43.721617 ], [ 4.255983663328061, 43.720752011246873 ], [ 4.25439, 43.721595 ], [ 4.246715, 43.719597 ], [ 4.245425, 43.71838 ], [ 4.245072, 43.718268 ], [ 4.24394, 43.718313 ], [ 4.242482, 43.718445 ], [ 4.237483, 43.721381 ], [ 4.23074, 43.715851 ], [ 4.231201, 43.711856 ], [ 4.231267, 43.711684 ], [ 4.231497, 43.709006 ], [ 4.230922, 43.708267 ], [ 4.228052, 43.707963 ], [ 4.225159, 43.710072 ], [ 4.218808, 43.708869 ], [ 4.217117, 43.707918 ], [ 4.215888, 43.707376 ], [ 4.215428, 43.707229 ], [ 4.213562, 43.707712 ], [ 4.213505, 43.708077 ], [ 4.213601, 43.709005 ], [ 4.206968, 43.714106 ], [ 4.20482, 43.712577 ], [ 4.204737, 43.712495 ], [ 4.196959, 43.708412 ], [ 4.194335, 43.710878 ], [ 4.195861, 43.713366 ], [ 4.197408, 43.71519 ], [ 4.200568, 43.720811 ], [ 4.197719, 43.727533 ], [ 4.196944, 43.729692 ], [ 4.196363, 43.730867 ], [ 4.195337, 43.733013 ], [ 4.188176, 43.737912 ], [ 4.187357, 43.737826 ], [ 4.187157, 43.737819 ], [ 4.187036, 43.741417 ], [ 4.191748, 43.744569 ], [ 4.195268, 43.749062 ], [ 4.196203, 43.755696 ], [ 4.196355, 43.758013 ], [ 4.197937, 43.761756 ], [ 4.198632, 43.769636 ], [ 4.201985, 43.770946 ], [ 4.202321, 43.770088 ], [ 4.202557, 43.769355 ], [ 4.202651, 43.76895 ], [ 4.205036, 43.764911 ], [ 4.210143, 43.763018 ], [ 4.210353, 43.759424 ], [ 4.21317, 43.754922 ], [ 4.218915, 43.756413 ], [ 4.219922, 43.758468 ], [ 4.221441, 43.758979 ], [ 4.22365, 43.758513 ], [ 4.227691, 43.757367 ], [ 4.229795, 43.755922 ], [ 4.23207, 43.752175 ], [ 4.236527837265317, 43.748491197456431 ], [ 4.232704, 43.749298 ], [ 4.227688, 43.754235 ], [ 4.223723, 43.755256 ], [ 4.220075, 43.755435 ], [ 4.21428, 43.752786 ], [ 4.210934, 43.754834 ], [ 4.206808, 43.759033 ], [ 4.204516, 43.761809 ], [ 4.202663, 43.76216 ], [ 4.202482, 43.762027 ], [ 4.201085, 43.760536 ], [ 4.201228, 43.760146 ], [ 4.201596, 43.752743 ], [ 4.198212, 43.745829 ], [ 4.196174, 43.745202 ], [ 4.19558, 43.745094 ], [ 4.194173, 43.739312 ], [ 4.194573, 43.737469 ], [ 4.195353, 43.737206 ], [ 4.195386, 43.737195 ], [ 4.195602, 43.737126 ], [ 4.202286, 43.73241 ], [ 4.202911, 43.732367 ], [ 4.208747, 43.727253 ], [ 4.205177, 43.721327 ], [ 4.20436, 43.720877 ], [ 4.204478, 43.719069 ], [ 4.204509, 43.719005 ], [ 4.204788, 43.718464 ], [ 4.204885, 43.718369 ], [ 4.206098, 43.717724 ], [ 4.206916, 43.718175 ], [ 4.209147, 43.719214 ], [ 4.21177, 43.72024 ], [ 4.218607, 43.717042 ], [ 4.221419, 43.714795 ], [ 4.225609, 43.714623 ], [ 4.229054, 43.715668 ], [ 4.231974, 43.721271 ], [ 4.235605, 43.722482 ], [ 4.237206, 43.722463 ], [ 4.241514, 43.722061 ], [ 4.242965, 43.722453 ], [ 4.249248, 43.723498 ], [ 4.252909, 43.723179 ], [ 4.253691, 43.726693 ], [ 4.249315, 43.734073 ], [ 4.253766, 43.737392 ], [ 4.254632811723033, 43.739180254437017 ], [ 4.255544085011183, 43.737716573878672 ], [ 4.25533, 43.737691 ], [ 4.254406, 43.737503 ], [ 4.250778, 43.732422 ] ] ], [ [ [ 4.24146, 43.74917 ], [ 4.241617, 43.749235 ], [ 4.244889111903255, 43.749435251646482 ], [ 4.243343628929887, 43.747156124835136 ], [ 4.239382862756066, 43.748266178010084 ], [ 4.24146, 43.74917 ] ] ] ] } },
{ "type": "Feature", "properties": { "codgeo": "30344", "value": 480, "isochrone_group": 8.0, "nb_agences": 1 }, "geometry": { "type": "MultiPolygon", "coordinates": [ [ [ [ 4.195069, 43.76319 ], [ 4.196344, 43.766556 ], [ 4.195609, 43.775524 ], [ 4.19531, 43.776123 ], [ 4.194797, 43.777002 ], [ 4.195061, 43.778685 ], [ 4.195523, 43.779151 ], [ 4.195687, 43.779264 ], [ 4.197566, 43.779303 ], [ 4.202435, 43.774488 ], [ 4.207914, 43.770316 ], [ 4.207869, 43.76986 ], [ 4.207774, 43.769162 ], [ 4.214531, 43.763242 ], [ 4.214717, 43.763224 ], [ 4.220097, 43.761142 ], [ 4.223697, 43.761119 ], [ 4.225864, 43.760498 ], [ 4.232634, 43.75919 ], [ 4.233661, 43.75574 ], [ 4.238212, 43.751165 ], [ 4.241375306060791, 43.75151526923635 ], [ 4.239369, 43.750798 ], [ 4.239173, 43.749028 ], [ 4.237819900957509, 43.747586088503652 ], [ 4.237691, 43.74753 ], [ 4.23207, 43.752175 ], [ 4.229795, 43.755922 ], [ 4.227691, 43.757367 ], [ 4.22365, 43.758513 ], [ 4.221441, 43.758979 ], [ 4.219922, 43.758468 ], [ 4.218915, 43.756413 ], [ 4.21317, 43.754922 ], [ 4.210353, 43.759424 ], [ 4.210143, 43.763018 ], [ 4.205036, 43.764911 ], [ 4.202651, 43.76895 ], [ 4.202557, 43.769355 ], [ 4.202321, 43.770088 ], [ 4.201985, 43.770946 ], [ 4.198632, 43.769636 ], [ 4.197937, 43.761756 ], [ 4.196355, 43.758013 ], [ 4.196203, 43.755696 ], [ 4.195268, 43.749062 ], [ 4.191748, 43.744569 ], [ 4.187036, 43.741417 ], [ 4.187157, 43.737819 ], [ 4.187357, 43.737826 ], [ 4.188176, 43.737912 ], [ 4.195337, 43.733013 ], [ 4.196363, 43.730867 ], [ 4.196944, 43.729692 ], [ 4.197719, 43.727533 ], [ 4.200568, 43.720811 ], [ 4.197408, 43.71519 ], [ 4.195861, 43.713366 ], [ 4.194335, 43.710878 ], [ 4.196959, 43.708412 ], [ 4.197159172267009, 43.70851707885911 ], [ 4.194499, 43.704653 ], [ 4.191453, 43.702734 ], [ 4.190215, 43.70306 ], [ 4.186893, 43.708607 ], [ 4.189459, 43.711132 ], [ 4.195662, 43.714574 ], [ 4.195351, 43.718365 ], [ 4.194781, 43.719547 ], [ 4.188824, 43.724869 ], [ 4.187299, 43.72813 ], [ 4.1839, 43.733669 ], [ 4.181519, 43.737408 ], [ 4.181187779994651, 43.73897012383609 ], [ 4.18163546686028, 43.741447984473211 ], [ 4.185988, 43.744829 ], [ 4.192058, 43.750975 ], [ 4.193104, 43.758742 ], [ 4.193391, 43.760021 ], [ 4.195069, 43.76319 ] ] ], [ [ [ 4.255983, 43.733045 ], [ 4.256758, 43.731792 ], [ 4.257747144158702, 43.728635771972158 ], [ 4.257411, 43.728583 ], [ 4.256925, 43.728452 ], [ 4.250778, 43.732422 ], [ 4.252236711608544, 43.734464919978763 ], [ 4.255983, 43.733045 ] ] ], [ [ [ 4.261124, 43.726793 ], [ 4.263011657805222, 43.72590969719937 ], [ 4.263341477656573, 43.725162179383453 ], [ 4.259036026859181, 43.725316115515909 ], [ 4.258328472518506, 43.728079233219098 ], [ 4.261124, 43.726793 ] ] ], [ [ [ 4.252986493404422, 43.719173483283541 ], [ 4.246672630454937, 43.719557028111353 ], [ 4.246715, 43.719597 ], [ 4.251982445839056, 43.720968251698572 ], [ 4.252986493404422, 43.719173483283541 ] ] ], [ [ [ 4.237148, 43.713664 ], [ 4.236494, 43.70819 ], [ 4.233989, 43.702709 ], [ 4.233588, 43.701456 ], [ 4.232113, 43.701587 ], [ 4.230159, 43.702553 ], [ 4.229597, 43.702903 ], [ 4.223702, 43.707431 ], [ 4.219333, 43.704208 ], [ 4.216908, 43.702836 ], [ 4.211042, 43.703697 ], [ 4.209266, 43.705266 ], [ 4.20858, 43.706324 ], [ 4.20243, 43.711115 ], [ 4.201845770418662, 43.710977271743296 ], [ 4.204737, 43.712495 ], [ 4.20482, 43.712577 ], [ 4.206968, 43.714106 ], [ 4.213601, 43.709005 ], [ 4.213505, 43.708077 ], [ 4.213562, 43.707712 ], [ 4.215428, 43.707229 ], [ 4.215888, 43.707376 ], [ 4.217117, 43.707918 ], [ 4.218808, 43.708869 ], [ 4.225159, 43.710072 ], [ 4.228052, 43.707963 ], [ 4.230922, 43.708267 ], [ 4.231497, 43.709006 ], [ 4.231267, 43.711684 ], [ 4.231201, 43.711856 ], [ 4.23074, 43.715851 ], [ 4.237483, 43.721381 ], [ 4.241190381508044, 43.719203590096498 ], [ 4.237148, 43.713664 ] ] ] ] } },
{ "type": "Feature", "properties": { "codgeo": "30344", "value": 540, "isochrone_group": 9.0, "nb_agences": 1 }, "geometry": { "type": "MultiPolygon", "coordinates": [ [ [ [ 4.191821, 43.76707 ], [ 4.193126, 43.77102 ], [ 4.190318, 43.77611 ], [ 4.189666, 43.77965 ], [ 4.193048, 43.782837 ], [ 4.19328, 43.782903 ], [ 4.200254, 43.783026 ], [ 4.205515, 43.776543 ], [ 4.209877, 43.775317 ], [ 4.209934, 43.775217 ], [ 4.210186, 43.774375 ], [ 4.210631, 43.773217 ], [ 4.214798, 43.766483 ], [ 4.21665, 43.766187 ], [ 4.216898, 43.766146 ], [ 4.21773, 43.766061 ], [ 4.222432, 43.76519 ], [ 4.227137, 43.762839 ], [ 4.230326, 43.761169 ], [ 4.236608, 43.759608 ], [ 4.240578280252334, 43.756070291234224 ], [ 4.236072783311978, 43.75331549798895 ], [ 4.233661, 43.75574 ], [ 4.232634, 43.75919 ], [ 4.225864, 43.760498 ], [ 4.223697, 43.761119 ], [ 4.220097, 43.761142 ], [ 4.214717, 43.763224 ], [ 4.214531, 43.763242 ], [ 4.207774, 43.769162 ], [ 4.207869, 43.76986 ], [ 4.207914, 43.770316 ], [ 4.202435, 43.774488 ], [ 4.197566, 43.779303 ], [ 4.195687, 43.779264 ], [ 4.195523, 43.779151 ], [ 4.195061, 43.778685 ], [ 4.194797, 43.777002 ], [ 4.19531, 43.776123 ], [ 4.195609, 43.775524 ], [ 4.196344, 43.766556 ], [ 4.195069, 43.76319 ], [ 4.193391, 43.760021 ], [ 4.193104, 43.758742 ], [ 4.192058, 43.750975 ], [ 4.189146251271892, 43.748026794450922 ], [ 4.189267, 43.751148 ], [ 4.187811, 43.751315 ], [ 4.184809503171541, 43.752491461968049 ], [ 4.19141, 43.755632 ], [ 4.191874, 43.763471 ], [ 4.191162, 43.765029 ], [ 4.191141, 43.765122 ], [ 4.191821, 43.76707 ] ] ], [ [ [ 4.24807, 43.717857 ], [ 4.248098685623061, 43.717686846148922 ], [ 4.242606, 43.71293 ], [ 4.243308, 43.709399 ], [ 4.239226, 43.702538 ], [ 4.238920246908835, 43.702048301714527 ], [ 4.23623, 43.70294 ], [ 4.235319, 43.703605 ], [ 4.233918494001758, 43.702488690733659 ], [ 4.233989, 43.702709 ], [ 4.236494, 43.70819 ], [ 4.237148, 43.713664 ], [ 4.242097, 43.720446 ], [ 4.24585, 43.719607 ], [ 4.246666519641153, 43.719557399321673 ], [ 4.24807, 43.717857 ] ] ], [ [ [ 4.230258, 43.699571 ], [ 4.228131049736637, 43.696473888956611 ], [ 4.225818, 43.698974 ], [ 4.21983, 43.699028 ], [ 4.216255, 43.69861 ], [ 4.208362, 43.699203 ], [ 4.204325, 43.694801 ], [ 4.201208, 43.693124 ], [ 4.19847, 43.694924 ], [ 4.198413, 43.694989 ], [ 4.19515, 43.698082 ], [ 4.190064, 43.698628 ], [ 4.18411, 43.700114 ], [ 4.182427, 43.700787 ], [ 4.182379, 43.700848 ], [ 4.182581, 43.703373 ], [ 4.182809, 43.706195 ], [ 4.182909, 43.711836 ], [ 4.18193, 43.715579 ], [ 4.18071, 43.718809 ], [ 4.180704, 43.718826 ], [ 4.181293, 43.723527 ], [ 4.181301, 43.72401 ], [ 4.181393, 43.725196 ], [ 4.180158, 43.733301 ], [ 4.178934533670191, 43.734949490540416 ], [ 4.179511, 43.734669 ], [ 4.183099238358126, 43.734926474917671 ], [ 4.1839, 43.733669 ], [ 4.187299, 43.72813 ], [ 4.188824, 43.724869 ], [ 4.194781, 43.719547 ], [ 4.195351, 43.718365 ], [ 4.195662, 43.714574 ], [ 4.189459, 43.711132 ], [ 4.186893, 43.708607 ], [ 4.190215, 43.70306 ], [ 4.191453, 43.702734 ], [ 4.194499, 43.704653 ], [ 4.19744, 43.708925 ], [ 4.200466, 43.710652 ], [ 4.20243, 43.711115 ], [ 4.20858, 43.706324 ], [ 4.209266, 43.705266 ], [ 4.211042, 43.703697 ], [ 4.216908, 43.702836 ], [ 4.219333, 43.704208 ], [ 4.223702, 43.707431 ], [ 4.229597, 43.702903 ], [ 4.230159, 43.702553 ], [ 4.232113, 43.701587 ], [ 4.232719649903579, 43.701533121262791 ], [ 4.230258, 43.699571 ] ] ] ] } },
{ "type": "Feature", "properties": { "codgeo": "30344", "value": 600, "isochrone_group": 10.0, "nb_agences": 1 }, "geometry": { "type": "MultiPolygon", "coordinates": [ [ [ [ 4.187158, 43.765499 ], [ 4.187346, 43.766084 ], [ 4.188247, 43.767464 ], [ 4.185995302223326, 43.769812628853664 ], [ 4.190053, 43.775957 ], [ 4.190356088067563, 43.776040958595466 ], [ 4.193126, 43.77102 ], [ 4.191821, 43.76707 ], [ 4.191141, 43.765122 ], [ 4.191162, 43.765029 ], [ 4.191874, 43.763471 ], [ 4.191633813688066, 43.759413197199869 ], [ 4.18875, 43.763759 ], [ 4.188364, 43.76383 ], [ 4.187854, 43.763886 ], [ 4.187158, 43.765499 ] ] ], [ [ [ 4.188117, 43.780973 ], [ 4.187003695916077, 43.78109564618854 ], [ 4.190869, 43.785815 ], [ 4.190935, 43.785856 ], [ 4.192575, 43.786327 ], [ 4.196459, 43.785673 ], [ 4.196574, 43.785647 ], [ 4.202947, 43.784942 ], [ 4.206128, 43.786695 ], [ 4.207148, 43.786798 ], [ 4.208075, 43.78551 ], [ 4.208143, 43.784854 ], [ 4.208186, 43.784265 ], [ 4.20822, 43.783139 ], [ 4.211027, 43.775279 ], [ 4.218592, 43.771666 ], [ 4.219723, 43.772261 ], [ 4.221607, 43.770796 ], [ 4.226665, 43.766159 ], [ 4.22931, 43.765793 ], [ 4.230962, 43.764572 ], [ 4.235532986950421, 43.761115649439624 ], [ 4.236244, 43.760354 ], [ 4.236040931133909, 43.759748909662527 ], [ 4.230326, 43.761169 ], [ 4.227137, 43.762839 ], [ 4.222432, 43.76519 ], [ 4.21773, 43.766061 ], [ 4.216898, 43.766146 ], [ 4.21665, 43.766187 ], [ 4.214798, 43.766483 ], [ 4.210631, 43.773217 ], [ 4.210186, 43.774375 ], [ 4.209934, 43.775217 ], [ 4.209877, 43.775317 ], [ 4.205515, 43.776543 ], [ 4.200254, 43.783026 ], [ 4.19328, 43.782903 ], [ 4.193048, 43.782837 ], [ 4.190548977363398, 43.780482066486449 ], [ 4.188117, 43.780973 ] ] ], [ [ [ 4.243129, 43.711878 ], [ 4.242870879371115, 43.711597679402566 ], [ 4.242606, 43.71293 ], [ 4.242851386140393, 43.71314251245694 ], [ 4.243129, 43.711878 ] ] ], [ [ [ 4.22224156788138, 43.696931247015442 ], [ 4.21985, 43.69547 ], [ 4.219832338112464, 43.695451200567163 ], [ 4.212981, 43.692999 ], [ 4.204738210246007, 43.695251570102272 ], [ 4.208362, 43.699203 ], [ 4.216255, 43.69861 ], [ 4.21983, 43.699028 ], [ 4.225066568292521, 43.698980776438241 ], [ 4.22224156788138, 43.696931247015442 ] ] ], [ [ [ 4.202321, 43.692573 ], [ 4.202662, 43.692268 ], [ 4.203762, 43.691504 ], [ 4.204239, 43.691205 ], [ 4.205429, 43.690539 ], [ 4.206973568187289, 43.687319715177999 ], [ 4.200746, 43.688518 ], [ 4.1989, 43.689604 ], [ 4.198831, 43.689646 ], [ 4.195837, 43.692146 ], [ 4.189364, 43.695118 ], [ 4.189081, 43.695222 ], [ 4.186926, 43.697072 ], [ 4.179539, 43.697979 ], [ 4.178017, 43.701241 ], [ 4.177637, 43.709155 ], [ 4.175602631884373, 43.716843943165351 ], [ 4.17756, 43.718699 ], [ 4.177563, 43.718709 ], [ 4.17915, 43.725817 ], [ 4.181052391128727, 43.727431331904199 ], [ 4.181393, 43.725196 ], [ 4.181301, 43.72401 ], [ 4.181293, 43.723527 ], [ 4.180704, 43.718826 ], [ 4.18071, 43.718809 ], [ 4.18193, 43.715579 ], [ 4.182909, 43.711836 ], [ 4.182809, 43.706195 ], [ 4.182581, 43.703373 ], [ 4.182379, 43.700848 ], [ 4.182427, 43.700787 ], [ 4.18411, 43.700114 ], [ 4.190064, 43.698628 ], [ 4.19515, 43.698082 ], [ 4.198413, 43.694989 ], [ 4.19847, 43.694924 ], [ 4.201208, 43.693124 ], [ 4.204305374065877, 43.694790440907433 ], [ 4.202321, 43.692573 ] ] ] ] } },
{ "type": "Feature", "properties": { "codgeo": "30344", "value": 660, "isochrone_group": 11.0, "nb_agences": 1 }, "geometry": { "type": "MultiPolygon", "coordinates": [ [ [ [ 4.185069848941954, 43.764440105544637 ], [ 4.185075, 43.764446 ], [ 4.185137650215027, 43.764429727216879 ], [ 4.185069848941954, 43.764440105544637 ] ] ], [ [ [ 4.186072, 43.764185 ], [ 4.185671803921051, 43.764290985994542 ], [ 4.186117941866264, 43.764175106008764 ], [ 4.186072, 43.764185 ] ] ], [ [ [ 4.187387, 43.767584 ], [ 4.185176, 43.768572 ], [ 4.185375934117093, 43.770458659515661 ], [ 4.188247, 43.767464 ], [ 4.187346, 43.766084 ], [ 4.187158, 43.765499 ], [ 4.187853608295757, 43.763886907785839 ], [ 4.18779, 43.763894 ], [ 4.186671, 43.764056 ], [ 4.186638021732784, 43.764063102164393 ], [ 4.187387, 43.767584 ] ] ], [ [ [ 4.178999, 43.779951 ], [ 4.178013677465565, 43.779966663719328 ], [ 4.178757, 43.780663 ], [ 4.179214, 43.780955 ], [ 4.179837, 43.781281 ], [ 4.180545, 43.7814 ], [ 4.187529, 43.786803 ], [ 4.187841, 43.787714 ], [ 4.194846, 43.789076 ], [ 4.19513, 43.788974 ], [ 4.195313, 43.788789 ], [ 4.195361, 43.788741 ], [ 4.201185, 43.78661 ], [ 4.203893, 43.792705 ], [ 4.203993, 43.793095 ], [ 4.2054, 43.794041 ], [ 4.205459, 43.794047 ], [ 4.206612, 43.793141 ], [ 4.207257, 43.79244 ], [ 4.207479, 43.792196 ], [ 4.213697, 43.787507 ], [ 4.215278, 43.787153 ], [ 4.215502, 43.786828 ], [ 4.215626, 43.786617 ], [ 4.21579, 43.786341 ], [ 4.215094, 43.784189 ], [ 4.217155335456805, 43.78002862173048 ], [ 4.21497, 43.779608 ], [ 4.214559, 43.779491 ], [ 4.214281, 43.779066 ], [ 4.214776, 43.775898 ], [ 4.216867539019963, 43.772489592534171 ], [ 4.211027, 43.775279 ], [ 4.20822, 43.783139 ], [ 4.208186, 43.784265 ], [ 4.208143, 43.784854 ], [ 4.208075, 43.78551 ], [ 4.207148, 43.786798 ], [ 4.206128, 43.786695 ], [ 4.202947, 43.784942 ], [ 4.196574, 43.785647 ], [ 4.196459, 43.785673 ], [ 4.192575, 43.786327 ], [ 4.190935, 43.785856 ], [ 4.190869, 43.785815 ], [ 4.187558684783027, 43.781773261394925 ], [ 4.18751, 43.781743 ], [ 4.178999, 43.779951 ] ] ], [ [ [ 4.230319, 43.765287 ], [ 4.230552985410633, 43.764874304366607 ], [ 4.22931, 43.765793 ], [ 4.226665, 43.766159 ], [ 4.226057474654605, 43.766715958289161 ], [ 4.22854, 43.766499 ], [ 4.230319, 43.765287 ] ] ], [ [ [ 4.206367, 43.680631 ], [ 4.206468598183641, 43.680148886736809 ], [ 4.203845, 43.683888 ], [ 4.197473, 43.687801 ], [ 4.191275, 43.690327 ], [ 4.188246, 43.691319 ], [ 4.188244, 43.69132 ], [ 4.182552, 43.694461 ], [ 4.179775029406745, 43.695373952063292 ], [ 4.178243, 43.697374 ], [ 4.176722, 43.700637 ], [ 4.175543847765087, 43.701283423870329 ], [ 4.177394, 43.705291 ], [ 4.174579476107899, 43.709217168449051 ], [ 4.175828, 43.709701 ], [ 4.176997613715948, 43.711571575820756 ], [ 4.177637, 43.709155 ], [ 4.178017, 43.701241 ], [ 4.179539, 43.697979 ], [ 4.186926, 43.697072 ], [ 4.189081, 43.695222 ], [ 4.189364, 43.695118 ], [ 4.195837, 43.692146 ], [ 4.198831, 43.689646 ], [ 4.1989, 43.689604 ], [ 4.200746, 43.688518 ], [ 4.201180894583195, 43.688434319249758 ], [ 4.204807, 43.682867 ], [ 4.206367, 43.680631 ] ] ], [ [ [ 4.185516560738881, 43.751641190894198 ], [ 4.185384457571584, 43.751553582560049 ], [ 4.183939789327548, 43.751880844839029 ], [ 4.183460478162281, 43.752374445593652 ], [ 4.185516560738881, 43.751641190894198 ] ] ] ] } },
{ "type": "Feature", "properties": { "codgeo": "30344", "value": 720, "isochrone_group": 12.0, "nb_agences": 1 }, "geometry": { "type": "MultiPolygon", "coordinates": [ [ [ [ 4.196309, 43.794922 ], [ 4.202182, 43.794389 ], [ 4.205319, 43.796156 ], [ 4.207058, 43.797264 ], [ 4.210023, 43.798814 ], [ 4.210986, 43.798233 ], [ 4.212073, 43.795854 ], [ 4.21824, 43.790497 ], [ 4.21996469360387, 43.79088563537254 ], [ 4.220035, 43.790419 ], [ 4.220092, 43.789507 ], [ 4.21685, 43.781589 ], [ 4.216453304376543, 43.78144552592294 ], [ 4.215094, 43.784189 ], [ 4.21579, 43.786341 ], [ 4.215626, 43.786617 ], [ 4.215502, 43.786828 ], [ 4.215278, 43.787153 ], [ 4.213697, 43.787507 ], [ 4.207479, 43.792196 ], [ 4.207257, 43.79244 ], [ 4.206612, 43.793141 ], [ 4.205459, 43.794047 ], [ 4.2054, 43.794041 ], [ 4.203993, 43.793095 ], [ 4.203893, 43.792705 ], [ 4.201185, 43.78661 ], [ 4.195361, 43.788741 ], [ 4.195313, 43.788789 ], [ 4.19513, 43.788974 ], [ 4.194846, 43.789076 ], [ 4.187841, 43.787714 ], [ 4.187529, 43.786803 ], [ 4.180545, 43.7814 ], [ 4.179837, 43.781281 ], [ 4.179214, 43.780955 ], [ 4.178757, 43.780663 ], [ 4.178013677465565, 43.779966663719328 ], [ 4.177678, 43.779972 ], [ 4.177149, 43.779997 ], [ 4.174587171332106, 43.781989878854517 ], [ 4.178925, 43.787181 ], [ 4.178951, 43.787268 ], [ 4.180758, 43.788469 ], [ 4.187854, 43.790475 ], [ 4.193546, 43.794262 ], [ 4.193877, 43.794434 ], [ 4.194618, 43.794638 ], [ 4.196309, 43.794922 ] ] ], [ [ [ 4.195587, 43.680558 ], [ 4.193846070537262, 43.682686990966502 ], [ 4.19462, 43.687011 ], [ 4.195504436677514, 43.688603289601929 ], [ 4.196309671728943, 43.688275115394113 ], [ 4.196557, 43.686218 ], [ 4.199364, 43.684673 ], [ 4.200637438492079, 43.682375004763671 ], [ 4.19694, 43.681611 ], [ 4.195961, 43.680864 ], [ 4.195587, 43.680558 ] ] ], [ [ [ 4.176697195054674, 43.70626302002767 ], [ 4.177394, 43.705291 ], [ 4.176683212672524, 43.703751378409365 ], [ 4.174263, 43.704521 ], [ 4.173967858849008, 43.704845849620547 ], [ 4.176697195054674, 43.70626302002767 ] ] ] ] } },
{ "type": "Feature", "properties": { "codgeo": "30344", "value": 780, "isochrone_group": 13.0, "nb_agences": 1 }, "geometry": { "type": "Polygon", "coordinates": [ [ [ 4.214774, 43.802539 ], [ 4.214995, 43.802749 ], [ 4.215723, 43.803513 ], [ 4.216948, 43.804596 ], [ 4.219406, 43.801965 ], [ 4.218145, 43.800286 ], [ 4.217673795109742, 43.798319938216522 ], [ 4.217154, 43.798567 ], [ 4.213791, 43.797282 ], [ 4.214148, 43.796348 ], [ 4.214706, 43.794536 ], [ 4.214761515729347, 43.793518605357214 ], [ 4.212073, 43.795854 ], [ 4.210986, 43.798233 ], [ 4.210023, 43.798814 ], [ 4.207058, 43.797264 ], [ 4.205319, 43.796156 ], [ 4.202182, 43.794389 ], [ 4.196309, 43.794922 ], [ 4.194618, 43.794638 ], [ 4.193877, 43.794434 ], [ 4.193546, 43.794262 ], [ 4.187854, 43.790475 ], [ 4.180758, 43.788469 ], [ 4.178951, 43.787268 ], [ 4.178925, 43.787181 ], [ 4.176222365602611, 43.783946731511563 ], [ 4.175102, 43.785559 ], [ 4.175612, 43.789123 ], [ 4.174294654516383, 43.789427794220245 ], [ 4.181361, 43.790593 ], [ 4.184887, 43.791488 ], [ 4.189042, 43.797079 ], [ 4.190327, 43.799092 ], [ 4.192947, 43.802094 ], [ 4.194273, 43.802159 ], [ 4.196145, 43.800441 ], [ 4.203389, 43.799521 ], [ 4.208989, 43.799163 ], [ 4.214774, 43.802539 ] ] ] } },
{ "type": "Feature", "properties": { "codgeo": "30344", "value": 840, "isochrone_group": 14.0, "nb_agences": 1 }, "geometry": { "type": "Polygon", "coordinates": [ [ [ 4.165247, 43.794517 ], [ 4.165080900319285, 43.79444303253328 ], [ 4.165186, 43.794568 ], [ 4.171519, 43.793844 ], [ 4.177158, 43.792384 ], [ 4.181385, 43.791896 ], [ 4.185338, 43.796962 ], [ 4.185818, 43.798148 ], [ 4.188932, 43.802519 ], [ 4.189292, 43.80303 ], [ 4.189322, 43.803061 ], [ 4.195518, 43.808709 ], [ 4.197312, 43.808828 ], [ 4.197762, 43.808792 ], [ 4.198195, 43.808715 ], [ 4.199041, 43.807973 ], [ 4.201263, 43.803035 ], [ 4.206066, 43.801104 ], [ 4.213408, 43.805231 ], [ 4.213404, 43.806697 ], [ 4.213404, 43.806807 ], [ 4.213517, 43.807217 ], [ 4.215374, 43.808247 ], [ 4.223136, 43.811194 ], [ 4.225686, 43.810522 ], [ 4.225706, 43.81047 ], [ 4.226822, 43.806914 ], [ 4.22723, 43.805102 ], [ 4.227, 43.803319 ], [ 4.225968647802349, 43.795603880454152 ], [ 4.224423, 43.795112 ], [ 4.219737, 43.802275 ], [ 4.219295, 43.803209 ], [ 4.21923, 43.80328 ], [ 4.21728, 43.804906 ], [ 4.215615, 43.803446 ], [ 4.21371219835582, 43.801919355686991 ], [ 4.208989, 43.799163 ], [ 4.203389, 43.799521 ], [ 4.196145, 43.800441 ], [ 4.194273, 43.802159 ], [ 4.192947, 43.802094 ], [ 4.190327, 43.799092 ], [ 4.189042, 43.797079 ], [ 4.184887, 43.791488 ], [ 4.181361, 43.790593 ], [ 4.179506728780946, 43.790287239752828 ], [ 4.173494, 43.792418 ], [ 4.171043, 43.79363 ], [ 4.165247, 43.794517 ] ] ] } },
{ "type": "Feature", "properties": { "codgeo": "30344", "value": 900, "isochrone_group": 15.0, "nb_agences": 1 }, "geometry": { "type": "MultiPolygon", "coordinates": [ [ [ [ 4.171845615835793, 43.793759435516883 ], [ 4.174111, 43.794606 ], [ 4.175193, 43.795019 ], [ 4.181477, 43.795068 ], [ 4.184014, 43.799426 ], [ 4.188498, 43.805924 ], [ 4.188704, 43.806301 ], [ 4.191462, 43.807204 ], [ 4.19544, 43.813147 ], [ 4.198641, 43.81549 ], [ 4.20202, 43.814249 ], [ 4.20383, 43.81014 ], [ 4.212322, 43.809698 ], [ 4.215112, 43.811962 ], [ 4.215578, 43.812204 ], [ 4.221741, 43.814509 ], [ 4.229224, 43.814129 ], [ 4.231344, 43.812817 ], [ 4.233535, 43.810288 ], [ 4.234778284492869, 43.808298167881254 ], [ 4.232941, 43.80796 ], [ 4.225979, 43.810516 ], [ 4.22354, 43.811504 ], [ 4.215351, 43.808262 ], [ 4.213521, 43.807232 ], [ 4.211294665788601, 43.804043077051141 ], [ 4.206066, 43.801104 ], [ 4.201263, 43.803035 ], [ 4.199041, 43.807973 ], [ 4.198195, 43.808715 ], [ 4.197762, 43.808792 ], [ 4.197312, 43.808828 ], [ 4.195518, 43.808709 ], [ 4.189322, 43.803061 ], [ 4.189292, 43.80303 ], [ 4.188932, 43.802519 ], [ 4.185818, 43.798148 ], [ 4.185338, 43.796962 ], [ 4.181385, 43.791896 ], [ 4.179884477290597, 43.792069232808664 ], [ 4.175152, 43.794997 ], [ 4.174117, 43.794593 ], [ 4.171854768527937, 43.793757065782778 ], [ 4.171845615835793, 43.793759435516883 ] ] ], [ [ [ 4.161682, 43.800432 ], [ 4.163549, 43.7976 ], [ 4.169072846381956, 43.794123648700371 ], [ 4.169047890237644, 43.794126501731881 ], [ 4.163461, 43.797592 ], [ 4.162839, 43.798353 ], [ 4.162452, 43.798909 ], [ 4.161887, 43.799837 ], [ 4.15837, 43.799068 ], [ 4.158348648142831, 43.799050469988252 ], [ 4.158334, 43.799108 ], [ 4.161682, 43.800432 ] ] ] ] } },
{ "type": "Feature", "properties": { "codgeo": "30344", "value": 960, "isochrone_group": 16.0, "nb_agences": 1 }, "geometry": { "type": "MultiPolygon", "coordinates": [ [ [ [ 4.184085, 43.804013 ], [ 4.187116, 43.808186 ], [ 4.188583, 43.810717 ], [ 4.189278, 43.812144 ], [ 4.193465, 43.814703 ], [ 4.199265, 43.81942 ], [ 4.203094, 43.821375 ], [ 4.203455, 43.821409 ], [ 4.204089, 43.821358 ], [ 4.205418, 43.819166 ], [ 4.205392, 43.81908 ], [ 4.205103, 43.817984 ], [ 4.204896, 43.817258 ], [ 4.209658, 43.811059 ], [ 4.21389, 43.813657 ], [ 4.214277, 43.814344 ], [ 4.215407, 43.815208 ], [ 4.216239, 43.815774 ], [ 4.2173, 43.816785 ], [ 4.217458, 43.816799 ], [ 4.218042, 43.816781 ], [ 4.219838, 43.815732 ], [ 4.224937746167495, 43.814454243130456 ], [ 4.221594, 43.814601 ], [ 4.21532, 43.812919 ], [ 4.211419741654796, 43.80974496163315 ], [ 4.20383, 43.81014 ], [ 4.20202, 43.814249 ], [ 4.198641, 43.81549 ], [ 4.19544, 43.813147 ], [ 4.191462, 43.807204 ], [ 4.188704, 43.806301 ], [ 4.188498, 43.805924 ], [ 4.184014, 43.799426 ], [ 4.182727097270843, 43.797215388216934 ], [ 4.180579742114122, 43.796567051607695 ], [ 4.183919, 43.801984 ], [ 4.184011, 43.803904 ], [ 4.184085, 43.804013 ] ] ], [ [ [ 4.158606, 43.803618 ], [ 4.157471356395559, 43.804082182859922 ], [ 4.157454106398959, 43.804100871558163 ], [ 4.158606, 43.803618 ] ] ], [ [ [ 4.160013, 43.803054 ], [ 4.161405, 43.800908 ], [ 4.16, 43.803058 ], [ 4.158606, 43.803618 ], [ 4.160013, 43.803054 ] ] ], [ [ [ 4.169239, 43.796251 ], [ 4.169240086123507, 43.796250844650615 ], [ 4.169217, 43.796252 ], [ 4.168357, 43.796425 ], [ 4.169239, 43.796251 ] ] ] ] } },
{ "type": "Feature", "properties": { "codgeo": "30344", "value": 1020, "isochrone_group": 17.0, "nb_agences": 1 }, "geometry": { "type": "MultiPolygon", "coordinates": [ [ [ [ 4.163158, 43.801556 ], [ 4.162583, 43.802049 ], [ 4.163176, 43.801541 ], [ 4.163572850158811, 43.799510060951953 ], [ 4.163561623426479, 43.799517300514822 ], [ 4.163158, 43.801556 ] ] ], [ [ [ 4.216636, 43.821285 ], [ 4.217529, 43.821029 ], [ 4.218973, 43.819434 ], [ 4.219297, 43.818298 ], [ 4.219728, 43.816686 ], [ 4.221329360835496, 43.81535833501944 ], [ 4.221056676334058, 43.815426656948333 ], [ 4.219767, 43.816435 ], [ 4.218847141210248, 43.816310736564837 ], [ 4.218042, 43.816781 ], [ 4.217458, 43.816799 ], [ 4.2173, 43.816785 ], [ 4.216464491536724, 43.815988865168364 ], [ 4.216199, 43.815953 ], [ 4.214277, 43.814344 ], [ 4.208637405014562, 43.812387573774636 ], [ 4.204896, 43.817258 ], [ 4.205103, 43.817984 ], [ 4.205392, 43.81908 ], [ 4.205418, 43.819166 ], [ 4.204089, 43.821358 ], [ 4.203455, 43.821409 ], [ 4.203094, 43.821375 ], [ 4.199265, 43.81942 ], [ 4.193465, 43.814703 ], [ 4.189278, 43.812144 ], [ 4.188583, 43.810717 ], [ 4.187116, 43.808186 ], [ 4.184085, 43.804013 ], [ 4.184011, 43.803904 ], [ 4.183919, 43.801984 ], [ 4.182163, 43.804109 ], [ 4.184027, 43.811058 ], [ 4.183878, 43.812934 ], [ 4.183913, 43.813034 ], [ 4.184129, 43.81342 ], [ 4.18506, 43.813619 ], [ 4.188684, 43.81505 ], [ 4.193817, 43.82004 ], [ 4.194421, 43.820421 ], [ 4.195206, 43.82086 ], [ 4.195791, 43.821065 ], [ 4.197199, 43.821478 ], [ 4.204574, 43.824764 ], [ 4.208196, 43.82339 ], [ 4.216636, 43.821285 ] ] ] ] } },
{ "type": "Feature", "properties": { "codgeo": "30344", "value": 1080, "isochrone_group": 18.0, "nb_agences": 1 }, "geometry": { "type": "MultiPolygon", "coordinates": [ [ [ [ 4.161562970974019, 43.802840867711197 ], [ 4.162298, 43.802706 ], [ 4.165178, 43.800546 ], [ 4.165281342322573, 43.79967305357836 ], [ 4.164279, 43.800545 ], [ 4.163318, 43.801408 ], [ 4.163178157687376, 43.801529957717548 ], [ 4.163176, 43.801541 ], [ 4.162583, 43.802049 ], [ 4.161895, 43.802421 ], [ 4.161562970974019, 43.802840867711197 ] ] ], [ [ [ 4.185057, 43.797358 ], [ 4.178339, 43.793893 ], [ 4.184913184516361, 43.797942613732253 ], [ 4.185057, 43.797358 ] ] ], [ [ [ 4.216007, 43.824967 ], [ 4.217681, 43.824703 ], [ 4.218081, 43.824725 ], [ 4.22018439470322, 43.824172090254386 ], [ 4.220951, 43.823515 ], [ 4.220981, 43.823464 ], [ 4.220198, 43.820271 ], [ 4.220185219231989, 43.819704610175492 ], [ 4.21903, 43.81961 ], [ 4.217529, 43.821029 ], [ 4.216636, 43.821285 ], [ 4.21662019922286, 43.821288940833639 ], [ 4.216613, 43.821291 ], [ 4.216612673219339, 43.821290817875983 ], [ 4.208196, 43.82339 ], [ 4.204574, 43.824764 ], [ 4.197199, 43.821478 ], [ 4.195791, 43.821065 ], [ 4.195206, 43.82086 ], [ 4.194421, 43.820421 ], [ 4.193817, 43.82004 ], [ 4.188684, 43.81505 ], [ 4.18506, 43.813619 ], [ 4.184129, 43.81342 ], [ 4.183913, 43.813034 ], [ 4.183878, 43.812934 ], [ 4.184027, 43.811058 ], [ 4.183568362491478, 43.809348197399849 ], [ 4.182917, 43.810537 ], [ 4.182187, 43.810532 ], [ 4.181673, 43.81061 ], [ 4.181081, 43.810749 ], [ 4.181487, 43.812208 ], [ 4.181801, 43.814596 ], [ 4.183158, 43.815397 ], [ 4.185181, 43.815835 ], [ 4.19129, 43.819863 ], [ 4.19307, 43.822992 ], [ 4.198544, 43.826872 ], [ 4.201888, 43.829146 ], [ 4.202054, 43.829187 ], [ 4.203732, 43.828542 ], [ 4.207573, 43.825376 ], [ 4.212271, 43.824674 ], [ 4.213804, 43.824884 ], [ 4.215901126612203, 43.825046224984078 ], [ 4.216007, 43.824967 ] ] ], [ [ [ 4.219426932047283, 43.635824514802771 ], [ 4.21917128848951, 43.63604915966566 ], [ 4.222819, 43.638068 ], [ 4.231038, 43.63574 ], [ 4.223622, 43.636856 ], [ 4.222034, 43.636255 ], [ 4.219466446714139, 43.63578979158504 ], [ 4.219426932047283, 43.635824514802771 ] ] ] ] } },
{ "type": "Feature", "properties": { "codgeo": "30344", "value": 1140, "isochrone_group": 19.0, "nb_agences": 1 }, "geometry": { "type": "MultiPolygon", "coordinates": [ [ [ [ 4.161477363155598, 43.804680932148173 ], [ 4.16145837907289, 43.804717143176781 ], [ 4.162715876185909, 43.803576644805361 ], [ 4.162681, 43.803589 ], [ 4.161477363155598, 43.804680932148173 ] ] ], [ [ [ 4.166145, 43.803402 ], [ 4.166168, 43.803171 ], [ 4.166045870812044, 43.802396965011475 ], [ 4.163069207609269, 43.80345147405059 ], [ 4.166145, 43.803402 ] ] ], [ [ [ 4.205854, 43.83126 ], [ 4.209305213171352, 43.829528465346733 ], [ 4.208242, 43.827004 ], [ 4.210095387458185, 43.824999091529257 ], [ 4.207573, 43.825376 ], [ 4.203732, 43.828542 ], [ 4.202054, 43.829187 ], [ 4.201888, 43.829146 ], [ 4.198544, 43.826872 ], [ 4.19307, 43.822992 ], [ 4.19129, 43.819863 ], [ 4.185181, 43.815835 ], [ 4.183158, 43.815397 ], [ 4.181801, 43.814596 ], [ 4.181487, 43.812208 ], [ 4.181081, 43.810749 ], [ 4.181673, 43.81061 ], [ 4.179894, 43.810685 ], [ 4.179061, 43.810599 ], [ 4.178166, 43.814086 ], [ 4.179448, 43.816335 ], [ 4.181624196169341, 43.81771441953984 ], [ 4.184517, 43.817296 ], [ 4.186309, 43.820419 ], [ 4.191874, 43.824902 ], [ 4.19293, 43.826715 ], [ 4.192878, 43.826981 ], [ 4.192844, 43.827079 ], [ 4.191341, 43.828463 ], [ 4.191152553968906, 43.828493314174587 ], [ 4.199359, 43.831199 ], [ 4.199566, 43.831271 ], [ 4.200016, 43.831373 ], [ 4.200484, 43.831394 ], [ 4.205854, 43.83126 ] ] ] ] } },
{ "type": "Feature", "properties": { "codgeo": "30344", "value": 1200, "isochrone_group": 20.0, "nb_agences": 1 }, "geometry": { "type": "MultiPolygon", "coordinates": [ [ [ [ 4.179448, 43.816335 ], [ 4.178166, 43.814086 ], [ 4.179061, 43.810599 ], [ 4.179894, 43.810685 ], [ 4.181673, 43.81061 ], [ 4.182187, 43.810532 ], [ 4.178309, 43.809803 ], [ 4.177469, 43.809744 ], [ 4.176944, 43.809879 ], [ 4.176554, 43.810062 ], [ 4.176078, 43.810404 ], [ 4.175426, 43.810958 ], [ 4.175306, 43.811219 ], [ 4.175325, 43.812761 ], [ 4.176582, 43.816548 ], [ 4.177123308595021, 43.816932953351149 ], [ 4.179456712600807, 43.816340522632551 ], [ 4.179448, 43.816335 ] ] ], [ [ [ 4.185631, 43.830009 ], [ 4.186589, 43.83004 ], [ 4.186098, 43.830004 ], [ 4.185912, 43.829962 ], [ 4.185313916224668, 43.829874429513488 ], [ 4.185631, 43.830009 ] ] ], [ [ [ 4.186589, 43.83004 ], [ 4.190673, 43.830232 ], [ 4.196947, 43.831103 ], [ 4.200115, 43.835376 ], [ 4.200647, 43.835223 ], [ 4.201174, 43.835015 ], [ 4.207464417874211, 43.832496725507653 ], [ 4.205869276000554, 43.83125233576051 ], [ 4.205854, 43.83126 ], [ 4.200484, 43.831394 ], [ 4.200016, 43.831373 ], [ 4.199566, 43.831271 ], [ 4.199359, 43.831199 ], [ 4.194367343216047, 43.829553238247044 ], [ 4.191309, 43.829945 ], [ 4.190682, 43.82995 ], [ 4.186589, 43.83004 ] ] ] ] } }
]
}
