{
"type": "FeatureCollection",
"name": "Credit_Agricole",
"crs": { "type": "name", "properties": { "name": "urn:ogc:def:crs:OGC:1.3:CRS84" } },
"features": [
{ "type": "Feature", "properties": { "codgeo": "46182", "value": 60, "isochrone_group": 1.0, "nb_agences": 1 }, "geometry": { "type": "Polygon", "coordinates": [ [ [ 1.282265, 44.477355 ], [ 1.282258, 44.476995 ], [ 1.286034, 44.473532 ], [ 1.286384, 44.473618 ], [ 1.289191, 44.475713 ], [ 1.292399, 44.476714 ], [ 1.293959, 44.477521 ], [ 1.294099, 44.477853 ], [ 1.292839, 44.479044 ], [ 1.292581, 44.479191 ], [ 1.28927, 44.480094 ], [ 1.288708, 44.480442 ], [ 1.286121, 44.485385 ], [ 1.285762, 44.485359 ], [ 1.283617, 44.481389 ], [ 1.282265, 44.477355 ] ] ] } },
{ "type": "Feature", "properties": { "codgeo": "46182", "value": 120, "isochrone_group": 2.0, "nb_agences": 1 }, "geometry": { "type": "Polygon", "coordinates": [ [ [ 1.275147, 44.485901 ], [ 1.27527, 44.486239 ], [ 1.278245, 44.485625 ], [ 1.278601, 44.485573 ], [ 1.280452, 44.485064 ], [ 1.285754, 44.487205 ], [ 1.285947, 44.487805 ], [ 1.286149, 44.488428 ], [ 1.286308, 44.488757 ], [ 1.286757, 44.48953 ], [ 1.287231, 44.490335 ], [ 1.287462, 44.490579 ], [ 1.287612, 44.490695 ], [ 1.287788, 44.490827 ], [ 1.288273, 44.491089 ], [ 1.288759, 44.491351 ], [ 1.28893, 44.491034 ], [ 1.288762, 44.485104 ], [ 1.291844, 44.48332 ], [ 1.293793, 44.482697 ], [ 1.296375, 44.479337 ], [ 1.29646, 44.479046 ], [ 1.299937, 44.476032 ], [ 1.301845, 44.476265 ], [ 1.302112, 44.476023 ], [ 1.301821, 44.475503 ], [ 1.301634, 44.475196 ], [ 1.30092, 44.474459 ], [ 1.297377, 44.469667 ], [ 1.297024, 44.469597 ], [ 1.296922, 44.470111 ], [ 1.296644, 44.47104 ], [ 1.296457, 44.471489 ], [ 1.295804, 44.47263 ], [ 1.295142, 44.473792 ], [ 1.294486, 44.474592 ], [ 1.289731, 44.471054 ], [ 1.289816, 44.470705 ], [ 1.289345, 44.469746 ], [ 1.289074, 44.469509 ], [ 1.286111, 44.469258 ], [ 1.283909, 44.470394 ], [ 1.280215, 44.472145 ], [ 1.276502, 44.472168 ], [ 1.276279, 44.472175 ], [ 1.275951, 44.472243 ], [ 1.276024, 44.472595 ], [ 1.276453, 44.476626 ], [ 1.274445, 44.48221 ], [ 1.274231, 44.482583 ], [ 1.275147, 44.485901 ] ], [ [ 1.282258, 44.476995 ], [ 1.286034, 44.473532 ], [ 1.286384, 44.473618 ], [ 1.289191, 44.475713 ], [ 1.292399, 44.476714 ], [ 1.293959, 44.477521 ], [ 1.294099, 44.477853 ], [ 1.292839, 44.479044 ], [ 1.292581, 44.479191 ], [ 1.28927, 44.480094 ], [ 1.288708, 44.480442 ], [ 1.286121, 44.485385 ], [ 1.285762, 44.485359 ], [ 1.283617, 44.481389 ], [ 1.282265, 44.477355 ], [ 1.282258, 44.476995 ] ] ] } },
{ "type": "Feature", "properties": { "codgeo": "46182", "value": 180, "isochrone_group": 3.0, "nb_agences": 1 }, "geometry": { "type": "Polygon", "coordinates": [ [ [ 1.264038, 44.487987 ], [ 1.270218, 44.490662 ], [ 1.270372, 44.490546 ], [ 1.270526, 44.490429 ], [ 1.270646, 44.490251 ], [ 1.274503, 44.486496 ], [ 1.279919, 44.487319 ], [ 1.281911, 44.489594 ], [ 1.288832, 44.491387 ], [ 1.289058, 44.49147 ], [ 1.289312, 44.491561 ], [ 1.289871, 44.491669 ], [ 1.290446, 44.491779 ], [ 1.291063, 44.491842 ], [ 1.291687, 44.491905 ], [ 1.292018, 44.491924 ], [ 1.292306, 44.491913 ], [ 1.292604, 44.491901 ], [ 1.29673, 44.491724 ], [ 1.298471, 44.490331 ], [ 1.298274, 44.49003 ], [ 1.296804, 44.484652 ], [ 1.303898, 44.479218 ], [ 1.305921, 44.480218 ], [ 1.306238, 44.480411 ], [ 1.306497, 44.480522 ], [ 1.306755, 44.480632 ], [ 1.311255, 44.477445 ], [ 1.311191, 44.47709 ], [ 1.305774, 44.473089 ], [ 1.300993, 44.466893 ], [ 1.301039, 44.464495 ], [ 1.3007, 44.464374 ], [ 1.292414, 44.466145 ], [ 1.288549, 44.46543 ], [ 1.288272, 44.465646 ], [ 1.287994, 44.465863 ], [ 1.287768, 44.466089 ], [ 1.286775, 44.467033 ], [ 1.284144, 44.468903 ], [ 1.280823, 44.470263 ], [ 1.275344, 44.466635 ], [ 1.275301, 44.466549 ], [ 1.274112, 44.467056 ], [ 1.27392, 44.467169 ], [ 1.273107, 44.467877 ], [ 1.272993, 44.468032 ], [ 1.272921, 44.468255 ], [ 1.272913, 44.468515 ], [ 1.272992, 44.468789 ], [ 1.273371, 44.469779 ], [ 1.273176, 44.477598 ], [ 1.267043, 44.482811 ], [ 1.26428, 44.483185 ], [ 1.264129, 44.483511 ], [ 1.26404, 44.487627 ], [ 1.264038, 44.487987 ] ], [ [ 1.274445, 44.48221 ], [ 1.276453, 44.476626 ], [ 1.276024, 44.472595 ], [ 1.275951, 44.472243 ], [ 1.276279, 44.472175 ], [ 1.276502, 44.472168 ], [ 1.280215, 44.472145 ], [ 1.283909, 44.470394 ], [ 1.286111, 44.469258 ], [ 1.289074, 44.469509 ], [ 1.289345, 44.469746 ], [ 1.289816, 44.470705 ], [ 1.289731, 44.471054 ], [ 1.294486, 44.474592 ], [ 1.295142, 44.473792 ], [ 1.295804, 44.47263 ], [ 1.296457, 44.471489 ], [ 1.296644, 44.47104 ], [ 1.296922, 44.470111 ], [ 1.297024, 44.469597 ], [ 1.297377, 44.469667 ], [ 1.30092, 44.474459 ], [ 1.301634, 44.475196 ], [ 1.301821, 44.475503 ], [ 1.302112, 44.476023 ], [ 1.301845, 44.476265 ], [ 1.299937, 44.476032 ], [ 1.29646, 44.479046 ], [ 1.296375, 44.479337 ], [ 1.293793, 44.482697 ], [ 1.291844, 44.48332 ], [ 1.288762, 44.485104 ], [ 1.28893, 44.491034 ], [ 1.288759, 44.491351 ], [ 1.288273, 44.491089 ], [ 1.287788, 44.490827 ], [ 1.287612, 44.490695 ], [ 1.287462, 44.490579 ], [ 1.287231, 44.490335 ], [ 1.286757, 44.48953 ], [ 1.286308, 44.488757 ], [ 1.286149, 44.488428 ], [ 1.285947, 44.487805 ], [ 1.285754, 44.487205 ], [ 1.280452, 44.485064 ], [ 1.278601, 44.485573 ], [ 1.278245, 44.485625 ], [ 1.27527, 44.486239 ], [ 1.275147, 44.485901 ], [ 1.274231, 44.482583 ], [ 1.274445, 44.48221 ] ] ] } },
{ "type": "Feature", "properties": { "codgeo": "46182", "value": 240, "isochrone_group": 4.0, "nb_agences": 1 }, "geometry": { "type": "MultiPolygon", "coordinates": [ [ [ [ 1.262914, 44.481808 ], [ 1.261798, 44.481202 ], [ 1.258773, 44.478912 ], [ 1.257362, 44.477538 ], [ 1.256236, 44.476553 ], [ 1.25511, 44.475567 ], [ 1.254873, 44.475838 ], [ 1.255999, 44.476824 ], [ 1.257821, 44.48181 ], [ 1.251834, 44.486759 ], [ 1.251713, 44.487098 ], [ 1.252248, 44.487288 ], [ 1.252782, 44.487479 ], [ 1.253075, 44.487556 ], [ 1.254037, 44.487769 ], [ 1.254993, 44.487979 ], [ 1.255283, 44.488021 ], [ 1.255544, 44.488037 ], [ 1.255783, 44.488037 ], [ 1.25601, 44.488036 ], [ 1.256702, 44.488058 ], [ 1.2574, 44.48808 ], [ 1.257798, 44.48811 ], [ 1.258203, 44.488141 ], [ 1.261064, 44.489153 ], [ 1.263612, 44.496017 ], [ 1.263811, 44.496317 ], [ 1.266782, 44.495174 ], [ 1.266919, 44.494842 ], [ 1.270198, 44.490676 ], [ 1.278158, 44.49107 ], [ 1.282458, 44.491463 ], [ 1.290446, 44.491779 ], [ 1.289871, 44.491669 ], [ 1.289312, 44.491561 ], [ 1.289058, 44.49147 ], [ 1.288832, 44.491387 ], [ 1.281911, 44.489594 ], [ 1.279919, 44.487319 ], [ 1.274503, 44.486496 ], [ 1.270646, 44.490251 ], [ 1.270526, 44.490429 ], [ 1.270372, 44.490546 ], [ 1.270218, 44.490662 ], [ 1.264038, 44.487987 ], [ 1.26404, 44.487627 ], [ 1.264129, 44.483511 ], [ 1.26428, 44.483185 ], [ 1.267043, 44.482811 ], [ 1.268867506103295, 44.481260184686704 ], [ 1.262914, 44.481808 ] ] ], [ [ [ 1.273355617754211, 44.470395788614432 ], [ 1.273371, 44.469779 ], [ 1.272992, 44.468789 ], [ 1.273355617754211, 44.470395788614432 ] ] ], [ [ [ 1.301827, 44.491758 ], [ 1.302015, 44.491767 ], [ 1.303243, 44.491677 ], [ 1.304472, 44.491588 ], [ 1.30672, 44.491173 ], [ 1.307042, 44.491013 ], [ 1.311796, 44.485299 ], [ 1.317172, 44.479416 ], [ 1.322517, 44.477187 ], [ 1.322474, 44.476829 ], [ 1.318459, 44.473445 ], [ 1.318101, 44.473405 ], [ 1.314806, 44.476086 ], [ 1.309784, 44.46944 ], [ 1.306409, 44.462515 ], [ 1.306328, 44.462164 ], [ 1.301559, 44.457052 ], [ 1.301205, 44.457113 ], [ 1.298734, 44.460723 ], [ 1.29011, 44.46206 ], [ 1.289413, 44.462122 ], [ 1.28921, 44.462419 ], [ 1.288303, 44.464024 ], [ 1.28824, 44.464207 ], [ 1.280949, 44.468294 ], [ 1.276333, 44.464252 ], [ 1.275502, 44.460771 ], [ 1.275167, 44.460637 ], [ 1.275041, 44.460953 ], [ 1.274915, 44.461269 ], [ 1.274887, 44.461387 ], [ 1.274138, 44.463922 ], [ 1.272993, 44.468032 ], [ 1.273107, 44.467877 ], [ 1.27392, 44.467169 ], [ 1.274112, 44.467056 ], [ 1.275301, 44.466549 ], [ 1.275344, 44.466635 ], [ 1.280823, 44.470263 ], [ 1.284144, 44.468903 ], [ 1.286775, 44.467033 ], [ 1.287768, 44.466089 ], [ 1.287994, 44.465863 ], [ 1.288272, 44.465646 ], [ 1.288549, 44.46543 ], [ 1.292414, 44.466145 ], [ 1.3007, 44.464374 ], [ 1.301039, 44.464495 ], [ 1.300993, 44.466893 ], [ 1.305774, 44.473089 ], [ 1.311191, 44.47709 ], [ 1.311255, 44.477445 ], [ 1.306755, 44.480632 ], [ 1.306497, 44.480522 ], [ 1.306238, 44.480411 ], [ 1.305921, 44.480218 ], [ 1.303898, 44.479218 ], [ 1.296804, 44.484652 ], [ 1.298274, 44.49003 ], [ 1.298471, 44.490331 ], [ 1.29673, 44.491724 ], [ 1.294823049702021, 44.491805805672023 ], [ 1.301827, 44.491758 ] ] ] ] } },
{ "type": "Feature", "properties": { "codgeo": "46182", "value": 300, "isochrone_group": 5.0, "nb_agences": 1 }, "geometry": { "type": "MultiPolygon", "coordinates": [ [ [ [ 1.254229, 44.474797 ], [ 1.251556, 44.471096 ], [ 1.247023, 44.469701 ], [ 1.246767, 44.469954 ], [ 1.247272, 44.47112 ], [ 1.248777, 44.474522 ], [ 1.244245, 44.479926 ], [ 1.243933, 44.480106 ], [ 1.244576, 44.481222 ], [ 1.245219, 44.482339 ], [ 1.245775, 44.483159 ], [ 1.246323, 44.483968 ], [ 1.246549, 44.484193 ], [ 1.246751, 44.484392 ], [ 1.247061, 44.484643 ], [ 1.247358, 44.484883 ], [ 1.248364, 44.485475 ], [ 1.249348, 44.486053 ], [ 1.249608, 44.486206 ], [ 1.249868, 44.486359 ], [ 1.255375, 44.490332 ], [ 1.258605, 44.498577 ], [ 1.259866, 44.50246 ], [ 1.260224, 44.502498 ], [ 1.267663, 44.499023 ], [ 1.267713, 44.498666 ], [ 1.267621, 44.494698 ], [ 1.26924993125208, 44.491880530162803 ], [ 1.266919, 44.494842 ], [ 1.266782, 44.495174 ], [ 1.263811, 44.496317 ], [ 1.263612, 44.496017 ], [ 1.261064, 44.489153 ], [ 1.258203, 44.488141 ], [ 1.257798, 44.48811 ], [ 1.2574, 44.48808 ], [ 1.256702, 44.488058 ], [ 1.25601, 44.488036 ], [ 1.255783, 44.488037 ], [ 1.255544, 44.488037 ], [ 1.255283, 44.488021 ], [ 1.254993, 44.487979 ], [ 1.254037, 44.487769 ], [ 1.253075, 44.487556 ], [ 1.252782, 44.487479 ], [ 1.252248, 44.487288 ], [ 1.251713, 44.487098 ], [ 1.251834, 44.486759 ], [ 1.257821, 44.48181 ], [ 1.255999, 44.476824 ], [ 1.254873, 44.475838 ], [ 1.25510967051615, 44.475567376751577 ], [ 1.254229, 44.474797 ] ] ], [ [ [ 1.255860666669005, 44.476224333335388 ], [ 1.256236, 44.476553 ], [ 1.257362, 44.477538 ], [ 1.255860666669005, 44.476224333335388 ] ] ], [ [ [ 1.269778, 44.480226 ], [ 1.261798, 44.481202 ], [ 1.262914, 44.481808 ], [ 1.27113, 44.481052 ], [ 1.273176, 44.477598 ], [ 1.269778, 44.480226 ] ] ], [ [ [ 1.273176, 44.477598 ], [ 1.273553, 44.471268 ], [ 1.273516424071608, 44.471106374819108 ], [ 1.273176, 44.477598 ] ] ], [ [ [ 1.276856, 44.462366 ], [ 1.276341, 44.456671 ], [ 1.276379, 44.456541 ], [ 1.276394, 44.456273 ], [ 1.276329, 44.455681 ], [ 1.27632, 44.454529 ], [ 1.275962, 44.454496 ], [ 1.27074, 44.459583 ], [ 1.270709, 44.459941 ], [ 1.272921, 44.468255 ], [ 1.272993, 44.468032 ], [ 1.274138, 44.463922 ], [ 1.274887, 44.461387 ], [ 1.274915, 44.461269 ], [ 1.275041, 44.460953 ], [ 1.275167, 44.460637 ], [ 1.275502, 44.460771 ], [ 1.276333, 44.464252 ], [ 1.276390680772282, 44.464302508163257 ], [ 1.276856, 44.462366 ] ] ], [ [ [ 1.276946090782084, 44.464788852890209 ], [ 1.280949, 44.468294 ], [ 1.28202412716473, 44.467691333051405 ], [ 1.276946090782084, 44.464788852890209 ] ] ], [ [ [ 1.289292, 44.462257 ], [ 1.289090966853767, 44.46262963748589 ], [ 1.28921, 44.462419 ], [ 1.289327419217657, 44.462247209321937 ], [ 1.289292, 44.462257 ] ] ], [ [ [ 1.309338, 44.46365 ], [ 1.309535, 44.463666 ], [ 1.309702, 44.463607 ], [ 1.309842, 44.463488 ], [ 1.31005, 44.463143 ], [ 1.310498, 44.462515 ], [ 1.310754, 44.462209 ], [ 1.310478, 44.461978 ], [ 1.304116, 44.457867 ], [ 1.301261, 44.450193 ], [ 1.301208, 44.449987 ], [ 1.301126, 44.449825 ], [ 1.301043, 44.449663 ], [ 1.300722, 44.449828 ], [ 1.300487, 44.451679 ], [ 1.296994, 44.458379 ], [ 1.290542, 44.461898 ], [ 1.289949852170222, 44.462074245574534 ], [ 1.29011, 44.46206 ], [ 1.298734, 44.460723 ], [ 1.301205, 44.457113 ], [ 1.301559, 44.457052 ], [ 1.306328, 44.462164 ], [ 1.306409, 44.462515 ], [ 1.307376802333917, 44.464500787011069 ], [ 1.309338, 44.46365 ] ] ], [ [ [ 1.30262, 44.492646 ], [ 1.308881, 44.497166 ], [ 1.308994, 44.497299 ], [ 1.31144, 44.498873 ], [ 1.31185, 44.499167 ], [ 1.312268, 44.499466 ], [ 1.312619, 44.499692 ], [ 1.31297, 44.499917 ], [ 1.313164, 44.499614 ], [ 1.312387, 44.490828 ], [ 1.316127, 44.488444 ], [ 1.3177, 44.487573 ], [ 1.317825, 44.487235 ], [ 1.319499, 44.482488 ], [ 1.324205, 44.478642 ], [ 1.324391, 44.478542 ], [ 1.324577, 44.478442 ], [ 1.328423, 44.476749 ], [ 1.330454, 44.476201 ], [ 1.331939, 44.475831 ], [ 1.331889, 44.475475 ], [ 1.33074, 44.475472 ], [ 1.326255, 44.474665 ], [ 1.322439, 44.471229 ], [ 1.320242, 44.466844 ], [ 1.319883, 44.466817 ], [ 1.319515, 44.467819 ], [ 1.319316, 44.468209 ], [ 1.318192, 44.470264 ], [ 1.313347190233978, 44.474155444503197 ], [ 1.314806, 44.476086 ], [ 1.318101, 44.473405 ], [ 1.318459, 44.473445 ], [ 1.322474, 44.476829 ], [ 1.322517, 44.477187 ], [ 1.317172, 44.479416 ], [ 1.311796, 44.485299 ], [ 1.307042, 44.491013 ], [ 1.30672, 44.491173 ], [ 1.304472, 44.491588 ], [ 1.303243, 44.491677 ], [ 1.302015, 44.491767 ], [ 1.301827, 44.491758 ], [ 1.298927591606324, 44.491777789998636 ], [ 1.30262, 44.492646 ] ] ], [ [ [ 1.276794, 44.493185 ], [ 1.277021, 44.493453 ], [ 1.278776, 44.495714 ], [ 1.278931, 44.496039 ], [ 1.279264, 44.496145 ], [ 1.281843, 44.494181 ], [ 1.290446, 44.491779 ], [ 1.282458, 44.491463 ], [ 1.278158, 44.49107 ], [ 1.270198, 44.490676 ], [ 1.26996734555267, 44.490969048620798 ], [ 1.276794, 44.493185 ] ] ] ] } },
{ "type": "Feature", "properties": { "codgeo": "46182", "value": 360, "isochrone_group": 6.0, "nb_agences": 1 }, "geometry": { "type": "MultiPolygon", "coordinates": [ [ [ [ 1.256762, 44.470642 ], [ 1.256861, 44.470296 ], [ 1.256616, 44.470225 ], [ 1.256371, 44.470155 ], [ 1.256027, 44.47009 ], [ 1.255723, 44.470042 ], [ 1.250467, 44.466812 ], [ 1.242558, 44.46744 ], [ 1.241159, 44.467302 ], [ 1.241013, 44.46729 ], [ 1.239984, 44.467455 ], [ 1.239183, 44.467661 ], [ 1.238358, 44.467875 ], [ 1.237076, 44.468214 ], [ 1.237025, 44.468378 ], [ 1.237022, 44.46839 ], [ 1.237016, 44.46857 ], [ 1.237171, 44.468595 ], [ 1.237802, 44.468709 ], [ 1.241862, 44.474311 ], [ 1.238073, 44.478302 ], [ 1.237837, 44.478405 ], [ 1.237586, 44.478516 ], [ 1.237283, 44.478685 ], [ 1.23697, 44.47886 ], [ 1.236708, 44.47903 ], [ 1.236522, 44.479196 ], [ 1.236363, 44.479436 ], [ 1.236287, 44.479654 ], [ 1.23612, 44.480331 ], [ 1.236466, 44.480428 ], [ 1.239848, 44.480302 ], [ 1.246323, 44.483968 ], [ 1.245775, 44.483159 ], [ 1.245219, 44.482339 ], [ 1.244576, 44.481222 ], [ 1.243933, 44.480106 ], [ 1.244245, 44.479926 ], [ 1.248777, 44.474522 ], [ 1.247272, 44.47112 ], [ 1.246767, 44.469954 ], [ 1.247023, 44.469701 ], [ 1.251556, 44.471096 ], [ 1.254229, 44.474797 ], [ 1.255802, 44.476173 ], [ 1.257362, 44.477538 ], [ 1.258773, 44.478912 ], [ 1.256762, 44.470642 ] ] ], [ [ [ 1.278771, 44.453218 ], [ 1.278896, 44.453038 ], [ 1.278869, 44.452872 ], [ 1.278857, 44.45285 ], [ 1.278716, 44.452692 ], [ 1.275121, 44.450391 ], [ 1.274864, 44.45026 ], [ 1.274607, 44.450129 ], [ 1.271703, 44.44856 ], [ 1.271596, 44.44852 ], [ 1.27147, 44.448857 ], [ 1.27159, 44.449261 ], [ 1.271646, 44.449486 ], [ 1.271793, 44.449701 ], [ 1.271996, 44.449854 ], [ 1.273032, 44.456587 ], [ 1.26667, 44.457789 ], [ 1.266403, 44.457968 ], [ 1.26631, 44.458121 ], [ 1.265218, 44.460203 ], [ 1.265443, 44.460484 ], [ 1.266849, 44.460355 ], [ 1.271053833994351, 44.461237089434469 ], [ 1.270709, 44.459941 ], [ 1.27074, 44.459583 ], [ 1.275962, 44.454496 ], [ 1.27632, 44.454529 ], [ 1.276329, 44.455681 ], [ 1.276394, 44.456273 ], [ 1.276379, 44.456541 ], [ 1.276341, 44.456671 ], [ 1.278771, 44.453218 ] ] ], [ [ [ 1.278218, 44.46457 ], [ 1.278145, 44.464391 ], [ 1.278071, 44.464212 ], [ 1.27786, 44.463798 ], [ 1.277655, 44.463399 ], [ 1.277482, 44.463114 ], [ 1.277315, 44.462842 ], [ 1.276341, 44.456671 ], [ 1.276856, 44.462366 ], [ 1.276355, 44.464451 ], [ 1.284144, 44.468903 ], [ 1.286775, 44.467033 ], [ 1.278218, 44.46457 ] ] ], [ [ [ 1.291302, 44.460708 ], [ 1.289292, 44.462257 ], [ 1.289907, 44.462087 ], [ 1.290542, 44.461898 ], [ 1.296994, 44.458379 ], [ 1.291302, 44.460708 ] ] ], [ [ [ 1.303791, 44.447522 ], [ 1.303649, 44.447192 ], [ 1.296548, 44.445593 ], [ 1.296344, 44.44589 ], [ 1.296485, 44.446778 ], [ 1.296746, 44.447061 ], [ 1.297006, 44.447344 ], [ 1.298874, 44.44868 ], [ 1.300421657831717, 44.451804334247775 ], [ 1.300487, 44.451679 ], [ 1.300722, 44.449828 ], [ 1.301043, 44.449663 ], [ 1.301126, 44.449825 ], [ 1.301208, 44.449987 ], [ 1.301261, 44.450193 ], [ 1.301391853029549, 44.45054472194353 ], [ 1.303791, 44.447522 ] ] ], [ [ [ 1.297696, 44.4946 ], [ 1.30145, 44.493964 ], [ 1.309017, 44.497322 ], [ 1.30964, 44.49804 ], [ 1.310198, 44.498744 ], [ 1.310592, 44.499178 ], [ 1.31193, 44.500184 ], [ 1.312406, 44.500528 ], [ 1.313409, 44.501069 ], [ 1.313822, 44.50126 ], [ 1.31485, 44.501713 ], [ 1.314958, 44.501745 ], [ 1.316153, 44.502101 ], [ 1.316291, 44.502108 ], [ 1.316566, 44.502107 ], [ 1.321853, 44.501373 ], [ 1.322188, 44.501323 ], [ 1.322511, 44.501255 ], [ 1.322839, 44.501158 ], [ 1.323207, 44.501013 ], [ 1.323585, 44.500862 ], [ 1.324191, 44.500577 ], [ 1.324803, 44.500288 ], [ 1.325538, 44.499908 ], [ 1.326273, 44.499528 ], [ 1.326108, 44.499209 ], [ 1.325373, 44.499589 ], [ 1.324638, 44.499969 ], [ 1.324038, 44.500251 ], [ 1.323432, 44.500536 ], [ 1.323074, 44.500678 ], [ 1.321602, 44.501034 ], [ 1.317625, 44.493171 ], [ 1.321683, 44.490467 ], [ 1.321993, 44.490283 ], [ 1.321203, 44.484003 ], [ 1.327399, 44.478672 ], [ 1.335018, 44.475912 ], [ 1.338835, 44.477133 ], [ 1.339165, 44.477292 ], [ 1.339501, 44.477454 ], [ 1.339835, 44.477598 ], [ 1.340172, 44.477743 ], [ 1.340676, 44.477951 ], [ 1.34119, 44.478162 ], [ 1.341519, 44.478277 ], [ 1.341874, 44.4784 ], [ 1.342257, 44.478473 ], [ 1.34264, 44.478546 ], [ 1.342707, 44.478192 ], [ 1.339752, 44.475957 ], [ 1.33943, 44.475795 ], [ 1.336124, 44.475653 ], [ 1.33558, 44.475602 ], [ 1.335051, 44.475553 ], [ 1.334583, 44.475498 ], [ 1.334112, 44.475442 ], [ 1.333906, 44.47543 ], [ 1.333711, 44.475418 ], [ 1.326851, 44.473106 ], [ 1.324104, 44.470932 ], [ 1.322274, 44.469063 ], [ 1.321838, 44.460514 ], [ 1.321757, 44.460164 ], [ 1.321337, 44.460063 ], [ 1.32103, 44.46025 ], [ 1.319957, 44.46105 ], [ 1.311975, 44.460246 ], [ 1.311826, 44.460159 ], [ 1.305649, 44.456639 ], [ 1.305337, 44.456459 ], [ 1.301785488989527, 44.451602782313707 ], [ 1.304116, 44.457867 ], [ 1.310478, 44.461978 ], [ 1.310754, 44.462209 ], [ 1.310498, 44.462515 ], [ 1.31005, 44.463143 ], [ 1.309842, 44.463488 ], [ 1.309702, 44.463607 ], [ 1.309535, 44.463666 ], [ 1.309338, 44.46365 ], [ 1.303393, 44.466229 ], [ 1.302855, 44.474987 ], [ 1.311296, 44.475803 ], [ 1.318192, 44.470264 ], [ 1.319316, 44.468209 ], [ 1.319515, 44.467819 ], [ 1.319883, 44.466817 ], [ 1.320242, 44.466844 ], [ 1.322439, 44.471229 ], [ 1.326255, 44.474665 ], [ 1.33074, 44.475472 ], [ 1.331889, 44.475475 ], [ 1.331939, 44.475831 ], [ 1.330454, 44.476201 ], [ 1.328423, 44.476749 ], [ 1.324577, 44.478442 ], [ 1.324391, 44.478542 ], [ 1.324205, 44.478642 ], [ 1.319499, 44.482488 ], [ 1.317825, 44.487235 ], [ 1.3177, 44.487573 ], [ 1.316127, 44.488444 ], [ 1.312387, 44.490828 ], [ 1.313164, 44.499614 ], [ 1.31297, 44.499917 ], [ 1.312619, 44.499692 ], [ 1.312268, 44.499466 ], [ 1.31185, 44.499167 ], [ 1.31144, 44.498873 ], [ 1.308994, 44.497299 ], [ 1.308881, 44.497166 ], [ 1.30262, 44.492646 ], [ 1.298584, 44.491697 ], [ 1.297074, 44.491586 ], [ 1.294653, 44.49169 ], [ 1.294352, 44.491728 ], [ 1.293476, 44.491815 ], [ 1.292604, 44.491901 ], [ 1.292306, 44.491913 ], [ 1.292018, 44.491924 ], [ 1.297696, 44.4946 ] ] ], [ [ [ 1.249349, 44.488968 ], [ 1.249414, 44.489179 ], [ 1.249589, 44.489235 ], [ 1.251565, 44.489484 ], [ 1.251872, 44.489579 ], [ 1.252151, 44.489664 ], [ 1.252489, 44.489718 ], [ 1.252802, 44.489766 ], [ 1.25314, 44.4898 ], [ 1.255849, 44.498145 ], [ 1.253892, 44.499195 ], [ 1.2538, 44.499543 ], [ 1.254175, 44.499643 ], [ 1.25455, 44.499742 ], [ 1.260087, 44.503818 ], [ 1.259602, 44.508935 ], [ 1.259831, 44.509212 ], [ 1.260078, 44.509008 ], [ 1.260311, 44.508711 ], [ 1.261678, 44.507118 ], [ 1.261794, 44.506837 ], [ 1.261765, 44.506541 ], [ 1.261725, 44.50516 ], [ 1.268202, 44.499046 ], [ 1.268567, 44.499075 ], [ 1.268947, 44.499104 ], [ 1.269328, 44.499102 ], [ 1.271312, 44.499333 ], [ 1.271799, 44.499454 ], [ 1.272136, 44.499505 ], [ 1.272387, 44.499489 ], [ 1.272665, 44.499469 ], [ 1.279656, 44.500402 ], [ 1.282481, 44.501629 ], [ 1.284146, 44.499941 ], [ 1.286984, 44.494019 ], [ 1.292018, 44.491924 ], [ 1.291687, 44.491905 ], [ 1.291063, 44.491842 ], [ 1.290446, 44.491779 ], [ 1.281843, 44.494181 ], [ 1.279264, 44.496145 ], [ 1.278931, 44.496039 ], [ 1.278776, 44.495714 ], [ 1.277021, 44.493453 ], [ 1.276794, 44.493185 ], [ 1.269807, 44.490917 ], [ 1.267621, 44.494698 ], [ 1.267713, 44.498666 ], [ 1.267663, 44.499023 ], [ 1.260224, 44.502498 ], [ 1.259866, 44.50246 ], [ 1.258605, 44.498577 ], [ 1.255375, 44.490332 ], [ 1.249868, 44.486359 ], [ 1.249608, 44.486206 ], [ 1.249348, 44.486053 ], [ 1.248364, 44.485475 ], [ 1.247358, 44.484883 ], [ 1.247061, 44.484643 ], [ 1.246751, 44.484392 ], [ 1.246549, 44.484193 ], [ 1.246323, 44.483968 ], [ 1.249349, 44.488968 ] ] ] ] } },
{ "type": "Feature", "properties": { "codgeo": "46182", "value": 420, "isochrone_group": 7.0, "nb_agences": 1 }, "geometry": { "type": "MultiPolygon", "coordinates": [ [ [ [ 1.250717, 44.463661 ], [ 1.246022, 44.463248 ], [ 1.245706, 44.463421 ], [ 1.237385, 44.465986 ], [ 1.23514, 44.463314 ], [ 1.235074, 44.463161 ], [ 1.234825, 44.462984 ], [ 1.234466, 44.463011 ], [ 1.234354, 44.463165 ], [ 1.234196, 44.463563 ], [ 1.234082, 44.463892 ], [ 1.234041, 44.464099 ], [ 1.234006, 44.464281 ], [ 1.233951, 44.464689 ], [ 1.233897, 44.465088 ], [ 1.232453, 44.473755 ], [ 1.232143, 44.475055 ], [ 1.232076, 44.475408 ], [ 1.234877, 44.483213 ], [ 1.234233, 44.484531 ], [ 1.233838, 44.485201 ], [ 1.233618, 44.48569 ], [ 1.233393, 44.486189 ], [ 1.232978, 44.487284 ], [ 1.232564, 44.488378 ], [ 1.232901, 44.488505 ], [ 1.233315, 44.487411 ], [ 1.233729, 44.486317 ], [ 1.233946, 44.485838 ], [ 1.234166, 44.485349 ], [ 1.234543, 44.484714 ], [ 1.234928, 44.484061 ], [ 1.239849, 44.481609 ], [ 1.244137755790029, 44.482730763664286 ], [ 1.239848, 44.480302 ], [ 1.236466, 44.480428 ], [ 1.23612, 44.480331 ], [ 1.236287, 44.479654 ], [ 1.236363, 44.479436 ], [ 1.236522, 44.479196 ], [ 1.236708, 44.47903 ], [ 1.23697, 44.47886 ], [ 1.237283, 44.478685 ], [ 1.237586, 44.478516 ], [ 1.237837, 44.478405 ], [ 1.238073, 44.478302 ], [ 1.241862, 44.474311 ], [ 1.237802, 44.468709 ], [ 1.237171, 44.468595 ], [ 1.237016, 44.46857 ], [ 1.237022, 44.46839 ], [ 1.237025, 44.468378 ], [ 1.237076, 44.468214 ], [ 1.238358, 44.467875 ], [ 1.239183, 44.467661 ], [ 1.239984, 44.467455 ], [ 1.241013, 44.46729 ], [ 1.241159, 44.467302 ], [ 1.242558, 44.46744 ], [ 1.250467, 44.466812 ], [ 1.255723, 44.470042 ], [ 1.256027, 44.47009 ], [ 1.256371, 44.470155 ], [ 1.251017, 44.46386 ], [ 1.250717, 44.463661 ] ] ], [ [ [ 1.266345, 44.457403 ], [ 1.265724, 44.457283 ], [ 1.265072, 44.457161 ], [ 1.264016, 44.456899 ], [ 1.263861, 44.457224 ], [ 1.263843, 44.462682 ], [ 1.260278, 44.469883 ], [ 1.256371, 44.470155 ], [ 1.256616, 44.470225 ], [ 1.256861, 44.470296 ], [ 1.256762, 44.470642 ], [ 1.258773, 44.478912 ], [ 1.260688, 44.4806 ], [ 1.261798, 44.481202 ], [ 1.269778, 44.480226 ], [ 1.273176, 44.477598 ], [ 1.273566, 44.470161 ], [ 1.273371, 44.469779 ], [ 1.272992, 44.468789 ], [ 1.272913, 44.468515 ], [ 1.272921, 44.468255 ], [ 1.272993, 44.468032 ], [ 1.271573, 44.461346 ], [ 1.266849, 44.460355 ], [ 1.265443, 44.460484 ], [ 1.265218, 44.460203 ], [ 1.26631, 44.458121 ], [ 1.266403, 44.457968 ], [ 1.26667, 44.457789 ], [ 1.273032, 44.456587 ], [ 1.273023325495355, 44.456530624092885 ], [ 1.266521, 44.457526 ], [ 1.266345, 44.457403 ] ] ], [ [ [ 1.271495, 44.447102 ], [ 1.267965, 44.44312 ], [ 1.267617, 44.443027 ], [ 1.265634, 44.446848 ], [ 1.265527, 44.447192 ], [ 1.265825, 44.447283 ], [ 1.266122, 44.447375 ], [ 1.267943, 44.448258 ], [ 1.26812, 44.448367 ], [ 1.26841, 44.448473 ], [ 1.268672, 44.448566 ], [ 1.268951, 44.44862 ], [ 1.269391, 44.448659 ], [ 1.271793, 44.449701 ], [ 1.271646, 44.449486 ], [ 1.27159, 44.449261 ], [ 1.27147, 44.448857 ], [ 1.271596, 44.44852 ], [ 1.271703, 44.44856 ], [ 1.272617145561516, 44.449053903025479 ], [ 1.27177, 44.447333 ], [ 1.271495, 44.447102 ] ] ], [ [ [ 1.313145, 44.456419 ], [ 1.305772, 44.454969 ], [ 1.305696, 44.44683 ], [ 1.30558, 44.446489 ], [ 1.304869, 44.446731 ], [ 1.296189, 44.445366 ], [ 1.29595, 44.445229 ], [ 1.295681, 44.445078 ], [ 1.291445, 44.442618 ], [ 1.28627, 44.441881 ], [ 1.28611, 44.442203 ], [ 1.282001, 44.448731 ], [ 1.2808, 44.449953 ], [ 1.280465, 44.450203 ], [ 1.274513412446933, 44.45007843565056 ], [ 1.274607, 44.450129 ], [ 1.274864, 44.45026 ], [ 1.275121, 44.450391 ], [ 1.278716, 44.452692 ], [ 1.278857, 44.45285 ], [ 1.278869, 44.452872 ], [ 1.278896, 44.453038 ], [ 1.278771, 44.453218 ], [ 1.276341, 44.456671 ], [ 1.277315, 44.462842 ], [ 1.277482, 44.463114 ], [ 1.277655, 44.463399 ], [ 1.27786, 44.463798 ], [ 1.278071, 44.464212 ], [ 1.278145, 44.464391 ], [ 1.278218, 44.46457 ], [ 1.286775, 44.467033 ], [ 1.28824, 44.464207 ], [ 1.289292, 44.462257 ], [ 1.291302, 44.460708 ], [ 1.296994, 44.458379 ], [ 1.300474, 44.45191 ], [ 1.298874, 44.44868 ], [ 1.297006, 44.447344 ], [ 1.296746, 44.447061 ], [ 1.296485, 44.446778 ], [ 1.296344, 44.44589 ], [ 1.296548, 44.445593 ], [ 1.303649, 44.447192 ], [ 1.303791, 44.447522 ], [ 1.301194, 44.450794 ], [ 1.305337, 44.456459 ], [ 1.305649, 44.456639 ], [ 1.311826, 44.460159 ], [ 1.311975, 44.460246 ], [ 1.319957, 44.46105 ], [ 1.32103, 44.46025 ], [ 1.321114038560083, 44.460198810388484 ], [ 1.313406, 44.456666 ], [ 1.313145, 44.456419 ] ] ], [ [ [ 1.328921, 44.471621 ], [ 1.32546, 44.467975 ], [ 1.323207, 44.460168 ], [ 1.328268, 44.457681 ], [ 1.328417, 44.457671 ], [ 1.328556, 44.457616 ], [ 1.328828, 44.457418 ], [ 1.328616, 44.457127 ], [ 1.328188, 44.456874 ], [ 1.328066, 44.456819 ], [ 1.327633, 44.456724 ], [ 1.327182, 44.456627 ], [ 1.326731, 44.456573 ], [ 1.32628, 44.456519 ], [ 1.323974, 44.458219 ], [ 1.323689, 44.458467 ], [ 1.321543985430119, 44.460112775067721 ], [ 1.321757, 44.460164 ], [ 1.321838, 44.460514 ], [ 1.322274, 44.469063 ], [ 1.324104, 44.470932 ], [ 1.326851, 44.473106 ], [ 1.333711, 44.475418 ], [ 1.333906, 44.47543 ], [ 1.334112, 44.475442 ], [ 1.334583, 44.475498 ], [ 1.335051, 44.475553 ], [ 1.33558, 44.475602 ], [ 1.336124, 44.475653 ], [ 1.329237, 44.471794 ], [ 1.328921, 44.471621 ] ] ], [ [ [ 1.343362, 44.482305 ], [ 1.350394, 44.480294 ], [ 1.35188, 44.480002 ], [ 1.352037, 44.479678 ], [ 1.351174, 44.479123 ], [ 1.350864, 44.47894 ], [ 1.350285, 44.47872 ], [ 1.346277, 44.477219 ], [ 1.344955, 44.477069 ], [ 1.339643, 44.475774 ], [ 1.338066249833303, 44.475736423919017 ], [ 1.33943, 44.475795 ], [ 1.339752, 44.475957 ], [ 1.342707, 44.478192 ], [ 1.34264, 44.478546 ], [ 1.342257, 44.478473 ], [ 1.341874, 44.4784 ], [ 1.341519, 44.478277 ], [ 1.34119, 44.478162 ], [ 1.340676, 44.477951 ], [ 1.340172, 44.477743 ], [ 1.339835, 44.477598 ], [ 1.339501, 44.477454 ], [ 1.339165, 44.477292 ], [ 1.338835, 44.477133 ], [ 1.342956, 44.482066 ], [ 1.343362, 44.482305 ] ] ], [ [ [ 1.329108997225203, 44.47805254963361 ], [ 1.327399, 44.478672 ], [ 1.327234690350124, 44.478813371004442 ], [ 1.327254, 44.478803 ], [ 1.329108997225203, 44.47805254963361 ] ] ], [ [ [ 1.322646, 44.503743 ], [ 1.323004, 44.503703 ], [ 1.327475, 44.498587 ], [ 1.332496, 44.493838 ], [ 1.332638, 44.493507 ], [ 1.33244099968435, 44.493339263631654 ], [ 1.331305, 44.493343 ], [ 1.331087, 44.493372 ], [ 1.329684, 44.493464 ], [ 1.329631, 44.493108 ], [ 1.329803529288759, 44.492290337345331 ], [ 1.322513, 44.490886 ], [ 1.321203, 44.484003 ], [ 1.321993, 44.490283 ], [ 1.321683, 44.490467 ], [ 1.317625, 44.493171 ], [ 1.321602, 44.501034 ], [ 1.323074, 44.500678 ], [ 1.323432, 44.500536 ], [ 1.324038, 44.500251 ], [ 1.324638, 44.499969 ], [ 1.325373, 44.499589 ], [ 1.326108, 44.499209 ], [ 1.326273, 44.499528 ], [ 1.325538, 44.499908 ], [ 1.324803, 44.500288 ], [ 1.324191, 44.500577 ], [ 1.323585, 44.500862 ], [ 1.323207, 44.501013 ], [ 1.322839, 44.501158 ], [ 1.322511, 44.501255 ], [ 1.322188, 44.501323 ], [ 1.321853, 44.501373 ], [ 1.316566, 44.502107 ], [ 1.316291, 44.502108 ], [ 1.316153, 44.502101 ], [ 1.317569, 44.502397 ], [ 1.322646, 44.503743 ] ] ], [ [ [ 1.283119, 44.505759 ], [ 1.283463, 44.505864 ], [ 1.290034, 44.499751 ], [ 1.296076, 44.498963 ], [ 1.299236, 44.497223 ], [ 1.301597787493846, 44.49402958350791 ], [ 1.30145, 44.493964 ], [ 1.297696, 44.4946 ], [ 1.292018, 44.491924 ], [ 1.286984, 44.494019 ], [ 1.284146, 44.499941 ], [ 1.282481, 44.501629 ], [ 1.279656, 44.500402 ], [ 1.272665, 44.499469 ], [ 1.272387, 44.499489 ], [ 1.272136, 44.499505 ], [ 1.271799, 44.499454 ], [ 1.277192, 44.503216 ], [ 1.283119, 44.505759 ] ] ], [ [ [ 1.243646, 44.490591 ], [ 1.24466, 44.492049 ], [ 1.244855, 44.492352 ], [ 1.249343, 44.499625 ], [ 1.251849, 44.502968 ], [ 1.25216, 44.503149 ], [ 1.258153, 44.509747 ], [ 1.258285, 44.509953 ], [ 1.263147, 44.511547 ], [ 1.264041, 44.511266 ], [ 1.264378, 44.51114 ], [ 1.264293, 44.510915 ], [ 1.264208, 44.510689 ], [ 1.263972, 44.510445 ], [ 1.261725, 44.50516 ], [ 1.261765, 44.506541 ], [ 1.261794, 44.506837 ], [ 1.261678, 44.507118 ], [ 1.260311, 44.508711 ], [ 1.260078, 44.509008 ], [ 1.259831, 44.509212 ], [ 1.259602, 44.508935 ], [ 1.260087, 44.503818 ], [ 1.25455, 44.499742 ], [ 1.254175, 44.499643 ], [ 1.2538, 44.499543 ], [ 1.253892, 44.499195 ], [ 1.255849, 44.498145 ], [ 1.25314, 44.4898 ], [ 1.252802, 44.489766 ], [ 1.252489, 44.489718 ], [ 1.252151, 44.489664 ], [ 1.251872, 44.489579 ], [ 1.251565, 44.489484 ], [ 1.249589, 44.489235 ], [ 1.249414, 44.489179 ], [ 1.249349, 44.488968 ], [ 1.246323, 44.483968 ], [ 1.245649521281577, 44.483586691431391 ], [ 1.243699, 44.490235 ], [ 1.243646, 44.490591 ] ] ] ] } },
{ "type": "Feature", "properties": { "codgeo": "46182", "value": 480, "isochrone_group": 8.0, "nb_agences": 1 }, "geometry": { "type": "MultiPolygon", "coordinates": [ [ [ [ 1.262693, 44.456245 ], [ 1.262473, 44.456585 ], [ 1.262361, 44.456792 ], [ 1.262255, 44.456988 ], [ 1.262224, 44.457127 ], [ 1.26224, 44.457253 ], [ 1.261756, 44.463974 ], [ 1.26151, 44.464237 ], [ 1.259579, 44.465953 ], [ 1.252607, 44.462216 ], [ 1.25229, 44.462046 ], [ 1.245472, 44.459223 ], [ 1.245125, 44.459128 ], [ 1.238808, 44.46077 ], [ 1.234583, 44.462179 ], [ 1.232687, 44.464863 ], [ 1.22943, 44.471463 ], [ 1.229217, 44.480204 ], [ 1.228259, 44.481407 ], [ 1.228498621425631, 44.483071815935624 ], [ 1.23364, 44.481932 ], [ 1.23454491643745, 44.482287647552404 ], [ 1.232076, 44.475408 ], [ 1.232143, 44.475055 ], [ 1.232453, 44.473755 ], [ 1.233897, 44.465088 ], [ 1.233951, 44.464689 ], [ 1.234006, 44.464281 ], [ 1.234041, 44.464099 ], [ 1.234082, 44.463892 ], [ 1.234196, 44.463563 ], [ 1.234354, 44.463165 ], [ 1.234466, 44.463011 ], [ 1.234825, 44.462984 ], [ 1.235074, 44.463161 ], [ 1.23514, 44.463314 ], [ 1.237385, 44.465986 ], [ 1.245706, 44.463421 ], [ 1.246022, 44.463248 ], [ 1.250717, 44.463661 ], [ 1.251017, 44.46386 ], [ 1.256371, 44.470155 ], [ 1.260278, 44.469883 ], [ 1.263843, 44.462682 ], [ 1.263861, 44.457224 ], [ 1.264016, 44.456899 ], [ 1.265072, 44.457161 ], [ 1.265724, 44.457283 ], [ 1.263215, 44.4561 ], [ 1.262912, 44.455905 ], [ 1.262693, 44.456245 ] ] ], [ [ [ 1.241086, 44.488871 ], [ 1.241432, 44.493583 ], [ 1.241469, 44.493689 ], [ 1.243797, 44.49948 ], [ 1.245446, 44.502474 ], [ 1.245741, 44.502681 ], [ 1.251407, 44.507082 ], [ 1.251697, 44.507296 ], [ 1.258588, 44.5116 ], [ 1.26047, 44.512945 ], [ 1.260774, 44.513139 ], [ 1.265497, 44.513539 ], [ 1.269206, 44.513748 ], [ 1.269245, 44.51339 ], [ 1.267489, 44.512401 ], [ 1.267184, 44.51221 ], [ 1.263972, 44.510445 ], [ 1.264208, 44.510689 ], [ 1.264293, 44.510915 ], [ 1.264378, 44.51114 ], [ 1.264041, 44.511266 ], [ 1.263147, 44.511547 ], [ 1.258285, 44.509953 ], [ 1.258153, 44.509747 ], [ 1.25216, 44.503149 ], [ 1.251849, 44.502968 ], [ 1.249343, 44.499625 ], [ 1.244855, 44.492352 ], [ 1.24466, 44.492049 ], [ 1.243646, 44.490591 ], [ 1.243699, 44.490235 ], [ 1.245775, 44.483159 ], [ 1.239849, 44.481609 ], [ 1.236748725693748, 44.483153782076592 ], [ 1.236991, 44.483249 ], [ 1.236449, 44.484628 ], [ 1.235202, 44.486994 ], [ 1.234359, 44.48923 ], [ 1.234343289168989, 44.489259221418322 ], [ 1.241086, 44.488871 ] ] ], [ [ [ 1.293214, 44.438567 ], [ 1.292771, 44.438997 ], [ 1.283995, 44.437054 ], [ 1.283641, 44.437121 ], [ 1.283428, 44.437415 ], [ 1.283244, 44.437653 ], [ 1.283166, 44.437868 ], [ 1.281283, 44.440753 ], [ 1.273303, 44.440571 ], [ 1.2692, 44.437928 ], [ 1.265733, 44.436165 ], [ 1.265393, 44.436629 ], [ 1.265054, 44.437093 ], [ 1.265004, 44.437301 ], [ 1.264749, 44.439997 ], [ 1.259795, 44.446278 ], [ 1.259751, 44.446635 ], [ 1.260028, 44.44667 ], [ 1.260531, 44.446732 ], [ 1.261034, 44.446795 ], [ 1.261778, 44.446766 ], [ 1.262759, 44.44676 ], [ 1.263048, 44.446785 ], [ 1.263391, 44.446793 ], [ 1.264318, 44.446939 ], [ 1.26495, 44.447081 ], [ 1.265241, 44.447136 ], [ 1.265814, 44.44728 ], [ 1.266122, 44.447375 ], [ 1.265825, 44.447283 ], [ 1.265527, 44.447192 ], [ 1.265634, 44.446848 ], [ 1.267617, 44.443027 ], [ 1.267965, 44.44312 ], [ 1.271495, 44.447102 ], [ 1.27177, 44.447333 ], [ 1.273107, 44.450049 ], [ 1.280465, 44.450203 ], [ 1.2808, 44.449953 ], [ 1.282001, 44.448731 ], [ 1.28611, 44.442203 ], [ 1.28627, 44.441881 ], [ 1.291445, 44.442618 ], [ 1.295681, 44.445078 ], [ 1.29595, 44.445229 ], [ 1.296189, 44.445366 ], [ 1.293623, 44.43865 ], [ 1.293354, 44.43841 ], [ 1.293214, 44.438567 ] ] ], [ [ [ 1.308273, 44.446788 ], [ 1.307081, 44.44486 ], [ 1.306958, 44.444909 ], [ 1.306633, 44.44521 ], [ 1.306368, 44.445472 ], [ 1.304580683510461, 44.446685659906883 ], [ 1.304869, 44.446731 ], [ 1.30558, 44.446489 ], [ 1.305696, 44.44683 ], [ 1.305772, 44.454969 ], [ 1.305775423405252, 44.454969673258873 ], [ 1.305773, 44.454968 ], [ 1.308094, 44.4471 ], [ 1.308273, 44.446788 ] ] ], [ [ [ 1.330566, 44.456761 ], [ 1.331054, 44.456426 ], [ 1.331209, 44.456311 ], [ 1.331312, 44.456173 ], [ 1.331024, 44.455958 ], [ 1.324744, 44.455705 ], [ 1.321872, 44.452696 ], [ 1.319411, 44.452517 ], [ 1.319053, 44.452553 ], [ 1.316957, 44.453533 ], [ 1.316784, 44.453707 ], [ 1.315544, 44.45462 ], [ 1.315445, 44.454694 ], [ 1.314866, 44.455073 ], [ 1.314043, 44.455709 ], [ 1.311704912185585, 44.456135787287259 ], [ 1.313145, 44.456419 ], [ 1.313406, 44.456666 ], [ 1.321313, 44.46029 ], [ 1.323689, 44.458467 ], [ 1.323974, 44.458219 ], [ 1.32628, 44.456519 ], [ 1.326731, 44.456573 ], [ 1.327182, 44.456627 ], [ 1.327633, 44.456724 ], [ 1.328066, 44.456819 ], [ 1.328188, 44.456874 ], [ 1.328616, 44.457127 ], [ 1.328828, 44.457418 ], [ 1.328556, 44.457616 ], [ 1.329989, 44.456954 ], [ 1.330428, 44.456834 ], [ 1.330566, 44.456761 ] ] ], [ [ [ 1.327697, 44.467508 ], [ 1.327479, 44.467221 ], [ 1.323207, 44.460168 ], [ 1.32546, 44.467975 ], [ 1.328921, 44.471621 ], [ 1.329237, 44.471794 ], [ 1.336124, 44.475653 ], [ 1.33637, 44.475696 ], [ 1.336592091058628, 44.475701292729163 ], [ 1.331333, 44.470337 ], [ 1.331142, 44.470032 ], [ 1.327697, 44.467508 ] ] ], [ [ [ 1.347831, 44.475065 ], [ 1.347619, 44.475035 ], [ 1.347407, 44.475006 ], [ 1.342479, 44.475662 ], [ 1.339643, 44.475774 ], [ 1.344955, 44.477069 ], [ 1.346277, 44.477219 ], [ 1.348745662664285, 44.478143516631512 ], [ 1.348821, 44.478015 ], [ 1.348980072982022, 44.476163509851382 ], [ 1.348861, 44.47608 ], [ 1.347831, 44.475065 ] ] ], [ [ [ 1.347791491670657, 44.481684347575289 ], [ 1.348653421975635, 44.480791767691549 ], [ 1.344067565914948, 44.482103223399456 ], [ 1.347791491670657, 44.481684347575289 ] ] ], [ [ [ 1.342956, 44.482066 ], [ 1.338835, 44.477133 ], [ 1.33825, 44.476819 ], [ 1.335018, 44.475912 ], [ 1.334541, 44.475855 ], [ 1.327254, 44.478803 ], [ 1.325124, 44.479947 ], [ 1.321203, 44.484003 ], [ 1.322513, 44.490886 ], [ 1.32776130874582, 44.491896954853843 ], [ 1.327691, 44.485754 ], [ 1.326938, 44.485154 ], [ 1.327061, 44.483631 ], [ 1.329183, 44.482339 ], [ 1.336928, 44.479203 ], [ 1.337396, 44.479424 ], [ 1.338117, 44.479889 ], [ 1.338583, 44.480341 ], [ 1.339646, 44.481987 ], [ 1.342627751589936, 44.484629147557243 ], [ 1.343348761051108, 44.482297206628616 ], [ 1.342956, 44.482066 ] ] ], [ [ [ 1.326513, 44.509036 ], [ 1.326506, 44.508701 ], [ 1.326466, 44.508543 ], [ 1.326087, 44.507849 ], [ 1.325834, 44.507367 ], [ 1.326860087885956, 44.501048107621394 ], [ 1.325487, 44.501757 ], [ 1.324278, 44.502327 ], [ 1.324252968067056, 44.502273852017218 ], [ 1.323004, 44.503703 ], [ 1.322646, 44.503743 ], [ 1.317569, 44.502397 ], [ 1.322405, 44.504737 ], [ 1.326153, 44.509044 ], [ 1.326513, 44.509036 ] ] ], [ [ [ 1.276926, 44.50774 ], [ 1.277259, 44.507877 ], [ 1.284704, 44.509576 ], [ 1.285057, 44.509505 ], [ 1.285181, 44.507197 ], [ 1.285073, 44.506853 ], [ 1.290578, 44.49982 ], [ 1.290953, 44.499861 ], [ 1.291673, 44.499983 ], [ 1.291882, 44.500011 ], [ 1.292109, 44.500042 ], [ 1.296546, 44.502829 ], [ 1.296905, 44.502858 ], [ 1.298312, 44.501852 ], [ 1.298442, 44.501517 ], [ 1.299784, 44.49714 ], [ 1.299918, 44.496972 ], [ 1.308881, 44.497166 ], [ 1.308388, 44.496541 ], [ 1.308318, 44.496406 ], [ 1.301667, 44.493936 ], [ 1.299236, 44.497223 ], [ 1.296076, 44.498963 ], [ 1.290034, 44.499751 ], [ 1.283463, 44.505864 ], [ 1.283119, 44.505759 ], [ 1.277192, 44.503216 ], [ 1.271799, 44.499454 ], [ 1.271312, 44.499333 ], [ 1.269749094979553, 44.499151028699735 ], [ 1.275399, 44.506 ], [ 1.275541, 44.50633 ], [ 1.276926, 44.50774 ] ] ] ] } },
{ "type": "Feature", "properties": { "codgeo": "46182", "value": 540, "isochrone_group": 9.0, "nb_agences": 1 }, "geometry": { "type": "MultiPolygon", "coordinates": [ [ [ [ 1.326087, 44.507849 ], [ 1.326466, 44.508543 ], [ 1.326506, 44.508701 ], [ 1.326513, 44.509036 ], [ 1.326153, 44.509044 ], [ 1.322405, 44.504737 ], [ 1.319057417977528, 44.503117202247182 ], [ 1.318738, 44.503112 ], [ 1.317868, 44.503055 ], [ 1.317493, 44.50301 ], [ 1.316975, 44.502926 ], [ 1.315754, 44.50268 ], [ 1.315221, 44.502541 ], [ 1.314284, 44.502246 ], [ 1.313826, 44.502082 ], [ 1.312876, 44.501685 ], [ 1.312103, 44.501286 ], [ 1.311317, 44.500778 ], [ 1.31042, 44.500132 ], [ 1.3099, 44.499704 ], [ 1.309545, 44.499355 ], [ 1.308831, 44.498621 ], [ 1.309543563708156, 44.497928858334603 ], [ 1.309017, 44.497322 ], [ 1.308881, 44.497166 ], [ 1.299918, 44.496972 ], [ 1.299784, 44.49714 ], [ 1.298442, 44.501517 ], [ 1.298312, 44.501852 ], [ 1.296905, 44.502858 ], [ 1.296546, 44.502829 ], [ 1.292109, 44.500042 ], [ 1.291882, 44.500011 ], [ 1.291673, 44.499983 ], [ 1.290953, 44.499861 ], [ 1.290578, 44.49982 ], [ 1.285073, 44.506853 ], [ 1.285181, 44.507197 ], [ 1.285057, 44.509505 ], [ 1.284704, 44.509576 ], [ 1.277259, 44.507877 ], [ 1.276926, 44.50774 ], [ 1.275541, 44.50633 ], [ 1.275399, 44.506 ], [ 1.269707, 44.4991 ], [ 1.269328, 44.499102 ], [ 1.268947, 44.499104 ], [ 1.268567, 44.499075 ], [ 1.268202, 44.499046 ], [ 1.261725, 44.50516 ], [ 1.263972, 44.510445 ], [ 1.267184, 44.51221 ], [ 1.267489, 44.512401 ], [ 1.269245, 44.51339 ], [ 1.269206, 44.513748 ], [ 1.265497, 44.513539 ], [ 1.260774, 44.513139 ], [ 1.26047, 44.512945 ], [ 1.258588, 44.5116 ], [ 1.251697, 44.507296 ], [ 1.251407, 44.507082 ], [ 1.245741, 44.502681 ], [ 1.245446, 44.502474 ], [ 1.243797, 44.49948 ], [ 1.241469, 44.493689 ], [ 1.241432, 44.493583 ], [ 1.241086, 44.488871 ], [ 1.234359311153495, 44.48925829892918 ], [ 1.234427522809949, 44.495462043601712 ], [ 1.238967, 44.498764 ], [ 1.239311, 44.502348 ], [ 1.241535, 44.506026 ], [ 1.241793, 44.505946 ], [ 1.242218, 44.505842 ], [ 1.248721, 44.511756 ], [ 1.254455, 44.514882 ], [ 1.256683, 44.516126 ], [ 1.261967, 44.516326 ], [ 1.265618, 44.516381 ], [ 1.272533, 44.519227 ], [ 1.273074, 44.519561 ], [ 1.273587, 44.519785 ], [ 1.274093, 44.519941 ], [ 1.274724, 44.52005 ], [ 1.275651, 44.520082 ], [ 1.277528, 44.520099 ], [ 1.284162, 44.514844 ], [ 1.285838, 44.514999 ], [ 1.288993, 44.513223 ], [ 1.291284, 44.510446 ], [ 1.296739, 44.506515 ], [ 1.302647, 44.50505 ], [ 1.304992, 44.502318 ], [ 1.311717, 44.501994 ], [ 1.312848, 44.502589 ], [ 1.3132, 44.502756 ], [ 1.313802, 44.503 ], [ 1.314351, 44.503255 ], [ 1.314762, 44.503353 ], [ 1.314989, 44.503412 ], [ 1.316043, 44.503717 ], [ 1.31653, 44.503809 ], [ 1.322647, 44.510373 ], [ 1.325293, 44.512814 ], [ 1.326087073015619, 44.513299430287418 ], [ 1.326974, 44.512031 ], [ 1.328081, 44.510852 ], [ 1.32838, 44.510812 ], [ 1.328746, 44.510773 ], [ 1.330427, 44.511012 ], [ 1.331549963908668, 44.511750792045177 ], [ 1.330245, 44.50735 ], [ 1.331612717991294, 44.501088590220292 ], [ 1.327023, 44.500964 ], [ 1.326860087885956, 44.501048107621394 ], [ 1.325834, 44.507367 ], [ 1.326087, 44.507849 ] ] ], [ [ [ 1.22943, 44.471463 ], [ 1.232687, 44.464863 ], [ 1.234583, 44.462179 ], [ 1.238808, 44.46077 ], [ 1.245125, 44.459128 ], [ 1.245472, 44.459223 ], [ 1.250198452656736, 44.461179992644475 ], [ 1.247454, 44.45715 ], [ 1.246606, 44.453651 ], [ 1.246363, 44.45371 ], [ 1.244875, 44.454703 ], [ 1.244517, 44.455079 ], [ 1.236188, 44.458227 ], [ 1.235425, 44.458171 ], [ 1.234925, 44.458252 ], [ 1.233938, 44.458516 ], [ 1.231248, 44.462909 ], [ 1.226749, 44.469312 ], [ 1.228187, 44.472612 ], [ 1.227786, 44.477221 ], [ 1.223786811609408, 44.480691750142491 ], [ 1.227254, 44.480137 ], [ 1.229288415739938, 44.477273272381225 ], [ 1.22943, 44.471463 ] ] ], [ [ [ 1.34443, 44.472729 ], [ 1.344153, 44.472984 ], [ 1.337673, 44.474357 ], [ 1.33362, 44.469713 ], [ 1.333526, 44.469638 ], [ 1.331082, 44.466995 ], [ 1.331146, 44.458286 ], [ 1.332553, 44.457714 ], [ 1.334742, 44.456623 ], [ 1.334894, 44.456356 ], [ 1.334975, 44.455692 ], [ 1.334747, 44.45531 ], [ 1.329759, 44.449446 ], [ 1.324933, 44.446003 ], [ 1.32433, 44.446295 ], [ 1.321525, 44.447897 ], [ 1.31601, 44.448382 ], [ 1.310558, 44.443728 ], [ 1.307294, 44.443047 ], [ 1.306362, 44.443403 ], [ 1.305229, 44.44432 ], [ 1.303638, 44.445439 ], [ 1.296995, 44.443961 ], [ 1.297994, 44.437974 ], [ 1.298296, 44.437685 ], [ 1.299088, 44.436359 ], [ 1.298942, 44.4352 ], [ 1.29876, 44.434824 ], [ 1.295594, 44.435306 ], [ 1.295574, 44.435309 ], [ 1.295502, 44.435325 ], [ 1.29452, 44.43555 ], [ 1.285983, 44.434687 ], [ 1.281081, 44.430475 ], [ 1.280829, 44.430109 ], [ 1.280654, 44.429875 ], [ 1.27753, 44.431663 ], [ 1.27228, 44.434938 ], [ 1.26747, 44.430978 ], [ 1.267218, 44.430562 ], [ 1.266725, 44.429916 ], [ 1.263454, 44.431419 ], [ 1.261864, 44.434046 ], [ 1.258265, 44.438826 ], [ 1.253012, 44.443621 ], [ 1.253426, 44.444871 ], [ 1.253763, 44.447141 ], [ 1.256355, 44.44998 ], [ 1.260621, 44.456894 ], [ 1.260661, 44.457615 ], [ 1.260132, 44.464284 ], [ 1.257140953454279, 44.464646204253967 ], [ 1.259579, 44.465953 ], [ 1.26151, 44.464237 ], [ 1.261756, 44.463974 ], [ 1.26224, 44.457253 ], [ 1.262224, 44.457127 ], [ 1.262255, 44.456988 ], [ 1.262361, 44.456792 ], [ 1.262473, 44.456585 ], [ 1.262693, 44.456245 ], [ 1.262912, 44.455905 ], [ 1.263215, 44.4561 ], [ 1.265724, 44.457283 ], [ 1.266345, 44.457403 ], [ 1.266521, 44.457526 ], [ 1.273047, 44.456527 ], [ 1.271996, 44.449854 ], [ 1.271793, 44.449701 ], [ 1.269391, 44.448659 ], [ 1.268951, 44.44862 ], [ 1.268672, 44.448566 ], [ 1.26841, 44.448473 ], [ 1.26812, 44.448367 ], [ 1.267943, 44.448258 ], [ 1.266122, 44.447375 ], [ 1.265814, 44.44728 ], [ 1.265241, 44.447136 ], [ 1.26495, 44.447081 ], [ 1.264318, 44.446939 ], [ 1.263391, 44.446793 ], [ 1.263048, 44.446785 ], [ 1.262759, 44.44676 ], [ 1.261778, 44.446766 ], [ 1.261034, 44.446795 ], [ 1.260531, 44.446732 ], [ 1.260028, 44.44667 ], [ 1.259751, 44.446635 ], [ 1.259795, 44.446278 ], [ 1.264749, 44.439997 ], [ 1.265004, 44.437301 ], [ 1.265054, 44.437093 ], [ 1.265393, 44.436629 ], [ 1.265733, 44.436165 ], [ 1.2692, 44.437928 ], [ 1.273303, 44.440571 ], [ 1.281283, 44.440753 ], [ 1.283166, 44.437868 ], [ 1.283244, 44.437653 ], [ 1.283428, 44.437415 ], [ 1.283641, 44.437121 ], [ 1.283995, 44.437054 ], [ 1.292771, 44.438997 ], [ 1.293214, 44.438567 ], [ 1.293354, 44.43841 ], [ 1.293623, 44.43865 ], [ 1.296189, 44.445366 ], [ 1.304159, 44.446972 ], [ 1.306368, 44.445472 ], [ 1.306633, 44.44521 ], [ 1.306958, 44.444909 ], [ 1.307081, 44.44486 ], [ 1.308273, 44.446788 ], [ 1.308094, 44.4471 ], [ 1.305773, 44.454968 ], [ 1.308351, 44.456748 ], [ 1.314043, 44.455709 ], [ 1.314866, 44.455073 ], [ 1.315445, 44.454694 ], [ 1.315544, 44.45462 ], [ 1.316784, 44.453707 ], [ 1.316957, 44.453533 ], [ 1.319053, 44.452553 ], [ 1.319411, 44.452517 ], [ 1.321872, 44.452696 ], [ 1.324744, 44.455705 ], [ 1.331024, 44.455958 ], [ 1.331312, 44.456173 ], [ 1.331209, 44.456311 ], [ 1.331054, 44.456426 ], [ 1.330566, 44.456761 ], [ 1.330428, 44.456834 ], [ 1.329989, 44.456954 ], [ 1.328556, 44.457616 ], [ 1.328417, 44.457671 ], [ 1.328268, 44.457681 ], [ 1.326514, 44.457761 ], [ 1.323207, 44.460168 ], [ 1.327479, 44.467221 ], [ 1.327697, 44.467508 ], [ 1.331142, 44.470032 ], [ 1.331333, 44.470337 ], [ 1.336632, 44.475742 ], [ 1.339643, 44.475774 ], [ 1.340142828648354, 44.475754260645772 ], [ 1.340292, 44.475638 ], [ 1.340526073580054, 44.475739125443965 ], [ 1.342479, 44.475662 ], [ 1.345639720544167, 44.475241254732744 ], [ 1.346977012113727, 44.473169308470972 ], [ 1.346576, 44.473061 ], [ 1.34443, 44.472729 ] ] ] ] } },
{ "type": "Feature", "properties": { "codgeo": "46182", "value": 600, "isochrone_group": 10.0, "nb_agences": 1 }, "geometry": { "type": "MultiPolygon", "coordinates": [ [ [ [ 1.3377, 44.45907 ], [ 1.337415, 44.457828 ], [ 1.33584, 44.451756 ], [ 1.333824, 44.446088 ], [ 1.333205, 44.443952 ], [ 1.332575, 44.44348 ], [ 1.330172, 44.441797 ], [ 1.329, 44.441731 ], [ 1.327458, 44.443604 ], [ 1.320504, 44.445072 ], [ 1.316679, 44.446062 ], [ 1.310435, 44.442065 ], [ 1.307192, 44.440461 ], [ 1.30278, 44.433537 ], [ 1.302503, 44.433111 ], [ 1.30197, 44.432595 ], [ 1.301564, 44.432363 ], [ 1.301207, 44.432222 ], [ 1.30069, 44.432111 ], [ 1.300164, 44.432105 ], [ 1.29928, 44.432273 ], [ 1.298234, 44.432512 ], [ 1.297197, 44.43294 ], [ 1.296351, 44.433537 ], [ 1.288115, 44.431212 ], [ 1.287487, 44.430294 ], [ 1.28674, 44.429682 ], [ 1.280107, 44.428562 ], [ 1.278488, 44.425963 ], [ 1.278058, 44.425125 ], [ 1.277731, 44.424724 ], [ 1.275094, 44.423082 ], [ 1.274839, 44.423335 ], [ 1.274531, 44.423712 ], [ 1.269625, 44.426832 ], [ 1.261749, 44.423754 ], [ 1.261121, 44.423144 ], [ 1.259532, 44.423201 ], [ 1.259069, 44.423934 ], [ 1.258783, 44.424878 ], [ 1.258612, 44.425726 ], [ 1.257872, 44.429822 ], [ 1.255662, 44.435818 ], [ 1.24963, 44.440995 ], [ 1.248624, 44.444452 ], [ 1.247242, 44.447818 ], [ 1.243341, 44.45189 ], [ 1.243012, 44.45213 ], [ 1.241267, 44.453624 ], [ 1.233674, 44.456326 ], [ 1.231973, 44.456535 ], [ 1.230078, 44.457762 ], [ 1.229296, 44.461276 ], [ 1.22577, 44.468662 ], [ 1.224005, 44.4718 ], [ 1.225038, 44.472381 ], [ 1.224506601880986, 44.476421639616404 ], [ 1.227791077571029, 44.477162639588848 ], [ 1.228187, 44.472612 ], [ 1.226749, 44.469312 ], [ 1.231248, 44.462909 ], [ 1.233938, 44.458516 ], [ 1.234925, 44.458252 ], [ 1.235425, 44.458171 ], [ 1.236188, 44.458227 ], [ 1.244517, 44.455079 ], [ 1.244875, 44.454703 ], [ 1.246363, 44.45371 ], [ 1.246606, 44.453651 ], [ 1.247454, 44.45715 ], [ 1.25043, 44.46152 ], [ 1.252031, 44.465265 ], [ 1.260132, 44.464284 ], [ 1.260661, 44.457615 ], [ 1.260621, 44.456894 ], [ 1.256355, 44.44998 ], [ 1.253763, 44.447141 ], [ 1.253426, 44.444871 ], [ 1.253012, 44.443621 ], [ 1.258265, 44.438826 ], [ 1.261864, 44.434046 ], [ 1.263454, 44.431419 ], [ 1.266725, 44.429916 ], [ 1.267218, 44.430562 ], [ 1.26747, 44.430978 ], [ 1.27228, 44.434938 ], [ 1.27753, 44.431663 ], [ 1.280654, 44.429875 ], [ 1.280829, 44.430109 ], [ 1.281081, 44.430475 ], [ 1.285983, 44.434687 ], [ 1.29452, 44.43555 ], [ 1.295502, 44.435325 ], [ 1.295574, 44.435309 ], [ 1.295594, 44.435306 ], [ 1.29876, 44.434824 ], [ 1.298942, 44.4352 ], [ 1.299088, 44.436359 ], [ 1.298296, 44.437685 ], [ 1.297994, 44.437974 ], [ 1.296995, 44.443961 ], [ 1.303638, 44.445439 ], [ 1.305229, 44.44432 ], [ 1.306362, 44.443403 ], [ 1.307294, 44.443047 ], [ 1.310558, 44.443728 ], [ 1.31601, 44.448382 ], [ 1.321525, 44.447897 ], [ 1.32433, 44.446295 ], [ 1.324933, 44.446003 ], [ 1.329759, 44.449446 ], [ 1.334747, 44.45531 ], [ 1.334975, 44.455692 ], [ 1.334894, 44.456356 ], [ 1.334742, 44.456623 ], [ 1.332553, 44.457714 ], [ 1.331146, 44.458286 ], [ 1.331082, 44.466995 ], [ 1.333526, 44.469638 ], [ 1.33362, 44.469713 ], [ 1.337614552013837, 44.47429002925049 ], [ 1.338033375827621, 44.474280642590841 ], [ 1.338070519281175, 44.474272772535031 ], [ 1.335633, 44.470012 ], [ 1.335275, 44.46643 ], [ 1.336561, 44.461326 ], [ 1.3377, 44.45907 ] ] ], [ [ [ 1.2489, 44.514032 ], [ 1.252176, 44.516773 ], [ 1.255775, 44.516819 ], [ 1.263915, 44.517673 ], [ 1.269578751191647, 44.520480233784646 ], [ 1.269551, 44.520442 ], [ 1.268662, 44.519804 ], [ 1.267777, 44.519048 ], [ 1.268900695251196, 44.517732055775106 ], [ 1.265618, 44.516381 ], [ 1.261967, 44.516326 ], [ 1.256683, 44.516126 ], [ 1.254455, 44.514882 ], [ 1.248744963037651, 44.51176906390927 ], [ 1.24869, 44.511759 ], [ 1.247072628752442, 44.513693634206867 ], [ 1.2489, 44.514032 ] ] ], [ [ [ 1.235642834015267, 44.496346045094022 ], [ 1.236375, 44.498224 ], [ 1.238414731155375, 44.498362286857983 ], [ 1.235642834015267, 44.496346045094022 ] ] ], [ [ [ 1.286342, 44.518973 ], [ 1.292524, 44.514686 ], [ 1.295335, 44.508889 ], [ 1.298695, 44.507931 ], [ 1.305829, 44.507271 ], [ 1.309426, 44.507112 ], [ 1.318255, 44.508322 ], [ 1.319252, 44.513624 ], [ 1.319490307535409, 44.514047489187121 ], [ 1.319306, 44.513571 ], [ 1.319593, 44.513293 ], [ 1.322325926102022, 44.510028463615107 ], [ 1.31653, 44.503809 ], [ 1.316043, 44.503717 ], [ 1.314989, 44.503412 ], [ 1.314762, 44.503353 ], [ 1.314351, 44.503255 ], [ 1.313802, 44.503 ], [ 1.3132, 44.502756 ], [ 1.312848, 44.502589 ], [ 1.311717, 44.501994 ], [ 1.304992, 44.502318 ], [ 1.302647, 44.50505 ], [ 1.296739, 44.506515 ], [ 1.291284, 44.510446 ], [ 1.288993, 44.513223 ], [ 1.285838, 44.514999 ], [ 1.284162, 44.514844 ], [ 1.280509870519135, 44.517736966599628 ], [ 1.280761, 44.517889 ], [ 1.282065, 44.518779 ], [ 1.286034892988863, 44.520241243128105 ], [ 1.286342, 44.518973 ] ] ] ] } },
{ "type": "Feature", "properties": { "codgeo": "46182", "value": 660, "isochrone_group": 11.0, "nb_agences": 1 }, "geometry": { "type": "MultiPolygon", "coordinates": [ [ [ [ 1.339529, 44.458351 ], [ 1.338995, 44.450424 ], [ 1.340896, 44.44532 ], [ 1.341471, 44.441766 ], [ 1.335769, 44.439343 ], [ 1.335661, 44.439341 ], [ 1.334927, 44.439428 ], [ 1.334335, 44.439521 ], [ 1.333, 44.439693 ], [ 1.325147, 44.437921 ], [ 1.319651, 44.442586 ], [ 1.311241, 44.44018 ], [ 1.30718, 44.432232 ], [ 1.305056, 44.430966 ], [ 1.304569, 44.431001 ], [ 1.300164, 44.432105 ], [ 1.30069, 44.432111 ], [ 1.301207, 44.432222 ], [ 1.301564, 44.432363 ], [ 1.30197, 44.432595 ], [ 1.302503, 44.433111 ], [ 1.30278, 44.433537 ], [ 1.307192, 44.440461 ], [ 1.310435, 44.442065 ], [ 1.316679, 44.446062 ], [ 1.320504, 44.445072 ], [ 1.327458, 44.443604 ], [ 1.329, 44.441731 ], [ 1.330172, 44.441797 ], [ 1.332575, 44.44348 ], [ 1.333205, 44.443952 ], [ 1.333824, 44.446088 ], [ 1.33584, 44.451756 ], [ 1.337415, 44.457828 ], [ 1.3377, 44.45907 ], [ 1.336561, 44.461326 ], [ 1.335275, 44.46643 ], [ 1.335633, 44.470012 ], [ 1.338252, 44.47459 ], [ 1.344153, 44.472984 ], [ 1.344544, 44.472632 ], [ 1.345247, 44.471907 ], [ 1.345372, 44.471864 ], [ 1.345739258532505, 44.471682520846187 ], [ 1.347686, 44.469957 ], [ 1.34578, 44.467 ], [ 1.34473, 44.466372 ], [ 1.343912, 44.465382 ], [ 1.343375, 44.464091 ], [ 1.346317, 44.462015 ], [ 1.347716039903834, 44.460977868956107 ], [ 1.344835, 44.460896 ], [ 1.341962, 44.459022 ], [ 1.341912, 44.458989 ], [ 1.339529, 44.458351 ] ] ], [ [ [ 1.276585, 44.419785 ], [ 1.275423, 44.419538 ], [ 1.272107, 44.418865 ], [ 1.271511, 44.418752 ], [ 1.269193, 44.418398 ], [ 1.264133, 44.419274 ], [ 1.259203, 44.416992 ], [ 1.258763, 44.416794 ], [ 1.258389, 44.416814 ], [ 1.257972, 44.417162 ], [ 1.256246, 44.42264 ], [ 1.256037, 44.426445 ], [ 1.255303, 44.429802 ], [ 1.249802, 44.434688 ], [ 1.24464, 44.439386 ], [ 1.242547, 44.442315 ], [ 1.244572, 44.44697 ], [ 1.244733927235365, 44.450436013918889 ], [ 1.247242, 44.447818 ], [ 1.248624, 44.444452 ], [ 1.24963, 44.440995 ], [ 1.255662, 44.435818 ], [ 1.257872, 44.429822 ], [ 1.258612, 44.425726 ], [ 1.258783, 44.424878 ], [ 1.259069, 44.423934 ], [ 1.259532, 44.423201 ], [ 1.261121, 44.423144 ], [ 1.261749, 44.423754 ], [ 1.269625, 44.426832 ], [ 1.274531, 44.423712 ], [ 1.274839, 44.423335 ], [ 1.275094, 44.423082 ], [ 1.277731, 44.424724 ], [ 1.278058, 44.425125 ], [ 1.278488, 44.425963 ], [ 1.280107, 44.428562 ], [ 1.28674, 44.429682 ], [ 1.287487, 44.430294 ], [ 1.288115, 44.431212 ], [ 1.287482, 44.426619 ], [ 1.287457, 44.426488 ], [ 1.286346, 44.425598 ], [ 1.284107, 44.423994 ], [ 1.276585, 44.419785 ] ] ], [ [ [ 1.22746, 44.454742 ], [ 1.226723, 44.45532 ], [ 1.225983428108667, 44.457438790728283 ], [ 1.229637191215839, 44.459742821058228 ], [ 1.230078, 44.457762 ], [ 1.231973, 44.456535 ], [ 1.233593636661539, 44.456335874155045 ], [ 1.232933, 44.456135 ], [ 1.231141, 44.455378 ], [ 1.229386, 44.454426 ], [ 1.228587, 44.454347 ], [ 1.22746, 44.454742 ] ] ], [ [ [ 1.253575, 44.522827 ], [ 1.254418, 44.52247 ], [ 1.25509, 44.521679 ], [ 1.263495, 44.520017 ], [ 1.267542282255662, 44.519470859572216 ], [ 1.263915, 44.517673 ], [ 1.255775, 44.516819 ], [ 1.254729630657337, 44.516805638791411 ], [ 1.252563, 44.521071 ], [ 1.252606, 44.521244 ], [ 1.25247205780347, 44.521623502890172 ], [ 1.253426, 44.52285 ], [ 1.253575, 44.522827 ] ] ], [ [ [ 1.300703, 44.509312 ], [ 1.303352936392852, 44.507500072326991 ], [ 1.298695, 44.507931 ], [ 1.295335, 44.508889 ], [ 1.292524, 44.514686 ], [ 1.286693840476825, 44.518729010979598 ], [ 1.289375219945247, 44.519477059276205 ], [ 1.292901, 44.51472 ], [ 1.294978, 44.515407 ], [ 1.296982, 44.512416 ], [ 1.300703, 44.509312 ] ] ], [ [ [ 1.318824341927006, 44.511349734099291 ], [ 1.31452, 44.513651 ], [ 1.314428258771115, 44.514778286059034 ], [ 1.314666, 44.513663 ], [ 1.318828250563958, 44.511370520050249 ], [ 1.318824341927006, 44.511349734099291 ] ] ] ] } },
{ "type": "Feature", "properties": { "codgeo": "46182", "value": 720, "isochrone_group": 12.0, "nb_agences": 1 }, "geometry": { "type": "MultiPolygon", "coordinates": [ [ [ [ 1.338024, 44.435639 ], [ 1.337344, 44.435296 ], [ 1.329206, 44.432126 ], [ 1.325628, 44.43173 ], [ 1.325025, 44.433441 ], [ 1.324826, 44.433942 ], [ 1.324747, 44.435007 ], [ 1.324425, 44.437137 ], [ 1.317736, 44.4409 ], [ 1.312764, 44.437414 ], [ 1.310293, 44.433784 ], [ 1.309803, 44.429991 ], [ 1.309049, 44.429304 ], [ 1.306415, 44.427224 ], [ 1.30629, 44.427306 ], [ 1.300026, 44.430209 ], [ 1.297197, 44.43294 ], [ 1.298234, 44.432512 ], [ 1.29928, 44.432273 ], [ 1.300164, 44.432105 ], [ 1.304569, 44.431001 ], [ 1.305056, 44.430966 ], [ 1.30718, 44.432232 ], [ 1.311241, 44.44018 ], [ 1.319651, 44.442586 ], [ 1.325147, 44.437921 ], [ 1.333, 44.439693 ], [ 1.334335, 44.439521 ], [ 1.334927, 44.439428 ], [ 1.335661, 44.439341 ], [ 1.335769, 44.439343 ], [ 1.341470158554921, 44.441765642437474 ], [ 1.341475, 44.441767 ], [ 1.342166, 44.441995 ], [ 1.343885, 44.442988 ], [ 1.345678196264948, 44.442966255093225 ], [ 1.342427, 44.442122 ], [ 1.33911, 44.437167 ], [ 1.33838, 44.435875 ], [ 1.338024, 44.435639 ] ] ], [ [ [ 1.339825, 44.458415 ], [ 1.341308, 44.458736 ], [ 1.34184846791558, 44.458971990570774 ], [ 1.341912, 44.458989 ], [ 1.341960045112781, 44.459020709774428 ], [ 1.341963, 44.459022 ], [ 1.343896, 44.460283 ], [ 1.352074, 44.457118 ], [ 1.348012, 44.451382 ], [ 1.346828, 44.451077 ], [ 1.346687, 44.451028 ], [ 1.346517, 44.450944 ], [ 1.346384, 44.45085 ], [ 1.343169, 44.447135 ], [ 1.342815, 44.44692 ], [ 1.342497, 44.446665 ], [ 1.340719202368618, 44.445794684434794 ], [ 1.338995, 44.450424 ], [ 1.339529, 44.458351 ], [ 1.33981877442627, 44.45842858123541 ], [ 1.339825, 44.458415 ] ] ], [ [ [ 1.291044, 44.424319 ], [ 1.291123, 44.423958 ], [ 1.291181, 44.423628 ], [ 1.285544, 44.417468 ], [ 1.285126, 44.416813 ], [ 1.277001, 44.41739 ], [ 1.276808, 44.417516 ], [ 1.272059463195598, 44.418855987149499 ], [ 1.272107, 44.418865 ], [ 1.275423, 44.419538 ], [ 1.276585, 44.419785 ], [ 1.284107, 44.423994 ], [ 1.286346, 44.425598 ], [ 1.287457, 44.426488 ], [ 1.287482, 44.426619 ], [ 1.288115, 44.431212 ], [ 1.288442024314086, 44.431304318058551 ], [ 1.289392, 44.426755 ], [ 1.289779, 44.426308 ], [ 1.290061, 44.425843 ], [ 1.290205, 44.425636 ], [ 1.291044, 44.424319 ] ] ], [ [ [ 1.250524, 44.416909 ], [ 1.250523, 44.416992 ], [ 1.251137, 44.420376 ], [ 1.252069, 44.427315 ], [ 1.249665, 44.434677 ], [ 1.241529, 44.437026 ], [ 1.240808, 44.436876 ], [ 1.239984, 44.43679 ], [ 1.239219, 44.436739 ], [ 1.238084, 44.436613 ], [ 1.237688, 44.440191 ], [ 1.23935, 44.446449 ], [ 1.240187, 44.44995 ], [ 1.23880700749101, 44.456941962045555 ], [ 1.240363, 44.45678 ], [ 1.24474, 44.450566 ], [ 1.244572, 44.44697 ], [ 1.242547, 44.442315 ], [ 1.24464, 44.439386 ], [ 1.249802, 44.434688 ], [ 1.255303, 44.429802 ], [ 1.256037, 44.426445 ], [ 1.256246, 44.42264 ], [ 1.257972, 44.417162 ], [ 1.258389, 44.416814 ], [ 1.258763, 44.416794 ], [ 1.259203, 44.416992 ], [ 1.264133, 44.419274 ], [ 1.267472036952079, 44.418695937476294 ], [ 1.263532, 44.414001 ], [ 1.259099, 44.41324 ], [ 1.253378, 44.413095 ], [ 1.25328, 44.413127 ], [ 1.250524, 44.416909 ] ] ], [ [ [ 1.298866, 44.515532 ], [ 1.298833, 44.511933 ], [ 1.304934, 44.506419 ], [ 1.300703, 44.509312 ], [ 1.296982, 44.512416 ], [ 1.294978, 44.515407 ], [ 1.292901, 44.51472 ], [ 1.290528443249914, 44.517921105264961 ], [ 1.293465, 44.519546 ], [ 1.293714161236923, 44.519963191995473 ], [ 1.29701, 44.515864 ], [ 1.297851, 44.515678 ], [ 1.298866, 44.515532 ] ] ], [ [ [ 1.308863, 44.504925 ], [ 1.307338, 44.505211 ], [ 1.310416581843005, 44.512702793185021 ], [ 1.314266, 44.506504 ], [ 1.313208600338569, 44.503583278563951 ], [ 1.30966, 44.504603 ], [ 1.308863, 44.504925 ] ] ] ] } },
{ "type": "Feature", "properties": { "codgeo": "46182", "value": 780, "isochrone_group": 13.0, "nb_agences": 1 }, "geometry": { "type": "MultiPolygon", "coordinates": [ [ [ [ 1.343358611133981, 44.440585422536522 ], [ 1.343319, 44.440513 ], [ 1.33838, 44.435875 ], [ 1.33911, 44.437167 ], [ 1.341832854640489, 44.44123445394743 ], [ 1.343358611133981, 44.440585422536522 ] ] ], [ [ [ 1.328982, 44.426225 ], [ 1.326864, 44.425004 ], [ 1.323273, 44.424755 ], [ 1.323213, 44.424954 ], [ 1.322905, 44.426462 ], [ 1.322167, 44.428399 ], [ 1.313671, 44.427847 ], [ 1.31094, 44.425689 ], [ 1.308132, 44.424598 ], [ 1.308022, 44.424585 ], [ 1.306963, 44.425011 ], [ 1.306428, 44.425313 ], [ 1.304686, 44.426297 ], [ 1.299694, 44.430202 ], [ 1.293863, 44.425344 ], [ 1.292886, 44.422364 ], [ 1.289916, 44.420329 ], [ 1.287929, 44.413366 ], [ 1.288027, 44.411755 ], [ 1.287719, 44.410722 ], [ 1.287619, 44.410644 ], [ 1.285351, 44.410853 ], [ 1.28384, 44.411896 ], [ 1.28218, 44.413386 ], [ 1.281686, 44.413862 ], [ 1.279902, 44.415693 ], [ 1.277029, 44.417035 ], [ 1.276995, 44.417043 ], [ 1.269979, 44.414455 ], [ 1.269613, 44.411593 ], [ 1.270008, 44.409677 ], [ 1.269918, 44.409448 ], [ 1.269829, 44.409238 ], [ 1.269781, 44.40918 ], [ 1.267956, 44.408397 ], [ 1.264619, 44.407847 ], [ 1.259297, 44.408528 ], [ 1.252093, 44.408076 ], [ 1.250719, 44.407965 ], [ 1.24397, 44.409458 ], [ 1.242873, 44.412886 ], [ 1.247551, 44.418299 ], [ 1.244345, 44.42324 ], [ 1.24342, 44.423815 ], [ 1.245322, 44.426872 ], [ 1.249665, 44.434677 ], [ 1.252069, 44.427315 ], [ 1.251137, 44.420376 ], [ 1.250523, 44.416992 ], [ 1.250524, 44.416909 ], [ 1.25328, 44.413127 ], [ 1.253378, 44.413095 ], [ 1.259099, 44.41324 ], [ 1.263532, 44.414001 ], [ 1.268459, 44.419872 ], [ 1.276808, 44.417516 ], [ 1.277001, 44.41739 ], [ 1.285126, 44.416813 ], [ 1.285544, 44.417468 ], [ 1.291181, 44.423628 ], [ 1.291123, 44.423958 ], [ 1.291044, 44.424319 ], [ 1.290205, 44.425636 ], [ 1.290061, 44.425843 ], [ 1.289779, 44.426308 ], [ 1.289392, 44.426755 ], [ 1.288331, 44.431836 ], [ 1.296351, 44.433537 ], [ 1.297197, 44.43294 ], [ 1.300026, 44.430209 ], [ 1.30629, 44.427306 ], [ 1.306415, 44.427224 ], [ 1.309049, 44.429304 ], [ 1.309803, 44.429991 ], [ 1.310293, 44.433784 ], [ 1.312764, 44.437414 ], [ 1.317736, 44.4409 ], [ 1.324425, 44.437137 ], [ 1.324747, 44.435007 ], [ 1.324826, 44.433942 ], [ 1.325025, 44.433441 ], [ 1.325628, 44.43173 ], [ 1.329206, 44.432126 ], [ 1.337344, 44.435296 ], [ 1.338024, 44.435639 ], [ 1.33838, 44.435875 ], [ 1.336384, 44.434334 ], [ 1.335882, 44.434088 ], [ 1.334574, 44.433538 ], [ 1.329139, 44.427142 ], [ 1.328982, 44.426225 ] ] ], [ [ [ 1.233572, 44.436677 ], [ 1.23301, 44.437168 ], [ 1.232531, 44.437731 ], [ 1.23232, 44.437979 ], [ 1.232171, 44.43818 ], [ 1.232116, 44.438434 ], [ 1.232182, 44.43943 ], [ 1.235062, 44.440312 ], [ 1.23726, 44.447928 ], [ 1.237705, 44.449135 ], [ 1.232933, 44.456135 ], [ 1.233844, 44.456412 ], [ 1.238702, 44.457474 ], [ 1.240187, 44.44995 ], [ 1.23935, 44.446449 ], [ 1.237688, 44.440191 ], [ 1.238083774377237, 44.436615038581436 ], [ 1.237827, 44.436587 ], [ 1.235723, 44.436133 ], [ 1.23469, 44.436131 ], [ 1.23393, 44.436432 ], [ 1.233572, 44.436677 ] ] ], [ [ [ 1.298204144724396, 44.515627202827815 ], [ 1.297851, 44.515678 ], [ 1.29701, 44.515864 ], [ 1.295151385734343, 44.518175647282561 ], [ 1.298204144724396, 44.515627202827815 ] ] ], [ [ [ 1.305464, 44.509444 ], [ 1.305497, 44.50936 ], [ 1.30585, 44.508466 ], [ 1.306527976526161, 44.505618033426131 ], [ 1.304934, 44.506419 ], [ 1.298833, 44.511933 ], [ 1.298865230344821, 44.515448060939796 ], [ 1.302298, 44.514891 ], [ 1.304669618725927, 44.516149806719767 ], [ 1.306458973294613, 44.514306185316137 ], [ 1.305605, 44.511099 ], [ 1.305464, 44.509444 ] ] ] ] } },
{ "type": "Feature", "properties": { "codgeo": "46182", "value": 840, "isochrone_group": 14.0, "nb_agences": 1 }, "geometry": { "type": "MultiPolygon", "coordinates": [ [ [ [ 1.326864, 44.419543 ], [ 1.325048, 44.417181 ], [ 1.323745, 44.417746 ], [ 1.322849, 44.418095 ], [ 1.321848, 44.418828 ], [ 1.322083, 44.419285 ], [ 1.323133, 44.422688 ], [ 1.323144, 44.423281 ], [ 1.323095971586326, 44.425526983272135 ], [ 1.323213, 44.424954 ], [ 1.323273, 44.424755 ], [ 1.326864, 44.425004 ], [ 1.328982, 44.426225 ], [ 1.329139, 44.427142 ], [ 1.334574, 44.433538 ], [ 1.335882, 44.434088 ], [ 1.336384, 44.434334 ], [ 1.337028907324735, 44.434831896887481 ], [ 1.335364, 44.426977 ], [ 1.335304, 44.42681 ], [ 1.335123, 44.426655 ], [ 1.328893, 44.421774 ], [ 1.326864, 44.419543 ] ] ], [ [ [ 1.322167, 44.428399 ], [ 1.322246275783497, 44.428190927923282 ], [ 1.322030247666241, 44.428390114961374 ], [ 1.322167, 44.428399 ] ] ], [ [ [ 1.308923, 44.420811 ], [ 1.308344, 44.421644 ], [ 1.303636, 44.424664 ], [ 1.303438, 44.424706 ], [ 1.296587, 44.423983 ], [ 1.294476, 44.419704 ], [ 1.294447, 44.41828 ], [ 1.293093, 44.414367 ], [ 1.293123, 44.410768 ], [ 1.290639, 44.405684 ], [ 1.288486, 44.405336 ], [ 1.28127, 44.40368 ], [ 1.279336, 44.40284 ], [ 1.279112, 44.402922 ], [ 1.27658, 44.403847 ], [ 1.274048, 44.404772 ], [ 1.270172, 44.4052 ], [ 1.264664, 44.401475 ], [ 1.263933, 44.400447 ], [ 1.262735, 44.400526 ], [ 1.26242, 44.400559 ], [ 1.257634, 44.404242 ], [ 1.254202, 44.405328 ], [ 1.247452, 44.40339 ], [ 1.246914, 44.403085 ], [ 1.24636, 44.402852 ], [ 1.244619, 44.40231 ], [ 1.242936, 44.401773 ], [ 1.237055, 44.408057 ], [ 1.23552, 44.409211 ], [ 1.234434, 44.410205 ], [ 1.235767, 44.413549 ], [ 1.239582, 44.414569 ], [ 1.244801, 44.418239 ], [ 1.240834, 44.423841 ], [ 1.239542, 44.424007 ], [ 1.238571, 44.42434 ], [ 1.237048, 44.424616 ], [ 1.236304, 44.425084 ], [ 1.233936, 44.427216 ], [ 1.235611, 44.430403 ], [ 1.23171533955554, 44.435636161031113 ], [ 1.232088, 44.440979 ], [ 1.232768, 44.442829 ], [ 1.232453894744195, 44.443464914980147 ], [ 1.23726, 44.447928 ], [ 1.235062, 44.440312 ], [ 1.232182, 44.43943 ], [ 1.232116, 44.438434 ], [ 1.232171, 44.43818 ], [ 1.23232, 44.437979 ], [ 1.232531, 44.437731 ], [ 1.23301, 44.437168 ], [ 1.233572, 44.436677 ], [ 1.23393, 44.436432 ], [ 1.23469, 44.436131 ], [ 1.235723, 44.436133 ], [ 1.237827, 44.436587 ], [ 1.239219, 44.436739 ], [ 1.239984, 44.43679 ], [ 1.240808, 44.436876 ], [ 1.241529, 44.437026 ], [ 1.24202, 44.437184 ], [ 1.249665, 44.434677 ], [ 1.245322, 44.426872 ], [ 1.24342, 44.423815 ], [ 1.244345, 44.42324 ], [ 1.247551, 44.418299 ], [ 1.242873, 44.412886 ], [ 1.24397, 44.409458 ], [ 1.250719, 44.407965 ], [ 1.252093, 44.408076 ], [ 1.259297, 44.408528 ], [ 1.264619, 44.407847 ], [ 1.267956, 44.408397 ], [ 1.269781, 44.40918 ], [ 1.269829, 44.409238 ], [ 1.269918, 44.409448 ], [ 1.270008, 44.409677 ], [ 1.269613, 44.411593 ], [ 1.269979, 44.414455 ], [ 1.276995, 44.417043 ], [ 1.277029, 44.417035 ], [ 1.279902, 44.415693 ], [ 1.281686, 44.413862 ], [ 1.28218, 44.413386 ], [ 1.28384, 44.411896 ], [ 1.285351, 44.410853 ], [ 1.287619, 44.410644 ], [ 1.287719, 44.410722 ], [ 1.288027, 44.411755 ], [ 1.287929, 44.413366 ], [ 1.289916, 44.420329 ], [ 1.292886, 44.422364 ], [ 1.293863, 44.425344 ], [ 1.299694, 44.430202 ], [ 1.304686, 44.426297 ], [ 1.306428, 44.425313 ], [ 1.306963, 44.425011 ], [ 1.308022, 44.424585 ], [ 1.308132, 44.424598 ], [ 1.31094, 44.425689 ], [ 1.313671, 44.427847 ], [ 1.314054475892772, 44.427871915100361 ], [ 1.313409, 44.426319 ], [ 1.312175, 44.422355 ], [ 1.310648, 44.419988 ], [ 1.31002, 44.419921 ], [ 1.308923, 44.420811 ] ] ], [ [ [ 1.293764, 44.523741 ], [ 1.292519, 44.523778 ], [ 1.292079668132136, 44.523872414474212 ], [ 1.295547, 44.526249 ], [ 1.297640627975563, 44.526621957913783 ], [ 1.295902, 44.523738 ], [ 1.294927, 44.523803 ], [ 1.293764, 44.523741 ] ] ], [ [ [ 1.29864, 44.519243 ], [ 1.303550494540824, 44.515555798488585 ], [ 1.302298, 44.514891 ], [ 1.298311, 44.515538 ], [ 1.295272454410286, 44.518074579102311 ], [ 1.29864, 44.519243 ] ] ] ] } },
{ "type": "Feature", "properties": { "codgeo": "46182", "value": 900, "isochrone_group": 15.0, "nb_agences": 1 }, "geometry": { "type": "MultiPolygon", "coordinates": [ [ [ [ 1.331109, 44.421428 ], [ 1.327845, 44.419962 ], [ 1.32538, 44.41356 ], [ 1.323494, 44.410493 ], [ 1.320015, 44.411588 ], [ 1.320003, 44.411788 ], [ 1.320116, 44.412599 ], [ 1.317614, 44.418687 ], [ 1.31197, 44.419277 ], [ 1.309742, 44.418106 ], [ 1.309026, 44.417773 ], [ 1.308451, 44.417614 ], [ 1.30795, 44.417557 ], [ 1.307419, 44.417549 ], [ 1.306968, 44.417592 ], [ 1.306655, 44.417648 ], [ 1.299524, 44.419817 ], [ 1.298875, 44.411926 ], [ 1.29896, 44.411839 ], [ 1.298177, 44.410031 ], [ 1.297357, 44.403644 ], [ 1.295935, 44.400337 ], [ 1.293002, 44.397863 ], [ 1.290729, 44.39869 ], [ 1.288456, 44.399517 ], [ 1.280921, 44.399489 ], [ 1.277535, 44.400711 ], [ 1.270692, 44.401183 ], [ 1.26835, 44.399046 ], [ 1.266961, 44.397392 ], [ 1.265107, 44.394235 ], [ 1.261525, 44.394589 ], [ 1.25874, 44.397563 ], [ 1.255172, 44.400326 ], [ 1.251432, 44.403079 ], [ 1.24636, 44.402852 ], [ 1.246914, 44.403085 ], [ 1.247452, 44.40339 ], [ 1.254202, 44.405328 ], [ 1.257634, 44.404242 ], [ 1.26242, 44.400559 ], [ 1.262735, 44.400526 ], [ 1.263933, 44.400447 ], [ 1.264664, 44.401475 ], [ 1.270172, 44.4052 ], [ 1.274048, 44.404772 ], [ 1.27658, 44.403847 ], [ 1.279112, 44.402922 ], [ 1.279336, 44.40284 ], [ 1.28127, 44.40368 ], [ 1.288486, 44.405336 ], [ 1.290639, 44.405684 ], [ 1.293123, 44.410768 ], [ 1.293093, 44.414367 ], [ 1.294447, 44.41828 ], [ 1.294476, 44.419704 ], [ 1.296587, 44.423983 ], [ 1.303438, 44.424706 ], [ 1.303636, 44.424664 ], [ 1.308344, 44.421644 ], [ 1.308923, 44.420811 ], [ 1.31002, 44.419921 ], [ 1.310648, 44.419988 ], [ 1.312175, 44.422355 ], [ 1.313409, 44.426319 ], [ 1.31642, 44.433563 ], [ 1.322962, 44.427531 ], [ 1.322905, 44.426462 ], [ 1.323089, 44.425853 ], [ 1.323144, 44.423281 ], [ 1.323133, 44.422688 ], [ 1.322083, 44.419285 ], [ 1.321848, 44.418828 ], [ 1.322849, 44.418095 ], [ 1.323745, 44.417746 ], [ 1.325048, 44.417181 ], [ 1.326864, 44.419543 ], [ 1.328893, 44.421774 ], [ 1.335123, 44.426655 ], [ 1.335304, 44.42681 ], [ 1.335364, 44.426977 ], [ 1.336636878312314, 44.432982335999796 ], [ 1.339204467120835, 44.431604810913022 ], [ 1.339218, 44.430808 ], [ 1.338628, 44.430223 ], [ 1.336529, 44.428084 ], [ 1.33307, 44.423977 ], [ 1.331109, 44.421428 ] ] ], [ [ [ 1.232868, 44.397431 ], [ 1.232123, 44.397277 ], [ 1.231712, 44.397244 ], [ 1.231332, 44.399205 ], [ 1.231421, 44.400832 ], [ 1.233412, 44.409072 ], [ 1.230195, 44.410608 ], [ 1.227996, 44.412287 ], [ 1.22685, 44.415541 ], [ 1.226646149936152, 44.416129978558168 ], [ 1.227506284256896, 44.417079726160758 ], [ 1.229449, 44.418526 ], [ 1.23475, 44.417186 ], [ 1.236304, 44.425084 ], [ 1.236573417967267, 44.424914527407672 ], [ 1.236861, 44.424698 ], [ 1.23696677409239, 44.424667093716081 ], [ 1.237048, 44.424616 ], [ 1.237294554578519, 44.42457131906523 ], [ 1.237655, 44.424466 ], [ 1.238002592771011, 44.424443007482083 ], [ 1.238571, 44.42434 ], [ 1.239542, 44.424007 ], [ 1.240834, 44.423841 ], [ 1.244801, 44.418239 ], [ 1.239582, 44.414569 ], [ 1.235767, 44.413549 ], [ 1.234434, 44.410205 ], [ 1.23552, 44.409211 ], [ 1.237055, 44.408057 ], [ 1.242936, 44.401773 ], [ 1.244619, 44.40231 ], [ 1.242483, 44.401628 ], [ 1.240347, 44.400946 ], [ 1.234222, 44.398051 ], [ 1.233579, 44.397694 ], [ 1.232868, 44.397431 ] ] ], [ [ [ 1.23726, 44.447928 ], [ 1.234135478573424, 44.445026481196109 ], [ 1.232947, 44.448036 ], [ 1.233352124680611, 44.455520190116466 ], [ 1.237705, 44.449135 ], [ 1.23726, 44.447928 ] ] ], [ [ [ 1.233598430951613, 44.427361840244835 ], [ 1.233667, 44.427358 ], [ 1.235856669510212, 44.425486748565987 ], [ 1.236304, 44.425084 ], [ 1.233598430951613, 44.427361840244835 ] ] ], [ [ [ 1.244002430327884, 44.522377624919017 ], [ 1.242054, 44.529798 ], [ 1.242087729101771, 44.529828973727696 ], [ 1.247374, 44.527785 ], [ 1.244002430327884, 44.522377624919017 ] ] ] ] } },
{ "type": "Feature", "properties": { "codgeo": "46182", "value": 960, "isochrone_group": 16.0, "nb_agences": 1 }, "geometry": { "type": "MultiPolygon", "coordinates": [ [ [ [ 1.274635, 44.39897 ], [ 1.268183, 44.393173 ], [ 1.267498, 44.389161 ], [ 1.267611, 44.388472 ], [ 1.267603, 44.388208 ], [ 1.264071, 44.38781 ], [ 1.259364, 44.391484 ], [ 1.253978, 44.394182 ], [ 1.252795, 44.397581 ], [ 1.24636, 44.402852 ], [ 1.251432, 44.403079 ], [ 1.255172, 44.400326 ], [ 1.25874, 44.397563 ], [ 1.261525, 44.394589 ], [ 1.265107, 44.394235 ], [ 1.266961, 44.397392 ], [ 1.26835, 44.399046 ], [ 1.270692, 44.401183 ], [ 1.277535, 44.400711 ], [ 1.280921, 44.399489 ], [ 1.283323131293709, 44.399497926300761 ], [ 1.279281, 44.397343 ], [ 1.278893, 44.397165 ], [ 1.277554, 44.396673 ], [ 1.276957, 44.39656 ], [ 1.276923, 44.396615 ], [ 1.274635, 44.39897 ] ] ], [ [ [ 1.228216, 44.397842 ], [ 1.225435, 44.398306 ], [ 1.222654, 44.398771 ], [ 1.221254206440008, 44.399004183944434 ], [ 1.22364, 44.40113 ], [ 1.225265, 44.404342 ], [ 1.223997132998265, 44.40498349929014 ], [ 1.227421, 44.407845 ], [ 1.226129, 44.411205 ], [ 1.225358, 44.412014 ], [ 1.223418719811176, 44.41553350884702 ], [ 1.224543, 44.415962 ], [ 1.227175953257766, 44.414615474781179 ], [ 1.227996, 44.412287 ], [ 1.230195, 44.410608 ], [ 1.233412, 44.409072 ], [ 1.231421, 44.400832 ], [ 1.231332, 44.399205 ], [ 1.231712, 44.397244 ], [ 1.232123, 44.397277 ], [ 1.232868, 44.397431 ], [ 1.233579, 44.397694 ], [ 1.234222, 44.398051 ], [ 1.240347, 44.400946 ], [ 1.242483, 44.401628 ], [ 1.237976, 44.395731 ], [ 1.236301, 44.395059 ], [ 1.236076, 44.394971 ], [ 1.235312, 44.394848 ], [ 1.228216, 44.397842 ] ] ], [ [ [ 1.227696363117227, 44.426194914114959 ], [ 1.23361501956288, 44.427347874160191 ], [ 1.236304, 44.425084 ], [ 1.23475, 44.417186 ], [ 1.229449, 44.418526 ], [ 1.229438033298801, 44.418517835731464 ], [ 1.229366, 44.418638 ], [ 1.228995, 44.419011 ], [ 1.228373069314538, 44.42200868074152 ], [ 1.228579, 44.422074 ], [ 1.227696363117227, 44.426194914114959 ] ] ], [ [ [ 1.356869289976454, 44.437771251075347 ], [ 1.358206, 44.439115 ], [ 1.359921310860657, 44.437964002363458 ], [ 1.356869289976454, 44.437771251075347 ] ] ], [ [ [ 1.336529, 44.428084 ], [ 1.337828488675557, 44.429408252633174 ], [ 1.338342153528952, 44.42882232512644 ], [ 1.336529, 44.428084 ] ] ], [ [ [ 1.331098, 44.420852 ], [ 1.32764672871765, 44.419447057708062 ], [ 1.327845, 44.419962 ], [ 1.331109, 44.421428 ], [ 1.33307, 44.423977 ], [ 1.336529, 44.428084 ], [ 1.33352, 44.420849 ], [ 1.333333, 44.420823 ], [ 1.332848, 44.420769 ], [ 1.33191, 44.420793 ], [ 1.331098, 44.420852 ] ] ], [ [ [ 1.32538, 44.41356 ], [ 1.326886027791287, 44.417471395504975 ], [ 1.328963185792443, 44.411836893955808 ], [ 1.328501, 44.411706 ], [ 1.325493, 44.41349 ], [ 1.325379781320574, 44.413559644385032 ], [ 1.32538, 44.41356 ] ] ], [ [ [ 1.317206145231864, 44.418729635420483 ], [ 1.317614, 44.418687 ], [ 1.320116, 44.412599 ], [ 1.320003, 44.411788 ], [ 1.320015, 44.411588 ], [ 1.322261278821712, 44.410880993587298 ], [ 1.32147, 44.409112 ], [ 1.3208763183586, 44.408127485230914 ], [ 1.317924, 44.410041 ], [ 1.318168, 44.413633 ], [ 1.317206145231864, 44.418729635420483 ] ] ], [ [ [ 1.302107098796312, 44.404413485698257 ], [ 1.29837, 44.404784 ], [ 1.297506065085062, 44.404805071583311 ], [ 1.298177, 44.410031 ], [ 1.29896, 44.411839 ], [ 1.298875, 44.411926 ], [ 1.299524, 44.419817 ], [ 1.300364011545983, 44.419561497960551 ], [ 1.300449, 44.413744 ], [ 1.300879, 44.41294 ], [ 1.300752, 44.411617 ], [ 1.302018, 44.404809 ], [ 1.302107098796312, 44.404413485698257 ] ] ] ] } },
{ "type": "Feature", "properties": { "codgeo": "46182", "value": 1020, "isochrone_group": 17.0, "nb_agences": 1 }, "geometry": { "type": "MultiPolygon", "coordinates": [ [ [ [ 1.272602, 44.382276 ], [ 1.272356, 44.38232 ], [ 1.267505, 44.384342 ], [ 1.263258, 44.384878 ], [ 1.259673, 44.385206 ], [ 1.259659, 44.386113 ], [ 1.254172, 44.392584 ], [ 1.250621, 44.391992 ], [ 1.250419, 44.393206 ], [ 1.241817, 44.394799 ], [ 1.241072, 44.394159 ], [ 1.239992, 44.393274 ], [ 1.23969, 44.393411 ], [ 1.235312, 44.394848 ], [ 1.236076, 44.394971 ], [ 1.236301, 44.395059 ], [ 1.237976, 44.395731 ], [ 1.242483, 44.401628 ], [ 1.244619, 44.40231 ], [ 1.24636, 44.402852 ], [ 1.252795, 44.397581 ], [ 1.253978, 44.394182 ], [ 1.259364, 44.391484 ], [ 1.264071, 44.38781 ], [ 1.267603, 44.388208 ], [ 1.267611, 44.388472 ], [ 1.267498, 44.389161 ], [ 1.268183, 44.393173 ], [ 1.274635, 44.39897 ], [ 1.276923, 44.396615 ], [ 1.276957, 44.39656 ], [ 1.277554, 44.396673 ], [ 1.278893, 44.397165 ], [ 1.279281, 44.397343 ], [ 1.27696, 44.394513 ], [ 1.276362, 44.393021 ], [ 1.274602, 44.385234 ], [ 1.274904, 44.383982 ], [ 1.274407, 44.382908 ], [ 1.273469, 44.382329 ], [ 1.272602, 44.382276 ] ] ], [ [ [ 1.209021888831312, 44.397170305420389 ], [ 1.209496, 44.397342 ], [ 1.209932369295598, 44.397180846060031 ], [ 1.209022, 44.39717 ], [ 1.209021888831312, 44.397170305420389 ] ] ], [ [ [ 1.363171, 44.436968 ], [ 1.36561504442495, 44.435556216614707 ], [ 1.365670340256392, 44.434841222256907 ], [ 1.364857, 44.434948 ], [ 1.364515, 44.435087 ], [ 1.362772960133645, 44.436838835073225 ], [ 1.363171, 44.436968 ] ] ], [ [ [ 1.333333, 44.420823 ], [ 1.33352, 44.420849 ], [ 1.334654351969598, 44.42357649634431 ], [ 1.336714076242166, 44.423915413497056 ], [ 1.336356, 44.420382 ], [ 1.33606, 44.420412 ], [ 1.335544, 44.420504 ], [ 1.333333, 44.420823 ] ] ], [ [ [ 1.318168, 44.413633 ], [ 1.317924, 44.410041 ], [ 1.318912270349126, 44.40940046274109 ], [ 1.315302, 44.403441 ], [ 1.309443, 44.406009 ], [ 1.308847, 44.407264 ], [ 1.308486, 44.407591 ], [ 1.307855, 44.407909 ], [ 1.30643, 44.408661 ], [ 1.301556932043999, 44.407288423889767 ], [ 1.300752, 44.411617 ], [ 1.300879, 44.41294 ], [ 1.300449, 44.413744 ], [ 1.300338, 44.421342 ], [ 1.303198, 44.422471 ], [ 1.308344, 44.421644 ], [ 1.314299, 44.422593 ], [ 1.314776, 44.422481 ], [ 1.315234, 44.422456 ], [ 1.316558, 44.422164 ], [ 1.317836188918325, 44.4153911865452 ], [ 1.317643, 44.415215 ], [ 1.317875, 44.414337 ], [ 1.318136, 44.41376 ], [ 1.318158733777665, 44.413682099467529 ], [ 1.318168, 44.413633 ] ] ], [ [ [ 1.279281, 44.397343 ], [ 1.281490213758912, 44.398520767986035 ], [ 1.282770072366675, 44.397065957945784 ], [ 1.279281, 44.397343 ] ] ] ] } },
{ "type": "Feature", "properties": { "codgeo": "46182", "value": 1080, "isochrone_group": 18.0, "nb_agences": 1 }, "geometry": { "type": "MultiPolygon", "coordinates": [ [ [ [ 1.339138, 44.420773 ], [ 1.338363, 44.420691 ], [ 1.337621, 44.420523 ], [ 1.337165, 44.42043 ], [ 1.336698, 44.420379 ], [ 1.33635748088774, 44.420396613057534 ], [ 1.336618540713715, 44.422972691009711 ], [ 1.339923, 44.422137 ], [ 1.340696359744111, 44.421371889426496 ], [ 1.340619, 44.421314 ], [ 1.340257, 44.421091 ], [ 1.33944, 44.420838 ], [ 1.339138, 44.420773 ] ] ], [ [ [ 1.276362, 44.393021 ], [ 1.27696, 44.394513 ], [ 1.27786965773799, 44.395622147521998 ], [ 1.278484398822983, 44.394990435954853 ], [ 1.277805, 44.392984 ], [ 1.277395, 44.392431 ], [ 1.275035920421764, 44.387153851320591 ], [ 1.276362, 44.393021 ] ] ], [ [ [ 1.275437, 44.381792 ], [ 1.275874170911132, 44.381634366257991 ], [ 1.276157, 44.380563 ], [ 1.274048, 44.378509 ], [ 1.27097, 44.380376 ], [ 1.263666, 44.380381 ], [ 1.258895, 44.379903 ], [ 1.257491, 44.383177 ], [ 1.250695, 44.388464 ], [ 1.243557, 44.3917 ], [ 1.243074, 44.391887 ], [ 1.240216, 44.393189 ], [ 1.23999968420605, 44.393280296779956 ], [ 1.241072, 44.394159 ], [ 1.241817, 44.394799 ], [ 1.250419, 44.393206 ], [ 1.250621, 44.391992 ], [ 1.254172, 44.392584 ], [ 1.259659, 44.386113 ], [ 1.259673, 44.385206 ], [ 1.263258, 44.384878 ], [ 1.267505, 44.384342 ], [ 1.272356, 44.38232 ], [ 1.272602, 44.382276 ], [ 1.273469, 44.382329 ], [ 1.274407, 44.382908 ], [ 1.274904, 44.383982 ], [ 1.274602, 44.385234 ], [ 1.274833659204771, 44.386258960356578 ], [ 1.275252336133962, 44.384285645154122 ], [ 1.275106, 44.384188 ], [ 1.275192, 44.382018 ], [ 1.275337, 44.381872 ], [ 1.275437, 44.381792 ] ] ], [ [ [ 1.226010008882275, 44.387340222790328 ], [ 1.225733, 44.387946 ], [ 1.226057, 44.387368 ], [ 1.226010008882275, 44.387340222790328 ] ] ], [ [ [ 1.330805616915419, 44.411122393034844 ], [ 1.330639, 44.411191 ], [ 1.330805616915473, 44.411122393034816 ], [ 1.330805616915419, 44.411122393034844 ] ] ] ] } },
{ "type": "Feature", "properties": { "codgeo": "46182", "value": 1140, "isochrone_group": 19.0, "nb_agences": 1 }, "geometry": { "type": "MultiPolygon", "coordinates": [ [ [ [ 1.253525, 44.378659 ], [ 1.253148, 44.383951 ], [ 1.248632, 44.386842 ], [ 1.245033, 44.386926 ], [ 1.240151, 44.388015 ], [ 1.238571, 44.39125 ], [ 1.235312, 44.394848 ], [ 1.238869, 44.393879 ], [ 1.23969, 44.393411 ], [ 1.240216, 44.393189 ], [ 1.243074, 44.391887 ], [ 1.243557, 44.3917 ], [ 1.250695, 44.388464 ], [ 1.257491, 44.383177 ], [ 1.258895, 44.379903 ], [ 1.263666, 44.380381 ], [ 1.268940368521483, 44.380377389397232 ], [ 1.268950759272923, 44.378422353770617 ], [ 1.26532259820444, 44.375515679210224 ], [ 1.264533, 44.376312 ], [ 1.256855, 44.377239 ], [ 1.254506, 44.376488 ], [ 1.254266, 44.376596 ], [ 1.253414, 44.378299 ], [ 1.253525, 44.378659 ] ] ], [ [ [ 1.203818033768602, 44.390363342388767 ], [ 1.203528, 44.390586 ], [ 1.198216, 44.393956 ], [ 1.203339, 44.390944 ], [ 1.203818033768602, 44.390363342388767 ] ] ] ] } },
{ "type": "Feature", "properties": { "codgeo": "46182", "value": 1200, "isochrone_group": 20.0, "nb_agences": 1 }, "geometry": { "type": "MultiPolygon", "coordinates": [ [ [ [ 1.235312, 44.394848 ], [ 1.238571, 44.39125 ], [ 1.240151, 44.388015 ], [ 1.245033, 44.386926 ], [ 1.248632, 44.386842 ], [ 1.253148, 44.383951 ], [ 1.253525, 44.378659 ], [ 1.253414, 44.378299 ], [ 1.253878884881822, 44.377369775875891 ], [ 1.253271, 44.377538 ], [ 1.247881, 44.381983 ], [ 1.246885, 44.384444 ], [ 1.24651, 44.384625 ], [ 1.24538, 44.384572 ], [ 1.241927610095359, 44.385072853384067 ], [ 1.239784, 44.386371 ], [ 1.236798046283987, 44.386339553145397 ], [ 1.236111, 44.386896 ], [ 1.236055, 44.386946 ], [ 1.233034, 44.388763 ], [ 1.225488133398735, 44.392235368104508 ], [ 1.230926989187212, 44.397197981226462 ], [ 1.233238, 44.396226 ], [ 1.235312, 44.394848 ] ] ], [ [ [ 1.25674, 44.376578 ], [ 1.255693414220106, 44.376867628811958 ], [ 1.256855, 44.377239 ], [ 1.263231830696281, 44.376469096111549 ], [ 1.262984, 44.376378 ], [ 1.25674, 44.376578 ] ] ] ] } }
]
}
