{
"type": "FeatureCollection",
"name": "La_Banque_Postale",
"crs": { "type": "name", "properties": { "name": "urn:ogc:def:crs:OGC:1.3:CRS84" } },
"features": [
{ "type": "Feature", "properties": { "codgeo": "30169", "value": 60, "isochrone_group": 1.0, "nb_agences": 1 }, "geometry": { "type": "Polygon", "coordinates": [ [ [ 4.304662, 43.78576 ], [ 4.309478, 43.783274 ], [ 4.309731, 43.783531 ], [ 4.311426, 43.785863 ], [ 4.312318, 43.787317 ], [ 4.315625, 43.791283 ], [ 4.315461, 43.791604 ], [ 4.310933, 43.791179 ], [ 4.309054, 43.790178 ], [ 4.305806, 43.787799 ], [ 4.304768, 43.786442 ], [ 4.304487, 43.786074 ], [ 4.304662, 43.78576 ] ] ] } },
{ "type": "Feature", "properties": { "codgeo": "30169", "value": 120, "isochrone_group": 2.0, "nb_agences": 1 }, "geometry": { "type": "Polygon", "coordinates": [ [ [ 4.299959, 43.784565 ], [ 4.299979, 43.784616 ], [ 4.300096, 43.784755 ], [ 4.30378, 43.788984 ], [ 4.307954, 43.791447 ], [ 4.310486, 43.792725 ], [ 4.311116, 43.792922 ], [ 4.312423, 43.793204 ], [ 4.316541, 43.793837 ], [ 4.320615, 43.793569 ], [ 4.320779, 43.793248 ], [ 4.318995, 43.789905 ], [ 4.316055, 43.788534 ], [ 4.314595, 43.78529 ], [ 4.314298, 43.785036 ], [ 4.313591, 43.779117 ], [ 4.313323, 43.778877 ], [ 4.309295, 43.78177 ], [ 4.307901, 43.7824 ], [ 4.30233, 43.783592 ], [ 4.299987, 43.784412 ], [ 4.299959, 43.784565 ] ], [ [ 4.309478, 43.783274 ], [ 4.309731, 43.783531 ], [ 4.311426, 43.785863 ], [ 4.312318, 43.787317 ], [ 4.315625, 43.791283 ], [ 4.315461, 43.791604 ], [ 4.310933, 43.791179 ], [ 4.309054, 43.790178 ], [ 4.305806, 43.787799 ], [ 4.304768, 43.786442 ], [ 4.304487, 43.786074 ], [ 4.304662, 43.78576 ], [ 4.309478, 43.783274 ] ] ] } },
{ "type": "Feature", "properties": { "codgeo": "30169", "value": 180, "isochrone_group": 3.0, "nb_agences": 1 }, "geometry": { "type": "Polygon", "coordinates": [ [ [ 4.294823, 43.781833 ], [ 4.297617, 43.783975 ], [ 4.303228, 43.790259 ], [ 4.310616, 43.794742 ], [ 4.312934, 43.796439 ], [ 4.317273, 43.799512 ], [ 4.317631, 43.799474 ], [ 4.323593, 43.797604 ], [ 4.326836, 43.798832 ], [ 4.327177, 43.798718 ], [ 4.326641, 43.796835 ], [ 4.326507, 43.796545 ], [ 4.326386, 43.796294 ], [ 4.324764, 43.793152 ], [ 4.319758, 43.787431 ], [ 4.319075, 43.785959 ], [ 4.318814, 43.785711 ], [ 4.315131, 43.78247 ], [ 4.315761, 43.776447 ], [ 4.316459, 43.77565 ], [ 4.318338, 43.773769 ], [ 4.318409, 43.773721 ], [ 4.318207, 43.773423 ], [ 4.318136, 43.773471 ], [ 4.316189, 43.775413 ], [ 4.308706, 43.778235 ], [ 4.305156, 43.779253 ], [ 4.298097, 43.781678 ], [ 4.295017, 43.78153 ], [ 4.294823, 43.781833 ] ], [ [ 4.30233, 43.783592 ], [ 4.307901, 43.7824 ], [ 4.309295, 43.78177 ], [ 4.313323, 43.778877 ], [ 4.313591, 43.779117 ], [ 4.314298, 43.785036 ], [ 4.314595, 43.78529 ], [ 4.316055, 43.788534 ], [ 4.318995, 43.789905 ], [ 4.320779, 43.793248 ], [ 4.320615, 43.793569 ], [ 4.316541, 43.793837 ], [ 4.312423, 43.793204 ], [ 4.311116, 43.792922 ], [ 4.310486, 43.792725 ], [ 4.307954, 43.791447 ], [ 4.30378, 43.788984 ], [ 4.300096, 43.784755 ], [ 4.299979, 43.784616 ], [ 4.299959, 43.784565 ], [ 4.299987, 43.784412 ], [ 4.30233, 43.783592 ] ] ] } },
{ "type": "Feature", "properties": { "codgeo": "30169", "value": 240, "isochrone_group": 4.0, "nb_agences": 1 }, "geometry": { "type": "Polygon", "coordinates": [ [ [ 4.28738, 43.776638 ], [ 4.28756, 43.776802 ], [ 4.28774, 43.776966 ], [ 4.288052, 43.77725 ], [ 4.288364, 43.777534 ], [ 4.288644, 43.777764 ], [ 4.288917, 43.777987 ], [ 4.289866, 43.7786 ], [ 4.290798, 43.779202 ], [ 4.292455, 43.780292 ], [ 4.293813, 43.781186 ], [ 4.297496, 43.784076 ], [ 4.300126, 43.788876 ], [ 4.300177, 43.788997 ], [ 4.300249, 43.789095 ], [ 4.305244, 43.792567 ], [ 4.309553, 43.796561 ], [ 4.315724, 43.800317 ], [ 4.321821, 43.805118 ], [ 4.330324, 43.804178 ], [ 4.333331, 43.803668 ], [ 4.333453, 43.803329 ], [ 4.329505, 43.799007 ], [ 4.329364, 43.795072 ], [ 4.326279, 43.787435 ], [ 4.322909, 43.781722 ], [ 4.322992, 43.774996 ], [ 4.324894, 43.771388 ], [ 4.325077, 43.770526 ], [ 4.324872, 43.770231 ], [ 4.324078, 43.770449 ], [ 4.321054, 43.772257 ], [ 4.314765, 43.770988 ], [ 4.314429, 43.771118 ], [ 4.307242, 43.775122 ], [ 4.300317, 43.776624 ], [ 4.29442, 43.778341 ], [ 4.29031, 43.776657 ], [ 4.287622, 43.776372 ], [ 4.28738, 43.776638 ] ], [ [ 4.298097, 43.781678 ], [ 4.305156, 43.779253 ], [ 4.308706, 43.778235 ], [ 4.316189, 43.775413 ], [ 4.318136, 43.773471 ], [ 4.318207, 43.773423 ], [ 4.318409, 43.773721 ], [ 4.318338, 43.773769 ], [ 4.316459, 43.77565 ], [ 4.315761, 43.776447 ], [ 4.315131, 43.78247 ], [ 4.318814, 43.785711 ], [ 4.319075, 43.785959 ], [ 4.319758, 43.787431 ], [ 4.324764, 43.793152 ], [ 4.326386, 43.796294 ], [ 4.326507, 43.796545 ], [ 4.326641, 43.796835 ], [ 4.327177, 43.798718 ], [ 4.326836, 43.798832 ], [ 4.323593, 43.797604 ], [ 4.317631, 43.799474 ], [ 4.317273, 43.799512 ], [ 4.312934, 43.796439 ], [ 4.310616, 43.794742 ], [ 4.303228, 43.790259 ], [ 4.297617, 43.783975 ], [ 4.294823, 43.781833 ], [ 4.295017, 43.78153 ], [ 4.298097, 43.781678 ] ] ] } },
{ "type": "Feature", "properties": { "codgeo": "30169", "value": 300, "isochrone_group": 5.0, "nb_agences": 1 }, "geometry": { "type": "MultiPolygon", "coordinates": [ [ [ [ 4.299134, 43.774571 ], [ 4.295213, 43.774378 ], [ 4.289546, 43.770399 ], [ 4.289282, 43.770154 ], [ 4.288213916135156, 43.769724985077218 ], [ 4.284643, 43.773603 ], [ 4.284359, 43.773871 ], [ 4.284122, 43.77371 ], [ 4.28387, 43.773483 ], [ 4.282202, 43.77203 ], [ 4.281897375434217, 43.771926362466793 ], [ 4.284118, 43.775059 ], [ 4.288917, 43.777987 ], [ 4.288644, 43.777764 ], [ 4.288364, 43.777534 ], [ 4.288052, 43.77725 ], [ 4.28774, 43.776966 ], [ 4.28756, 43.776802 ], [ 4.28738, 43.776638 ], [ 4.287622, 43.776372 ], [ 4.29031, 43.776657 ], [ 4.29442, 43.778341 ], [ 4.300317, 43.776624 ], [ 4.307242, 43.775122 ], [ 4.314429, 43.771118 ], [ 4.308556, 43.773537 ], [ 4.304934, 43.774372 ], [ 4.299134, 43.774571 ] ] ], [ [ [ 4.303015, 43.794744 ], [ 4.307469, 43.798086 ], [ 4.307849, 43.798343 ], [ 4.315945, 43.801552 ], [ 4.317668600493429, 43.802702494408059 ], [ 4.318300821967084, 43.802346083526977 ], [ 4.315724, 43.800317 ], [ 4.309553, 43.796561 ], [ 4.305244, 43.792567 ], [ 4.300249, 43.789095 ], [ 4.300177, 43.788997 ], [ 4.300126, 43.788876 ], [ 4.298374884372694, 43.785680047524302 ], [ 4.299529, 43.788308 ], [ 4.299581, 43.788445 ], [ 4.303015, 43.794744 ] ] ], [ [ [ 4.339189, 43.807376 ], [ 4.340017, 43.802033 ], [ 4.339752, 43.801789 ], [ 4.333568, 43.800944 ], [ 4.332054, 43.799667 ], [ 4.333345, 43.79147 ], [ 4.334045, 43.790985 ], [ 4.33384, 43.79069 ], [ 4.329732, 43.784867 ], [ 4.326197, 43.778348 ], [ 4.332575, 43.773271 ], [ 4.332758, 43.772961 ], [ 4.330522, 43.765942 ], [ 4.330271, 43.765684 ], [ 4.323588, 43.76602 ], [ 4.319674, 43.765027 ], [ 4.319477, 43.765328 ], [ 4.314429, 43.771118 ], [ 4.314765, 43.770988 ], [ 4.321054, 43.772257 ], [ 4.324078, 43.770449 ], [ 4.324872, 43.770231 ], [ 4.325077, 43.770526 ], [ 4.324894, 43.771388 ], [ 4.322992, 43.774996 ], [ 4.322909, 43.781722 ], [ 4.326279, 43.787435 ], [ 4.329364, 43.795072 ], [ 4.329505, 43.799007 ], [ 4.333453, 43.803329 ], [ 4.333331, 43.803668 ], [ 4.330324, 43.804178 ], [ 4.324910921758887, 43.804776411566117 ], [ 4.32672, 43.805638 ], [ 4.329201, 43.806589 ], [ 4.336249, 43.805163 ], [ 4.336507, 43.805414 ], [ 4.337293862108702, 43.807479867264995 ], [ 4.339038, 43.807702 ], [ 4.339189, 43.807376 ] ] ], [ [ [ 4.293813, 43.781186 ], [ 4.298106913751695, 43.785190975668492 ], [ 4.297496, 43.784076 ], [ 4.293813, 43.781186 ] ] ] ] } },
{ "type": "Feature", "properties": { "codgeo": "30169", "value": 360, "isochrone_group": 6.0, "nb_agences": 1 }, "geometry": { "type": "MultiPolygon", "coordinates": [ [ [ [ 4.279893, 43.779913 ], [ 4.283935, 43.77966 ], [ 4.286058, 43.779824 ], [ 4.292922, 43.782539 ], [ 4.297454, 43.788326 ], [ 4.298319, 43.79182 ], [ 4.299731, 43.797162 ], [ 4.301966, 43.800462 ], [ 4.303087, 43.801177 ], [ 4.305129, 43.802181 ], [ 4.310182139433825, 43.802761264815366 ], [ 4.311455859417614, 43.799772645735068 ], [ 4.307849, 43.798343 ], [ 4.307469, 43.798086 ], [ 4.303015, 43.794744 ], [ 4.299581, 43.788445 ], [ 4.299529, 43.788308 ], [ 4.298197, 43.785275 ], [ 4.293813, 43.781186 ], [ 4.292455, 43.780292 ], [ 4.290798, 43.779202 ], [ 4.290361050391892, 43.778919764308924 ], [ 4.282453, 43.776957 ], [ 4.282123, 43.776815 ], [ 4.276818659483985, 43.771906812946391 ], [ 4.277575, 43.775169 ], [ 4.277482, 43.776691 ], [ 4.278021, 43.78025 ], [ 4.279083, 43.78009 ], [ 4.279893, 43.779913 ] ] ], [ [ [ 4.295213, 43.774378 ], [ 4.299134, 43.774571 ], [ 4.304934, 43.774372 ], [ 4.308556, 43.773537 ], [ 4.314429, 43.771118 ], [ 4.319477, 43.765328 ], [ 4.319674, 43.765027 ], [ 4.323588, 43.76602 ], [ 4.330271, 43.765684 ], [ 4.330522, 43.765942 ], [ 4.332758, 43.772961 ], [ 4.332575, 43.773271 ], [ 4.326197, 43.778348 ], [ 4.329732, 43.784867 ], [ 4.33384, 43.79069 ], [ 4.334045, 43.790985 ], [ 4.333345, 43.79147 ], [ 4.332054, 43.799667 ], [ 4.333568, 43.800944 ], [ 4.335379789076431, 43.801191568203365 ], [ 4.340331, 43.798376 ], [ 4.341632, 43.796769 ], [ 4.343757, 43.798281 ], [ 4.34443, 43.799034 ], [ 4.344093, 43.807389 ], [ 4.345546, 43.80939 ], [ 4.346541437057668, 43.810819519235942 ], [ 4.34675, 43.810775 ], [ 4.347286, 43.810624 ], [ 4.348444, 43.810277 ], [ 4.347604, 43.807305 ], [ 4.34741, 43.806828 ], [ 4.345902, 43.799955 ], [ 4.347535, 43.795369 ], [ 4.346475, 43.792767 ], [ 4.346383, 43.792739 ], [ 4.338498, 43.790353 ], [ 4.336765, 43.787197 ], [ 4.341557, 43.779955 ], [ 4.342088, 43.779031 ], [ 4.342214, 43.77882 ], [ 4.342376, 43.77645 ], [ 4.337631, 43.769122 ], [ 4.338093, 43.76109 ], [ 4.337833, 43.759164 ], [ 4.337179, 43.758774 ], [ 4.335686, 43.758413 ], [ 4.33452, 43.759352 ], [ 4.332532, 43.760934 ], [ 4.330412, 43.763283 ], [ 4.323435, 43.765464 ], [ 4.32101, 43.763966 ], [ 4.320274, 43.763447 ], [ 4.319615, 43.76288 ], [ 4.319147, 43.762426 ], [ 4.317227, 43.760454 ], [ 4.316824, 43.760084 ], [ 4.31637, 43.759756 ], [ 4.314335, 43.75878 ], [ 4.313742, 43.758448 ], [ 4.311771, 43.76146 ], [ 4.312032, 43.761631 ], [ 4.31249, 43.761892 ], [ 4.312878, 43.762072 ], [ 4.314748, 43.763065 ], [ 4.316567, 43.764936 ], [ 4.311173, 43.771779 ], [ 4.308126, 43.771051 ], [ 4.300961, 43.771912 ], [ 4.296829475932205, 43.768123329527256 ], [ 4.296147, 43.769 ], [ 4.292639864465751, 43.772571311048047 ], [ 4.295213, 43.774378 ] ] ] ] } },
{ "type": "Feature", "properties": { "codgeo": "30169", "value": 420, "isochrone_group": 7.0, "nb_agences": 1 }, "geometry": { "type": "MultiPolygon", "coordinates": [ [ [ [ 4.310923, 43.754674 ], [ 4.310865, 43.754664 ], [ 4.309956, 43.754498 ], [ 4.309546, 43.754448 ], [ 4.308614, 43.754877 ], [ 4.307797, 43.756045 ], [ 4.303598207570617, 43.760396933317679 ], [ 4.305429, 43.761044 ], [ 4.307696, 43.762377 ], [ 4.307737, 43.76256 ], [ 4.306567, 43.76446 ], [ 4.301529, 43.770362 ], [ 4.301167, 43.770914 ], [ 4.300688527239198, 43.771662138329937 ], [ 4.300961, 43.771912 ], [ 4.308126, 43.771051 ], [ 4.311173, 43.771779 ], [ 4.316567, 43.764936 ], [ 4.314748, 43.763065 ], [ 4.312878, 43.762072 ], [ 4.31249, 43.761892 ], [ 4.312032, 43.761631 ], [ 4.311771, 43.76146 ], [ 4.313742, 43.758448 ], [ 4.314335, 43.75878 ], [ 4.31637, 43.759756 ], [ 4.316824, 43.760084 ], [ 4.313536, 43.755755 ], [ 4.313407, 43.755693 ], [ 4.310923, 43.754674 ] ] ], [ [ [ 4.270831, 43.780072 ], [ 4.27017, 43.780553 ], [ 4.269821, 43.780979 ], [ 4.269323, 43.781796 ], [ 4.270042, 43.785016 ], [ 4.270614, 43.784948 ], [ 4.271224, 43.784771 ], [ 4.271765, 43.784438 ], [ 4.279701, 43.781749 ], [ 4.282632, 43.781895 ], [ 4.28908, 43.78318 ], [ 4.294507, 43.788335 ], [ 4.294818, 43.790179 ], [ 4.295767, 43.792969 ], [ 4.29732, 43.796937 ], [ 4.299692, 43.803145 ], [ 4.300521, 43.804515 ], [ 4.30142, 43.804902 ], [ 4.30201, 43.804978 ], [ 4.30378, 43.804934 ], [ 4.306853767059441, 43.805306065813021 ], [ 4.307226581261572, 43.802421870575486 ], [ 4.305129, 43.802181 ], [ 4.303087, 43.801177 ], [ 4.301966, 43.800462 ], [ 4.299731, 43.797162 ], [ 4.298319, 43.79182 ], [ 4.297454, 43.788326 ], [ 4.292922, 43.782539 ], [ 4.287507213798634, 43.780397224863528 ], [ 4.286171, 43.780222 ], [ 4.283716, 43.780458 ], [ 4.28046, 43.780811 ], [ 4.274397, 43.782274 ], [ 4.271430886368311, 43.778801895758122 ], [ 4.270831, 43.780072 ] ] ], [ [ [ 4.343512, 43.754586 ], [ 4.340792, 43.752228 ], [ 4.340203, 43.752907 ], [ 4.339868, 43.75338 ], [ 4.332359, 43.758196 ], [ 4.329971, 43.76089 ], [ 4.323435, 43.765464 ], [ 4.330412, 43.763283 ], [ 4.332532, 43.760934 ], [ 4.33452, 43.759352 ], [ 4.335686, 43.758413 ], [ 4.337179, 43.758774 ], [ 4.337833, 43.759164 ], [ 4.338093, 43.76109 ], [ 4.337884019282168, 43.764723188583616 ], [ 4.340433, 43.762562 ], [ 4.341795, 43.760507 ], [ 4.343512, 43.754586 ] ] ], [ [ [ 4.354885, 43.807614 ], [ 4.355302, 43.806809 ], [ 4.355613, 43.805773 ], [ 4.35563, 43.805694 ], [ 4.355494, 43.804808 ], [ 4.355313, 43.804517 ], [ 4.354377, 43.803926 ], [ 4.354191, 43.803912 ], [ 4.353597, 43.80393 ], [ 4.347423, 43.800205 ], [ 4.350197, 43.792925 ], [ 4.351832, 43.792362 ], [ 4.351834, 43.792301 ], [ 4.351707, 43.791566 ], [ 4.351133, 43.783518 ], [ 4.352874, 43.780367 ], [ 4.349381, 43.775802 ], [ 4.346686, 43.775556 ], [ 4.345782, 43.775886 ], [ 4.342000427122942, 43.775869979337592 ], [ 4.342376, 43.77645 ], [ 4.342214, 43.77882 ], [ 4.342088, 43.779031 ], [ 4.341557, 43.779955 ], [ 4.336765, 43.787197 ], [ 4.338498, 43.790353 ], [ 4.344856538799896, 43.79227709303445 ], [ 4.346264, 43.790029 ], [ 4.348902, 43.790434 ], [ 4.348894, 43.794034 ], [ 4.346912, 43.801079 ], [ 4.351748, 43.805298 ], [ 4.352875, 43.805875 ], [ 4.353327229428414, 43.808528222537255 ], [ 4.354287, 43.808166 ], [ 4.354885, 43.807614 ] ] ] ] } },
{ "type": "Feature", "properties": { "codgeo": "30169", "value": 480, "isochrone_group": 8.0, "nb_agences": 1 }, "geometry": { "type": "MultiPolygon", "coordinates": [ [ [ [ 4.318508, 43.752619 ], [ 4.314924, 43.75283 ], [ 4.30875, 43.749941 ], [ 4.306306, 43.748677 ], [ 4.304247, 43.751285 ], [ 4.304156, 43.751564 ], [ 4.304575, 43.752441 ], [ 4.3052, 43.754847 ], [ 4.302994278236038, 43.7554420496365 ], [ 4.305858883854849, 43.758053804285375 ], [ 4.307797, 43.756045 ], [ 4.308614, 43.754877 ], [ 4.309546, 43.754448 ], [ 4.309956, 43.754498 ], [ 4.310865, 43.754664 ], [ 4.310923, 43.754674 ], [ 4.313407, 43.755693 ], [ 4.313536, 43.755755 ], [ 4.316824, 43.760084 ], [ 4.317227, 43.760454 ], [ 4.319147, 43.762426 ], [ 4.319615, 43.76288 ], [ 4.31939, 43.756109 ], [ 4.319463, 43.754556 ], [ 4.319429, 43.754331 ], [ 4.318508, 43.752619 ] ] ], [ [ [ 4.264488, 43.790332 ], [ 4.265071, 43.790001 ], [ 4.266671, 43.789149 ], [ 4.267303, 43.788834 ], [ 4.267889, 43.788433 ], [ 4.271048577893676, 43.786186589426741 ], [ 4.26954, 43.786994 ], [ 4.266762, 43.784704 ], [ 4.265596138903422, 43.782174339896038 ], [ 4.262709, 43.787202 ], [ 4.264488, 43.790332 ] ] ], [ [ [ 4.278355, 43.78261 ], [ 4.277449, 43.782761 ], [ 4.271639225556553, 43.785870467090533 ], [ 4.278736087323941, 43.782586410713918 ], [ 4.278355, 43.78261 ] ] ], [ [ [ 4.286343, 43.783812 ], [ 4.292342, 43.789409 ], [ 4.294474, 43.796469 ], [ 4.296846, 43.801853 ], [ 4.297106, 43.802168 ], [ 4.297541, 43.802694 ], [ 4.300278, 43.806335 ], [ 4.300831, 43.806967 ], [ 4.301381599930557, 43.807332787005649 ], [ 4.302407773216884, 43.804968111852233 ], [ 4.30201, 43.804978 ], [ 4.30142, 43.804902 ], [ 4.300521, 43.804515 ], [ 4.299692, 43.803145 ], [ 4.29732, 43.796937 ], [ 4.295767, 43.792969 ], [ 4.294818, 43.790179 ], [ 4.294507, 43.788335 ], [ 4.290136284495066, 43.784183343757526 ], [ 4.288587, 43.783286 ], [ 4.282313, 43.782365 ], [ 4.278959435213104, 43.782572585490847 ], [ 4.282382, 43.782808 ], [ 4.286343, 43.783812 ] ] ], [ [ [ 4.319615, 43.76288 ], [ 4.320274, 43.763447 ], [ 4.32101, 43.763966 ], [ 4.323435, 43.765464 ], [ 4.329971, 43.76089 ], [ 4.332359, 43.758196 ], [ 4.333406562311431, 43.757524131563201 ], [ 4.331223, 43.757698 ], [ 4.329042, 43.757598 ], [ 4.32748, 43.760842 ], [ 4.319615, 43.76288 ] ] ], [ [ [ 4.345084, 43.756181 ], [ 4.345066, 43.755205 ], [ 4.344713, 43.750988 ], [ 4.343953, 43.748027 ], [ 4.343859, 43.747804 ], [ 4.343489, 43.747814 ], [ 4.342288, 43.748008 ], [ 4.340543, 43.749207 ], [ 4.339706638170334, 43.753483491619619 ], [ 4.339868, 43.75338 ], [ 4.340203, 43.752907 ], [ 4.340792, 43.752228 ], [ 4.343512, 43.754586 ], [ 4.341795, 43.760507 ], [ 4.342836, 43.759418 ], [ 4.344186, 43.75831 ], [ 4.344949, 43.756733 ], [ 4.345084, 43.756181 ] ] ], [ [ [ 4.354045, 43.794827 ], [ 4.354092, 43.795869 ], [ 4.355182, 43.801178 ], [ 4.357234647350635, 43.802191089233716 ], [ 4.355237, 43.798657 ], [ 4.354982, 43.797136 ], [ 4.354045, 43.794827 ] ] ], [ [ [ 4.356919, 43.779506 ], [ 4.353033, 43.773643 ], [ 4.349632, 43.768869 ], [ 4.346071, 43.768342 ], [ 4.341795, 43.760507 ], [ 4.340433, 43.762562 ], [ 4.337554, 43.765003 ], [ 4.335847, 43.768882 ], [ 4.338933, 43.775165 ], [ 4.340353, 43.775863 ], [ 4.345782, 43.775886 ], [ 4.346686, 43.775556 ], [ 4.349381, 43.775802 ], [ 4.352874, 43.780367 ], [ 4.351133, 43.783518 ], [ 4.351417693390199, 43.787509659240989 ], [ 4.352249, 43.787397 ], [ 4.352252, 43.787398 ], [ 4.35269, 43.790229 ], [ 4.353729, 43.793566 ], [ 4.353951, 43.794233 ], [ 4.354045, 43.794827 ], [ 4.358775, 43.788062 ], [ 4.360742, 43.785047 ], [ 4.356919, 43.779506 ] ] ] ] } },
{ "type": "Feature", "properties": { "codgeo": "30169", "value": 540, "isochrone_group": 9.0, "nb_agences": 1 }, "geometry": { "type": "MultiPolygon", "coordinates": [ [ [ [ 4.367092, 43.792581 ], [ 4.36779, 43.792796 ], [ 4.368745, 43.793042 ], [ 4.369416, 43.793169 ], [ 4.37037, 43.793318 ], [ 4.370925, 43.789761 ], [ 4.369971, 43.789612 ], [ 4.368704, 43.789314 ], [ 4.368161, 43.789143 ], [ 4.36527, 43.787945 ], [ 4.364195, 43.787187 ], [ 4.363772, 43.786951 ], [ 4.359829, 43.779972 ], [ 4.361059, 43.777269 ], [ 4.359639, 43.775437 ], [ 4.35954, 43.775399 ], [ 4.358247, 43.775021 ], [ 4.354189, 43.773292 ], [ 4.354702, 43.764837 ], [ 4.355792, 43.761406 ], [ 4.354509, 43.760901 ], [ 4.353447, 43.760456 ], [ 4.352508, 43.760102 ], [ 4.34868, 43.755519 ], [ 4.350638, 43.750421 ], [ 4.350174, 43.746851 ], [ 4.344211, 43.743975 ], [ 4.341033, 43.742285 ], [ 4.337198, 43.744647 ], [ 4.338862, 43.747839 ], [ 4.339642, 43.753814 ], [ 4.340543, 43.749207 ], [ 4.342288, 43.748008 ], [ 4.343489, 43.747814 ], [ 4.343859, 43.747804 ], [ 4.343953, 43.748027 ], [ 4.344713, 43.750988 ], [ 4.345066, 43.755205 ], [ 4.345084, 43.756181 ], [ 4.344949, 43.756733 ], [ 4.344186, 43.75831 ], [ 4.342836, 43.759418 ], [ 4.341795, 43.760507 ], [ 4.346071, 43.768342 ], [ 4.349632, 43.768869 ], [ 4.353033, 43.773643 ], [ 4.356919, 43.779506 ], [ 4.360742, 43.785047 ], [ 4.358775, 43.788062 ], [ 4.354830800722674, 43.793703122222226 ], [ 4.354920516651399, 43.796461887030524 ], [ 4.355740075097849, 43.79794494205278 ], [ 4.355814, 43.798059 ], [ 4.359267, 43.801481 ], [ 4.361882162854518, 43.802913690967614 ], [ 4.360475, 43.799775 ], [ 4.360439, 43.799136 ], [ 4.360329, 43.798631 ], [ 4.363899, 43.791274 ], [ 4.367092, 43.792581 ] ] ], [ [ [ 4.296846, 43.801853 ], [ 4.294474, 43.796469 ], [ 4.292342, 43.789409 ], [ 4.288670382727767, 43.785983422091576 ], [ 4.285934, 43.784334 ], [ 4.280219, 43.784816 ], [ 4.273102, 43.786408 ], [ 4.272226, 43.786766 ], [ 4.267303, 43.788834 ], [ 4.272564, 43.787312 ], [ 4.274421, 43.787185 ], [ 4.281006, 43.78579 ], [ 4.283686, 43.785936 ], [ 4.290225, 43.791646 ], [ 4.292466, 43.796679 ], [ 4.294218, 43.801912 ], [ 4.294311, 43.802238 ], [ 4.296064274049153, 43.805121800485225 ], [ 4.297762, 43.80439 ], [ 4.298195872927244, 43.803565170013918 ], [ 4.297541, 43.802694 ], [ 4.297106, 43.802168 ], [ 4.296846, 43.801853 ] ] ], [ [ [ 4.316789, 43.750697 ], [ 4.310433, 43.749251 ], [ 4.30725, 43.747233 ], [ 4.304532, 43.745527 ], [ 4.304356493564108, 43.745431580550338 ], [ 4.305518, 43.74665 ], [ 4.306756, 43.748048 ], [ 4.308528804257312, 43.749826600892497 ], [ 4.30875, 43.749941 ], [ 4.314924, 43.75283 ], [ 4.318508, 43.752619 ], [ 4.319429, 43.754331 ], [ 4.319463, 43.754556 ], [ 4.31939, 43.756109 ], [ 4.319615, 43.76288 ], [ 4.32748, 43.760842 ], [ 4.329042, 43.757598 ], [ 4.331223, 43.757698 ], [ 4.326758, 43.750995 ], [ 4.325747, 43.750732 ], [ 4.322306, 43.750232 ], [ 4.316789, 43.750697 ] ] ], [ [ [ 4.258835, 43.790531 ], [ 4.257439, 43.792157 ], [ 4.257087, 43.792715 ], [ 4.256908, 43.79312 ], [ 4.256881, 43.793411 ], [ 4.257217, 43.795944 ], [ 4.257367, 43.796036 ], [ 4.259147, 43.796183 ], [ 4.259259, 43.796102 ], [ 4.259742, 43.795597 ], [ 4.263351, 43.791519 ], [ 4.262979, 43.791766 ], [ 4.261964, 43.792366 ], [ 4.26074, 43.792004 ], [ 4.260327, 43.791726 ], [ 4.259855, 43.791312 ], [ 4.25985, 43.789451 ], [ 4.259741754412389, 43.788851586556262 ], [ 4.259185, 43.790082 ], [ 4.258835, 43.790531 ] ] ] ] } },
{ "type": "Feature", "properties": { "codgeo": "30169", "value": 600, "isochrone_group": 10.0, "nb_agences": 1 }, "geometry": { "type": "MultiPolygon", "coordinates": [ [ [ [ 4.365098, 43.804376 ], [ 4.362934336429241, 43.803528832156601 ], [ 4.363555, 43.804372 ], [ 4.364207, 43.804364 ], [ 4.365098, 43.804376 ] ] ], [ [ [ 4.37582, 43.793863 ], [ 4.376436, 43.793869 ], [ 4.377006, 43.79384 ], [ 4.3785, 43.793687 ], [ 4.378132, 43.790106 ], [ 4.375202, 43.788632 ], [ 4.372714, 43.788341 ], [ 4.364857, 43.785857 ], [ 4.362513, 43.777826 ], [ 4.363596, 43.774094 ], [ 4.366066, 43.76771 ], [ 4.366665, 43.766926 ], [ 4.367052, 43.766422 ], [ 4.367313, 43.765848 ], [ 4.367069, 43.765636 ], [ 4.364033, 43.763278 ], [ 4.363563, 43.76313 ], [ 4.36132, 43.762857 ], [ 4.360968, 43.762794 ], [ 4.357034, 43.761829 ], [ 4.352034, 43.756959 ], [ 4.3514, 43.753415 ], [ 4.35328, 43.747564 ], [ 4.353172, 43.747437 ], [ 4.352639, 43.747001 ], [ 4.351596, 43.746699 ], [ 4.347458, 43.743358 ], [ 4.346558, 43.73736 ], [ 4.343809, 43.735036 ], [ 4.342254, 43.736112 ], [ 4.336152, 43.742636 ], [ 4.335498, 43.742848 ], [ 4.334632, 43.743301 ], [ 4.334096, 43.744167 ], [ 4.328204, 43.749755 ], [ 4.324756, 43.74843 ], [ 4.320714, 43.746496 ], [ 4.320517, 43.746515 ], [ 4.319858, 43.746593 ], [ 4.319563, 43.746893 ], [ 4.311869, 43.748089 ], [ 4.309369, 43.745499 ], [ 4.308406, 43.743964 ], [ 4.30679828666374, 43.743388464005427 ], [ 4.308066, 43.74541 ], [ 4.310370626244041, 43.749211455469833 ], [ 4.310433, 43.749251 ], [ 4.316789, 43.750697 ], [ 4.322306, 43.750232 ], [ 4.325747, 43.750732 ], [ 4.326758, 43.750995 ], [ 4.331223, 43.757698 ], [ 4.337427, 43.757204 ], [ 4.339642, 43.753814 ], [ 4.338862, 43.747839 ], [ 4.337198, 43.744647 ], [ 4.341033, 43.742285 ], [ 4.344211, 43.743975 ], [ 4.350174, 43.746851 ], [ 4.350638, 43.750421 ], [ 4.34868, 43.755519 ], [ 4.352508, 43.760102 ], [ 4.353447, 43.760456 ], [ 4.354509, 43.760901 ], [ 4.355792, 43.761406 ], [ 4.354702, 43.764837 ], [ 4.354189, 43.773292 ], [ 4.358247, 43.775021 ], [ 4.35954, 43.775399 ], [ 4.359639, 43.775437 ], [ 4.361059, 43.777269 ], [ 4.359829, 43.779972 ], [ 4.363772, 43.786951 ], [ 4.364195, 43.787187 ], [ 4.36527, 43.787945 ], [ 4.368161, 43.789143 ], [ 4.368704, 43.789314 ], [ 4.369971, 43.789612 ], [ 4.370925, 43.789761 ], [ 4.37037, 43.793318 ], [ 4.369416, 43.793169 ], [ 4.371573, 43.793629 ], [ 4.37264, 43.794194 ], [ 4.373269, 43.794145 ], [ 4.375114, 43.793887 ], [ 4.37582, 43.793863 ] ] ], [ [ [ 4.263351, 43.791519 ], [ 4.259763, 43.796269 ], [ 4.259593, 43.796415 ], [ 4.257197, 43.797603 ], [ 4.254717, 43.794994 ], [ 4.255301, 43.794439 ], [ 4.257087, 43.792715 ], [ 4.257439, 43.792157 ], [ 4.258835, 43.790531 ], [ 4.25871684863715, 43.790334588449667 ], [ 4.255278, 43.79219 ], [ 4.253527, 43.796221 ], [ 4.2555, 43.799232 ], [ 4.259614, 43.797069 ], [ 4.263351, 43.791519 ] ] ], [ [ [ 4.284500675868768, 43.786647393058679 ], [ 4.280484, 43.786451 ], [ 4.278945268799012, 43.786226555812533 ], [ 4.274421, 43.787185 ], [ 4.272564, 43.787312 ], [ 4.272276432483179, 43.787395192883594 ], [ 4.278084, 43.787694 ], [ 4.279162, 43.787825 ], [ 4.279825, 43.787786 ], [ 4.287111839365399, 43.788927519005412 ], [ 4.284500675868768, 43.786647393058679 ] ] ], [ [ [ 4.291112076871601, 43.804767874381724 ], [ 4.294084, 43.802836 ], [ 4.294452720234714, 43.80247110268116 ], [ 4.294311, 43.802238 ], [ 4.294218, 43.801912 ], [ 4.292466, 43.796679 ], [ 4.290225, 43.791646 ], [ 4.287495871539959, 43.789262864427769 ], [ 4.287878, 43.792843 ], [ 4.288461, 43.795035 ], [ 4.288487, 43.800209 ], [ 4.289519, 43.803122 ], [ 4.291112076871601, 43.804767874381724 ] ] ] ] } },
{ "type": "Feature", "properties": { "codgeo": "30169", "value": 660, "isochrone_group": 11.0, "nb_agences": 1 }, "geometry": { "type": "MultiPolygon", "coordinates": [ [ [ [ 4.364885, 43.783164 ], [ 4.365572, 43.774425 ], [ 4.368688, 43.774049 ], [ 4.368753, 43.773245 ], [ 4.369841, 43.767408 ], [ 4.368349, 43.762774 ], [ 4.366994, 43.759439 ], [ 4.366582, 43.759606 ], [ 4.366143, 43.759849 ], [ 4.363099, 43.762258 ], [ 4.356069, 43.758372 ], [ 4.357464, 43.749537 ], [ 4.356792, 43.746 ], [ 4.352792, 43.742541 ], [ 4.3512, 43.734171 ], [ 4.351667, 43.73308 ], [ 4.35189, 43.73259 ], [ 4.349924, 43.731687 ], [ 4.348613, 43.731101 ], [ 4.345157, 43.73167 ], [ 4.344459, 43.731895 ], [ 4.338738, 43.733526 ], [ 4.337619, 43.73462 ], [ 4.337208, 43.735033 ], [ 4.336582, 43.736465 ], [ 4.334865, 43.7406 ], [ 4.332078, 43.744153 ], [ 4.324529, 43.743701 ], [ 4.320264, 43.744101 ], [ 4.315521, 43.743768 ], [ 4.31013792227986, 43.743104056226173 ], [ 4.311823866743919, 43.748042241946671 ], [ 4.311869, 43.748089 ], [ 4.319563, 43.746893 ], [ 4.319858, 43.746593 ], [ 4.320517, 43.746515 ], [ 4.320714, 43.746496 ], [ 4.324756, 43.74843 ], [ 4.328204, 43.749755 ], [ 4.334096, 43.744167 ], [ 4.334632, 43.743301 ], [ 4.335498, 43.742848 ], [ 4.336152, 43.742636 ], [ 4.342254, 43.736112 ], [ 4.343809, 43.735036 ], [ 4.346558, 43.73736 ], [ 4.347458, 43.743358 ], [ 4.351596, 43.746699 ], [ 4.352639, 43.747001 ], [ 4.353172, 43.747437 ], [ 4.35328, 43.747564 ], [ 4.3514, 43.753415 ], [ 4.352034, 43.756959 ], [ 4.357034, 43.761829 ], [ 4.360968, 43.762794 ], [ 4.36132, 43.762857 ], [ 4.363563, 43.76313 ], [ 4.364033, 43.763278 ], [ 4.367069, 43.765636 ], [ 4.367313, 43.765848 ], [ 4.367052, 43.766422 ], [ 4.366665, 43.766926 ], [ 4.366066, 43.76771 ], [ 4.363596, 43.774094 ], [ 4.362513, 43.777826 ], [ 4.364857, 43.785857 ], [ 4.372714, 43.788341 ], [ 4.375202, 43.788632 ], [ 4.378132, 43.790106 ], [ 4.3785, 43.793687 ], [ 4.377006, 43.79384 ], [ 4.376436, 43.793869 ], [ 4.37582, 43.793863 ], [ 4.375114, 43.793887 ], [ 4.373269, 43.794145 ], [ 4.37264, 43.794194 ], [ 4.371573, 43.793629 ], [ 4.370907703144112, 43.793487119353884 ], [ 4.370577406619728, 43.799876450160021 ], [ 4.371913, 43.796737 ], [ 4.37411, 43.796135 ], [ 4.376538, 43.79528 ], [ 4.379443, 43.794253 ], [ 4.381431, 43.794718 ], [ 4.381486159066521, 43.794730465325777 ], [ 4.381534, 43.794572 ], [ 4.381985, 43.791722 ], [ 4.382890432126577, 43.789845286137655 ], [ 4.382244, 43.789432 ], [ 4.375876, 43.785209 ], [ 4.372343, 43.784517 ], [ 4.369898, 43.784489 ], [ 4.36655, 43.783944 ], [ 4.365425, 43.783425 ], [ 4.364885, 43.783164 ] ] ], [ [ [ 4.250413, 43.800261 ], [ 4.250343, 43.800626 ], [ 4.250963, 43.802036 ], [ 4.251394, 43.80225 ], [ 4.253878, 43.801307 ], [ 4.259523, 43.799701 ], [ 4.262391, 43.798486 ], [ 4.263605438069145, 43.794725030872883 ], [ 4.26276, 43.796072 ], [ 4.262013, 43.797258 ], [ 4.261634, 43.797749 ], [ 4.254231, 43.800401 ], [ 4.253195, 43.799609 ], [ 4.251593, 43.797951 ], [ 4.252261, 43.797231 ], [ 4.253196, 43.795815 ], [ 4.254719, 43.792654 ], [ 4.253241773239823, 43.791090884945838 ], [ 4.252831, 43.79162 ], [ 4.251733, 43.795529 ], [ 4.250413, 43.800261 ] ] ], [ [ [ 4.284914, 43.793634 ], [ 4.283698, 43.802538 ], [ 4.283644, 43.804608 ], [ 4.28395, 43.804913 ], [ 4.285478175163074, 43.806251310292026 ], [ 4.287612, 43.805638 ], [ 4.29081270792305, 43.804458583793242 ], [ 4.289519, 43.803122 ], [ 4.288487, 43.800209 ], [ 4.288461, 43.795035 ], [ 4.287878, 43.792843 ], [ 4.287466, 43.788983 ], [ 4.281151002816634, 43.787993724822869 ], [ 4.278377, 43.789008 ], [ 4.276653892390713, 43.787620419050732 ], [ 4.272560533054808, 43.787409810238003 ], [ 4.267889, 43.788433 ], [ 4.267303, 43.788834 ], [ 4.275076, 43.78958 ], [ 4.275412, 43.789788 ], [ 4.276174, 43.790073 ], [ 4.277779, 43.789916 ], [ 4.284914, 43.793634 ] ] ] ] } },
{ "type": "Feature", "properties": { "codgeo": "30169", "value": 720, "isochrone_group": 12.0, "nb_agences": 1 }, "geometry": { "type": "MultiPolygon", "coordinates": [ [ [ [ 4.371877, 43.767933 ], [ 4.369944, 43.760471 ], [ 4.369495, 43.758311 ], [ 4.366216, 43.758177 ], [ 4.358003, 43.758579 ], [ 4.356951, 43.755727 ], [ 4.357367, 43.752152 ], [ 4.359737, 43.748996 ], [ 4.360201, 43.747862 ], [ 4.360542, 43.747024 ], [ 4.36058, 43.746754 ], [ 4.359022, 43.742385 ], [ 4.356654, 43.739673 ], [ 4.354815, 43.732843 ], [ 4.354156, 43.730094 ], [ 4.352048, 43.72796 ], [ 4.350944, 43.727125 ], [ 4.350533, 43.727079 ], [ 4.343079, 43.72674 ], [ 4.34284, 43.726748 ], [ 4.341399, 43.727819 ], [ 4.333265, 43.729966 ], [ 4.332379, 43.732572 ], [ 4.332423, 43.733466 ], [ 4.332991, 43.739439 ], [ 4.331031, 43.742459 ], [ 4.329581418788549, 43.744003516001108 ], [ 4.332078, 43.744153 ], [ 4.334865, 43.7406 ], [ 4.336582, 43.736465 ], [ 4.337208, 43.735033 ], [ 4.337619, 43.73462 ], [ 4.338738, 43.733526 ], [ 4.344459, 43.731895 ], [ 4.345157, 43.73167 ], [ 4.348613, 43.731101 ], [ 4.349924, 43.731687 ], [ 4.35189, 43.73259 ], [ 4.351667, 43.73308 ], [ 4.3512, 43.734171 ], [ 4.352792, 43.742541 ], [ 4.356792, 43.746 ], [ 4.357464, 43.749537 ], [ 4.356069, 43.758372 ], [ 4.363099, 43.762258 ], [ 4.366143, 43.759849 ], [ 4.366582, 43.759606 ], [ 4.366994, 43.759439 ], [ 4.368349, 43.762774 ], [ 4.369841, 43.767408 ], [ 4.368753, 43.773245 ], [ 4.368688, 43.774049 ], [ 4.365572, 43.774425 ], [ 4.364885, 43.783164 ], [ 4.365425, 43.783425 ], [ 4.36655, 43.783944 ], [ 4.369898, 43.784489 ], [ 4.372343, 43.784517 ], [ 4.375876, 43.785209 ], [ 4.380857440485499, 43.78851248981946 ], [ 4.382361, 43.787599 ], [ 4.38277211638187, 43.786041637109591 ], [ 4.382045, 43.785733 ], [ 4.374985, 43.780615 ], [ 4.373583, 43.778788 ], [ 4.369881, 43.772122 ], [ 4.371592, 43.768582 ], [ 4.37176, 43.768263 ], [ 4.371877, 43.767933 ] ] ], [ [ [ 4.314033989605098, 43.743584593527963 ], [ 4.315521, 43.743768 ], [ 4.320264, 43.744101 ], [ 4.321128994337803, 43.744019875091418 ], [ 4.318669, 43.741842 ], [ 4.31509, 43.742231 ], [ 4.310594323841348, 43.741023184815788 ], [ 4.311068, 43.741917 ], [ 4.314033989605098, 43.743584593527963 ] ] ], [ [ [ 4.248369, 43.80297 ], [ 4.251754, 43.806426 ], [ 4.251868, 43.80642 ], [ 4.25409, 43.803955 ], [ 4.258347973940611, 43.800641114111777 ], [ 4.257357, 43.801078 ], [ 4.254557, 43.802408 ], [ 4.252665, 43.802957 ], [ 4.250445, 43.80248 ], [ 4.248965, 43.801344 ], [ 4.248072, 43.798754 ], [ 4.245719078485122, 43.796881235539502 ], [ 4.244585, 43.797527 ], [ 4.245495, 43.799675 ], [ 4.248369, 43.80297 ] ] ], [ [ [ 4.266429, 43.797196 ], [ 4.266769, 43.796598 ], [ 4.267074, 43.796074 ], [ 4.267303, 43.788834 ], [ 4.264827, 43.796796 ], [ 4.264827, 43.796896 ], [ 4.263876, 43.798204 ], [ 4.259405617937435, 43.800174835718337 ], [ 4.264206, 43.799084 ], [ 4.265862, 43.797715 ], [ 4.266429, 43.797196 ] ] ], [ [ [ 4.276797, 43.79151 ], [ 4.284361, 43.794326 ], [ 4.283241, 43.799801 ], [ 4.282925, 43.80073 ], [ 4.280925, 43.803622 ], [ 4.280248, 43.804159 ], [ 4.279516, 43.804894 ], [ 4.27884, 43.80543 ], [ 4.277981, 43.806519 ], [ 4.280807, 43.808749 ], [ 4.281322573066896, 43.808867757209498 ], [ 4.281399, 43.806953 ], [ 4.281428, 43.806638 ], [ 4.28329, 43.806525 ], [ 4.283881, 43.806465 ], [ 4.284791704772218, 43.805650128954035 ], [ 4.28395, 43.804913 ], [ 4.283644, 43.804608 ], [ 4.283698, 43.802538 ], [ 4.284914, 43.793634 ], [ 4.278171786609598, 43.790120678432302 ], [ 4.27748, 43.790428 ], [ 4.277172, 43.790748 ], [ 4.275412, 43.789788 ], [ 4.275085321951249, 43.789585770731719 ], [ 4.275074677902469, 43.789579873114022 ], [ 4.267303, 43.788834 ], [ 4.273638, 43.789783 ], [ 4.275272, 43.792242 ], [ 4.27553, 43.792174 ], [ 4.275927, 43.792021 ], [ 4.276797, 43.79151 ] ] ] ] } },
{ "type": "Feature", "properties": { "codgeo": "30169", "value": 780, "isochrone_group": 13.0, "nb_agences": 1 }, "geometry": { "type": "MultiPolygon", "coordinates": [ [ [ [ 4.37176, 43.768263 ], [ 4.371592, 43.768582 ], [ 4.369881, 43.772122 ], [ 4.373583, 43.778788 ], [ 4.374985, 43.780615 ], [ 4.380365567716118, 43.784515530534165 ], [ 4.38171, 43.783438 ], [ 4.382715162440104, 43.782054129055496 ], [ 4.380703, 43.780766 ], [ 4.377076, 43.77554 ], [ 4.377044, 43.775484 ], [ 4.376082, 43.774756 ], [ 4.372918, 43.76688 ], [ 4.369944, 43.760471 ], [ 4.371877, 43.767933 ], [ 4.37176, 43.768263 ] ] ], [ [ [ 4.362037, 43.736418 ], [ 4.358574, 43.728535 ], [ 4.356801, 43.727288 ], [ 4.353289301686118, 43.72573560135401 ], [ 4.352634, 43.726362 ], [ 4.350833, 43.726955 ], [ 4.350563, 43.726848 ], [ 4.349560098075163, 43.724930608697569 ], [ 4.343432, 43.720079 ], [ 4.342846, 43.719278 ], [ 4.340591, 43.719489 ], [ 4.339717, 43.721058 ], [ 4.335983, 43.726311 ], [ 4.329101, 43.727951 ], [ 4.327169, 43.730989 ], [ 4.327596, 43.735265 ], [ 4.32862, 43.738716 ], [ 4.324683842403829, 43.742461346632368 ], [ 4.326653, 43.742348 ], [ 4.330705064757322, 43.742806281127592 ], [ 4.331031, 43.742459 ], [ 4.332991, 43.739439 ], [ 4.332423, 43.733466 ], [ 4.332379, 43.732572 ], [ 4.333265, 43.729966 ], [ 4.341399, 43.727819 ], [ 4.34284, 43.726748 ], [ 4.343079, 43.72674 ], [ 4.350533, 43.727079 ], [ 4.350944, 43.727125 ], [ 4.352048, 43.72796 ], [ 4.354156, 43.730094 ], [ 4.354815, 43.732843 ], [ 4.356654, 43.739673 ], [ 4.359022, 43.742385 ], [ 4.36058, 43.746754 ], [ 4.360542, 43.747024 ], [ 4.360201, 43.747862 ], [ 4.359737, 43.748996 ], [ 4.357367, 43.752152 ], [ 4.356951, 43.755727 ], [ 4.358003, 43.758579 ], [ 4.366216, 43.758177 ], [ 4.369495, 43.758311 ], [ 4.369944, 43.760471 ], [ 4.369475, 43.756388 ], [ 4.365876, 43.756305 ], [ 4.362276, 43.748168 ], [ 4.361851, 43.743054 ], [ 4.362452, 43.738466 ], [ 4.362037, 43.736418 ] ] ], [ [ [ 4.31509, 43.742231 ], [ 4.318669, 43.741842 ], [ 4.320624481787035, 43.743573221495211 ], [ 4.320760276000301, 43.743525027306788 ], [ 4.318544, 43.740107 ], [ 4.318557, 43.738965 ], [ 4.318786, 43.737597 ], [ 4.315236, 43.737002 ], [ 4.309244033585268, 43.740660413784965 ], [ 4.31509, 43.742231 ] ] ], [ [ [ 4.246687, 43.807277 ], [ 4.249069, 43.807776 ], [ 4.251917, 43.807157 ], [ 4.253252, 43.80675 ], [ 4.253874, 43.806561 ], [ 4.255641, 43.805894 ], [ 4.258351, 43.804011 ], [ 4.264141, 43.800866 ], [ 4.266429, 43.797196 ], [ 4.265862, 43.797715 ], [ 4.264179, 43.799216 ], [ 4.258758, 43.800322 ], [ 4.255746, 43.803302 ], [ 4.255394, 43.80393 ], [ 4.254867, 43.805111 ], [ 4.254617, 43.805632 ], [ 4.2545, 43.805662 ], [ 4.252177641067755, 43.806076496295248 ], [ 4.251868, 43.80642 ], [ 4.251754, 43.806426 ], [ 4.251525653123614, 43.806192863573187 ], [ 4.250169, 43.806435 ], [ 4.249454, 43.806308 ], [ 4.24922, 43.80618 ], [ 4.248609, 43.805639 ], [ 4.245374, 43.799583 ], [ 4.243019, 43.796792 ], [ 4.242025, 43.79549 ], [ 4.241515804176029, 43.795461808778199 ], [ 4.243198, 43.799849 ], [ 4.246598, 43.807243 ], [ 4.246687, 43.807277 ] ] ], [ [ [ 4.276814, 43.810394 ], [ 4.277431, 43.810388 ], [ 4.278592636577986, 43.810271510953804 ], [ 4.278221542902782, 43.806708812693977 ], [ 4.277981, 43.806519 ], [ 4.27884, 43.80543 ], [ 4.279516, 43.804894 ], [ 4.280248, 43.804159 ], [ 4.280925, 43.803622 ], [ 4.282925, 43.80073 ], [ 4.283241, 43.799801 ], [ 4.284361, 43.794326 ], [ 4.278754559248442, 43.792238779328883 ], [ 4.276002, 43.792743 ], [ 4.274813, 43.793011 ], [ 4.274538, 43.793013 ], [ 4.267399, 43.795866 ], [ 4.266429, 43.797196 ], [ 4.2683, 43.795657 ], [ 4.268562, 43.795494 ], [ 4.275639, 43.793721 ], [ 4.279107, 43.801445 ], [ 4.276782, 43.806794 ], [ 4.276814, 43.810394 ] ] ] ] } },
{ "type": "Feature", "properties": { "codgeo": "30169", "value": 840, "isochrone_group": 14.0, "nb_agences": 1 }, "geometry": { "type": "MultiPolygon", "coordinates": [ [ [ [ 4.3631960903105, 43.750247659682373 ], [ 4.365876, 43.756305 ], [ 4.369475, 43.756388 ], [ 4.369944, 43.760471 ], [ 4.369485, 43.755958 ], [ 4.369495, 43.754909 ], [ 4.369368, 43.754168 ], [ 4.369303, 43.753982 ], [ 4.36668, 43.753987 ], [ 4.366213, 43.753912 ], [ 4.3631960903105, 43.750247659682373 ] ] ], [ [ [ 4.363487, 43.735779 ], [ 4.36338, 43.735722 ], [ 4.360800182175044, 43.73360256976202 ], [ 4.362037, 43.736418 ], [ 4.362452, 43.738466 ], [ 4.361851, 43.743054 ], [ 4.362060823484414, 43.745578793645393 ], [ 4.366195, 43.741645 ], [ 4.368444, 43.738834 ], [ 4.36635772165199, 43.734725865200716 ], [ 4.365413, 43.735632 ], [ 4.365357, 43.735674 ], [ 4.363487, 43.735779 ] ] ], [ [ [ 4.341316, 43.710044 ], [ 4.337716, 43.710084 ], [ 4.337738, 43.711997 ], [ 4.337826, 43.712643 ], [ 4.337815, 43.71683 ], [ 4.337726, 43.718199 ], [ 4.337659, 43.718613 ], [ 4.337519, 43.721504 ], [ 4.330513, 43.724185 ], [ 4.330253, 43.724071 ], [ 4.329797405727486, 43.7242650203195 ], [ 4.329565, 43.724748 ], [ 4.329211, 43.72518 ], [ 4.328555, 43.725686 ], [ 4.327884, 43.725929 ], [ 4.326963, 43.726008 ], [ 4.324101441490504, 43.726691404522299 ], [ 4.3238, 43.72682 ], [ 4.323549, 43.730411 ], [ 4.316607, 43.733434 ], [ 4.315726755372654, 43.735565156452644 ], [ 4.316762304018833, 43.73725781715244 ], [ 4.318786, 43.737597 ], [ 4.318557, 43.738965 ], [ 4.318544, 43.740107 ], [ 4.318595680960656, 43.740186704393651 ], [ 4.3253641217451, 43.741814044821481 ], [ 4.32862, 43.738716 ], [ 4.327596, 43.735265 ], [ 4.327169, 43.730989 ], [ 4.329101, 43.727951 ], [ 4.335983, 43.726311 ], [ 4.339717, 43.721058 ], [ 4.340591, 43.719489 ], [ 4.342846, 43.719278 ], [ 4.343432, 43.720079 ], [ 4.347407234508422, 43.723226188912349 ], [ 4.347493, 43.722538 ], [ 4.347633, 43.722434 ], [ 4.348443806816593, 43.721770279244105 ], [ 4.343873, 43.717499 ], [ 4.34308, 43.714112 ], [ 4.342844, 43.712953 ], [ 4.341316, 43.710044 ] ] ], [ [ [ 4.24469, 43.811241 ], [ 4.24495, 43.811287 ], [ 4.245347097554699, 43.811358579816726 ], [ 4.245437788256143, 43.808616519784856 ], [ 4.242909, 43.807876 ], [ 4.24221, 43.80611 ], [ 4.242091, 43.805496 ], [ 4.242086, 43.805269 ], [ 4.24213, 43.804361 ], [ 4.240784, 43.798119 ], [ 4.239701604778822, 43.798005476005038 ], [ 4.237149, 43.805159 ], [ 4.236583, 43.808714 ], [ 4.24469, 43.811241 ] ] ], [ [ [ 4.250946, 43.810506 ], [ 4.255982, 43.808496 ], [ 4.257143, 43.80816 ], [ 4.259463, 43.805658 ], [ 4.264084, 43.80371 ], [ 4.264469, 43.803603 ], [ 4.265259, 43.801258 ], [ 4.266022157961425, 43.798608472103147 ], [ 4.264756875748473, 43.799878122378978 ], [ 4.264141, 43.800866 ], [ 4.262618664516995, 43.801692898979958 ], [ 4.257794, 43.80551 ], [ 4.255664, 43.807657 ], [ 4.249969329431972, 43.809353466232089 ], [ 4.250123, 43.809427 ], [ 4.250783994761528, 43.810530248777674 ], [ 4.250946, 43.810506 ] ] ], [ [ [ 4.276122, 43.806649 ], [ 4.277063985438957, 43.806145251564303 ], [ 4.279107, 43.801445 ], [ 4.275799029259664, 43.794077420415682 ], [ 4.275509, 43.794069 ], [ 4.270345522552367, 43.7950471742991 ], [ 4.269313554132935, 43.795305713229077 ], [ 4.267561508438112, 43.797063807413075 ], [ 4.273514, 43.796369 ], [ 4.276934, 43.803209 ], [ 4.274446, 43.806348 ], [ 4.273827, 43.809895 ], [ 4.275290312031571, 43.810150686242082 ], [ 4.276122, 43.806649 ] ] ], [ [ [ 4.372405894740949, 43.765776408000917 ], [ 4.372918, 43.76688 ], [ 4.376082, 43.774756 ], [ 4.377044, 43.775484 ], [ 4.377076, 43.77554 ], [ 4.380703, 43.780766 ], [ 4.382559010847589, 43.781954165255662 ], [ 4.382915, 43.781779 ], [ 4.380698, 43.776816 ], [ 4.379644, 43.775554 ], [ 4.379458, 43.775289 ], [ 4.374957, 43.770284 ], [ 4.372405894740949, 43.765776408000917 ] ] ], [ [ [ 4.371808089544595, 43.76448813177246 ], [ 4.372127599707333, 43.763332364562309 ], [ 4.369944, 43.760471 ], [ 4.371808089544595, 43.76448813177246 ] ] ] ] } },
{ "type": "Feature", "properties": { "codgeo": "30169", "value": 900, "isochrone_group": 15.0, "nb_agences": 1 }, "geometry": { "type": "MultiPolygon", "coordinates": [ [ [ [ 4.372545, 43.742694 ], [ 4.373005, 43.740365 ], [ 4.370392, 43.737733 ], [ 4.37165841472636, 43.73566880118485 ], [ 4.366962596352063, 43.735916936759764 ], [ 4.368444, 43.738834 ], [ 4.366195, 43.741645 ], [ 4.360542, 43.747024 ], [ 4.366213, 43.753912 ], [ 4.36668, 43.753987 ], [ 4.369267286874972, 43.753982068076866 ], [ 4.368926, 43.753352 ], [ 4.368244, 43.752741 ], [ 4.367676, 43.752479 ], [ 4.369068, 43.743629 ], [ 4.370645, 43.743576 ], [ 4.372323, 43.7439 ], [ 4.372545, 43.742694 ] ] ], [ [ [ 4.336815898466775, 43.704578145406295 ], [ 4.337793, 43.706434 ], [ 4.339527, 43.705778 ], [ 4.340045, 43.705527 ], [ 4.340703, 43.705292 ], [ 4.34139, 43.706579 ], [ 4.342038, 43.708635 ], [ 4.341581222604357, 43.710548929683299 ], [ 4.342844, 43.712953 ], [ 4.34308, 43.714112 ], [ 4.343873, 43.717499 ], [ 4.346131141428694, 43.719609164135498 ], [ 4.346158, 43.719512 ], [ 4.346611, 43.718774 ], [ 4.346683, 43.718716 ], [ 4.347395, 43.7182 ], [ 4.347646287279917, 43.718044076590857 ], [ 4.345973, 43.709999 ], [ 4.345943, 43.709291 ], [ 4.346022, 43.705572 ], [ 4.343721, 43.702803 ], [ 4.336815898466775, 43.704578145406295 ] ] ], [ [ [ 4.333279, 43.720876 ], [ 4.332659391506804, 43.723363636079114 ], [ 4.337519, 43.721504 ], [ 4.337659, 43.718613 ], [ 4.337726, 43.718199 ], [ 4.337815, 43.71683 ], [ 4.337826, 43.712643 ], [ 4.337738, 43.711997 ], [ 4.337735970112125, 43.711820492022511 ], [ 4.337293, 43.711849 ], [ 4.335113739273641, 43.715995453209196 ], [ 4.335882, 43.718566 ], [ 4.333857821812668, 43.719322135578736 ], [ 4.333279, 43.720876 ] ] ], [ [ [ 4.237977, 43.810172 ], [ 4.23795725984478, 43.809142364947284 ], [ 4.236583, 43.808714 ], [ 4.236583807006378, 43.808708931258536 ], [ 4.236368, 43.808672 ], [ 4.235538, 43.808438 ], [ 4.232941, 43.80796 ], [ 4.230704674460297, 43.808781035346094 ], [ 4.232264, 43.810411 ], [ 4.235782, 43.811749 ], [ 4.237900952061834, 43.813279428702266 ], [ 4.237977, 43.810172 ] ] ], [ [ [ 4.27199, 43.806721 ], [ 4.272689, 43.805975 ], [ 4.272953, 43.805974 ], [ 4.276902456468424, 43.803145912936856 ], [ 4.273514, 43.796369 ], [ 4.266429, 43.797196 ], [ 4.265569, 43.803396 ], [ 4.26208, 43.806203 ], [ 4.258396, 43.808514 ], [ 4.256929, 43.809032 ], [ 4.253214904590911, 43.810103584588248 ], [ 4.256247, 43.812446 ], [ 4.256336923050714, 43.812439495115726 ], [ 4.258248, 43.810217 ], [ 4.259454, 43.809105 ], [ 4.260808, 43.807686 ], [ 4.26287, 43.806434 ], [ 4.269643022523072, 43.809120868182085 ], [ 4.27199, 43.806721 ] ] ], [ [ [ 4.370801631258997, 43.761192841835971 ], [ 4.369944, 43.760471 ], [ 4.370719991489789, 43.761487850543666 ], [ 4.370801631258997, 43.761192841835971 ] ] ], [ [ [ 4.449971441468822, 43.73975471605398 ], [ 4.450003347159795, 43.739748125938554 ], [ 4.450025141009333, 43.739743346805071 ], [ 4.449971064293798, 43.739754524305809 ], [ 4.449971441468822, 43.73975471605398 ] ] ] ] } },
{ "type": "Feature", "properties": { "codgeo": "30169", "value": 960, "isochrone_group": 16.0, "nb_agences": 1 }, "geometry": { "type": "MultiPolygon", "coordinates": [ [ [ [ 4.372323, 43.7439 ], [ 4.370645, 43.743576 ], [ 4.369068, 43.743629 ], [ 4.367676, 43.752479 ], [ 4.368244, 43.752741 ], [ 4.368926, 43.753352 ], [ 4.369368, 43.754168 ], [ 4.369495, 43.754909 ], [ 4.371075, 43.748437 ], [ 4.374330853781634, 43.746951290231976 ], [ 4.374253, 43.744325 ], [ 4.374298632540342, 43.74376538472486 ], [ 4.372598138116638, 43.742424959405106 ], [ 4.372545, 43.742694 ], [ 4.372323, 43.7439 ] ] ], [ [ [ 4.34641645747617, 43.712131120050998 ], [ 4.346483102087715, 43.712451543812442 ], [ 4.349233132967244, 43.709692529357795 ], [ 4.348139, 43.708735 ], [ 4.347831419049037, 43.707317579931754 ], [ 4.346973215776998, 43.70648011141089 ], [ 4.347051, 43.710917 ], [ 4.34641645747617, 43.712131120050998 ] ] ], [ [ [ 4.34073, 43.701733 ], [ 4.342960737117529, 43.7004731484679 ], [ 4.342959, 43.700456 ], [ 4.342958, 43.69914 ], [ 4.34302, 43.698494 ], [ 4.343447, 43.697062 ], [ 4.343394835648328, 43.695545950730441 ], [ 4.337012, 43.699881 ], [ 4.332311, 43.702159 ], [ 4.332224166319316, 43.702246004411492 ], [ 4.337633, 43.70348 ], [ 4.34073, 43.701733 ] ] ], [ [ [ 4.229066170264694, 43.8142730467817 ], [ 4.230299114065047, 43.815628807581561 ], [ 4.230015178504764, 43.814562736684792 ], [ 4.229409, 43.814258 ], [ 4.229066170264694, 43.8142730467817 ] ] ], [ [ [ 4.264395154527519, 43.80703903108602 ], [ 4.264254, 43.807239 ], [ 4.262222, 43.80945 ], [ 4.262177358747493, 43.809481718784667 ], [ 4.263657, 43.809369 ], [ 4.264571, 43.809022 ], [ 4.266428298159703, 43.807845582210916 ], [ 4.264395154527519, 43.80703903108602 ] ] ] ] } },
{ "type": "Feature", "properties": { "codgeo": "30169", "value": 1020, "isochrone_group": 17.0, "nb_agences": 1 }, "geometry": { "type": "MultiPolygon", "coordinates": [ [ [ [ 4.370556441548098, 43.750561120443493 ], [ 4.370569, 43.750519 ], [ 4.375106863249144, 43.747467023705212 ], [ 4.374442272158362, 43.746900447847246 ], [ 4.371075, 43.748437 ], [ 4.370556441548098, 43.750561120443493 ] ] ], [ [ [ 4.346518943567825, 43.690141690537459 ], [ 4.346596, 43.690002 ], [ 4.346159638080594, 43.688705155043692 ], [ 4.345890825311937, 43.688662010524268 ], [ 4.346518943567825, 43.690141690537459 ] ] ], [ [ [ 4.369432, 43.758236 ], [ 4.369944, 43.760471 ], [ 4.37600345789936, 43.762493992046394 ], [ 4.376122760508751, 43.760974638226777 ], [ 4.373636, 43.761427 ], [ 4.369485, 43.755958 ], [ 4.369432, 43.758236 ] ] ], [ [ [ 4.223810747600319, 43.814736616039589 ], [ 4.227643070187477, 43.818617754086986 ], [ 4.225393859647579, 43.814339962514651 ], [ 4.223810747600319, 43.814736616039589 ] ] ] ] } },
{ "type": "Feature", "properties": { "codgeo": "30169", "value": 1080, "isochrone_group": 18.0, "nb_agences": 1 }, "geometry": { "type": "MultiPolygon", "coordinates": [ [ [ [ 4.371377, 43.754315 ], [ 4.37215, 43.750799 ], [ 4.374697583863984, 43.748817588188899 ], [ 4.373416492681632, 43.748603895977062 ], [ 4.370569, 43.750519 ], [ 4.370278, 43.751495 ], [ 4.369495, 43.754909 ], [ 4.369485, 43.755958 ], [ 4.373636, 43.761427 ], [ 4.376122760508751, 43.760974638226777 ], [ 4.376423, 43.757151 ], [ 4.376412, 43.757087 ], [ 4.376701824681329, 43.756478050179766 ], [ 4.371377, 43.754315 ] ] ], [ [ [ 4.315273, 43.877713 ], [ 4.313435, 43.879181 ], [ 4.31323097703222, 43.879394281152884 ], [ 4.315273, 43.877713 ] ] ] ] } },
{ "type": "Feature", "properties": { "codgeo": "30169", "value": 1140, "isochrone_group": 19.0, "nb_agences": 1 }, "geometry": { "type": "MultiPolygon", "coordinates": [ [ [ [ 4.375349076506419, 43.75592853684212 ], [ 4.371858620154662, 43.752124344807505 ], [ 4.371377, 43.754315 ], [ 4.375349076506419, 43.75592853684212 ] ] ], [ [ [ 4.302432, 43.886368 ], [ 4.306636, 43.885194 ], [ 4.303592, 43.885947 ], [ 4.303565, 43.885956 ], [ 4.302431973002957, 43.886367925664771 ], [ 4.302432, 43.886368 ] ] ] ] } },
{ "type": "Feature", "properties": { "codgeo": "30169", "value": 1200, "isochrone_group": 20.0, "nb_agences": 1 }, "geometry": { "type": "Polygon", "coordinates": [ [ [ 4.302431973002957, 43.886367925664771 ], [ 4.302341, 43.886401 ], [ 4.302239257190954, 43.886439528132463 ], [ 4.301554517459422, 43.886707214375534 ], [ 4.299020622639154, 43.88795599290011 ], [ 4.298766678435947, 43.888081863291504 ], [ 4.297001, 43.889499 ], [ 4.303198016474346, 43.886154083886538 ], [ 4.302432, 43.886368 ], [ 4.302431973002957, 43.886367925664771 ] ] ] } }
]
}
