{
"type": "FeatureCollection",
"name": "La_Banque_Postale",
"crs": { "type": "name", "properties": { "name": "urn:ogc:def:crs:OGC:1.3:CRS84" } },
"features": [
{ "type": "Feature", "properties": { "codgeo": "31044", "value": 60, "isochrone_group": 1.0, "nb_agences": 1 }, "geometry": { "type": "Polygon", "coordinates": [ [ [ 1.492601, 43.607195 ], [ 1.492674, 43.60712 ], [ 1.492778, 43.607101 ], [ 1.493022, 43.607178 ], [ 1.495274, 43.60789 ], [ 1.495577, 43.608085 ], [ 1.49675, 43.608884 ], [ 1.496882, 43.609068 ], [ 1.496841, 43.609425 ], [ 1.495508, 43.609955 ], [ 1.493841, 43.61031 ], [ 1.493507, 43.610174 ], [ 1.491689, 43.608693 ], [ 1.492601, 43.607195 ] ] ] } },
{ "type": "Feature", "properties": { "codgeo": "31044", "value": 120, "isochrone_group": 2.0, "nb_agences": 1 }, "geometry": { "type": "Polygon", "coordinates": [ [ [ 1.487849, 43.60853 ], [ 1.489416, 43.610724 ], [ 1.489464, 43.61075 ], [ 1.492393, 43.612254 ], [ 1.494913, 43.612418 ], [ 1.498779, 43.612124 ], [ 1.499091, 43.611945 ], [ 1.50097, 43.610015 ], [ 1.500974, 43.609655 ], [ 1.499663, 43.607347 ], [ 1.499346, 43.607177 ], [ 1.495188, 43.605963 ], [ 1.49322, 43.60451 ], [ 1.492899, 43.604346 ], [ 1.491935, 43.605525 ], [ 1.487938, 43.608181 ], [ 1.487849, 43.60853 ] ], [ [ 1.492674, 43.60712 ], [ 1.492778, 43.607101 ], [ 1.493022, 43.607178 ], [ 1.495274, 43.60789 ], [ 1.495577, 43.608085 ], [ 1.49675, 43.608884 ], [ 1.496882, 43.609068 ], [ 1.496841, 43.609425 ], [ 1.495508, 43.609955 ], [ 1.493841, 43.61031 ], [ 1.493507, 43.610174 ], [ 1.491689, 43.608693 ], [ 1.492601, 43.607195 ], [ 1.492674, 43.60712 ] ] ] } },
{ "type": "Feature", "properties": { "codgeo": "31044", "value": 180, "isochrone_group": 3.0, "nb_agences": 1 }, "geometry": { "type": "Polygon", "coordinates": [ [ [ 1.48298, 43.606742 ], [ 1.484709, 43.610096 ], [ 1.487577, 43.613855 ], [ 1.487597, 43.613866 ], [ 1.490076, 43.614696 ], [ 1.493683, 43.61472 ], [ 1.499098, 43.614001 ], [ 1.502319, 43.613507 ], [ 1.502641, 43.613345 ], [ 1.503726, 43.60999 ], [ 1.503899, 43.604182 ], [ 1.503678, 43.603898 ], [ 1.496051, 43.601144 ], [ 1.494589, 43.601756 ], [ 1.494138, 43.602411 ], [ 1.493134, 43.604054 ], [ 1.484604, 43.606036 ], [ 1.484258, 43.605937 ], [ 1.483107, 43.606405 ], [ 1.48298, 43.606742 ] ], [ [ 1.491935, 43.605525 ], [ 1.492899, 43.604346 ], [ 1.49322, 43.60451 ], [ 1.495188, 43.605963 ], [ 1.499346, 43.607177 ], [ 1.499663, 43.607347 ], [ 1.500974, 43.609655 ], [ 1.50097, 43.610015 ], [ 1.499091, 43.611945 ], [ 1.498779, 43.612124 ], [ 1.494913, 43.612418 ], [ 1.492393, 43.612254 ], [ 1.489464, 43.61075 ], [ 1.489416, 43.610724 ], [ 1.487849, 43.60853 ], [ 1.487938, 43.608181 ], [ 1.491935, 43.605525 ] ] ] } },
{ "type": "Feature", "properties": { "codgeo": "31044", "value": 240, "isochrone_group": 4.0, "nb_agences": 1 }, "geometry": { "type": "Polygon", "coordinates": [ [ [ 1.48182, 43.62086 ], [ 1.488118, 43.615163 ], [ 1.49259, 43.617341 ], [ 1.492924, 43.617476 ], [ 1.494946, 43.616351 ], [ 1.503842, 43.616871 ], [ 1.504161, 43.616704 ], [ 1.504533, 43.616051 ], [ 1.509834, 43.608824 ], [ 1.509792, 43.608467 ], [ 1.508847, 43.603124 ], [ 1.5071, 43.59978 ], [ 1.506964, 43.599562 ], [ 1.506779, 43.599316 ], [ 1.500236, 43.598399 ], [ 1.497044, 43.596751 ], [ 1.496685, 43.596716 ], [ 1.492297, 43.597568 ], [ 1.48808, 43.601269 ], [ 1.48407532461673, 43.602896976250989 ], [ 1.482861, 43.606248 ], [ 1.482788, 43.606351 ], [ 1.482658, 43.606531 ], [ 1.479425000173704, 43.607465462494545 ], [ 1.479829, 43.609142 ], [ 1.48269, 43.616931 ], [ 1.481477, 43.620751 ], [ 1.48182, 43.62086 ] ], [ [ 1.484604, 43.606036 ], [ 1.493134, 43.604054 ], [ 1.494138, 43.602411 ], [ 1.494589, 43.601756 ], [ 1.496051, 43.601144 ], [ 1.503678, 43.603898 ], [ 1.503899, 43.604182 ], [ 1.503726, 43.60999 ], [ 1.502641, 43.613345 ], [ 1.502319, 43.613507 ], [ 1.499098, 43.614001 ], [ 1.493683, 43.61472 ], [ 1.490076, 43.614696 ], [ 1.487597, 43.613866 ], [ 1.487577, 43.613855 ], [ 1.484709, 43.610096 ], [ 1.48298, 43.606742 ], [ 1.483107, 43.606405 ], [ 1.484258, 43.605937 ], [ 1.484604, 43.606036 ] ] ] } },
{ "type": "Feature", "properties": { "codgeo": "31044", "value": 300, "isochrone_group": 5.0, "nb_agences": 1 }, "geometry": { "type": "Polygon", "coordinates": [ [ [ 1.480042, 43.633039 ], [ 1.480223, 43.631639 ], [ 1.480361, 43.63051 ], [ 1.481665, 43.626643 ], [ 1.481951, 43.625355 ], [ 1.482491, 43.62383 ], [ 1.482957, 43.622588 ], [ 1.491315, 43.621696 ], [ 1.494866, 43.622289 ], [ 1.50233, 43.619492 ], [ 1.503707, 43.620482 ], [ 1.503922, 43.620638 ], [ 1.505675, 43.62069 ], [ 1.505904, 43.620571 ], [ 1.50813, 43.617516 ], [ 1.509036, 43.612172 ], [ 1.516676, 43.609718 ], [ 1.516714, 43.609677 ], [ 1.515757, 43.606237 ], [ 1.513531, 43.602934 ], [ 1.507771, 43.59675 ], [ 1.504334, 43.594755 ], [ 1.504032, 43.59462 ], [ 1.501852, 43.594442 ], [ 1.497559, 43.586843 ], [ 1.498508, 43.584688 ], [ 1.495213, 43.583237 ], [ 1.494264, 43.585392 ], [ 1.493315, 43.587548 ], [ 1.492884, 43.588664 ], [ 1.492412, 43.590139 ], [ 1.491693807334012, 43.59199248953415 ], [ 1.493265, 43.593408 ], [ 1.49326, 43.593585 ], [ 1.493211, 43.593941 ], [ 1.489767, 43.598365 ], [ 1.488025404608443, 43.601291194058795 ], [ 1.48808, 43.601269 ], [ 1.492297, 43.597568 ], [ 1.496685, 43.596716 ], [ 1.497044, 43.596751 ], [ 1.500236, 43.598399 ], [ 1.506779, 43.599316 ], [ 1.506964, 43.599562 ], [ 1.5071, 43.59978 ], [ 1.508847, 43.603124 ], [ 1.509792, 43.608467 ], [ 1.509834, 43.608824 ], [ 1.504533, 43.616051 ], [ 1.504161, 43.616704 ], [ 1.503842, 43.616871 ], [ 1.494946, 43.616351 ], [ 1.492924, 43.617476 ], [ 1.49259, 43.617341 ], [ 1.488118, 43.615163 ], [ 1.48182, 43.62086 ], [ 1.481477, 43.620751 ], [ 1.48269, 43.616931 ], [ 1.480435759529093, 43.610793887442199 ], [ 1.478019329988633, 43.610484816045258 ], [ 1.478344, 43.610728 ], [ 1.478586, 43.610995 ], [ 1.478912, 43.611803 ], [ 1.479124, 43.613294 ], [ 1.479461, 43.616435 ], [ 1.480436, 43.624071 ], [ 1.479721, 43.62764 ], [ 1.479655, 43.627869 ], [ 1.476851824361945, 43.629658801818621 ], [ 1.476788, 43.630072 ], [ 1.476653, 43.631178 ], [ 1.476646903093916, 43.631225124705047 ], [ 1.478044, 43.631572 ], [ 1.478402, 43.631617 ], [ 1.478305, 43.632397 ], [ 1.478253937744, 43.632807603708045 ], [ 1.480042, 43.633039 ] ] ] } },
{ "type": "Feature", "properties": { "codgeo": "31044", "value": 360, "isochrone_group": 6.0, "nb_agences": 1 }, "geometry": { "type": "MultiPolygon", "coordinates": [ [ [ [ 1.484916, 43.631454 ], [ 1.490377, 43.624907 ], [ 1.49361, 43.625445 ], [ 1.494053, 43.625327 ], [ 1.49462, 43.62499 ], [ 1.495167, 43.624667 ], [ 1.495381, 43.624541 ], [ 1.501532, 43.6226 ], [ 1.50484, 43.623058 ], [ 1.508436, 43.622893 ], [ 1.510534, 43.622901 ], [ 1.510707, 43.6229 ], [ 1.51232, 43.621068 ], [ 1.512319, 43.621027 ], [ 1.512321, 43.613744 ], [ 1.518492, 43.611827 ], [ 1.51902, 43.611937 ], [ 1.519306, 43.611971 ], [ 1.519738, 43.608397 ], [ 1.517667, 43.605592 ], [ 1.517436, 43.605416 ], [ 1.513998279253893, 43.603627361803959 ], [ 1.515757, 43.606237 ], [ 1.516714, 43.609677 ], [ 1.516676, 43.609718 ], [ 1.509036, 43.612172 ], [ 1.50813, 43.617516 ], [ 1.505904, 43.620571 ], [ 1.505675, 43.62069 ], [ 1.503922, 43.620638 ], [ 1.503707, 43.620482 ], [ 1.50233, 43.619492 ], [ 1.494866, 43.622289 ], [ 1.491315, 43.621696 ], [ 1.483423984599346, 43.622538161490468 ], [ 1.484648, 43.627781 ], [ 1.48459, 43.629039 ], [ 1.484146, 43.631346 ], [ 1.481130996797617, 43.635020794504847 ], [ 1.484916, 43.631454 ] ] ], [ [ [ 1.50901, 43.594733 ], [ 1.508606, 43.594681 ], [ 1.505571, 43.594128 ], [ 1.500017, 43.589315 ], [ 1.499661923084667, 43.584196944626115 ], [ 1.497842783513626, 43.587034843854276 ], [ 1.497912808667482, 43.587469273483379 ], [ 1.501852, 43.594442 ], [ 1.504032, 43.59462 ], [ 1.504334, 43.594755 ], [ 1.507771, 43.59675 ], [ 1.511292651414192, 43.600530884087732 ], [ 1.509242, 43.597438 ], [ 1.509116, 43.594811 ], [ 1.50901, 43.594733 ] ] ] ] } },
{ "type": "Feature", "properties": { "codgeo": "31044", "value": 420, "isochrone_group": 7.0, "nb_agences": 1 }, "geometry": { "type": "MultiPolygon", "coordinates": [ [ [ [ 1.488469, 43.632954 ], [ 1.48764, 43.633193 ], [ 1.485183038162828, 43.635835503804032 ], [ 1.485921, 43.637071 ], [ 1.487051, 43.63761 ], [ 1.488845, 43.638535 ], [ 1.490646, 43.639465 ], [ 1.491783003097399, 43.63993494436059 ], [ 1.490813767503211, 43.631508226335249 ], [ 1.488469, 43.632954 ] ] ], [ [ [ 1.496774, 43.626827 ], [ 1.505486, 43.628244 ], [ 1.508865, 43.627002 ], [ 1.513098, 43.625005 ], [ 1.518958, 43.623344 ], [ 1.519641, 43.619809 ], [ 1.526166, 43.613674 ], [ 1.526558, 43.613658 ], [ 1.52652, 43.610092 ], [ 1.523992, 43.608829 ], [ 1.517658, 43.604448 ], [ 1.513653, 43.597193 ], [ 1.510002, 43.593424 ], [ 1.508191, 43.592059 ], [ 1.507765, 43.591796 ], [ 1.503104, 43.587976 ], [ 1.500867037479648, 43.582285820601456 ], [ 1.500742, 43.582512 ], [ 1.500153699287763, 43.583100300712232 ], [ 1.502269, 43.589939 ], [ 1.502318750301607, 43.591309656860204 ], [ 1.505571, 43.594128 ], [ 1.508606, 43.594681 ], [ 1.50901, 43.594733 ], [ 1.509116, 43.594811 ], [ 1.509242, 43.597438 ], [ 1.513002, 43.603109 ], [ 1.517436, 43.605416 ], [ 1.517667, 43.605592 ], [ 1.519738, 43.608397 ], [ 1.519306, 43.611971 ], [ 1.51902, 43.611937 ], [ 1.518492, 43.611827 ], [ 1.512321, 43.613744 ], [ 1.512319, 43.621027 ], [ 1.51232, 43.621068 ], [ 1.510707, 43.6229 ], [ 1.510534, 43.622901 ], [ 1.508436, 43.622893 ], [ 1.50484, 43.623058 ], [ 1.501532, 43.6226 ], [ 1.495381, 43.624541 ], [ 1.495167, 43.624667 ], [ 1.49462, 43.62499 ], [ 1.494053, 43.625327 ], [ 1.49361, 43.625445 ], [ 1.490377, 43.624907 ], [ 1.488145933252167, 43.627581747115549 ], [ 1.488843, 43.62844 ], [ 1.489293, 43.629164 ], [ 1.490758, 43.63139 ], [ 1.490811844902737, 43.631491510882221 ], [ 1.490805, 43.631432 ], [ 1.496774, 43.626827 ] ] ] ] } },
{ "type": "Feature", "properties": { "codgeo": "31044", "value": 480, "isochrone_group": 8.0, "nb_agences": 1 }, "geometry": { "type": "MultiPolygon", "coordinates": [ [ [ [ 1.508426, 43.631299 ], [ 1.509914907690201, 43.631279225444736 ], [ 1.510023, 43.631157 ], [ 1.509796, 43.629963 ], [ 1.511781399080194, 43.625626132066351 ], [ 1.508865, 43.627002 ], [ 1.505486, 43.628244 ], [ 1.496774, 43.626827 ], [ 1.494454539818686, 43.628616431083081 ], [ 1.496888, 43.631478 ], [ 1.496841226686002, 43.632503590470378 ], [ 1.500577, 43.632313 ], [ 1.508426, 43.631299 ] ] ], [ [ [ 1.527513, 43.621051 ], [ 1.530046, 43.613724 ], [ 1.532648, 43.613038 ], [ 1.532722, 43.613015 ], [ 1.532854, 43.612974 ], [ 1.533809, 43.611168 ], [ 1.533806, 43.611151 ], [ 1.531641, 43.609581 ], [ 1.531568, 43.609604 ], [ 1.527684, 43.61011 ], [ 1.523992, 43.608829 ], [ 1.52652, 43.610092 ], [ 1.526558, 43.613658 ], [ 1.526166, 43.613674 ], [ 1.519641, 43.619809 ], [ 1.518958, 43.623344 ], [ 1.518643404511941, 43.623433171178462 ], [ 1.519862, 43.623586 ], [ 1.520711, 43.623831 ], [ 1.52127, 43.623906 ], [ 1.526036, 43.625457 ], [ 1.526839734864208, 43.62543764916061 ], [ 1.527875, 43.624239 ], [ 1.528225528794995, 43.624067869787723 ], [ 1.528525, 43.622856 ], [ 1.527513, 43.621051 ] ] ], [ [ [ 1.505474, 43.584705 ], [ 1.502151804447776, 43.580803158548491 ], [ 1.501497313082664, 43.58128328353483 ], [ 1.503447, 43.585348 ], [ 1.504407, 43.586595 ], [ 1.505019292686733, 43.589545709947068 ], [ 1.507765, 43.591796 ], [ 1.508191, 43.592059 ], [ 1.510002, 43.593424 ], [ 1.513653, 43.597193 ], [ 1.517658, 43.604448 ], [ 1.523992, 43.608829 ], [ 1.523778, 43.600159 ], [ 1.523808, 43.600088 ], [ 1.522478, 43.597587 ], [ 1.520309, 43.597208 ], [ 1.519604, 43.597131 ], [ 1.51808, 43.597041 ], [ 1.512032, 43.592168 ], [ 1.510068, 43.589153 ], [ 1.505474, 43.584705 ] ] ] ] } },
{ "type": "Feature", "properties": { "codgeo": "31044", "value": 540, "isochrone_group": 9.0, "nb_agences": 1 }, "geometry": { "type": "MultiPolygon", "coordinates": [ [ [ [ 1.512421, 43.624229 ], [ 1.510512660787126, 43.62839753982729 ], [ 1.513283972304218, 43.629408185302168 ], [ 1.513014, 43.627346 ], [ 1.519862, 43.623586 ], [ 1.517446, 43.623283 ], [ 1.517053, 43.623296 ], [ 1.51667, 43.623261 ], [ 1.512421, 43.624229 ] ] ], [ [ [ 1.539965, 43.606263 ], [ 1.533629, 43.600348 ], [ 1.533229, 43.59677 ], [ 1.528533, 43.596488 ], [ 1.524105, 43.597633 ], [ 1.517917, 43.591955 ], [ 1.517775, 43.591656 ], [ 1.517018, 43.590428 ], [ 1.515403, 43.586981 ], [ 1.51496, 43.587153 ], [ 1.510192470486088, 43.58913308642358 ], [ 1.51041310630273, 43.589682783860873 ], [ 1.512032, 43.592168 ], [ 1.51808, 43.597041 ], [ 1.519604, 43.597131 ], [ 1.520309, 43.597208 ], [ 1.522478, 43.597587 ], [ 1.523808, 43.600088 ], [ 1.523778, 43.600159 ], [ 1.523992, 43.608829 ], [ 1.527684, 43.61011 ], [ 1.531568, 43.609604 ], [ 1.531641, 43.609581 ], [ 1.533806, 43.611151 ], [ 1.533809, 43.611168 ], [ 1.532854, 43.612974 ], [ 1.532722, 43.613015 ], [ 1.532648, 43.613038 ], [ 1.530046, 43.613724 ], [ 1.527600243195978, 43.620798638808949 ], [ 1.530632462794376, 43.621686553627384 ], [ 1.530452, 43.62073 ], [ 1.534697, 43.614096 ], [ 1.538737, 43.615759 ], [ 1.541618, 43.612868 ], [ 1.541474, 43.609532 ], [ 1.539965, 43.606263 ] ] ] ] } },
{ "type": "Feature", "properties": { "codgeo": "31044", "value": 600, "isochrone_group": 10.0, "nb_agences": 1 }, "geometry": { "type": "MultiPolygon", "coordinates": [ [ [ [ 1.541036175064086, 43.613451844460172 ], [ 1.538737, 43.615759 ], [ 1.534697, 43.614096 ], [ 1.531445571485404, 43.619177266611494 ], [ 1.534733, 43.621311 ], [ 1.536326951823403, 43.62271534352719 ], [ 1.542155, 43.619119 ], [ 1.542992, 43.619994 ], [ 1.543302, 43.620282 ], [ 1.543409, 43.620362 ], [ 1.545504643774295, 43.618314969905725 ], [ 1.544119, 43.613686 ], [ 1.541036175064086, 43.613451844460172 ] ] ], [ [ [ 1.540196117244761, 43.606763677450701 ], [ 1.541098, 43.605445 ], [ 1.542446, 43.598643 ], [ 1.541205384886177, 43.595628192147423 ], [ 1.540695, 43.595124 ], [ 1.540664, 43.5951 ], [ 1.540319, 43.595169 ], [ 1.539773, 43.595278 ], [ 1.536177, 43.596404 ], [ 1.535468, 43.596546 ], [ 1.534715, 43.596654 ], [ 1.533404, 43.596751 ], [ 1.533229042283741, 43.596770378228065 ], [ 1.533629, 43.600348 ], [ 1.539965, 43.606263 ], [ 1.540196117244761, 43.606763677450701 ] ] ], [ [ [ 1.522208, 43.589292 ], [ 1.519824, 43.58681 ], [ 1.518238, 43.585965 ], [ 1.517268343984881, 43.585334644499149 ], [ 1.51735, 43.586211 ], [ 1.518025, 43.588313 ], [ 1.518012, 43.588355 ], [ 1.516507883679942, 43.589339225414719 ], [ 1.517018, 43.590428 ], [ 1.517775, 43.591656 ], [ 1.517917, 43.591955 ], [ 1.524105, 43.597633 ], [ 1.528102223889966, 43.596599390841455 ], [ 1.523322, 43.592715 ], [ 1.522208, 43.589292 ] ] ] ] } },
{ "type": "Feature", "properties": { "codgeo": "31044", "value": 660, "isochrone_group": 11.0, "nb_agences": 1 }, "geometry": { "type": "Polygon", "coordinates": [ [ [ 1.523322, 43.592715 ], [ 1.52853, 43.596947 ], [ 1.532023, 43.596935 ], [ 1.532456, 43.596856 ], [ 1.533404, 43.596751 ], [ 1.534715, 43.596654 ], [ 1.534829094834312, 43.596637635800647 ], [ 1.534829, 43.596637 ], [ 1.532620842037298, 43.593071469953301 ], [ 1.532104, 43.593205 ], [ 1.526872, 43.590961 ], [ 1.525779, 43.586447 ], [ 1.525125, 43.584888 ], [ 1.524914, 43.584616 ], [ 1.524418, 43.584082 ], [ 1.52229, 43.584566 ], [ 1.522217, 43.584585 ], [ 1.521732, 43.584726 ], [ 1.520978879343656, 43.584670918037105 ], [ 1.521375477376434, 43.588425254550465 ], [ 1.522208, 43.589292 ], [ 1.523322, 43.592715 ] ] ] } },
{ "type": "Feature", "properties": { "codgeo": "31044", "value": 720, "isochrone_group": 12.0, "nb_agences": 1 }, "geometry": { "type": "MultiPolygon", "coordinates": [ [ [ [ 1.525413, 43.584188 ], [ 1.526044365742935, 43.58509988394011 ], [ 1.527077003048371, 43.583729241309022 ], [ 1.525065, 43.582804 ], [ 1.524684910307431, 43.58273498033455 ], [ 1.525413, 43.584188 ] ] ], [ [ [ 1.528020802443761, 43.591453720314185 ], [ 1.527248, 43.587406 ], [ 1.525931270812659, 43.586359741965445 ], [ 1.52584088749057, 43.586702590240094 ], [ 1.526872, 43.590961 ], [ 1.528020802443761, 43.591453720314185 ] ] ] ] } },
{ "type": "Feature", "properties": { "codgeo": "31044", "value": 960, "isochrone_group": 16.0, "nb_agences": 1 }, "geometry": { "type": "Polygon", "coordinates": [ [ [ 1.401326071706844, 43.667172832959302 ], [ 1.400863978501553, 43.667642159165133 ], [ 1.401475586284048, 43.667603569031151 ], [ 1.40152110416919, 43.667547352161606 ], [ 1.401326071706844, 43.667172832959302 ] ] ] } },
{ "type": "Feature", "properties": { "codgeo": "31044", "value": 1020, "isochrone_group": 17.0, "nb_agences": 1 }, "geometry": { "type": "Polygon", "coordinates": [ [ [ 1.611615, 43.439143 ], [ 1.613330345868334, 43.437505079737754 ], [ 1.612525, 43.438131 ], [ 1.611645, 43.438999 ], [ 1.611403614906286, 43.439229333020954 ], [ 1.611615, 43.439143 ] ] ] } },
{ "type": "Feature", "properties": { "codgeo": "31044", "value": 1080, "isochrone_group": 18.0, "nb_agences": 1 }, "geometry": { "type": "Polygon", "coordinates": [ [ [ 1.641362626783879, 43.426582545458722 ], [ 1.640171, 43.427062 ], [ 1.63802, 43.427928 ], [ 1.639767, 43.427225 ], [ 1.641362626783879, 43.426582545458722 ] ] ] } },
{ "type": "Feature", "properties": { "codgeo": "31044", "value": 1140, "isochrone_group": 19.0, "nb_agences": 1 }, "geometry": { "type": "MultiPolygon", "coordinates": [ [ [ [ 1.644832, 43.421321 ], [ 1.647533511441342, 43.419988281076783 ], [ 1.647834787979782, 43.41918937580504 ], [ 1.644832, 43.421321 ] ] ], [ [ [ 1.658658, 43.418714 ], [ 1.658657815155423, 43.418713659881675 ], [ 1.656286, 43.420003 ], [ 1.658658, 43.418714 ] ] ] ] } },
{ "type": "Feature", "properties": { "codgeo": "31044", "value": 1200, "isochrone_group": 20.0, "nb_agences": 1 }, "geometry": { "type": "MultiPolygon", "coordinates": [ [ [ [ 1.645951, 43.402899 ], [ 1.645950893370325, 43.402899136339833 ], [ 1.648026, 43.404522 ], [ 1.645951, 43.402899 ] ] ], [ [ [ 1.643733018399929, 43.405734976473298 ], [ 1.643733, 43.405735 ], [ 1.645808, 43.407358 ], [ 1.643733018399929, 43.405734976473298 ] ] ], [ [ [ 1.673189, 43.408969 ], [ 1.673017882559144, 43.409094840403732 ], [ 1.673018, 43.409095 ], [ 1.67200958141781, 43.409836348820676 ], [ 1.671579, 43.410153 ], [ 1.674837393608352, 43.407830095263961 ], [ 1.674414, 43.408088 ], [ 1.673189, 43.408969 ] ] ], [ [ [ 1.674575, 43.403596 ], [ 1.672363, 43.405129 ], [ 1.674576199613178, 43.40359773069499 ], [ 1.674575, 43.403596 ] ] ] ] } }
]
}
