{
"type": "FeatureCollection",
"name": "Credit_Agricole",
"crs": { "type": "name", "properties": { "name": "urn:ogc:def:crs:OGC:1.3:CRS84" } },
"features": [
{ "type": "Feature", "properties": { "codgeo": "32459", "value": 60, "isochrone_group": 1.0, "nb_agences": 1 }, "geometry": { "type": "Polygon", "coordinates": [ [ [ 0.377288, 43.883258 ], [ 0.377334, 43.883083 ], [ 0.377436, 43.882917 ], [ 0.377573, 43.882763 ], [ 0.378481, 43.882038 ], [ 0.379072, 43.881672 ], [ 0.384323, 43.879626 ], [ 0.384598, 43.879614 ], [ 0.384868, 43.879853 ], [ 0.385037, 43.880214 ], [ 0.38252, 43.8835 ], [ 0.380797, 43.884142 ], [ 0.37728, 43.883384 ], [ 0.377288, 43.883258 ] ] ] } },
{ "type": "Feature", "properties": { "codgeo": "32459", "value": 120, "isochrone_group": 2.0, "nb_agences": 1 }, "geometry": { "type": "Polygon", "coordinates": [ [ [ 0.374941, 43.884792 ], [ 0.374986, 43.884856 ], [ 0.37755, 43.88638 ], [ 0.377905, 43.886442 ], [ 0.381324, 43.886249 ], [ 0.381783, 43.885939 ], [ 0.383755, 43.884016 ], [ 0.386901, 43.880321 ], [ 0.388988, 43.87857 ], [ 0.389198, 43.878278 ], [ 0.387223, 43.875716 ], [ 0.386875, 43.875626 ], [ 0.382201, 43.87934 ], [ 0.380239, 43.879205 ], [ 0.376793, 43.8823 ], [ 0.376277, 43.882762 ], [ 0.375761, 43.883224 ], [ 0.374983, 43.884482 ], [ 0.374941, 43.884792 ] ], [ [ 0.377334, 43.883083 ], [ 0.377436, 43.882917 ], [ 0.377573, 43.882763 ], [ 0.378481, 43.882038 ], [ 0.379072, 43.881672 ], [ 0.384323, 43.879626 ], [ 0.384598, 43.879614 ], [ 0.384868, 43.879853 ], [ 0.385037, 43.880214 ], [ 0.38252, 43.8835 ], [ 0.380797, 43.884142 ], [ 0.37728, 43.883384 ], [ 0.377288, 43.883258 ], [ 0.377334, 43.883083 ] ] ] } },
{ "type": "Feature", "properties": { "codgeo": "32459", "value": 180, "isochrone_group": 3.0, "nb_agences": 1 }, "geometry": { "type": "Polygon", "coordinates": [ [ [ 0.373436, 43.889856 ], [ 0.377727, 43.896172 ], [ 0.378087, 43.896181 ], [ 0.385113, 43.890724 ], [ 0.385281, 43.890749 ], [ 0.389267, 43.882882 ], [ 0.39551, 43.878669 ], [ 0.395698, 43.87853 ], [ 0.395731, 43.878374 ], [ 0.395397, 43.878241 ], [ 0.394739, 43.878411 ], [ 0.390267, 43.870662 ], [ 0.390058, 43.870369 ], [ 0.389183, 43.870546 ], [ 0.3853, 43.872308 ], [ 0.384668, 43.873219 ], [ 0.380813, 43.876354 ], [ 0.375435, 43.876212 ], [ 0.375244, 43.876517 ], [ 0.375022, 43.884291 ], [ 0.373133, 43.888283 ], [ 0.373047, 43.888633 ], [ 0.373436, 43.889856 ] ], [ [ 0.375761, 43.883224 ], [ 0.376277, 43.882762 ], [ 0.376793, 43.8823 ], [ 0.380239, 43.879205 ], [ 0.382201, 43.87934 ], [ 0.386875, 43.875626 ], [ 0.387223, 43.875716 ], [ 0.389198, 43.878278 ], [ 0.388988, 43.87857 ], [ 0.386901, 43.880321 ], [ 0.383755, 43.884016 ], [ 0.381783, 43.885939 ], [ 0.381324, 43.886249 ], [ 0.377905, 43.886442 ], [ 0.37755, 43.88638 ], [ 0.374986, 43.884856 ], [ 0.374941, 43.884792 ], [ 0.374983, 43.884482 ], [ 0.375761, 43.883224 ] ] ] } },
{ "type": "Feature", "properties": { "codgeo": "32459", "value": 240, "isochrone_group": 4.0, "nb_agences": 1 }, "geometry": { "type": "Polygon", "coordinates": [ [ [ 0.375263, 43.900533 ], [ 0.37523, 43.900891 ], [ 0.37378, 43.905105 ], [ 0.373667, 43.905325 ], [ 0.373838, 43.906808 ], [ 0.373939, 43.907219 ], [ 0.374127, 43.907309 ], [ 0.374135, 43.907308 ], [ 0.374289, 43.907136 ], [ 0.37777, 43.90362 ], [ 0.380011, 43.901542 ], [ 0.380992, 43.898621 ], [ 0.388174, 43.894591 ], [ 0.390827, 43.896688 ], [ 0.391119, 43.896478 ], [ 0.396382, 43.890339 ], [ 0.400991, 43.883699 ], [ 0.404479, 43.878533 ], [ 0.404392, 43.878184 ], [ 0.399502, 43.874593 ], [ 0.399247, 43.874339 ], [ 0.397064, 43.865837 ], [ 0.39701, 43.865646 ], [ 0.396994, 43.865626 ], [ 0.396856, 43.865543 ], [ 0.389584, 43.868176 ], [ 0.385184, 43.867888 ], [ 0.384831, 43.867962 ], [ 0.381985, 43.870968 ], [ 0.373164, 43.869821 ], [ 0.364446, 43.869333 ], [ 0.364254, 43.869637 ], [ 0.364834, 43.870395 ], [ 0.366214, 43.871444 ], [ 0.369831, 43.874999 ], [ 0.368947, 43.880712 ], [ 0.369058, 43.881054 ], [ 0.366285, 43.889369 ], [ 0.365453, 43.890849 ], [ 0.365559, 43.891193 ], [ 0.367579, 43.891329 ], [ 0.369343, 43.891208 ], [ 0.374159856260943, 43.890921457036633 ], [ 0.373436, 43.889856 ], [ 0.373047, 43.888633 ], [ 0.373133, 43.888283 ], [ 0.375022, 43.884291 ], [ 0.375244, 43.876517 ], [ 0.375435, 43.876212 ], [ 0.380813, 43.876354 ], [ 0.384668, 43.873219 ], [ 0.3853, 43.872308 ], [ 0.389183, 43.870546 ], [ 0.390058, 43.870369 ], [ 0.390267, 43.870662 ], [ 0.394739, 43.878411 ], [ 0.395397, 43.878241 ], [ 0.395731, 43.878374 ], [ 0.395698, 43.87853 ], [ 0.39551, 43.878669 ], [ 0.389267, 43.882882 ], [ 0.385281, 43.890749 ], [ 0.385113, 43.890724 ], [ 0.378087, 43.896181 ], [ 0.377727, 43.896172 ], [ 0.377376961735805, 43.895656772389522 ], [ 0.375263, 43.900533 ] ] ] } },
{ "type": "Feature", "properties": { "codgeo": "32459", "value": 300, "isochrone_group": 5.0, "nb_agences": 1 }, "geometry": { "type": "Polygon", "coordinates": [ [ [ 0.355769, 43.896415 ], [ 0.356002, 43.896689 ], [ 0.361047, 43.895168 ], [ 0.369305, 43.894854 ], [ 0.374634, 43.900615 ], [ 0.369577, 43.907283 ], [ 0.369592, 43.907643 ], [ 0.374731, 43.913231 ], [ 0.373955, 43.916778 ], [ 0.373977, 43.917137 ], [ 0.374923, 43.919249 ], [ 0.37528, 43.919295 ], [ 0.376904, 43.917306 ], [ 0.376946, 43.916948 ], [ 0.378339, 43.908834 ], [ 0.378857, 43.903767 ], [ 0.383311, 43.901256 ], [ 0.383768, 43.901252 ], [ 0.391761, 43.898315 ], [ 0.392939, 43.90226 ], [ 0.393263, 43.902419 ], [ 0.393428, 43.902164 ], [ 0.39611, 43.897805 ], [ 0.396342, 43.897471 ], [ 0.396585, 43.897121 ], [ 0.403131, 43.891602 ], [ 0.403572, 43.891402 ], [ 0.404012, 43.891201 ], [ 0.40428, 43.891055 ], [ 0.405114, 43.890572 ], [ 0.405342, 43.890428 ], [ 0.406602, 43.889264 ], [ 0.406661, 43.889206 ], [ 0.406836, 43.888911 ], [ 0.405594, 43.887098 ], [ 0.406728, 43.878472 ], [ 0.409738, 43.878065 ], [ 0.410103, 43.878101 ], [ 0.412509, 43.878754 ], [ 0.412647, 43.878814 ], [ 0.41268, 43.878819 ], [ 0.416029, 43.878515 ], [ 0.416229, 43.878216 ], [ 0.415642, 43.877429 ], [ 0.41288, 43.876143 ], [ 0.405603, 43.871936 ], [ 0.403949, 43.864047 ], [ 0.406866, 43.856158 ], [ 0.406575, 43.855946 ], [ 0.404716, 43.858489 ], [ 0.397885, 43.863571 ], [ 0.395276, 43.863947 ], [ 0.394586, 43.864819 ], [ 0.38577, 43.863576 ], [ 0.385474, 43.863371 ], [ 0.382685, 43.865021 ], [ 0.375509, 43.861573 ], [ 0.375159, 43.861489 ], [ 0.372159, 43.865908 ], [ 0.363973, 43.866556 ], [ 0.3587, 43.863932 ], [ 0.353326, 43.862332 ], [ 0.353134, 43.862637 ], [ 0.355051, 43.863844 ], [ 0.359178, 43.870929 ], [ 0.359279, 43.871274 ], [ 0.365984, 43.875735 ], [ 0.363618, 43.88127 ], [ 0.361992, 43.887903 ], [ 0.357969, 43.893227 ], [ 0.355769, 43.896415 ] ], [ [ 0.366285, 43.889369 ], [ 0.369058, 43.881054 ], [ 0.368947, 43.880712 ], [ 0.369831, 43.874999 ], [ 0.366214, 43.871444 ], [ 0.364834, 43.870395 ], [ 0.364254, 43.869637 ], [ 0.364446, 43.869333 ], [ 0.373164, 43.869821 ], [ 0.381985, 43.870968 ], [ 0.384831, 43.867962 ], [ 0.385184, 43.867888 ], [ 0.389584, 43.868176 ], [ 0.396856, 43.865543 ], [ 0.396994, 43.865626 ], [ 0.39701, 43.865646 ], [ 0.397064, 43.865837 ], [ 0.399247, 43.874339 ], [ 0.399502, 43.874593 ], [ 0.404392, 43.878184 ], [ 0.404479, 43.878533 ], [ 0.400991, 43.883699 ], [ 0.396382, 43.890339 ], [ 0.391119, 43.896478 ], [ 0.390827, 43.896688 ], [ 0.388174, 43.894591 ], [ 0.380992, 43.898621 ], [ 0.380011, 43.901542 ], [ 0.37777, 43.90362 ], [ 0.374289, 43.907136 ], [ 0.374135, 43.907308 ], [ 0.374127, 43.907309 ], [ 0.373939, 43.907219 ], [ 0.373838, 43.906808 ], [ 0.373667, 43.905325 ], [ 0.37378, 43.905105 ], [ 0.37523, 43.900891 ], [ 0.375263, 43.900533 ], [ 0.377764, 43.894764 ], [ 0.374924, 43.890876 ], [ 0.369343, 43.891208 ], [ 0.367579, 43.891329 ], [ 0.365559, 43.891193 ], [ 0.365453, 43.890849 ], [ 0.366285, 43.889369 ] ] ] } },
{ "type": "Feature", "properties": { "codgeo": "32459", "value": 360, "isochrone_group": 6.0, "nb_agences": 1 }, "geometry": { "type": "MultiPolygon", "coordinates": [ [ [ [ 0.410347, 43.84803 ], [ 0.404309, 43.85003 ], [ 0.4039, 43.854062 ], [ 0.401549, 43.860075 ], [ 0.400049, 43.861286 ], [ 0.397945, 43.862786 ], [ 0.395993875474041, 43.863843542285068 ], [ 0.397885, 43.863571 ], [ 0.404716, 43.858489 ], [ 0.406575, 43.855946 ], [ 0.406866, 43.856158 ], [ 0.403949, 43.864047 ], [ 0.405603, 43.871936 ], [ 0.41288, 43.876143 ], [ 0.415642, 43.877429 ], [ 0.416229, 43.878216 ], [ 0.416029, 43.878515 ], [ 0.41268, 43.878819 ], [ 0.412647, 43.878814 ], [ 0.412509, 43.878754 ], [ 0.410103, 43.878101 ], [ 0.409738, 43.878065 ], [ 0.406728, 43.878472 ], [ 0.405594, 43.887098 ], [ 0.406836, 43.888911 ], [ 0.406661, 43.889206 ], [ 0.406602, 43.889264 ], [ 0.405342, 43.890428 ], [ 0.405114, 43.890572 ], [ 0.40428, 43.891055 ], [ 0.404012, 43.891201 ], [ 0.403572, 43.891402 ], [ 0.403131, 43.891602 ], [ 0.401380205755862, 43.893078112654059 ], [ 0.403706, 43.893117 ], [ 0.40912, 43.89503 ], [ 0.409575, 43.895309 ], [ 0.409926, 43.895459 ], [ 0.411663, 43.896058 ], [ 0.412837, 43.892655 ], [ 0.412749, 43.886245 ], [ 0.419963, 43.883208 ], [ 0.424609, 43.882135 ], [ 0.426981, 43.877869 ], [ 0.424908, 43.874926 ], [ 0.423782, 43.875719 ], [ 0.419352, 43.876799 ], [ 0.415004, 43.872111 ], [ 0.410009, 43.868029 ], [ 0.406188, 43.86356 ], [ 0.40831, 43.856927 ], [ 0.412163, 43.853027 ], [ 0.415622, 43.846922 ], [ 0.415877, 43.846575 ], [ 0.415605326978088, 43.845843987177908 ], [ 0.413583154292292, 43.844359062989973 ], [ 0.412976, 43.844444 ], [ 0.412721, 43.844791 ], [ 0.410347, 43.84803 ] ] ], [ [ [ 0.389254, 43.859448 ], [ 0.389006, 43.858807 ], [ 0.388929, 43.858684 ], [ 0.387288, 43.858487 ], [ 0.386441, 43.8584 ], [ 0.379186, 43.853078 ], [ 0.375682, 43.852254 ], [ 0.372939, 43.856829 ], [ 0.370266, 43.85924 ], [ 0.362871, 43.862881 ], [ 0.360186, 43.860483 ], [ 0.353714, 43.860688 ], [ 0.350292, 43.857826 ], [ 0.347157, 43.857183 ], [ 0.347128, 43.857189 ], [ 0.345715, 43.86067 ], [ 0.345761, 43.860741 ], [ 0.347261, 43.862916 ], [ 0.348063, 43.863172 ], [ 0.353135, 43.870194 ], [ 0.353221, 43.87165 ], [ 0.353764, 43.873739 ], [ 0.357769, 43.880809 ], [ 0.356089, 43.886931 ], [ 0.355436, 43.88868 ], [ 0.355599, 43.889851 ], [ 0.355685, 43.890508 ], [ 0.352113, 43.897401 ], [ 0.349723, 43.897597 ], [ 0.345311, 43.903195 ], [ 0.345516, 43.906022 ], [ 0.345526, 43.906029 ], [ 0.347652, 43.90593 ], [ 0.347691, 43.905896 ], [ 0.350339, 43.903639 ], [ 0.354447, 43.900142 ], [ 0.361912, 43.898013 ], [ 0.365317, 43.898584 ], [ 0.369568, 43.898148 ], [ 0.372152942873723, 43.903886443329647 ], [ 0.374634, 43.900615 ], [ 0.369305, 43.894854 ], [ 0.361047, 43.895168 ], [ 0.356002, 43.896689 ], [ 0.355769, 43.896415 ], [ 0.357969, 43.893227 ], [ 0.361992, 43.887903 ], [ 0.363618, 43.88127 ], [ 0.365984, 43.875735 ], [ 0.359279, 43.871274 ], [ 0.359178, 43.870929 ], [ 0.355051, 43.863844 ], [ 0.353134, 43.862637 ], [ 0.353326, 43.862332 ], [ 0.3587, 43.863932 ], [ 0.363973, 43.866556 ], [ 0.372159, 43.865908 ], [ 0.375159, 43.861489 ], [ 0.375509, 43.861573 ], [ 0.382685, 43.865021 ], [ 0.385474, 43.863371 ], [ 0.38577, 43.863576 ], [ 0.394586, 43.864819 ], [ 0.395169481216922, 43.864081615041805 ], [ 0.389254, 43.859448 ] ] ], [ [ [ 0.367591, 43.915728 ], [ 0.367129, 43.919298 ], [ 0.370628, 43.925404 ], [ 0.37163654119374, 43.92985064143339 ], [ 0.372147, 43.928803 ], [ 0.372486, 43.925836 ], [ 0.376063, 43.926245 ], [ 0.375724, 43.929212 ], [ 0.37572409042268, 43.929212367682574 ], [ 0.375916, 43.927535 ], [ 0.381238, 43.921907 ], [ 0.384983, 43.918089 ], [ 0.385937, 43.916858 ], [ 0.385754, 43.91576 ], [ 0.385723, 43.914965 ], [ 0.389829, 43.908593 ], [ 0.392329, 43.90869 ], [ 0.392931, 43.908736 ], [ 0.396754, 43.904783 ], [ 0.397589, 43.903859 ], [ 0.397898, 43.900851 ], [ 0.40065703177364, 43.893687828084531 ], [ 0.396585, 43.897121 ], [ 0.396342, 43.897471 ], [ 0.39611, 43.897805 ], [ 0.393428, 43.902164 ], [ 0.393263, 43.902419 ], [ 0.392939, 43.90226 ], [ 0.391761, 43.898315 ], [ 0.383768, 43.901252 ], [ 0.383311, 43.901256 ], [ 0.378857, 43.903767 ], [ 0.378339, 43.908834 ], [ 0.376946, 43.916948 ], [ 0.376904, 43.917306 ], [ 0.37528, 43.919295 ], [ 0.374923, 43.919249 ], [ 0.373977, 43.917137 ], [ 0.373955, 43.916778 ], [ 0.374731, 43.913231 ], [ 0.371912658977798, 43.91016641746797 ], [ 0.367591, 43.915728 ] ] ] ] } },
{ "type": "Feature", "properties": { "codgeo": "32459", "value": 420, "isochrone_group": 7.0, "nb_agences": 1 }, "geometry": { "type": "MultiPolygon", "coordinates": [ [ [ [ 0.399034, 43.850982 ], [ 0.399622, 43.854534 ], [ 0.397945, 43.862786 ], [ 0.400049, 43.861286 ], [ 0.401549, 43.860075 ], [ 0.4039, 43.854062 ], [ 0.404309, 43.85003 ], [ 0.407510523130826, 43.848969541857954 ], [ 0.408687831733385, 43.844062701309298 ], [ 0.408593, 43.844206 ], [ 0.402275, 43.849977 ], [ 0.399034, 43.850982 ] ] ], [ [ [ 0.388012, 43.85559 ], [ 0.384416, 43.855764 ], [ 0.380231, 43.849368 ], [ 0.382046, 43.845248 ], [ 0.382326, 43.84461 ], [ 0.38037, 43.842725 ], [ 0.380175, 43.842728 ], [ 0.37903, 43.843162 ], [ 0.372982, 43.847613 ], [ 0.372193, 43.848895 ], [ 0.366803, 43.853998 ], [ 0.362753, 43.858548 ], [ 0.360996, 43.859752 ], [ 0.353714, 43.860688 ], [ 0.360186, 43.860483 ], [ 0.362871, 43.862881 ], [ 0.370266, 43.85924 ], [ 0.372939, 43.856829 ], [ 0.375682, 43.852254 ], [ 0.379186, 43.853078 ], [ 0.386441, 43.8584 ], [ 0.387288, 43.858487 ], [ 0.388929, 43.858684 ], [ 0.389006, 43.858807 ], [ 0.388012, 43.85559 ] ] ], [ [ [ 0.349905, 43.857052 ], [ 0.348972, 43.853575 ], [ 0.343367, 43.852574 ], [ 0.340911, 43.855206 ], [ 0.342441, 43.859269 ], [ 0.343786, 43.862609 ], [ 0.347229, 43.870657 ], [ 0.347575, 43.874241 ], [ 0.352583, 43.879998 ], [ 0.34961, 43.886335 ], [ 0.34956, 43.886383 ], [ 0.348776, 43.888247 ], [ 0.344399, 43.895261 ], [ 0.341271, 43.90286 ], [ 0.338381, 43.906904 ], [ 0.337297, 43.909447 ], [ 0.337373, 43.909557 ], [ 0.33777, 43.910047 ], [ 0.339043, 43.910442 ], [ 0.339269, 43.9104 ], [ 0.345628, 43.909438 ], [ 0.347761, 43.907477 ], [ 0.350469, 43.905652 ], [ 0.354447, 43.900142 ], [ 0.350339, 43.903639 ], [ 0.347691, 43.905896 ], [ 0.347652, 43.90593 ], [ 0.345526, 43.906029 ], [ 0.345516, 43.906022 ], [ 0.345311, 43.903195 ], [ 0.349723, 43.897597 ], [ 0.352113, 43.897401 ], [ 0.355685, 43.890508 ], [ 0.355599, 43.889851 ], [ 0.355436, 43.88868 ], [ 0.356089, 43.886931 ], [ 0.357769, 43.880809 ], [ 0.353764, 43.873739 ], [ 0.353221, 43.87165 ], [ 0.353135, 43.870194 ], [ 0.348063, 43.863172 ], [ 0.347261, 43.862916 ], [ 0.345761, 43.860741 ], [ 0.345715, 43.86067 ], [ 0.347128, 43.857189 ], [ 0.347157, 43.857183 ], [ 0.350292, 43.857826 ], [ 0.353714, 43.860688 ], [ 0.349905, 43.857052 ] ] ], [ [ [ 0.360147, 43.901668 ], [ 0.364897, 43.902244 ], [ 0.372102, 43.904907 ], [ 0.372355, 43.904335 ], [ 0.369568, 43.898148 ], [ 0.365317, 43.898584 ], [ 0.361912, 43.898013 ], [ 0.354447, 43.900142 ], [ 0.360147, 43.901668 ] ] ], [ [ [ 0.366118, 43.915585 ], [ 0.364104, 43.916425 ], [ 0.36374, 43.916585 ], [ 0.363704, 43.916705 ], [ 0.363785, 43.917957 ], [ 0.365993861697265, 43.922113571801368 ], [ 0.368637031538227, 43.921929620626578 ], [ 0.367129, 43.919298 ], [ 0.367591, 43.915728 ], [ 0.367960789688189, 43.915252114262394 ], [ 0.366118, 43.915585 ] ] ], [ [ [ 0.375872, 43.927921 ], [ 0.382463, 43.924418 ], [ 0.382922, 43.924608 ], [ 0.383285, 43.924688 ], [ 0.383698, 43.924725 ], [ 0.384383, 43.92463 ], [ 0.385211, 43.924132 ], [ 0.385588, 43.923736 ], [ 0.388239, 43.917617 ], [ 0.393603, 43.914085 ], [ 0.394541, 43.912698 ], [ 0.398985, 43.905913 ], [ 0.401762, 43.903622 ], [ 0.401563, 43.903382 ], [ 0.400285, 43.902568 ], [ 0.400023, 43.902409 ], [ 0.397864298376531, 43.901179072761806 ], [ 0.397589, 43.903859 ], [ 0.396754, 43.904783 ], [ 0.392931, 43.908736 ], [ 0.392329, 43.90869 ], [ 0.389829, 43.908593 ], [ 0.385723, 43.914965 ], [ 0.385754, 43.91576 ], [ 0.385937, 43.916858 ], [ 0.384983, 43.918089 ], [ 0.381238, 43.921907 ], [ 0.376100386453195, 43.92734001184543 ], [ 0.375872, 43.927921 ] ] ], [ [ [ 0.413346, 43.898426 ], [ 0.414342, 43.900508 ], [ 0.41459, 43.900595 ], [ 0.416367, 43.900383 ], [ 0.416696, 43.899875 ], [ 0.4174, 43.898225 ], [ 0.418315, 43.894851 ], [ 0.418562, 43.893936 ], [ 0.418522, 43.893379 ], [ 0.41882, 43.887827 ], [ 0.421165901962741, 43.882930188160572 ], [ 0.419963, 43.883208 ], [ 0.412749, 43.886245 ], [ 0.412837, 43.892655 ], [ 0.411663, 43.896058 ], [ 0.409926, 43.895459 ], [ 0.413346, 43.898426 ] ] ], [ [ [ 0.42693, 43.883176 ], [ 0.427959, 43.884268 ], [ 0.429894, 43.882603 ], [ 0.430579, 43.8818 ], [ 0.431266, 43.879999 ], [ 0.435499, 43.873512 ], [ 0.436787, 43.872651 ], [ 0.434787, 43.869658 ], [ 0.432041, 43.871242 ], [ 0.429523, 43.872407 ], [ 0.427212, 43.873118 ], [ 0.423743, 43.87408 ], [ 0.418083, 43.86977 ], [ 0.415954, 43.866867 ], [ 0.415126, 43.867475 ], [ 0.407904658779539, 43.865567785418925 ], [ 0.410009, 43.868029 ], [ 0.415004, 43.872111 ], [ 0.419352, 43.876799 ], [ 0.423782, 43.875719 ], [ 0.424908, 43.874926 ], [ 0.426981, 43.877869 ], [ 0.424609, 43.882135 ], [ 0.422729835265164, 43.882568995643659 ], [ 0.42693, 43.883176 ] ] ], [ [ [ 0.406568472664284, 43.862370709150717 ], [ 0.406188, 43.86356 ], [ 0.406686976231771, 43.864143597168237 ], [ 0.406568472664284, 43.862370709150717 ] ] ], [ [ [ 0.415080027679982, 43.847878559992409 ], [ 0.41410216452125, 43.849604450302913 ], [ 0.419607, 43.84604 ], [ 0.419788642143082, 43.845640777127514 ], [ 0.415080027679982, 43.847878559992409 ] ] ] ] } },
{ "type": "Feature", "properties": { "codgeo": "32459", "value": 480, "isochrone_group": 8.0, "nb_agences": 1 }, "geometry": { "type": "MultiPolygon", "coordinates": [ [ [ [ 0.394508, 43.851009 ], [ 0.387799, 43.850669 ], [ 0.386006, 43.849569 ], [ 0.383212, 43.842408 ], [ 0.383315, 43.841162 ], [ 0.383864, 43.838832 ], [ 0.383947, 43.838536 ], [ 0.384141, 43.837658 ], [ 0.3836, 43.83753 ], [ 0.382954, 43.837474 ], [ 0.380479, 43.83757 ], [ 0.378435, 43.838682 ], [ 0.374452, 43.843945 ], [ 0.37122, 43.845 ], [ 0.37022, 43.845124 ], [ 0.369294, 43.845696 ], [ 0.369277, 43.846676 ], [ 0.365953, 43.853875 ], [ 0.364266, 43.855605 ], [ 0.360698551453944, 43.85979023288094 ], [ 0.360996, 43.859752 ], [ 0.362753, 43.858548 ], [ 0.366803, 43.853998 ], [ 0.372193, 43.848895 ], [ 0.372982, 43.847613 ], [ 0.37903, 43.843162 ], [ 0.380175, 43.842728 ], [ 0.38037, 43.842725 ], [ 0.382326, 43.84461 ], [ 0.382046, 43.845248 ], [ 0.380231, 43.849368 ], [ 0.384416, 43.855764 ], [ 0.388012, 43.85559 ], [ 0.389006, 43.858807 ], [ 0.389254, 43.859448 ], [ 0.395327, 43.864205 ], [ 0.397944007025189, 43.862786538209043 ], [ 0.39794503928015, 43.862785806714491 ], [ 0.399622, 43.854534 ], [ 0.399034, 43.850982 ], [ 0.40139900433287, 43.850248637039627 ], [ 0.401525513380269, 43.850101590280694 ], [ 0.395724, 43.851066 ], [ 0.394894, 43.850995 ], [ 0.394508, 43.851009 ] ] ], [ [ [ 0.354192, 43.855001 ], [ 0.353829, 43.853796 ], [ 0.353265, 43.853268 ], [ 0.35049, 43.850297 ], [ 0.349081, 43.849289 ], [ 0.348589, 43.849355 ], [ 0.346892, 43.850407 ], [ 0.339649, 43.849111 ], [ 0.338409, 43.846995 ], [ 0.338231, 43.846646 ], [ 0.338011, 43.84614 ], [ 0.336858, 43.845806 ], [ 0.336071, 43.846153 ], [ 0.33471, 43.847578 ], [ 0.334931, 43.848083 ], [ 0.335188, 43.848604 ], [ 0.336387, 43.85076 ], [ 0.3367, 43.851202 ], [ 0.336957, 43.851501 ], [ 0.339087, 43.853503 ], [ 0.338976, 43.860697 ], [ 0.337439, 43.862379 ], [ 0.336767, 43.862953 ], [ 0.3367, 43.863197 ], [ 0.337408, 43.863532 ], [ 0.340172, 43.864148 ], [ 0.341371, 43.87219 ], [ 0.342048, 43.875726 ], [ 0.345294, 43.883195 ], [ 0.345294, 43.886795 ], [ 0.340216, 43.89339 ], [ 0.340992, 43.894788 ], [ 0.336837, 43.901932 ], [ 0.33654, 43.902029 ], [ 0.333085, 43.903312 ], [ 0.330573, 43.903584 ], [ 0.329882, 43.907117 ], [ 0.330835, 43.909779 ], [ 0.331172, 43.909918 ], [ 0.332221, 43.909689 ], [ 0.333859, 43.90935 ], [ 0.338199212226721, 43.912898514416675 ], [ 0.338946, 43.911534 ], [ 0.339519319179813, 43.91036213130193 ], [ 0.339269, 43.9104 ], [ 0.339043, 43.910442 ], [ 0.33777, 43.910047 ], [ 0.337373, 43.909557 ], [ 0.337297, 43.909447 ], [ 0.338381, 43.906904 ], [ 0.341271, 43.90286 ], [ 0.344399, 43.895261 ], [ 0.348776, 43.888247 ], [ 0.34956, 43.886383 ], [ 0.34961, 43.886335 ], [ 0.352583, 43.879998 ], [ 0.347575, 43.874241 ], [ 0.347229, 43.870657 ], [ 0.343786, 43.862609 ], [ 0.342441, 43.859269 ], [ 0.340911, 43.855206 ], [ 0.343367, 43.852574 ], [ 0.348972, 43.853575 ], [ 0.349905, 43.857052 ], [ 0.353714, 43.860688 ], [ 0.357898466870609, 43.860150144879036 ], [ 0.354192, 43.855001 ] ] ], [ [ [ 0.347933638864383, 43.911643859829525 ], [ 0.349595, 43.909841 ], [ 0.349824, 43.906249 ], [ 0.349897625364925, 43.90603706599299 ], [ 0.347761, 43.907477 ], [ 0.345628, 43.909438 ], [ 0.34311258403616, 43.909818536272574 ], [ 0.347933638864383, 43.911643859829525 ] ] ], [ [ [ 0.359103, 43.90339 ], [ 0.360114, 43.903513 ], [ 0.363082, 43.905077 ], [ 0.362102, 43.913378 ], [ 0.360392, 43.914889 ], [ 0.36039, 43.914897 ], [ 0.360443, 43.916893 ], [ 0.363048, 43.918894 ], [ 0.364295, 43.91893 ], [ 0.364302431722188, 43.918930687989722 ], [ 0.363785, 43.917957 ], [ 0.363704, 43.916705 ], [ 0.36374, 43.916585 ], [ 0.364104, 43.916425 ], [ 0.366118, 43.915585 ], [ 0.367793383984505, 43.915282354811019 ], [ 0.371556, 43.907708 ], [ 0.371937, 43.905702 ], [ 0.372035, 43.905157 ], [ 0.372107947886977, 43.904946699785292 ], [ 0.372102, 43.904907 ], [ 0.364897, 43.902244 ], [ 0.360147, 43.901668 ], [ 0.354447, 43.900142 ], [ 0.352334676579084, 43.903067817508621 ], [ 0.359103, 43.90339 ] ] ], [ [ [ 0.387617, 43.922771 ], [ 0.39038, 43.920464 ], [ 0.390241917672361, 43.916298151152354 ], [ 0.388239, 43.917617 ], [ 0.385977357043973, 43.92283729168161 ], [ 0.387617, 43.922771 ] ] ], [ [ [ 0.396842, 43.913531 ], [ 0.399517, 43.915888 ], [ 0.400139, 43.916213 ], [ 0.400516, 43.916378 ], [ 0.400934, 43.916518 ], [ 0.40152, 43.916663 ], [ 0.402386, 43.913169 ], [ 0.401467, 43.906365 ], [ 0.400399, 43.904799 ], [ 0.400373237301818, 43.904767716723654 ], [ 0.398985, 43.905913 ], [ 0.394541, 43.912698 ], [ 0.393603, 43.914085 ], [ 0.393506903292987, 43.914148276206028 ], [ 0.396842, 43.913531 ] ] ], [ [ [ 0.411932, 43.903349 ], [ 0.411667, 43.904126 ], [ 0.411854, 43.905326 ], [ 0.412417, 43.90603 ], [ 0.412579, 43.906154 ], [ 0.415114, 43.905031 ], [ 0.4196, 43.903656 ], [ 0.419852, 43.903573 ], [ 0.419708, 43.900114 ], [ 0.420064, 43.892438 ], [ 0.421195, 43.888255 ], [ 0.429244, 43.887184 ], [ 0.432355, 43.885979 ], [ 0.436074, 43.880916 ], [ 0.436677, 43.877367 ], [ 0.441371, 43.872976 ], [ 0.444746, 43.871349 ], [ 0.445526, 43.871059 ], [ 0.446168, 43.870724 ], [ 0.447523, 43.869838 ], [ 0.447838, 43.867223 ], [ 0.447711, 43.86706 ], [ 0.446296, 43.866454 ], [ 0.445801, 43.866633 ], [ 0.439252, 43.867683 ], [ 0.437394, 43.868351 ], [ 0.435852, 43.868867 ], [ 0.43506, 43.869488 ], [ 0.434791779573964, 43.869665152632436 ], [ 0.436787, 43.872651 ], [ 0.435499, 43.873512 ], [ 0.431266, 43.879999 ], [ 0.430579, 43.8818 ], [ 0.429894, 43.882603 ], [ 0.427959, 43.884268 ], [ 0.42693, 43.883176 ], [ 0.421429, 43.882381 ], [ 0.41882, 43.887827 ], [ 0.418522, 43.893379 ], [ 0.418562, 43.893936 ], [ 0.418315, 43.894851 ], [ 0.4174, 43.898225 ], [ 0.416696, 43.899875 ], [ 0.416367, 43.900383 ], [ 0.41459, 43.900595 ], [ 0.414342, 43.900508 ], [ 0.413346, 43.898426 ], [ 0.409926, 43.895459 ], [ 0.409575, 43.895309 ], [ 0.40912, 43.89503 ], [ 0.411932, 43.903349 ] ] ], [ [ [ 0.425472, 43.873579 ], [ 0.420888, 43.866077 ], [ 0.421565, 43.864922 ], [ 0.418459, 43.863102 ], [ 0.415079, 43.864167 ], [ 0.406762, 43.865266 ], [ 0.415126, 43.867475 ], [ 0.415954, 43.866867 ], [ 0.418083, 43.86977 ], [ 0.423743, 43.87408 ], [ 0.427212, 43.873118 ], [ 0.429523, 43.872407 ], [ 0.425472, 43.873579 ] ] ] ] } },
{ "type": "Feature", "properties": { "codgeo": "32459", "value": 540, "isochrone_group": 9.0, "nb_agences": 1 }, "geometry": { "type": "MultiPolygon", "coordinates": [ [ [ [ 0.370858, 43.842688 ], [ 0.368632, 43.843756 ], [ 0.367462, 43.845275 ], [ 0.366604, 43.846359 ], [ 0.366699, 43.846793 ], [ 0.365953, 43.853875 ], [ 0.369277, 43.846676 ], [ 0.369294, 43.845696 ], [ 0.37022, 43.845124 ], [ 0.37122, 43.845 ], [ 0.374452, 43.843945 ], [ 0.378435, 43.838682 ], [ 0.380479, 43.83757 ], [ 0.382954, 43.837474 ], [ 0.3836, 43.83753 ], [ 0.384141, 43.837658 ], [ 0.383947, 43.838536 ], [ 0.383864, 43.838832 ], [ 0.383315, 43.841162 ], [ 0.383212, 43.842408 ], [ 0.386006, 43.849569 ], [ 0.387799, 43.850669 ], [ 0.394508, 43.851009 ], [ 0.394894, 43.850995 ], [ 0.395724, 43.851066 ], [ 0.402275, 43.849977 ], [ 0.394229, 43.848705 ], [ 0.388252, 43.846434 ], [ 0.38683, 43.838527 ], [ 0.387886, 43.837215 ], [ 0.387241, 43.836015 ], [ 0.387132231859726, 43.835816854139999 ], [ 0.381141, 43.833668 ], [ 0.381425, 43.832135 ], [ 0.381596966752164, 43.83117811882574 ], [ 0.378573, 43.832758 ], [ 0.376552, 43.836498 ], [ 0.370858, 43.842688 ] ] ], [ [ [ 0.355029, 43.85523 ], [ 0.353752, 43.850217 ], [ 0.352267, 43.846742 ], [ 0.34916, 43.845446 ], [ 0.345818, 43.846785 ], [ 0.337783, 43.845547 ], [ 0.336806, 43.842157 ], [ 0.336026, 43.839347 ], [ 0.332557, 43.84031 ], [ 0.331186, 43.845082 ], [ 0.331802, 43.848629 ], [ 0.333248, 43.848882 ], [ 0.3367, 43.851202 ], [ 0.336387, 43.85076 ], [ 0.335188, 43.848604 ], [ 0.334931, 43.848083 ], [ 0.33471, 43.847578 ], [ 0.336071, 43.846153 ], [ 0.336858, 43.845806 ], [ 0.338011, 43.84614 ], [ 0.338231, 43.846646 ], [ 0.338409, 43.846995 ], [ 0.339649, 43.849111 ], [ 0.346892, 43.850407 ], [ 0.348589, 43.849355 ], [ 0.349081, 43.849289 ], [ 0.35049, 43.850297 ], [ 0.353265, 43.853268 ], [ 0.353829, 43.853796 ], [ 0.354192, 43.855001 ], [ 0.355258710638472, 43.856482909271897 ], [ 0.355029, 43.85523 ] ] ], [ [ [ 0.33638, 43.858319 ], [ 0.334225, 43.864875 ], [ 0.335804, 43.871479 ], [ 0.335769, 43.875078 ], [ 0.338575, 43.877444 ], [ 0.338406, 43.885467 ], [ 0.335314, 43.893782 ], [ 0.334412, 43.893913 ], [ 0.33419, 43.893974 ], [ 0.332923, 43.896474 ], [ 0.326357, 43.901064 ], [ 0.320798, 43.902502 ], [ 0.317412, 43.902381 ], [ 0.317283, 43.905979 ], [ 0.320143340671709, 43.909892847399846 ], [ 0.323091, 43.90909 ], [ 0.324522, 43.908685 ], [ 0.330233272493726, 43.908098203964627 ], [ 0.329882, 43.907117 ], [ 0.330573, 43.903584 ], [ 0.333085, 43.903312 ], [ 0.33654, 43.902029 ], [ 0.336837, 43.901932 ], [ 0.340992, 43.894788 ], [ 0.340216, 43.89339 ], [ 0.345294, 43.886795 ], [ 0.345294, 43.883195 ], [ 0.342048, 43.875726 ], [ 0.341371, 43.87219 ], [ 0.340172, 43.864148 ], [ 0.337408, 43.863532 ], [ 0.3367, 43.863197 ], [ 0.336767, 43.862953 ], [ 0.337439, 43.862379 ], [ 0.338976, 43.860697 ], [ 0.339087, 43.853503 ], [ 0.336957, 43.851501 ], [ 0.3367, 43.851202 ], [ 0.33638, 43.858319 ] ] ], [ [ [ 0.351023, 43.911377 ], [ 0.352975, 43.911608 ], [ 0.354269, 43.911739 ], [ 0.354693, 43.911811 ], [ 0.355327, 43.911918 ], [ 0.354821954105679, 43.914885562713494 ], [ 0.358461, 43.914803 ], [ 0.360367, 43.917465 ], [ 0.362370239418627, 43.919589911227142 ], [ 0.363003076789013, 43.918859492765776 ], [ 0.360443, 43.916893 ], [ 0.36039, 43.914897 ], [ 0.360392, 43.914889 ], [ 0.362102, 43.913378 ], [ 0.363082, 43.905077 ], [ 0.360114, 43.903513 ], [ 0.359103, 43.90339 ], [ 0.350952, 43.903002 ], [ 0.349824, 43.906249 ], [ 0.349611910578635, 43.90957574760499 ], [ 0.351023, 43.911377 ] ] ], [ [ [ 0.40245, 43.913185 ], [ 0.410308, 43.91088 ], [ 0.411317, 43.909516 ], [ 0.411317314240954, 43.909516218461036 ], [ 0.411353, 43.909468 ], [ 0.414246, 43.91161 ], [ 0.414173863397998, 43.912062371313347 ], [ 0.418254, 43.91007 ], [ 0.420499, 43.907248 ], [ 0.425586, 43.901681 ], [ 0.429539, 43.898275 ], [ 0.427492, 43.895314 ], [ 0.434204, 43.890398 ], [ 0.434705, 43.890272 ], [ 0.435646, 43.890068 ], [ 0.43633, 43.888622 ], [ 0.436325, 43.888542 ], [ 0.437579, 43.882384 ], [ 0.440147, 43.87986 ], [ 0.443938, 43.874928 ], [ 0.452192, 43.871386 ], [ 0.457746, 43.865213 ], [ 0.457591, 43.864491 ], [ 0.457435, 43.863769 ], [ 0.45459, 43.863352 ], [ 0.4532, 43.863828 ], [ 0.445703, 43.864154 ], [ 0.443309, 43.863223 ], [ 0.438272, 43.865567 ], [ 0.437722, 43.86566 ], [ 0.437068, 43.866024 ], [ 0.436374, 43.86669 ], [ 0.435763, 43.86764 ], [ 0.4331162849505, 43.8707087825657 ], [ 0.433499, 43.870519 ], [ 0.43506, 43.869488 ], [ 0.435852, 43.868867 ], [ 0.437394, 43.868351 ], [ 0.439252, 43.867683 ], [ 0.445801, 43.866633 ], [ 0.446296, 43.866454 ], [ 0.447711, 43.86706 ], [ 0.447838, 43.867223 ], [ 0.447523, 43.869838 ], [ 0.446168, 43.870724 ], [ 0.445526, 43.871059 ], [ 0.444746, 43.871349 ], [ 0.441371, 43.872976 ], [ 0.436677, 43.877367 ], [ 0.436074, 43.880916 ], [ 0.432355, 43.885979 ], [ 0.429244, 43.887184 ], [ 0.421195, 43.888255 ], [ 0.420064, 43.892438 ], [ 0.419708, 43.900114 ], [ 0.419852, 43.903573 ], [ 0.4196, 43.903656 ], [ 0.415114, 43.905031 ], [ 0.412579, 43.906154 ], [ 0.412417, 43.90603 ], [ 0.411854, 43.905326 ], [ 0.411667, 43.904126 ], [ 0.411932, 43.903349 ], [ 0.40912, 43.89503 ], [ 0.403706, 43.893117 ], [ 0.400895, 43.89307 ], [ 0.39593, 43.900077 ], [ 0.399109, 43.90396 ], [ 0.399478, 43.904177 ], [ 0.400175, 43.904527 ], [ 0.400399, 43.904799 ], [ 0.401467, 43.906365 ], [ 0.402386, 43.913169 ], [ 0.402382830561795, 43.913181787548616 ], [ 0.40245, 43.913185 ] ] ], [ [ [ 0.423904, 43.865723 ], [ 0.424994, 43.862754 ], [ 0.423393, 43.85953 ], [ 0.425867973085913, 43.852593040086091 ], [ 0.423095, 43.851293 ], [ 0.422165, 43.850237 ], [ 0.413255, 43.850153 ], [ 0.411958, 43.85193 ], [ 0.411433999985123, 43.852643000020237 ], [ 0.410392, 43.854061 ], [ 0.408307, 43.856932 ], [ 0.406886, 43.863391 ], [ 0.406468143061859, 43.864522598139608 ], [ 0.406762, 43.865266 ], [ 0.415079, 43.864167 ], [ 0.418459, 43.863102 ], [ 0.421565, 43.864922 ], [ 0.420888, 43.866077 ], [ 0.425472, 43.873579 ], [ 0.429523, 43.872407 ], [ 0.423904, 43.865723 ] ] ], [ [ [ 0.388721, 43.923505 ], [ 0.389645146749406, 43.921077574538245 ], [ 0.387617, 43.922771 ], [ 0.384245664674435, 43.922907304972455 ], [ 0.388132, 43.923236 ], [ 0.388721, 43.923505 ] ] ] ] } },
{ "type": "Feature", "properties": { "codgeo": "32459", "value": 600, "isochrone_group": 10.0, "nb_agences": 1 }, "geometry": { "type": "MultiPolygon", "coordinates": [ [ [ [ 0.37081, 43.836286 ], [ 0.369874, 43.838746 ], [ 0.363616, 43.843589 ], [ 0.357059, 43.846455 ], [ 0.354874, 43.846488 ], [ 0.347459, 43.842585 ], [ 0.346645, 43.841451 ], [ 0.340931, 43.837398 ], [ 0.334204, 43.834544 ], [ 0.33296, 43.832948 ], [ 0.332513, 43.832575 ], [ 0.33167, 43.832079 ], [ 0.331179, 43.831903 ], [ 0.330364, 43.831724 ], [ 0.32959, 43.83524 ], [ 0.328402, 43.840796 ], [ 0.325821, 43.845367 ], [ 0.326337, 43.848995 ], [ 0.329821, 43.8499 ], [ 0.3367, 43.851202 ], [ 0.333248, 43.848882 ], [ 0.331802, 43.848629 ], [ 0.331186, 43.845082 ], [ 0.332557, 43.84031 ], [ 0.336026, 43.839347 ], [ 0.336806, 43.842157 ], [ 0.337783, 43.845547 ], [ 0.345818, 43.846785 ], [ 0.34916, 43.845446 ], [ 0.352267, 43.846742 ], [ 0.353752, 43.850217 ], [ 0.355029, 43.85523 ], [ 0.35539, 43.857199 ], [ 0.35904, 43.861736 ], [ 0.364266, 43.855605 ], [ 0.365953, 43.853875 ], [ 0.366699, 43.846793 ], [ 0.366604, 43.846359 ], [ 0.367462, 43.845275 ], [ 0.368632, 43.843756 ], [ 0.370858, 43.842688 ], [ 0.376552, 43.836498 ], [ 0.378214467479513, 43.833421489176949 ], [ 0.378251, 43.832741 ], [ 0.381969, 43.829108 ], [ 0.38159247252571, 43.825367990087628 ], [ 0.376154, 43.828877 ], [ 0.375059, 43.829521 ], [ 0.37081, 43.836286 ] ] ], [ [ [ 0.334428, 43.858268 ], [ 0.332569, 43.858771 ], [ 0.332075, 43.859194 ], [ 0.331875, 43.860088 ], [ 0.331541, 43.865166 ], [ 0.329324, 43.871381 ], [ 0.33099, 43.874348 ], [ 0.332842, 43.874902 ], [ 0.333119, 43.87499 ], [ 0.337699, 43.880858 ], [ 0.337864, 43.88272 ], [ 0.3349, 43.887614 ], [ 0.329611, 43.887581 ], [ 0.329375, 43.887658 ], [ 0.328375, 43.888386 ], [ 0.327552, 43.890843 ], [ 0.325945, 43.899697 ], [ 0.320676634045651, 43.902497662941407 ], [ 0.320798, 43.902502 ], [ 0.326357, 43.901064 ], [ 0.332923, 43.896474 ], [ 0.33419, 43.893974 ], [ 0.334412, 43.893913 ], [ 0.335314, 43.893782 ], [ 0.338406, 43.885467 ], [ 0.338575, 43.877444 ], [ 0.335769, 43.875078 ], [ 0.335804, 43.871479 ], [ 0.334225, 43.864875 ], [ 0.33638, 43.858319 ], [ 0.3367, 43.851202 ], [ 0.334428, 43.858268 ] ] ], [ [ [ 0.317048, 43.902367 ], [ 0.316193, 43.902129 ], [ 0.315594, 43.902161 ], [ 0.313764, 43.902242 ], [ 0.306535, 43.901971 ], [ 0.304928, 43.901913 ], [ 0.304799, 43.905511 ], [ 0.306406, 43.905568 ], [ 0.30976, 43.906685 ], [ 0.312503079729102, 43.910549477331791 ], [ 0.314463, 43.908829 ], [ 0.315594, 43.907348 ], [ 0.31731176018443, 43.906018352995318 ], [ 0.317283, 43.905979 ], [ 0.317412, 43.902381 ], [ 0.319710752287804, 43.902463146788783 ], [ 0.317048, 43.902367 ] ] ], [ [ [ 0.421152, 43.908068 ], [ 0.418254, 43.91007 ], [ 0.415912, 43.915615 ], [ 0.416724423212804, 43.917389457552595 ], [ 0.42343, 43.914728 ], [ 0.425419, 43.916191 ], [ 0.427551, 43.91329 ], [ 0.429448, 43.904571 ], [ 0.430058, 43.903618 ], [ 0.430059, 43.903582 ], [ 0.43215, 43.896457 ], [ 0.439423, 43.891988 ], [ 0.441304, 43.892028 ], [ 0.442902, 43.889314 ], [ 0.441077, 43.886212 ], [ 0.43956790050364, 43.880429177230837 ], [ 0.437579, 43.882384 ], [ 0.436325, 43.888542 ], [ 0.43633, 43.888622 ], [ 0.435646, 43.890068 ], [ 0.434705, 43.890272 ], [ 0.434204, 43.890398 ], [ 0.427492, 43.895314 ], [ 0.429539, 43.898275 ], [ 0.425586, 43.901681 ], [ 0.420971125327097, 43.906731325792052 ], [ 0.421152, 43.908068 ] ] ], [ [ [ 0.448927, 43.872795 ], [ 0.454529, 43.874011 ], [ 0.459548, 43.873341 ], [ 0.462446, 43.871205 ], [ 0.463148, 43.862835 ], [ 0.463793, 43.862133 ], [ 0.46432, 43.86022 ], [ 0.464301, 43.860169 ], [ 0.463905, 43.859533 ], [ 0.462419, 43.858805 ], [ 0.461851, 43.85904 ], [ 0.460849, 43.859421 ], [ 0.45876, 43.859876 ], [ 0.453038199553464, 43.856792017676014 ], [ 0.455323, 43.860656 ], [ 0.455713, 43.860965 ], [ 0.456391, 43.861602 ], [ 0.456686, 43.861989 ], [ 0.456926, 43.862386 ], [ 0.45716, 43.862896 ], [ 0.457807, 43.864732 ], [ 0.457703040322648, 43.865012891051293 ], [ 0.457746, 43.865213 ], [ 0.452192, 43.871386 ], [ 0.448905201215888, 43.872796448424197 ], [ 0.448927, 43.872795 ] ] ], [ [ [ 0.451067, 43.863531 ], [ 0.44861, 43.861199 ], [ 0.446648169114314, 43.859348157156482 ], [ 0.440809, 43.861861 ], [ 0.440275, 43.861577 ], [ 0.438398, 43.861007 ], [ 0.438168, 43.861106 ], [ 0.429578, 43.858483 ], [ 0.430203859587231, 43.853793460557661 ], [ 0.428781, 43.853585 ], [ 0.425378203107961, 43.853965788227654 ], [ 0.423393, 43.85953 ], [ 0.424994, 43.862754 ], [ 0.423904, 43.865723 ], [ 0.429523, 43.872407 ], [ 0.432041, 43.871242 ], [ 0.433054, 43.870781 ], [ 0.435763, 43.86764 ], [ 0.436374, 43.86669 ], [ 0.437068, 43.866024 ], [ 0.437722, 43.86566 ], [ 0.438272, 43.865567 ], [ 0.443309, 43.863223 ], [ 0.445703, 43.864154 ], [ 0.451535793266678, 43.86390036646592 ], [ 0.451067, 43.863531 ] ] ], [ [ [ 0.402269, 43.840391 ], [ 0.400682, 43.839093 ], [ 0.392723, 43.839471 ], [ 0.38918, 43.839943 ], [ 0.387036138159024, 43.839673226739386 ], [ 0.388252, 43.846434 ], [ 0.394229, 43.848705 ], [ 0.402275, 43.849977 ], [ 0.407642, 43.845431 ], [ 0.402269, 43.840391 ] ] ] ] } },
{ "type": "Feature", "properties": { "codgeo": "32459", "value": 660, "isochrone_group": 11.0, "nb_agences": 1 }, "geometry": { "type": "MultiPolygon", "coordinates": [ [ [ [ 0.366918, 43.834553 ], [ 0.365422, 43.837827 ], [ 0.360505, 43.844247 ], [ 0.354874, 43.846488 ], [ 0.357059, 43.846455 ], [ 0.363616, 43.843589 ], [ 0.369874, 43.838746 ], [ 0.37081, 43.836286 ], [ 0.374381531500156, 43.83059962424133 ], [ 0.374562, 43.829443 ], [ 0.372684108444462, 43.827635229395128 ], [ 0.37, 43.828512 ], [ 0.369491, 43.829148 ], [ 0.36918, 43.829687 ], [ 0.366918, 43.834553 ] ] ], [ [ [ 0.348656, 43.837812 ], [ 0.347366, 43.836892 ], [ 0.346354, 43.836999 ], [ 0.338786, 43.832469 ], [ 0.337632, 43.829384 ], [ 0.337284, 43.827677 ], [ 0.33714, 43.827533 ], [ 0.334588, 43.827462 ], [ 0.328040340676471, 43.826687740863505 ], [ 0.327398, 43.829298 ], [ 0.324215, 43.83098 ], [ 0.322252654265872, 43.829783208865635 ], [ 0.322133, 43.831507 ], [ 0.32303, 43.83857 ], [ 0.323708, 43.842105 ], [ 0.322007, 43.849269 ], [ 0.322204, 43.852864 ], [ 0.323435, 43.85502 ], [ 0.324608, 43.857028 ], [ 0.328512, 43.864615 ], [ 0.326858, 43.868327 ], [ 0.324374, 43.870615 ], [ 0.323972, 43.874192 ], [ 0.325721, 43.882521 ], [ 0.325606, 43.884579 ], [ 0.322406, 43.89227 ], [ 0.322819, 43.893009 ], [ 0.323538, 43.895688 ], [ 0.321645125543922, 43.900192009449988 ], [ 0.323389, 43.900148 ], [ 0.323907, 43.900279 ], [ 0.324815772174468, 43.90029729742632 ], [ 0.325945, 43.899697 ], [ 0.327552, 43.890843 ], [ 0.328375, 43.888386 ], [ 0.329375, 43.887658 ], [ 0.329611, 43.887581 ], [ 0.3349, 43.887614 ], [ 0.337864, 43.88272 ], [ 0.337699, 43.880858 ], [ 0.333119, 43.87499 ], [ 0.332842, 43.874902 ], [ 0.33099, 43.874348 ], [ 0.329324, 43.871381 ], [ 0.331541, 43.865166 ], [ 0.331875, 43.860088 ], [ 0.332075, 43.859194 ], [ 0.332569, 43.858771 ], [ 0.334428, 43.858268 ], [ 0.3367, 43.851202 ], [ 0.329821, 43.8499 ], [ 0.326337, 43.848995 ], [ 0.325821, 43.845367 ], [ 0.328402, 43.840796 ], [ 0.32959, 43.83524 ], [ 0.330364, 43.831724 ], [ 0.331179, 43.831903 ], [ 0.33167, 43.832079 ], [ 0.332513, 43.832575 ], [ 0.33296, 43.832948 ], [ 0.334204, 43.834544 ], [ 0.340931, 43.837398 ], [ 0.346645, 43.841451 ], [ 0.347459, 43.842585 ], [ 0.354874, 43.846488 ], [ 0.349346, 43.841346 ], [ 0.348656, 43.837812 ] ] ], [ [ [ 0.425484, 43.916239 ], [ 0.420631723596366, 43.921351713916081 ], [ 0.426523, 43.916994 ], [ 0.427005, 43.917253 ], [ 0.427558, 43.91745 ], [ 0.427934, 43.91754 ], [ 0.429914, 43.917916 ], [ 0.432814, 43.918089 ], [ 0.433298, 43.918057 ], [ 0.434476, 43.916051 ], [ 0.434476, 43.916023 ], [ 0.43444, 43.915786 ], [ 0.433055, 43.914465 ], [ 0.430575, 43.906687 ], [ 0.43375, 43.903226 ], [ 0.434539, 43.902814 ], [ 0.437222, 43.896105 ], [ 0.44441, 43.893557 ], [ 0.444465, 43.893555 ], [ 0.446145, 43.891899 ], [ 0.450766, 43.884865 ], [ 0.452569, 43.883297 ], [ 0.46008, 43.878491 ], [ 0.460967, 43.878618 ], [ 0.463042, 43.878409 ], [ 0.463277, 43.878346 ], [ 0.466607, 43.876694 ], [ 0.467934, 43.874509 ], [ 0.467921, 43.874451 ], [ 0.466406, 43.8731 ], [ 0.465561, 43.864502 ], [ 0.465661, 43.864245 ], [ 0.470476, 43.859235 ], [ 0.472058, 43.858683 ], [ 0.472082, 43.858235 ], [ 0.470871, 43.855284 ], [ 0.470611, 43.854949 ], [ 0.469711, 43.855352 ], [ 0.469194, 43.855665 ], [ 0.461118, 43.85654 ], [ 0.459079, 43.85532 ], [ 0.458803, 43.855293 ], [ 0.451677, 43.85449 ], [ 0.45876, 43.859876 ], [ 0.461892, 43.858126 ], [ 0.463691, 43.858269 ], [ 0.465034, 43.859181 ], [ 0.465306, 43.859815 ], [ 0.46532, 43.859921 ], [ 0.465325, 43.860008 ], [ 0.465171, 43.861551 ], [ 0.465096, 43.861585 ], [ 0.462886627297853, 43.865951366833308 ], [ 0.462446, 43.871205 ], [ 0.459548, 43.873341 ], [ 0.454529, 43.874011 ], [ 0.448927, 43.872795 ], [ 0.441101, 43.873315 ], [ 0.439, 43.878253 ], [ 0.441077, 43.886212 ], [ 0.442902, 43.889314 ], [ 0.441304, 43.892028 ], [ 0.439423, 43.891988 ], [ 0.43215, 43.896457 ], [ 0.430059, 43.903582 ], [ 0.430058, 43.903618 ], [ 0.429448, 43.904571 ], [ 0.427553300060487, 43.91327942845156 ], [ 0.427616, 43.913338 ], [ 0.425484, 43.916239 ] ] ], [ [ [ 0.439969, 43.856305 ], [ 0.438652, 43.857589 ], [ 0.438188, 43.857893 ], [ 0.436875, 43.858538 ], [ 0.436525, 43.858765 ], [ 0.436002, 43.859033 ], [ 0.435344, 43.858673 ], [ 0.435302, 43.858648 ], [ 0.434637, 43.857968 ], [ 0.434353, 43.85697 ], [ 0.430122885268201, 43.854400197708699 ], [ 0.429578, 43.858483 ], [ 0.438168, 43.861106 ], [ 0.438398, 43.861007 ], [ 0.440275, 43.861577 ], [ 0.440809, 43.861861 ], [ 0.446715974282773, 43.859318977708327 ], [ 0.442335, 43.855279 ], [ 0.439969, 43.856305 ] ] ], [ [ [ 0.296588, 43.900552 ], [ 0.295498, 43.899987 ], [ 0.293595, 43.903042 ], [ 0.293154, 43.903743 ], [ 0.293422, 43.907333 ], [ 0.293659, 43.907315 ], [ 0.301015, 43.909358 ], [ 0.303823, 43.913699 ], [ 0.303825, 43.913702 ], [ 0.303074, 43.912531 ], [ 0.302177, 43.911137 ], [ 0.300599, 43.90872 ], [ 0.303613, 43.906752 ], [ 0.305025773478965, 43.905519043614397 ], [ 0.304799, 43.905511 ], [ 0.304928, 43.901913 ], [ 0.306535, 43.901971 ], [ 0.308985988889876, 43.902062882416537 ], [ 0.308987, 43.902062 ], [ 0.311084443947055, 43.901517554379069 ], [ 0.30566, 43.900051 ], [ 0.305447, 43.900095 ], [ 0.296588, 43.900552 ] ] ] ] } },
{ "type": "Feature", "properties": { "codgeo": "32459", "value": 720, "isochrone_group": 12.0, "nb_agences": 1 }, "geometry": { "type": "MultiPolygon", "coordinates": [ [ [ [ 0.335486, 43.826468 ], [ 0.335239497403008, 43.826684086991108 ], [ 0.335278896011929, 43.827481221636702 ], [ 0.33714, 43.827533 ], [ 0.337284, 43.827677 ], [ 0.337632, 43.829384 ], [ 0.338786, 43.832469 ], [ 0.346354, 43.836999 ], [ 0.347366, 43.836892 ], [ 0.348656, 43.837812 ], [ 0.349346, 43.841346 ], [ 0.354874, 43.846488 ], [ 0.360505, 43.844247 ], [ 0.365422, 43.837827 ], [ 0.366918, 43.834553 ], [ 0.368199527893698, 43.831796185353355 ], [ 0.368213, 43.831662 ], [ 0.366366524143945, 43.83080541138883 ], [ 0.365756, 43.831195 ], [ 0.361235, 43.833596 ], [ 0.360385, 43.83385 ], [ 0.352281, 43.834907 ], [ 0.349712, 43.834565 ], [ 0.341447, 43.832039 ], [ 0.343767297409517, 43.826479042056434 ], [ 0.34258, 43.826387 ], [ 0.340426143861565, 43.823503192616869 ], [ 0.340055, 43.82378 ], [ 0.337144, 43.825613 ], [ 0.335773, 43.826304 ], [ 0.335486, 43.826468 ] ] ], [ [ [ 0.318037, 43.832074 ], [ 0.31627, 43.840017 ], [ 0.315843, 43.840498 ], [ 0.315353, 43.84289 ], [ 0.31731, 43.84922 ], [ 0.31759, 43.852809 ], [ 0.320372, 43.858683 ], [ 0.321792, 43.861991 ], [ 0.322304, 43.864041 ], [ 0.322475, 43.867637 ], [ 0.31835, 43.87227 ], [ 0.319356, 43.875726 ], [ 0.319611, 43.883512 ], [ 0.320773, 43.886893 ], [ 0.317699, 43.894225 ], [ 0.316862, 43.894807 ], [ 0.313764, 43.902242 ], [ 0.315594, 43.902161 ], [ 0.316193, 43.902129 ], [ 0.317048, 43.902367 ], [ 0.320676, 43.902498 ], [ 0.323538, 43.895688 ], [ 0.322819, 43.893009 ], [ 0.322406, 43.89227 ], [ 0.325606, 43.884579 ], [ 0.325721, 43.882521 ], [ 0.323972, 43.874192 ], [ 0.324374, 43.870615 ], [ 0.326858, 43.868327 ], [ 0.328512, 43.864615 ], [ 0.324608, 43.857028 ], [ 0.323435, 43.85502 ], [ 0.322204, 43.852864 ], [ 0.322007, 43.849269 ], [ 0.323708, 43.842105 ], [ 0.32303, 43.83857 ], [ 0.322406901029062, 43.833663703420598 ], [ 0.319758, 43.83164 ], [ 0.317371920379693, 43.830721196998006 ], [ 0.318037, 43.832074 ] ] ], [ [ [ 0.297621, 43.892789 ], [ 0.297205, 43.892667 ], [ 0.295593, 43.892664 ], [ 0.294854, 43.893891 ], [ 0.293249, 43.89605 ], [ 0.292921, 43.896523 ], [ 0.288638, 43.901117 ], [ 0.281012, 43.90308 ], [ 0.280631, 43.904653 ], [ 0.280607, 43.905198 ], [ 0.280689, 43.905807 ], [ 0.280813, 43.906675 ], [ 0.288432, 43.909156 ], [ 0.293848, 43.910446 ], [ 0.294768, 43.909996 ], [ 0.299986085539574, 43.909964856364844 ], [ 0.296516497585452, 43.908108619843269 ], [ 0.293659, 43.907315 ], [ 0.293378, 43.907337 ], [ 0.293109, 43.903747 ], [ 0.295489, 43.899981 ], [ 0.298653869853948, 43.90044543012494 ], [ 0.303365932666735, 43.900202353851597 ], [ 0.302731, 43.899848 ], [ 0.298749, 43.894397 ], [ 0.297621, 43.892789 ] ] ], [ [ [ 0.434034, 43.910259 ], [ 0.433803, 43.906183 ], [ 0.438859, 43.901639 ], [ 0.439254, 43.901525 ], [ 0.440334, 43.901129 ], [ 0.444874, 43.893872 ], [ 0.448721, 43.895704 ], [ 0.451133, 43.894906 ], [ 0.451632, 43.891341 ], [ 0.453207, 43.887209 ], [ 0.459843, 43.882663 ], [ 0.462756, 43.88086 ], [ 0.47073, 43.881168 ], [ 0.471205, 43.8813 ], [ 0.472426, 43.881529 ], [ 0.472869, 43.881564 ], [ 0.473343, 43.881535 ], [ 0.473917, 43.881389 ], [ 0.474584, 43.881006 ], [ 0.474887, 43.880739 ], [ 0.474062, 43.874014 ], [ 0.47493, 43.87052 ], [ 0.472662, 43.869592 ], [ 0.472114, 43.869269 ], [ 0.470946, 43.868519 ], [ 0.468183, 43.867732 ], [ 0.469978092160723, 43.859753072331202 ], [ 0.465661, 43.864245 ], [ 0.465561, 43.864502 ], [ 0.46630852038937, 43.872108130541768 ], [ 0.467833, 43.874331 ], [ 0.467883308866649, 43.874417388962918 ], [ 0.467921, 43.874451 ], [ 0.467934, 43.874509 ], [ 0.466607, 43.876694 ], [ 0.463277, 43.878346 ], [ 0.463042, 43.878409 ], [ 0.460967, 43.878618 ], [ 0.46008, 43.878491 ], [ 0.452569, 43.883297 ], [ 0.450766, 43.884865 ], [ 0.446145, 43.891899 ], [ 0.444465, 43.893555 ], [ 0.44441, 43.893557 ], [ 0.437222, 43.896105 ], [ 0.434539, 43.902814 ], [ 0.43375, 43.903226 ], [ 0.430575, 43.906687 ], [ 0.433054968276548, 43.91446490050604 ], [ 0.433112, 43.914461 ], [ 0.433447455742592, 43.914823512665819 ], [ 0.43444, 43.915779 ], [ 0.437548579722486, 43.918541018814054 ], [ 0.439845, 43.917703 ], [ 0.439619, 43.91411 ], [ 0.434034, 43.910259 ] ] ], [ [ [ 0.459289, 43.85136 ], [ 0.45883, 43.851584 ], [ 0.454357548230578, 43.853400992149012 ], [ 0.457156662691072, 43.855107480934734 ], [ 0.458803, 43.855293 ], [ 0.458934098820713, 43.855305824884638 ], [ 0.46108, 43.855116 ], [ 0.462907307701262, 43.855239637161453 ], [ 0.461033, 43.854926 ], [ 0.460405, 43.851086 ], [ 0.460251, 43.851098 ], [ 0.459289, 43.85136 ] ] ], [ [ [ 0.477088, 43.858636 ], [ 0.477913, 43.852829 ], [ 0.476272, 43.849626 ], [ 0.475304, 43.849863 ], [ 0.473962, 43.850994 ], [ 0.473614, 43.851287 ], [ 0.473257, 43.851718 ], [ 0.473004, 43.8522 ], [ 0.469711, 43.855352 ], [ 0.471142, 43.854663 ], [ 0.473131, 43.857663 ], [ 0.47244509422766, 43.858542188468306 ], [ 0.472511, 43.858519 ], [ 0.473494, 43.858478 ], [ 0.475052, 43.858554 ], [ 0.477088, 43.858636 ] ] ] ] } },
{ "type": "Feature", "properties": { "codgeo": "32459", "value": 780, "isochrone_group": 13.0, "nb_agences": 1 }, "geometry": { "type": "MultiPolygon", "coordinates": [ [ [ [ 0.316953008143829, 43.836946748904118 ], [ 0.318037, 43.832074 ], [ 0.31774752575346, 43.831485195866229 ], [ 0.316276575050291, 43.831388702500448 ], [ 0.316953008143829, 43.836946748904118 ] ] ], [ [ [ 0.309443, 43.839891 ], [ 0.309035, 43.839846 ], [ 0.308513, 43.839847 ], [ 0.308059, 43.83991 ], [ 0.307661, 43.840015 ], [ 0.306441, 43.840425 ], [ 0.307589, 43.843837 ], [ 0.310999, 43.844158 ], [ 0.316933, 43.850654 ], [ 0.316534, 43.858325 ], [ 0.315316, 43.863959 ], [ 0.315582, 43.867549 ], [ 0.312766, 43.873171 ], [ 0.312211, 43.874964 ], [ 0.312349, 43.87551 ], [ 0.312708, 43.876499 ], [ 0.313875, 43.883672 ], [ 0.314548, 43.887209 ], [ 0.314834, 43.896118 ], [ 0.308123, 43.897887 ], [ 0.307737, 43.897957 ], [ 0.301396, 43.891842 ], [ 0.301359, 43.888556 ], [ 0.30121, 43.887591 ], [ 0.30114, 43.887435 ], [ 0.297316, 43.884929 ], [ 0.296926, 43.884632 ], [ 0.296587, 43.884425 ], [ 0.296248, 43.884257 ], [ 0.295156, 43.883808 ], [ 0.293788, 43.887138 ], [ 0.294624, 43.888484 ], [ 0.293249, 43.89605 ], [ 0.294854, 43.893891 ], [ 0.295642, 43.892575 ], [ 0.297205, 43.892667 ], [ 0.298013, 43.892872 ], [ 0.298798, 43.894308 ], [ 0.30298, 43.899705 ], [ 0.306535, 43.901971 ], [ 0.313764, 43.902242 ], [ 0.316862, 43.894807 ], [ 0.317699, 43.894225 ], [ 0.320773, 43.886893 ], [ 0.319611, 43.883512 ], [ 0.319356, 43.875726 ], [ 0.31835, 43.87227 ], [ 0.322475, 43.867637 ], [ 0.322304, 43.864041 ], [ 0.321792, 43.861991 ], [ 0.320372, 43.858683 ], [ 0.31759, 43.852809 ], [ 0.31731, 43.84922 ], [ 0.315353, 43.84289 ], [ 0.315843, 43.840498 ], [ 0.31627, 43.840017 ], [ 0.316855887445824, 43.837383324854436 ], [ 0.313902, 43.83914 ], [ 0.309443, 43.839891 ] ] ], [ [ [ 0.360928, 43.83056 ], [ 0.360763, 43.829901 ], [ 0.360206864290681, 43.829324911215586 ], [ 0.359714, 43.829857 ], [ 0.356303326879372, 43.826592446023703 ], [ 0.351347, 43.830092 ], [ 0.350538, 43.829728 ], [ 0.349306, 43.829063 ], [ 0.342580593529567, 43.82932265324046 ], [ 0.341447, 43.832039 ], [ 0.349712, 43.834565 ], [ 0.352281, 43.834907 ], [ 0.360385, 43.83385 ], [ 0.360985633052776, 43.833670516711287 ], [ 0.360893, 43.833498 ], [ 0.360928, 43.83056 ] ] ], [ [ [ 0.276316, 43.900651 ], [ 0.267523, 43.902354 ], [ 0.267152, 43.903969 ], [ 0.267333, 43.905949 ], [ 0.268855, 43.906029 ], [ 0.270936, 43.906139 ], [ 0.273018, 43.906249 ], [ 0.274981, 43.906356 ], [ 0.281809, 43.91089 ], [ 0.28363, 43.910733 ], [ 0.28407, 43.910667 ], [ 0.292855, 43.912608 ], [ 0.294017, 43.913842 ], [ 0.294384, 43.913819 ], [ 0.294386, 43.913818 ], [ 0.295115405676981, 43.913769886169071 ], [ 0.293838, 43.910451 ], [ 0.288429, 43.909157 ], [ 0.288423540497498, 43.90915324530441 ], [ 0.280813, 43.906675 ], [ 0.280812985095813, 43.90667489567069 ], [ 0.280669, 43.906667 ], [ 0.280607, 43.905198 ], [ 0.280627, 43.904623 ], [ 0.280868, 43.903072 ], [ 0.281012047265072, 43.90307998783355 ], [ 0.288638, 43.901117 ], [ 0.292921, 43.896523 ], [ 0.293249, 43.89605 ], [ 0.286436, 43.89756 ], [ 0.278184, 43.900447 ], [ 0.277902, 43.900477 ], [ 0.276316, 43.900651 ] ] ], [ [ [ 0.446311701906195, 43.913120606565265 ], [ 0.446284, 43.913083 ], [ 0.444534785766927, 43.913456124857419 ], [ 0.44605, 43.913192 ], [ 0.446311701906195, 43.913120606565265 ] ] ], [ [ [ 0.442619, 43.901004 ], [ 0.444949, 43.90119 ], [ 0.446726, 43.898059 ], [ 0.452943, 43.894929 ], [ 0.45366, 43.89473 ], [ 0.454157, 43.89439 ], [ 0.458408, 43.888551 ], [ 0.458721, 43.888104 ], [ 0.459887, 43.88629 ], [ 0.467347, 43.883781 ], [ 0.473343, 43.881535 ], [ 0.472869, 43.881564 ], [ 0.472426, 43.881529 ], [ 0.471205, 43.8813 ], [ 0.47073, 43.881168 ], [ 0.462756, 43.88086 ], [ 0.459843, 43.882663 ], [ 0.453207, 43.887209 ], [ 0.451632, 43.891341 ], [ 0.451133, 43.894906 ], [ 0.448721, 43.895704 ], [ 0.444874, 43.893872 ], [ 0.440334, 43.901129 ], [ 0.439254, 43.901525 ], [ 0.440421, 43.901136 ], [ 0.442619, 43.901004 ] ] ], [ [ [ 0.436528430545256, 43.911978973505796 ], [ 0.441668, 43.913685 ], [ 0.443239, 43.913682 ], [ 0.443374599965848, 43.913658362866158 ], [ 0.437264, 43.90988 ], [ 0.439254, 43.901525 ], [ 0.438859, 43.901639 ], [ 0.434081867757629, 43.905932372015322 ], [ 0.434243144580568, 43.910403210524571 ], [ 0.436528430545256, 43.911978973505796 ] ] ], [ [ [ 0.481861, 43.883898 ], [ 0.482285, 43.883938 ], [ 0.482732, 43.883938 ], [ 0.48311, 43.883909 ], [ 0.485191, 43.883712 ], [ 0.484852, 43.880128 ], [ 0.48662, 43.871326 ], [ 0.485248, 43.867998 ], [ 0.483755, 43.868613 ], [ 0.48017, 43.868656 ], [ 0.474746, 43.865931 ], [ 0.478193, 43.85863 ], [ 0.481196, 43.859318 ], [ 0.481571, 43.858937 ], [ 0.481977, 43.858359 ], [ 0.483377, 43.85557 ], [ 0.480516, 43.847095 ], [ 0.480308, 43.844376 ], [ 0.478769, 43.843965 ], [ 0.476779, 43.843664 ], [ 0.472300287180839, 43.846186693402572 ], [ 0.477722, 43.849053 ], [ 0.478359, 43.849612 ], [ 0.478597, 43.849851 ], [ 0.479675, 43.851348 ], [ 0.477993, 43.858643 ], [ 0.477549, 43.858651 ], [ 0.477088410912707, 43.858633107672617 ], [ 0.477088, 43.858636 ], [ 0.475052, 43.858554 ], [ 0.473494, 43.858478 ], [ 0.472511, 43.858519 ], [ 0.470476, 43.859235 ], [ 0.470069, 43.859349 ], [ 0.468183, 43.867732 ], [ 0.470946, 43.868519 ], [ 0.472114, 43.869269 ], [ 0.472662, 43.869592 ], [ 0.47493, 43.87052 ], [ 0.474062, 43.874014 ], [ 0.474887, 43.880739 ], [ 0.474584, 43.881006 ], [ 0.473917, 43.881389 ], [ 0.473343, 43.881535 ], [ 0.477025, 43.882038 ], [ 0.478792, 43.882793 ], [ 0.481063, 43.883705 ], [ 0.481482, 43.883829 ], [ 0.481861, 43.883898 ] ] ] ] } },
{ "type": "Feature", "properties": { "codgeo": "32459", "value": 840, "isochrone_group": 14.0, "nb_agences": 1 }, "geometry": { "type": "MultiPolygon", "coordinates": [ [ [ [ 0.299529729330922, 43.84142995103047 ], [ 0.299636, 43.841612 ], [ 0.299885, 43.845204 ], [ 0.299205504906757, 43.845835090693733 ], [ 0.303764, 43.84624 ], [ 0.310999, 43.844158 ], [ 0.307589, 43.843837 ], [ 0.306441, 43.840425 ], [ 0.307661, 43.840015 ], [ 0.308059, 43.83991 ], [ 0.308513, 43.839847 ], [ 0.309035, 43.839846 ], [ 0.309443, 43.839891 ], [ 0.311042956297521, 43.839621529899212 ], [ 0.308869, 43.835848 ], [ 0.308046845750932, 43.835742795427819 ], [ 0.30646, 43.837595 ], [ 0.299529729330922, 43.84142995103047 ] ] ], [ [ [ 0.311808, 43.85951 ], [ 0.311441, 43.861009 ], [ 0.310062, 43.864089 ], [ 0.308233, 43.871808 ], [ 0.306816, 43.873784 ], [ 0.308311, 43.877059 ], [ 0.301987, 43.882151 ], [ 0.299939, 43.882092 ], [ 0.294792, 43.880977 ], [ 0.288753, 43.878316 ], [ 0.285618, 43.880086 ], [ 0.287151, 43.886031 ], [ 0.289253, 43.89227 ], [ 0.283866, 43.89694 ], [ 0.281227, 43.897088 ], [ 0.280503, 43.897072 ], [ 0.280045, 43.89714 ], [ 0.279429, 43.897201 ], [ 0.271387, 43.899835 ], [ 0.270429, 43.89987 ], [ 0.264170695551442, 43.90042726673417 ], [ 0.264173, 43.900431 ], [ 0.268424738843396, 43.902179354116875 ], [ 0.276212458505107, 43.900671053584183 ], [ 0.276294, 43.900651 ], [ 0.277902, 43.900477 ], [ 0.285935, 43.89719 ], [ 0.293249, 43.89605 ], [ 0.293698, 43.887101 ], [ 0.295067, 43.883772 ], [ 0.295155806833892, 43.883808470206958 ], [ 0.295156, 43.883808 ], [ 0.296248, 43.884257 ], [ 0.296587, 43.884425 ], [ 0.296926, 43.884632 ], [ 0.297316, 43.884929 ], [ 0.301138, 43.887433 ], [ 0.301138447876159, 43.887433982839354 ], [ 0.30114, 43.887435 ], [ 0.30121, 43.887591 ], [ 0.301359, 43.888556 ], [ 0.301439, 43.891835 ], [ 0.307737, 43.897957 ], [ 0.308123, 43.897887 ], [ 0.314834, 43.896118 ], [ 0.314548, 43.887209 ], [ 0.313875, 43.883672 ], [ 0.312708, 43.876499 ], [ 0.312349, 43.87551 ], [ 0.312211, 43.874964 ], [ 0.312766, 43.873171 ], [ 0.315582, 43.867549 ], [ 0.315316, 43.863959 ], [ 0.316534, 43.858325 ], [ 0.316933, 43.850654 ], [ 0.315528, 43.857858 ], [ 0.313047, 43.858798 ], [ 0.311808, 43.85951 ] ] ], [ [ [ 0.278479, 43.912524 ], [ 0.27938, 43.912213 ], [ 0.27982, 43.912061 ], [ 0.288453, 43.913424 ], [ 0.291643, 43.916363 ], [ 0.292926, 43.916314 ], [ 0.294332864388556, 43.918688952639386 ], [ 0.296222, 43.917274 ], [ 0.293954, 43.913846 ], [ 0.292865, 43.912622 ], [ 0.292856051379822, 43.91260911652553 ], [ 0.292855, 43.912608 ], [ 0.28407, 43.910667 ], [ 0.28363, 43.910733 ], [ 0.281789, 43.910893 ], [ 0.274981, 43.906356 ], [ 0.273018, 43.906249 ], [ 0.270936, 43.906139 ], [ 0.269663240644296, 43.906071722955723 ], [ 0.269663, 43.906072 ], [ 0.269814973826549, 43.909398090299383 ], [ 0.271563, 43.909767 ], [ 0.276974, 43.912469 ], [ 0.277739, 43.912628 ], [ 0.278479, 43.912524 ] ] ], [ [ [ 0.452943, 43.894929 ], [ 0.446726, 43.898059 ], [ 0.444949, 43.90119 ], [ 0.442619, 43.901004 ], [ 0.440421, 43.901136 ], [ 0.439254, 43.901525 ], [ 0.437264, 43.90988 ], [ 0.442691694973312, 43.913236102715032 ], [ 0.446758, 43.911453 ], [ 0.447225, 43.911085 ], [ 0.449106, 43.909399 ], [ 0.450594, 43.906284 ], [ 0.450718, 43.905463 ], [ 0.451069, 43.904795 ], [ 0.451546, 43.904203 ], [ 0.452157, 43.903523 ], [ 0.45215712166853, 43.903523115037558 ], [ 0.452177, 43.903501 ], [ 0.453388159371068, 43.904433291976375 ], [ 0.453337, 43.904042 ], [ 0.453744, 43.900465 ], [ 0.454157, 43.89439 ], [ 0.45366, 43.89473 ], [ 0.452943, 43.894929 ] ] ], [ [ [ 0.491784, 43.887629 ], [ 0.492592, 43.88781 ], [ 0.494508, 43.888247 ], [ 0.495308, 43.884737 ], [ 0.489961, 43.880886 ], [ 0.488562, 43.873216 ], [ 0.495615, 43.868809 ], [ 0.49785, 43.867528 ], [ 0.49606, 43.864405 ], [ 0.493825, 43.865686 ], [ 0.488, 43.866579 ], [ 0.485049, 43.859011 ], [ 0.485819, 43.853942 ], [ 0.486105, 43.853319 ], [ 0.48632, 43.852411 ], [ 0.486439, 43.85155 ], [ 0.482364, 43.846311 ], [ 0.482168758510799, 43.844968072520011 ], [ 0.48067, 43.847079 ], [ 0.480615935867558, 43.847391035119742 ], [ 0.482375851842191, 43.852604347907224 ], [ 0.483556, 43.855326 ], [ 0.481977, 43.858359 ], [ 0.481571, 43.858937 ], [ 0.481196, 43.859318 ], [ 0.481195868700675, 43.85931796991877 ], [ 0.4808, 43.85972 ], [ 0.480101524189222, 43.868621597974865 ], [ 0.48017, 43.868656 ], [ 0.483755, 43.868613 ], [ 0.485248, 43.867998 ], [ 0.48662, 43.871326 ], [ 0.484852, 43.880128 ], [ 0.485191, 43.883712 ], [ 0.484950969837715, 43.883734722701554 ], [ 0.484951, 43.883735 ], [ 0.48311, 43.883909 ], [ 0.482732, 43.883938 ], [ 0.487951, 43.885546 ], [ 0.488777, 43.886074 ], [ 0.490379, 43.887042 ], [ 0.490866, 43.887296 ], [ 0.491297, 43.887474 ], [ 0.491784, 43.887629 ] ] ], [ [ [ 0.476136, 43.88571 ], [ 0.477084, 43.886422 ], [ 0.482732, 43.883938 ], [ 0.482285, 43.883938 ], [ 0.481861, 43.883898 ], [ 0.481482, 43.883829 ], [ 0.481063, 43.883705 ], [ 0.478792, 43.882793 ], [ 0.477025, 43.882038 ], [ 0.473343, 43.881535 ], [ 0.467347, 43.883781 ], [ 0.460587517373743, 43.886054397038784 ], [ 0.459424334064927, 43.887009790742901 ], [ 0.458721, 43.888104 ], [ 0.458408, 43.888551 ], [ 0.458058320565307, 43.889069531490506 ], [ 0.462968, 43.888584 ], [ 0.464327, 43.889062 ], [ 0.464431, 43.889049 ], [ 0.464493, 43.88902 ], [ 0.467372, 43.887672 ], [ 0.476136, 43.88571 ] ] ] ] } },
{ "type": "Feature", "properties": { "codgeo": "32459", "value": 900, "isochrone_group": 15.0, "nb_agences": 1 }, "geometry": { "type": "MultiPolygon", "coordinates": [ [ [ [ 0.309106762820152, 43.84481640665453 ], [ 0.30869543695024, 43.844820891260468 ], [ 0.303953273756967, 43.846185533108233 ], [ 0.303527, 43.846537 ], [ 0.30334, 43.846725 ], [ 0.301003128718813, 43.849431813791924 ], [ 0.302203, 43.84896 ], [ 0.304409, 43.846451 ], [ 0.309106762820152, 43.84481640665453 ] ] ], [ [ [ 0.314371287966322, 43.858296254458551 ], [ 0.315528, 43.857858 ], [ 0.316933, 43.850654 ], [ 0.314371287966322, 43.858296254458551 ] ] ], [ [ [ 0.305358, 43.864348 ], [ 0.304324, 43.86464 ], [ 0.30221, 43.872521 ], [ 0.298738, 43.878279 ], [ 0.297754, 43.878779 ], [ 0.297125, 43.879012 ], [ 0.289407, 43.875229 ], [ 0.286968, 43.872581 ], [ 0.282658, 43.870311 ], [ 0.279197, 43.871303 ], [ 0.279442, 43.872154 ], [ 0.278843, 43.880796 ], [ 0.27939, 43.884354 ], [ 0.28248, 43.891087 ], [ 0.276085, 43.895047 ], [ 0.275012, 43.895238 ], [ 0.274005, 43.895356 ], [ 0.273651, 43.897098 ], [ 0.271284699856357, 43.899838737479158 ], [ 0.271387, 43.899835 ], [ 0.279429, 43.897201 ], [ 0.280045, 43.89714 ], [ 0.280503, 43.897072 ], [ 0.281227, 43.897088 ], [ 0.283866, 43.89694 ], [ 0.289249, 43.89227 ], [ 0.287143, 43.886031 ], [ 0.287042545212754, 43.885610410495637 ], [ 0.285618, 43.880086 ], [ 0.285647930491794, 43.880069101444832 ], [ 0.285435, 43.879627 ], [ 0.285409, 43.87952 ], [ 0.28821, 43.877697 ], [ 0.294831, 43.880955 ], [ 0.301987, 43.882151 ], [ 0.308311, 43.877059 ], [ 0.306816, 43.873784 ], [ 0.308233, 43.871808 ], [ 0.310062, 43.864089 ], [ 0.311135513495941, 43.861691304882164 ], [ 0.308425, 43.864215 ], [ 0.306397, 43.864293 ], [ 0.305879, 43.864272 ], [ 0.305358, 43.864348 ] ] ], [ [ [ 0.457213, 43.921169 ], [ 0.461502098027756, 43.915534790078269 ], [ 0.461470178807891, 43.915527235193736 ], [ 0.457191, 43.92112 ], [ 0.457193869659866, 43.921247119360324 ], [ 0.457213, 43.921169 ] ] ], [ [ [ 0.465264, 43.88997 ], [ 0.466767267380169, 43.887955146777188 ], [ 0.464493, 43.88902 ], [ 0.464431, 43.889049 ], [ 0.456783, 43.892614 ], [ 0.45619, 43.893386 ], [ 0.455734, 43.893991 ], [ 0.455616270700366, 43.894075723513659 ], [ 0.461256, 43.899797 ], [ 0.461705, 43.900518 ], [ 0.461349443403616, 43.902322120507577 ], [ 0.462199541107095, 43.904065009500641 ], [ 0.463691367422237, 43.90500660073792 ], [ 0.463496, 43.903092 ], [ 0.463134, 43.89951 ], [ 0.464232, 43.892673 ], [ 0.464502, 43.891804 ], [ 0.464989, 43.89068 ], [ 0.465264, 43.88997 ] ] ], [ [ [ 0.501227, 43.867245 ], [ 0.502938, 43.867386 ], [ 0.503375, 43.867398 ], [ 0.505272, 43.867421 ], [ 0.507219, 43.866321 ], [ 0.507734, 43.866097 ], [ 0.508091, 43.865857 ], [ 0.50872, 43.865165 ], [ 0.508998, 43.8644 ], [ 0.508984, 43.864305 ], [ 0.505912, 43.862492 ], [ 0.499153, 43.861327 ], [ 0.495696, 43.860322 ], [ 0.49009, 43.856836 ], [ 0.488345, 43.850984 ], [ 0.488255, 43.847385 ], [ 0.488317159677694, 43.846579682127903 ], [ 0.486507, 43.851514 ], [ 0.48632, 43.852411 ], [ 0.486105, 43.853319 ], [ 0.486494, 43.858772 ], [ 0.486497, 43.858859 ], [ 0.488, 43.866579 ], [ 0.493825, 43.865686 ], [ 0.49606, 43.864405 ], [ 0.49785, 43.867528 ], [ 0.497649840745527, 43.867642722149881 ], [ 0.49765, 43.867643 ], [ 0.495615, 43.868809 ], [ 0.488562, 43.873216 ], [ 0.489961, 43.880886 ], [ 0.492673379355351, 43.882839501570494 ], [ 0.492416, 43.874578 ], [ 0.493568, 43.873972 ], [ 0.493709, 43.87371 ], [ 0.493857, 43.873367 ], [ 0.493975, 43.872867 ], [ 0.500718, 43.867274 ], [ 0.501227, 43.867245 ] ] ], [ [ [ 0.491069, 43.890445 ], [ 0.491558, 43.890355 ], [ 0.492175, 43.890183 ], [ 0.492468, 43.890079 ], [ 0.498335, 43.889346 ], [ 0.501696, 43.890855 ], [ 0.503775, 43.891696 ], [ 0.504023, 43.891656 ], [ 0.504317, 43.891541 ], [ 0.504631, 43.891241 ], [ 0.504817, 43.889061 ], [ 0.504481, 43.888085 ], [ 0.502607, 43.885979 ], [ 0.501684, 43.885091 ], [ 0.496426, 43.885 ], [ 0.494521693696303, 43.88417068887685 ], [ 0.495308, 43.884737 ], [ 0.494508, 43.888247 ], [ 0.492592, 43.88781 ], [ 0.491784, 43.887629 ], [ 0.491297, 43.887474 ], [ 0.490866, 43.887296 ], [ 0.490379, 43.887042 ], [ 0.488777, 43.886074 ], [ 0.487951, 43.885546 ], [ 0.482732, 43.883938 ], [ 0.477090825458513, 43.886418998151733 ], [ 0.477678, 43.886855 ], [ 0.478564, 43.887155 ], [ 0.480084, 43.887256 ], [ 0.482293, 43.886766 ], [ 0.489198, 43.889082 ], [ 0.491035, 43.890448 ], [ 0.491069, 43.890445 ] ] ] ] } },
{ "type": "Feature", "properties": { "codgeo": "32459", "value": 960, "isochrone_group": 16.0, "nb_agences": 1 }, "geometry": { "type": "MultiPolygon", "coordinates": [ [ [ [ 0.279195064410622, 43.87129269460857 ], [ 0.279172, 43.871214 ], [ 0.279160646978038, 43.871173280494553 ], [ 0.279168, 43.871201 ], [ 0.279194416822696, 43.87129288040888 ], [ 0.279195064410622, 43.87129269460857 ] ] ], [ [ [ 0.297125, 43.879012 ], [ 0.297754, 43.878779 ], [ 0.298732, 43.878272 ], [ 0.298743886766719, 43.878269237326371 ], [ 0.30221, 43.872521 ], [ 0.304324, 43.86464 ], [ 0.305358, 43.864348 ], [ 0.305879, 43.864272 ], [ 0.306397, 43.864293 ], [ 0.308425, 43.864215 ], [ 0.314185, 43.858852 ], [ 0.316933, 43.850654 ], [ 0.311417758616338, 43.844616418599891 ], [ 0.309997875894582, 43.844506342575684 ], [ 0.305422492057245, 43.846098353977673 ], [ 0.304608, 43.847546 ], [ 0.300809, 43.854465 ], [ 0.297428, 43.855701 ], [ 0.292543, 43.861984 ], [ 0.292923, 43.864063 ], [ 0.292624, 43.864176 ], [ 0.291278, 43.864663 ], [ 0.290977, 43.864753 ], [ 0.284752, 43.866048 ], [ 0.28428105072264, 43.871152295594847 ], [ 0.286982, 43.872568 ], [ 0.289421, 43.875216 ], [ 0.297125, 43.879012 ] ] ], [ [ [ 0.273998, 43.895357 ], [ 0.274004962839755, 43.895356182861981 ], [ 0.274005, 43.895356 ], [ 0.275012, 43.895238 ], [ 0.276085895157644, 43.895046445688173 ], [ 0.276937013557223, 43.894519404427427 ], [ 0.282471616620874, 43.891068732915315 ], [ 0.28191892680865, 43.889864441489543 ], [ 0.279366, 43.884358 ], [ 0.278819, 43.8808 ], [ 0.279249037536445, 43.874831934927577 ], [ 0.276739, 43.881003 ], [ 0.274743, 43.88102 ], [ 0.274728729953355, 43.881021530410798 ], [ 0.27473, 43.881022 ], [ 0.276796, 43.886624 ], [ 0.27707, 43.88736 ], [ 0.276838, 43.889789 ], [ 0.276720764430326, 43.889940282144487 ], [ 0.27806, 43.891572 ], [ 0.272885941668531, 43.895024150984852 ], [ 0.273601884216178, 43.897134457022602 ], [ 0.273647, 43.897082 ], [ 0.273998, 43.895357 ] ] ], [ [ [ 0.464667, 43.892047 ], [ 0.464989, 43.89068 ], [ 0.464502, 43.891804 ], [ 0.464232, 43.892673 ], [ 0.463441353899312, 43.89759617612971 ], [ 0.468198, 43.89861 ], [ 0.468702, 43.898564 ], [ 0.470066, 43.898551 ], [ 0.470423, 43.898553 ], [ 0.470405, 43.902153 ], [ 0.473609174040996, 43.905012823019817 ], [ 0.474517, 43.900422 ], [ 0.474483, 43.900214 ], [ 0.473594, 43.899019 ], [ 0.473019, 43.898928 ], [ 0.471961, 43.898787 ], [ 0.471124, 43.898625 ], [ 0.470618, 43.898563 ], [ 0.464667, 43.892047 ] ] ], [ [ [ 0.511424, 43.864221 ], [ 0.509747, 43.863896 ], [ 0.510432, 43.860361 ], [ 0.512833, 43.859639 ], [ 0.513021443348844, 43.859292136140695 ], [ 0.507903, 43.859584 ], [ 0.506547, 43.859664 ], [ 0.498547, 43.856276 ], [ 0.492968, 43.850097 ], [ 0.493398, 43.848685 ], [ 0.49333, 43.848518 ], [ 0.492691, 43.847815 ], [ 0.491695, 43.846976 ], [ 0.492490835828, 43.840315183483852 ], [ 0.488694490214184, 43.84169112678142 ], [ 0.488580655108045, 43.843165932456863 ], [ 0.48978, 43.847395 ], [ 0.489738, 43.850995 ], [ 0.490533, 43.856702 ], [ 0.495373973589876, 43.860121753109929 ], [ 0.495696, 43.860322 ], [ 0.499153, 43.861327 ], [ 0.505912, 43.862492 ], [ 0.508163717735209, 43.86382089461393 ], [ 0.509023, 43.864179 ], [ 0.508998, 43.8644 ], [ 0.50872, 43.865165 ], [ 0.508091, 43.865857 ], [ 0.507734, 43.866097 ], [ 0.507219, 43.866321 ], [ 0.505272, 43.867421 ], [ 0.503375, 43.867398 ], [ 0.502938, 43.867386 ], [ 0.506407, 43.869248 ], [ 0.507029, 43.869859 ], [ 0.509553, 43.867293 ], [ 0.513383379715766, 43.864183495408774 ], [ 0.513156, 43.864195 ], [ 0.512749, 43.864258 ], [ 0.512277, 43.864283 ], [ 0.511831, 43.864269 ], [ 0.511424, 43.864221 ] ] ], [ [ [ 0.493755344550057, 43.87360259337386 ], [ 0.493709, 43.87371 ], [ 0.493611649618896, 43.873890892197508 ], [ 0.492466190922509, 43.876189055341101 ], [ 0.49269, 43.883373 ], [ 0.495779, 43.87583 ], [ 0.497133, 43.872495 ], [ 0.502938, 43.867386 ], [ 0.501227, 43.867245 ], [ 0.500718, 43.867274 ], [ 0.493975, 43.872867 ], [ 0.493857, 43.873367 ], [ 0.4938, 43.873513 ], [ 0.493755344550057, 43.87360259337386 ] ] ], [ [ [ 0.515301, 43.894111 ], [ 0.515039, 43.890521 ], [ 0.512063, 43.885268 ], [ 0.510937, 43.884286 ], [ 0.504913, 43.881397 ], [ 0.501932, 43.883192 ], [ 0.496426, 43.885 ], [ 0.501684, 43.885091 ], [ 0.502607, 43.885979 ], [ 0.504481, 43.888085 ], [ 0.504817, 43.889061 ], [ 0.504631, 43.891241 ], [ 0.504317, 43.891541 ], [ 0.504023, 43.891656 ], [ 0.503775, 43.891696 ], [ 0.502045, 43.891142 ], [ 0.501503, 43.890937 ], [ 0.501026, 43.890663 ], [ 0.492468, 43.890079 ], [ 0.492175, 43.890183 ], [ 0.491558, 43.890355 ], [ 0.491327, 43.890406 ], [ 0.491316856408851, 43.890399382256049 ], [ 0.491069, 43.890445 ], [ 0.491035, 43.890448 ], [ 0.489198, 43.889082 ], [ 0.482293, 43.886766 ], [ 0.480084, 43.887256 ], [ 0.478564, 43.887155 ], [ 0.477678, 43.886855 ], [ 0.479022, 43.888534 ], [ 0.479645, 43.88901 ], [ 0.482027, 43.890189 ], [ 0.482132, 43.890183 ], [ 0.487077, 43.890918 ], [ 0.494868, 43.895063 ], [ 0.501218, 43.895881 ], [ 0.509808, 43.895711 ], [ 0.515301, 43.894111 ] ] ] ] } },
{ "type": "Feature", "properties": { "codgeo": "32459", "value": 1020, "isochrone_group": 17.0, "nb_agences": 1 }, "geometry": { "type": "MultiPolygon", "coordinates": [ [ [ [ 0.279470594121503, 43.872232788118978 ], [ 0.279442, 43.872154 ], [ 0.279168, 43.871201 ], [ 0.273207, 43.877673 ], [ 0.272982, 43.877741 ], [ 0.27349, 43.877612 ], [ 0.275198, 43.877122 ], [ 0.27569, 43.87706 ], [ 0.276064, 43.877029 ], [ 0.27812848535175, 43.877586873986623 ], [ 0.279919086330773, 43.873184583184269 ], [ 0.279782, 43.872919 ], [ 0.27968858273848, 43.87272064828035 ], [ 0.279581, 43.872537 ], [ 0.279510156376672, 43.872341797786085 ], [ 0.27949, 43.872299 ], [ 0.279470594121503, 43.872232788118978 ] ] ], [ [ [ 0.506918, 43.90079 ], [ 0.509707, 43.898493 ], [ 0.514229542540038, 43.895053363839786 ], [ 0.51326762341035, 43.894703281548054 ], [ 0.509808, 43.895711 ], [ 0.501218, 43.895881 ], [ 0.494868, 43.895063 ], [ 0.487077, 43.890918 ], [ 0.482132, 43.890183 ], [ 0.482027, 43.890189 ], [ 0.479645, 43.88901 ], [ 0.479022, 43.888534 ], [ 0.477678, 43.886855 ], [ 0.476136, 43.88571 ], [ 0.468176, 43.886067 ], [ 0.465264, 43.88997 ], [ 0.464989, 43.89068 ], [ 0.464667, 43.892047 ], [ 0.466538553489699, 43.894096242570797 ], [ 0.470981073322152, 43.89691046593925 ], [ 0.471318675442561, 43.897123532928482 ], [ 0.472135, 43.897464 ], [ 0.477644, 43.897574 ], [ 0.478253, 43.897482 ], [ 0.479785, 43.897241 ], [ 0.480676, 43.900729 ], [ 0.481991724645679, 43.904687047694438 ], [ 0.48234, 43.899692 ], [ 0.483903, 43.898868 ], [ 0.487616, 43.897448 ], [ 0.490291, 43.8972 ], [ 0.496753, 43.898607 ], [ 0.504734, 43.898263 ], [ 0.506386, 43.900049 ], [ 0.506661, 43.900485 ], [ 0.506918, 43.90079 ] ] ], [ [ [ 0.509499, 43.871151 ], [ 0.511096, 43.870792 ], [ 0.512858100118144, 43.866700787349458 ], [ 0.510653220187772, 43.866399840580009 ], [ 0.509553, 43.867293 ], [ 0.507029, 43.869859 ], [ 0.506407, 43.869248 ], [ 0.502941995173694, 43.867388144425895 ], [ 0.502935969886831, 43.867387786709436 ], [ 0.497133, 43.872495 ], [ 0.495779, 43.87583 ], [ 0.49269, 43.883373 ], [ 0.496426, 43.885 ], [ 0.501932, 43.883192 ], [ 0.504913, 43.881397 ], [ 0.510937, 43.884286 ], [ 0.512063, 43.885268 ], [ 0.514804145154968, 43.890106452788665 ], [ 0.516527, 43.889665 ], [ 0.520115, 43.889375 ], [ 0.526117797894207, 43.889366710114913 ], [ 0.51888, 43.884522 ], [ 0.51898, 43.881622 ], [ 0.516408, 43.879104 ], [ 0.51229, 43.880072 ], [ 0.506168, 43.878039 ], [ 0.509499, 43.871151 ] ] ], [ [ [ 0.520988148934787, 43.861444638584608 ], [ 0.520907, 43.861447 ], [ 0.520874703735914, 43.861590713748207 ], [ 0.520988148934787, 43.861444638584608 ] ] ], [ [ [ 0.502926, 43.85527 ], [ 0.502329, 43.855052 ], [ 0.496977, 43.847849 ], [ 0.496805814661589, 43.844716711527347 ], [ 0.49333, 43.848518 ], [ 0.49543657983156, 43.852831066101295 ], [ 0.498547, 43.856276 ], [ 0.506547, 43.859664 ], [ 0.507903, 43.859584 ], [ 0.508128696170701, 43.859571130353707 ], [ 0.508315626652077, 43.859277118808961 ], [ 0.502926, 43.85527 ] ] ] ] } },
{ "type": "Feature", "properties": { "codgeo": "32459", "value": 1080, "isochrone_group": 18.0, "nb_agences": 1 }, "geometry": { "type": "MultiPolygon", "coordinates": [ [ [ [ 0.271903, 43.862873 ], [ 0.272859, 43.862897 ], [ 0.27190302415857, 43.862872044807361 ], [ 0.271903, 43.862873 ] ] ], [ [ [ 0.272859, 43.862897 ], [ 0.278861, 43.869519 ], [ 0.27888176207355, 43.869401117560166 ], [ 0.278883, 43.869332 ], [ 0.272859, 43.862897 ] ] ], [ [ [ 0.278861, 43.869519 ], [ 0.273324, 43.87619 ], [ 0.273320699383936, 43.876191675713194 ], [ 0.274584518508818, 43.876177395271093 ], [ 0.279168, 43.871201 ], [ 0.279160646978038, 43.871173280494553 ], [ 0.278947, 43.870407 ], [ 0.278921903856564, 43.870273263972479 ], [ 0.278903, 43.870202 ], [ 0.278900304143505, 43.870158160238411 ], [ 0.278871, 43.870002 ], [ 0.278875443857331, 43.869753884632331 ], [ 0.278861, 43.869519 ] ] ], [ [ [ 0.487159, 43.90732 ], [ 0.487859, 43.907542 ], [ 0.488893275364294, 43.908060492775967 ], [ 0.49284, 43.901394 ], [ 0.494061, 43.900515 ], [ 0.494762, 43.900064 ], [ 0.496011, 43.899063 ], [ 0.496703171671412, 43.898596150656402 ], [ 0.490291, 43.8972 ], [ 0.486944, 43.89824 ], [ 0.486886195258053, 43.89826188005577 ], [ 0.486777, 43.89831 ], [ 0.486282, 43.906933 ], [ 0.487159, 43.90732 ] ] ], [ [ [ 0.50766, 43.904803 ], [ 0.511259, 43.904749 ], [ 0.516985627708399, 43.901227513322098 ], [ 0.515873, 43.898148 ], [ 0.512065665710373, 43.896699108224439 ], [ 0.509707, 43.898493 ], [ 0.506918, 43.90079 ], [ 0.506661, 43.900485 ], [ 0.506454754738518, 43.900158007512708 ], [ 0.506445, 43.900163 ], [ 0.504712753012251, 43.898263915795503 ], [ 0.504683354007302, 43.898265182962227 ], [ 0.506879, 43.902001 ], [ 0.50766, 43.904803 ] ] ], [ [ [ 0.507777944301073, 43.874709880712771 ], [ 0.506168, 43.878039 ], [ 0.51229, 43.880072 ], [ 0.516408, 43.879104 ], [ 0.516408252427168, 43.879104247127366 ], [ 0.516431, 43.879081 ], [ 0.515838412873585, 43.875670727298342 ], [ 0.514348, 43.875465 ], [ 0.509573, 43.875695 ], [ 0.507777944301073, 43.874709880712771 ] ] ] ] } },
{ "type": "Feature", "properties": { "codgeo": "32459", "value": 1140, "isochrone_group": 19.0, "nb_agences": 1 }, "geometry": { "type": "MultiPolygon", "coordinates": [ [ [ [ 0.488893275364294, 43.908060492775967 ], [ 0.493965, 43.910603 ], [ 0.494139, 43.910606 ], [ 0.498645934652183, 43.912932312407591 ], [ 0.50106285460173, 43.912497280379625 ], [ 0.506304, 43.908029 ], [ 0.505958, 43.905711 ], [ 0.505508, 43.904518 ], [ 0.504628, 43.898171 ], [ 0.497611, 43.897943 ], [ 0.496908, 43.898458 ], [ 0.496011, 43.899063 ], [ 0.494762, 43.900064 ], [ 0.494061, 43.900515 ], [ 0.49284, 43.901394 ], [ 0.488893275364294, 43.908060492775967 ] ] ], [ [ [ 0.506417, 43.873963 ], [ 0.509573, 43.875695 ], [ 0.51363118262275, 43.875499527329168 ], [ 0.513625, 43.875454 ], [ 0.508623, 43.871194 ], [ 0.507964, 43.870983 ], [ 0.50700129099515, 43.870473225536919 ], [ 0.506417, 43.873963 ] ] ] ] } },
{ "type": "Feature", "properties": { "codgeo": "32459", "value": 1200, "isochrone_group": 20.0, "nb_agences": 1 }, "geometry": { "type": "Polygon", "coordinates": [ [ [ 0.271656, 43.866096 ], [ 0.274649098651593, 43.864872013873857 ], [ 0.273774389345054, 43.86390694805781 ], [ 0.271415273863742, 43.865742321685154 ], [ 0.271656, 43.866096 ] ] ] } }
]
}
