{
"type": "FeatureCollection",
"name": "Credit_Agricole",
"crs": { "type": "name", "properties": { "name": "urn:ogc:def:crs:OGC:1.3:CRS84" } },
"features": [
{ "type": "Feature", "properties": { "codgeo": "34074", "value": 60, "isochrone_group": 1.0, "nb_agences": 1 }, "geometry": { "type": "Polygon", "coordinates": [ [ [ 3.04404, 43.449253 ], [ 3.048273, 43.447981 ], [ 3.051002, 43.448579 ], [ 3.051077, 43.448931 ], [ 3.050334, 43.451276 ], [ 3.050042, 43.451486 ], [ 3.046279, 43.453342 ], [ 3.045824, 43.453209 ], [ 3.045617, 43.453103 ], [ 3.043899, 43.449584 ], [ 3.04404, 43.449253 ] ] ] } },
{ "type": "Feature", "properties": { "codgeo": "34074", "value": 120, "isochrone_group": 2.0, "nb_agences": 1 }, "geometry": { "type": "Polygon", "coordinates": [ [ [ 3.045671, 43.446986 ], [ 3.045319, 43.446908 ], [ 3.039767, 43.448951 ], [ 3.039585, 43.448943 ], [ 3.039034, 43.448904 ], [ 3.038639, 43.448871 ], [ 3.035502, 43.44841 ], [ 3.035355, 43.448739 ], [ 3.035559, 43.450828 ], [ 3.035724, 43.451148 ], [ 3.036061, 43.450974 ], [ 3.036399, 43.450801 ], [ 3.036946, 43.450437 ], [ 3.037475, 43.450083 ], [ 3.039751, 43.449311 ], [ 3.040524, 43.449299 ], [ 3.043997, 43.453756 ], [ 3.044028, 43.454046 ], [ 3.044818, 43.454661 ], [ 3.048713, 43.458915 ], [ 3.048534, 43.459811 ], [ 3.048887, 43.459881 ], [ 3.05147, 43.457406 ], [ 3.05165, 43.457095 ], [ 3.052833, 43.452504 ], [ 3.054943, 43.449758 ], [ 3.055888, 43.448277 ], [ 3.055813, 43.447925 ], [ 3.054246, 43.447777 ], [ 3.053886, 43.447784 ], [ 3.048525314781981, 43.448036289204687 ], [ 3.051002, 43.448579 ], [ 3.051077, 43.448931 ], [ 3.050334, 43.451276 ], [ 3.050042, 43.451486 ], [ 3.046279, 43.453342 ], [ 3.045824, 43.453209 ], [ 3.045617, 43.453103 ], [ 3.043899, 43.449584 ], [ 3.04404, 43.449253 ], [ 3.04804503287124, 43.448049503233598 ], [ 3.045671, 43.446986 ] ] ] } },
{ "type": "Feature", "properties": { "codgeo": "34074", "value": 180, "isochrone_group": 3.0, "nb_agences": 1 }, "geometry": { "type": "Polygon", "coordinates": [ [ [ 3.046858, 43.442855 ], [ 3.046597, 43.442606 ], [ 3.041623, 43.443383 ], [ 3.041311, 43.443563 ], [ 3.033221, 43.446768 ], [ 3.032791, 43.446771 ], [ 3.031739, 43.446787 ], [ 3.024359, 43.448126 ], [ 3.024307, 43.448482 ], [ 3.027295, 43.45688 ], [ 3.027577, 43.457103 ], [ 3.028551, 43.456251 ], [ 3.032009, 43.452854 ], [ 3.033333, 43.452233 ], [ 3.04107, 43.454036 ], [ 3.042279, 43.455082 ], [ 3.045381, 43.461733 ], [ 3.046896, 43.46412 ], [ 3.047778, 43.465235 ], [ 3.051603, 43.466313 ], [ 3.051917, 43.466138 ], [ 3.053461, 43.459222 ], [ 3.056562, 43.457795 ], [ 3.056839, 43.457756 ], [ 3.057084, 43.457665 ], [ 3.058125, 43.449381 ], [ 3.064039, 43.444931 ], [ 3.064612, 43.444787 ], [ 3.064979, 43.444702 ], [ 3.064898, 43.444351 ], [ 3.064531, 43.444436 ], [ 3.064164, 43.444522 ], [ 3.063941, 43.444584 ], [ 3.063727, 43.444645 ], [ 3.056939, 43.445953 ], [ 3.056754, 43.446123 ], [ 3.056569, 43.446292 ], [ 3.05515, 43.447459 ], [ 3.054355655126576, 43.447787356706279 ], [ 3.055813, 43.447925 ], [ 3.055888, 43.448277 ], [ 3.054943, 43.449758 ], [ 3.052833, 43.452504 ], [ 3.05165, 43.457095 ], [ 3.05147, 43.457406 ], [ 3.048887, 43.459881 ], [ 3.048534, 43.459811 ], [ 3.048713, 43.458915 ], [ 3.044818, 43.454661 ], [ 3.044028, 43.454046 ], [ 3.043997, 43.453756 ], [ 3.040524, 43.449299 ], [ 3.039751, 43.449311 ], [ 3.037475, 43.450083 ], [ 3.036946, 43.450437 ], [ 3.036399, 43.450801 ], [ 3.036061, 43.450974 ], [ 3.035724, 43.451148 ], [ 3.035559, 43.450828 ], [ 3.035355, 43.448739 ], [ 3.035502, 43.44841 ], [ 3.038639, 43.448871 ], [ 3.039034, 43.448904 ], [ 3.039585, 43.448943 ], [ 3.039767, 43.448951 ], [ 3.045319, 43.446908 ], [ 3.045671, 43.446986 ], [ 3.048064, 43.448058 ], [ 3.053245912335417, 43.44781412435934 ], [ 3.046858, 43.442855 ] ] ] } },
{ "type": "Feature", "properties": { "codgeo": "34074", "value": 240, "isochrone_group": 4.0, "nb_agences": 1 }, "geometry": { "type": "Polygon", "coordinates": [ [ [ 3.058877, 43.444445 ], [ 3.058536, 43.44433 ], [ 3.058044, 43.444168 ], [ 3.05534, 43.44458 ], [ 3.048161, 43.439988 ], [ 3.048356, 43.438849 ], [ 3.048134, 43.438566 ], [ 3.04616, 43.438831 ], [ 3.037473, 43.440523 ], [ 3.030545, 43.443137 ], [ 3.022638, 43.445602 ], [ 3.022301, 43.445728 ], [ 3.013876, 43.447966 ], [ 3.013352, 43.447826 ], [ 3.012836, 43.447666 ], [ 3.01232, 43.447505 ], [ 3.012213, 43.447849 ], [ 3.01273, 43.448009 ], [ 3.013246, 43.44817 ], [ 3.013783, 43.448314 ], [ 3.014313, 43.448457 ], [ 3.015148, 43.448639 ], [ 3.015975, 43.44882 ], [ 3.021354, 43.455797 ], [ 3.021447, 43.456145 ], [ 3.021905, 43.46025 ], [ 3.022008, 43.460595 ], [ 3.026087, 43.46606 ], [ 3.026482, 43.465989 ], [ 3.026621, 43.465941 ], [ 3.026812, 43.465847 ], [ 3.026747, 43.465694 ], [ 3.025869, 43.463592 ], [ 3.029287, 43.456248 ], [ 3.029419, 43.45616 ], [ 3.037037, 43.454292 ], [ 3.038969, 43.455597 ], [ 3.041972, 43.457904 ], [ 3.044028, 43.46587 ], [ 3.043857, 43.467376 ], [ 3.044133, 43.467608 ], [ 3.050094, 43.469465 ], [ 3.050399, 43.469573 ], [ 3.050589, 43.469577 ], [ 3.059434, 43.468092 ], [ 3.059512, 43.46774 ], [ 3.058607, 43.467253 ], [ 3.056425, 43.460072 ], [ 3.062426, 43.456534 ], [ 3.062607, 43.456223 ], [ 3.062493, 43.456156 ], [ 3.060235, 43.450815 ], [ 3.065751, 43.447478 ], [ 3.066976, 43.447237 ], [ 3.068899, 43.445095 ], [ 3.072351, 43.439308 ], [ 3.072142, 43.439015 ], [ 3.07163, 43.438476 ], [ 3.071388, 43.438392 ], [ 3.07128, 43.43839 ], [ 3.067301, 43.440179 ], [ 3.067021, 43.440405 ], [ 3.063727, 43.444645 ], [ 3.058877, 43.444445 ] ], [ [ 3.063941, 43.444584 ], [ 3.064164, 43.444522 ], [ 3.064531, 43.444436 ], [ 3.064898, 43.444351 ], [ 3.064979, 43.444702 ], [ 3.064612, 43.444787 ], [ 3.064039, 43.444931 ], [ 3.058125, 43.449381 ], [ 3.057084, 43.457665 ], [ 3.056839, 43.457756 ], [ 3.056562, 43.457795 ], [ 3.053461, 43.459222 ], [ 3.051917, 43.466138 ], [ 3.051603, 43.466313 ], [ 3.047778, 43.465235 ], [ 3.046896, 43.46412 ], [ 3.045381, 43.461733 ], [ 3.042279, 43.455082 ], [ 3.04107, 43.454036 ], [ 3.033333, 43.452233 ], [ 3.032009, 43.452854 ], [ 3.028551, 43.456251 ], [ 3.027577, 43.457103 ], [ 3.027295, 43.45688 ], [ 3.024307, 43.448482 ], [ 3.024359, 43.448126 ], [ 3.031739, 43.446787 ], [ 3.032791, 43.446771 ], [ 3.033221, 43.446768 ], [ 3.041311, 43.443563 ], [ 3.041623, 43.443383 ], [ 3.046597, 43.442606 ], [ 3.046858, 43.442855 ], [ 3.053609, 43.448096 ], [ 3.05515, 43.447459 ], [ 3.056569, 43.446292 ], [ 3.056754, 43.446123 ], [ 3.056939, 43.445953 ], [ 3.063727, 43.444645 ], [ 3.063941, 43.444584 ] ] ] } },
{ "type": "Feature", "properties": { "codgeo": "34074", "value": 300, "isochrone_group": 5.0, "nb_agences": 1 }, "geometry": { "type": "MultiPolygon", "coordinates": [ [ [ [ 3.06098, 43.469834 ], [ 3.061244, 43.470013 ], [ 3.061509, 43.470191 ], [ 3.066523, 43.472205 ], [ 3.066763, 43.472311 ], [ 3.067314, 43.472496 ], [ 3.067865, 43.472681 ], [ 3.06798, 43.472339 ], [ 3.066171, 43.469702 ], [ 3.064046, 43.46619 ], [ 3.066866, 43.458473 ], [ 3.067877, 43.453208 ], [ 3.068336, 43.448228 ], [ 3.071434, 43.444372 ], [ 3.073872, 43.441926 ], [ 3.074122, 43.441667 ], [ 3.08185, 43.43726 ], [ 3.081833, 43.4369 ], [ 3.079997, 43.433818 ], [ 3.07966, 43.433693 ], [ 3.073874, 43.435546 ], [ 3.067225, 43.43564 ], [ 3.064821, 43.435128 ], [ 3.064615, 43.435081 ], [ 3.064398, 43.435032 ], [ 3.061854, 43.43432 ], [ 3.061701, 43.434646 ], [ 3.058808, 43.44293 ], [ 3.05215, 43.438478 ], [ 3.048448, 43.436387 ], [ 3.047824, 43.43589 ], [ 3.047189, 43.435385 ], [ 3.046948, 43.435222 ], [ 3.046706, 43.435059 ], [ 3.040679, 43.436854 ], [ 3.036926, 43.440561 ], [ 3.028902, 43.44122 ], [ 3.021752, 43.442993 ], [ 3.018685, 43.445255 ], [ 3.009862, 43.446694 ], [ 3.009613, 43.446661 ], [ 3.009354, 43.446626 ], [ 3.004144, 43.44515 ], [ 3.000215, 43.44415 ], [ 3.000065, 43.444477 ], [ 3.000681, 43.444761 ], [ 3.001297, 43.445045 ], [ 3.001876, 43.445304 ], [ 3.002081, 43.445395 ], [ 3.003103, 43.445649 ], [ 3.004742, 43.446105 ], [ 3.006308, 43.446444 ], [ 3.007024, 43.446627 ], [ 3.008379, 43.446921 ], [ 3.008942, 43.446955 ], [ 3.010771, 43.447318 ], [ 3.011482, 43.44758 ], [ 3.012201, 43.447845 ], [ 3.012213075338469, 43.447848757790346 ], [ 3.01232, 43.447505 ], [ 3.012836, 43.447666 ], [ 3.013352, 43.447826 ], [ 3.013876, 43.447966 ], [ 3.022301, 43.445728 ], [ 3.022638, 43.445602 ], [ 3.030545, 43.443137 ], [ 3.037473, 43.440523 ], [ 3.04616, 43.438831 ], [ 3.048134, 43.438566 ], [ 3.048356, 43.438849 ], [ 3.048161, 43.439988 ], [ 3.05534, 43.44458 ], [ 3.058044, 43.444168 ], [ 3.058536, 43.44433 ], [ 3.058877, 43.444445 ], [ 3.063727, 43.444645 ], [ 3.067021, 43.440405 ], [ 3.067301, 43.440179 ], [ 3.07128, 43.43839 ], [ 3.071388, 43.438392 ], [ 3.07163, 43.438476 ], [ 3.072142, 43.439015 ], [ 3.072351, 43.439308 ], [ 3.068899, 43.445095 ], [ 3.066976, 43.447237 ], [ 3.065751, 43.447478 ], [ 3.060235, 43.450815 ], [ 3.062493, 43.456156 ], [ 3.062607, 43.456223 ], [ 3.062426, 43.456534 ], [ 3.056425, 43.460072 ], [ 3.058607, 43.467253 ], [ 3.059512, 43.46774 ], [ 3.059434, 43.468092 ], [ 3.054053863694096, 43.468995278961479 ], [ 3.06098, 43.469834 ] ] ], [ [ [ 3.036453, 43.456392 ], [ 3.040141, 43.459678 ], [ 3.040314, 43.459994 ], [ 3.042116, 43.468102 ], [ 3.043947, 43.470095 ], [ 3.044078, 43.470255 ], [ 3.045164, 43.471173 ], [ 3.046208, 43.471624 ], [ 3.048721, 43.470552 ], [ 3.050589, 43.469577 ], [ 3.050399, 43.469573 ], [ 3.050094, 43.469465 ], [ 3.044133, 43.467608 ], [ 3.043857, 43.467376 ], [ 3.044028, 43.46587 ], [ 3.041972, 43.457904 ], [ 3.038969, 43.455597 ], [ 3.037037, 43.454292 ], [ 3.029419, 43.45616 ], [ 3.029287, 43.456248 ], [ 3.036453, 43.456392 ] ] ], [ [ [ 3.017203, 43.452936 ], [ 3.015773, 43.457442 ], [ 3.016726, 43.461759 ], [ 3.018094, 43.463771 ], [ 3.023823, 43.466676 ], [ 3.026951, 43.470427 ], [ 3.027984, 43.471017 ], [ 3.029192, 43.471285 ], [ 3.029385, 43.470981 ], [ 3.02951, 43.468135 ], [ 3.028398, 43.465855 ], [ 3.028184, 43.465566 ], [ 3.027748810674065, 43.459552991927929 ], [ 3.025869, 43.463592 ], [ 3.026747, 43.465694 ], [ 3.026812, 43.465847 ], [ 3.026621, 43.465941 ], [ 3.026482, 43.465989 ], [ 3.026087, 43.46606 ], [ 3.022008, 43.460595 ], [ 3.021905, 43.46025 ], [ 3.021447, 43.456145 ], [ 3.021354, 43.455797 ], [ 3.015975, 43.44882 ], [ 3.015148, 43.448639 ], [ 3.014313, 43.448457 ], [ 3.013783, 43.448314 ], [ 3.013246, 43.44817 ], [ 3.017203, 43.452936 ] ] ], [ [ [ 3.012728, 43.448009 ], [ 3.013246, 43.44817 ], [ 3.01273, 43.448009 ], [ 3.012367658118477, 43.447896863247493 ], [ 3.012728, 43.448009 ] ] ] ] } },
{ "type": "Feature", "properties": { "codgeo": "34074", "value": 360, "isochrone_group": 6.0, "nb_agences": 1 }, "geometry": { "type": "MultiPolygon", "coordinates": [ [ [ [ 3.00562, 43.443822 ], [ 3.001972, 43.44141 ], [ 3.001642, 43.441267 ], [ 2.993339, 43.439093 ], [ 2.991786, 43.438025 ], [ 2.991568, 43.438312 ], [ 2.99332, 43.446744 ], [ 2.993885, 43.446716 ], [ 3.001122, 43.447731 ], [ 3.006308, 43.446444 ], [ 3.004742, 43.446105 ], [ 3.003103, 43.445649 ], [ 3.002081, 43.445395 ], [ 3.001876, 43.445304 ], [ 3.001297, 43.445045 ], [ 3.000681, 43.444761 ], [ 3.000065, 43.444477 ], [ 3.000215, 43.44415 ], [ 3.004144, 43.44515 ], [ 3.009354, 43.446626 ], [ 3.009613, 43.446661 ], [ 3.009862, 43.446694 ], [ 3.00562, 43.443822 ] ] ], [ [ [ 3.01204, 43.453712 ], [ 3.011678, 43.456161 ], [ 3.011572, 43.456505 ], [ 3.012582, 43.45946 ], [ 3.014028, 43.462616 ], [ 3.0157, 43.466644 ], [ 3.023583, 43.470217 ], [ 3.023788, 43.4703 ], [ 3.029392, 43.471979 ], [ 3.036682, 43.474239 ], [ 3.036806, 43.474229 ], [ 3.036991, 43.474166 ], [ 3.042438, 43.471047 ], [ 3.048154, 43.47447 ], [ 3.048415, 43.474718 ], [ 3.05415, 43.473035 ], [ 3.062025, 43.470732 ], [ 3.06583, 43.477404 ], [ 3.065885, 43.47776 ], [ 3.066334, 43.47769 ], [ 3.066783, 43.47762 ], [ 3.066962, 43.47758 ], [ 3.069114, 43.476845 ], [ 3.069967, 43.475887 ], [ 3.070163, 43.475646 ], [ 3.070241, 43.475487 ], [ 3.070279, 43.475263 ], [ 3.070301, 43.472089 ], [ 3.070285, 43.471858 ], [ 3.070149, 43.471494 ], [ 3.066322, 43.465248 ], [ 3.067858, 43.46243 ], [ 3.067912, 43.462295 ], [ 3.068434, 43.460336 ], [ 3.068414, 43.459977 ], [ 3.068788, 43.452428 ], [ 3.070766, 43.451104 ], [ 3.071066, 43.450402 ], [ 3.073098, 43.443729 ], [ 3.076301, 43.440643 ], [ 3.084961, 43.43825 ], [ 3.092078, 43.437695 ], [ 3.09277, 43.437769 ], [ 3.093463, 43.437844 ], [ 3.093501, 43.437486 ], [ 3.090871, 43.436738 ], [ 3.090598, 43.436616 ], [ 3.090331, 43.436497 ], [ 3.085824, 43.432589 ], [ 3.084922, 43.428145 ], [ 3.084801, 43.427806 ], [ 3.081897, 43.424778 ], [ 3.081548, 43.424866 ], [ 3.081343, 43.426598 ], [ 3.07512, 43.43183 ], [ 3.074818, 43.432027 ], [ 3.066166, 43.434147 ], [ 3.066027, 43.434044 ], [ 3.065878, 43.433998 ], [ 3.060327, 43.43263 ], [ 3.06014, 43.432577 ], [ 3.059953, 43.432524 ], [ 3.053914, 43.431466 ], [ 3.048862, 43.431126 ], [ 3.043181, 43.431732 ], [ 3.035545, 43.436403 ], [ 3.035091, 43.436515 ], [ 3.027597, 43.440937 ], [ 3.025992, 43.440991 ], [ 3.01992, 43.443151 ], [ 3.016642, 43.442647 ], [ 3.016293, 43.442735 ], [ 3.009862, 43.446694 ], [ 3.018685, 43.445255 ], [ 3.021752, 43.442993 ], [ 3.028902, 43.44122 ], [ 3.036926, 43.440561 ], [ 3.040679, 43.436854 ], [ 3.046706, 43.435059 ], [ 3.046948, 43.435222 ], [ 3.047189, 43.435385 ], [ 3.047824, 43.43589 ], [ 3.048448, 43.436387 ], [ 3.05215, 43.438478 ], [ 3.058808, 43.44293 ], [ 3.061701, 43.434646 ], [ 3.061854, 43.43432 ], [ 3.064398, 43.435032 ], [ 3.064615, 43.435081 ], [ 3.064821, 43.435128 ], [ 3.067225, 43.43564 ], [ 3.073874, 43.435546 ], [ 3.07966, 43.433693 ], [ 3.079997, 43.433818 ], [ 3.081833, 43.4369 ], [ 3.08185, 43.43726 ], [ 3.074122, 43.441667 ], [ 3.073872, 43.441926 ], [ 3.071434, 43.444372 ], [ 3.068336, 43.448228 ], [ 3.067877, 43.453208 ], [ 3.066866, 43.458473 ], [ 3.064046, 43.46619 ], [ 3.066171, 43.469702 ], [ 3.06798, 43.472339 ], [ 3.067865, 43.472681 ], [ 3.067314, 43.472496 ], [ 3.066763, 43.472311 ], [ 3.066523, 43.472205 ], [ 3.061509, 43.470191 ], [ 3.061244, 43.470013 ], [ 3.06098, 43.469834 ], [ 3.052177, 43.468768 ], [ 3.050589, 43.469577 ], [ 3.048721, 43.470552 ], [ 3.046208, 43.471624 ], [ 3.045164, 43.471173 ], [ 3.044078, 43.470255 ], [ 3.043947, 43.470095 ], [ 3.042116, 43.468102 ], [ 3.040314, 43.459994 ], [ 3.040141, 43.459678 ], [ 3.036453, 43.456392 ], [ 3.029287, 43.456248 ], [ 3.027572, 43.45711 ], [ 3.028184, 43.465566 ], [ 3.028398, 43.465855 ], [ 3.02951, 43.468135 ], [ 3.029385, 43.470981 ], [ 3.029192, 43.471285 ], [ 3.027984, 43.471017 ], [ 3.026951, 43.470427 ], [ 3.023823, 43.466676 ], [ 3.018094, 43.463771 ], [ 3.016726, 43.461759 ], [ 3.015773, 43.457442 ], [ 3.017203, 43.452936 ], [ 3.013246, 43.44817 ], [ 3.012728, 43.448009 ], [ 3.012201, 43.447845 ], [ 3.011482, 43.44758 ], [ 3.010771, 43.447318 ], [ 3.008942, 43.446955 ], [ 3.008379, 43.446921 ], [ 3.01204, 43.453712 ] ] ] ] } },
{ "type": "Feature", "properties": { "codgeo": "34074", "value": 420, "isochrone_group": 7.0, "nb_agences": 1 }, "geometry": { "type": "MultiPolygon", "coordinates": [ [ [ [ 3.059377, 43.431378 ], [ 3.059252, 43.431371 ], [ 3.053331, 43.430359 ], [ 3.053197, 43.430339 ], [ 3.049151, 43.429519 ], [ 3.0428, 43.428224 ], [ 3.042667, 43.428205 ], [ 3.036009, 43.429214 ], [ 3.032693, 43.428455 ], [ 3.03254, 43.428781 ], [ 3.029386, 43.435627 ], [ 3.029234, 43.435953 ], [ 3.02599, 43.44099 ], [ 3.025977338756941, 43.440996215461965 ], [ 3.025992, 43.440991 ], [ 3.027597, 43.440937 ], [ 3.035091, 43.436515 ], [ 3.035545, 43.436403 ], [ 3.043181, 43.431732 ], [ 3.048862, 43.431126 ], [ 3.053914, 43.431466 ], [ 3.059953, 43.432524 ], [ 3.06014, 43.432577 ], [ 3.060327, 43.43263 ], [ 3.065878, 43.433998 ], [ 3.066027, 43.434044 ], [ 3.066166, 43.434147 ], [ 3.074818, 43.432027 ], [ 3.07512, 43.43183 ], [ 3.080460379251558, 43.427340065202607 ], [ 3.078383601276433, 43.424321193972943 ], [ 3.072905, 43.429969 ], [ 3.066472, 43.432305 ], [ 3.059952, 43.431495 ], [ 3.059377, 43.431378 ] ] ], [ [ [ 3.014764, 43.440486 ], [ 3.014503, 43.440486 ], [ 3.014221, 43.440554 ], [ 3.013938, 43.440622 ], [ 3.010325, 43.442333 ], [ 3.002991, 43.43982 ], [ 3.002675, 43.439648 ], [ 2.997113039264826, 43.439643400079731 ], [ 2.997980039284908, 43.440308177575019 ], [ 3.001642, 43.441267 ], [ 3.001972, 43.44141 ], [ 3.00562, 43.443822 ], [ 3.009862, 43.446694 ], [ 3.016293, 43.442735 ], [ 3.016642, 43.442647 ], [ 3.01992, 43.443151 ], [ 3.021114777767326, 43.442725980240851 ], [ 3.015813, 43.441287 ], [ 3.015119, 43.440644 ], [ 3.014764, 43.440486 ] ] ], [ [ [ 2.986938, 43.445818 ], [ 2.986425, 43.446272 ], [ 2.984462, 43.4475 ], [ 2.984592, 43.447836 ], [ 2.986859, 43.4482 ], [ 2.987217, 43.448238 ], [ 2.991402, 43.448018 ], [ 2.999295, 43.451775 ], [ 2.999557, 43.452021 ], [ 3.005312, 43.455736 ], [ 3.009941, 43.460228 ], [ 3.009689, 43.463922 ], [ 3.012748, 43.467603 ], [ 3.017791, 43.470187 ], [ 3.018029, 43.470309 ], [ 3.025345, 43.471617 ], [ 3.025494, 43.471651 ], [ 3.026163, 43.47176 ], [ 3.029610458165768, 43.472046725028065 ], [ 3.029392, 43.471979 ], [ 3.023788, 43.4703 ], [ 3.023583, 43.470217 ], [ 3.0157, 43.466644 ], [ 3.014028, 43.462616 ], [ 3.012582, 43.45946 ], [ 3.011572, 43.456505 ], [ 3.011678, 43.456161 ], [ 3.01204, 43.453712 ], [ 3.008379, 43.446921 ], [ 3.006308, 43.446444 ], [ 3.001122, 43.447731 ], [ 2.993885, 43.446716 ], [ 2.99332, 43.446744 ], [ 2.992047347198891, 43.44061899519464 ], [ 2.991413, 43.44022 ], [ 2.986985127650768, 43.442459872116849 ], [ 2.986938, 43.445818 ] ] ], [ [ [ 3.032571, 43.479494 ], [ 3.032665, 43.47967 ], [ 3.032747, 43.479757 ], [ 3.032959, 43.479921 ], [ 3.033234, 43.48006 ], [ 3.033526, 43.480206 ], [ 3.03468, 43.480717 ], [ 3.035027, 43.480619 ], [ 3.039115, 43.475846 ], [ 3.044475, 43.478044 ], [ 3.04465, 43.477945 ], [ 3.044824, 43.477846 ], [ 3.047554, 43.476898 ], [ 3.054713, 43.479021 ], [ 3.054943, 43.479102 ], [ 3.055178, 43.479146 ], [ 3.056955, 43.479443 ], [ 3.064122, 43.482554 ], [ 3.06444, 43.482387 ], [ 3.071396, 43.477865 ], [ 3.072133, 43.477615 ], [ 3.071926, 43.472561 ], [ 3.07192, 43.472547 ], [ 3.069542, 43.465953 ], [ 3.070858, 43.460678 ], [ 3.070831, 43.460318 ], [ 3.0705, 43.460215 ], [ 3.068788, 43.452428 ], [ 3.068414, 43.459977 ], [ 3.068434, 43.460336 ], [ 3.067912, 43.462295 ], [ 3.067858, 43.46243 ], [ 3.066322, 43.465248 ], [ 3.070149, 43.471494 ], [ 3.070285, 43.471858 ], [ 3.070301, 43.472089 ], [ 3.070279, 43.475263 ], [ 3.070241, 43.475487 ], [ 3.070163, 43.475646 ], [ 3.069967, 43.475887 ], [ 3.069114, 43.476845 ], [ 3.066962, 43.47758 ], [ 3.066783, 43.47762 ], [ 3.066334, 43.47769 ], [ 3.065885, 43.47776 ], [ 3.06583, 43.477404 ], [ 3.062025, 43.470732 ], [ 3.05415, 43.473035 ], [ 3.048415, 43.474718 ], [ 3.048154, 43.47447 ], [ 3.042438, 43.471047 ], [ 3.036991, 43.474166 ], [ 3.036806, 43.474229 ], [ 3.036682, 43.474239 ], [ 3.029747053262479, 43.472089071381767 ], [ 3.032592, 43.479079 ], [ 3.032539, 43.479292 ], [ 3.032571, 43.479494 ] ] ], [ [ [ 3.074737, 43.452056 ], [ 3.075084, 43.452105 ], [ 3.075326, 43.452137 ], [ 3.075567, 43.452168 ], [ 3.075613, 43.451811 ], [ 3.074593, 43.447161 ], [ 3.076724, 43.440781 ], [ 3.083349438024352, 43.438695319608279 ], [ 3.076301, 43.440643 ], [ 3.073098, 43.443729 ], [ 3.071066, 43.450402 ], [ 3.070766, 43.451104 ], [ 3.068788, 43.452428 ], [ 3.073849, 43.451697 ], [ 3.074385, 43.45198 ], [ 3.074737, 43.452056 ] ] ], [ [ [ 3.094383, 43.437901 ], [ 3.095328, 43.437895 ], [ 3.096781, 43.43788 ], [ 3.097339, 43.437863 ], [ 3.097915, 43.437845 ], [ 3.098244, 43.4378 ], [ 3.098556, 43.437732 ], [ 3.098874, 43.437662 ], [ 3.099154, 43.437589 ], [ 3.101208079102365, 43.437132090289914 ], [ 3.10121, 43.4371 ], [ 3.101358057456364, 43.436587264110862 ], [ 3.100148, 43.436314 ], [ 3.099571, 43.436232 ], [ 3.099534, 43.436233 ], [ 3.096985, 43.436668 ], [ 3.094544, 43.436985 ], [ 3.089755, 43.42949 ], [ 3.089933, 43.429177 ], [ 3.088166, 43.426356 ], [ 3.08420548239948, 43.421171457656904 ], [ 3.083569, 43.42206 ], [ 3.084007, 43.426516 ], [ 3.084027, 43.4266 ], [ 3.083819843321057, 43.426782948201151 ], [ 3.084801, 43.427806 ], [ 3.084922, 43.428145 ], [ 3.085824, 43.432589 ], [ 3.090331, 43.436497 ], [ 3.090598, 43.436616 ], [ 3.090871, 43.436738 ], [ 3.093501, 43.437486 ], [ 3.093463052667242, 43.437843503819153 ], [ 3.093681, 43.437867 ], [ 3.094027, 43.437884 ], [ 3.094383, 43.437901 ] ] ] ] } },
{ "type": "Feature", "properties": { "codgeo": "34074", "value": 480, "isochrone_group": 8.0, "nb_agences": 1 }, "geometry": { "type": "MultiPolygon", "coordinates": [ [ [ [ 3.059769, 43.429806 ], [ 3.059288, 43.429751 ], [ 3.058652, 43.429846 ], [ 3.050128, 43.428697 ], [ 3.042325, 43.42496 ], [ 3.041475, 43.424498 ], [ 3.040004, 43.42405 ], [ 3.039549, 43.424047 ], [ 3.03881, 43.4242 ], [ 3.030511, 43.424165 ], [ 3.028137, 43.426872 ], [ 3.026715, 43.434829 ], [ 3.026408, 43.435467 ], [ 3.020371, 43.441521 ], [ 3.01935, 43.441543 ], [ 3.018301, 43.441535 ], [ 3.012953, 43.439025 ], [ 3.012352, 43.438491 ], [ 3.012217, 43.438415 ], [ 3.008614, 43.439353 ], [ 3.008078, 43.439593 ], [ 3.007486, 43.440183 ], [ 3.006155380520477, 43.440904277099513 ], [ 3.010325, 43.442333 ], [ 3.013938, 43.440622 ], [ 3.014221, 43.440554 ], [ 3.014503, 43.440486 ], [ 3.014764, 43.440486 ], [ 3.015119, 43.440644 ], [ 3.015813, 43.441287 ], [ 3.021977, 43.44296 ], [ 3.02599, 43.44099 ], [ 3.029234, 43.435953 ], [ 3.029386, 43.435627 ], [ 3.03254, 43.428781 ], [ 3.032693, 43.428455 ], [ 3.036009, 43.429214 ], [ 3.042667, 43.428205 ], [ 3.0428, 43.428224 ], [ 3.049151, 43.429519 ], [ 3.053197, 43.430339 ], [ 3.053331, 43.430359 ], [ 3.059252, 43.431371 ], [ 3.059377, 43.431378 ], [ 3.059952, 43.431495 ], [ 3.066472, 43.432305 ], [ 3.072905, 43.429969 ], [ 3.076947337115368, 43.425801816667672 ], [ 3.076804, 43.424925 ], [ 3.072564, 43.423003 ], [ 3.070624800974961, 43.422752174131155 ], [ 3.069233, 43.427643 ], [ 3.061949, 43.430819 ], [ 3.060401, 43.430065 ], [ 3.059769, 43.429806 ] ] ], [ [ [ 2.979716, 43.453251 ], [ 2.9832, 43.454156 ], [ 2.98834, 43.453 ], [ 2.994205, 43.453703 ], [ 2.998662, 43.457582 ], [ 3.003847, 43.464398 ], [ 3.004545, 43.467144 ], [ 3.004753, 43.467171 ], [ 3.010597, 43.469423 ], [ 3.012736, 43.471599 ], [ 3.015579, 43.472218 ], [ 3.016187, 43.472369 ], [ 3.016586, 43.472419 ], [ 3.017087, 43.472415 ], [ 3.018209, 43.471955 ], [ 3.019032, 43.471655 ], [ 3.022679, 43.47122 ], [ 3.023005, 43.471295 ], [ 3.025879, 43.471734 ], [ 3.025741, 43.479944 ], [ 3.023077, 43.484826 ], [ 3.024567, 43.487643 ], [ 3.025356, 43.487612 ], [ 3.025783, 43.487289 ], [ 3.026256, 43.486944 ], [ 3.026657, 43.486572 ], [ 3.029359, 43.484522 ], [ 3.036858, 43.483279 ], [ 3.042833, 43.485959 ], [ 3.045736, 43.488088 ], [ 3.046903, 43.486497 ], [ 3.047168, 43.486007 ], [ 3.047335, 43.485229 ], [ 3.055676, 43.482487 ], [ 3.063624, 43.484362 ], [ 3.064439, 43.484875 ], [ 3.066775, 43.486308 ], [ 3.067159, 43.486521 ], [ 3.068121, 43.487012 ], [ 3.071391, 43.488186 ], [ 3.072005, 43.488419 ], [ 3.073283, 43.485053 ], [ 3.078408, 43.478885 ], [ 3.082711, 43.477442 ], [ 3.08287, 43.477419 ], [ 3.084231, 43.475369 ], [ 3.083523, 43.474186 ], [ 3.083466, 43.474143 ], [ 3.082358, 43.473856 ], [ 3.082198, 43.473878 ], [ 3.080214, 43.47405 ], [ 3.079853, 43.474102 ], [ 3.074571, 43.47255 ], [ 3.072513, 43.465391 ], [ 3.072433, 43.46534 ], [ 3.070335, 43.463381 ], [ 3.074871, 43.456519 ], [ 3.075075, 43.456529 ], [ 3.076247, 43.456204 ], [ 3.076875, 43.455698 ], [ 3.078868, 43.452788 ], [ 3.079951, 43.445418 ], [ 3.08546, 43.438643 ], [ 3.090987, 43.439054 ], [ 3.09155, 43.439246 ], [ 3.091905, 43.439306 ], [ 3.092233038455991, 43.439340642409228 ], [ 3.092406244490277, 43.437730051233252 ], [ 3.092078, 43.437695 ], [ 3.091843, 43.437652 ], [ 3.084853, 43.438222 ], [ 3.076724, 43.440781 ], [ 3.074593, 43.447161 ], [ 3.075613, 43.451811 ], [ 3.075567, 43.452168 ], [ 3.075326, 43.452137 ], [ 3.075084, 43.452105 ], [ 3.074737, 43.452056 ], [ 3.074385, 43.45198 ], [ 3.073849, 43.451697 ], [ 3.068788, 43.452428 ], [ 3.0705, 43.460215 ], [ 3.070831, 43.460318 ], [ 3.070858, 43.460678 ], [ 3.069542, 43.465953 ], [ 3.07192, 43.472547 ], [ 3.071926, 43.472561 ], [ 3.072133, 43.477615 ], [ 3.071396, 43.477865 ], [ 3.06444, 43.482387 ], [ 3.064122, 43.482554 ], [ 3.056955, 43.479443 ], [ 3.055178, 43.479146 ], [ 3.054943, 43.479102 ], [ 3.054713, 43.479021 ], [ 3.047554, 43.476898 ], [ 3.044824, 43.477846 ], [ 3.04465, 43.477945 ], [ 3.044475, 43.478044 ], [ 3.039115, 43.475846 ], [ 3.035027, 43.480619 ], [ 3.03468, 43.480717 ], [ 3.033526, 43.480206 ], [ 3.033234, 43.48006 ], [ 3.032959, 43.479921 ], [ 3.032747, 43.479757 ], [ 3.032665, 43.47967 ], [ 3.032571, 43.479494 ], [ 3.032539, 43.479292 ], [ 3.032592, 43.479079 ], [ 3.029734, 43.472057 ], [ 3.026163, 43.47176 ], [ 3.025494, 43.471651 ], [ 3.025345, 43.471617 ], [ 3.018029, 43.470309 ], [ 3.017791, 43.470187 ], [ 3.012748, 43.467603 ], [ 3.009689, 43.463922 ], [ 3.009941, 43.460228 ], [ 3.005312, 43.455736 ], [ 2.999557, 43.452021 ], [ 2.999295, 43.451775 ], [ 2.991402, 43.448018 ], [ 2.987303981366426, 43.448233427502849 ], [ 2.987027, 43.448973 ], [ 2.984728, 43.451177 ], [ 2.984317, 43.451597 ], [ 2.979845, 43.450646 ], [ 2.979163989013052, 43.450001737723532 ], [ 2.979716, 43.453251 ] ] ], [ [ [ 2.99659, 43.43925 ], [ 2.995162404034498, 43.43832775606711 ], [ 2.996642461059111, 43.43928965532519 ], [ 2.99659, 43.43925 ] ] ], [ [ [ 3.093939000000193, 43.439500350943419 ], [ 3.093551520354333, 43.439479880320626 ], [ 3.0936, 43.439485 ], [ 3.093939000000193, 43.439500350943419 ] ] ], [ [ [ 3.109606, 43.433993 ], [ 3.108867820422575, 43.433948654137332 ], [ 3.109694336137874, 43.434069083321106 ], [ 3.109641, 43.433999 ], [ 3.109606, 43.433993 ] ] ], [ [ [ 3.105658812499882, 43.433779812500021 ], [ 3.105719073593121, 43.433775795093794 ], [ 3.105702, 43.433775 ], [ 3.105658812499882, 43.433779812500021 ] ] ], [ [ [ 3.101091, 43.433566 ], [ 3.096258, 43.429047 ], [ 3.09616, 43.428881 ], [ 3.090946, 43.424008 ], [ 3.090935143923557, 43.423993821187665 ], [ 3.088350963943706, 43.426651293313633 ], [ 3.089933, 43.429177 ], [ 3.089755, 43.42949 ], [ 3.093654266264961, 43.435592526760459 ], [ 3.098935, 43.434734 ], [ 3.104075, 43.434085 ], [ 3.104822, 43.433884 ], [ 3.105437729951766, 43.433804448326626 ], [ 3.105011, 43.433852 ], [ 3.101091, 43.433566 ] ] ] ] } },
{ "type": "Feature", "properties": { "codgeo": "34074", "value": 540, "isochrone_group": 9.0, "nb_agences": 1 }, "geometry": { "type": "MultiPolygon", "coordinates": [ [ [ [ 3.061949, 43.430819 ], [ 3.069233, 43.427643 ], [ 3.069616010780905, 43.42629708986702 ], [ 3.06925, 43.426054 ], [ 3.066105547401932, 43.426321386870917 ], [ 3.066074, 43.428216 ], [ 3.059769, 43.429806 ], [ 3.060401, 43.430065 ], [ 3.061949, 43.430819 ] ] ], [ [ [ 3.024592, 43.420752 ], [ 3.024028, 43.420991 ], [ 3.023709, 43.42124 ], [ 3.023579, 43.421351 ], [ 3.023492, 43.421434 ], [ 3.023554, 43.42171 ], [ 3.024084, 43.424316 ], [ 3.026284, 43.427582 ], [ 3.023443, 43.434229 ], [ 3.018301, 43.441535 ], [ 3.01935, 43.441543 ], [ 3.020371, 43.441521 ], [ 3.026408, 43.435467 ], [ 3.026715, 43.434829 ], [ 3.028137, 43.426872 ], [ 3.030511, 43.424165 ], [ 3.03454383442135, 43.424182007977457 ], [ 3.032731, 43.422489 ], [ 3.028232, 43.420273 ], [ 3.024592, 43.420752 ] ] ], [ [ [ 3.012199, 43.437773 ], [ 3.011644, 43.437472 ], [ 3.010535, 43.437118 ], [ 3.009622, 43.437028 ], [ 3.009344, 43.437031 ], [ 3.008179, 43.438115 ], [ 3.004308643038173, 43.441704998530412 ], [ 3.004582, 43.441722 ], [ 3.004641790337178, 43.44172473550563 ], [ 3.007486, 43.440183 ], [ 3.008078, 43.439593 ], [ 3.008614, 43.439353 ], [ 3.012217, 43.438415 ], [ 3.012352, 43.438491 ], [ 3.012953, 43.439025 ], [ 3.018301, 43.441535 ], [ 3.012971, 43.438749 ], [ 3.012663, 43.438221 ], [ 3.012199, 43.437773 ] ] ], [ [ [ 2.976155, 43.455225 ], [ 2.978433, 43.460735 ], [ 2.982012, 43.461125 ], [ 2.982083, 43.460787 ], [ 2.990208, 43.457333 ], [ 2.996752, 43.460244 ], [ 2.99949, 43.466148 ], [ 2.999697, 43.466525 ], [ 3.000145, 43.467091 ], [ 3.001031, 43.467997 ], [ 3.006954, 43.471237 ], [ 3.009449, 43.473117 ], [ 3.009949, 43.473439 ], [ 3.012891, 43.474174 ], [ 3.020533, 43.478837 ], [ 3.019882, 43.482377 ], [ 3.01876, 43.485365 ], [ 3.018823, 43.485543 ], [ 3.018985, 43.485912 ], [ 3.019311, 43.486547 ], [ 3.022135, 43.491618 ], [ 3.023964, 43.494454 ], [ 3.025601, 43.496221 ], [ 3.02882, 43.49461 ], [ 3.036475, 43.490671 ], [ 3.037894, 43.491007 ], [ 3.038516, 43.49113 ], [ 3.042161, 43.491474 ], [ 3.044766, 43.491261 ], [ 3.045138, 43.490863 ], [ 3.045459, 43.490263 ], [ 3.046903, 43.486497 ], [ 3.045736, 43.488088 ], [ 3.042833, 43.485959 ], [ 3.036858, 43.483279 ], [ 3.029359, 43.484522 ], [ 3.026657, 43.486572 ], [ 3.026256, 43.486944 ], [ 3.025783, 43.487289 ], [ 3.025356, 43.487612 ], [ 3.024567, 43.487643 ], [ 3.023077, 43.484826 ], [ 3.025741, 43.479944 ], [ 3.025879, 43.471734 ], [ 3.023005, 43.471295 ], [ 3.022679, 43.47122 ], [ 3.019032, 43.471655 ], [ 3.018209, 43.471955 ], [ 3.017087, 43.472415 ], [ 3.016586, 43.472419 ], [ 3.016187, 43.472369 ], [ 3.015579, 43.472218 ], [ 3.012736, 43.471599 ], [ 3.010597, 43.469423 ], [ 3.004753, 43.467171 ], [ 3.004545, 43.467144 ], [ 3.003847, 43.464398 ], [ 2.998662, 43.457582 ], [ 2.994205, 43.453703 ], [ 2.98834, 43.453 ], [ 2.985493554447655, 43.453640173357691 ], [ 2.983736, 43.456108 ], [ 2.983577, 43.456472 ], [ 2.983121, 43.457574 ], [ 2.979621, 43.456724 ], [ 2.976093981792277, 43.454709654542789 ], [ 2.976155, 43.455225 ] ] ], [ [ [ 3.047168, 43.486007 ], [ 3.048307420510641, 43.48490932885263 ], [ 3.047335, 43.485229 ], [ 3.047168, 43.486007 ] ] ], [ [ [ 3.079515, 43.492419 ], [ 3.079444, 43.492141 ], [ 3.079165, 43.49152 ], [ 3.078822, 43.491046 ], [ 3.077977, 43.489771 ], [ 3.077678, 43.489352 ], [ 3.07639, 43.487841 ], [ 3.078074542129639, 43.479286320613539 ], [ 3.073283, 43.485053 ], [ 3.072005, 43.488419 ], [ 3.071391, 43.488186 ], [ 3.070188890340358, 43.487754416898944 ], [ 3.075988, 43.493267 ], [ 3.076029, 43.493315 ], [ 3.079515, 43.492419 ] ] ], [ [ [ 3.087081, 43.47701 ], [ 3.087239, 43.476962 ], [ 3.088301, 43.474813 ], [ 3.0886, 43.473619 ], [ 3.088663, 43.473304 ], [ 3.087537, 43.472104 ], [ 3.086564, 43.471657 ], [ 3.084132, 43.471955 ], [ 3.083195, 43.472392 ], [ 3.082837, 43.472517 ], [ 3.079853, 43.474102 ], [ 3.080214, 43.47405 ], [ 3.082198, 43.473878 ], [ 3.082358, 43.473856 ], [ 3.083466, 43.474143 ], [ 3.083523, 43.474186 ], [ 3.084231, 43.475369 ], [ 3.08287, 43.477419 ], [ 3.082711, 43.477442 ], [ 3.078408, 43.478885 ], [ 3.078304533305495, 43.479009523428637 ], [ 3.081033, 43.478773 ], [ 3.082917, 43.478202 ], [ 3.087081, 43.47701 ] ] ], [ [ [ 3.073778, 43.466551 ], [ 3.073021, 43.465767 ], [ 3.074646, 43.457256 ], [ 3.077968, 43.456459 ], [ 3.081433, 43.455484 ], [ 3.081391, 43.455265 ], [ 3.081037, 43.454461 ], [ 3.079789, 43.448561 ], [ 3.083281, 43.445689 ], [ 3.083048, 43.444505 ], [ 3.083279, 43.442089 ], [ 3.090812110768881, 43.439122862067542 ], [ 3.085998, 43.438988 ], [ 3.085214968021006, 43.438944341742186 ], [ 3.079951, 43.445418 ], [ 3.078868, 43.452788 ], [ 3.076875, 43.455698 ], [ 3.076247, 43.456204 ], [ 3.075075, 43.456529 ], [ 3.074871, 43.456519 ], [ 3.070335, 43.463381 ], [ 3.072433, 43.46534 ], [ 3.072513, 43.465391 ], [ 3.074571, 43.47255 ], [ 3.079853, 43.474102 ], [ 3.07473, 43.467812 ], [ 3.074096, 43.466934 ], [ 3.073778, 43.466551 ] ] ], [ [ [ 3.107928, 43.43191 ], [ 3.107611, 43.431763 ], [ 3.102891, 43.431484 ], [ 3.096338, 43.427981 ], [ 3.094673, 43.424779 ], [ 3.094434, 43.424568 ], [ 3.094123, 43.424339 ], [ 3.093338, 43.42389 ], [ 3.093010242832932, 43.423503130636561 ], [ 3.092817604997291, 43.425757200451052 ], [ 3.09616, 43.428881 ], [ 3.096258, 43.429047 ], [ 3.100542315938437, 43.433052963940767 ], [ 3.105596, 43.433784 ], [ 3.105658812499882, 43.433779812500021 ], [ 3.105702, 43.433775 ], [ 3.105719073593121, 43.433775795093794 ], [ 3.105971, 43.433759 ], [ 3.107326, 43.433724 ], [ 3.108867820422575, 43.433948654137332 ], [ 3.109606, 43.433993 ], [ 3.109641, 43.433999 ], [ 3.109694336137874, 43.434069083321106 ], [ 3.111286, 43.434301 ], [ 3.112650666102937, 43.434081651675271 ], [ 3.10827, 43.432113 ], [ 3.107928, 43.43191 ] ] ], [ [ [ 3.075336280345329, 43.408795998562731 ], [ 3.0765, 43.408599 ], [ 3.076351945298466, 43.407769757320182 ], [ 3.075336280345329, 43.408795998562731 ] ] ] ] } },
{ "type": "Feature", "properties": { "codgeo": "34074", "value": 600, "isochrone_group": 10.0, "nb_agences": 1 }, "geometry": { "type": "MultiPolygon", "coordinates": [ [ [ [ 3.020436, 43.434513 ], [ 3.020031, 43.434667 ], [ 3.011644, 43.437472 ], [ 3.012199, 43.437773 ], [ 3.012663, 43.438221 ], [ 3.012971, 43.438749 ], [ 3.018301, 43.441535 ], [ 3.023443, 43.434229 ], [ 3.026284, 43.427582 ], [ 3.024084, 43.424316 ], [ 3.023554, 43.42171 ], [ 3.023492, 43.421434 ], [ 3.023579, 43.421351 ], [ 3.023709, 43.42124 ], [ 3.024028, 43.420991 ], [ 3.024592, 43.420752 ], [ 3.026834458067451, 43.420456907303752 ], [ 3.026972379575326, 43.420132531044487 ], [ 3.026078, 43.419634 ], [ 3.024915, 43.418751 ], [ 3.024870613033201, 43.418491413964595 ], [ 3.022001, 43.418029 ], [ 3.015804, 43.417313 ], [ 3.014589, 43.420702 ], [ 3.014821886662294, 43.422444811176071 ], [ 3.016791, 43.42219 ], [ 3.017341, 43.422053 ], [ 3.018886, 43.425306 ], [ 3.018170172912896, 43.426199539375069 ], [ 3.023589, 43.431279 ], [ 3.020436, 43.434513 ] ] ], [ [ [ 2.976011, 43.463804 ], [ 2.976354, 43.467106 ], [ 2.977604, 43.468105 ], [ 2.981185, 43.468474 ], [ 2.983735, 43.465501 ], [ 2.984065, 43.461995 ], [ 2.98542545383542, 43.459366097163389 ], [ 2.984424984857129, 43.459791404221946 ], [ 2.983096, 43.460644 ], [ 2.982096, 43.464103 ], [ 2.981292, 43.465026 ], [ 2.980351, 43.465338 ], [ 2.979989, 43.465434 ], [ 2.97781, 43.46411 ], [ 2.97389, 43.456042 ], [ 2.972011407640019, 43.455350624705083 ], [ 2.972506, 43.457035 ], [ 2.976011, 43.463804 ] ] ], [ [ [ 3.007869, 43.475867 ], [ 3.008286, 43.476189 ], [ 3.008692, 43.47644 ], [ 3.010548, 43.475914 ], [ 3.015368, 43.483137 ], [ 3.014654, 43.487762 ], [ 3.015039, 43.490833 ], [ 3.018163, 43.495483 ], [ 3.025366, 43.499674 ], [ 3.026191, 43.500104 ], [ 3.026286, 43.500129 ], [ 3.029594, 43.500717 ], [ 3.031481, 43.499027 ], [ 3.031775, 43.49345 ], [ 3.037894, 43.491007 ], [ 3.036475, 43.490671 ], [ 3.02882, 43.49461 ], [ 3.025601, 43.496221 ], [ 3.023964, 43.494454 ], [ 3.022135, 43.491618 ], [ 3.019311, 43.486547 ], [ 3.018985, 43.485912 ], [ 3.018823, 43.485543 ], [ 3.01876, 43.485365 ], [ 3.019882, 43.482377 ], [ 3.020533, 43.478837 ], [ 3.012891, 43.474174 ], [ 3.009949, 43.473439 ], [ 3.009449, 43.473117 ], [ 3.006954, 43.471237 ], [ 3.001031, 43.467997 ], [ 3.000145, 43.467091 ], [ 2.999697, 43.466525 ], [ 2.99949, 43.466148 ], [ 2.996752, 43.460244 ], [ 2.994373566498528, 43.459185989620607 ], [ 2.996359, 43.461756 ], [ 2.997609, 43.465132 ], [ 3.000666, 43.470114 ], [ 3.000923, 43.470315 ], [ 3.007285, 43.475366 ], [ 3.007869, 43.475867 ] ] ], [ [ [ 3.047168, 43.486007 ], [ 3.046903, 43.486497 ], [ 3.045459, 43.490263 ], [ 3.045138, 43.490863 ], [ 3.044766, 43.491261 ], [ 3.042161, 43.491474 ], [ 3.038516, 43.49113 ], [ 3.037894, 43.491007 ], [ 3.040819, 43.493302 ], [ 3.044675, 43.49556 ], [ 3.047813, 43.493794 ], [ 3.047563, 43.493233 ], [ 3.047359, 43.492787 ], [ 3.047168, 43.486007 ] ] ], [ [ [ 3.052965, 43.481982 ], [ 3.058425, 43.481301 ], [ 3.057813, 43.481167 ], [ 3.051562, 43.481774 ], [ 3.047168, 43.486007 ], [ 3.052965, 43.481982 ] ] ], [ [ [ 3.079621, 43.50057 ], [ 3.080057, 43.499941 ], [ 3.080255, 43.499039 ], [ 3.080302, 43.497482 ], [ 3.080261, 43.497019 ], [ 3.080121, 43.496516 ], [ 3.079565, 43.492704 ], [ 3.079504336819192, 43.49242174073725 ], [ 3.076029, 43.493315 ], [ 3.075988, 43.493267 ], [ 3.074561050041224, 43.491910553805589 ], [ 3.076302, 43.495237 ], [ 3.076244, 43.498837 ], [ 3.076647, 43.499346 ], [ 3.076691, 43.499371 ], [ 3.079532, 43.500654 ], [ 3.079621, 43.50057 ] ] ], [ [ [ 3.089784, 43.475913 ], [ 3.091142243256701, 43.474264132634708 ], [ 3.088267478924339, 43.474880831253849 ], [ 3.087239, 43.476962 ], [ 3.087081, 43.47701 ], [ 3.082917, 43.478202 ], [ 3.081033, 43.478773 ], [ 3.078126, 43.479025 ], [ 3.07639, 43.487841 ], [ 3.079064, 43.480249 ], [ 3.081538, 43.48005 ], [ 3.082298, 43.480213 ], [ 3.086581, 43.479247 ], [ 3.087652, 43.478853 ], [ 3.089784, 43.475913 ] ] ], [ [ [ 3.073778, 43.466551 ], [ 3.074096, 43.466934 ], [ 3.07473, 43.467812 ], [ 3.079853, 43.474102 ], [ 3.082669099857307, 43.472606182884121 ], [ 3.081813, 43.471586 ], [ 3.081757, 43.471493 ], [ 3.082788, 43.46883 ], [ 3.082854000436422, 43.468775751194102 ], [ 3.080529, 43.46943 ], [ 3.080305, 43.469536 ], [ 3.073609286159156, 43.466376268624558 ], [ 3.073778, 43.466551 ] ] ], [ [ [ 3.081295, 43.458302 ], [ 3.083092, 43.456633 ], [ 3.083474, 43.450276 ], [ 3.083635, 43.449518 ], [ 3.084234, 43.44776 ], [ 3.084318, 43.446975 ], [ 3.08537, 43.444215 ], [ 3.086218, 43.442382 ], [ 3.091530938470918, 43.43950832341541 ], [ 3.091497906559704, 43.439473590118936 ], [ 3.089883878236517, 43.439488350616543 ], [ 3.083279, 43.442089 ], [ 3.083048, 43.444505 ], [ 3.083281, 43.445689 ], [ 3.079789, 43.448561 ], [ 3.081037, 43.454461 ], [ 3.081391, 43.455265 ], [ 3.081433, 43.455484 ], [ 3.077968, 43.456459 ], [ 3.074646, 43.457256 ], [ 3.073021, 43.465767 ], [ 3.073451579822762, 43.466212937359373 ], [ 3.075665, 43.461397 ], [ 3.076741, 43.460785 ], [ 3.080725, 43.458853 ], [ 3.080989, 43.458616 ], [ 3.081153, 43.458477 ], [ 3.081295, 43.458302 ] ] ], [ [ [ 3.042677, 43.425233 ], [ 3.042565376426947, 43.424959564850447 ], [ 3.042337095247936, 43.424969380689447 ], [ 3.042677, 43.425233 ] ] ], [ [ [ 3.034247528218208, 43.423905287301906 ], [ 3.035197, 43.424792 ], [ 3.041359732342455, 43.424937249583827 ], [ 3.036307, 43.423742 ], [ 3.034247528218208, 43.423905287301906 ] ] ], [ [ [ 3.071084, 43.410162 ], [ 3.068867238653396, 43.41243641038529 ], [ 3.071696, 43.412305 ], [ 3.07160818447343, 43.410039054851943 ], [ 3.071216, 43.410078 ], [ 3.071084, 43.410162 ] ] ], [ [ [ 3.097888036287629, 43.428809594096677 ], [ 3.102857312733539, 43.431465991989242 ], [ 3.103265, 43.431312 ], [ 3.103693, 43.431142 ], [ 3.104783985210394, 43.431595894676626 ], [ 3.107611, 43.431763 ], [ 3.107928, 43.43191 ], [ 3.10827, 43.432113 ], [ 3.109966859052936, 43.432875560838639 ], [ 3.107026, 43.429788 ], [ 3.106184, 43.428504 ], [ 3.105684, 43.427943 ], [ 3.105496, 43.427794 ], [ 3.100249780163997, 43.425353418108017 ], [ 3.097888036287629, 43.428809594096677 ] ] ] ] } },
{ "type": "Feature", "properties": { "codgeo": "34074", "value": 660, "isochrone_group": 11.0, "nb_agences": 1 }, "geometry": { "type": "MultiPolygon", "coordinates": [ [ [ [ 3.020436, 43.434513 ], [ 3.023589, 43.431279 ], [ 3.021170653254055, 43.429012107760045 ], [ 3.016178, 43.435843 ], [ 3.016240113770512, 43.435934847367818 ], [ 3.020031, 43.434667 ], [ 3.020436, 43.434513 ] ] ], [ [ [ 3.021233, 43.416608 ], [ 3.021329772671012, 43.416373979832294 ], [ 3.021069, 43.416445 ], [ 3.014492142948129, 43.41422295959034 ], [ 3.014497, 43.41507 ], [ 3.017120463631148, 43.417465103914779 ], [ 3.021284044090909, 43.417946163073914 ], [ 3.021233, 43.416608 ] ] ], [ [ [ 2.966597, 43.458396 ], [ 2.970929, 43.465535 ], [ 2.971517, 43.466814 ], [ 2.975789, 43.473731 ], [ 2.978361, 43.47625 ], [ 2.979663, 43.475458 ], [ 2.980277, 43.474954 ], [ 2.982204, 43.473398 ], [ 2.982265, 43.470416 ], [ 2.982229, 43.469778 ], [ 2.983424752607645, 43.465862711959801 ], [ 2.983367879087623, 43.465929019793144 ], [ 2.981152, 43.471585 ], [ 2.979202, 43.472462 ], [ 2.97861, 43.472516 ], [ 2.978105, 43.472481 ], [ 2.977611, 43.472233 ], [ 2.974399, 43.467451 ], [ 2.974103, 43.463863 ], [ 2.967796, 43.458004 ], [ 2.966524504323474, 43.457392658762366 ], [ 2.966513, 43.457835 ], [ 2.966597, 43.458396 ] ] ], [ [ [ 2.996482, 43.471351 ], [ 2.997165, 43.471848 ], [ 3.004586, 43.474292 ], [ 3.005375, 43.475616 ], [ 3.005943, 43.476041 ], [ 3.006707, 43.476339 ], [ 3.007362, 43.476622 ], [ 3.009017, 43.477602 ], [ 3.010505, 43.48517 ], [ 3.009565, 43.487821 ], [ 3.009679, 43.488025 ], [ 3.013027, 43.49622 ], [ 3.019824, 43.5011 ], [ 3.024748, 43.502097 ], [ 3.029531, 43.502764 ], [ 3.032625, 43.502307 ], [ 3.032958, 43.502042 ], [ 3.033171, 43.501843 ], [ 3.033672, 43.500801 ], [ 3.034611, 43.497977 ], [ 3.043468, 43.497267 ], [ 3.045336, 43.500344 ], [ 3.046196, 43.499822 ], [ 3.047397, 43.498959 ], [ 3.047898, 43.498488 ], [ 3.048372, 43.49744 ], [ 3.04846, 43.496996 ], [ 3.04842, 43.496176 ], [ 3.048255, 43.495337 ], [ 3.047935, 43.494054 ], [ 3.047563, 43.493233 ], [ 3.047813, 43.493794 ], [ 3.044675, 43.49556 ], [ 3.040819, 43.493302 ], [ 3.037894, 43.491007 ], [ 3.031775, 43.49345 ], [ 3.031481, 43.499027 ], [ 3.029594, 43.500717 ], [ 3.026286, 43.500129 ], [ 3.026191, 43.500104 ], [ 3.025366, 43.499674 ], [ 3.018163, 43.495483 ], [ 3.015039, 43.490833 ], [ 3.014654, 43.487762 ], [ 3.015368, 43.483137 ], [ 3.010548, 43.475914 ], [ 3.008692, 43.47644 ], [ 3.008286, 43.476189 ], [ 3.007869, 43.475867 ], [ 3.007285, 43.475366 ], [ 3.000923, 43.470315 ], [ 3.000666, 43.470114 ], [ 2.997609, 43.465132 ], [ 2.996359, 43.461756 ], [ 2.994554311291343, 43.459419951620916 ], [ 2.994097, 43.459475 ], [ 2.993872, 43.459446 ], [ 2.993251213671659, 43.459206133593675 ], [ 2.993274, 43.459261 ], [ 2.993094, 43.462779 ], [ 2.994201, 43.467126 ], [ 2.99547, 43.469557 ], [ 2.995991, 43.470927 ], [ 2.996482, 43.471351 ] ] ], [ [ [ 3.047179094808689, 43.48640083666443 ], [ 3.054454, 43.483867 ], [ 3.063275, 43.484085 ], [ 3.058425, 43.481301 ], [ 3.052965, 43.481982 ], [ 3.047168, 43.486007 ], [ 3.047179094808689, 43.48640083666443 ] ] ], [ [ [ 3.071066, 43.503952 ], [ 3.071083, 43.504357 ], [ 3.071244, 43.505242 ], [ 3.071291, 43.505375 ], [ 3.07252, 43.505558 ], [ 3.074682, 43.504166 ], [ 3.079347, 43.500807 ], [ 3.079526669273534, 43.500651592635649 ], [ 3.076691, 43.499371 ], [ 3.076647, 43.499346 ], [ 3.076244, 43.498837 ], [ 3.076302, 43.495237 ], [ 3.073659, 43.490187 ], [ 3.072886, 43.489491 ], [ 3.069815, 43.487399 ], [ 3.068642, 43.486826 ], [ 3.067568, 43.486394 ], [ 3.071348, 43.493152 ], [ 3.071475, 43.49675 ], [ 3.071378, 43.502006 ], [ 3.071292, 43.502401 ], [ 3.071134, 43.503436 ], [ 3.071066, 43.503952 ] ] ], [ [ [ 3.08748, 43.483418 ], [ 3.088937, 43.481783 ], [ 3.090878609883655, 43.478590767886978 ], [ 3.088203956477029, 43.478091859267153 ], [ 3.087652, 43.478853 ], [ 3.086581, 43.479247 ], [ 3.082298, 43.480213 ], [ 3.081538, 43.48005 ], [ 3.079064, 43.480249 ], [ 3.07639, 43.487841 ], [ 3.077678, 43.489352 ], [ 3.078974, 43.481499 ], [ 3.085768, 43.48264 ], [ 3.085901, 43.482707 ], [ 3.086975, 43.483189 ], [ 3.087327, 43.483346 ], [ 3.08748, 43.483418 ] ] ], [ [ [ 3.086008, 43.449637 ], [ 3.085838, 43.448603 ], [ 3.085774, 43.448313 ], [ 3.084318, 43.446975 ], [ 3.084234, 43.44776 ], [ 3.083635, 43.449518 ], [ 3.083474, 43.450276 ], [ 3.083092, 43.456633 ], [ 3.081295, 43.458302 ], [ 3.081153, 43.458477 ], [ 3.080989, 43.458616 ], [ 3.080725, 43.458853 ], [ 3.076741, 43.460785 ], [ 3.075665, 43.461397 ], [ 3.073418, 43.466286 ], [ 3.078376476844718, 43.468625923006442 ], [ 3.080076, 43.4683 ], [ 3.085549323535676, 43.464133491209836 ], [ 3.083925, 43.457966 ], [ 3.085366, 43.451363 ], [ 3.085887, 43.450409 ], [ 3.086008, 43.449637 ] ] ], [ [ [ 3.119431, 43.427408 ], [ 3.119178323208545, 43.429533457716353 ], [ 3.119845, 43.428327 ], [ 3.119543044883519, 43.427410323511403 ], [ 3.119431, 43.427408 ] ] ], [ [ [ 3.106406304339413, 43.428843000916643 ], [ 3.107026, 43.429788 ], [ 3.111319667569267, 43.434295852842446 ], [ 3.116730336022873, 43.4334686602772 ], [ 3.109537, 43.431892 ], [ 3.108338, 43.428498 ], [ 3.107226, 43.428528 ], [ 3.106668, 43.428648 ], [ 3.106575, 43.428689 ], [ 3.106406304339413, 43.428843000916643 ] ] ] ] } },
{ "type": "Feature", "properties": { "codgeo": "34074", "value": 720, "isochrone_group": 12.0, "nb_agences": 1 }, "geometry": { "type": "MultiPolygon", "coordinates": [ [ [ [ 2.969875, 43.472857 ], [ 2.971335, 43.479272 ], [ 2.972034, 43.481779 ], [ 2.972411, 43.482018 ], [ 2.973538, 43.482118 ], [ 2.974101, 43.481682 ], [ 2.97620867798592, 43.478450123998144 ], [ 2.975403, 43.479148 ], [ 2.972461, 43.477074 ], [ 2.971238, 43.472423 ], [ 2.972047, 43.468919 ], [ 2.967961, 43.462007 ], [ 2.966855423406449, 43.461703569407824 ], [ 2.967651, 43.470059 ], [ 2.969875, 43.472857 ] ] ], [ [ [ 2.986412, 43.475318 ], [ 2.987262, 43.475004 ], [ 2.987799, 43.474478 ], [ 2.996699, 43.473431 ], [ 2.997834, 43.474222 ], [ 2.998171, 43.474419 ], [ 3.002289, 43.476035 ], [ 3.005817, 43.482644 ], [ 3.005579, 43.486806 ], [ 3.006061, 43.49509 ], [ 3.006254, 43.496238 ], [ 3.006463, 43.496439 ], [ 3.012192, 43.503074 ], [ 3.020692, 43.502144 ], [ 3.021716, 43.502227 ], [ 3.024748, 43.502097 ], [ 3.019824, 43.5011 ], [ 3.013027, 43.49622 ], [ 3.009679, 43.488025 ], [ 3.009565, 43.487821 ], [ 3.010505, 43.48517 ], [ 3.009017, 43.477602 ], [ 3.007362, 43.476622 ], [ 3.006707, 43.476339 ], [ 3.005943, 43.476041 ], [ 3.005375, 43.475616 ], [ 3.004586, 43.474292 ], [ 2.997165, 43.471848 ], [ 2.996482, 43.471351 ], [ 2.995991, 43.470927 ], [ 2.99547, 43.469557 ], [ 2.994201, 43.467126 ], [ 2.993094, 43.462779 ], [ 2.993274, 43.459261 ], [ 2.992462619379056, 43.457307304864393 ], [ 2.991791, 43.45676 ], [ 2.990087, 43.456159 ], [ 2.984065, 43.461995 ], [ 2.983534, 43.465505 ], [ 2.984944, 43.47152 ], [ 2.985329, 43.472209 ], [ 2.985371, 43.472348 ], [ 2.979663, 43.475458 ], [ 2.977536498499124, 43.477299969609916 ], [ 2.98528, 43.475095 ], [ 2.986412, 43.475318 ] ] ], [ [ [ 3.033851, 43.505571 ], [ 3.033978, 43.504856 ], [ 3.034081, 43.504026 ], [ 3.034142, 43.503232 ], [ 3.034604, 43.500974 ], [ 3.042769, 43.500454 ], [ 3.043293, 43.501028 ], [ 3.044415, 43.50165 ], [ 3.046092, 43.501198 ], [ 3.047014, 43.500892 ], [ 3.047749, 43.500638 ], [ 3.048757, 43.497565 ], [ 3.04842, 43.496176 ], [ 3.04846, 43.496996 ], [ 3.048372, 43.49744 ], [ 3.047898, 43.498488 ], [ 3.047397, 43.498959 ], [ 3.046196, 43.499822 ], [ 3.045336, 43.500344 ], [ 3.043468, 43.497267 ], [ 3.034611, 43.497977 ], [ 3.033672, 43.500801 ], [ 3.033171, 43.501843 ], [ 3.032958, 43.502042 ], [ 3.032625, 43.502307 ], [ 3.029531, 43.502764 ], [ 3.024748, 43.502097 ], [ 3.030265, 43.505852 ], [ 3.032789, 43.507914 ], [ 3.033054, 43.507651 ], [ 3.033509, 43.506979 ], [ 3.033732, 43.506437 ], [ 3.033851, 43.505571 ] ] ], [ [ [ 3.047359, 43.492787 ], [ 3.047179094808689, 43.48640083666443 ], [ 3.046903, 43.486497 ], [ 3.047359, 43.492787 ] ] ], [ [ [ 3.071292, 43.502401 ], [ 3.071378, 43.502006 ], [ 3.071475, 43.49675 ], [ 3.071348, 43.493152 ], [ 3.067568, 43.486394 ], [ 3.066156, 43.485699 ], [ 3.064439, 43.484875 ], [ 3.065292, 43.493364 ], [ 3.065897, 43.494557 ], [ 3.067029, 43.496517 ], [ 3.071066, 43.503952 ], [ 3.071134, 43.503436 ], [ 3.071292, 43.502401 ] ] ], [ [ [ 3.075835, 43.510475 ], [ 3.077147, 43.509975 ], [ 3.077246, 43.509872 ], [ 3.077521, 43.507632 ], [ 3.080057, 43.499941 ], [ 3.079621, 43.50057 ], [ 3.079347, 43.500807 ], [ 3.074682, 43.504166 ], [ 3.07252, 43.505558 ], [ 3.071291, 43.505375 ], [ 3.071244, 43.505242 ], [ 3.071083, 43.504357 ], [ 3.071066, 43.503952 ], [ 3.070696, 43.505327 ], [ 3.070452, 43.508919 ], [ 3.074251, 43.510498 ], [ 3.07481, 43.510658 ], [ 3.075123, 43.510638 ], [ 3.075835, 43.510475 ] ] ], [ [ [ 3.088937, 43.481783 ], [ 3.08748, 43.483418 ], [ 3.087327, 43.483346 ], [ 3.086975, 43.483189 ], [ 3.08904, 43.485267 ], [ 3.092225, 43.485998 ], [ 3.094222, 43.483003 ], [ 3.094578047207539, 43.480124843845971 ], [ 3.090512681299923, 43.479192396971108 ], [ 3.088937, 43.481783 ] ] ], [ [ [ 3.086884, 43.451516 ], [ 3.086624, 43.450676 ], [ 3.085838, 43.448603 ], [ 3.086008, 43.449637 ], [ 3.085887, 43.450409 ], [ 3.085366, 43.451363 ], [ 3.083925, 43.457966 ], [ 3.084587426066314, 43.460481205161685 ], [ 3.085363, 43.459498 ], [ 3.08826603738258, 43.458795913674457 ], [ 3.08778, 43.458256 ], [ 3.087749, 43.458074 ], [ 3.086742, 43.452442 ], [ 3.086884, 43.451516 ] ] ], [ [ [ 3.09556, 43.446162 ], [ 3.098262787114991, 43.445047867415674 ], [ 3.098216410910683, 43.444962549695752 ], [ 3.097389, 43.44512 ], [ 3.09556, 43.446162 ] ] ], [ [ [ 3.085838, 43.448603 ], [ 3.091922540101522, 43.446067774957704 ], [ 3.09166, 43.445955 ], [ 3.091211, 43.444001 ], [ 3.086553750962708, 43.44043977611927 ], [ 3.083805, 43.441299 ], [ 3.084318, 43.446975 ], [ 3.085774, 43.448313 ], [ 3.085838, 43.448603 ] ] ] ] } },
{ "type": "Feature", "properties": { "codgeo": "34074", "value": 780, "isochrone_group": 13.0, "nb_agences": 1 }, "geometry": { "type": "MultiPolygon", "coordinates": [ [ [ [ 2.966288, 43.47235 ], [ 2.966172, 43.473079 ], [ 2.967109, 43.479928 ], [ 2.967016, 43.482105 ], [ 2.967254, 43.484832 ], [ 2.968836, 43.487863 ], [ 2.968938, 43.488014 ], [ 2.969481, 43.487799 ], [ 2.973735, 43.486069 ], [ 2.974172, 43.484225 ], [ 2.974293, 43.482512 ], [ 2.975278184694995, 43.479966565146363 ], [ 2.975201, 43.48001 ], [ 2.973714, 43.483044 ], [ 2.972161, 43.484934 ], [ 2.971614, 43.485435 ], [ 2.970144, 43.485255 ], [ 2.969874, 43.485055 ], [ 2.96918, 43.482783 ], [ 2.968973, 43.479998 ], [ 2.966928, 43.471459 ], [ 2.967328, 43.470434 ], [ 2.966357, 43.465238 ], [ 2.962500369474675, 43.464366400448 ], [ 2.962444, 43.46448 ], [ 2.966288, 43.47235 ] ] ], [ [ [ 2.995349, 43.475219 ], [ 2.996885, 43.476158 ], [ 3.000155, 43.483584 ], [ 3.00057, 43.486326 ], [ 3.002544, 43.492244 ], [ 3.001336, 43.495635 ], [ 3.000554, 43.501052 ], [ 3.000976, 43.504627 ], [ 3.007219, 43.505257 ], [ 3.007327, 43.505239 ], [ 3.009072, 43.504083 ], [ 3.017596, 43.502522 ], [ 3.018158, 43.502586 ], [ 3.018757, 43.502619 ], [ 3.019365, 43.502549 ], [ 3.020443, 43.502308 ], [ 3.021716, 43.502227 ], [ 3.020692, 43.502144 ], [ 3.012192, 43.503074 ], [ 3.006463, 43.496439 ], [ 3.006254, 43.496238 ], [ 3.006061, 43.49509 ], [ 3.005579, 43.486806 ], [ 3.005817, 43.482644 ], [ 3.002289, 43.476035 ], [ 2.998171, 43.474419 ], [ 2.997834, 43.474222 ], [ 2.996699, 43.473431 ], [ 2.98804549611492, 43.474449002086246 ], [ 2.985912, 43.47608 ], [ 2.985652, 43.476211 ], [ 2.982517, 43.475893 ], [ 2.97782313798774, 43.478534420161893 ], [ 2.984615, 43.478495 ], [ 2.984814, 43.47836 ], [ 2.98515, 43.47807 ], [ 2.985739, 43.477253 ], [ 2.989265, 43.474371 ], [ 2.995349, 43.475219 ] ] ], [ [ [ 3.029333, 43.512993 ], [ 3.032871, 43.51233 ], [ 3.033509, 43.506979 ], [ 3.033054, 43.507651 ], [ 3.032789, 43.507914 ], [ 3.030265, 43.505852 ], [ 3.024748, 43.502097 ], [ 3.021716, 43.502227 ], [ 3.027537, 43.508521 ], [ 3.027632, 43.508953 ], [ 3.027808, 43.509421 ], [ 3.028414, 43.511682 ], [ 3.02885, 43.512478 ], [ 3.029333, 43.512993 ] ] ], [ [ [ 3.037593548912906, 43.50078360619294 ], [ 3.034604, 43.500974 ], [ 3.034142, 43.503232 ], [ 3.034081, 43.504026 ], [ 3.033978, 43.504856 ], [ 3.037593548912906, 43.50078360619294 ] ] ], [ [ [ 3.03997291864871, 43.500632072541656 ], [ 3.043293, 43.501028 ], [ 3.042769, 43.500454 ], [ 3.03997291864871, 43.500632072541656 ] ] ], [ [ [ 3.0648206171329, 43.4886728286532 ], [ 3.064439, 43.484875 ], [ 3.064242945172396, 43.484751593709731 ], [ 3.064233, 43.484759 ], [ 3.063307471872274, 43.48418138569788 ], [ 3.0648206171329, 43.4886728286532 ] ] ], [ [ [ 3.062023, 43.498326 ], [ 3.062529, 43.498446 ], [ 3.063053, 43.498468 ], [ 3.069127, 43.505039 ], [ 3.069216, 43.508308 ], [ 3.071958, 43.51159 ], [ 3.073936, 43.512143 ], [ 3.076759, 43.512198 ], [ 3.082445, 43.51168 ], [ 3.083159, 43.511558 ], [ 3.084066, 43.511063 ], [ 3.084432, 43.510661 ], [ 3.084567, 43.510467 ], [ 3.082091, 43.508097 ], [ 3.080057, 43.499941 ], [ 3.077521, 43.507632 ], [ 3.077246, 43.509872 ], [ 3.077147, 43.509975 ], [ 3.075835, 43.510475 ], [ 3.075123, 43.510638 ], [ 3.07481, 43.510658 ], [ 3.074251, 43.510498 ], [ 3.070452, 43.508919 ], [ 3.070696, 43.505327 ], [ 3.071066, 43.503952 ], [ 3.067029, 43.496517 ], [ 3.065897, 43.494557 ], [ 3.065292, 43.493364 ], [ 3.065068077299347, 43.491135535983787 ], [ 3.062175, 43.494627 ], [ 3.062028, 43.494698 ], [ 3.061553, 43.494907 ], [ 3.060735, 43.496144 ], [ 3.061048, 43.497592 ], [ 3.062023, 43.498326 ] ] ], [ [ [ 3.096552, 43.489213 ], [ 3.098317108214555, 43.486736669698004 ], [ 3.098104, 43.486576 ], [ 3.092523657038637, 43.485550089218471 ], [ 3.092225, 43.485998 ], [ 3.089062842742408, 43.485272242714196 ], [ 3.089348, 43.485724 ], [ 3.094067, 43.488677 ], [ 3.09487, 43.489433 ], [ 3.095566, 43.489642 ], [ 3.095998, 43.489681 ], [ 3.096552, 43.489213 ] ] ], [ [ [ 3.086742, 43.452442 ], [ 3.087471779675866, 43.456523548296403 ], [ 3.09131, 43.456277 ], [ 3.091874, 43.455972 ], [ 3.092759, 43.455862 ], [ 3.095504, 43.455083 ], [ 3.09439, 43.446473 ], [ 3.092242, 43.446205 ], [ 3.091837412146961, 43.446103244938769 ], [ 3.085838, 43.448603 ], [ 3.086624, 43.450676 ], [ 3.086884, 43.451516 ], [ 3.086742, 43.452442 ] ] ] ] } },
{ "type": "Feature", "properties": { "codgeo": "34074", "value": 840, "isochrone_group": 14.0, "nb_agences": 1 }, "geometry": { "type": "MultiPolygon", "coordinates": [ [ [ [ 2.965032, 43.481322 ], [ 2.959387, 43.486507 ], [ 2.958717, 43.48688 ], [ 2.958536, 43.486987 ], [ 2.959362, 43.490422 ], [ 2.961225, 43.490323 ], [ 2.961755, 43.490223 ], [ 2.963466, 43.489828 ], [ 2.964849493451488, 43.489482706961567 ], [ 2.963981, 43.48958 ], [ 2.963614, 43.48726 ], [ 2.963408, 43.486026 ], [ 2.965504, 43.480467 ], [ 2.965709, 43.479898 ], [ 2.965919612111797, 43.476818639351727 ], [ 2.965255, 43.479412 ], [ 2.965032, 43.481322 ] ] ], [ [ [ 2.976606, 43.486249 ], [ 2.971258140726686, 43.487076279394181 ], [ 2.969481, 43.487799 ], [ 2.968938, 43.488014 ], [ 2.968903151897241, 43.487962411141993 ], [ 2.966962, 43.489068 ], [ 2.966953534464596, 43.489072470119154 ], [ 2.970937, 43.488493 ], [ 2.976606, 43.486249 ] ] ], [ [ [ 2.979428, 43.485913 ], [ 2.979931, 43.485794 ], [ 2.980967, 43.485509 ], [ 2.983911, 43.48036 ], [ 2.992174, 43.478207 ], [ 2.995552, 43.482214 ], [ 2.995693, 43.486415 ], [ 2.996432, 43.490794 ], [ 2.996477, 43.491924 ], [ 2.997167, 43.492827 ], [ 2.999239, 43.497486 ], [ 2.99553, 43.502769 ], [ 2.994236, 43.503239 ], [ 2.993533, 43.5034 ], [ 2.992763, 43.503642 ], [ 2.992352, 43.503815 ], [ 2.99196, 43.504028 ], [ 2.991289, 43.504475 ], [ 2.993287, 43.50747 ], [ 2.995722, 43.506644 ], [ 2.997266, 43.505922 ], [ 3.003091198178921, 43.504840451041602 ], [ 3.000976, 43.504627 ], [ 3.000554, 43.501052 ], [ 3.001336, 43.495635 ], [ 3.002544, 43.492244 ], [ 3.00057, 43.486326 ], [ 3.000155, 43.483584 ], [ 2.996885, 43.476158 ], [ 2.995349, 43.475219 ], [ 2.990866058510348, 43.474594158714126 ], [ 2.990617, 43.474867 ], [ 2.990487, 43.474988 ], [ 2.984082, 43.47917 ], [ 2.976652, 43.482565 ], [ 2.977251, 43.486114 ], [ 2.976606, 43.486249 ], [ 2.978937, 43.485958 ], [ 2.979428, 43.485913 ] ] ], [ [ [ 2.959648, 43.468343 ], [ 2.962319, 43.470757 ], [ 2.966061595906559, 43.474742693640202 ], [ 2.966147, 43.473494 ], [ 2.961254, 43.466409 ], [ 2.961112027680576, 43.466401804351811 ], [ 2.960656, 43.467062 ], [ 2.959648, 43.468343 ] ] ], [ [ [ 3.018158, 43.502586 ], [ 3.017596, 43.502522 ], [ 3.017581448783055, 43.502524664764152 ], [ 3.018158, 43.502586 ] ] ], [ [ [ 3.036977, 43.517462 ], [ 3.03745, 43.515459 ], [ 3.03623, 43.513 ], [ 3.036035, 43.512476 ], [ 3.035635, 43.511921 ], [ 3.033732, 43.506437 ], [ 3.033509, 43.506979 ], [ 3.032871, 43.51233 ], [ 3.029333, 43.512993 ], [ 3.02885, 43.512478 ], [ 3.029872, 43.513978 ], [ 3.033526, 43.517226 ], [ 3.034103, 43.517774 ], [ 3.034245, 43.517908 ], [ 3.035454, 43.518004 ], [ 3.035955, 43.517966 ], [ 3.036977, 43.517462 ] ] ], [ [ [ 3.033978, 43.504856 ], [ 3.033851, 43.505571 ], [ 3.038296416183998, 43.500432145705673 ], [ 3.037943, 43.50039 ], [ 3.033978, 43.504856 ] ] ], [ [ [ 3.061553, 43.494907 ], [ 3.062028, 43.494698 ], [ 3.062175, 43.494627 ], [ 3.065482, 43.490636 ], [ 3.063275, 43.484085 ], [ 3.057213469491088, 43.481156914262186 ], [ 3.051512, 43.481061 ], [ 3.047168, 43.486007 ], [ 3.047359, 43.492787 ], [ 3.047563, 43.493233 ], [ 3.047935, 43.494054 ], [ 3.048255, 43.495337 ], [ 3.04842, 43.496176 ], [ 3.04846, 43.496996 ], [ 3.048372, 43.49744 ], [ 3.047898, 43.498488 ], [ 3.047397, 43.498959 ], [ 3.056074, 43.497502 ], [ 3.059156, 43.499363 ], [ 3.062529, 43.498446 ], [ 3.062023, 43.498326 ], [ 3.061048, 43.497592 ], [ 3.060735, 43.496144 ], [ 3.061553, 43.494907 ] ] ], [ [ [ 3.074705, 43.514874 ], [ 3.077581, 43.515227 ], [ 3.084066, 43.511063 ], [ 3.083159, 43.511558 ], [ 3.082445, 43.51168 ], [ 3.076759, 43.512198 ], [ 3.073936, 43.512143 ], [ 3.071958, 43.51159 ], [ 3.069216, 43.508308 ], [ 3.069127, 43.505039 ], [ 3.063053, 43.498468 ], [ 3.062529, 43.498446 ], [ 3.066355, 43.506026 ], [ 3.065885, 43.506841 ], [ 3.065411, 43.507748 ], [ 3.065663, 43.508977 ], [ 3.066068, 43.512559 ], [ 3.06706, 43.513088 ], [ 3.074705, 43.514874 ] ] ], [ [ [ 3.080255, 43.499039 ], [ 3.080057, 43.499941 ], [ 3.082091, 43.508097 ], [ 3.084567, 43.510467 ], [ 3.084432, 43.510661 ], [ 3.084066, 43.511063 ], [ 3.085315, 43.510088 ], [ 3.087083, 43.506937 ], [ 3.084967, 43.504586 ], [ 3.084565, 43.504063 ], [ 3.080261, 43.497019 ], [ 3.080302, 43.497482 ], [ 3.080255, 43.499039 ] ] ] ] } },
{ "type": "Feature", "properties": { "codgeo": "34074", "value": 900, "isochrone_group": 15.0, "nb_agences": 1 }, "geometry": { "type": "MultiPolygon", "coordinates": [ [ [ [ 2.916051192015129, 43.448918189955869 ], [ 2.915998, 43.448934 ], [ 2.915987940629631, 43.448952836664127 ], [ 2.916042, 43.448945 ], [ 2.916051192015129, 43.448918189955869 ] ] ], [ [ [ 2.953315, 43.489233 ], [ 2.953585, 43.491375 ], [ 2.953738, 43.491605 ], [ 2.95382, 43.491664 ], [ 2.95527, 43.492256 ], [ 2.960706, 43.493698 ], [ 2.961029, 43.49375 ], [ 2.962894, 43.49214 ], [ 2.965524725755122, 43.48955288235112 ], [ 2.963466, 43.489828 ], [ 2.958016, 43.491897 ], [ 2.957334, 43.492179 ], [ 2.956938, 43.492097 ], [ 2.956473, 43.491954 ], [ 2.95642, 43.491935 ], [ 2.956185, 43.491846 ], [ 2.956273, 43.490008 ], [ 2.956881, 43.487699 ], [ 2.957624, 43.48711 ], [ 2.962085, 43.482279 ], [ 2.962249, 43.481918 ], [ 2.963867, 43.480806 ], [ 2.965199, 43.475839 ], [ 2.961221, 43.472115 ], [ 2.959131, 43.471698 ], [ 2.957398215626274, 43.470162692455396 ], [ 2.955953, 43.471248 ], [ 2.957122, 43.474653 ], [ 2.95965, 43.482215 ], [ 2.957194, 43.486581 ], [ 2.954373, 43.488472 ], [ 2.953315, 43.489233 ] ] ], [ [ [ 2.972286, 43.489457 ], [ 2.973273325443788, 43.488515184088364 ], [ 2.97288, 43.488668 ], [ 2.972292, 43.488741 ], [ 2.971645, 43.488735 ], [ 2.967627872846276, 43.489271828460573 ], [ 2.971894, 43.489365 ], [ 2.972286, 43.489457 ] ] ], [ [ [ 2.996432, 43.490794 ], [ 2.995693, 43.486415 ], [ 2.995552, 43.482214 ], [ 2.992174, 43.478207 ], [ 2.992063, 43.486865 ], [ 2.991294, 43.490382 ], [ 2.991341, 43.490411 ], [ 2.991659, 43.490547 ], [ 2.993009, 43.490783 ], [ 2.997167, 43.492827 ], [ 2.996477, 43.491924 ], [ 2.996432, 43.490794 ] ] ], [ [ [ 2.999239, 43.497486 ], [ 2.997167, 43.492827 ], [ 2.997310131384929, 43.500233428658255 ], [ 2.999239, 43.497486 ] ] ], [ [ [ 2.988857, 43.512602 ], [ 2.990033, 43.513381 ], [ 2.992372, 43.512238 ], [ 2.997671297762464, 43.505846749448963 ], [ 2.997266, 43.505922 ], [ 2.995722, 43.506644 ], [ 2.993287, 43.50747 ], [ 2.991289, 43.504475 ], [ 2.99196, 43.504028 ], [ 2.989554, 43.504925 ], [ 2.98898, 43.505275 ], [ 2.988544, 43.505643 ], [ 2.988081, 43.5065 ], [ 2.987047, 43.508467 ], [ 2.985809, 43.510489 ], [ 2.988285, 43.512207 ], [ 2.988857, 43.512602 ] ] ], [ [ [ 3.027537, 43.508521 ], [ 3.025757834187566, 43.506597263593285 ], [ 3.027632, 43.508953 ], [ 3.027537, 43.508521 ] ] ], [ [ [ 3.04071, 43.519808 ], [ 3.040406, 43.519235 ], [ 3.03745, 43.515459 ], [ 3.036977, 43.517462 ], [ 3.035955, 43.517966 ], [ 3.035454, 43.518004 ], [ 3.034245, 43.517908 ], [ 3.034103, 43.517774 ], [ 3.033526, 43.517226 ], [ 3.029872, 43.513978 ], [ 3.034581, 43.519655 ], [ 3.035685, 43.521186 ], [ 3.0359, 43.521408 ], [ 3.036062, 43.521573 ], [ 3.037717, 43.521973 ], [ 3.03867, 43.521945 ], [ 3.040914, 43.520497 ], [ 3.04071, 43.519808 ] ] ], [ [ [ 3.065435, 43.517595 ], [ 3.066275, 43.517839 ], [ 3.066957, 43.517777 ], [ 3.075495, 43.518991 ], [ 3.076361, 43.519574 ], [ 3.078903, 43.517025 ], [ 3.081137, 43.513742 ], [ 3.087317, 43.511832 ], [ 3.088281, 43.511349 ], [ 3.09231, 43.509253 ], [ 3.09351, 43.508632 ], [ 3.093818, 43.508393 ], [ 3.093568, 43.505032 ], [ 3.092996, 43.505023 ], [ 3.08936, 43.504939 ], [ 3.088586, 43.504841 ], [ 3.085086838181386, 43.504719147242163 ], [ 3.087083, 43.506937 ], [ 3.085315, 43.510088 ], [ 3.084066, 43.511063 ], [ 3.077581, 43.515227 ], [ 3.074705, 43.514874 ], [ 3.06706, 43.513088 ], [ 3.066068, 43.512559 ], [ 3.065663, 43.508977 ], [ 3.065411, 43.507748 ], [ 3.065885, 43.506841 ], [ 3.066355, 43.506026 ], [ 3.062529, 43.498446 ], [ 3.059156, 43.499363 ], [ 3.056074, 43.497502 ], [ 3.047397, 43.498959 ], [ 3.046196, 43.499822 ], [ 3.044415, 43.50165 ], [ 3.053273, 43.500411 ], [ 3.056533, 43.501837 ], [ 3.056807, 43.501967 ], [ 3.064, 43.506588 ], [ 3.06444, 43.509119 ], [ 3.064779, 43.514977 ], [ 3.064639, 43.516713 ], [ 3.065435, 43.517595 ] ] ] ] } },
{ "type": "Feature", "properties": { "codgeo": "34074", "value": 960, "isochrone_group": 16.0, "nb_agences": 1 }, "geometry": { "type": "MultiPolygon", "coordinates": [ [ [ [ 2.909598, 43.452634 ], [ 2.907268, 43.453247 ], [ 2.911385, 43.452425 ], [ 2.909598, 43.452634 ] ] ], [ [ [ 2.914649, 43.45041 ], [ 2.91341, 43.45134 ], [ 2.915212, 43.450033 ], [ 2.914649, 43.45041 ] ] ], [ [ [ 2.915987940629629, 43.448952836664127 ], [ 2.915692, 43.449507 ], [ 2.915987940629631, 43.448952836664127 ], [ 2.915987940629629, 43.448952836664127 ] ] ], [ [ [ 2.915692, 43.449507 ], [ 2.915451319440552, 43.44977074577973 ], [ 2.91545131944055, 43.449770745779738 ], [ 2.915692, 43.449507 ] ] ], [ [ [ 2.951256, 43.473523 ], [ 2.950978, 43.473833 ], [ 2.953621, 43.476215 ], [ 2.953656, 43.476239 ], [ 2.953957, 43.476118 ], [ 2.956175812595114, 43.476893755931052 ], [ 2.955606, 43.475272 ], [ 2.953863891849232, 43.472132814849097 ], [ 2.953652, 43.472256 ], [ 2.952317, 43.472859 ], [ 2.951813, 43.473091 ], [ 2.951256, 43.473523 ] ] ], [ [ [ 2.947267, 43.494517 ], [ 2.951502097372521, 43.493582200579965 ], [ 2.951264, 43.493519 ], [ 2.949316, 43.493524 ], [ 2.94914, 43.489929 ], [ 2.95255, 43.48849 ], [ 2.952718, 43.488398 ], [ 2.953779070031247, 43.487122623201579 ], [ 2.951333, 43.488347 ], [ 2.947401, 43.49036 ], [ 2.946884, 43.490469 ], [ 2.944534, 43.491283 ], [ 2.945116, 43.494835 ], [ 2.946275, 43.494765 ], [ 2.946644, 43.494721 ], [ 2.947267, 43.494517 ] ] ], [ [ [ 2.960965, 43.498257 ], [ 2.961367, 43.499126 ], [ 2.961952, 43.499632 ], [ 2.962957, 43.499879 ], [ 2.963779, 43.499817 ], [ 2.966324, 43.496994 ], [ 2.966847, 43.492056 ], [ 2.968748381530734, 43.489296300192287 ], [ 2.967691230516227, 43.48927321218202 ], [ 2.964558, 43.491845 ], [ 2.963472, 43.493633 ], [ 2.962696, 43.494731 ], [ 2.961655, 43.495445 ], [ 2.960257, 43.496033 ], [ 2.959797, 43.495784 ], [ 2.956092454095296, 43.494800665126697 ], [ 2.960017, 43.496472 ], [ 2.960965, 43.498257 ] ] ], [ [ [ 2.98898, 43.505275 ], [ 2.989554, 43.504925 ], [ 2.99196, 43.504028 ], [ 2.992352, 43.503815 ], [ 2.992763, 43.503642 ], [ 2.993533, 43.5034 ], [ 2.994236, 43.503239 ], [ 2.99553, 43.502769 ], [ 2.996361, 43.502401 ], [ 2.99734, 43.501779 ], [ 2.997167, 43.492827 ], [ 2.993009, 43.490783 ], [ 2.991659, 43.490547 ], [ 2.991341, 43.490411 ], [ 2.991294, 43.490382 ], [ 2.992063, 43.486865 ], [ 2.99217050048928, 43.47847996183615 ], [ 2.992092, 43.478559 ], [ 2.988246, 43.486545 ], [ 2.987876, 43.48656 ], [ 2.986796, 43.486425 ], [ 2.986309, 43.486325 ], [ 2.979428, 43.485913 ], [ 2.978937, 43.485958 ], [ 2.978434586922159, 43.486020720808938 ], [ 2.986412, 43.488568 ], [ 2.987134, 43.490322 ], [ 2.992591, 43.49246 ], [ 2.994675, 43.498861 ], [ 2.991821, 43.502896 ], [ 2.991315, 43.503245 ], [ 2.990369, 43.504095 ], [ 2.98898, 43.505275 ] ] ], [ [ [ 2.997253, 43.516465 ], [ 2.996468, 43.515521 ], [ 2.995013, 43.51374 ], [ 2.997788, 43.505706 ], [ 2.992372, 43.512238 ], [ 2.990033, 43.513381 ], [ 2.988857, 43.512602 ], [ 2.988285, 43.512207 ], [ 2.988075333284073, 43.512061520428936 ], [ 2.99293, 43.517766 ], [ 2.993404, 43.518188 ], [ 2.995873, 43.519733 ], [ 2.995985, 43.519696 ], [ 2.996532, 43.519406 ], [ 2.997233, 43.518549 ], [ 2.997443, 43.517281 ], [ 2.997253, 43.516465 ] ] ], [ [ [ 3.040947, 43.523704 ], [ 3.041118, 43.523066 ], [ 3.041052, 43.520643 ], [ 3.040994, 43.519701 ], [ 3.039942, 43.518452 ], [ 3.039554, 43.517886 ], [ 3.039184, 43.5175 ], [ 3.03745, 43.515459 ], [ 3.040406, 43.519235 ], [ 3.04071, 43.519808 ], [ 3.040914, 43.520497 ], [ 3.03867, 43.521945 ], [ 3.037717, 43.521973 ], [ 3.036062, 43.521573 ], [ 3.0359, 43.521408 ], [ 3.035685, 43.521186 ], [ 3.034581, 43.519655 ], [ 3.036741, 43.523434 ], [ 3.037476, 43.524793 ], [ 3.038832, 43.525546 ], [ 3.039095, 43.525615 ], [ 3.039488, 43.525484 ], [ 3.039971, 43.525289 ], [ 3.040757, 43.524299 ], [ 3.040947, 43.523704 ] ] ], [ [ [ 3.076539, 43.522957 ], [ 3.079551, 43.521726 ], [ 3.079982, 43.520438 ], [ 3.083807, 43.514238 ], [ 3.088678, 43.51299 ], [ 3.096313, 43.509576 ], [ 3.096432362496034, 43.509548776974597 ], [ 3.095747, 43.509561 ], [ 3.095125, 43.509382 ], [ 3.093533, 43.508632 ], [ 3.093525170349669, 43.508620228202695 ], [ 3.09351, 43.508632 ], [ 3.09231, 43.509253 ], [ 3.088281, 43.511349 ], [ 3.087317, 43.511832 ], [ 3.081137, 43.513742 ], [ 3.078903, 43.517025 ], [ 3.076361, 43.519574 ], [ 3.075495, 43.518991 ], [ 3.066957, 43.517777 ], [ 3.066275, 43.517839 ], [ 3.065435, 43.517595 ], [ 3.064639, 43.516713 ], [ 3.064779, 43.514977 ], [ 3.06444, 43.509119 ], [ 3.064, 43.506588 ], [ 3.056807, 43.501967 ], [ 3.056533, 43.501837 ], [ 3.053273, 43.500411 ], [ 3.044415, 43.50165 ], [ 3.052832, 43.50373 ], [ 3.054566, 43.506489 ], [ 3.059664, 43.509082 ], [ 3.063353, 43.514441 ], [ 3.064692, 43.517782 ], [ 3.068858, 43.520067 ], [ 3.070177, 43.521054 ], [ 3.076539, 43.522957 ] ] ], [ [ [ 3.08419410869102, 43.504246681994367 ], [ 3.084537, 43.5047 ], [ 3.088586, 43.504841 ], [ 3.08936, 43.504939 ], [ 3.092996, 43.505023 ], [ 3.093139484961363, 43.505025257630493 ], [ 3.09347, 43.504983 ], [ 3.094215, 43.50483 ], [ 3.095373646691368, 43.503527798947381 ], [ 3.095091, 43.503603 ], [ 3.088815, 43.503582 ], [ 3.08842, 43.503795 ], [ 3.08419410869102, 43.504246681994367 ] ] ] ] } },
{ "type": "Feature", "properties": { "codgeo": "34074", "value": 1020, "isochrone_group": 17.0, "nb_agences": 1 }, "geometry": { "type": "MultiPolygon", "coordinates": [ [ [ [ 2.954275948226598, 43.479845619842798 ], [ 2.951757, 43.477137 ], [ 2.950894, 43.477132 ], [ 2.95047, 43.477006 ], [ 2.95, 43.476771 ], [ 2.949804, 43.476677 ], [ 2.949631, 43.476598 ], [ 2.948953, 43.476287 ], [ 2.948766, 43.476024 ], [ 2.948436, 43.474871 ], [ 2.94803, 43.476258 ], [ 2.948047, 43.476733 ], [ 2.948228, 43.477339 ], [ 2.948344, 43.477787 ], [ 2.951058, 43.477612 ], [ 2.954275948226598, 43.479845619842798 ] ] ], [ [ [ 2.955967682727588, 43.48166473846927 ], [ 2.954157043973396, 43.486150773441153 ], [ 2.957295, 43.483092 ], [ 2.955967682727588, 43.48166473846927 ] ] ], [ [ [ 2.94846335682103, 43.489816123021171 ], [ 2.950458881804864, 43.488794507611111 ], [ 2.95022, 43.488763 ], [ 2.950157, 43.48874 ], [ 2.946884, 43.490469 ], [ 2.94846335682103, 43.489816123021171 ] ] ], [ [ [ 2.942462, 43.49479 ], [ 2.942007, 43.494636 ], [ 2.940414, 43.494131 ], [ 2.941191, 43.490616 ], [ 2.941665, 43.490721 ], [ 2.940447, 43.490405 ], [ 2.93988, 43.490399 ], [ 2.939075, 43.490616 ], [ 2.936194, 43.491788 ], [ 2.937045, 43.495286 ], [ 2.943844, 43.495049 ], [ 2.942982, 43.49489 ], [ 2.942462, 43.49479 ] ] ], [ [ [ 2.954058, 43.495462 ], [ 2.957943, 43.497641 ], [ 2.959551, 43.503649 ], [ 2.959935, 43.504705 ], [ 2.962092, 43.507084 ], [ 2.963614, 43.50655 ], [ 2.964144, 43.506162 ], [ 2.964511, 43.505708 ], [ 2.964649, 43.505438 ], [ 2.964872, 43.504467 ], [ 2.965529097995944, 43.500813079352028 ], [ 2.964942, 43.501225 ], [ 2.964479, 43.501529 ], [ 2.963956, 43.501768 ], [ 2.96176, 43.502783 ], [ 2.961225, 43.502523 ], [ 2.961146, 43.502481 ], [ 2.960531, 43.50213 ], [ 2.959906, 43.501158 ], [ 2.957283, 43.496264 ], [ 2.951725, 43.493533 ], [ 2.94712, 43.494981 ], [ 2.946459, 43.494985 ], [ 2.947454, 43.494986 ], [ 2.947937, 43.494916 ], [ 2.954058, 43.495462 ] ] ], [ [ [ 2.971983, 43.490806 ], [ 2.980185, 43.488158 ], [ 2.981207, 43.49161 ], [ 2.982863, 43.49129 ], [ 2.983551, 43.491198 ], [ 2.984991, 43.490971 ], [ 2.985384, 43.490934 ], [ 2.985739, 43.490865 ], [ 2.98695, 43.490401 ], [ 2.987337893179303, 43.490401883382347 ], [ 2.987134, 43.490322 ], [ 2.986412, 43.488568 ], [ 2.978366272073034, 43.485998907096686 ], [ 2.977779, 43.486041 ], [ 2.976606, 43.486249 ], [ 2.969807, 43.491381 ], [ 2.967516, 43.496502 ], [ 2.96657, 43.499027 ], [ 2.966343131624035, 43.499763837460407 ], [ 2.970821, 43.494849 ], [ 2.971809, 43.491855 ], [ 2.971983, 43.490806 ] ] ], [ [ [ 2.994675, 43.498861 ], [ 2.992591, 43.49246 ], [ 2.99166785178909, 43.492098319429211 ], [ 2.99171, 43.499485 ], [ 2.991266, 43.499664 ], [ 2.991091, 43.499761 ], [ 2.988638405233103, 43.505563318518846 ], [ 2.98898, 43.505275 ], [ 2.990369, 43.504095 ], [ 2.991315, 43.503245 ], [ 2.991821, 43.502896 ], [ 2.994675, 43.498861 ] ] ], [ [ [ 2.996295, 43.523706 ], [ 2.996791, 43.523841 ], [ 2.997303, 43.523915 ], [ 3.001805, 43.524179 ], [ 3.001872, 43.523916 ], [ 3.000505, 43.521084 ], [ 3.000385, 43.520843 ], [ 2.999155, 43.516277 ], [ 2.997672, 43.511454 ], [ 3.000816, 43.504641 ], [ 2.997788, 43.505706 ], [ 2.995013, 43.51374 ], [ 2.996468, 43.515521 ], [ 2.997253, 43.516465 ], [ 2.997443, 43.517281 ], [ 2.997233, 43.518549 ], [ 2.996532, 43.519406 ], [ 2.995985, 43.519696 ], [ 2.995873, 43.519733 ], [ 2.993404, 43.518188 ], [ 2.99293, 43.517766 ], [ 2.988, 43.511973 ], [ 2.987348, 43.511286 ], [ 2.988623, 43.51434 ], [ 2.988701, 43.514529 ], [ 2.98943, 43.515533 ], [ 2.993133, 43.520923 ], [ 2.993597, 43.521739 ], [ 2.994036, 43.522244 ], [ 2.994644, 43.522735 ], [ 2.995659, 43.523381 ], [ 2.996295, 43.523706 ] ] ], [ [ [ 3.042373, 43.515362 ], [ 3.04065, 43.515025 ], [ 3.039912, 43.514779 ], [ 3.035635, 43.511921 ], [ 3.036035, 43.512476 ], [ 3.03623, 43.513 ], [ 3.03745, 43.515459 ], [ 3.039184, 43.5175 ], [ 3.039554, 43.517886 ], [ 3.039942, 43.518452 ], [ 3.040994, 43.519701 ], [ 3.041052, 43.520643 ], [ 3.041118, 43.523066 ], [ 3.040947, 43.523704 ], [ 3.040757, 43.524299 ], [ 3.039971, 43.525289 ], [ 3.039488, 43.525484 ], [ 3.039095, 43.525615 ], [ 3.038832, 43.525546 ], [ 3.037476, 43.524793 ], [ 3.036741, 43.523434 ], [ 3.034581, 43.519655 ], [ 3.034188177541856, 43.519181427459145 ], [ 3.035993, 43.526273 ], [ 3.036057, 43.526806 ], [ 3.036184, 43.527708 ], [ 3.039713, 43.528422 ], [ 3.041847, 43.526802 ], [ 3.043348, 43.52353 ], [ 3.043588, 43.518751 ], [ 3.042546, 43.515951 ], [ 3.042373, 43.515362 ] ] ], [ [ [ 3.063353, 43.514441 ], [ 3.059664, 43.509082 ], [ 3.054566, 43.506489 ], [ 3.052832, 43.50373 ], [ 3.044415, 43.50165 ], [ 3.04994, 43.504888 ], [ 3.050331, 43.505329 ], [ 3.050688, 43.50564 ], [ 3.051784, 43.50616 ], [ 3.051858, 43.506198 ], [ 3.055892, 43.510409 ], [ 3.057447, 43.513655 ], [ 3.064415524841298, 43.517092154215646 ], [ 3.063353, 43.514441 ] ] ], [ [ [ 3.081545, 43.520033 ], [ 3.081745, 43.519538 ], [ 3.081901, 43.518778 ], [ 3.08837, 43.513785 ], [ 3.090627, 43.514428 ], [ 3.091198, 43.51426 ], [ 3.092458, 43.513746 ], [ 3.096278359389335, 43.51010491722446 ], [ 3.095929275233682, 43.509747583019276 ], [ 3.088678, 43.51299 ], [ 3.083807, 43.514238 ], [ 3.079982, 43.520438 ], [ 3.079551, 43.521726 ], [ 3.076539, 43.522957 ], [ 3.070177, 43.521054 ], [ 3.076145, 43.5252 ], [ 3.077117, 43.527145 ], [ 3.077654, 43.527107 ], [ 3.07815, 43.526966 ], [ 3.078644, 43.52671 ], [ 3.078973, 43.526456 ], [ 3.079563, 43.525482 ], [ 3.079663, 43.52501 ], [ 3.081545, 43.520033 ] ] ] ] } },
{ "type": "Feature", "properties": { "codgeo": "34074", "value": 1080, "isochrone_group": 18.0, "nb_agences": 1 }, "geometry": { "type": "MultiPolygon", "coordinates": [ [ [ [ 2.933405, 43.49701 ], [ 2.937430666116864, 43.495304875390062 ], [ 2.936826, 43.495329 ], [ 2.935437, 43.49539 ], [ 2.935142, 43.495388 ], [ 2.934295, 43.495335 ], [ 2.933978, 43.495291 ], [ 2.933924, 43.49525 ], [ 2.932007, 43.492684 ], [ 2.931941475002346, 43.492696136658914 ], [ 2.930331, 43.494071 ], [ 2.930054, 43.494518 ], [ 2.929884, 43.494864 ], [ 2.929724, 43.495539 ], [ 2.929731, 43.49607 ], [ 2.930186, 43.497055 ], [ 2.933405, 43.49701 ] ] ], [ [ [ 2.959767, 43.512784 ], [ 2.960036, 43.512531 ], [ 2.962395, 43.510678 ], [ 2.967761, 43.50597 ], [ 2.968017, 43.505363 ], [ 2.96831, 43.504733 ], [ 2.968111, 43.500414 ], [ 2.970560485255387, 43.496151153661572 ], [ 2.96602, 43.50316 ], [ 2.965958, 43.504129 ], [ 2.964712, 43.506428 ], [ 2.962889, 43.509423 ], [ 2.962646, 43.509679 ], [ 2.962198, 43.510064 ], [ 2.961707, 43.510365 ], [ 2.961298, 43.510523 ], [ 2.958517, 43.508976 ], [ 2.958476, 43.506181 ], [ 2.958568, 43.504745 ], [ 2.955075, 43.50952 ], [ 2.955721, 43.513061 ], [ 2.956995, 43.51324 ], [ 2.957518, 43.51331 ], [ 2.958017, 43.513331 ], [ 2.958504, 43.513309 ], [ 2.959143, 43.513155 ], [ 2.959767, 43.512784 ] ] ], [ [ [ 2.980185, 43.488158 ], [ 2.976481306404363, 43.489353730387862 ], [ 2.975636, 43.490226 ], [ 2.975367, 43.490782 ], [ 2.97483, 43.491327 ], [ 2.971457, 43.494967 ], [ 2.971179, 43.495321 ], [ 2.975701, 43.492552 ], [ 2.980762039957503, 43.490107062557044 ], [ 2.980185, 43.488158 ] ] ], [ [ [ 2.954268, 43.497465 ], [ 2.953363, 43.497156 ], [ 2.946459, 43.494985 ], [ 2.951932, 43.496861 ], [ 2.954533826565513, 43.497915050557431 ], [ 2.954268, 43.497465 ] ] ], [ [ [ 2.990397, 43.499218 ], [ 2.989834, 43.500071 ], [ 2.989797, 43.500143 ], [ 2.989007, 43.501514 ], [ 2.988133, 43.506759 ], [ 2.991091, 43.499761 ], [ 2.991266, 43.499664 ], [ 2.99171, 43.499485 ], [ 2.991659, 43.490547 ], [ 2.991341, 43.490411 ], [ 2.990397, 43.499218 ] ] ], [ [ [ 3.001862039264201, 43.523955099604692 ], [ 3.001870105967868, 43.523975563070202 ], [ 3.001872, 43.523916 ], [ 3.001862039264201, 43.523955099604692 ] ] ], [ [ [ 2.994036, 43.522244 ], [ 2.993597, 43.521739 ], [ 2.993133, 43.520923 ], [ 2.98943, 43.515533 ], [ 2.988701, 43.514529 ], [ 2.988623, 43.51434 ], [ 2.987348, 43.511286 ], [ 2.98654, 43.514242 ], [ 2.986452, 43.514535 ], [ 2.989712, 43.519457 ], [ 2.989791, 43.519631 ], [ 2.992248, 43.527254 ], [ 2.992249150623243, 43.527255129124647 ], [ 2.992964, 43.526588 ], [ 2.993491, 43.526285 ], [ 2.997122348302293, 43.52388889018431 ], [ 2.996791, 43.523841 ], [ 2.996295, 43.523706 ], [ 2.995659, 43.523381 ], [ 2.994644, 43.522735 ], [ 2.994036, 43.522244 ] ] ], [ [ [ 2.997672, 43.511454 ], [ 2.999155, 43.516277 ], [ 3.000385, 43.520843 ], [ 3.000505, 43.521084 ], [ 3.001872, 43.523916 ], [ 3.001853, 43.523817 ], [ 3.00022, 43.518087 ], [ 3.002446, 43.513607 ], [ 3.002307, 43.513454 ], [ 3.001549, 43.512449 ], [ 3.005529, 43.504494 ], [ 3.004871, 43.50451 ], [ 3.004282, 43.504461 ], [ 3.003518, 43.504358 ], [ 3.000816, 43.504641 ], [ 2.997672, 43.511454 ] ] ], [ [ [ 3.039713, 43.528422 ], [ 3.036184, 43.527708 ], [ 3.036057, 43.526806 ], [ 3.035993, 43.526273 ], [ 3.03588792344545, 43.525860129467745 ], [ 3.034486, 43.528804 ], [ 3.034546, 43.529159 ], [ 3.034723, 43.529693 ], [ 3.036039, 43.531852 ], [ 3.03634, 43.532298 ], [ 3.037419, 43.532943 ], [ 3.039498, 43.532091 ], [ 3.039818, 43.531017 ], [ 3.039976, 43.529584 ], [ 3.040202646520263, 43.528050290832773 ], [ 3.039713, 43.528422 ] ] ], [ [ [ 3.051858, 43.506198 ], [ 3.051784, 43.50616 ], [ 3.050688, 43.50564 ], [ 3.050331, 43.505329 ], [ 3.04994, 43.504888 ], [ 3.044415, 43.50165 ], [ 3.043293, 43.501028 ], [ 3.038409, 43.500302 ], [ 3.033851, 43.505571 ], [ 3.033732, 43.506437 ], [ 3.035635, 43.511921 ], [ 3.039912, 43.514779 ], [ 3.04065, 43.515025 ], [ 3.042373, 43.515362 ], [ 3.042546, 43.515951 ], [ 3.043588, 43.518751 ], [ 3.043472073349778, 43.52105938942254 ], [ 3.046135, 43.517882 ], [ 3.04718, 43.517302 ], [ 3.053999, 43.515965 ], [ 3.054456, 43.515839 ], [ 3.054753, 43.515732 ], [ 3.055455, 43.515436 ], [ 3.056523, 43.514668 ], [ 3.062610632506699, 43.516201909373613 ], [ 3.057447, 43.513655 ], [ 3.055892, 43.510409 ], [ 3.051858, 43.506198 ] ] ], [ [ [ 3.082551, 43.521645 ], [ 3.089306, 43.515821 ], [ 3.089856, 43.516147 ], [ 3.090127, 43.516289 ], [ 3.093529, 43.515519 ], [ 3.096088, 43.514328 ], [ 3.103317, 43.513323 ], [ 3.104214299347893, 43.513008699681109 ], [ 3.096757250042019, 43.509648499298997 ], [ 3.092458, 43.513746 ], [ 3.091198, 43.51426 ], [ 3.090627, 43.514428 ], [ 3.08837, 43.513785 ], [ 3.081901, 43.518778 ], [ 3.081745, 43.519538 ], [ 3.081545, 43.520033 ], [ 3.079663, 43.52501 ], [ 3.079563, 43.525482 ], [ 3.078973, 43.526456 ], [ 3.078644, 43.52671 ], [ 3.07815, 43.526966 ], [ 3.077654, 43.527107 ], [ 3.077117, 43.527145 ], [ 3.076145, 43.5252 ], [ 3.070177, 43.521054 ], [ 3.068858, 43.520067 ], [ 3.065435, 43.517595 ], [ 3.068208, 43.52082 ], [ 3.072292, 43.527887 ], [ 3.072435, 43.528375 ], [ 3.074988, 43.529704 ], [ 3.079143, 43.526994 ], [ 3.079309, 43.526861 ], [ 3.079501, 43.526676 ], [ 3.079778, 43.52634 ], [ 3.082908, 43.522289 ], [ 3.082844, 43.522138 ], [ 3.082551, 43.521645 ] ] ] ] } },
{ "type": "Feature", "properties": { "codgeo": "34074", "value": 1140, "isochrone_group": 19.0, "nb_agences": 1 }, "geometry": { "type": "MultiPolygon", "coordinates": [ [ [ [ 2.936297, 43.496381 ], [ 2.938284485136128, 43.495097734789766 ], [ 2.937912, 43.495101 ], [ 2.933405, 43.49701 ], [ 2.936297, 43.496381 ] ] ], [ [ [ 2.965584, 43.511837 ], [ 2.965924, 43.511615 ], [ 2.966425, 43.511132 ], [ 2.966748, 43.510444 ], [ 2.966824, 43.509777 ], [ 2.973066, 43.503692 ], [ 2.973865, 43.503287 ], [ 2.973362, 43.501264 ], [ 2.97918, 43.495559 ], [ 2.985355, 43.50126 ], [ 2.985172, 43.50238 ], [ 2.985193, 43.502513 ], [ 2.981878, 43.509175 ], [ 2.982087, 43.511749 ], [ 2.982944, 43.512614 ], [ 2.98398, 43.513605 ], [ 2.984569, 43.513845 ], [ 2.989808, 43.520631 ], [ 2.991343274746635, 43.527921262222819 ], [ 2.991942, 43.52761 ], [ 2.992058943991953, 43.52666744161607 ], [ 2.989791, 43.519631 ], [ 2.989712, 43.519457 ], [ 2.986452, 43.514535 ], [ 2.98654, 43.514242 ], [ 2.987348, 43.511286 ], [ 2.988133, 43.506759 ], [ 2.989007, 43.501514 ], [ 2.989797, 43.500143 ], [ 2.989834, 43.500071 ], [ 2.990397, 43.499218 ], [ 2.991341, 43.490411 ], [ 2.987538, 43.48919 ], [ 2.98059965266768, 43.490185510221657 ], [ 2.980081441660225, 43.490435852741378 ], [ 2.978031, 43.493994 ], [ 2.9778, 43.493947 ], [ 2.976987, 43.493583 ], [ 2.971964554810935, 43.494839973624181 ], [ 2.97144440476133, 43.495158482135302 ], [ 2.971092, 43.500516 ], [ 2.971418, 43.502735 ], [ 2.971179, 43.503 ], [ 2.970754, 43.503372 ], [ 2.969932, 43.503804 ], [ 2.968137466110002, 43.505103977306149 ], [ 2.968017, 43.505363 ], [ 2.967761, 43.50597 ], [ 2.964139332509739, 43.509147564395107 ], [ 2.963468, 43.510949 ], [ 2.959143, 43.513155 ], [ 2.958504, 43.513309 ], [ 2.953579, 43.514214 ], [ 2.95213, 43.513443 ], [ 2.951974, 43.513305 ], [ 2.951968789925133, 43.513275373558848 ], [ 2.951867, 43.513582 ], [ 2.951713, 43.514718 ], [ 2.952676, 43.518187 ], [ 2.953542, 43.517971 ], [ 2.954266, 43.51774 ], [ 2.957785, 43.515682 ], [ 2.965584, 43.511837 ] ] ], [ [ [ 2.949997, 43.49794 ], [ 2.949467, 43.497762 ], [ 2.949356, 43.497729 ], [ 2.949289, 43.4977 ], [ 2.943844, 43.495049 ], [ 2.938772871726089, 43.495093453585703 ], [ 2.94581, 43.498691 ], [ 2.946711, 43.498967 ], [ 2.947176, 43.499067 ], [ 2.949061, 43.498473 ], [ 2.952953, 43.506241 ], [ 2.952994353415773, 43.509622503269 ], [ 2.956195, 43.506283 ], [ 2.955596549427292, 43.499375381952113 ], [ 2.955258491202356, 43.498764487205115 ], [ 2.950619, 43.497955 ], [ 2.950282, 43.498054 ], [ 2.949997, 43.49794 ] ] ], [ [ [ 3.001853, 43.523817 ], [ 3.001872, 43.523916 ], [ 3.003362, 43.515229 ], [ 3.003848, 43.512654 ], [ 3.006675, 43.504406 ], [ 3.005529, 43.504494 ], [ 3.001549, 43.512449 ], [ 3.002307, 43.513454 ], [ 3.002446, 43.513607 ], [ 3.00022, 43.518087 ], [ 3.000935242722014, 43.520596700426914 ], [ 3.001178, 43.520768 ], [ 3.001387, 43.521234 ], [ 3.00164164667971, 43.523075386696114 ], [ 3.001853, 43.523817 ] ] ], [ [ [ 3.032494, 43.527817 ], [ 3.03634, 43.532298 ], [ 3.036039, 43.531852 ], [ 3.034723, 43.529693 ], [ 3.034546, 43.529159 ], [ 3.034486, 43.528804 ], [ 3.036148, 43.525314 ], [ 3.034581, 43.519655 ], [ 3.034057, 43.518666 ], [ 3.033588, 43.517838 ], [ 3.032825, 43.524928 ], [ 3.032494, 43.527817 ] ] ], [ [ [ 3.053999, 43.515965 ], [ 3.04718, 43.517302 ], [ 3.046135, 43.517882 ], [ 3.040757, 43.524299 ], [ 3.039976, 43.529584 ], [ 3.045776, 43.523804 ], [ 3.045696, 43.520205 ], [ 3.052556, 43.516544 ], [ 3.05528, 43.516325 ], [ 3.055394, 43.516249 ], [ 3.055552, 43.515954 ], [ 3.056272, 43.514959 ], [ 3.064639, 43.516713 ], [ 3.056523, 43.514668 ], [ 3.055455, 43.515436 ], [ 3.054753, 43.515732 ], [ 3.054456, 43.515839 ], [ 3.053999, 43.515965 ] ] ], [ [ [ 3.090649, 43.518021 ], [ 3.092673, 43.518539 ], [ 3.101065, 43.516026 ], [ 3.104686, 43.516034 ], [ 3.10574847618914, 43.515235316600375 ], [ 3.105492, 43.514861 ], [ 3.104921, 43.513998 ], [ 3.104725, 43.51369 ], [ 3.104519, 43.513146 ], [ 3.104214299347893, 43.513008699681109 ], [ 3.103317, 43.513323 ], [ 3.096088, 43.514328 ], [ 3.093529, 43.515519 ], [ 3.090127, 43.516289 ], [ 3.089856, 43.516147 ], [ 3.089306, 43.515821 ], [ 3.082551, 43.521645 ], [ 3.082844, 43.522138 ], [ 3.082908, 43.522289 ], [ 3.079778, 43.52634 ], [ 3.079501, 43.526676 ], [ 3.079309, 43.526861 ], [ 3.079143, 43.526994 ], [ 3.074988, 43.529704 ], [ 3.072435, 43.528375 ], [ 3.072292, 43.527887 ], [ 3.068208, 43.52082 ], [ 3.065435, 43.517595 ], [ 3.064639, 43.516713 ], [ 3.066434, 43.51979 ], [ 3.066686, 43.520718 ], [ 3.066772, 43.520966 ], [ 3.069261, 43.528904 ], [ 3.069637, 43.531451 ], [ 3.070195, 43.531967 ], [ 3.071051, 43.53224 ], [ 3.071852, 43.532135 ], [ 3.079406, 43.529643 ], [ 3.079699, 43.529237 ], [ 3.083337, 43.523713 ], [ 3.083044, 43.52283 ], [ 3.090649, 43.518021 ] ] ] ] } },
{ "type": "Feature", "properties": { "codgeo": "34074", "value": 1200, "isochrone_group": 20.0, "nb_agences": 1 }, "geometry": { "type": "MultiPolygon", "coordinates": [ [ [ [ 2.941892, 43.501044 ], [ 2.948039, 43.505742 ], [ 2.948195, 43.509339 ], [ 2.948329, 43.511655 ], [ 2.949545, 43.516103 ], [ 2.949965, 43.512654 ], [ 2.951089, 43.509097 ], [ 2.951173, 43.505498 ], [ 2.946477, 43.499161 ], [ 2.943257, 43.497552 ], [ 2.935656, 43.498003 ], [ 2.933405, 43.49701 ], [ 2.930186, 43.497055 ], [ 2.932834, 43.498939 ], [ 2.934057, 43.49935 ], [ 2.94189, 43.501043 ], [ 2.941892, 43.501044 ] ] ], [ [ [ 2.97951, 43.514613 ], [ 2.984653, 43.514587 ], [ 2.989808, 43.520631 ], [ 2.984569, 43.513845 ], [ 2.98398, 43.513605 ], [ 2.982944, 43.512614 ], [ 2.982087, 43.511749 ], [ 2.981878, 43.509175 ], [ 2.985193, 43.502513 ], [ 2.985172, 43.50238 ], [ 2.985355, 43.50126 ], [ 2.97927283278006, 43.495644706830632 ], [ 2.977338, 43.501144 ], [ 2.975832, 43.503632 ], [ 2.97549, 43.5036 ], [ 2.973066, 43.503692 ], [ 2.966824, 43.509777 ], [ 2.966748, 43.510444 ], [ 2.966425, 43.511132 ], [ 2.965519254607035, 43.512253069815721 ], [ 2.965896, 43.512238 ], [ 2.966509, 43.51212 ], [ 2.966986, 43.511975 ], [ 2.967649, 43.511634 ], [ 2.96849, 43.510326 ], [ 2.977187, 43.51149 ], [ 2.978292, 43.514917 ], [ 2.97951, 43.514613 ] ] ], [ [ [ 2.96071, 43.517418 ], [ 2.961497582587347, 43.51740112005735 ], [ 2.965118698258885, 43.512532970105532 ], [ 2.958654281630193, 43.516949445531232 ], [ 2.96071, 43.517418 ] ] ], [ [ [ 2.985817517400785, 43.537824772084534 ], [ 2.991335174459311, 43.535731068254279 ], [ 2.991117, 43.535698 ], [ 2.985817517400785, 43.537824772084534 ] ] ], [ [ [ 3.006235, 43.51546 ], [ 3.005959, 43.51424 ], [ 3.005328, 43.513423 ], [ 3.004738, 43.513117 ], [ 3.006675, 43.504406 ], [ 3.003848, 43.512654 ], [ 3.003362, 43.515229 ], [ 3.002326690064381, 43.521265065376319 ], [ 3.00329510354818, 43.522211073795937 ], [ 3.004917, 43.518062 ], [ 3.006307, 43.516846 ], [ 3.006345, 43.515879 ], [ 3.006235, 43.51546 ] ] ], [ [ [ 3.032518, 43.530983 ], [ 3.037419, 43.532943 ], [ 3.03634, 43.532298 ], [ 3.032494, 43.527817 ], [ 3.032825, 43.524928 ], [ 3.033588, 43.517838 ], [ 3.031174629897349, 43.515331108558605 ], [ 3.032906, 43.522776 ], [ 3.031397, 43.526247 ], [ 3.031472, 43.528695 ], [ 3.031941, 43.530602 ], [ 3.032518, 43.530983 ] ] ], [ [ [ 3.055394, 43.516249 ], [ 3.05528, 43.516325 ], [ 3.052556, 43.516544 ], [ 3.045696, 43.520205 ], [ 3.045776, 43.523804 ], [ 3.039976, 43.529584 ], [ 3.047403, 43.524616 ], [ 3.047934, 43.52477 ], [ 3.048519, 43.524869 ], [ 3.048907, 43.52487 ], [ 3.049388, 43.524819 ], [ 3.049735, 43.524742 ], [ 3.050311, 43.524557 ], [ 3.050917, 43.524224 ], [ 3.051691, 43.523515 ], [ 3.051728, 43.523441 ], [ 3.054298, 43.51913 ], [ 3.055744, 43.516614 ], [ 3.064639, 43.516713 ], [ 3.056272, 43.514959 ], [ 3.055552, 43.515954 ], [ 3.055394, 43.516249 ] ] ], [ [ [ 3.066686, 43.520718 ], [ 3.066814, 43.521433 ], [ 3.067048086375628, 43.521846503676059 ], [ 3.066772, 43.520966 ], [ 3.066686, 43.520718 ] ] ], [ [ [ 3.071051, 43.53224 ], [ 3.070195, 43.531967 ], [ 3.069637, 43.531451 ], [ 3.069261, 43.528904 ], [ 3.06737645936339, 43.522893761521331 ], [ 3.065671, 43.530429 ], [ 3.065539, 43.531388 ], [ 3.065404, 43.532335 ], [ 3.065835, 43.533243 ], [ 3.066727, 43.533892 ], [ 3.067173, 43.534026 ], [ 3.068101, 43.534031 ], [ 3.076342, 43.53261 ], [ 3.077068, 43.532563 ], [ 3.077456, 43.53243 ], [ 3.077739, 43.532299 ], [ 3.078531, 43.531303 ], [ 3.079699, 43.529237 ], [ 3.079406, 43.529643 ], [ 3.071852, 43.532135 ], [ 3.071051, 43.53224 ] ] ], [ [ [ 3.092673, 43.518539 ], [ 3.090649, 43.518021 ], [ 3.087285086211737, 43.520148161263329 ], [ 3.088585, 43.519593 ], [ 3.09216, 43.520011 ], [ 3.093011978976402, 43.518437492115375 ], [ 3.092673, 43.518539 ] ] ], [ [ [ 3.105578032283626, 43.515363442500309 ], [ 3.105973, 43.515563 ], [ 3.105748476189139, 43.515235316600375 ], [ 3.105578032283626, 43.515363442500309 ] ] ] ] } }
]
}
