{
"type": "FeatureCollection",
"name": "La_Banque_Postale",
"crs": { "type": "name", "properties": { "name": "urn:ogc:def:crs:OGC:1.3:CRS84" } },
"features": [
{ "type": "Feature", "properties": { "codgeo": "12231", "value": 60, "isochrone_group": 1.0, "nb_agences": 1 }, "geometry": { "type": "Polygon", "coordinates": [ [ [ 3.392979, 44.020489 ], [ 3.392989, 44.020425 ], [ 3.393086, 44.020149 ], [ 3.393183, 44.019873 ], [ 3.393212, 44.019821 ], [ 3.393396, 44.019589 ], [ 3.393581, 44.019358 ], [ 3.393611, 44.019327 ], [ 3.393743, 44.019225 ], [ 3.394326, 44.018783 ], [ 3.394507, 44.018667 ], [ 3.395528, 44.018106 ], [ 3.395773, 44.017966 ], [ 3.395911, 44.017916 ], [ 3.396064, 44.017895 ], [ 3.396343, 44.017883 ], [ 3.39659, 44.018104 ], [ 3.393809, 44.02146 ], [ 3.393745, 44.021536 ], [ 3.393696, 44.021576 ], [ 3.39348, 44.021699 ], [ 3.393164, 44.021708 ], [ 3.393003, 44.021706 ], [ 3.392888, 44.02139 ], [ 3.392979, 44.020489 ] ] ] } },
{ "type": "Feature", "properties": { "codgeo": "12231", "value": 120, "isochrone_group": 2.0, "nb_agences": 1 }, "geometry": { "type": "MultiPolygon", "coordinates": [ [ [ [ 3.396639, 44.017997 ], [ 3.39673, 44.017773 ], [ 3.396734, 44.017522 ], [ 3.396728, 44.017214 ], [ 3.396686, 44.017083 ], [ 3.396343, 44.017194 ], [ 3.396087, 44.017286 ], [ 3.393743, 44.019225 ], [ 3.394326, 44.018783 ], [ 3.394507, 44.018667 ], [ 3.395528, 44.018106 ], [ 3.395773, 44.017966 ], [ 3.395911, 44.017916 ], [ 3.396064, 44.017895 ], [ 3.396343, 44.017883 ], [ 3.39659, 44.018104 ], [ 3.396639, 44.017997 ] ] ], [ [ [ 3.396552, 44.018157 ], [ 3.39659, 44.018104 ], [ 3.393809, 44.02146 ], [ 3.396552, 44.018157 ] ] ] ] } },
{ "type": "Feature", "properties": { "codgeo": "12231", "value": 180, "isochrone_group": 3.0, "nb_agences": 1 }, "geometry": { "type": "Polygon", "coordinates": [ [ [ 3.401585, 44.017223 ], [ 3.401699, 44.017158 ], [ 3.401822, 44.017037 ], [ 3.401912, 44.016891 ], [ 3.401606, 44.016701 ], [ 3.397381, 44.014944 ], [ 3.396499, 44.014735 ], [ 3.395899, 44.014787 ], [ 3.391582, 44.018624 ], [ 3.391662, 44.018976 ], [ 3.393003, 44.021706 ], [ 3.392888, 44.02139 ], [ 3.392979, 44.020489 ], [ 3.392989, 44.020425 ], [ 3.393086, 44.020149 ], [ 3.393183, 44.019873 ], [ 3.393212, 44.019821 ], [ 3.393396, 44.019589 ], [ 3.393581, 44.019358 ], [ 3.393611, 44.019327 ], [ 3.393743, 44.019225 ], [ 3.396087, 44.017286 ], [ 3.396343, 44.017194 ], [ 3.396686, 44.017083 ], [ 3.396728, 44.017214 ], [ 3.396734, 44.017522 ], [ 3.39673, 44.017773 ], [ 3.396639, 44.017997 ], [ 3.39659, 44.018104 ], [ 3.396552, 44.018157 ], [ 3.393809, 44.02146 ], [ 3.393745, 44.021536 ], [ 3.401585, 44.017223 ] ] ] } },
{ "type": "Feature", "properties": { "codgeo": "12231", "value": 240, "isochrone_group": 4.0, "nb_agences": 1 }, "geometry": { "type": "Polygon", "coordinates": [ [ [ 3.402256, 44.01693 ], [ 3.402289, 44.014476 ], [ 3.401987, 44.014279 ], [ 3.398959, 44.013596 ], [ 3.393385, 44.014686 ], [ 3.3922, 44.015243 ], [ 3.391962, 44.015513 ], [ 3.387287, 44.021177 ], [ 3.387414, 44.021514 ], [ 3.393003, 44.021706 ], [ 3.391662, 44.018976 ], [ 3.391582, 44.018624 ], [ 3.395899, 44.014787 ], [ 3.396499, 44.014735 ], [ 3.397381, 44.014944 ], [ 3.401606, 44.016701 ], [ 3.401912, 44.016891 ], [ 3.401858803881161, 44.016977295926125 ], [ 3.402256, 44.01693 ] ] ] } },
{ "type": "Feature", "properties": { "codgeo": "12231", "value": 300, "isochrone_group": 5.0, "nb_agences": 1 }, "geometry": { "type": "Polygon", "coordinates": [ [ [ 3.403079, 44.013536 ], [ 3.402876, 44.013239 ], [ 3.400847, 44.012587 ], [ 3.392366, 44.013772 ], [ 3.391548, 44.013985 ], [ 3.391467, 44.014176 ], [ 3.391386, 44.014367 ], [ 3.386824, 44.021422 ], [ 3.383389, 44.023734 ], [ 3.383514, 44.024072 ], [ 3.384358, 44.02376 ], [ 3.385203, 44.023447 ], [ 3.39348, 44.021699 ], [ 3.393164, 44.021708 ], [ 3.393003, 44.021706 ], [ 3.387414, 44.021514 ], [ 3.387287, 44.021177 ], [ 3.391962, 44.015513 ], [ 3.3922, 44.015243 ], [ 3.393385, 44.014686 ], [ 3.398959, 44.013596 ], [ 3.401987, 44.014279 ], [ 3.402289, 44.014476 ], [ 3.402256, 44.01693 ], [ 3.403079, 44.013536 ] ] ] } },
{ "type": "Feature", "properties": { "codgeo": "12231", "value": 360, "isochrone_group": 6.0, "nb_agences": 1 }, "geometry": { "type": "MultiPolygon", "coordinates": [ [ [ [ 3.382581, 44.023977 ], [ 3.382289, 44.024088 ], [ 3.37623, 44.025445 ], [ 3.376019, 44.025737 ], [ 3.376148, 44.02706 ], [ 3.376318, 44.027378 ], [ 3.38082, 44.026093 ], [ 3.380924, 44.026061 ], [ 3.381042, 44.02598 ], [ 3.385203, 44.023447 ], [ 3.384358, 44.02376 ], [ 3.383514, 44.024072 ], [ 3.383389, 44.023734 ], [ 3.386824, 44.021422 ], [ 3.382581, 44.023977 ] ] ], [ [ [ 3.391209, 44.011763 ], [ 3.391064, 44.011901 ], [ 3.39092, 44.012038 ], [ 3.390846, 44.012371 ], [ 3.390828, 44.012588 ], [ 3.389459276916669, 44.017346621076911 ], [ 3.391386, 44.014367 ], [ 3.391467, 44.014176 ], [ 3.391548, 44.013985 ], [ 3.392366, 44.013772 ], [ 3.398575087380121, 44.012904440921432 ], [ 3.391209, 44.011763 ] ] ] ] } },
{ "type": "Feature", "properties": { "codgeo": "12231", "value": 420, "isochrone_group": 7.0, "nb_agences": 1 }, "geometry": { "type": "MultiPolygon", "coordinates": [ [ [ [ 3.37371, 44.024239 ], [ 3.373555, 44.02419 ], [ 3.370484, 44.022842 ], [ 3.370296, 44.023148 ], [ 3.373729, 44.030125 ], [ 3.377358, 44.033077 ], [ 3.377486, 44.033127 ], [ 3.382064, 44.03445 ], [ 3.382185, 44.034111 ], [ 3.381042, 44.02598 ], [ 3.380924, 44.026061 ], [ 3.38082, 44.026093 ], [ 3.376318, 44.027378 ], [ 3.376148, 44.02706 ], [ 3.376019, 44.025737 ], [ 3.37623, 44.025445 ], [ 3.382289, 44.024088 ], [ 3.37371, 44.024239 ] ] ], [ [ [ 3.394556, 44.010287 ], [ 3.391873, 44.011444 ], [ 3.391561, 44.011587 ], [ 3.391264, 44.011724 ], [ 3.391218423993956, 44.011764460331896 ], [ 3.39985, 44.013102 ], [ 3.400481, 44.012759 ], [ 3.400732, 44.012624 ], [ 3.400847, 44.012587 ], [ 3.402876, 44.013239 ], [ 3.394556, 44.010287 ] ] ] ] } },
{ "type": "Feature", "properties": { "codgeo": "12231", "value": 480, "isochrone_group": 8.0, "nb_agences": 1 }, "geometry": { "type": "MultiPolygon", "coordinates": [ [ [ [ 3.371886, 44.01919 ], [ 3.371688, 44.018889 ], [ 3.365622, 44.021577 ], [ 3.365516, 44.021674 ], [ 3.365377, 44.021902 ], [ 3.365237, 44.022131 ], [ 3.366492, 44.02353 ], [ 3.37225, 44.029671 ], [ 3.374422, 44.031216 ], [ 3.375749, 44.032166 ], [ 3.377358, 44.033077 ], [ 3.373729, 44.030125 ], [ 3.370296, 44.023148 ], [ 3.370484, 44.022842 ], [ 3.373555, 44.02419 ], [ 3.37371, 44.024239 ], [ 3.377075796627555, 44.024179758213002 ], [ 3.371886, 44.01919 ] ] ], [ [ [ 3.397375, 44.00847 ], [ 3.396828, 44.008426 ], [ 3.396547, 44.008433 ], [ 3.396171, 44.008458 ], [ 3.395916, 44.008489 ], [ 3.395491, 44.008589 ], [ 3.395065, 44.008689 ], [ 3.391264, 44.011724 ], [ 3.391561, 44.011587 ], [ 3.391873, 44.011444 ], [ 3.394556, 44.010287 ], [ 3.402876, 44.013239 ], [ 3.397375, 44.00847 ] ] ], [ [ [ 3.383278, 44.035547 ], [ 3.3834, 44.035598 ], [ 3.39033, 44.038351 ], [ 3.390939, 44.037336 ], [ 3.390991, 44.037217 ], [ 3.391027, 44.037002 ], [ 3.390963, 44.035773 ], [ 3.390903, 44.035538 ], [ 3.390652, 44.03528 ], [ 3.390459, 44.035183 ], [ 3.390215, 44.035135 ], [ 3.390055, 44.035138 ], [ 3.388011, 44.034854 ], [ 3.387898, 44.034837 ], [ 3.38776, 44.034845 ], [ 3.386498, 44.034817 ], [ 3.386302, 44.034796 ], [ 3.385715, 44.034778 ], [ 3.383202, 44.034203 ], [ 3.381042, 44.02598 ], [ 3.382185, 44.034111 ], [ 3.382064, 44.03445 ], [ 3.377486, 44.033127 ], [ 3.377358, 44.033077 ], [ 3.383278, 44.035547 ] ] ] ] } },
{ "type": "Feature", "properties": { "codgeo": "12231", "value": 540, "isochrone_group": 9.0, "nb_agences": 1 }, "geometry": { "type": "MultiPolygon", "coordinates": [ [ [ [ 3.377143, 44.018028 ], [ 3.377168, 44.01781 ], [ 3.3771, 44.0177 ], [ 3.376869, 44.017474 ], [ 3.369004, 44.018966 ], [ 3.362056, 44.019702 ], [ 3.361552, 44.021049 ], [ 3.361704, 44.023318 ], [ 3.365843, 44.024566 ], [ 3.37247, 44.030445 ], [ 3.372721, 44.030984 ], [ 3.372915, 44.031199 ], [ 3.373134, 44.031342 ], [ 3.373366, 44.031493 ], [ 3.37692, 44.033562 ], [ 3.377108, 44.0336 ], [ 3.383278, 44.035547 ], [ 3.377358, 44.033077 ], [ 3.375749, 44.032166 ], [ 3.374422, 44.031216 ], [ 3.37225, 44.029671 ], [ 3.366492, 44.02353 ], [ 3.365237, 44.022131 ], [ 3.365377, 44.021902 ], [ 3.365516, 44.021674 ], [ 3.365622, 44.021577 ], [ 3.371688, 44.018889 ], [ 3.371886, 44.01919 ], [ 3.378372, 44.025426 ], [ 3.379043, 44.025366 ], [ 3.379375, 44.02532 ], [ 3.382141, 44.024171 ], [ 3.382289, 44.024088 ], [ 3.382581, 44.023977 ], [ 3.383889464969477, 44.023189083903596 ], [ 3.377143, 44.018028 ] ] ], [ [ [ 3.394967, 44.008715 ], [ 3.392043, 44.009506 ], [ 3.391899, 44.009565 ], [ 3.391724, 44.009676 ], [ 3.391549, 44.009786 ], [ 3.39092, 44.012038 ], [ 3.391068, 44.011898 ], [ 3.391264, 44.011724 ], [ 3.395060696285105, 44.008692436404822 ], [ 3.394967, 44.008715 ] ] ], [ [ [ 3.400409, 44.008085 ], [ 3.40025, 44.007762 ], [ 3.395916, 44.008489 ], [ 3.396171, 44.008458 ], [ 3.396547, 44.008433 ], [ 3.396828, 44.008426 ], [ 3.397375, 44.00847 ], [ 3.402876, 44.013239 ], [ 3.403079, 44.013536 ], [ 3.400409, 44.008085 ] ] ], [ [ [ 3.389704, 44.039701 ], [ 3.394998, 44.04111 ], [ 3.395129, 44.041119 ], [ 3.395262, 44.041056 ], [ 3.397989, 44.037556 ], [ 3.397954, 44.037197 ], [ 3.397717, 44.03722 ], [ 3.396859, 44.037254 ], [ 3.390652, 44.03528 ], [ 3.390903, 44.035538 ], [ 3.390963, 44.035773 ], [ 3.391027, 44.037002 ], [ 3.390991, 44.037217 ], [ 3.390939, 44.037336 ], [ 3.39033, 44.038351 ], [ 3.3834, 44.035598 ], [ 3.383278, 44.035547 ], [ 3.389704, 44.039701 ] ] ] ] } },
{ "type": "Feature", "properties": { "codgeo": "12231", "value": 600, "isochrone_group": 10.0, "nb_agences": 1 }, "geometry": { "type": "MultiPolygon", "coordinates": [ [ [ [ 3.391562, 44.009099 ], [ 3.389526, 44.01063 ], [ 3.389335, 44.010811 ], [ 3.388838, 44.011279 ], [ 3.380424, 44.014224 ], [ 3.380091, 44.014187 ], [ 3.379758, 44.014151 ], [ 3.379507, 44.014178 ], [ 3.379268, 44.014268 ], [ 3.379078, 44.014367 ], [ 3.377779, 44.015235 ], [ 3.37751, 44.015488 ], [ 3.369871, 44.017462 ], [ 3.364409, 44.012703 ], [ 3.364067, 44.01259 ], [ 3.360695, 44.016483 ], [ 3.357848, 44.023577 ], [ 3.358056, 44.023872 ], [ 3.359584, 44.02412 ], [ 3.35994, 44.024072 ], [ 3.365843, 44.024566 ], [ 3.361704, 44.023318 ], [ 3.361552, 44.021049 ], [ 3.362056, 44.019702 ], [ 3.369004, 44.018966 ], [ 3.376869, 44.017474 ], [ 3.3771, 44.0177 ], [ 3.377168, 44.01781 ], [ 3.377143, 44.018028 ], [ 3.384207, 44.023432 ], [ 3.385524, 44.022693 ], [ 3.386721, 44.021532 ], [ 3.386824, 44.021422 ], [ 3.386992, 44.021316 ], [ 3.388812, 44.019597 ], [ 3.388922, 44.019471 ], [ 3.390922, 44.01377 ], [ 3.390828, 44.012588 ], [ 3.390846, 44.012371 ], [ 3.39092, 44.012038 ], [ 3.391549, 44.009786 ], [ 3.391724, 44.009676 ], [ 3.391899, 44.009565 ], [ 3.392043, 44.009506 ], [ 3.394967, 44.008715 ], [ 3.395457, 44.008597 ], [ 3.395916, 44.008489 ], [ 3.391562, 44.009099 ] ] ], [ [ [ 3.402542, 44.007106 ], [ 3.402237, 44.006914 ], [ 3.395916, 44.008489 ], [ 3.40025, 44.007762 ], [ 3.400409, 44.008085 ], [ 3.403079, 44.013536 ], [ 3.402542, 44.007106 ] ] ], [ [ [ 3.382312, 44.028259 ], [ 3.385449, 44.023314 ], [ 3.385203, 44.023447 ], [ 3.384332, 44.023769 ], [ 3.383449, 44.024096 ], [ 3.381042, 44.02598 ], [ 3.383202, 44.034203 ], [ 3.385715, 44.034778 ], [ 3.386302, 44.034796 ], [ 3.386498, 44.034817 ], [ 3.38776, 44.034845 ], [ 3.387898, 44.034837 ], [ 3.382312, 44.028259 ] ] ], [ [ [ 3.400194, 44.037514 ], [ 3.404978, 44.036446 ], [ 3.405808, 44.035751 ], [ 3.405996, 44.03545 ], [ 3.406022, 44.035241 ], [ 3.405991, 44.035125 ], [ 3.405772, 44.034791 ], [ 3.405678, 44.034692 ], [ 3.404951, 44.033944 ], [ 3.40486, 44.033873 ], [ 3.40474, 44.033822 ], [ 3.404537, 44.033802 ], [ 3.404213, 44.033941 ], [ 3.401074, 44.036256 ], [ 3.39291, 44.034308 ], [ 3.388011, 44.034854 ], [ 3.390055, 44.035138 ], [ 3.390215, 44.035135 ], [ 3.390459, 44.035183 ], [ 3.390652, 44.03528 ], [ 3.396859, 44.037254 ], [ 3.397717, 44.03722 ], [ 3.397954, 44.037197 ], [ 3.397989, 44.037556 ], [ 3.395262, 44.041056 ], [ 3.400194, 44.037514 ] ] ], [ [ [ 3.392789, 44.040683 ], [ 3.394998, 44.04111 ], [ 3.389704, 44.039701 ], [ 3.392789, 44.040683 ] ] ], [ [ [ 3.375306, 44.033571 ], [ 3.380287, 44.035022 ], [ 3.383339607970116, 44.035586825631484 ], [ 3.383278, 44.035547 ], [ 3.377108, 44.0336 ], [ 3.37692, 44.033562 ], [ 3.373366, 44.031493 ], [ 3.373134, 44.031342 ], [ 3.372915, 44.031199 ], [ 3.375306, 44.033571 ] ] ] ] } },
{ "type": "Feature", "properties": { "codgeo": "12231", "value": 660, "isochrone_group": 11.0, "nb_agences": 1 }, "geometry": { "type": "MultiPolygon", "coordinates": [ [ [ [ 3.353381, 44.022705 ], [ 3.353021, 44.022705 ], [ 3.353021, 44.022994 ], [ 3.353021, 44.023283 ], [ 3.353094, 44.023529 ], [ 3.353162, 44.023646 ], [ 3.354058, 44.024884 ], [ 3.35671, 44.025962 ], [ 3.356748, 44.025971 ], [ 3.358496, 44.026387 ], [ 3.360901, 44.025695 ], [ 3.361156, 44.025633 ], [ 3.362565, 44.025145 ], [ 3.364233, 44.024695 ], [ 3.365843, 44.024566 ], [ 3.35994, 44.024072 ], [ 3.359584, 44.02412 ], [ 3.358056, 44.023872 ], [ 3.357848, 44.023577 ], [ 3.359262323198766, 44.020052866255007 ], [ 3.353381, 44.022705 ] ] ], [ [ [ 3.369932, 44.015769 ], [ 3.36969, 44.015645 ], [ 3.365084, 44.008821 ], [ 3.365075, 44.008629 ], [ 3.364969, 44.008356 ], [ 3.364863, 44.008082 ], [ 3.362584, 44.004427 ], [ 3.362244, 44.004309 ], [ 3.362192, 44.004457 ], [ 3.362154, 44.004635 ], [ 3.361957, 44.006211 ], [ 3.358378, 44.014425 ], [ 3.358248, 44.014761 ], [ 3.359698909551745, 44.018965004088479 ], [ 3.360695, 44.016483 ], [ 3.364067, 44.01259 ], [ 3.364409, 44.012703 ], [ 3.369871, 44.017462 ], [ 3.37751, 44.015488 ], [ 3.377779, 44.015235 ], [ 3.369932, 44.015769 ] ] ], [ [ [ 3.381562, 44.011176 ], [ 3.379781, 44.012191 ], [ 3.377779, 44.015235 ], [ 3.379078, 44.014367 ], [ 3.379268, 44.014268 ], [ 3.379507, 44.014178 ], [ 3.379758, 44.014151 ], [ 3.380091, 44.014187 ], [ 3.380424, 44.014224 ], [ 3.388838, 44.011279 ], [ 3.389335, 44.010811 ], [ 3.389526, 44.01063 ], [ 3.381562, 44.011176 ] ] ], [ [ [ 3.408195, 44.006401 ], [ 3.408101, 44.006053 ], [ 3.399979, 44.004573 ], [ 3.395502, 44.005447 ], [ 3.395025, 44.00583 ], [ 3.394856, 44.005987 ], [ 3.394711, 44.006125 ], [ 3.392787, 44.00814 ], [ 3.391984, 44.008779 ], [ 3.39158, 44.009083 ], [ 3.391554152965025, 44.009104900692805 ], [ 3.391562, 44.009099 ], [ 3.395916, 44.008489 ], [ 3.402237, 44.006914 ], [ 3.402542, 44.007106 ], [ 3.403079, 44.013536 ], [ 3.408195, 44.006401 ] ] ], [ [ [ 3.394145, 44.034191 ], [ 3.39399, 44.034084 ], [ 3.393629, 44.033914 ], [ 3.393283, 44.033751 ], [ 3.392991, 44.033602 ], [ 3.392408, 44.033249 ], [ 3.392217, 44.033132 ], [ 3.392035, 44.033021 ], [ 3.391835, 44.032942 ], [ 3.391477, 44.032867 ], [ 3.391308, 44.032886 ], [ 3.384557, 44.027688 ], [ 3.3865, 44.02263 ], [ 3.386388, 44.022692 ], [ 3.385449, 44.023314 ], [ 3.382312, 44.028259 ], [ 3.387898, 44.034837 ], [ 3.388011, 44.034854 ], [ 3.39291, 44.034308 ], [ 3.401074, 44.036256 ], [ 3.394145, 44.034191 ] ] ], [ [ [ 3.402391, 44.04128 ], [ 3.405252, 44.04298 ], [ 3.405463, 44.043154 ], [ 3.405674, 44.043328 ], [ 3.405903, 44.04305 ], [ 3.407784, 44.034651 ], [ 3.407769, 44.034471 ], [ 3.407667, 44.034329 ], [ 3.407498, 44.034222 ], [ 3.405234, 44.032766 ], [ 3.40489, 44.032873 ], [ 3.404213, 44.033941 ], [ 3.404537, 44.033802 ], [ 3.40474, 44.033822 ], [ 3.40486, 44.033873 ], [ 3.404951, 44.033944 ], [ 3.405678, 44.034692 ], [ 3.405772, 44.034791 ], [ 3.405991, 44.035125 ], [ 3.406022, 44.035241 ], [ 3.405996, 44.03545 ], [ 3.405808, 44.035751 ], [ 3.404978, 44.036446 ], [ 3.400194, 44.037514 ], [ 3.395262, 44.041056 ], [ 3.395129, 44.041119 ], [ 3.402391, 44.04128 ] ] ], [ [ [ 3.375401, 44.034554 ], [ 3.375588, 44.034861 ], [ 3.380617, 44.036539 ], [ 3.380969, 44.036467 ], [ 3.383479112227085, 44.035649490715059 ], [ 3.3834, 44.035598 ], [ 3.380287, 44.035022 ], [ 3.375306, 44.033571 ], [ 3.372915, 44.031199 ], [ 3.375401, 44.034554 ] ] ] ] } },
{ "type": "Feature", "properties": { "codgeo": "12231", "value": 720, "isochrone_group": 12.0, "nb_agences": 1 }, "geometry": { "type": "MultiPolygon", "coordinates": [ [ [ [ 3.355815, 44.012958 ], [ 3.355544, 44.013195 ], [ 3.349704, 44.018489 ], [ 3.345218, 44.019291 ], [ 3.345127, 44.01964 ], [ 3.349493, 44.021703 ], [ 3.352741, 44.026324 ], [ 3.359036, 44.029853 ], [ 3.359987, 44.029317 ], [ 3.367587, 44.028317 ], [ 3.372915, 44.031199 ], [ 3.372721, 44.030984 ], [ 3.37247, 44.030445 ], [ 3.372246, 44.029949 ], [ 3.365843, 44.024566 ], [ 3.364233, 44.024695 ], [ 3.362565, 44.025145 ], [ 3.361156, 44.025633 ], [ 3.360901, 44.025695 ], [ 3.358496, 44.026387 ], [ 3.356748, 44.025971 ], [ 3.35671, 44.025962 ], [ 3.354058, 44.024884 ], [ 3.353162, 44.023646 ], [ 3.353094, 44.023529 ], [ 3.353021, 44.023283 ], [ 3.353021, 44.022994 ], [ 3.353021, 44.022705 ], [ 3.353381, 44.022705 ], [ 3.359965, 44.019736 ], [ 3.358248, 44.014761 ], [ 3.358378, 44.014425 ], [ 3.361788611004652, 44.006597461918929 ], [ 3.355815, 44.012958 ] ] ], [ [ [ 3.383755, 44.008723 ], [ 3.382874, 44.008189 ], [ 3.382721, 44.00834 ], [ 3.382568, 44.008492 ], [ 3.379331, 44.012014 ], [ 3.378323, 44.012581 ], [ 3.370927, 44.01372 ], [ 3.365254, 44.00753 ], [ 3.365104, 44.006276 ], [ 3.365007, 44.004724 ], [ 3.364931, 44.00065 ], [ 3.364931, 44.000473 ], [ 3.364247, 43.99887 ], [ 3.363891, 43.998814 ], [ 3.362605, 44.000482 ], [ 3.361435, 44.002656 ], [ 3.361957, 44.006211 ], [ 3.362154, 44.004635 ], [ 3.362192, 44.004457 ], [ 3.362244, 44.004309 ], [ 3.362584, 44.004427 ], [ 3.364863, 44.008082 ], [ 3.364969, 44.008356 ], [ 3.365075, 44.008629 ], [ 3.365084, 44.008821 ], [ 3.36969, 44.015645 ], [ 3.369932, 44.015769 ], [ 3.377779, 44.015235 ], [ 3.379781, 44.012191 ], [ 3.381562, 44.011176 ], [ 3.389526, 44.01063 ], [ 3.390722, 44.00981 ], [ 3.39158, 44.009083 ], [ 3.391984, 44.008779 ], [ 3.392358958365469, 44.008480620927102 ], [ 3.383755, 44.008723 ] ] ], [ [ [ 3.411224, 44.007745 ], [ 3.411333, 44.007816 ], [ 3.412018, 44.008147 ], [ 3.412236, 44.008254 ], [ 3.412454, 44.008361 ], [ 3.412613, 44.008038 ], [ 3.408794, 44.004543 ], [ 3.404015, 44.003816 ], [ 3.396214, 44.002353 ], [ 3.395894, 44.002517 ], [ 3.395408, 44.002967 ], [ 3.395275, 44.003302 ], [ 3.392787, 44.00814 ], [ 3.394711, 44.006125 ], [ 3.394856, 44.005987 ], [ 3.395025, 44.00583 ], [ 3.395502, 44.005447 ], [ 3.399979, 44.004573 ], [ 3.408101, 44.006053 ], [ 3.408195, 44.006401 ], [ 3.407723420140481, 44.007058686141065 ], [ 3.411224, 44.007745 ] ] ], [ [ [ 3.394381, 44.033532 ], [ 3.394286, 44.033371 ], [ 3.394112, 44.03321 ], [ 3.392924, 44.032283 ], [ 3.392387, 44.031818 ], [ 3.391836, 44.031342 ], [ 3.39164, 44.031202 ], [ 3.386331, 44.026596 ], [ 3.393003, 44.021706 ], [ 3.3865, 44.02263 ], [ 3.384557, 44.027688 ], [ 3.391308, 44.032886 ], [ 3.391477, 44.032867 ], [ 3.391835, 44.032942 ], [ 3.392035, 44.033021 ], [ 3.392217, 44.033132 ], [ 3.392408, 44.033249 ], [ 3.392991, 44.033602 ], [ 3.393283, 44.033751 ], [ 3.393629, 44.033914 ], [ 3.39399, 44.034084 ], [ 3.394145, 44.034191 ], [ 3.401074, 44.036256 ], [ 3.394381, 44.033532 ] ] ], [ [ [ 3.408915, 44.030784 ], [ 3.409042, 44.030448 ], [ 3.408792, 44.030353 ], [ 3.408608, 44.030326 ], [ 3.407938, 44.03036 ], [ 3.407565, 44.030378 ], [ 3.407316, 44.030446 ], [ 3.407056, 44.030606 ], [ 3.404897, 44.031888 ], [ 3.404747, 44.031996 ], [ 3.404591, 44.032257 ], [ 3.404541, 44.032398 ], [ 3.401074, 44.036256 ], [ 3.404213, 44.033941 ], [ 3.40489, 44.032873 ], [ 3.405234, 44.032766 ], [ 3.407498, 44.034222 ], [ 3.407667, 44.034329 ], [ 3.407769, 44.034471 ], [ 3.407784, 44.034651 ], [ 3.408915, 44.030784 ] ] ], [ [ [ 3.405731, 44.043363 ], [ 3.413166, 44.04782 ], [ 3.413385, 44.047904 ], [ 3.413526, 44.047931 ], [ 3.414993, 44.048009 ], [ 3.415075, 44.047658 ], [ 3.412897, 44.045994 ], [ 3.410861, 44.044535 ], [ 3.407052, 44.039475 ], [ 3.407784, 44.034651 ], [ 3.405903, 44.04305 ], [ 3.405678674977659, 44.043322324699602 ], [ 3.405731, 44.043363 ] ] ], [ [ [ 3.405466, 44.043157 ], [ 3.405477125189095, 44.043165648260199 ], [ 3.405463, 44.043154 ], [ 3.405252, 44.04298 ], [ 3.405466, 44.043157 ] ] ], [ [ [ 3.38007, 44.038664 ], [ 3.380285, 44.038589 ], [ 3.380501, 44.038513 ], [ 3.381086, 44.038073 ], [ 3.389704, 44.039701 ], [ 3.389505, 44.039427 ], [ 3.383628, 44.035601 ], [ 3.380969, 44.036467 ], [ 3.380617, 44.036539 ], [ 3.375588, 44.034861 ], [ 3.38007, 44.038664 ] ] ] ] } },
{ "type": "Feature", "properties": { "codgeo": "12231", "value": 780, "isochrone_group": 13.0, "nb_agences": 1 }, "geometry": { "type": "MultiPolygon", "coordinates": [ [ [ [ 3.367914, 44.002521 ], [ 3.368846, 44.002019 ], [ 3.369128, 44.001901 ], [ 3.368989, 44.001569 ], [ 3.369471, 43.992637 ], [ 3.369303, 43.992536 ], [ 3.369135, 43.992435 ], [ 3.368969, 43.992383 ], [ 3.368808, 43.99237 ], [ 3.368653, 43.992382 ], [ 3.366927, 43.992556 ], [ 3.366739, 43.992583 ], [ 3.366554, 43.992645 ], [ 3.366396, 43.99273 ], [ 3.366269, 43.992841 ], [ 3.362008, 43.997733 ], [ 3.358028, 44.004796 ], [ 3.356752, 44.005047 ], [ 3.354261, 44.011508 ], [ 3.354153, 44.011851 ], [ 3.349605, 44.017931 ], [ 3.343693, 44.018893 ], [ 3.341866, 44.018419 ], [ 3.339827, 44.018077 ], [ 3.339463, 44.01799 ], [ 3.338445, 44.017703 ], [ 3.338106, 44.017801 ], [ 3.337698, 44.017952 ], [ 3.337291, 44.018103 ], [ 3.337416, 44.01844 ], [ 3.341775, 44.018767 ], [ 3.347936, 44.024638 ], [ 3.348534, 44.025796 ], [ 3.350171, 44.029277 ], [ 3.350516, 44.02938 ], [ 3.350885, 44.029164 ], [ 3.35798607456885, 44.029264407967183 ], [ 3.352741, 44.026324 ], [ 3.349493, 44.021703 ], [ 3.345127, 44.01964 ], [ 3.345218, 44.019291 ], [ 3.349704, 44.018489 ], [ 3.355544, 44.013195 ], [ 3.355815, 44.012958 ], [ 3.361975, 44.006399 ], [ 3.361957, 44.006211 ], [ 3.361435, 44.002656 ], [ 3.362605, 44.000482 ], [ 3.363891, 43.998814 ], [ 3.364247, 43.99887 ], [ 3.364931, 44.000473 ], [ 3.364931, 44.00065 ], [ 3.365007, 44.004724 ], [ 3.365104, 44.006276 ], [ 3.365254, 44.00753 ], [ 3.367914, 44.002521 ] ] ], [ [ [ 3.40848, 44.00408 ], [ 3.40827, 44.00385 ], [ 3.408043, 44.003603 ], [ 3.407847, 44.003437 ], [ 3.407621, 44.003252 ], [ 3.407489, 44.003179 ], [ 3.402777, 44.001937 ], [ 3.394923, 44.000085 ], [ 3.391965, 44.002555 ], [ 3.384531, 44.007065 ], [ 3.382926, 44.008152 ], [ 3.379864, 44.00975 ], [ 3.379616, 44.010012 ], [ 3.372335, 44.01227 ], [ 3.371975, 44.012247 ], [ 3.365254, 44.00753 ], [ 3.370927, 44.01372 ], [ 3.378323, 44.012581 ], [ 3.379331, 44.012014 ], [ 3.382568, 44.008492 ], [ 3.382721, 44.00834 ], [ 3.382874, 44.008189 ], [ 3.383755, 44.008723 ], [ 3.392381, 44.00848 ], [ 3.392787, 44.00814 ], [ 3.395275, 44.003302 ], [ 3.395408, 44.002967 ], [ 3.395894, 44.002517 ], [ 3.396214, 44.002353 ], [ 3.404015, 44.003816 ], [ 3.408794, 44.004543 ], [ 3.409944377728674, 44.005595780875012 ], [ 3.40848, 44.00408 ] ] ], [ [ [ 3.41249, 44.010521 ], [ 3.412751, 44.010769 ], [ 3.415532, 44.010781 ], [ 3.415817, 44.01056 ], [ 3.415506, 44.009981 ], [ 3.411505428610777, 44.007024393818973 ], [ 3.412613, 44.008038 ], [ 3.412454, 44.008361 ], [ 3.412236, 44.008254 ], [ 3.412018, 44.008147 ], [ 3.411333, 44.007816 ], [ 3.411224, 44.007745 ], [ 3.406608, 44.00684 ], [ 3.41249, 44.010521 ] ] ], [ [ [ 3.393168, 44.031131 ], [ 3.391466, 44.029599 ], [ 3.39348, 44.021699 ], [ 3.393164, 44.021708 ], [ 3.393003, 44.021706 ], [ 3.386331, 44.026596 ], [ 3.39164, 44.031202 ], [ 3.391836, 44.031342 ], [ 3.392387, 44.031818 ], [ 3.392924, 44.032283 ], [ 3.394112, 44.03321 ], [ 3.394286, 44.033371 ], [ 3.393168, 44.031131 ] ] ], [ [ [ 3.409907, 44.037862 ], [ 3.409966, 44.037506 ], [ 3.41465, 44.030477 ], [ 3.414509, 44.030146 ], [ 3.409381, 44.030462 ], [ 3.408792, 44.030353 ], [ 3.409042, 44.030448 ], [ 3.408915, 44.030784 ], [ 3.407784, 44.034651 ], [ 3.407052, 44.039475 ], [ 3.410861, 44.044535 ], [ 3.412897, 44.045994 ], [ 3.409907, 44.037862 ] ] ], [ [ [ 3.415826, 44.050967 ], [ 3.416086, 44.051216 ], [ 3.419623, 44.048845 ], [ 3.42158, 44.047101 ], [ 3.421501, 44.04675 ], [ 3.420543, 44.04628 ], [ 3.420377, 44.046237 ], [ 3.420138, 44.04623 ], [ 3.419955, 44.046255 ], [ 3.419711, 44.046331 ], [ 3.419496, 44.046401 ], [ 3.419334, 44.046466 ], [ 3.417152, 44.046958 ], [ 3.412897, 44.045994 ], [ 3.415075, 44.047658 ], [ 3.414993, 44.048009 ], [ 3.413526, 44.047931 ], [ 3.413385, 44.047904 ], [ 3.413166, 44.04782 ], [ 3.415826, 44.050967 ] ] ], [ [ [ 3.378086, 44.039073 ], [ 3.378227, 44.039354 ], [ 3.37853, 44.039457 ], [ 3.378832, 44.03956 ], [ 3.380501, 44.038513 ], [ 3.380285, 44.038589 ], [ 3.38007, 44.038664 ], [ 3.375588, 44.034861 ], [ 3.378086, 44.039073 ] ] ], [ [ [ 3.35985, 44.032821 ], [ 3.359809, 44.033563 ], [ 3.360092, 44.034124 ], [ 3.36394, 44.035588 ], [ 3.364279, 44.035468 ], [ 3.369431, 44.031296 ], [ 3.375401, 44.034554 ], [ 3.372915, 44.031199 ], [ 3.367587, 44.028317 ], [ 3.359987, 44.029317 ], [ 3.359036, 44.029853 ], [ 3.358661803758779, 44.029643224219967 ], [ 3.35985, 44.032821 ] ] ] ] } },
{ "type": "Feature", "properties": { "codgeo": "12231", "value": 840, "isochrone_group": 14.0, "nb_agences": 1 }, "geometry": { "type": "MultiPolygon", "coordinates": [ [ [ [ 3.3289, 44.020006 ], [ 3.328691, 44.020298 ], [ 3.330074, 44.02129 ], [ 3.331458, 44.022281 ], [ 3.334358, 44.022638 ], [ 3.334651, 44.022429 ], [ 3.343445, 44.021986 ], [ 3.343999, 44.022466 ], [ 3.344529, 44.022921 ], [ 3.344719, 44.023022 ], [ 3.348051, 44.025637 ], [ 3.34904, 44.033522 ], [ 3.349371, 44.033666 ], [ 3.349836, 44.032802 ], [ 3.350025, 44.032512 ], [ 3.350216, 44.032094 ], [ 3.350629, 44.031044 ], [ 3.359119589092334, 44.030867549878444 ], [ 3.358523, 44.029272 ], [ 3.350885, 44.029164 ], [ 3.350516, 44.02938 ], [ 3.350171, 44.029277 ], [ 3.348534, 44.025796 ], [ 3.347936, 44.024638 ], [ 3.341775, 44.018767 ], [ 3.337416, 44.01844 ], [ 3.337291, 44.018103 ], [ 3.337479146474909, 44.018033196270963 ], [ 3.3289, 44.020006 ] ] ], [ [ [ 3.356709, 44.005056 ], [ 3.356468, 44.005131 ], [ 3.356218, 44.005208 ], [ 3.356042, 44.005271 ], [ 3.355444, 44.005462 ], [ 3.354962, 44.005617 ], [ 3.353427, 44.006526 ], [ 3.353259, 44.006642 ], [ 3.353072, 44.006775 ], [ 3.352609, 44.007202 ], [ 3.352129, 44.007649 ], [ 3.351855, 44.007985 ], [ 3.351582, 44.008321 ], [ 3.351356, 44.012053 ], [ 3.349605, 44.017931 ], [ 3.354153, 44.011851 ], [ 3.354261, 44.011508 ], [ 3.356751772742857, 44.005047589445347 ], [ 3.356709, 44.005056 ] ] ], [ [ [ 3.361458, 43.996345 ], [ 3.361571, 43.996982 ], [ 3.36162, 43.997201 ], [ 3.358016334552384, 44.004798294692272 ], [ 3.358028, 44.004796 ], [ 3.362008, 43.997733 ], [ 3.366269, 43.992841 ], [ 3.366396, 43.99273 ], [ 3.361458, 43.996345 ] ] ], [ [ [ 3.401508, 44.000033 ], [ 3.395087, 43.998789 ], [ 3.39477, 43.998782 ], [ 3.394602, 43.998924 ], [ 3.394433, 43.999066 ], [ 3.389314, 44.001776 ], [ 3.382905, 44.005549 ], [ 3.382803, 44.005723 ], [ 3.382701, 44.005897 ], [ 3.37829, 44.009291 ], [ 3.372976, 44.010148 ], [ 3.3698, 44.001864 ], [ 3.370445, 44.0014 ], [ 3.372981, 43.998965 ], [ 3.372867, 43.998624 ], [ 3.372234, 43.991526 ], [ 3.373888, 43.988897 ], [ 3.374029, 43.988692 ], [ 3.37435, 43.988104 ], [ 3.374407, 43.987944 ], [ 3.374479, 43.986106 ], [ 3.374418, 43.9859 ], [ 3.37439, 43.985883 ], [ 3.374066, 43.985824 ], [ 3.373612, 43.98661 ], [ 3.373559, 43.986708 ], [ 3.366927, 43.992556 ], [ 3.368653, 43.992382 ], [ 3.368808, 43.99237 ], [ 3.368969, 43.992383 ], [ 3.369135, 43.992435 ], [ 3.369303, 43.992536 ], [ 3.369471, 43.992637 ], [ 3.368989, 44.001569 ], [ 3.369128, 44.001901 ], [ 3.368846, 44.002019 ], [ 3.367914, 44.002521 ], [ 3.365254, 44.00753 ], [ 3.371975, 44.012247 ], [ 3.372335, 44.01227 ], [ 3.379616, 44.010012 ], [ 3.379864, 44.00975 ], [ 3.382926, 44.008152 ], [ 3.384531, 44.007065 ], [ 3.391965, 44.002555 ], [ 3.394923, 44.000085 ], [ 3.402777, 44.001937 ], [ 3.407489, 44.003179 ], [ 3.401508, 44.000033 ] ] ], [ [ [ 3.40848, 44.00408 ], [ 3.410873, 44.006557 ], [ 3.41191658499994, 44.007328257293288 ], [ 3.40848, 44.00408 ] ] ], [ [ [ 3.410216, 44.01107 ], [ 3.41198, 44.011245 ], [ 3.41683, 44.012853 ], [ 3.418072, 44.013012 ], [ 3.4183, 44.012733 ], [ 3.415722322330733, 44.010383735143066 ], [ 3.415817, 44.01056 ], [ 3.415532, 44.010781 ], [ 3.412751, 44.010769 ], [ 3.41249, 44.010521 ], [ 3.406608, 44.00684 ], [ 3.403079, 44.013536 ], [ 3.410216, 44.01107 ] ] ], [ [ [ 3.397418, 44.029782 ], [ 3.394073, 44.028676 ], [ 3.393745, 44.021536 ], [ 3.393696, 44.021576 ], [ 3.39348, 44.021699 ], [ 3.391466, 44.029599 ], [ 3.393168, 44.031131 ], [ 3.394286, 44.033371 ], [ 3.394381, 44.033532 ], [ 3.401074, 44.036256 ], [ 3.404541, 44.032398 ], [ 3.404591, 44.032257 ], [ 3.404747, 44.031996 ], [ 3.404897, 44.031888 ], [ 3.397418, 44.029782 ] ] ], [ [ [ 3.415017, 44.030414 ], [ 3.415259, 44.030272 ], [ 3.417798, 44.029349 ], [ 3.419157, 44.02912 ], [ 3.419171, 44.028761 ], [ 3.418929, 44.028751 ], [ 3.418687, 44.028742 ], [ 3.417967, 44.028773 ], [ 3.417602, 44.028766 ], [ 3.416034, 44.028611 ], [ 3.415674, 44.028564 ], [ 3.415476, 44.028601 ], [ 3.408792, 44.030353 ], [ 3.409381, 44.030462 ], [ 3.414509, 44.030146 ], [ 3.41465, 44.030477 ], [ 3.414613231626727, 44.030532176109254 ], [ 3.415017, 44.030414 ] ] ], [ [ [ 3.412587, 44.039672 ], [ 3.412574, 44.039312 ], [ 3.414218178288821, 44.031125009139174 ], [ 3.409966, 44.037506 ], [ 3.409907, 44.037862 ], [ 3.412897, 44.045994 ], [ 3.417152, 44.046958 ], [ 3.417338885114893, 44.04691586091819 ], [ 3.412587, 44.039672 ] ] ], [ [ [ 3.415781, 44.051238 ], [ 3.415972, 44.051386 ], [ 3.420954, 44.05408 ], [ 3.421109, 44.054143 ], [ 3.42226, 44.054317 ], [ 3.422458, 44.054332 ], [ 3.424325, 44.054279 ], [ 3.424658, 44.054206 ], [ 3.424772, 44.054083 ], [ 3.42481, 44.053987 ], [ 3.421574, 44.046918 ], [ 3.421533118011165, 44.046892701543285 ], [ 3.42158, 44.047101 ], [ 3.419623, 44.048845 ], [ 3.416086, 44.051216 ], [ 3.415826, 44.050967 ], [ 3.413166, 44.04782 ], [ 3.412069100171431, 44.047162450230559 ], [ 3.415781, 44.051238 ] ] ], [ [ [ 3.378855, 44.039567 ], [ 3.38004, 44.039849 ], [ 3.381245, 44.040134 ], [ 3.381482, 44.040155 ], [ 3.381781, 44.040102 ], [ 3.389704, 44.039701 ], [ 3.381086, 44.038073 ], [ 3.380501, 44.038513 ], [ 3.378832813511095, 44.0395594896668 ], [ 3.378855, 44.039567 ] ] ], [ [ [ 3.360076, 44.034576 ], [ 3.360154, 44.034695 ], [ 3.360561, 44.035388 ], [ 3.360741, 44.035632 ], [ 3.360922, 44.035876 ], [ 3.365077, 44.039583 ], [ 3.365679, 44.039474 ], [ 3.36628, 44.039365 ], [ 3.366433, 44.039288 ], [ 3.370386, 44.037241 ], [ 3.378227, 44.039354 ], [ 3.378086, 44.039073 ], [ 3.375588, 44.034861 ], [ 3.375401, 44.034554 ], [ 3.369431, 44.031296 ], [ 3.364279, 44.035468 ], [ 3.36394, 44.035588 ], [ 3.360092, 44.034124 ], [ 3.359809, 44.033563 ], [ 3.360076, 44.034576 ] ] ] ] } },
{ "type": "Feature", "properties": { "codgeo": "12231", "value": 900, "isochrone_group": 15.0, "nb_agences": 1 }, "geometry": { "type": "MultiPolygon", "coordinates": [ [ [ [ 3.32818, 44.019489 ], [ 3.326675, 44.017962 ], [ 3.326538, 44.017795 ], [ 3.326381, 44.017606 ], [ 3.325427, 44.016774 ], [ 3.324475, 44.015943 ], [ 3.32302, 44.014652 ], [ 3.321566, 44.01336 ], [ 3.321327, 44.01363 ], [ 3.326917, 44.018996 ], [ 3.327456, 44.019401 ], [ 3.327965, 44.019779 ], [ 3.329653568001417, 44.020988432001019 ], [ 3.328691, 44.020298 ], [ 3.3289, 44.020006 ], [ 3.33247533757749, 44.01918383903957 ], [ 3.32818, 44.019489 ] ] ], [ [ [ 3.339827, 44.018077 ], [ 3.339993, 44.018118 ], [ 3.341866, 44.018419 ], [ 3.339827, 44.018077 ] ] ], [ [ [ 3.347075, 44.009948 ], [ 3.347148, 44.010301 ], [ 3.349605, 44.017931 ], [ 3.351356, 44.012053 ], [ 3.351582, 44.008321 ], [ 3.351855, 44.007985 ], [ 3.352129, 44.007649 ], [ 3.352609, 44.007202 ], [ 3.353072, 44.006775 ], [ 3.347075, 44.009948 ] ] ], [ [ [ 3.362121, 43.994587 ], [ 3.361934, 43.994895 ], [ 3.361583, 43.995534 ], [ 3.361486, 43.995892 ], [ 3.361466, 43.996101 ], [ 3.361452, 43.996281 ], [ 3.361463286511414, 43.996341129862543 ], [ 3.366396, 43.99273 ], [ 3.362121, 43.994587 ] ] ], [ [ [ 3.374587, 44.008067 ], [ 3.374289, 44.007864 ], [ 3.373734, 43.998912 ], [ 3.375172, 43.998425 ], [ 3.375315, 43.998321 ], [ 3.375583, 43.997988 ], [ 3.376834, 43.990401 ], [ 3.377078, 43.990137 ], [ 3.375916, 43.988056 ], [ 3.375745, 43.987726 ], [ 3.371706, 43.979717 ], [ 3.371598, 43.979486 ], [ 3.37097, 43.978457 ], [ 3.370176, 43.977913 ], [ 3.369912, 43.978158 ], [ 3.366675, 43.981322 ], [ 3.366628, 43.981679 ], [ 3.367329, 43.981771 ], [ 3.371774, 43.986231 ], [ 3.366927, 43.992556 ], [ 3.373559, 43.986708 ], [ 3.373612, 43.98661 ], [ 3.374066, 43.985824 ], [ 3.37439, 43.985883 ], [ 3.374418, 43.9859 ], [ 3.374479, 43.986106 ], [ 3.374407, 43.987944 ], [ 3.37435, 43.988104 ], [ 3.374029, 43.988692 ], [ 3.373888, 43.988897 ], [ 3.372234, 43.991526 ], [ 3.372867, 43.998624 ], [ 3.372981, 43.998965 ], [ 3.370445, 44.0014 ], [ 3.3698, 44.001864 ], [ 3.372976, 44.010148 ], [ 3.37829, 44.009291 ], [ 3.382701, 44.005897 ], [ 3.374587, 44.008067 ] ] ], [ [ [ 3.401895, 43.999546 ], [ 3.399398, 43.997413 ], [ 3.399201, 43.997269 ], [ 3.399003, 43.997124 ], [ 3.397852, 43.996582 ], [ 3.392473, 43.998585 ], [ 3.389094, 43.998797 ], [ 3.388821, 43.999032 ], [ 3.386646, 44.000446 ], [ 3.38652, 44.000783 ], [ 3.383434, 44.004115 ], [ 3.382805486842097, 44.005718757739963 ], [ 3.382905, 44.005549 ], [ 3.389314, 44.001776 ], [ 3.394433, 43.999066 ], [ 3.394602, 43.998924 ], [ 3.39477, 43.998782 ], [ 3.395087, 43.998789 ], [ 3.401508, 44.000033 ], [ 3.407489, 44.003179 ], [ 3.401895, 43.999546 ] ] ], [ [ [ 3.409294, 44.01156 ], [ 3.417303, 44.013877 ], [ 3.418155, 44.014801 ], [ 3.418472, 44.014631 ], [ 3.420724, 44.013873 ], [ 3.420876, 44.013813 ], [ 3.422279, 44.012715 ], [ 3.422405, 44.012614 ], [ 3.422508, 44.012466 ], [ 3.422612, 44.012318 ], [ 3.422317, 44.012112 ], [ 3.415332, 44.010028 ], [ 3.4183, 44.012733 ], [ 3.418072, 44.013012 ], [ 3.41683, 44.012853 ], [ 3.41198, 44.011245 ], [ 3.410216, 44.01107 ], [ 3.403079, 44.013536 ], [ 3.402256, 44.01693 ], [ 3.409294, 44.01156 ] ] ], [ [ [ 3.40169, 44.027079 ], [ 3.401443, 44.027203 ], [ 3.400712, 44.027481 ], [ 3.40051, 44.027627 ], [ 3.394808, 44.028181 ], [ 3.393809, 44.02146 ], [ 3.393745, 44.021536 ], [ 3.394073, 44.028676 ], [ 3.397418, 44.029782 ], [ 3.404897, 44.031888 ], [ 3.407056, 44.030606 ], [ 3.407316, 44.030446 ], [ 3.407565, 44.030378 ], [ 3.407938, 44.03036 ], [ 3.408608, 44.030326 ], [ 3.40169, 44.027079 ] ] ], [ [ [ 3.416513, 44.038598 ], [ 3.416396, 44.036506 ], [ 3.420571, 44.029084 ], [ 3.421927, 44.027818 ], [ 3.422756, 44.027192 ], [ 3.422625, 44.026857 ], [ 3.4224, 44.026944 ], [ 3.422175, 44.027032 ], [ 3.420706, 44.027702 ], [ 3.420516, 44.027769 ], [ 3.416034, 44.028611 ], [ 3.417602, 44.028766 ], [ 3.417967, 44.028773 ], [ 3.418687, 44.028742 ], [ 3.418929, 44.028751 ], [ 3.419171, 44.028761 ], [ 3.419157, 44.02912 ], [ 3.417798, 44.029349 ], [ 3.415259, 44.030272 ], [ 3.415017, 44.030414 ], [ 3.41432, 44.030618 ], [ 3.412574, 44.039312 ], [ 3.412587, 44.039672 ], [ 3.417358, 44.046945 ], [ 3.418339, 44.046794 ], [ 3.419334, 44.046466 ], [ 3.419496, 44.046401 ], [ 3.419711, 44.046331 ], [ 3.419955, 44.046255 ], [ 3.420138, 44.04623 ], [ 3.420377, 44.046237 ], [ 3.420543, 44.04628 ], [ 3.416513, 44.038598 ] ] ], [ [ [ 3.431286, 44.051548 ], [ 3.431302, 44.051189 ], [ 3.430716, 44.051057 ], [ 3.430348, 44.051007 ], [ 3.429993, 44.050959 ], [ 3.427332, 44.051455 ], [ 3.421574, 44.046918 ], [ 3.42481, 44.053987 ], [ 3.424772, 44.054083 ], [ 3.424658, 44.054206 ], [ 3.431286, 44.051548 ] ] ], [ [ [ 3.359729, 44.03837 ], [ 3.360524, 44.039792 ], [ 3.360884, 44.039797 ], [ 3.361943, 44.039813 ], [ 3.368439, 44.044846 ], [ 3.36856, 44.045199 ], [ 3.368762, 44.045619 ], [ 3.368965, 44.046039 ], [ 3.369289, 44.045883 ], [ 3.369653, 44.042483 ], [ 3.369664, 44.042374 ], [ 3.369685, 44.041494 ], [ 3.378227, 44.039354 ], [ 3.370386, 44.037241 ], [ 3.366433, 44.039288 ], [ 3.36628, 44.039365 ], [ 3.365679, 44.039474 ], [ 3.365077, 44.039583 ], [ 3.360922, 44.035876 ], [ 3.360741, 44.035632 ], [ 3.360561, 44.035388 ], [ 3.360154, 44.034695 ], [ 3.360076, 44.034576 ], [ 3.359729, 44.03837 ] ] ], [ [ [ 3.346547, 44.033518 ], [ 3.346485, 44.033872 ], [ 3.349557, 44.036467 ], [ 3.349915, 44.036423 ], [ 3.3499, 44.036304 ], [ 3.350025, 44.032512 ], [ 3.349836, 44.032802 ], [ 3.349371, 44.033666 ], [ 3.34904, 44.033522 ], [ 3.348051, 44.025637 ], [ 3.346547, 44.033518 ] ] ], [ [ [ 3.344529, 44.022921 ], [ 3.343999, 44.022466 ], [ 3.343445, 44.021986 ], [ 3.339923128457953, 44.022163415180017 ], [ 3.344529, 44.022921 ] ] ], [ [ [ 3.33407, 44.023949 ], [ 3.336859480239187, 44.022317747242916 ], [ 3.334651, 44.022429 ], [ 3.334358, 44.022638 ], [ 3.331458, 44.022281 ], [ 3.33407, 44.023949 ] ] ] ] } },
{ "type": "Feature", "properties": { "codgeo": "12231", "value": 960, "isochrone_group": 16.0, "nb_agences": 1 }, "geometry": { "type": "MultiPolygon", "coordinates": [ [ [ [ 3.325844, 44.01523 ], [ 3.325609, 44.015002 ], [ 3.325477, 44.014891 ], [ 3.32435, 44.013859 ], [ 3.324194, 44.013735 ], [ 3.320674, 44.01017 ], [ 3.314123, 44.009931 ], [ 3.311049, 44.010433 ], [ 3.311061, 44.010792 ], [ 3.31631, 44.011494 ], [ 3.322467241337109, 44.014724550092133 ], [ 3.321327, 44.01363 ], [ 3.321566, 44.01336 ], [ 3.32302, 44.014652 ], [ 3.324475, 44.015943 ], [ 3.325427, 44.016774 ], [ 3.326381, 44.017606 ], [ 3.326538, 44.017795 ], [ 3.326675, 44.017962 ], [ 3.32818, 44.019489 ], [ 3.325844, 44.01523 ] ] ], [ [ [ 3.346413, 44.010047 ], [ 3.341966, 44.010529 ], [ 3.341607, 44.010527 ], [ 3.341248, 44.010524 ], [ 3.341245, 44.010884 ], [ 3.336637, 44.018363 ], [ 3.336842, 44.01827 ], [ 3.33748, 44.018033 ], [ 3.338106, 44.017801 ], [ 3.338445, 44.017703 ], [ 3.339463, 44.01799 ], [ 3.339827, 44.018077 ], [ 3.341866, 44.018419 ], [ 3.343693, 44.018893 ], [ 3.345983, 44.01949 ], [ 3.349605, 44.017931 ], [ 3.347148, 44.010301 ], [ 3.347075, 44.009948 ], [ 3.353072, 44.006775 ], [ 3.346413, 44.010047 ] ] ], [ [ [ 3.355444, 44.005462 ], [ 3.356042, 44.005271 ], [ 3.356218, 44.005208 ], [ 3.355444, 44.005462 ] ] ], [ [ [ 3.356709, 44.005056 ], [ 3.358016, 44.004799 ], [ 3.358619119215751, 44.003527496170562 ], [ 3.356709, 44.005056 ] ] ], [ [ [ 3.403959, 43.998296 ], [ 3.402325, 43.997053 ], [ 3.401001, 43.996738 ], [ 3.399455, 43.996371 ], [ 3.39622, 43.995714 ], [ 3.395845, 43.995647 ], [ 3.395458, 43.99558 ], [ 3.392001, 43.994808 ], [ 3.3876, 43.995992 ], [ 3.382454, 43.990255 ], [ 3.382351, 43.98991 ], [ 3.375697, 43.985195 ], [ 3.372959, 43.979694 ], [ 3.372441, 43.972729 ], [ 3.372326, 43.972388 ], [ 3.369011, 43.973187 ], [ 3.360567, 43.972952 ], [ 3.360482, 43.973301 ], [ 3.362385, 43.981503 ], [ 3.363293, 43.98199 ], [ 3.366069, 43.982659 ], [ 3.369255, 43.986708 ], [ 3.366396, 43.99273 ], [ 3.366554, 43.992645 ], [ 3.366739, 43.992583 ], [ 3.366927, 43.992556 ], [ 3.371774, 43.986231 ], [ 3.367329, 43.981771 ], [ 3.366628, 43.981679 ], [ 3.366675, 43.981322 ], [ 3.369912, 43.978158 ], [ 3.370176, 43.977913 ], [ 3.37097, 43.978457 ], [ 3.371598, 43.979486 ], [ 3.371706, 43.979717 ], [ 3.375745, 43.987726 ], [ 3.375916, 43.988056 ], [ 3.377078, 43.990137 ], [ 3.376834, 43.990401 ], [ 3.375583, 43.997988 ], [ 3.375315, 43.998321 ], [ 3.375172, 43.998425 ], [ 3.373734, 43.998912 ], [ 3.374289, 44.007864 ], [ 3.374587, 44.008067 ], [ 3.382701, 44.005897 ], [ 3.382805, 44.00572 ], [ 3.383434, 44.004115 ], [ 3.38652, 44.000783 ], [ 3.386646, 44.000446 ], [ 3.388821, 43.999032 ], [ 3.389094, 43.998797 ], [ 3.392473, 43.998585 ], [ 3.397852, 43.996582 ], [ 3.399003, 43.997124 ], [ 3.399201, 43.997269 ], [ 3.399398, 43.997413 ], [ 3.401895, 43.999546 ], [ 3.407489, 44.003179 ], [ 3.407621, 44.003252 ], [ 3.407847, 44.003437 ], [ 3.408043, 44.003603 ], [ 3.403959, 43.998296 ] ] ], [ [ [ 3.418005, 44.015763 ], [ 3.418286, 44.015987 ], [ 3.423739, 44.013737 ], [ 3.424095, 44.013687 ], [ 3.42461, 44.013634 ], [ 3.424904, 44.013426 ], [ 3.423445, 44.009021 ], [ 3.423093, 44.009097 ], [ 3.415332, 44.010028 ], [ 3.422317, 44.012112 ], [ 3.422612, 44.012318 ], [ 3.422508, 44.012466 ], [ 3.422405, 44.012614 ], [ 3.422279, 44.012715 ], [ 3.420876, 44.013813 ], [ 3.420724, 44.013873 ], [ 3.418472, 44.014631 ], [ 3.418155, 44.014801 ], [ 3.417303, 44.013877 ], [ 3.414351071451825, 44.013023008434764 ], [ 3.418005, 44.015763 ] ] ], [ [ [ 3.395301, 44.026511 ], [ 3.393994, 44.02116 ], [ 3.393958, 44.021235 ], [ 3.393809, 44.02146 ], [ 3.394808, 44.028181 ], [ 3.40051, 44.027627 ], [ 3.400712, 44.027481 ], [ 3.395301, 44.026511 ] ] ], [ [ [ 3.407678, 44.02611 ], [ 3.407491, 44.026083 ], [ 3.406956, 44.026056 ], [ 3.406439, 44.02603 ], [ 3.406157, 44.026027 ], [ 3.40581, 44.026101 ], [ 3.40485, 44.02636 ], [ 3.404499, 44.026426 ], [ 3.403608, 44.026569 ], [ 3.403206, 44.026599 ], [ 3.402868, 44.026659 ], [ 3.402515, 44.026748 ], [ 3.402099, 44.026914 ], [ 3.401706, 44.027072 ], [ 3.401691031613477, 44.02707948419328 ], [ 3.408608, 44.030326 ], [ 3.408792, 44.030353 ], [ 3.415476, 44.028601 ], [ 3.407678, 44.02611 ] ] ], [ [ [ 3.417817, 44.037969 ], [ 3.418349, 44.037014 ], [ 3.418605, 44.036281 ], [ 3.418675, 44.036004 ], [ 3.421983, 44.029137 ], [ 3.425459, 44.026248 ], [ 3.425354, 44.025903 ], [ 3.425102, 44.02598 ], [ 3.424849, 44.026057 ], [ 3.423809, 44.026314 ], [ 3.423567, 44.026383 ], [ 3.423347, 44.026447 ], [ 3.423125, 44.026553 ], [ 3.42293, 44.026647 ], [ 3.422175, 44.027032 ], [ 3.4224, 44.026944 ], [ 3.422625, 44.026857 ], [ 3.422756, 44.027192 ], [ 3.421927, 44.027818 ], [ 3.420571, 44.029084 ], [ 3.416396, 44.036506 ], [ 3.416513, 44.038598 ], [ 3.420543, 44.04628 ], [ 3.417817, 44.037969 ] ] ], [ [ [ 3.431783, 44.054094 ], [ 3.4333, 44.053044 ], [ 3.434249, 44.052244 ], [ 3.434326, 44.052155 ], [ 3.434363, 44.052028 ], [ 3.434041, 44.051315 ], [ 3.432927, 44.050861 ], [ 3.432868, 44.05084 ], [ 3.432805, 44.050845 ], [ 3.432182, 44.05089 ], [ 3.429993, 44.050959 ], [ 3.430348, 44.051007 ], [ 3.430716, 44.051057 ], [ 3.431302, 44.051189 ], [ 3.431286, 44.051548 ], [ 3.424658, 44.054206 ], [ 3.424325, 44.054279 ], [ 3.431783, 44.054094 ] ] ], [ [ [ 3.369139, 44.046778 ], [ 3.369249, 44.047059 ], [ 3.369388, 44.047343 ], [ 3.369596, 44.047623 ], [ 3.369765, 44.047775 ], [ 3.369989, 44.047906 ], [ 3.376249, 44.049906 ], [ 3.378221, 44.050408 ], [ 3.378571, 44.050324 ], [ 3.378514, 44.050084 ], [ 3.378314, 44.049821 ], [ 3.377925, 44.049671 ], [ 3.377512, 44.049482 ], [ 3.374403, 44.048722 ], [ 3.373705, 44.048348 ], [ 3.373409, 44.048253 ], [ 3.369927, 44.044395 ], [ 3.369664, 44.042374 ], [ 3.369653, 44.042483 ], [ 3.369289, 44.045883 ], [ 3.368965, 44.046039 ], [ 3.368762, 44.045619 ], [ 3.36856, 44.045199 ], [ 3.369139, 44.046778 ] ] ], [ [ [ 3.344027, 44.033607 ], [ 3.343677, 44.033665 ], [ 3.343327, 44.033723 ], [ 3.343386, 44.034078 ], [ 3.346966, 44.03841 ], [ 3.347261, 44.038617 ], [ 3.348636, 44.038309 ], [ 3.354428, 44.036715 ], [ 3.360543, 44.040776 ], [ 3.360755, 44.041049 ], [ 3.361126, 44.041442 ], [ 3.361497, 44.041835 ], [ 3.36856, 44.045199 ], [ 3.368439, 44.044846 ], [ 3.361943, 44.039813 ], [ 3.360884, 44.039797 ], [ 3.360524, 44.039792 ], [ 3.359729, 44.03837 ], [ 3.360076, 44.034576 ], [ 3.359809, 44.033563 ], [ 3.35985, 44.032821 ], [ 3.359531, 44.030859 ], [ 3.350629, 44.031044 ], [ 3.350216, 44.032094 ], [ 3.350025, 44.032512 ], [ 3.3499, 44.036304 ], [ 3.349915, 44.036423 ], [ 3.349557, 44.036467 ], [ 3.346485, 44.033872 ], [ 3.346547, 44.033518 ], [ 3.348051, 44.025637 ], [ 3.344027, 44.033607 ] ] ], [ [ [ 3.33351, 44.024759 ], [ 3.333728, 44.024776 ], [ 3.333947, 44.024793 ], [ 3.334288, 44.024786 ], [ 3.334563, 44.024691 ], [ 3.334814, 44.024542 ], [ 3.335281, 44.024303 ], [ 3.335544, 44.024188 ], [ 3.335869, 44.024019 ], [ 3.33605, 44.023847 ], [ 3.336414, 44.02349 ], [ 3.344529, 44.022921 ], [ 3.337738, 44.021804 ], [ 3.33407, 44.023949 ], [ 3.331458, 44.022281 ], [ 3.329713, 44.021031 ], [ 3.327965, 44.019779 ], [ 3.327456, 44.019401 ], [ 3.326917, 44.018996 ], [ 3.33351, 44.024759 ] ] ] ] } },
{ "type": "Feature", "properties": { "codgeo": "12231", "value": 1020, "isochrone_group": 17.0, "nb_agences": 1 }, "geometry": { "type": "MultiPolygon", "coordinates": [ [ [ [ 3.32898, 44.01711 ], [ 3.324588, 44.009304 ], [ 3.324567, 44.008945 ], [ 3.321684, 44.007328 ], [ 3.31558, 44.008185 ], [ 3.311935, 44.00825 ], [ 3.310664, 44.008823 ], [ 3.310396, 44.00894 ], [ 3.304653, 44.012348 ], [ 3.304302, 44.012952 ], [ 3.304568, 44.014161 ], [ 3.304927, 44.014186 ], [ 3.309567, 44.014686 ], [ 3.309923, 44.014739 ], [ 3.31631, 44.011494 ], [ 3.311061, 44.010792 ], [ 3.311049, 44.010433 ], [ 3.314123, 44.009931 ], [ 3.320674, 44.01017 ], [ 3.324194, 44.013735 ], [ 3.32435, 44.013859 ], [ 3.325477, 44.014891 ], [ 3.325609, 44.015002 ], [ 3.325844, 44.01523 ], [ 3.32818, 44.019489 ], [ 3.335809, 44.018947 ], [ 3.335971, 44.018803 ], [ 3.336134, 44.018682 ], [ 3.336285, 44.018572 ], [ 3.336469, 44.018463 ], [ 3.336637, 44.018363 ], [ 3.32898, 44.01711 ] ] ], [ [ [ 3.341171, 44.010704 ], [ 3.340627, 44.01095 ], [ 3.340617, 44.010973 ], [ 3.336637, 44.018363 ], [ 3.341245, 44.010884 ], [ 3.341246782438737, 44.010670107351523 ], [ 3.341171, 44.010704 ] ] ], [ [ [ 3.341569, 44.010526 ], [ 3.341567502058489, 44.01052666993364 ], [ 3.341607, 44.010527 ], [ 3.341966, 44.010529 ], [ 3.341569, 44.010526 ] ] ], [ [ [ 3.377615, 43.973187 ], [ 3.379703, 43.973575 ], [ 3.382411, 43.974003 ], [ 3.382587, 43.973689 ], [ 3.382352, 43.972912 ], [ 3.382005, 43.972815 ], [ 3.375151, 43.97232 ], [ 3.374927, 43.972308 ], [ 3.374721, 43.972297 ], [ 3.374307, 43.972276 ], [ 3.373893, 43.972255 ], [ 3.373634, 43.97225 ], [ 3.373381, 43.972245 ], [ 3.373089, 43.972259 ], [ 3.372887, 43.972282 ], [ 3.372697, 43.972303 ], [ 3.368647, 43.972901 ], [ 3.360345, 43.972897 ], [ 3.357999, 43.972269 ], [ 3.355648, 43.971641 ], [ 3.353792, 43.971101 ], [ 3.351478, 43.970617 ], [ 3.351391, 43.970966 ], [ 3.352865, 43.975242 ], [ 3.352937, 43.975525 ], [ 3.358818, 43.982128 ], [ 3.358565, 43.984291 ], [ 3.358855, 43.984505 ], [ 3.366135, 43.9828 ], [ 3.369255, 43.986708 ], [ 3.366069, 43.982659 ], [ 3.363293, 43.98199 ], [ 3.362385, 43.981503 ], [ 3.360482, 43.973301 ], [ 3.360567, 43.972952 ], [ 3.369011, 43.973187 ], [ 3.372326, 43.972388 ], [ 3.372441, 43.972729 ], [ 3.372959, 43.979694 ], [ 3.377615, 43.973187 ] ] ], [ [ [ 3.406971, 43.999362 ], [ 3.406234, 43.995562 ], [ 3.406031, 43.995413 ], [ 3.405827, 43.995265 ], [ 3.405672, 43.995215 ], [ 3.399237, 43.994437 ], [ 3.398888, 43.994528 ], [ 3.390235, 43.992524 ], [ 3.390062, 43.992298 ], [ 3.384379, 43.988045 ], [ 3.384029, 43.98796 ], [ 3.379246, 43.98655 ], [ 3.378863, 43.986289 ], [ 3.37848, 43.986028 ], [ 3.378332, 43.985976 ], [ 3.377028, 43.985551 ], [ 3.376627, 43.985365 ], [ 3.372959, 43.979694 ], [ 3.375697, 43.985195 ], [ 3.382351, 43.98991 ], [ 3.382454, 43.990255 ], [ 3.3876, 43.995992 ], [ 3.392001, 43.994808 ], [ 3.395458, 43.99558 ], [ 3.395845, 43.995647 ], [ 3.39622, 43.995714 ], [ 3.399455, 43.996371 ], [ 3.401001, 43.996738 ], [ 3.402325, 43.997053 ], [ 3.403959, 43.998296 ], [ 3.408043, 44.003603 ], [ 3.40827, 44.00385 ], [ 3.40848, 44.00408 ], [ 3.410873, 44.006557 ], [ 3.406971, 43.999362 ] ] ], [ [ [ 3.420646, 44.015259 ], [ 3.423892, 44.01475 ], [ 3.424536, 44.014815 ], [ 3.424765, 44.014811 ], [ 3.426127, 44.014817 ], [ 3.42669, 44.014865 ], [ 3.429958, 44.013809 ], [ 3.429994, 44.013451 ], [ 3.424425, 44.006605 ], [ 3.424104, 44.006441 ], [ 3.42374, 44.007158 ], [ 3.415332, 44.010028 ], [ 3.423093, 44.009097 ], [ 3.423445, 44.009021 ], [ 3.424904, 44.013426 ], [ 3.42461, 44.013634 ], [ 3.424095, 44.013687 ], [ 3.423739, 44.013737 ], [ 3.418286, 44.015987 ], [ 3.420646, 44.015259 ] ] ], [ [ [ 3.409294, 44.01156 ], [ 3.409069, 44.011581 ], [ 3.402256, 44.01693 ], [ 3.409294, 44.01156 ] ] ], [ [ [ 3.396469, 44.01822 ], [ 3.393994, 44.02116 ], [ 3.395301, 44.026511 ], [ 3.395844107102234, 44.026608359802097 ], [ 3.396469, 44.01822 ] ] ], [ [ [ 3.422671, 44.034393 ], [ 3.42295, 44.034387 ], [ 3.425459, 44.026248 ], [ 3.421983, 44.029137 ], [ 3.418675, 44.036004 ], [ 3.418605, 44.036281 ], [ 3.418349, 44.037014 ], [ 3.417817, 44.037969 ], [ 3.419320153058679, 44.042551797164592 ], [ 3.422671, 44.034393 ] ] ], [ [ [ 3.419541413741495, 44.04322637439676 ], [ 3.420543, 44.04628 ], [ 3.421574, 44.046918 ], [ 3.419541413741495, 44.04322637439676 ] ] ], [ [ [ 3.42678, 44.061111 ], [ 3.426845, 44.061378 ], [ 3.426914, 44.061553 ], [ 3.426984, 44.061727 ], [ 3.427318, 44.061594 ], [ 3.42945, 44.05793 ], [ 3.431163, 44.05556 ], [ 3.435935, 44.050819 ], [ 3.436207, 44.050606 ], [ 3.436338, 44.050398 ], [ 3.436033, 44.050206 ], [ 3.432868, 44.05084 ], [ 3.432927, 44.050861 ], [ 3.434041, 44.051315 ], [ 3.434363, 44.052028 ], [ 3.434326, 44.052155 ], [ 3.434249, 44.052244 ], [ 3.4333, 44.053044 ], [ 3.431783, 44.054094 ], [ 3.424325, 44.054279 ], [ 3.422458, 44.054332 ], [ 3.42226, 44.054317 ], [ 3.421109, 44.054143 ], [ 3.42678, 44.061111 ] ] ], [ [ [ 3.379833, 44.054135 ], [ 3.379948, 44.054279 ], [ 3.380102, 44.054461 ], [ 3.380759, 44.055207 ], [ 3.380998, 44.055469 ], [ 3.382579, 44.057244 ], [ 3.384238, 44.058175 ], [ 3.386758, 44.058403 ], [ 3.386842, 44.058053 ], [ 3.384131, 44.057025 ], [ 3.380617, 44.049154 ], [ 3.380447, 44.048836 ], [ 3.381988, 44.040043 ], [ 3.3818, 44.040097 ], [ 3.381482, 44.040155 ], [ 3.381245, 44.040134 ], [ 3.38004, 44.039849 ], [ 3.378855, 44.039567 ], [ 3.378533, 44.039458 ], [ 3.378227, 44.039354 ], [ 3.369685, 44.041494 ], [ 3.369664, 44.042374 ], [ 3.369927, 44.044395 ], [ 3.373409, 44.048253 ], [ 3.373705, 44.048348 ], [ 3.374403, 44.048722 ], [ 3.377512, 44.049482 ], [ 3.377925, 44.049671 ], [ 3.378314, 44.049821 ], [ 3.378514, 44.050084 ], [ 3.378571, 44.050324 ], [ 3.378221, 44.050408 ], [ 3.376249, 44.049906 ], [ 3.37505250268752, 44.049523732488026 ], [ 3.379833, 44.054135 ] ] ], [ [ [ 3.361136, 44.041453 ], [ 3.362352, 44.04309 ], [ 3.362892, 44.043949 ], [ 3.369765, 44.047775 ], [ 3.369596, 44.047623 ], [ 3.369388, 44.047343 ], [ 3.369249, 44.047059 ], [ 3.369139, 44.046778 ], [ 3.36856, 44.045199 ], [ 3.361497, 44.041835 ], [ 3.361126, 44.041442 ], [ 3.360755, 44.041049 ], [ 3.361136, 44.041453 ] ] ], [ [ [ 3.343213, 44.033742 ], [ 3.343008, 44.033786 ], [ 3.342726, 44.033866 ], [ 3.342456, 44.034085 ], [ 3.342186, 44.034305 ], [ 3.342413, 44.034584 ], [ 3.345878, 44.039615 ], [ 3.346102, 44.039898 ], [ 3.347495, 44.039998 ], [ 3.347727, 44.039748 ], [ 3.347959, 44.039497 ], [ 3.354634395850674, 44.036852068446365 ], [ 3.354428, 44.036715 ], [ 3.348636, 44.038309 ], [ 3.347261, 44.038617 ], [ 3.346966, 44.03841 ], [ 3.343386, 44.034078 ], [ 3.343327022432413, 44.033723134974686 ], [ 3.343213, 44.033742 ] ] ], [ [ [ 3.328099, 44.023497 ], [ 3.330049, 44.025514 ], [ 3.330322, 44.025749 ], [ 3.331178, 44.026383 ], [ 3.331722, 44.026225 ], [ 3.332024, 44.026052 ], [ 3.332916, 44.025593 ], [ 3.334563, 44.024691 ], [ 3.334288, 44.024786 ], [ 3.333947, 44.024793 ], [ 3.333728, 44.024776 ], [ 3.33351, 44.024759 ], [ 3.326917, 44.018996 ], [ 3.326761, 44.01881 ], [ 3.324235, 44.016212 ], [ 3.328099, 44.023497 ] ] ] ] } },
{ "type": "Feature", "properties": { "codgeo": "12231", "value": 1080, "isochrone_group": 18.0, "nb_agences": 1 }, "geometry": { "type": "MultiPolygon", "coordinates": [ [ [ [ 3.329209, 44.017124 ], [ 3.326987, 44.008578 ], [ 3.326862, 44.00824 ], [ 3.320323, 44.005679 ], [ 3.312411, 44.00417 ], [ 3.311801, 44.004032 ], [ 3.311192, 44.003894 ], [ 3.310986, 44.003879 ], [ 3.310769, 44.003926 ], [ 3.310588, 44.004053 ], [ 3.310487, 44.004285 ], [ 3.304145, 44.010621 ], [ 3.30391, 44.010894 ], [ 3.302244, 44.016232 ], [ 3.302451, 44.016526 ], [ 3.304436, 44.018711 ], [ 3.30872, 44.019237 ], [ 3.309079, 44.019212 ], [ 3.311113, 44.018324 ], [ 3.31124, 44.017987 ], [ 3.31631, 44.011494 ], [ 3.309923, 44.014739 ], [ 3.309567, 44.014686 ], [ 3.304927, 44.014186 ], [ 3.304568, 44.014161 ], [ 3.304302, 44.012952 ], [ 3.304653, 44.012348 ], [ 3.310396, 44.00894 ], [ 3.310664, 44.008823 ], [ 3.311935, 44.00825 ], [ 3.31558, 44.008185 ], [ 3.321684, 44.007328 ], [ 3.324567, 44.008945 ], [ 3.324588, 44.009304 ], [ 3.32898, 44.01711 ], [ 3.329243439434757, 44.017153109522219 ], [ 3.329209, 44.017124 ] ] ], [ [ [ 3.354684, 43.96849 ], [ 3.349321, 43.97012 ], [ 3.349244, 43.970472 ], [ 3.348917, 43.973803 ], [ 3.351134, 43.976605 ], [ 3.351234, 43.976758 ], [ 3.351477, 43.977025 ], [ 3.351704, 43.977271 ], [ 3.352121, 43.977674 ], [ 3.354409, 43.986008 ], [ 3.354156, 43.987195 ], [ 3.354346, 43.9875 ], [ 3.354611, 43.987335 ], [ 3.354876, 43.987169 ], [ 3.355162, 43.986957 ], [ 3.357936, 43.98533 ], [ 3.358137, 43.985266 ], [ 3.358326, 43.985205 ], [ 3.358597, 43.985032 ], [ 3.358737, 43.984851 ], [ 3.366135, 43.9828 ], [ 3.358855, 43.984505 ], [ 3.358565, 43.984291 ], [ 3.358818, 43.982128 ], [ 3.352937, 43.975525 ], [ 3.352865, 43.975242 ], [ 3.351391, 43.970966 ], [ 3.351478, 43.970617 ], [ 3.353792, 43.971101 ], [ 3.355648, 43.971641 ], [ 3.357999, 43.972269 ], [ 3.360345, 43.972897 ], [ 3.361338897682589, 43.972897478871445 ], [ 3.354684, 43.96849 ] ] ], [ [ [ 3.380531, 43.97385 ], [ 3.384613, 43.977043 ], [ 3.385255, 43.977715 ], [ 3.385608, 43.977646 ], [ 3.388145, 43.973226 ], [ 3.391863, 43.970178 ], [ 3.391898, 43.969819 ], [ 3.391181, 43.969751 ], [ 3.390465, 43.969682 ], [ 3.390184, 43.969678 ], [ 3.389878, 43.969713 ], [ 3.389615, 43.969778 ], [ 3.389411, 43.969875 ], [ 3.389244, 43.969958 ], [ 3.382654, 43.972311 ], [ 3.375855892837946, 43.972370907784466 ], [ 3.382005, 43.972815 ], [ 3.382352, 43.972912 ], [ 3.382587, 43.973689 ], [ 3.382411, 43.974003 ], [ 3.379703, 43.973575 ], [ 3.380531, 43.97385 ] ] ], [ [ [ 3.379703, 43.973575 ], [ 3.377615, 43.973187 ], [ 3.377101715853783, 43.973904341052297 ], [ 3.379703, 43.973575 ] ] ], [ [ [ 3.381243, 43.987115 ], [ 3.381036914157933, 43.987077950859863 ], [ 3.381309922701977, 43.987158432157599 ], [ 3.381243, 43.987115 ] ] ], [ [ [ 3.399133, 43.993267 ], [ 3.398927, 43.99318 ], [ 3.398693, 43.993083 ], [ 3.398441, 43.993023 ], [ 3.39807, 43.992974 ], [ 3.395439, 43.993496 ], [ 3.389894, 43.987995 ], [ 3.389864, 43.987502 ], [ 3.389505, 43.987523 ], [ 3.382866214054292, 43.987617217607479 ], [ 3.384029, 43.98796 ], [ 3.384379, 43.988045 ], [ 3.390062, 43.992298 ], [ 3.390235, 43.992524 ], [ 3.398888, 43.994528 ], [ 3.399237, 43.994437 ], [ 3.405672, 43.995215 ], [ 3.399133, 43.993267 ] ] ], [ [ [ 3.409868, 44.001141 ], [ 3.409843, 43.997663 ], [ 3.40981, 43.9975 ], [ 3.409674, 43.997124 ], [ 3.405827, 43.995265 ], [ 3.406031, 43.995413 ], [ 3.406234, 43.995562 ], [ 3.406971, 43.999362 ], [ 3.410873, 44.006557 ], [ 3.412678, 44.008074 ], [ 3.412823, 44.008185 ], [ 3.409868, 44.001141 ] ] ], [ [ [ 3.415332, 44.010028 ], [ 3.42374, 44.007158 ], [ 3.423773802462519, 44.007091416577964 ], [ 3.415332, 44.010028 ] ] ], [ [ [ 3.425223, 44.00548 ], [ 3.425223, 44.00512 ], [ 3.42513, 44.00512 ], [ 3.424956, 44.005179 ], [ 3.424701, 44.005504 ], [ 3.424523, 44.005766 ], [ 3.42422, 44.006248 ], [ 3.424115120640426, 44.006446681573301 ], [ 3.424425, 44.006605 ], [ 3.428185554988805, 44.011227869357761 ], [ 3.425223, 44.00548 ] ] ], [ [ [ 3.426804, 44.014875 ], [ 3.427101, 44.014873 ], [ 3.42951, 44.015009 ], [ 3.432844, 44.013702 ], [ 3.433022, 44.013647 ], [ 3.433272, 44.013524 ], [ 3.433607, 44.013314 ], [ 3.433973, 44.013079 ], [ 3.434196, 44.012857 ], [ 3.435026, 44.011821 ], [ 3.434825, 44.011522 ], [ 3.434661, 44.011633 ], [ 3.430825, 44.013308 ], [ 3.43064, 44.013324 ], [ 3.429892462479184, 44.013326179409667 ], [ 3.429994, 44.013451 ], [ 3.429958, 44.013809 ], [ 3.42669, 44.014865 ], [ 3.426480254901926, 44.014847117647086 ], [ 3.426804, 44.014875 ] ] ], [ [ [ 3.426173637337844, 44.014820976185128 ], [ 3.426127, 44.014817 ], [ 3.424765, 44.014811 ], [ 3.426173637337844, 44.014820976185128 ] ] ], [ [ [ 3.417458, 44.018775 ], [ 3.417776, 44.018943 ], [ 3.417892, 44.018723 ], [ 3.418007, 44.018503 ], [ 3.419287, 44.016913 ], [ 3.419473, 44.016739 ], [ 3.424536, 44.014815 ], [ 3.423892, 44.01475 ], [ 3.420646, 44.015259 ], [ 3.418286, 44.015987 ], [ 3.418005, 44.015763 ], [ 3.417160860885359, 44.015130000743575 ], [ 3.417458, 44.018775 ] ] ], [ [ [ 3.422519, 44.04087 ], [ 3.42306, 44.04009 ], [ 3.425791, 44.03507 ], [ 3.426095, 44.034737 ], [ 3.428109, 44.033033 ], [ 3.428987, 44.032547 ], [ 3.428813, 44.032232 ], [ 3.426067, 44.026832 ], [ 3.425354, 44.025903 ], [ 3.425459, 44.026248 ], [ 3.42295, 44.034387 ], [ 3.422671, 44.034393 ], [ 3.419256, 44.042708 ], [ 3.421574, 44.046918 ], [ 3.422519, 44.04087 ] ] ], [ [ [ 3.436927, 44.049667 ], [ 3.437153, 44.049385 ], [ 3.437255, 44.049196 ], [ 3.437538, 44.048268 ], [ 3.437196, 44.048153 ], [ 3.432182, 44.05089 ], [ 3.432805, 44.050845 ], [ 3.432868, 44.05084 ], [ 3.436033, 44.050206 ], [ 3.436338, 44.050398 ], [ 3.436207, 44.050606 ], [ 3.436927, 44.049667 ] ] ], [ [ [ 3.426094, 44.06111 ], [ 3.427157, 44.061943 ], [ 3.427333, 44.062007 ], [ 3.434195, 44.064052 ], [ 3.434361, 44.064081 ], [ 3.435874, 44.064211 ], [ 3.435922, 44.063888 ], [ 3.435848, 44.063676 ], [ 3.435725, 44.06356 ], [ 3.432883, 44.061094 ], [ 3.434208, 44.054142 ], [ 3.436207, 44.050606 ], [ 3.435935, 44.050819 ], [ 3.431163, 44.05556 ], [ 3.42945, 44.05793 ], [ 3.427318, 44.061594 ], [ 3.426984, 44.061727 ], [ 3.426914, 44.061553 ], [ 3.426845, 44.061378 ], [ 3.42678, 44.061111 ], [ 3.421109, 44.054143 ], [ 3.420954, 44.05408 ], [ 3.426094, 44.06111 ] ] ], [ [ [ 3.381275, 44.04912 ], [ 3.381343, 44.048897 ], [ 3.381395, 44.048715 ], [ 3.381381, 44.048496 ], [ 3.381279, 44.048318 ], [ 3.382281, 44.039907 ], [ 3.381988, 44.040043 ], [ 3.380447, 44.048836 ], [ 3.380617, 44.049154 ], [ 3.380984102938051, 44.049976272972501 ], [ 3.381275, 44.04912 ] ] ], [ [ [ 3.372778, 44.057509 ], [ 3.372813, 44.057867 ], [ 3.376669, 44.058047 ], [ 3.377345, 44.058133 ], [ 3.377615, 44.058125 ], [ 3.378361, 44.057924 ], [ 3.386792, 44.060697 ], [ 3.389001, 44.063246 ], [ 3.389341, 44.063366 ], [ 3.397064, 44.062064 ], [ 3.397326, 44.061817 ], [ 3.397234, 44.061719 ], [ 3.395928, 44.060509 ], [ 3.395756, 44.060369 ], [ 3.395567, 44.060297 ], [ 3.393014, 44.058929 ], [ 3.392513, 44.058623 ], [ 3.392315, 44.058507 ], [ 3.390405, 44.057479 ], [ 3.390133, 44.05736 ], [ 3.389864, 44.057315 ], [ 3.387819, 44.056968 ], [ 3.387541, 44.056893 ], [ 3.387245, 44.056885 ], [ 3.386993, 44.056883 ], [ 3.386475, 44.056914 ], [ 3.38597, 44.056945 ], [ 3.382364640495083, 44.053068535667848 ], [ 3.384131, 44.057025 ], [ 3.386842, 44.058053 ], [ 3.386758, 44.058403 ], [ 3.384238, 44.058175 ], [ 3.382579, 44.057244 ], [ 3.380998, 44.055469 ], [ 3.380759, 44.055207 ], [ 3.380102, 44.054461 ], [ 3.379948, 44.054279 ], [ 3.379833, 44.054135 ], [ 3.374946, 44.049421 ], [ 3.374209007279499, 44.049178668964004 ], [ 3.372778, 44.057509 ] ] ], [ [ [ 3.362995, 44.044106 ], [ 3.363176, 44.044296 ], [ 3.364620917880084, 44.044911438499824 ], [ 3.36289749221108, 44.043952057354808 ], [ 3.362995, 44.044106 ] ] ], [ [ [ 3.362392, 44.043154 ], [ 3.362422946882401, 44.043202858096286 ], [ 3.362352, 44.04309 ], [ 3.361136, 44.041453 ], [ 3.362392, 44.043154 ] ] ], [ [ [ 3.343062, 44.040967 ], [ 3.343218, 44.041291 ], [ 3.347495, 44.039998 ], [ 3.346102, 44.039898 ], [ 3.345878, 44.039615 ], [ 3.342413, 44.034584 ], [ 3.342186, 44.034305 ], [ 3.343062, 44.040967 ] ] ], [ [ [ 3.324573, 44.020764 ], [ 3.326293, 44.022397 ], [ 3.326533, 44.02261 ], [ 3.331033, 44.026642 ], [ 3.333846, 44.025552 ], [ 3.335544, 44.024188 ], [ 3.335281, 44.024303 ], [ 3.334814, 44.024542 ], [ 3.334563, 44.024691 ], [ 3.332916, 44.025593 ], [ 3.332024, 44.026052 ], [ 3.331722, 44.026225 ], [ 3.331178, 44.026383 ], [ 3.330322, 44.025749 ], [ 3.330049, 44.025514 ], [ 3.328099, 44.023497 ], [ 3.324235, 44.016212 ], [ 3.322693, 44.014843 ], [ 3.324573, 44.020764 ] ] ] ] } },
{ "type": "Feature", "properties": { "codgeo": "12231", "value": 1140, "isochrone_group": 19.0, "nb_agences": 1 }, "geometry": { "type": "MultiPolygon", "coordinates": [ [ [ [ 3.323223, 44.020278 ], [ 3.326293, 44.022397 ], [ 3.324573, 44.020764 ], [ 3.322693, 44.014843 ], [ 3.321353, 44.013499 ], [ 3.318844, 44.01212 ], [ 3.31631, 44.011494 ], [ 3.31124, 44.017987 ], [ 3.311113, 44.018324 ], [ 3.309079, 44.019212 ], [ 3.30872, 44.019237 ], [ 3.308370852813465, 44.019194130854316 ], [ 3.309973, 44.021367 ], [ 3.309823768338477, 44.022159183025657 ], [ 3.315222, 44.021043 ], [ 3.323223, 44.020278 ] ] ], [ [ [ 3.34302, 44.040987 ], [ 3.343176, 44.041311 ], [ 3.347495, 44.039998 ], [ 3.343218, 44.041291 ], [ 3.343062, 44.040967 ], [ 3.342186, 44.034305 ], [ 3.34302, 44.040987 ] ] ], [ [ [ 3.368526, 44.047634 ], [ 3.368841, 44.048049 ], [ 3.366034, 44.056591 ], [ 3.365775, 44.056841 ], [ 3.364551, 44.057855 ], [ 3.364586, 44.058214 ], [ 3.367051, 44.059099 ], [ 3.369052, 44.059165 ], [ 3.37676, 44.060316 ], [ 3.382031431779039, 44.059131224211036 ], [ 3.378361, 44.057924 ], [ 3.377615, 44.058125 ], [ 3.377345, 44.058133 ], [ 3.376669, 44.058047 ], [ 3.372813, 44.057867 ], [ 3.372778, 44.057509 ], [ 3.374233, 44.049039 ], [ 3.372672, 44.048455 ], [ 3.371482, 44.048282 ], [ 3.371109, 44.048218 ], [ 3.370541, 44.04806 ], [ 3.369989, 44.047906 ], [ 3.369765, 44.047775 ], [ 3.369596, 44.047623 ], [ 3.368266, 44.046464 ], [ 3.363176, 44.044296 ], [ 3.368526, 44.047634 ] ] ], [ [ [ 3.387645, 44.066143 ], [ 3.387605, 44.066501 ], [ 3.390055, 44.066986 ], [ 3.39028, 44.066867 ], [ 3.390504, 44.066747 ], [ 3.392589, 44.065552 ], [ 3.400031, 44.064368 ], [ 3.405701, 44.06528 ], [ 3.405923, 44.065344 ], [ 3.406116, 44.065369 ], [ 3.40634, 44.065396 ], [ 3.406574, 44.065382 ], [ 3.406746, 44.06533 ], [ 3.406951, 44.065265 ], [ 3.407143, 44.065162 ], [ 3.407385, 44.064995 ], [ 3.407627, 44.064828 ], [ 3.407423, 44.064532 ], [ 3.40429, 44.063742 ], [ 3.404094, 44.063697 ], [ 3.403898, 44.063697 ], [ 3.401342, 44.063473 ], [ 3.395928, 44.060509 ], [ 3.397234, 44.061719 ], [ 3.397326, 44.061817 ], [ 3.397064, 44.062064 ], [ 3.389341, 44.063366 ], [ 3.389001, 44.063246 ], [ 3.386792, 44.060697 ], [ 3.387645, 44.066143 ] ] ], [ [ [ 3.381344, 44.051807 ], [ 3.381395, 44.048715 ], [ 3.381343, 44.048897 ], [ 3.381275, 44.04912 ], [ 3.380584, 44.051154 ], [ 3.38597, 44.056945 ], [ 3.386475, 44.056914 ], [ 3.386993, 44.056883 ], [ 3.387245, 44.056885 ], [ 3.387541, 44.056893 ], [ 3.381344, 44.051807 ] ] ], [ [ [ 3.435789, 44.064874 ], [ 3.435929, 44.06492 ], [ 3.436086, 44.064945 ], [ 3.436253, 44.064945 ], [ 3.437611, 44.064742 ], [ 3.444045, 44.061297 ], [ 3.444232, 44.061146 ], [ 3.44442, 44.060994 ], [ 3.444194, 44.060714 ], [ 3.441122, 44.0608 ], [ 3.438824, 44.052164 ], [ 3.438278, 44.045878 ], [ 3.437935, 44.045769 ], [ 3.437163, 44.047093 ], [ 3.432182, 44.05089 ], [ 3.437196, 44.048153 ], [ 3.437538, 44.048268 ], [ 3.437255, 44.049196 ], [ 3.437153, 44.049385 ], [ 3.436927, 44.049667 ], [ 3.436207, 44.050606 ], [ 3.434208, 44.054142 ], [ 3.432883, 44.061094 ], [ 3.435725, 44.06356 ], [ 3.435848, 44.063676 ], [ 3.435922, 44.063888 ], [ 3.435874, 44.064211 ], [ 3.434361, 44.064081 ], [ 3.434195, 44.064052 ], [ 3.427333, 44.062007 ], [ 3.435789, 44.064874 ] ] ], [ [ [ 3.42684, 44.037575 ], [ 3.426932, 44.037658 ], [ 3.427053, 44.037715 ], [ 3.42721, 44.037741 ], [ 3.427421, 44.037723 ], [ 3.427674, 44.037695 ], [ 3.428184, 44.037575 ], [ 3.428426, 44.03749 ], [ 3.428667, 44.037404 ], [ 3.430443, 44.035417 ], [ 3.432928, 44.029691 ], [ 3.432715, 44.029401 ], [ 3.425354, 44.025903 ], [ 3.426067, 44.026832 ], [ 3.428813, 44.032232 ], [ 3.428987, 44.032547 ], [ 3.428109, 44.033033 ], [ 3.426095, 44.034737 ], [ 3.425791, 44.03507 ], [ 3.424511900480426, 44.037421182566192 ], [ 3.42684, 44.037575 ] ] ], [ [ [ 3.41514, 44.020138 ], [ 3.41729, 44.01929 ], [ 3.41745, 44.019253 ], [ 3.417613, 44.019159 ], [ 3.41776, 44.018971 ], [ 3.417775112970712, 44.018942531380738 ], [ 3.417458, 44.018775 ], [ 3.417031, 44.013537 ], [ 3.41198, 44.011245 ], [ 3.409294, 44.01156 ], [ 3.409069, 44.011581 ], [ 3.402256, 44.01693 ], [ 3.400749, 44.017088 ], [ 3.400484, 44.017141 ], [ 3.400246, 44.017187 ], [ 3.399929, 44.017197 ], [ 3.396469, 44.01822 ], [ 3.395827, 44.026838 ], [ 3.395902, 44.027044 ], [ 3.395847, 44.027168 ], [ 3.395064, 44.028434 ], [ 3.394381, 44.033532 ], [ 3.401074, 44.036256 ], [ 3.404541, 44.032398 ], [ 3.404591, 44.032257 ], [ 3.404747, 44.031996 ], [ 3.404897, 44.031888 ], [ 3.407056, 44.030606 ], [ 3.407316, 44.030446 ], [ 3.407565, 44.030378 ], [ 3.407938, 44.03036 ], [ 3.408608, 44.030326 ], [ 3.408792, 44.030353 ], [ 3.415476, 44.028601 ], [ 3.415674, 44.028564 ], [ 3.416034, 44.028611 ], [ 3.417306, 44.028773 ], [ 3.417602, 44.028766 ], [ 3.41514, 44.020138 ] ] ], [ [ [ 3.429748, 44.01512 ], [ 3.42994, 44.015177 ], [ 3.430126, 44.015232 ], [ 3.430507, 44.01536 ], [ 3.432304, 44.016304 ], [ 3.438408, 44.01449 ], [ 3.438574, 44.014502 ], [ 3.438599, 44.014143 ], [ 3.438332, 44.013598 ], [ 3.436034, 44.010235 ], [ 3.435882, 44.010042 ], [ 3.435751, 44.009908 ], [ 3.435008, 44.009347 ], [ 3.434653, 44.009405 ], [ 3.426105, 44.006628 ], [ 3.426026, 44.006394 ], [ 3.425944, 44.006153 ], [ 3.4258, 44.005841 ], [ 3.425654, 44.005581 ], [ 3.425515, 44.005333 ], [ 3.425436, 44.005228 ], [ 3.425311, 44.005142 ], [ 3.425223, 44.005131303867394 ], [ 3.425223, 44.00548 ], [ 3.429268, 44.013328 ], [ 3.43064, 44.013324 ], [ 3.430825, 44.013308 ], [ 3.434661, 44.011633 ], [ 3.434825, 44.011522 ], [ 3.435026, 44.011821 ], [ 3.434196, 44.012857 ], [ 3.433973, 44.013079 ], [ 3.433607, 44.013314 ], [ 3.433272, 44.013524 ], [ 3.433022, 44.013647 ], [ 3.432844, 44.013702 ], [ 3.42951, 44.015009 ], [ 3.427101, 44.014873 ], [ 3.429748, 44.01512 ] ] ], [ [ [ 3.41178, 44.001763 ], [ 3.41173, 44.001667 ], [ 3.40981, 43.9975 ], [ 3.409843, 43.997663 ], [ 3.409868, 44.001141 ], [ 3.412823, 44.008185 ], [ 3.413129, 44.008468 ], [ 3.413452, 44.008769 ], [ 3.41178, 44.001763 ] ] ], [ [ [ 3.409636, 43.99693 ], [ 3.408613, 43.993913 ], [ 3.408272, 43.993799 ], [ 3.405592897105543, 43.995191434861837 ], [ 3.405672, 43.995215 ], [ 3.405827, 43.995265 ], [ 3.409674, 43.997124 ], [ 3.40981, 43.9975 ], [ 3.409636, 43.99693 ] ] ], [ [ [ 3.389891593703148, 43.987955456521746 ], [ 3.389894, 43.987995 ], [ 3.389895353342898, 43.987996342604028 ], [ 3.389891593703148, 43.987955456521746 ] ] ], [ [ [ 3.389858, 43.987402 ], [ 3.389759, 43.986327 ], [ 3.38966, 43.98526 ], [ 3.38965, 43.985049 ], [ 3.389616, 43.983747 ], [ 3.38961, 43.983481 ], [ 3.387198, 43.981076 ], [ 3.386523, 43.979695 ], [ 3.391301, 43.972139 ], [ 3.392136, 43.972054 ], [ 3.392806, 43.97196 ], [ 3.393516, 43.971871 ], [ 3.396634, 43.969428 ], [ 3.400762, 43.967844 ], [ 3.402682, 43.966789 ], [ 3.402643, 43.966431 ], [ 3.398834, 43.966681 ], [ 3.390465, 43.969682 ], [ 3.391181, 43.969751 ], [ 3.391898, 43.969819 ], [ 3.391863, 43.970178 ], [ 3.388145, 43.973226 ], [ 3.385608, 43.977646 ], [ 3.385255, 43.977715 ], [ 3.384613, 43.977043 ], [ 3.380531, 43.97385 ], [ 3.379703, 43.973575 ], [ 3.375114, 43.974156 ], [ 3.372959, 43.979694 ], [ 3.37439, 43.985883 ], [ 3.381243, 43.987115 ], [ 3.381639, 43.987372 ], [ 3.382036, 43.987629 ], [ 3.389505, 43.987523 ], [ 3.389864, 43.987502 ], [ 3.389867829787176, 43.987564936169257 ], [ 3.389858, 43.987402 ] ] ], [ [ [ 3.345931, 43.971813 ], [ 3.342138, 43.97015 ], [ 3.341117, 43.969722 ], [ 3.340072, 43.969242 ], [ 3.339732, 43.96936 ], [ 3.339758, 43.969434 ], [ 3.339782, 43.969494 ], [ 3.339904, 43.969637 ], [ 3.34188, 43.972074 ], [ 3.346695, 43.973365 ], [ 3.346881, 43.973466 ], [ 3.351234, 43.976758 ], [ 3.351134, 43.976605 ], [ 3.348917, 43.973803 ], [ 3.349198946646234, 43.970930937985898 ], [ 3.345931, 43.971813 ] ] ], [ [ [ 3.351578, 43.986681 ], [ 3.352205, 43.991284 ], [ 3.352561, 43.99134 ], [ 3.353171, 43.989926 ], [ 3.353268, 43.989652 ], [ 3.355162, 43.986957 ], [ 3.354876, 43.987169 ], [ 3.354611, 43.987335 ], [ 3.354346, 43.9875 ], [ 3.354156, 43.987195 ], [ 3.354409, 43.986008 ], [ 3.352444368581362, 43.978851864404319 ], [ 3.351578, 43.986681 ] ] ], [ [ [ 3.327236, 44.008429 ], [ 3.328143, 44.007952 ], [ 3.328469, 44.007828 ], [ 3.32875, 44.007686 ], [ 3.329445, 44.007401 ], [ 3.329327, 44.007061 ], [ 3.321003, 44.003966 ], [ 3.320748, 44.003712 ], [ 3.315173, 43.998291 ], [ 3.314827, 43.997762 ], [ 3.314628, 43.997548 ], [ 3.314169, 43.997196 ], [ 3.313711, 43.996845 ], [ 3.313492, 43.99713 ], [ 3.311364, 44.001821 ], [ 3.306364, 44.006936 ], [ 3.303289, 44.008437 ], [ 3.302987, 44.008633 ], [ 3.30128400524347, 44.016251119322725 ], [ 3.302431807095621, 44.016498740512617 ], [ 3.302244, 44.016232 ], [ 3.30391, 44.010894 ], [ 3.304145, 44.010621 ], [ 3.310487, 44.004285 ], [ 3.310588, 44.004053 ], [ 3.310769, 44.003926 ], [ 3.310986, 44.003879 ], [ 3.311192, 44.003894 ], [ 3.311801, 44.004032 ], [ 3.312411, 44.00417 ], [ 3.320323, 44.005679 ], [ 3.326862, 44.00824 ], [ 3.326987, 44.008578 ], [ 3.329209, 44.017124 ], [ 3.327236, 44.008429 ] ] ] ] } },
{ "type": "Feature", "properties": { "codgeo": "12231", "value": 1200, "isochrone_group": 20.0, "nb_agences": 1 }, "geometry": { "type": "MultiPolygon", "coordinates": [ [ [ [ 3.31577, 44.022336 ], [ 3.323223, 44.020278 ], [ 3.315222, 44.021043 ], [ 3.312681094878636, 44.02156837855803 ], [ 3.313360532418933, 44.023379317467061 ], [ 3.313552, 44.023313 ], [ 3.313896, 44.023208 ], [ 3.31577, 44.022336 ] ] ], [ [ [ 3.368782751348472, 44.048226256851208 ], [ 3.368841, 44.048049 ], [ 3.368526, 44.047634 ], [ 3.368782751348472, 44.048226256851208 ] ] ], [ [ [ 3.363413, 44.055053 ], [ 3.36322, 44.055357 ], [ 3.358654, 44.060735 ], [ 3.358509, 44.061065 ], [ 3.360871, 44.062913 ], [ 3.36122, 44.062823 ], [ 3.368058, 44.06059 ], [ 3.375261995176965, 44.060092309866207 ], [ 3.369052, 44.059165 ], [ 3.367051, 44.059099 ], [ 3.364586, 44.058214 ], [ 3.364551, 44.057855 ], [ 3.365775, 44.056841 ], [ 3.366034, 44.056591 ], [ 3.368513299649939, 44.049046227071706 ], [ 3.363413, 44.055053 ] ] ], [ [ [ 3.376778, 44.060321 ], [ 3.377072, 44.06039 ], [ 3.377267, 44.060412 ], [ 3.377488, 44.060435 ], [ 3.377714, 44.060427 ], [ 3.378016, 44.060399 ], [ 3.378579, 44.060138 ], [ 3.378817, 44.060049 ], [ 3.386792, 44.060697 ], [ 3.384791, 44.058511 ], [ 3.37676110852147, 44.060315750855281 ], [ 3.376778, 44.060321 ] ] ], [ [ [ 3.385921, 44.066018 ], [ 3.385805, 44.066137 ], [ 3.385707, 44.066312 ], [ 3.385609, 44.066628 ], [ 3.385571, 44.066959 ], [ 3.384951, 44.069659 ], [ 3.385118, 44.069978 ], [ 3.388477, 44.071878 ], [ 3.3888, 44.072069 ], [ 3.389069, 44.072134 ], [ 3.389309, 44.072113 ], [ 3.3895, 44.07203 ], [ 3.389664, 44.071897 ], [ 3.392461, 44.069331 ], [ 3.392709, 44.06907 ], [ 3.400031, 44.064368 ], [ 3.392589, 44.065552 ], [ 3.390504, 44.066747 ], [ 3.39028, 44.066867 ], [ 3.390055, 44.066986 ], [ 3.387605, 44.066501 ], [ 3.387645, 44.066143 ], [ 3.386792, 44.060697 ], [ 3.385921, 44.066018 ] ] ], [ [ [ 3.41217, 44.06937 ], [ 3.412465, 44.069164 ], [ 3.412373, 44.06594 ], [ 3.412179, 44.065442 ], [ 3.411886, 44.065126 ], [ 3.411746, 44.065038 ], [ 3.411573, 44.064934 ], [ 3.411459, 44.0649 ], [ 3.409021, 44.063864 ], [ 3.408824, 44.063796 ], [ 3.408659, 44.063791 ], [ 3.40429, 44.063742 ], [ 3.407423, 44.064532 ], [ 3.407627, 44.064828 ], [ 3.407385, 44.064995 ], [ 3.407143, 44.065162 ], [ 3.406951, 44.065265 ], [ 3.406746, 44.06533 ], [ 3.406574, 44.065382 ], [ 3.40634, 44.065396 ], [ 3.406116, 44.065369 ], [ 3.405923, 44.065344 ], [ 3.41217, 44.06937 ] ] ], [ [ [ 3.446364, 44.061469 ], [ 3.446628, 44.061477 ], [ 3.450382, 44.06222 ], [ 3.45056, 44.062035 ], [ 3.451917, 44.060546 ], [ 3.451801, 44.060205 ], [ 3.451179, 44.060007 ], [ 3.447613, 44.059308 ], [ 3.447404, 44.059371 ], [ 3.44506, 44.059801 ], [ 3.444887, 44.059802 ], [ 3.44095, 44.059178 ], [ 3.442472, 44.050508 ], [ 3.443158, 44.05037 ], [ 3.443247, 44.050021 ], [ 3.438294, 44.045828 ], [ 3.437951, 44.045718 ], [ 3.437163, 44.047093 ], [ 3.437935, 44.045769 ], [ 3.438278, 44.045878 ], [ 3.438824, 44.052164 ], [ 3.441122, 44.0608 ], [ 3.444194, 44.060714 ], [ 3.44442, 44.060994 ], [ 3.444232, 44.061146 ], [ 3.444045, 44.061297 ], [ 3.443516096499224, 44.061580194367458 ], [ 3.446364, 44.061469 ] ] ], [ [ [ 3.428911, 44.037353 ], [ 3.429101, 44.037278 ], [ 3.431298, 44.036833 ], [ 3.43344, 44.034349 ], [ 3.433648, 44.034159 ], [ 3.433871, 44.033891 ], [ 3.433997, 44.033615 ], [ 3.43402, 44.033424 ], [ 3.43567, 44.027977 ], [ 3.436219, 44.026778 ], [ 3.439317, 44.018868 ], [ 3.439372, 44.018634 ], [ 3.439427, 44.018401 ], [ 3.440615, 44.012278 ], [ 3.440412, 44.012041 ], [ 3.440209, 44.011804 ], [ 3.436204, 44.007455 ], [ 3.434665, 44.007081 ], [ 3.434331, 44.007217 ], [ 3.425654, 44.005581 ], [ 3.4258, 44.005841 ], [ 3.425944, 44.006153 ], [ 3.426026, 44.006394 ], [ 3.426105, 44.006628 ], [ 3.434653, 44.009405 ], [ 3.435008, 44.009347 ], [ 3.435751, 44.009908 ], [ 3.435882, 44.010042 ], [ 3.436034, 44.010235 ], [ 3.438332, 44.013598 ], [ 3.438599, 44.014143 ], [ 3.438574, 44.014502 ], [ 3.438408, 44.01449 ], [ 3.432304, 44.016304 ], [ 3.430507, 44.01536 ], [ 3.430126, 44.015232 ], [ 3.42994, 44.015177 ], [ 3.429748, 44.01512 ], [ 3.427101, 44.014873 ], [ 3.426804, 44.014875 ], [ 3.426177, 44.014821 ], [ 3.424765, 44.014811 ], [ 3.424536, 44.014815 ], [ 3.419473, 44.016739 ], [ 3.419287, 44.016913 ], [ 3.418007, 44.018503 ], [ 3.417889, 44.018728 ], [ 3.41776, 44.018971 ], [ 3.417613, 44.019159 ], [ 3.41745, 44.019253 ], [ 3.41729, 44.01929 ], [ 3.41514, 44.020138 ], [ 3.417602, 44.028766 ], [ 3.420262, 44.027918 ], [ 3.420516, 44.027769 ], [ 3.420706, 44.027702 ], [ 3.422175, 44.027032 ], [ 3.42293, 44.026647 ], [ 3.423125, 44.026553 ], [ 3.423347, 44.026447 ], [ 3.423567, 44.026383 ], [ 3.423809, 44.026314 ], [ 3.424849, 44.026057 ], [ 3.425102, 44.02598 ], [ 3.425354, 44.025903 ], [ 3.432715, 44.029401 ], [ 3.432928, 44.029691 ], [ 3.430443, 44.035417 ], [ 3.428667, 44.037404 ], [ 3.428426, 44.03749 ], [ 3.428184, 44.037575 ], [ 3.428911, 44.037353 ] ] ], [ [ [ 3.40893, 43.993034 ], [ 3.408941, 43.992071 ], [ 3.40887, 43.991844 ], [ 3.408636, 43.991673 ], [ 3.408304, 43.991617 ], [ 3.407924, 43.99162 ], [ 3.407619, 43.991671 ], [ 3.407314, 43.991723 ], [ 3.403762629349799, 43.995562252547771 ], [ 3.405511, 43.995234 ], [ 3.408272, 43.993799 ], [ 3.408613, 43.993913 ], [ 3.409636, 43.99693 ], [ 3.40893, 43.993034 ] ] ], [ [ [ 3.390564, 43.984085 ], [ 3.390469, 43.983926 ], [ 3.390143, 43.983532 ], [ 3.38969, 43.98296 ], [ 3.38939, 43.982786 ], [ 3.386523, 43.979695 ], [ 3.387198, 43.981076 ], [ 3.38961, 43.983481 ], [ 3.389616, 43.983747 ], [ 3.38965, 43.985049 ], [ 3.38966, 43.98526 ], [ 3.389759, 43.986327 ], [ 3.389858, 43.987402 ], [ 3.389891, 43.987949 ], [ 3.390564, 43.984085 ] ] ], [ [ [ 3.394297, 43.971869 ], [ 3.395842, 43.971897 ], [ 3.399906, 43.973661 ], [ 3.400224, 43.973493 ], [ 3.407848, 43.971686 ], [ 3.408178, 43.971543 ], [ 3.408264, 43.971027 ], [ 3.408269, 43.970855 ], [ 3.408282, 43.969552 ], [ 3.408276, 43.969414 ], [ 3.408399, 43.963032 ], [ 3.408288, 43.962689 ], [ 3.408005, 43.962781 ], [ 3.407707, 43.962973 ], [ 3.40578, 43.964256 ], [ 3.400663, 43.966172 ], [ 3.394227, 43.96364 ], [ 3.393944, 43.963385 ], [ 3.393657, 43.963127 ], [ 3.393344, 43.962861 ], [ 3.392994, 43.96257 ], [ 3.392807, 43.962479 ], [ 3.392588, 43.962375 ], [ 3.392345, 43.962308 ], [ 3.392102, 43.96224 ], [ 3.392006, 43.962587 ], [ 3.389244, 43.969958 ], [ 3.389411, 43.969875 ], [ 3.389615, 43.969778 ], [ 3.389878, 43.969713 ], [ 3.390184, 43.969678 ], [ 3.390465, 43.969682 ], [ 3.398834, 43.966681 ], [ 3.402643, 43.966431 ], [ 3.402682, 43.966789 ], [ 3.400762, 43.967844 ], [ 3.396634, 43.969428 ], [ 3.393516, 43.971871 ], [ 3.392806, 43.97196 ], [ 3.392136, 43.972054 ], [ 3.394297, 43.971869 ] ] ], [ [ [ 3.342109, 43.970123 ], [ 3.341888, 43.969961 ], [ 3.341647, 43.969785 ], [ 3.341395, 43.969648 ], [ 3.341129, 43.969504 ], [ 3.339779, 43.968798 ], [ 3.339635, 43.968713 ], [ 3.338223648442964, 43.967757292012038 ], [ 3.337485848609293, 43.968980872908851 ], [ 3.338234, 43.969309 ], [ 3.341714, 43.971973 ], [ 3.341821123594096, 43.972001387752435 ], [ 3.339904, 43.969637 ], [ 3.339782, 43.969494 ], [ 3.339758, 43.969434 ], [ 3.339732, 43.96936 ], [ 3.340072, 43.969242 ], [ 3.341117, 43.969722 ], [ 3.342138, 43.97015 ], [ 3.345931, 43.971813 ], [ 3.342109, 43.970123 ] ] ], [ [ [ 3.345088, 43.972939 ], [ 3.346179, 43.973364 ], [ 3.34651, 43.973518 ], [ 3.349402567459608, 43.97537296073444 ], [ 3.346881, 43.973466 ], [ 3.346695, 43.973365 ], [ 3.345033749361067, 43.972919584719662 ], [ 3.345088, 43.972939 ] ] ], [ [ [ 3.350114, 43.981841 ], [ 3.348538, 43.986238 ], [ 3.34849, 43.986595 ], [ 3.348613, 43.991678 ], [ 3.348895, 43.991898 ], [ 3.351636, 43.994671 ], [ 3.351698, 43.994719 ], [ 3.35192, 43.994436 ], [ 3.352608, 43.993137 ], [ 3.35274, 43.992932 ], [ 3.352819, 43.992777 ], [ 3.35289, 43.992534 ], [ 3.353268, 43.989652 ], [ 3.353171, 43.989926 ], [ 3.352561, 43.99134 ], [ 3.352205, 43.991284 ], [ 3.351578, 43.986681 ], [ 3.352531, 43.978069 ], [ 3.352121, 43.977674 ], [ 3.351704, 43.977271 ], [ 3.351477, 43.977025 ], [ 3.351234, 43.976758 ], [ 3.351024835920029, 43.97659981756231 ], [ 3.350114, 43.981841 ] ] ], [ [ [ 3.32392, 44.002875 ], [ 3.323277, 44.003051 ], [ 3.315939608795198, 43.999036432516348 ], [ 3.320748, 44.003712 ], [ 3.321003, 44.003966 ], [ 3.329327, 44.007061 ], [ 3.32392, 44.002875 ] ] ], [ [ [ 3.313172, 43.993015 ], [ 3.313089, 43.992817 ], [ 3.312931, 43.992637 ], [ 3.309972, 43.989965 ], [ 3.309638, 43.990099 ], [ 3.310076, 43.991609 ], [ 3.310186, 43.991863 ], [ 3.312463, 43.995313 ], [ 3.307109, 44.001829 ], [ 3.301846, 44.007169 ], [ 3.301718, 44.007306 ], [ 3.301869, 44.007679 ], [ 3.301998, 44.007879 ], [ 3.302225, 44.008109 ], [ 3.301684049687638, 44.012537743350507 ], [ 3.302180589543382, 44.01224036934628 ], [ 3.302987, 44.008633 ], [ 3.303289, 44.008437 ], [ 3.306364, 44.006936 ], [ 3.311364, 44.001821 ], [ 3.313492, 43.99713 ], [ 3.313711, 43.996845 ], [ 3.314169, 43.997196 ], [ 3.314628, 43.997548 ], [ 3.314827, 43.997762 ], [ 3.313172, 43.993015 ] ] ] ] } }
]
}
