{
"type": "FeatureCollection",
"name": "La_Banque_Postale",
"crs": { "type": "name", "properties": { "name": "urn:ogc:def:crs:OGC:1.3:CRS84" } },
"features": [
{ "type": "Feature", "properties": { "codgeo": "31557", "value": 60, "isochrone_group": 1.0, "nb_agences": 1 }, "geometry": { "type": "Polygon", "coordinates": [ [ [ 1.344291, 43.582905 ], [ 1.344471, 43.582593 ], [ 1.344982, 43.58257 ], [ 1.347393, 43.582846 ], [ 1.347566, 43.583162 ], [ 1.347823, 43.583708 ], [ 1.347976, 43.584513 ], [ 1.347819, 43.584837 ], [ 1.347185, 43.584792 ], [ 1.343989, 43.584641 ], [ 1.34396, 43.584629 ], [ 1.343845, 43.584446 ], [ 1.344291, 43.582905 ] ] ] } },
{ "type": "Feature", "properties": { "codgeo": "31557", "value": 120, "isochrone_group": 2.0, "nb_agences": 1 }, "geometry": { "type": "Polygon", "coordinates": [ [ [ 1.339087, 43.582742 ], [ 1.340746, 43.58651 ], [ 1.340777, 43.586538 ], [ 1.340883, 43.586559 ], [ 1.346381, 43.586348 ], [ 1.348284, 43.586868 ], [ 1.350585, 43.585789 ], [ 1.350674, 43.585441 ], [ 1.350638, 43.581443 ], [ 1.350316, 43.581281 ], [ 1.346198, 43.581178 ], [ 1.344033, 43.580888 ], [ 1.342259, 43.581103 ], [ 1.339223, 43.582408 ], [ 1.339087, 43.582742 ] ], [ [ 1.344471, 43.582593 ], [ 1.344982, 43.58257 ], [ 1.347393, 43.582846 ], [ 1.347566, 43.583162 ], [ 1.347823, 43.583708 ], [ 1.347976, 43.584513 ], [ 1.347819, 43.584837 ], [ 1.347185, 43.584792 ], [ 1.343989, 43.584641 ], [ 1.34396, 43.584629 ], [ 1.343845, 43.584446 ], [ 1.344291, 43.582905 ], [ 1.344471, 43.582593 ] ] ] } },
{ "type": "Feature", "properties": { "codgeo": "31557", "value": 180, "isochrone_group": 3.0, "nb_agences": 1 }, "geometry": { "type": "Polygon", "coordinates": [ [ [ 1.331742, 43.5798 ], [ 1.335635, 43.583906 ], [ 1.338004, 43.588216 ], [ 1.338061, 43.58827 ], [ 1.338124, 43.588319 ], [ 1.346853, 43.590074 ], [ 1.353089, 43.588556 ], [ 1.355367, 43.58805 ], [ 1.355469, 43.587893 ], [ 1.355486, 43.587834 ], [ 1.352689, 43.580699 ], [ 1.352602, 43.578724 ], [ 1.351938, 43.578335 ], [ 1.351743, 43.578294 ], [ 1.343005, 43.579063 ], [ 1.334658, 43.579967 ], [ 1.331876, 43.579466 ], [ 1.33179, 43.579575 ], [ 1.331742, 43.5798 ] ], [ [ 1.342259, 43.581103 ], [ 1.344033, 43.580888 ], [ 1.346198, 43.581178 ], [ 1.350316, 43.581281 ], [ 1.350638, 43.581443 ], [ 1.350674, 43.585441 ], [ 1.350585, 43.585789 ], [ 1.348284, 43.586868 ], [ 1.346381, 43.586348 ], [ 1.340883, 43.586559 ], [ 1.340777, 43.586538 ], [ 1.340746, 43.58651 ], [ 1.339087, 43.582742 ], [ 1.339223, 43.582408 ], [ 1.342259, 43.581103 ] ] ] } },
{ "type": "Feature", "properties": { "codgeo": "31557", "value": 240, "isochrone_group": 4.0, "nb_agences": 1 }, "geometry": { "type": "Polygon", "coordinates": [ [ [ 1.326711, 43.578051 ], [ 1.326914, 43.578348 ], [ 1.332766, 43.584634 ], [ 1.336645, 43.589764 ], [ 1.337547, 43.590136 ], [ 1.340581, 43.590879 ], [ 1.347451, 43.5934 ], [ 1.347632, 43.593364 ], [ 1.347882, 43.593304 ], [ 1.354204, 43.590317 ], [ 1.35942, 43.589784 ], [ 1.360641, 43.588819 ], [ 1.360808, 43.588475 ], [ 1.361218, 43.587616 ], [ 1.360898, 43.587449 ], [ 1.356281, 43.584914 ], [ 1.355857, 43.578921 ], [ 1.355841, 43.578561 ], [ 1.353896, 43.57781 ], [ 1.348703, 43.576178 ], [ 1.347694, 43.575967 ], [ 1.347564, 43.575949 ], [ 1.342017, 43.577749 ], [ 1.336451, 43.578394 ], [ 1.329986, 43.577156 ], [ 1.327222, 43.577662 ], [ 1.326711, 43.578051 ] ], [ [ 1.331876, 43.579466 ], [ 1.334658, 43.579967 ], [ 1.343005, 43.579063 ], [ 1.351743, 43.578294 ], [ 1.351938, 43.578335 ], [ 1.352602, 43.578724 ], [ 1.352689, 43.580699 ], [ 1.355486, 43.587834 ], [ 1.355469, 43.587893 ], [ 1.355367, 43.58805 ], [ 1.353089, 43.588556 ], [ 1.346853, 43.590074 ], [ 1.338124, 43.588319 ], [ 1.338061, 43.58827 ], [ 1.338004, 43.588216 ], [ 1.335635, 43.583906 ], [ 1.331742, 43.5798 ], [ 1.33179, 43.579575 ], [ 1.331876, 43.579466 ] ] ] } },
{ "type": "Feature", "properties": { "codgeo": "31557", "value": 300, "isochrone_group": 5.0, "nb_agences": 1 }, "geometry": { "type": "Polygon", "coordinates": [ [ [ 1.370015, 43.57765 ], [ 1.367226, 43.575375 ], [ 1.361066, 43.575719 ], [ 1.35617, 43.576938 ], [ 1.35436, 43.576961 ], [ 1.347857, 43.573357 ], [ 1.347701, 43.573286 ], [ 1.341712, 43.571214 ], [ 1.340724, 43.571651 ], [ 1.332775, 43.574501 ], [ 1.329271, 43.573681 ], [ 1.329232, 43.573666 ], [ 1.328964, 43.573585 ], [ 1.328922, 43.573576 ], [ 1.321136, 43.573451 ], [ 1.319339, 43.574177 ], [ 1.319259, 43.574288 ], [ 1.320124, 43.576906 ], [ 1.322384, 43.579254 ], [ 1.327495, 43.583867 ], [ 1.328991, 43.585681 ], [ 1.332009, 43.589211 ], [ 1.335923, 43.594384 ], [ 1.336111, 43.594399 ], [ 1.337689, 43.594268 ], [ 1.345743, 43.597875 ], [ 1.350729, 43.598716 ], [ 1.351239, 43.598587 ], [ 1.351422, 43.598499 ], [ 1.351464, 43.598463 ], [ 1.358676, 43.594571 ], [ 1.3618, 43.59751 ], [ 1.362937265252509, 43.596930196854423 ], [ 1.362536, 43.5958 ], [ 1.362856, 43.595634 ], [ 1.364645559330827, 43.596059270500163 ], [ 1.365007, 43.595875 ], [ 1.365388643080738, 43.592365235693912 ], [ 1.363878, 43.591737 ], [ 1.362401, 43.591796 ], [ 1.36115, 43.589203 ], [ 1.361132, 43.588844 ], [ 1.36497, 43.580716 ], [ 1.367692740316759, 43.580237800424726 ], [ 1.369417, 43.578384 ], [ 1.370015, 43.57765 ] ], [ [ 1.329986, 43.577156 ], [ 1.336451, 43.578394 ], [ 1.342017, 43.577749 ], [ 1.347564, 43.575949 ], [ 1.347694, 43.575967 ], [ 1.348703, 43.576178 ], [ 1.353896, 43.57781 ], [ 1.355841, 43.578561 ], [ 1.355857, 43.578921 ], [ 1.356281, 43.584914 ], [ 1.360898, 43.587449 ], [ 1.361218, 43.587616 ], [ 1.360808, 43.588475 ], [ 1.360641, 43.588819 ], [ 1.35942, 43.589784 ], [ 1.354204, 43.590317 ], [ 1.347882, 43.593304 ], [ 1.347632, 43.593364 ], [ 1.347451, 43.5934 ], [ 1.340581, 43.590879 ], [ 1.337547, 43.590136 ], [ 1.336645, 43.589764 ], [ 1.332766, 43.584634 ], [ 1.326914, 43.578348 ], [ 1.326711, 43.578051 ], [ 1.327222, 43.577662 ], [ 1.329986, 43.577156 ] ] ] } },
{ "type": "Feature", "properties": { "codgeo": "31557", "value": 360, "isochrone_group": 6.0, "nb_agences": 1 }, "geometry": { "type": "MultiPolygon", "coordinates": [ [ [ [ 1.325181, 43.586621 ], [ 1.329699, 43.591625 ], [ 1.331433, 43.59367 ], [ 1.33643, 43.595713 ], [ 1.340818, 43.599409 ], [ 1.346022, 43.600166 ], [ 1.354635, 43.602488 ], [ 1.354672, 43.602499 ], [ 1.355074, 43.60256 ], [ 1.360789098987258, 43.600348538950996 ], [ 1.360759, 43.600186 ], [ 1.35826, 43.599646 ], [ 1.358117, 43.599316 ], [ 1.35917220146876, 43.595526826874647 ], [ 1.358464819725091, 43.594684964729609 ], [ 1.351464, 43.598463 ], [ 1.351422, 43.598499 ], [ 1.351239, 43.598587 ], [ 1.350729, 43.598716 ], [ 1.345743, 43.597875 ], [ 1.337689, 43.594268 ], [ 1.336111, 43.594399 ], [ 1.335923, 43.594384 ], [ 1.332009, 43.589211 ], [ 1.328991, 43.585681 ], [ 1.327495, 43.583867 ], [ 1.322384, 43.579254 ], [ 1.320124, 43.576906 ], [ 1.320046303989111, 43.576670846061845 ], [ 1.319972, 43.576669 ], [ 1.319027, 43.576441 ], [ 1.316112, 43.575276 ], [ 1.314682620600765, 43.574702618737611 ], [ 1.318346, 43.578355 ], [ 1.323664, 43.584472 ], [ 1.325181, 43.586621 ] ] ], [ [ [ 1.369067, 43.576221 ], [ 1.369167, 43.57621 ], [ 1.369803, 43.576248 ], [ 1.370958067342598, 43.576404243543209 ], [ 1.371742, 43.575359 ], [ 1.372167232071385, 43.574764805414439 ], [ 1.372395, 43.57158 ], [ 1.37394, 43.56975 ], [ 1.374177, 43.569479 ], [ 1.375285278310609, 43.569063515300783 ], [ 1.374919, 43.567866 ], [ 1.374383, 43.56759 ], [ 1.374129, 43.567508 ], [ 1.372746, 43.567708 ], [ 1.372648, 43.56782 ], [ 1.371892, 43.568891 ], [ 1.364537, 43.573729 ], [ 1.363973, 43.573872 ], [ 1.357117, 43.574726 ], [ 1.354398, 43.576423 ], [ 1.351334973679414, 43.575284513015617 ], [ 1.35436, 43.576961 ], [ 1.35617, 43.576938 ], [ 1.361066, 43.575719 ], [ 1.367226, 43.575375 ], [ 1.36849052127636, 43.576406475763257 ], [ 1.369067, 43.576221 ] ] ], [ [ [ 1.34463, 43.57121 ], [ 1.344044, 43.570322 ], [ 1.343594, 43.570036 ], [ 1.342738, 43.569656 ], [ 1.334986, 43.568065 ], [ 1.329663, 43.571905 ], [ 1.327912, 43.572547 ], [ 1.320142883730417, 43.572566099911235 ], [ 1.320214, 43.573074 ], [ 1.320196976910391, 43.573830371598824 ], [ 1.321136, 43.573451 ], [ 1.328922, 43.573576 ], [ 1.328964, 43.573585 ], [ 1.329232, 43.573666 ], [ 1.329271, 43.573681 ], [ 1.332775, 43.574501 ], [ 1.340724, 43.571651 ], [ 1.341712, 43.571214 ], [ 1.345754394595157, 43.572612537585769 ], [ 1.34463, 43.57121 ] ] ] ] } },
{ "type": "Feature", "properties": { "codgeo": "31557", "value": 420, "isochrone_group": 7.0, "nb_agences": 1 }, "geometry": { "type": "MultiPolygon", "coordinates": [ [ [ [ 1.375359790950082, 43.566386931132584 ], [ 1.376223, 43.565964 ], [ 1.376235456759509, 43.565957792681473 ], [ 1.376727859904702, 43.565526820876435 ], [ 1.376471, 43.56563 ], [ 1.375359790950082, 43.566386931132584 ] ] ], [ [ [ 1.367219, 43.571286 ], [ 1.36673, 43.571633 ], [ 1.363618237718343, 43.573916190050838 ], [ 1.363973, 43.573872 ], [ 1.364537, 43.573729 ], [ 1.371073235886348, 43.569429569786806 ], [ 1.371408407457831, 43.568939626834229 ], [ 1.367279, 43.571257 ], [ 1.367219, 43.571286 ] ] ], [ [ [ 1.337061, 43.568319 ], [ 1.33416, 43.566188 ], [ 1.329406, 43.566114 ], [ 1.327816, 43.566941 ], [ 1.327776, 43.567002 ], [ 1.325352723454333, 43.568501626187448 ], [ 1.326009598515521, 43.572551676941146 ], [ 1.327912, 43.572547 ], [ 1.329663, 43.571905 ], [ 1.334986, 43.568065 ], [ 1.337520271112247, 43.568585127107795 ], [ 1.337061, 43.568319 ] ] ], [ [ [ 1.313305, 43.57415 ], [ 1.31055, 43.571673 ], [ 1.309671552475651, 43.571463343857531 ], [ 1.309241, 43.572333 ], [ 1.309397, 43.57246 ], [ 1.315135, 43.577355 ], [ 1.316106, 43.579589 ], [ 1.316326, 43.579766 ], [ 1.321213, 43.58598 ], [ 1.321622, 43.588654 ], [ 1.327962, 43.593054 ], [ 1.331248002984576, 43.59345182301238 ], [ 1.329699, 43.591625 ], [ 1.325181, 43.586621 ], [ 1.323664, 43.584472 ], [ 1.318346, 43.578355 ], [ 1.314682620600765, 43.574702618737611 ], [ 1.313305, 43.57415 ] ] ], [ [ [ 1.337208, 43.599076 ], [ 1.337725, 43.600454 ], [ 1.33777, 43.600592 ], [ 1.337852254957643, 43.600679582351276 ], [ 1.341005, 43.600585 ], [ 1.346838, 43.60187 ], [ 1.348330634681371, 43.602300229996402 ], [ 1.34995513912604, 43.601226344717361 ], [ 1.346022, 43.600166 ], [ 1.340818, 43.599409 ], [ 1.33643, 43.595713 ], [ 1.332944528660048, 43.594287981399347 ], [ 1.337208, 43.599076 ] ] ] ] } },
{ "type": "Feature", "properties": { "codgeo": "31557", "value": 480, "isochrone_group": 8.0, "nb_agences": 1 }, "geometry": { "type": "MultiPolygon", "coordinates": [ [ [ [ 1.37168, 43.560357 ], [ 1.371478, 43.560215 ], [ 1.370555, 43.560884 ], [ 1.369399, 43.563153 ], [ 1.367435, 43.568793 ], [ 1.365098, 43.571532 ], [ 1.362596953617455, 43.574271174963506 ], [ 1.363818272682325, 43.573769418608101 ], [ 1.36673, 43.571633 ], [ 1.367219, 43.571286 ], [ 1.367279, 43.571257 ], [ 1.369510349854284, 43.570004793641452 ], [ 1.370787, 43.564262 ], [ 1.371117, 43.561362 ], [ 1.37112, 43.56136 ], [ 1.373148464448194, 43.561561856949965 ], [ 1.37255, 43.561038 ], [ 1.37168, 43.560357 ] ] ], [ [ [ 1.341486, 43.56364 ], [ 1.341518, 43.563566 ], [ 1.341452, 43.562869 ], [ 1.341416, 43.561932 ], [ 1.341336, 43.561797 ], [ 1.340062, 43.561239 ], [ 1.339501, 43.561068 ], [ 1.339262, 43.561153 ], [ 1.335778, 43.563068 ], [ 1.330427, 43.564199 ], [ 1.328895, 43.564265 ], [ 1.3291, 43.564368 ], [ 1.330156, 43.56502 ], [ 1.33189282116998, 43.566152709458677 ], [ 1.33416, 43.566188 ], [ 1.337061, 43.568319 ], [ 1.342863, 43.571681 ], [ 1.342910269325015, 43.571704591007787 ], [ 1.341486, 43.56364 ] ] ], [ [ [ 1.316882033740774, 43.584041532545371 ], [ 1.318143, 43.589354 ], [ 1.318136, 43.589458 ], [ 1.318212, 43.590002 ], [ 1.319765, 43.591241 ], [ 1.325794, 43.594479 ], [ 1.326191, 43.594626 ], [ 1.32685, 43.594576 ], [ 1.334859, 43.597641 ], [ 1.335821133211565, 43.599603435396141 ], [ 1.336504, 43.599836 ], [ 1.337456106478444, 43.59973729734488 ], [ 1.337208, 43.599076 ], [ 1.332315, 43.593581 ], [ 1.327962, 43.593054 ], [ 1.321622, 43.588654 ], [ 1.321213, 43.58598 ], [ 1.318322024635654, 43.582304018638432 ], [ 1.316882033740774, 43.584041532545371 ] ] ], [ [ [ 1.349512768904482, 43.574821562016787 ], [ 1.346437, 43.573464 ], [ 1.349512768904476, 43.574821562016787 ], [ 1.349512768904482, 43.574821562016787 ] ] ], [ [ [ 1.374544207158369, 43.613045188425893 ], [ 1.370472, 43.611339 ], [ 1.368966, 43.611045 ], [ 1.367629340210922, 43.610940748960779 ], [ 1.372479, 43.612932 ], [ 1.372588, 43.612945 ], [ 1.374544207158369, 43.613045188425893 ] ] ] ] } },
{ "type": "Feature", "properties": { "codgeo": "31557", "value": 540, "isochrone_group": 9.0, "nb_agences": 1 }, "geometry": { "type": "MultiPolygon", "coordinates": [ [ [ [ 1.370825172611382, 43.558125381559854 ], [ 1.372404543909138, 43.559335871239497 ], [ 1.372884229275446, 43.559100441733761 ], [ 1.371515, 43.558429 ], [ 1.370825172611382, 43.558125381559854 ] ] ], [ [ [ 1.366960459232004, 43.556449681037364 ], [ 1.366992885905637, 43.556502147395321 ], [ 1.367458, 43.557054 ], [ 1.367192370180037, 43.557395592736789 ], [ 1.370638, 43.558043 ], [ 1.368504, 43.557068 ], [ 1.366960459232004, 43.556449681037364 ] ] ], [ [ [ 1.362932, 43.55992 ], [ 1.362992, 43.560072 ], [ 1.363908, 43.566531 ], [ 1.362193, 43.569697 ], [ 1.360198466268429, 43.57434982427106 ], [ 1.362544, 43.574301 ], [ 1.362579434365227, 43.57429036225146 ], [ 1.365098, 43.571532 ], [ 1.367435, 43.568793 ], [ 1.368289825011486, 43.566338207197148 ], [ 1.366066, 43.56074 ], [ 1.364994382808324, 43.55980117419341 ], [ 1.36303911863014, 43.55907011372571 ], [ 1.362932, 43.55992 ] ] ], [ [ [ 1.347794, 43.562552 ], [ 1.348126, 43.562551 ], [ 1.349466, 43.5601 ], [ 1.349426, 43.559997 ], [ 1.348115, 43.558951 ], [ 1.347255, 43.558866 ], [ 1.346418, 43.558778 ], [ 1.341616, 43.558758 ], [ 1.336765, 43.557914 ], [ 1.335581, 43.559271 ], [ 1.334329, 43.560565 ], [ 1.331427, 43.562884 ], [ 1.329780071689051, 43.563530119180726 ], [ 1.330534085875016, 43.564176366076509 ], [ 1.335778, 43.563068 ], [ 1.339262, 43.561153 ], [ 1.339501, 43.561068 ], [ 1.340062, 43.561239 ], [ 1.341336, 43.561797 ], [ 1.341416, 43.561932 ], [ 1.341452, 43.562869 ], [ 1.341518, 43.563566 ], [ 1.341486, 43.56364 ], [ 1.342925, 43.571788 ], [ 1.344032612792998, 43.572308933956357 ], [ 1.344034, 43.572306 ], [ 1.345448787976741, 43.572741638526558 ], [ 1.342647, 43.56603 ], [ 1.347794, 43.562552 ] ] ], [ [ [ 1.314801, 43.588632 ], [ 1.312899, 43.587523 ], [ 1.31054603341173, 43.586838214275375 ], [ 1.310573, 43.587126 ], [ 1.317513, 43.592329 ], [ 1.317664, 43.592392 ], [ 1.321307521670229, 43.594101306462569 ], [ 1.322657, 43.594448 ], [ 1.329577, 43.596203 ], [ 1.331299, 43.596691 ], [ 1.333815220021625, 43.597241551175713 ], [ 1.32685, 43.594576 ], [ 1.326191, 43.594626 ], [ 1.325794, 43.594479 ], [ 1.319765, 43.591241 ], [ 1.318212, 43.590002 ], [ 1.318136, 43.589458 ], [ 1.318143, 43.589354 ], [ 1.317974296660362, 43.588643250608612 ], [ 1.314801, 43.588632 ] ] ], [ [ [ 1.366195886147349, 43.611057229810278 ], [ 1.365987179790418, 43.610995047433804 ], [ 1.365466463320001, 43.611025161157393 ], [ 1.366195886147349, 43.611057229810278 ] ] ] ] } },
{ "type": "Feature", "properties": { "codgeo": "31557", "value": 600, "isochrone_group": 10.0, "nb_agences": 1 }, "geometry": { "type": "MultiPolygon", "coordinates": [ [ [ [ 1.371546929993492, 43.553270090284741 ], [ 1.371753004297421, 43.553057276019899 ], [ 1.371164065930062, 43.553096994175007 ], [ 1.371546929993492, 43.553270090284741 ] ] ], [ [ [ 1.352404, 43.558483 ], [ 1.347156, 43.55776 ], [ 1.341984, 43.557869 ], [ 1.340332255004009, 43.557023250907584 ], [ 1.337349330184663, 43.558015664538416 ], [ 1.341616, 43.558758 ], [ 1.346418, 43.558778 ], [ 1.347255, 43.558866 ], [ 1.348115, 43.558951 ], [ 1.349426, 43.559997 ], [ 1.349466, 43.5601 ], [ 1.348126, 43.562551 ], [ 1.347794, 43.562552 ], [ 1.342647, 43.56603 ], [ 1.345004314319913, 43.571676908952448 ], [ 1.345986992674206, 43.572902673761845 ], [ 1.346272160826742, 43.572999879075923 ], [ 1.346447, 43.573058 ], [ 1.348612, 43.5736 ], [ 1.351794611502202, 43.575044869229487 ], [ 1.354693, 43.574513 ], [ 1.355188, 43.574364 ], [ 1.355619, 43.574287 ], [ 1.356033, 43.57429 ], [ 1.356587, 43.574425 ], [ 1.3603404933778, 43.574018505140607 ], [ 1.362193, 43.569697 ], [ 1.363908, 43.566531 ], [ 1.363532287896532, 43.56388173747132 ], [ 1.359339, 43.562205 ], [ 1.359045, 43.562246 ], [ 1.35855, 43.55868 ], [ 1.358656250241118, 43.558523075116995 ], [ 1.357959063878574, 43.556759762256483 ], [ 1.352404, 43.558483 ] ] ], [ [ [ 1.336084446813474, 43.558436488922197 ], [ 1.335590158424685, 43.558608635055073 ], [ 1.333836, 43.560102 ], [ 1.330261994039448, 43.558066198814743 ], [ 1.328992993538722, 43.560551891469082 ], [ 1.332662554318987, 43.56189666351974 ], [ 1.334329, 43.560565 ], [ 1.335581, 43.559271 ], [ 1.336401016663917, 43.558331166712044 ], [ 1.336084446813474, 43.558436488922197 ] ] ], [ [ [ 1.314342217988803, 43.591107706410909 ], [ 1.31845, 43.593819 ], [ 1.31861503750326, 43.594043054494286 ], [ 1.31942, 43.59407 ], [ 1.319851, 43.593867 ], [ 1.320401, 43.593714 ], [ 1.320466637245394, 43.593706817473148 ], [ 1.317664, 43.592392 ], [ 1.317513, 43.592329 ], [ 1.315559735078526, 43.59086461420943 ], [ 1.314342217988803, 43.591107706410909 ] ] ], [ [ [ 1.357261, 43.614066 ], [ 1.357159542994678, 43.614126339548953 ], [ 1.357195, 43.614127 ], [ 1.357261, 43.614066 ] ] ], [ [ [ 1.374417685233724, 43.612992177801665 ], [ 1.373226064602834, 43.612492908179703 ], [ 1.369459, 43.612119 ], [ 1.369364, 43.612123 ], [ 1.368245902024247, 43.611911567765098 ], [ 1.369428, 43.612357 ], [ 1.37377, 43.614287 ], [ 1.375948, 43.614351 ], [ 1.377094065238777, 43.61438051510477 ], [ 1.374417685233724, 43.612992177801665 ] ] ] ] } },
{ "type": "Feature", "properties": { "codgeo": "31557", "value": 660, "isochrone_group": 11.0, "nb_agences": 1 }, "geometry": { "type": "Polygon", "coordinates": [ [ [ 1.315794146234563, 43.592810949265932 ], [ 1.318175618798482, 43.593637897889266 ], [ 1.316755391405536, 43.592700493369023 ], [ 1.315794146234563, 43.592810949265932 ] ] ] } }
]
}
