{
"type": "FeatureCollection",
"name": "Others",
"crs": { "type": "name", "properties": { "name": "urn:ogc:def:crs:OGC:1.3:CRS84" } },
"features": [
{ "type": "Feature", "properties": { "codgeo": "31557", "value": 60, "isochrone_group": 1.0, "nb_agences": 1 }, "geometry": { "type": "Polygon", "coordinates": [ [ [ 1.342478, 43.581378 ], [ 1.342491, 43.58137 ], [ 1.342653, 43.581372 ], [ 1.345277, 43.582391 ], [ 1.345463, 43.582699 ], [ 1.34527, 43.583045 ], [ 1.345081, 43.583351 ], [ 1.343315, 43.583435 ], [ 1.342421, 43.583408 ], [ 1.342314, 43.58332 ], [ 1.342313, 43.583319 ], [ 1.342206, 43.58323 ], [ 1.342478, 43.581378 ] ] ] } },
{ "type": "Feature", "properties": { "codgeo": "31557", "value": 120, "isochrone_group": 2.0, "nb_agences": 1 }, "geometry": { "type": "Polygon", "coordinates": [ [ [ 1.340106, 43.581696 ], [ 1.34359, 43.584613 ], [ 1.343774, 43.584739 ], [ 1.344283, 43.584778 ], [ 1.347224, 43.584549 ], [ 1.347563, 43.583912 ], [ 1.347394, 43.583262 ], [ 1.346776, 43.581272 ], [ 1.342075, 43.580054 ], [ 1.340461, 43.581052 ], [ 1.340209, 43.58135 ], [ 1.340106, 43.581696 ] ], [ [ 1.342491, 43.58137 ], [ 1.342653, 43.581372 ], [ 1.345277, 43.582391 ], [ 1.345463, 43.582699 ], [ 1.34527, 43.583045 ], [ 1.345081, 43.583351 ], [ 1.343315, 43.583435 ], [ 1.342421, 43.583408 ], [ 1.342314, 43.58332 ], [ 1.342313, 43.583319 ], [ 1.342206, 43.58323 ], [ 1.342478, 43.581378 ], [ 1.342491, 43.58137 ] ] ] } },
{ "type": "Feature", "properties": { "codgeo": "31557", "value": 180, "isochrone_group": 3.0, "nb_agences": 1 }, "geometry": { "type": "Polygon", "coordinates": [ [ [ 1.337186, 43.580972 ], [ 1.33777, 43.582214 ], [ 1.340314, 43.586413 ], [ 1.340501, 43.586721 ], [ 1.341181, 43.586896 ], [ 1.348374, 43.586913 ], [ 1.350223, 43.585697 ], [ 1.350312, 43.585348 ], [ 1.350565, 43.581587 ], [ 1.350244, 43.581425 ], [ 1.343195, 43.578928 ], [ 1.337264, 43.58062 ], [ 1.337196, 43.580736 ], [ 1.337171, 43.580789 ], [ 1.337186, 43.580972 ] ], [ [ 1.340461, 43.581052 ], [ 1.342075, 43.580054 ], [ 1.346776, 43.581272 ], [ 1.347394, 43.583262 ], [ 1.347563, 43.583912 ], [ 1.347224, 43.584549 ], [ 1.344283, 43.584778 ], [ 1.343774, 43.584739 ], [ 1.34359, 43.584613 ], [ 1.340106, 43.581696 ], [ 1.340209, 43.58135 ], [ 1.340461, 43.581052 ] ] ] } },
{ "type": "Feature", "properties": { "codgeo": "31557", "value": 240, "isochrone_group": 4.0, "nb_agences": 1 }, "geometry": { "type": "Polygon", "coordinates": [ [ [ 1.330064, 43.579126 ], [ 1.334637, 43.58427 ], [ 1.337684, 43.588447 ], [ 1.33895, 43.588928 ], [ 1.346868, 43.590102 ], [ 1.353078, 43.588584 ], [ 1.355393, 43.588045 ], [ 1.355469, 43.587893 ], [ 1.355489, 43.587822 ], [ 1.352573, 43.580842 ], [ 1.352578, 43.578939 ], [ 1.352013, 43.578403 ], [ 1.352001, 43.578394 ], [ 1.344011, 43.578815 ], [ 1.342471, 43.578021 ], [ 1.341743, 43.577564 ], [ 1.341424, 43.577411 ], [ 1.336801, 43.579154 ], [ 1.330199, 43.578792 ], [ 1.330064, 43.579126 ] ], [ [ 1.337196, 43.580736 ], [ 1.337264, 43.58062 ], [ 1.343195, 43.578928 ], [ 1.350244, 43.581425 ], [ 1.350565, 43.581587 ], [ 1.350312, 43.585348 ], [ 1.350223, 43.585697 ], [ 1.348374, 43.586913 ], [ 1.341181, 43.586896 ], [ 1.340501, 43.586721 ], [ 1.340314, 43.586413 ], [ 1.33777, 43.582214 ], [ 1.337186, 43.580972 ], [ 1.337171, 43.580789 ], [ 1.337196, 43.580736 ] ] ] } },
{ "type": "Feature", "properties": { "codgeo": "31557", "value": 300, "isochrone_group": 5.0, "nb_agences": 1 }, "geometry": { "type": "Polygon", "coordinates": [ [ [ 1.326044, 43.57856 ], [ 1.326264, 43.578845 ], [ 1.332414, 43.58502 ], [ 1.335116, 43.58847 ], [ 1.336146, 43.589873 ], [ 1.33714, 43.590385 ], [ 1.339782, 43.591387 ], [ 1.34728, 43.593407 ], [ 1.347347, 43.593416 ], [ 1.34763, 43.593382 ], [ 1.347914, 43.593305 ], [ 1.354214, 43.590323 ], [ 1.359463, 43.589824 ], [ 1.360722, 43.588828 ], [ 1.361235, 43.587583 ], [ 1.360915, 43.587416 ], [ 1.356382, 43.585031 ], [ 1.355525, 43.578935 ], [ 1.35551, 43.578575 ], [ 1.35366, 43.577748 ], [ 1.348703, 43.576178 ], [ 1.347695, 43.575921 ], [ 1.347647, 43.575913 ], [ 1.340978, 43.577076 ], [ 1.337152, 43.577553 ], [ 1.330681, 43.576558 ], [ 1.326114, 43.577173 ], [ 1.326091, 43.577212 ], [ 1.325977, 43.577506 ], [ 1.326044, 43.57856 ] ], [ [ 1.336801, 43.579154 ], [ 1.341424, 43.577411 ], [ 1.341743, 43.577564 ], [ 1.342471, 43.578021 ], [ 1.344011, 43.578815 ], [ 1.352001, 43.578394 ], [ 1.352013, 43.578403 ], [ 1.352578, 43.578939 ], [ 1.352573, 43.580842 ], [ 1.355489, 43.587822 ], [ 1.355469, 43.587893 ], [ 1.355393, 43.588045 ], [ 1.353078, 43.588584 ], [ 1.346868, 43.590102 ], [ 1.33895, 43.588928 ], [ 1.337684, 43.588447 ], [ 1.334637, 43.58427 ], [ 1.330064, 43.579126 ], [ 1.330199, 43.578792 ], [ 1.336801, 43.579154 ] ] ] } },
{ "type": "Feature", "properties": { "codgeo": "31557", "value": 360, "isochrone_group": 6.0, "nb_agences": 1 }, "geometry": { "type": "Polygon", "coordinates": [ [ [ 1.319703, 43.57724 ], [ 1.319982, 43.577503 ], [ 1.32252, 43.579276 ], [ 1.328202, 43.585602 ], [ 1.331306, 43.588218 ], [ 1.334279, 43.593856 ], [ 1.334787, 43.59429 ], [ 1.335793, 43.594289 ], [ 1.341227, 43.594647 ], [ 1.345731, 43.597881 ], [ 1.349826, 43.598946 ], [ 1.351363, 43.598553 ], [ 1.351395, 43.598543 ], [ 1.351464, 43.598463 ], [ 1.358635, 43.594571 ], [ 1.361845, 43.597598 ], [ 1.365053, 43.595964 ], [ 1.36563, 43.590187 ], [ 1.365579, 43.589435 ], [ 1.367274, 43.580688 ], [ 1.369417, 43.578384 ], [ 1.370034, 43.577628 ], [ 1.367244, 43.575353 ], [ 1.360812, 43.575864 ], [ 1.35617, 43.576938 ], [ 1.35436, 43.576961 ], [ 1.346723, 43.573181 ], [ 1.346447, 43.573058 ], [ 1.342292, 43.571485 ], [ 1.340634, 43.571758 ], [ 1.332884, 43.574703 ], [ 1.328964, 43.573585 ], [ 1.328057, 43.573223 ], [ 1.322873028147394, 43.573376110129239 ], [ 1.322248, 43.57562 ], [ 1.322227, 43.575682 ], [ 1.320949, 43.576472 ], [ 1.319498, 43.576495 ], [ 1.319118942092341, 43.576358534675315 ], [ 1.319177, 43.576667 ], [ 1.319703, 43.57724 ] ], [ [ 1.326091, 43.577212 ], [ 1.326114, 43.577173 ], [ 1.330681, 43.576558 ], [ 1.337152, 43.577553 ], [ 1.340978, 43.577076 ], [ 1.347647, 43.575913 ], [ 1.347695, 43.575921 ], [ 1.348703, 43.576178 ], [ 1.35366, 43.577748 ], [ 1.35551, 43.578575 ], [ 1.355525, 43.578935 ], [ 1.356382, 43.585031 ], [ 1.360915, 43.587416 ], [ 1.361235, 43.587583 ], [ 1.360722, 43.588828 ], [ 1.359463, 43.589824 ], [ 1.354214, 43.590323 ], [ 1.347914, 43.593305 ], [ 1.34763, 43.593382 ], [ 1.347347, 43.593416 ], [ 1.34728, 43.593407 ], [ 1.339782, 43.591387 ], [ 1.33714, 43.590385 ], [ 1.336146, 43.589873 ], [ 1.335116, 43.58847 ], [ 1.332414, 43.58502 ], [ 1.326264, 43.578845 ], [ 1.326044, 43.57856 ], [ 1.325977, 43.577506 ], [ 1.326091, 43.577212 ] ] ] } },
{ "type": "Feature", "properties": { "codgeo": "31557", "value": 420, "isochrone_group": 7.0, "nb_agences": 1 }, "geometry": { "type": "MultiPolygon", "coordinates": [ [ [ [ 1.366821, 43.583228 ], [ 1.368475191096055, 43.580141366075011 ], [ 1.367134520789126, 43.581407778559026 ], [ 1.365579, 43.589435 ], [ 1.36563, 43.590187 ], [ 1.365053, 43.595964 ], [ 1.364892362493774, 43.596045820974169 ], [ 1.365252, 43.596742 ], [ 1.366521, 43.599137 ], [ 1.36668, 43.599495 ], [ 1.367071615572739, 43.599951548661942 ], [ 1.366366, 43.59846 ], [ 1.369837, 43.590376 ], [ 1.36984, 43.590291 ], [ 1.366821, 43.583228 ] ] ], [ [ [ 1.370775721623315, 43.569909089450249 ], [ 1.363973, 43.573872 ], [ 1.357134, 43.57474 ], [ 1.355452, 43.575978 ], [ 1.354398, 43.576423 ], [ 1.349881082704229, 43.574744120678531 ], [ 1.35436, 43.576961 ], [ 1.35617, 43.576938 ], [ 1.360812, 43.575864 ], [ 1.367244, 43.575353 ], [ 1.367292658495946, 43.575392676730573 ], [ 1.370775721623315, 43.569909089450249 ] ] ], [ [ [ 1.34463, 43.57121 ], [ 1.344044, 43.570322 ], [ 1.343594, 43.570036 ], [ 1.342913, 43.569734 ], [ 1.335122, 43.568117 ], [ 1.330600517148226, 43.571180057171944 ], [ 1.32901157184889, 43.57359856768548 ], [ 1.332884, 43.574703 ], [ 1.340634, 43.571758 ], [ 1.342292, 43.571485 ], [ 1.345965326543218, 43.572875648051124 ], [ 1.34463, 43.57121 ] ] ], [ [ [ 1.318486, 43.578424 ], [ 1.318346, 43.578355 ], [ 1.316112, 43.575276 ], [ 1.313305, 43.57415 ], [ 1.312985339486444, 43.573862595610869 ], [ 1.313004, 43.574029 ], [ 1.318267, 43.578485 ], [ 1.319916, 43.580506 ], [ 1.323607, 43.585569 ], [ 1.328434, 43.592073 ], [ 1.33055, 43.593785 ], [ 1.3344, 43.594076 ], [ 1.340785675133015, 43.599413728446613 ], [ 1.344599, 43.598955 ], [ 1.351642, 43.59948 ], [ 1.352511, 43.599736 ], [ 1.352569, 43.599771 ], [ 1.35461958970391, 43.602483877171451 ], [ 1.354635, 43.602488 ], [ 1.354685, 43.602503 ], [ 1.355074, 43.60256 ], [ 1.361354, 43.600313 ], [ 1.362189410593077, 43.600751991100694 ], [ 1.362723, 43.599836 ], [ 1.361995, 43.598963 ], [ 1.361713, 43.598322 ], [ 1.361667, 43.598122 ], [ 1.361228028161772, 43.597016201322653 ], [ 1.358635, 43.594571 ], [ 1.351464, 43.598463 ], [ 1.351395, 43.598543 ], [ 1.351363, 43.598553 ], [ 1.349826, 43.598946 ], [ 1.345731, 43.597881 ], [ 1.341227, 43.594647 ], [ 1.335793, 43.594289 ], [ 1.334787, 43.59429 ], [ 1.334279, 43.593856 ], [ 1.331306, 43.588218 ], [ 1.328202, 43.585602 ], [ 1.32252, 43.579276 ], [ 1.321788796023043, 43.578765194384886 ], [ 1.318486, 43.578424 ] ] ], [ [ [ 1.373076, 43.567482 ], [ 1.37275, 43.567703 ], [ 1.372716582465099, 43.567741331878274 ], [ 1.373239935814812, 43.567502156869182 ], [ 1.373196, 43.567456 ], [ 1.373076, 43.567482 ] ] ] ] } },
{ "type": "Feature", "properties": { "codgeo": "31557", "value": 480, "isochrone_group": 8.0, "nb_agences": 1 }, "geometry": { "type": "MultiPolygon", "coordinates": [ [ [ [ 1.375285, 43.591714 ], [ 1.375438, 43.588118 ], [ 1.375406, 43.581105 ], [ 1.374937131186196, 43.580369705184459 ], [ 1.371457, 43.581774 ], [ 1.370913, 43.58205 ], [ 1.370136, 43.582305 ], [ 1.369695, 43.582422 ], [ 1.367295895848017, 43.584339026622899 ], [ 1.36984, 43.590291 ], [ 1.369837, 43.590376 ], [ 1.366366, 43.59846 ], [ 1.371837967172801, 43.600698704967655 ], [ 1.371223, 43.598213 ], [ 1.371718, 43.596599 ], [ 1.375285, 43.591714 ] ] ], [ [ [ 1.319136, 43.580096 ], [ 1.317313200312993, 43.581350105637576 ], [ 1.319628, 43.58426 ], [ 1.320905, 43.589413 ], [ 1.32091, 43.589416 ], [ 1.327828, 43.593101 ], [ 1.329990516687511, 43.593332336752837 ], [ 1.328434, 43.592073 ], [ 1.323607, 43.585569 ], [ 1.319916, 43.580506 ], [ 1.319513487070552, 43.580012683668627 ], [ 1.319136, 43.580096 ] ] ], [ [ [ 1.336400233245101, 43.598168851355361 ], [ 1.336687, 43.598227 ], [ 1.338860132957707, 43.597804185049839 ], [ 1.3344, 43.594076 ], [ 1.332637122278268, 43.593942753917624 ], [ 1.336400233245101, 43.598168851355361 ] ] ], [ [ [ 1.369387038322197, 43.570625520941519 ], [ 1.368748297770646, 43.571090160765436 ], [ 1.369358434337518, 43.57073472704765 ], [ 1.369387038322197, 43.570625520941519 ] ] ] ] } },
{ "type": "Feature", "properties": { "codgeo": "31557", "value": 540, "isochrone_group": 9.0, "nb_agences": 1 }, "geometry": { "type": "MultiPolygon", "coordinates": [ [ [ [ 1.365652, 43.571996 ], [ 1.361506, 43.575466 ], [ 1.364565, 43.573714 ], [ 1.36512, 43.573416 ], [ 1.365255212352514, 43.573338900479051 ], [ 1.366514, 43.571688 ], [ 1.366650529041439, 43.571411576984097 ], [ 1.366625858254201, 43.570647936249657 ], [ 1.365652, 43.571996 ] ] ], [ [ [ 1.319777, 43.58852 ], [ 1.319763, 43.588521 ], [ 1.317647185163529, 43.588514328742939 ], [ 1.317667, 43.588554 ], [ 1.317939, 43.590761 ], [ 1.31815, 43.590878 ], [ 1.323415383157437, 43.593761228530823 ], [ 1.325083, 43.593197 ], [ 1.326381, 43.593754 ], [ 1.3299, 43.595477 ], [ 1.33469829454187, 43.596257518190804 ], [ 1.332315, 43.593581 ], [ 1.327828, 43.593101 ], [ 1.32091, 43.589416 ], [ 1.320905, 43.589413 ], [ 1.320388871626079, 43.587330298738614 ], [ 1.319777, 43.58852 ] ] ], [ [ [ 1.335225, 43.562855 ], [ 1.335643297922806, 43.56246591430066 ], [ 1.330625682756227, 43.564253687835986 ], [ 1.330634, 43.564262 ], [ 1.335225, 43.562855 ] ] ], [ [ [ 1.369245, 43.611658 ], [ 1.369196959272537, 43.611648516560294 ], [ 1.369429706304638, 43.61174390390984 ], [ 1.369245, 43.611658 ] ] ], [ [ [ 1.375568109966242, 43.590470146521383 ], [ 1.37599, 43.589355 ], [ 1.379045775213779, 43.582209143676266 ], [ 1.375418580290636, 43.583862049319606 ], [ 1.375438, 43.588118 ], [ 1.375334901764233, 43.590541145462886 ], [ 1.375568109966242, 43.590470146521383 ] ] ] ] } },
{ "type": "Feature", "properties": { "codgeo": "31557", "value": 600, "isochrone_group": 10.0, "nb_agences": 1 }, "geometry": { "type": "MultiPolygon", "coordinates": [ [ [ [ 1.316347, 43.589954 ], [ 1.314599, 43.589508 ], [ 1.313711140039586, 43.589875122758443 ], [ 1.3146513143562, 43.590658915375109 ], [ 1.320848905737412, 43.593580138736556 ], [ 1.321810281002253, 43.592882303637737 ], [ 1.31815, 43.590878 ], [ 1.317939, 43.590761 ], [ 1.317854257969307, 43.590073405655367 ], [ 1.316347, 43.589954 ] ] ], [ [ [ 1.362985855033124, 43.568313287610934 ], [ 1.362227, 43.569715 ], [ 1.359485805888736, 43.576023294927246 ], [ 1.360153509373678, 43.575839100862446 ], [ 1.362731019095734, 43.574440718701837 ], [ 1.363773434119845, 43.57356826811484 ], [ 1.365076, 43.571513 ], [ 1.365985570241612, 43.569031441464979 ], [ 1.365851, 43.567859 ], [ 1.362985855033124, 43.568313287610934 ] ] ], [ [ [ 1.343562422470504, 43.567640238858324 ], [ 1.342412, 43.569511 ], [ 1.34514045002279, 43.571878355450039 ], [ 1.343562422470504, 43.567640238858324 ] ] ] ] } },
{ "type": "Feature", "properties": { "codgeo": "31557", "value": 660, "isochrone_group": 11.0, "nb_agences": 1 }, "geometry": { "type": "MultiPolygon", "coordinates": [ [ [ [ 1.352214, 43.565576 ], [ 1.350816, 43.56501 ], [ 1.347768, 43.564415 ], [ 1.342738084283701, 43.565426309613819 ], [ 1.34557, 43.573032 ], [ 1.345625771095091, 43.5730613594137 ], [ 1.345644, 43.57307 ], [ 1.345730300715807, 43.573116386634744 ], [ 1.346005794692124, 43.573261414119116 ], [ 1.346572044586834, 43.573524443760995 ], [ 1.35133683382651, 43.575657085940506 ], [ 1.356491, 43.57439 ], [ 1.362158, 43.569677 ], [ 1.359894003765187, 43.567040380989759 ], [ 1.357402, 43.568851 ], [ 1.356122, 43.568016 ], [ 1.352214, 43.565576 ] ] ], [ [ [ 1.373459096640215, 43.612951102519119 ], [ 1.372871379804078, 43.612930151502283 ], [ 1.372588, 43.612945 ], [ 1.372494, 43.612934 ], [ 1.372428048341926, 43.612914347556639 ], [ 1.371544556243844, 43.612882852699428 ], [ 1.375970154860171, 43.613959435239067 ], [ 1.373459096640215, 43.612951102519119 ] ] ] ] } }
]
}
