{
"type": "FeatureCollection",
"name": "La_Banque_Postale",
"crs": { "type": "name", "properties": { "name": "urn:ogc:def:crs:OGC:1.3:CRS84" } },
"features": [
{ "type": "Feature", "properties": { "codgeo": "30333", "value": 60, "isochrone_group": 1.0, "nb_agences": 1 }, "geometry": { "type": "Polygon", "coordinates": [ [ [ 4.267565, 43.755801 ], [ 4.268569, 43.754202 ], [ 4.27153, 43.752306 ], [ 4.271829, 43.752293 ], [ 4.272136, 43.75248 ], [ 4.27282, 43.754747 ], [ 4.272726, 43.755094 ], [ 4.271555, 43.758798 ], [ 4.271319, 43.75907 ], [ 4.268393, 43.757078 ], [ 4.268123, 43.75684 ], [ 4.267384, 43.756111 ], [ 4.267565, 43.755801 ] ] ] } },
{ "type": "Feature", "properties": { "codgeo": "30333", "value": 120, "isochrone_group": 2.0, "nb_agences": 1 }, "geometry": { "type": "Polygon", "coordinates": [ [ [ 4.262112, 43.753103 ], [ 4.262361, 43.753709 ], [ 4.265082, 43.75706 ], [ 4.267256, 43.758381 ], [ 4.267436, 43.758492 ], [ 4.267743, 43.758679 ], [ 4.270491, 43.759206 ], [ 4.273026, 43.760824 ], [ 4.27501, 43.764032 ], [ 4.275256, 43.764295 ], [ 4.276374, 43.765147 ], [ 4.276696, 43.764986 ], [ 4.27824, 43.763486 ], [ 4.278459, 43.7632 ], [ 4.278217, 43.763015 ], [ 4.277976, 43.76283 ], [ 4.275032, 43.759495 ], [ 4.274879, 43.75679 ], [ 4.275368, 43.754541 ], [ 4.274769, 43.752217 ], [ 4.275163, 43.748387 ], [ 4.274857, 43.748197 ], [ 4.271975, 43.748465 ], [ 4.26742, 43.749194 ], [ 4.267212, 43.749488 ], [ 4.262283, 43.752786 ], [ 4.262112, 43.753103 ] ], [ [ 4.268569, 43.754202 ], [ 4.27153, 43.752306 ], [ 4.271829, 43.752293 ], [ 4.272136, 43.75248 ], [ 4.27282, 43.754747 ], [ 4.272726, 43.755094 ], [ 4.271555, 43.758798 ], [ 4.271319, 43.75907 ], [ 4.268393, 43.757078 ], [ 4.268123, 43.75684 ], [ 4.267384, 43.756111 ], [ 4.267565, 43.755801 ], [ 4.268569, 43.754202 ] ] ] } },
{ "type": "Feature", "properties": { "codgeo": "30333", "value": 180, "isochrone_group": 3.0, "nb_agences": 1 }, "geometry": { "type": "Polygon", "coordinates": [ [ [ 4.258378, 43.750661 ], [ 4.260969, 43.756185 ], [ 4.262849, 43.758361 ], [ 4.264845, 43.759785 ], [ 4.266609, 43.760584 ], [ 4.27334, 43.765297 ], [ 4.273951, 43.766404 ], [ 4.274257, 43.766594 ], [ 4.278621, 43.76855 ], [ 4.28542, 43.766109 ], [ 4.285636, 43.765821 ], [ 4.285295, 43.765106 ], [ 4.284691, 43.764299 ], [ 4.282709, 43.76158 ], [ 4.282414, 43.761374 ], [ 4.277871, 43.755888 ], [ 4.275177, 43.752755 ], [ 4.276453, 43.746833 ], [ 4.276668, 43.746602 ], [ 4.276878, 43.746375 ], [ 4.277649, 43.745605 ], [ 4.27842, 43.744834 ], [ 4.278166, 43.74458 ], [ 4.273615, 43.744676 ], [ 4.267747, 43.745255 ], [ 4.263448, 43.74634 ], [ 4.258581, 43.750363 ], [ 4.258378, 43.750661 ] ], [ [ 4.267212, 43.749488 ], [ 4.26742, 43.749194 ], [ 4.271975, 43.748465 ], [ 4.274857, 43.748197 ], [ 4.275163, 43.748387 ], [ 4.274769, 43.752217 ], [ 4.275368, 43.754541 ], [ 4.274879, 43.75679 ], [ 4.275032, 43.759495 ], [ 4.277976, 43.76283 ], [ 4.278217, 43.763015 ], [ 4.278459, 43.7632 ], [ 4.27824, 43.763486 ], [ 4.276696, 43.764986 ], [ 4.276374, 43.765147 ], [ 4.275256, 43.764295 ], [ 4.27501, 43.764032 ], [ 4.273026, 43.760824 ], [ 4.270491, 43.759206 ], [ 4.267743, 43.758679 ], [ 4.267436, 43.758492 ], [ 4.267256, 43.758381 ], [ 4.265082, 43.75706 ], [ 4.262361, 43.753709 ], [ 4.262112, 43.753103 ], [ 4.262283, 43.752786 ], [ 4.267212, 43.749488 ] ] ] } },
{ "type": "Feature", "properties": { "codgeo": "30333", "value": 240, "isochrone_group": 4.0, "nb_agences": 1 }, "geometry": { "type": "MultiPolygon", "coordinates": [ [ [ [ 4.26551, 43.740776 ], [ 4.265201, 43.74059 ], [ 4.259329, 43.743486 ], [ 4.25308, 43.746218 ], [ 4.252885, 43.746521 ], [ 4.253243, 43.746954 ], [ 4.253944, 43.747798 ], [ 4.254871, 43.749164 ], [ 4.256273, 43.752107 ], [ 4.257377, 43.76032 ], [ 4.255721, 43.76239 ], [ 4.255277, 43.762771 ], [ 4.254834, 43.763153 ], [ 4.255069, 43.763426 ], [ 4.25913, 43.761417 ], [ 4.265355, 43.761623 ], [ 4.271976, 43.767465 ], [ 4.272493, 43.7681 ], [ 4.274257, 43.769327 ], [ 4.282202, 43.77203 ], [ 4.28387, 43.773483 ], [ 4.284122, 43.77371 ], [ 4.284359, 43.773871 ], [ 4.284643, 43.773603 ], [ 4.290143, 43.76763 ], [ 4.290323, 43.767157 ], [ 4.290654, 43.764399 ], [ 4.287284, 43.759232 ], [ 4.286962, 43.75907 ], [ 4.280761, 43.755537 ], [ 4.280474, 43.755319 ], [ 4.275177, 43.752755 ], [ 4.277871, 43.755888 ], [ 4.282414, 43.761374 ], [ 4.282709, 43.76158 ], [ 4.284691, 43.764299 ], [ 4.285295, 43.765106 ], [ 4.285636, 43.765821 ], [ 4.28542, 43.766109 ], [ 4.278621, 43.76855 ], [ 4.274257, 43.766594 ], [ 4.273951, 43.766404 ], [ 4.27334, 43.765297 ], [ 4.266609, 43.760584 ], [ 4.264845, 43.759785 ], [ 4.262849, 43.758361 ], [ 4.260969, 43.756185 ], [ 4.258378, 43.750661 ], [ 4.258581, 43.750363 ], [ 4.263448, 43.74634 ], [ 4.267747, 43.745255 ], [ 4.272898531904636, 43.744746694449077 ], [ 4.26551, 43.740776 ] ] ], [ [ [ 4.277653, 43.745601 ], [ 4.280514, 43.744249 ], [ 4.280868, 43.744185 ], [ 4.282121, 43.742455 ], [ 4.282142, 43.742109 ], [ 4.281846, 43.741905 ], [ 4.274606, 43.743737 ], [ 4.274276, 43.744071 ], [ 4.273393231883914, 43.744697882027808 ], [ 4.273615, 43.744676 ], [ 4.278166, 43.74458 ], [ 4.27842, 43.744834 ], [ 4.27765299999793, 43.745601000002083 ], [ 4.277653, 43.745601 ] ] ] ] } },
{ "type": "Feature", "properties": { "codgeo": "30333", "value": 300, "isochrone_group": 5.0, "nb_agences": 1 }, "geometry": { "type": "Polygon", "coordinates": [ [ [ 4.296147, 43.769 ], [ 4.298955, 43.765393 ], [ 4.29869, 43.765149 ], [ 4.293614, 43.760395 ], [ 4.291018, 43.755163 ], [ 4.290814, 43.754725 ], [ 4.290559, 43.754471 ], [ 4.284897, 43.753487 ], [ 4.281619, 43.745365 ], [ 4.284711, 43.742959 ], [ 4.285108, 43.74263 ], [ 4.28511, 43.74227 ], [ 4.284157, 43.737961 ], [ 4.284143, 43.737906 ], [ 4.284042, 43.737922 ], [ 4.283789, 43.73797 ], [ 4.280749, 43.739845 ], [ 4.280527, 43.740128 ], [ 4.274606, 43.743737 ], [ 4.267969, 43.741658 ], [ 4.267501, 43.741243 ], [ 4.26646, 43.74022 ], [ 4.266262, 43.740067 ], [ 4.266091, 43.73994 ], [ 4.265915, 43.739856 ], [ 4.265764, 43.739841 ], [ 4.259686, 43.740355 ], [ 4.259216, 43.740665 ], [ 4.254636, 43.742406 ], [ 4.249916, 43.741796 ], [ 4.244853, 43.739884 ], [ 4.244521, 43.739743 ], [ 4.244062, 43.739927 ], [ 4.243879, 43.740237 ], [ 4.245111, 43.7418 ], [ 4.246684, 43.743953 ], [ 4.248329, 43.746375 ], [ 4.250001, 43.749018 ], [ 4.251509, 43.750045 ], [ 4.251837, 43.750173 ], [ 4.252853, 43.750678 ], [ 4.256909, 43.757927 ], [ 4.253588, 43.760505 ], [ 4.248607, 43.767204 ], [ 4.247719, 43.767539 ], [ 4.246766, 43.767873 ], [ 4.245164, 43.768373 ], [ 4.244477, 43.768553 ], [ 4.244208, 43.768664 ], [ 4.243939, 43.768775 ], [ 4.244076, 43.769108 ], [ 4.25239, 43.769667 ], [ 4.253101, 43.768419 ], [ 4.253204, 43.768228 ], [ 4.258478, 43.763633 ], [ 4.262326, 43.764164 ], [ 4.269005, 43.765315 ], [ 4.271209, 43.769716 ], [ 4.27264, 43.771003 ], [ 4.272817, 43.770984 ], [ 4.275937, 43.771091 ], [ 4.282123, 43.776815 ], [ 4.282453, 43.776957 ], [ 4.290361050391892, 43.778919764308924 ], [ 4.289866, 43.7786 ], [ 4.288917, 43.777987 ], [ 4.288644, 43.777764 ], [ 4.288364, 43.777534 ], [ 4.288052, 43.77725 ], [ 4.28774, 43.776966 ], [ 4.28756, 43.776802 ], [ 4.28738, 43.776638 ], [ 4.287622, 43.776372 ], [ 4.29017077912935, 43.776642238858578 ], [ 4.289917, 43.775344 ], [ 4.296147, 43.769 ] ], [ [ 4.281846, 43.741905 ], [ 4.282142, 43.742109 ], [ 4.282121, 43.742455 ], [ 4.280868, 43.744185 ], [ 4.280514, 43.744249 ], [ 4.277653, 43.745601 ], [ 4.276878, 43.746375 ], [ 4.276668, 43.746602 ], [ 4.276453, 43.746833 ], [ 4.275811, 43.747606 ], [ 4.275177, 43.752755 ], [ 4.280474, 43.755319 ], [ 4.280761, 43.755537 ], [ 4.286962, 43.75907 ], [ 4.287284, 43.759232 ], [ 4.290654, 43.764399 ], [ 4.290323, 43.767157 ], [ 4.290143, 43.76763 ], [ 4.284643, 43.773603 ], [ 4.284359, 43.773871 ], [ 4.284122, 43.77371 ], [ 4.28387, 43.773483 ], [ 4.282202, 43.77203 ], [ 4.274257, 43.769327 ], [ 4.272493, 43.7681 ], [ 4.271976, 43.767465 ], [ 4.265355, 43.761623 ], [ 4.25913, 43.761417 ], [ 4.255069, 43.763426 ], [ 4.254834, 43.763153 ], [ 4.255277, 43.762771 ], [ 4.255721, 43.76239 ], [ 4.257377, 43.76032 ], [ 4.256273, 43.752107 ], [ 4.254871, 43.749164 ], [ 4.253944, 43.747798 ], [ 4.253243, 43.746954 ], [ 4.252885, 43.746521 ], [ 4.25308, 43.746218 ], [ 4.259329, 43.743486 ], [ 4.265201, 43.74059 ], [ 4.26551, 43.740776 ], [ 4.273141, 43.744877 ], [ 4.274276, 43.744071 ], [ 4.274606, 43.743737 ], [ 4.281846, 43.741905 ] ] ] } },
{ "type": "Feature", "properties": { "codgeo": "30333", "value": 360, "isochrone_group": 6.0, "nb_agences": 1 }, "geometry": { "type": "MultiPolygon", "coordinates": [ [ [ [ 4.301529, 43.770362 ], [ 4.306567, 43.76446 ], [ 4.307737, 43.76256 ], [ 4.307696, 43.762377 ], [ 4.305429, 43.761044 ], [ 4.297453, 43.758225 ], [ 4.29487, 43.752541 ], [ 4.294585, 43.751356 ], [ 4.29369, 43.750566 ], [ 4.29295, 43.750263 ], [ 4.292592, 43.741393 ], [ 4.292809, 43.741108 ], [ 4.292601, 43.738634 ], [ 4.289168, 43.734009 ], [ 4.286316, 43.734491 ], [ 4.278616, 43.733232 ], [ 4.276461, 43.731897 ], [ 4.275052, 43.730849 ], [ 4.27267, 43.733548 ], [ 4.264485, 43.736289 ], [ 4.262219, 43.734892 ], [ 4.258473, 43.733796 ], [ 4.2583, 43.733798 ], [ 4.256583, 43.73504 ], [ 4.256563, 43.73608 ], [ 4.25427, 43.739763 ], [ 4.246471, 43.736605 ], [ 4.246064189336415, 43.736573779100823 ], [ 4.246912, 43.737535 ], [ 4.24749, 43.738291 ], [ 4.250811, 43.741789 ], [ 4.250868919724154, 43.741919152760964 ], [ 4.254636, 43.742406 ], [ 4.259216, 43.740665 ], [ 4.259686, 43.740355 ], [ 4.265764, 43.739841 ], [ 4.265915, 43.739856 ], [ 4.266091, 43.73994 ], [ 4.266262, 43.740067 ], [ 4.26646, 43.74022 ], [ 4.267501, 43.741243 ], [ 4.267969, 43.741658 ], [ 4.274606, 43.743737 ], [ 4.280527, 43.740128 ], [ 4.280749, 43.739845 ], [ 4.283789, 43.73797 ], [ 4.284042, 43.737922 ], [ 4.284143, 43.737906 ], [ 4.284157, 43.737961 ], [ 4.28511, 43.74227 ], [ 4.285108, 43.74263 ], [ 4.284711, 43.742959 ], [ 4.281619, 43.745365 ], [ 4.284897, 43.753487 ], [ 4.290559, 43.754471 ], [ 4.290814, 43.754725 ], [ 4.291018, 43.755163 ], [ 4.293614, 43.760395 ], [ 4.29869, 43.765149 ], [ 4.298955, 43.765393 ], [ 4.296147, 43.769 ], [ 4.292639864465751, 43.772571311048047 ], [ 4.295213, 43.774378 ], [ 4.299134, 43.774571 ], [ 4.299569497006472, 43.774556057947549 ], [ 4.299799, 43.773053 ], [ 4.301167, 43.770914 ], [ 4.301529, 43.770362 ] ] ], [ [ [ 4.241908, 43.745039 ], [ 4.245683, 43.750606 ], [ 4.249585, 43.758547 ], [ 4.249992, 43.762124 ], [ 4.245421, 43.766633 ], [ 4.243859, 43.767055 ], [ 4.243231, 43.767316 ], [ 4.242029, 43.767682 ], [ 4.239611, 43.768492 ], [ 4.239185, 43.768859 ], [ 4.238812, 43.769297 ], [ 4.23706, 43.771565 ], [ 4.237026, 43.771735 ], [ 4.239108, 43.7737 ], [ 4.239244, 43.773668 ], [ 4.240864, 43.77297 ], [ 4.243739, 43.770803 ], [ 4.249816, 43.774863 ], [ 4.249912, 43.7753 ], [ 4.250082, 43.775805 ], [ 4.253494, 43.774658 ], [ 4.25515, 43.772064 ], [ 4.261622, 43.767385 ], [ 4.268051, 43.773173 ], [ 4.268908, 43.775639 ], [ 4.269045, 43.776009 ], [ 4.274397, 43.782274 ], [ 4.28046, 43.780811 ], [ 4.283716, 43.780458 ], [ 4.286171, 43.780222 ], [ 4.290205, 43.780751 ], [ 4.294813, 43.783713 ], [ 4.29486, 43.783757 ], [ 4.29589, 43.784396 ], [ 4.29623, 43.784557 ], [ 4.296791, 43.784771 ], [ 4.297268, 43.78491 ], [ 4.297646, 43.785003 ], [ 4.297694508475659, 43.784806321203682 ], [ 4.293813, 43.781186 ], [ 4.292455, 43.780292 ], [ 4.290798, 43.779202 ], [ 4.290361050391892, 43.778919764308924 ], [ 4.282453, 43.776957 ], [ 4.282123, 43.776815 ], [ 4.275937, 43.771091 ], [ 4.272817, 43.770984 ], [ 4.27264, 43.771003 ], [ 4.271209, 43.769716 ], [ 4.269005, 43.765315 ], [ 4.262326, 43.764164 ], [ 4.258478, 43.763633 ], [ 4.253204, 43.768228 ], [ 4.253101, 43.768419 ], [ 4.25239, 43.769667 ], [ 4.244076, 43.769108 ], [ 4.243939, 43.768775 ], [ 4.244208, 43.768664 ], [ 4.244477, 43.768553 ], [ 4.245164, 43.768373 ], [ 4.246766, 43.767873 ], [ 4.247719, 43.767539 ], [ 4.248607, 43.767204 ], [ 4.253588, 43.760505 ], [ 4.256909, 43.757927 ], [ 4.252853, 43.750678 ], [ 4.251837, 43.750173 ], [ 4.251509, 43.750045 ], [ 4.250001, 43.749018 ], [ 4.248329, 43.746375 ], [ 4.247024619996475, 43.744454508590543 ], [ 4.246769, 43.744373 ], [ 4.243566, 43.743629 ], [ 4.241442026525461, 43.744530290422411 ], [ 4.241908, 43.745039 ] ] ] ] } },
{ "type": "Feature", "properties": { "codgeo": "30333", "value": 420, "isochrone_group": 7.0, "nb_agences": 1 }, "geometry": { "type": "MultiPolygon", "coordinates": [ [ [ [ 4.310905, 43.757564 ], [ 4.309157, 43.758482 ], [ 4.307648, 43.759685 ], [ 4.301213, 43.753818 ], [ 4.299855, 43.751673 ], [ 4.302044, 43.74479 ], [ 4.296943, 43.739168 ], [ 4.294907, 43.732751 ], [ 4.289295, 43.729647 ], [ 4.288934, 43.729534 ], [ 4.28834, 43.7294 ], [ 4.286979, 43.732632 ], [ 4.278616, 43.733232 ], [ 4.286316, 43.734491 ], [ 4.289168, 43.734009 ], [ 4.292601, 43.738634 ], [ 4.292809, 43.741108 ], [ 4.292592, 43.741393 ], [ 4.29295, 43.750263 ], [ 4.29369, 43.750566 ], [ 4.294585, 43.751356 ], [ 4.29487, 43.752541 ], [ 4.297453, 43.758225 ], [ 4.305429, 43.761044 ], [ 4.307696, 43.762377 ], [ 4.307737, 43.76256 ], [ 4.306567, 43.76446 ], [ 4.301529, 43.770362 ], [ 4.301167, 43.770914 ], [ 4.300688527239198, 43.771662138329937 ], [ 4.300961, 43.771912 ], [ 4.303022503975096, 43.77166427426063 ], [ 4.307283, 43.766362 ], [ 4.310728, 43.763828 ], [ 4.311131, 43.763277 ], [ 4.311823393863396, 43.761494327013963 ], [ 4.311771, 43.76146 ], [ 4.311932704766382, 43.761212889519868 ], [ 4.312638, 43.759397 ], [ 4.312639, 43.759393 ], [ 4.311145, 43.757551 ], [ 4.310905, 43.757564 ] ] ], [ [ [ 4.273024, 43.728093 ], [ 4.269676, 43.729416 ], [ 4.269473, 43.728902 ], [ 4.268958, 43.726994 ], [ 4.267902, 43.72366 ], [ 4.267844256794955, 43.723648350778312 ], [ 4.261124, 43.726793 ], [ 4.257853, 43.728298 ], [ 4.256758, 43.731792 ], [ 4.255983, 43.733045 ], [ 4.250648079353652, 43.735067044119248 ], [ 4.253766, 43.737392 ], [ 4.254632811723033, 43.739180254437017 ], [ 4.256563, 43.73608 ], [ 4.256583, 43.73504 ], [ 4.2583, 43.733798 ], [ 4.258473, 43.733796 ], [ 4.262219, 43.734892 ], [ 4.264485, 43.736289 ], [ 4.27267, 43.733548 ], [ 4.275052, 43.730849 ], [ 4.276461, 43.731897 ], [ 4.278616, 43.733232 ], [ 4.274481, 43.728268 ], [ 4.272966572172192, 43.725319295120784 ], [ 4.273024, 43.728093 ] ] ], [ [ [ 4.239173, 43.749028 ], [ 4.239369, 43.750798 ], [ 4.243092, 43.752129 ], [ 4.245218, 43.758629 ], [ 4.241336, 43.766057 ], [ 4.237849, 43.766952 ], [ 4.236906, 43.767216 ], [ 4.236113, 43.767548 ], [ 4.235655, 43.767848 ], [ 4.235228, 43.768257 ], [ 4.234711, 43.768823 ], [ 4.234591, 43.769027 ], [ 4.234596, 43.77358 ], [ 4.235021, 43.774534 ], [ 4.236868, 43.776373 ], [ 4.237218, 43.776186 ], [ 4.23765, 43.775907 ], [ 4.237944, 43.77568 ], [ 4.238737, 43.775081 ], [ 4.246827, 43.77849 ], [ 4.247233, 43.779962 ], [ 4.247523, 43.780152 ], [ 4.248444, 43.780664 ], [ 4.248922, 43.780867 ], [ 4.24981, 43.780506 ], [ 4.251636, 43.779027 ], [ 4.252731, 43.778034 ], [ 4.253106, 43.776966 ], [ 4.253316, 43.776499 ], [ 4.253529, 43.775914 ], [ 4.257647, 43.772356 ], [ 4.264756, 43.777406 ], [ 4.265048, 43.780985 ], [ 4.266762, 43.784704 ], [ 4.26954, 43.786994 ], [ 4.277449, 43.782761 ], [ 4.278355, 43.78261 ], [ 4.282313, 43.782365 ], [ 4.288587, 43.783286 ], [ 4.291308, 43.784862 ], [ 4.295322302064925, 43.785603992950072 ], [ 4.292922, 43.782539 ], [ 4.287507213798634, 43.780397224863528 ], [ 4.286171, 43.780222 ], [ 4.283716, 43.780458 ], [ 4.28046, 43.780811 ], [ 4.274397, 43.782274 ], [ 4.269045, 43.776009 ], [ 4.268908, 43.775639 ], [ 4.268051, 43.773173 ], [ 4.261622, 43.767385 ], [ 4.25515, 43.772064 ], [ 4.253494, 43.774658 ], [ 4.250082, 43.775805 ], [ 4.249912, 43.7753 ], [ 4.249816, 43.774863 ], [ 4.243739, 43.770803 ], [ 4.240864, 43.77297 ], [ 4.239244, 43.773668 ], [ 4.239108, 43.7737 ], [ 4.237026, 43.771735 ], [ 4.23706, 43.771565 ], [ 4.238812, 43.769297 ], [ 4.239185, 43.768859 ], [ 4.239611, 43.768492 ], [ 4.242029, 43.767682 ], [ 4.243231, 43.767316 ], [ 4.243859, 43.767055 ], [ 4.245421, 43.766633 ], [ 4.249992, 43.762124 ], [ 4.249585, 43.758547 ], [ 4.245683, 43.750606 ], [ 4.243343628929887, 43.747156124835136 ], [ 4.239305, 43.748288 ], [ 4.238500201307643, 43.748311041271371 ], [ 4.239173, 43.749028 ] ] ] ] } },
{ "type": "Feature", "properties": { "codgeo": "30333", "value": 480, "isochrone_group": 8.0, "nb_agences": 1 }, "geometry": { "type": "MultiPolygon", "coordinates": [ [ [ [ 4.306756, 43.748048 ], [ 4.305518, 43.74665 ], [ 4.301171, 43.74209 ], [ 4.298877, 43.739091 ], [ 4.299864, 43.733157 ], [ 4.297652, 43.730316 ], [ 4.288934, 43.729534 ], [ 4.289295, 43.729647 ], [ 4.294907, 43.732751 ], [ 4.296943, 43.739168 ], [ 4.302044, 43.74479 ], [ 4.299855, 43.751673 ], [ 4.301213, 43.753818 ], [ 4.305858883854849, 43.758053804285375 ], [ 4.307797, 43.756045 ], [ 4.308614, 43.754877 ], [ 4.309546, 43.754448 ], [ 4.309956, 43.754498 ], [ 4.310865, 43.754664 ], [ 4.310923, 43.754674 ], [ 4.313407, 43.755693 ], [ 4.313536, 43.755755 ], [ 4.314957950328751, 43.757627148106188 ], [ 4.31505, 43.757 ], [ 4.314511, 43.755375 ], [ 4.314334, 43.755039 ], [ 4.308591, 43.749889 ], [ 4.306756, 43.748048 ] ] ], [ [ [ 4.284921, 43.728651 ], [ 4.2786, 43.727813 ], [ 4.277270911924965, 43.725641554273146 ], [ 4.275501023125591, 43.729492521111368 ], [ 4.278616, 43.733232 ], [ 4.286979, 43.732632 ], [ 4.28834, 43.7294 ], [ 4.288934, 43.729534 ], [ 4.288038, 43.729309 ], [ 4.286594, 43.729004 ], [ 4.284921, 43.728651 ] ] ], [ [ [ 4.259585, 43.725385 ], [ 4.259419789129685, 43.725302394564849 ], [ 4.259036026859182, 43.725316115515909 ], [ 4.258328472518506, 43.728079233219098 ], [ 4.261124, 43.726793 ], [ 4.264714008552639, 43.725113106218359 ], [ 4.262575625023239, 43.725189561508572 ], [ 4.261831, 43.725871 ], [ 4.259585, 43.725385 ] ] ], [ [ [ 4.233072, 43.751354 ], [ 4.23329, 43.751609 ], [ 4.233743, 43.751891 ], [ 4.240725, 43.75616 ], [ 4.237151, 43.764192 ], [ 4.23675, 43.764249 ], [ 4.234831, 43.765997 ], [ 4.233091, 43.769148 ], [ 4.232165, 43.770478 ], [ 4.232076, 43.770622 ], [ 4.231391, 43.772451 ], [ 4.230693, 43.774192 ], [ 4.229384, 43.777546 ], [ 4.231974, 43.779116 ], [ 4.235448, 43.780059 ], [ 4.239264, 43.779177 ], [ 4.244284, 43.781807 ], [ 4.247369, 43.782941 ], [ 4.25063, 43.782069 ], [ 4.258691, 43.783033 ], [ 4.25985, 43.789451 ], [ 4.259855, 43.791312 ], [ 4.260327, 43.791726 ], [ 4.26074, 43.792004 ], [ 4.261964, 43.792366 ], [ 4.262979, 43.791766 ], [ 4.263351, 43.791519 ], [ 4.267303, 43.788834 ], [ 4.272226, 43.786766 ], [ 4.273102, 43.786408 ], [ 4.280219, 43.784816 ], [ 4.285934, 43.784334 ], [ 4.289466, 43.786463 ], [ 4.293385129617754, 43.787269357504975 ], [ 4.290136284495066, 43.784183343757526 ], [ 4.288587, 43.783286 ], [ 4.282313, 43.782365 ], [ 4.278355, 43.78261 ], [ 4.277449, 43.782761 ], [ 4.26954, 43.786994 ], [ 4.266762, 43.784704 ], [ 4.265048, 43.780985 ], [ 4.264756, 43.777406 ], [ 4.257647, 43.772356 ], [ 4.253529, 43.775914 ], [ 4.253316, 43.776499 ], [ 4.253106, 43.776966 ], [ 4.252731, 43.778034 ], [ 4.251636, 43.779027 ], [ 4.24981, 43.780506 ], [ 4.248922, 43.780867 ], [ 4.248444, 43.780664 ], [ 4.247523, 43.780152 ], [ 4.247233, 43.779962 ], [ 4.246827, 43.77849 ], [ 4.238737, 43.775081 ], [ 4.237944, 43.77568 ], [ 4.23765, 43.775907 ], [ 4.237218, 43.776186 ], [ 4.236868, 43.776373 ], [ 4.235021, 43.774534 ], [ 4.234596, 43.77358 ], [ 4.234591, 43.769027 ], [ 4.234711, 43.768823 ], [ 4.235228, 43.768257 ], [ 4.235655, 43.767848 ], [ 4.236113, 43.767548 ], [ 4.236906, 43.767216 ], [ 4.237849, 43.766952 ], [ 4.241336, 43.766057 ], [ 4.245218, 43.758629 ], [ 4.243092, 43.752129 ], [ 4.239369, 43.750798 ], [ 4.239173, 43.749028 ], [ 4.237819900957509, 43.747586088503652 ], [ 4.237691, 43.74753 ], [ 4.233068771567666, 43.751349649718598 ], [ 4.233072, 43.751354 ] ] ], [ [ [ 4.255983, 43.733045 ], [ 4.256758, 43.731792 ], [ 4.257747144158702, 43.728635771972158 ], [ 4.257411, 43.728583 ], [ 4.256925, 43.728452 ], [ 4.250778, 43.732422 ], [ 4.252236711608544, 43.734464919978763 ], [ 4.255983, 43.733045 ] ] ] ] } },
{ "type": "Feature", "properties": { "codgeo": "30333", "value": 540, "isochrone_group": 9.0, "nb_agences": 1 }, "geometry": { "type": "MultiPolygon", "coordinates": [ [ [ [ 4.3215, 43.753163 ], [ 4.320012, 43.751745 ], [ 4.315708, 43.751921 ], [ 4.310414, 43.749283 ], [ 4.308066, 43.74541 ], [ 4.306613, 43.743093 ], [ 4.302471, 43.738362 ], [ 4.304209, 43.730824 ], [ 4.302698, 43.727556 ], [ 4.300807, 43.728431 ], [ 4.299776, 43.728822 ], [ 4.298959, 43.729258 ], [ 4.298395, 43.72965 ], [ 4.297647948218566, 43.730315636557343 ], [ 4.297652, 43.730316 ], [ 4.299864, 43.733157 ], [ 4.298877, 43.739091 ], [ 4.301171, 43.74209 ], [ 4.305518, 43.74665 ], [ 4.306756, 43.748048 ], [ 4.308528804257312, 43.749826600892497 ], [ 4.30875, 43.749941 ], [ 4.314924, 43.75283 ], [ 4.318508, 43.752619 ], [ 4.319429, 43.754331 ], [ 4.319463, 43.754556 ], [ 4.31939, 43.756109 ], [ 4.319615, 43.76288 ], [ 4.321037224977399, 43.762511469230269 ], [ 4.321382, 43.755185 ], [ 4.32151, 43.755018 ], [ 4.321607, 43.754872 ], [ 4.321603, 43.753288 ], [ 4.3215, 43.753163 ] ] ], [ [ [ 4.236244, 43.760354 ], [ 4.231512, 43.765423 ], [ 4.230964, 43.765732 ], [ 4.230271, 43.766485 ], [ 4.229716, 43.767302 ], [ 4.228077, 43.769716 ], [ 4.225504, 43.772646 ], [ 4.221624, 43.776523 ], [ 4.223125, 43.779795 ], [ 4.223493, 43.779626 ], [ 4.230881, 43.782614 ], [ 4.230545, 43.785278 ], [ 4.230266, 43.786045 ], [ 4.230606, 43.786204 ], [ 4.233649, 43.787276 ], [ 4.233928, 43.786509 ], [ 4.234464, 43.785419 ], [ 4.237263, 43.782626 ], [ 4.244586, 43.783931 ], [ 4.248173, 43.78424 ], [ 4.252944, 43.783315 ], [ 4.254333, 43.783047 ], [ 4.258835, 43.790531 ], [ 4.257964, 43.791597 ], [ 4.257439, 43.792157 ], [ 4.257087, 43.792715 ], [ 4.255301, 43.794439 ], [ 4.254717, 43.794994 ], [ 4.257197, 43.797603 ], [ 4.259593, 43.796415 ], [ 4.259763, 43.796269 ], [ 4.263351, 43.791519 ], [ 4.262979, 43.791766 ], [ 4.261964, 43.792366 ], [ 4.26074, 43.792004 ], [ 4.260327, 43.791726 ], [ 4.259855, 43.791312 ], [ 4.25985, 43.789451 ], [ 4.258691, 43.783033 ], [ 4.25063, 43.782069 ], [ 4.247369, 43.782941 ], [ 4.244284, 43.781807 ], [ 4.239264, 43.779177 ], [ 4.235448, 43.780059 ], [ 4.231974, 43.779116 ], [ 4.229384, 43.777546 ], [ 4.230693, 43.774192 ], [ 4.231391, 43.772451 ], [ 4.232076, 43.770622 ], [ 4.232165, 43.770478 ], [ 4.233091, 43.769148 ], [ 4.234831, 43.765997 ], [ 4.23675, 43.764249 ], [ 4.237151, 43.764192 ], [ 4.240725, 43.75616 ], [ 4.236072783311978, 43.75331549798895 ], [ 4.234434560688144, 43.754962359888324 ], [ 4.236244, 43.760354 ] ] ], [ [ [ 4.291831885069302, 43.788933068466889 ], [ 4.288670382727768, 43.785983422091576 ], [ 4.285934, 43.784334 ], [ 4.280219, 43.784816 ], [ 4.27589933098109, 43.785782265712818 ], [ 4.280484, 43.786451 ], [ 4.286906, 43.786765 ], [ 4.291809, 43.788921 ], [ 4.291831885069302, 43.788933068466889 ] ] ] ] } },
{ "type": "Feature", "properties": { "codgeo": "30333", "value": 600, "isochrone_group": 10.0, "nb_agences": 1 }, "geometry": { "type": "MultiPolygon", "coordinates": [ [ [ [ 4.317432, 43.74938 ], [ 4.311847, 43.74811 ], [ 4.309522, 43.7413 ], [ 4.30582, 43.738126 ], [ 4.307334, 43.729614 ], [ 4.308785, 43.729215 ], [ 4.309425, 43.728262 ], [ 4.309232, 43.725642 ], [ 4.307719, 43.725092 ], [ 4.30634, 43.725385 ], [ 4.303877, 43.727114 ], [ 4.302845, 43.727495 ], [ 4.302700484000704, 43.727561372411863 ], [ 4.304209, 43.730824 ], [ 4.302471, 43.738362 ], [ 4.306613, 43.743093 ], [ 4.308066, 43.74541 ], [ 4.310370626244041, 43.749211455469833 ], [ 4.310433, 43.749251 ], [ 4.316789, 43.750697 ], [ 4.322306, 43.750232 ], [ 4.325747, 43.750732 ], [ 4.326758, 43.750995 ], [ 4.328907022476979, 43.754221180887612 ], [ 4.33019, 43.753418 ], [ 4.328904, 43.750055 ], [ 4.327784, 43.749917 ], [ 4.32428, 43.749207 ], [ 4.317432, 43.74938 ] ] ], [ [ [ 4.232135, 43.762084 ], [ 4.230319, 43.765287 ], [ 4.22854, 43.766499 ], [ 4.224169, 43.766881 ], [ 4.220904, 43.766937 ], [ 4.219556, 43.768048 ], [ 4.2177, 43.771133 ], [ 4.214776, 43.775898 ], [ 4.214281, 43.779066 ], [ 4.214559, 43.779491 ], [ 4.21497, 43.779608 ], [ 4.218425, 43.780273 ], [ 4.218962, 43.780376 ], [ 4.224544, 43.782771 ], [ 4.226855, 43.785532 ], [ 4.228518, 43.790848 ], [ 4.228811, 43.791654 ], [ 4.229699, 43.792366 ], [ 4.229708, 43.792368 ], [ 4.234924, 43.790987 ], [ 4.23669, 43.788217 ], [ 4.244745, 43.785978 ], [ 4.247237, 43.78696 ], [ 4.249026, 43.78663 ], [ 4.254719, 43.792654 ], [ 4.253196, 43.795815 ], [ 4.252261, 43.797231 ], [ 4.251593, 43.797951 ], [ 4.253195, 43.799609 ], [ 4.254231, 43.800401 ], [ 4.261634, 43.797749 ], [ 4.262013, 43.797258 ], [ 4.26276, 43.796072 ], [ 4.267303, 43.788834 ], [ 4.263351, 43.791519 ], [ 4.259763, 43.796269 ], [ 4.259593, 43.796415 ], [ 4.257197, 43.797603 ], [ 4.254717, 43.794994 ], [ 4.255301, 43.794439 ], [ 4.257087, 43.792715 ], [ 4.257439, 43.792157 ], [ 4.258835, 43.790531 ], [ 4.254333, 43.783047 ], [ 4.252944, 43.783315 ], [ 4.248173, 43.78424 ], [ 4.244586, 43.783931 ], [ 4.237263, 43.782626 ], [ 4.234464, 43.785419 ], [ 4.233928, 43.786509 ], [ 4.233649, 43.787276 ], [ 4.230606, 43.786204 ], [ 4.230266, 43.786045 ], [ 4.230545, 43.785278 ], [ 4.230881, 43.782614 ], [ 4.223493, 43.779626 ], [ 4.223125, 43.779795 ], [ 4.221624, 43.776523 ], [ 4.225504, 43.772646 ], [ 4.228077, 43.769716 ], [ 4.229716, 43.767302 ], [ 4.230271, 43.766485 ], [ 4.230964, 43.765732 ], [ 4.231512, 43.765423 ], [ 4.236244, 43.760354 ], [ 4.236040931133909, 43.759748909662527 ], [ 4.231287020902214, 43.760930198085262 ], [ 4.232135, 43.762084 ] ] ], [ [ [ 4.280484, 43.786451 ], [ 4.278945268799011, 43.786226555812533 ], [ 4.275760739722724, 43.786901182701108 ], [ 4.278377, 43.789008 ], [ 4.281514, 43.787861 ], [ 4.286886751941532, 43.788730967668783 ], [ 4.28450067586877, 43.786647393058679 ], [ 4.280484, 43.786451 ] ] ], [ [ [ 4.272564, 43.787312 ], [ 4.271182926501338, 43.787711542646818 ], [ 4.273208271300768, 43.787267938365545 ], [ 4.272564, 43.787312 ] ] ] ] } },
{ "type": "Feature", "properties": { "codgeo": "30333", "value": 660, "isochrone_group": 11.0, "nb_agences": 1 }, "geometry": { "type": "MultiPolygon", "coordinates": [ [ [ [ 4.311068, 43.741917 ], [ 4.310139, 43.740164 ], [ 4.309779, 43.739022 ], [ 4.309583, 43.738928 ], [ 4.30883, 43.739645 ], [ 4.308313780965955, 43.740264103940028 ], [ 4.309522, 43.7413 ], [ 4.311823866743919, 43.748042241946671 ], [ 4.311869, 43.748089 ], [ 4.319563, 43.746893 ], [ 4.319858, 43.746593 ], [ 4.320517, 43.746515 ], [ 4.320714, 43.746496 ], [ 4.324756, 43.74843 ], [ 4.328204, 43.749755 ], [ 4.33144549703952, 43.746680749243581 ], [ 4.326995, 43.747423 ], [ 4.32328, 43.746518 ], [ 4.321227, 43.745723 ], [ 4.318716, 43.746217 ], [ 4.311068, 43.741917 ] ] ], [ [ [ 4.313202, 43.729887 ], [ 4.313824, 43.730113 ], [ 4.314043, 43.730154 ], [ 4.314552, 43.729942 ], [ 4.315199, 43.729156 ], [ 4.315643, 43.728654 ], [ 4.314707, 43.726616 ], [ 4.313496, 43.723563 ], [ 4.310321, 43.721867 ], [ 4.31019054282413, 43.72130567301663 ], [ 4.307927, 43.721163 ], [ 4.3031, 43.725256 ], [ 4.302782006256924, 43.727523931375636 ], [ 4.302845, 43.727495 ], [ 4.303877, 43.727114 ], [ 4.30634, 43.725385 ], [ 4.307719, 43.725092 ], [ 4.309232, 43.725642 ], [ 4.309425, 43.728262 ], [ 4.308785, 43.729215 ], [ 4.307334, 43.729614 ], [ 4.307305318137723, 43.729775254961503 ], [ 4.310337, 43.72954 ], [ 4.310992, 43.729641 ], [ 4.313202, 43.729887 ] ] ], [ [ [ 4.212601, 43.774651 ], [ 4.211840129812346, 43.774890653930996 ], [ 4.211027, 43.775279 ], [ 4.20912779305978, 43.7805970500713 ], [ 4.209222, 43.780581 ], [ 4.213933, 43.780534 ], [ 4.21685, 43.781589 ], [ 4.220092, 43.789507 ], [ 4.220035, 43.790419 ], [ 4.219696, 43.792669 ], [ 4.220008, 43.792813 ], [ 4.226573, 43.794077 ], [ 4.230464, 43.794627 ], [ 4.230809, 43.794636 ], [ 4.231729, 43.794418 ], [ 4.234238, 43.792886 ], [ 4.241878, 43.793824 ], [ 4.248072, 43.798754 ], [ 4.248965, 43.801344 ], [ 4.250445, 43.80248 ], [ 4.252665, 43.802957 ], [ 4.254557, 43.802408 ], [ 4.257357, 43.801078 ], [ 4.263876, 43.798204 ], [ 4.264827, 43.796896 ], [ 4.264827, 43.796796 ], [ 4.267303, 43.788834 ], [ 4.26276, 43.796072 ], [ 4.262013, 43.797258 ], [ 4.261634, 43.797749 ], [ 4.254231, 43.800401 ], [ 4.253195, 43.799609 ], [ 4.251593, 43.797951 ], [ 4.252261, 43.797231 ], [ 4.253196, 43.795815 ], [ 4.254719, 43.792654 ], [ 4.249026, 43.78663 ], [ 4.247237, 43.78696 ], [ 4.244745, 43.785978 ], [ 4.23669, 43.788217 ], [ 4.234924, 43.790987 ], [ 4.229708, 43.792368 ], [ 4.229699, 43.792366 ], [ 4.228811, 43.791654 ], [ 4.228518, 43.790848 ], [ 4.226855, 43.785532 ], [ 4.224544, 43.782771 ], [ 4.218962, 43.780376 ], [ 4.218425, 43.780273 ], [ 4.21497, 43.779608 ], [ 4.214559, 43.779491 ], [ 4.214281, 43.779066 ], [ 4.214776, 43.775898 ], [ 4.216867539019963, 43.772489592534171 ], [ 4.212652699397205, 43.774502575423377 ], [ 4.212601, 43.774651 ] ] ], [ [ [ 4.22854, 43.766499 ], [ 4.230319, 43.765287 ], [ 4.230552985410633, 43.764874304366607 ], [ 4.22931, 43.765793 ], [ 4.226665, 43.766159 ], [ 4.226057474654605, 43.766715958289161 ], [ 4.22854, 43.766499 ] ] ], [ [ [ 4.277172, 43.790748 ], [ 4.27748, 43.790428 ], [ 4.282488095817876, 43.788203186977341 ], [ 4.281151002816636, 43.787993724822869 ], [ 4.278377, 43.789008 ], [ 4.276653892390713, 43.787620419050732 ], [ 4.272560533054808, 43.787409810238003 ], [ 4.267889, 43.788433 ], [ 4.267303, 43.788834 ], [ 4.274224, 43.789048 ], [ 4.274584, 43.789308 ], [ 4.275185, 43.789641 ], [ 4.275412, 43.789788 ], [ 4.277172, 43.790748 ] ] ], [ [ [ 4.284073912981004, 43.7884516129876 ], [ 4.286577, 43.789569 ], [ 4.28698, 43.789805 ], [ 4.287612044711035, 43.790351282972331 ], [ 4.287466, 43.788983 ], [ 4.284073912981004, 43.7884516129876 ] ] ] ] } },
{ "type": "Feature", "properties": { "codgeo": "30333", "value": 720, "isochrone_group": 12.0, "nb_agences": 1 }, "geometry": { "type": "MultiPolygon", "coordinates": [ [ [ [ 4.214847, 43.791952 ], [ 4.214706, 43.794536 ], [ 4.214148, 43.796348 ], [ 4.213791, 43.797282 ], [ 4.217154, 43.798567 ], [ 4.224423, 43.795112 ], [ 4.230589, 43.7952 ], [ 4.234186, 43.795056 ], [ 4.242025, 43.79549 ], [ 4.243019, 43.796792 ], [ 4.245374, 43.799583 ], [ 4.248609, 43.805639 ], [ 4.24922, 43.80618 ], [ 4.249454, 43.806308 ], [ 4.250169, 43.806435 ], [ 4.2545, 43.805662 ], [ 4.254617, 43.805632 ], [ 4.254867, 43.805111 ], [ 4.255394, 43.80393 ], [ 4.255746, 43.803302 ], [ 4.25850577535875, 43.800571544963802 ], [ 4.257357, 43.801078 ], [ 4.254557, 43.802408 ], [ 4.252665, 43.802957 ], [ 4.250445, 43.80248 ], [ 4.248965, 43.801344 ], [ 4.248072, 43.798754 ], [ 4.241878, 43.793824 ], [ 4.234238, 43.792886 ], [ 4.231729, 43.794418 ], [ 4.230809, 43.794636 ], [ 4.230464, 43.794627 ], [ 4.226573, 43.794077 ], [ 4.220008, 43.792813 ], [ 4.219696, 43.792669 ], [ 4.220035, 43.790419 ], [ 4.220092, 43.789507 ], [ 4.21685, 43.781589 ], [ 4.216453304376543, 43.78144552592294 ], [ 4.215094, 43.784189 ], [ 4.21579, 43.786341 ], [ 4.215626, 43.786617 ], [ 4.215502, 43.786828 ], [ 4.215278, 43.787153 ], [ 4.213697, 43.787507 ], [ 4.212970859384248, 43.788054583362367 ], [ 4.214847, 43.791952 ] ] ], [ [ [ 4.266429, 43.797196 ], [ 4.267399, 43.795866 ], [ 4.274538, 43.793013 ], [ 4.274813, 43.793011 ], [ 4.276002, 43.792743 ], [ 4.281330854358299, 43.791766847162457 ], [ 4.278171786609599, 43.790120678432302 ], [ 4.27748, 43.790428 ], [ 4.277172, 43.790748 ], [ 4.275412, 43.789788 ], [ 4.275085321951249, 43.789585770731719 ], [ 4.275074677902469, 43.789579873114022 ], [ 4.267303, 43.788834 ], [ 4.264827, 43.796796 ], [ 4.264827, 43.796896 ], [ 4.263876, 43.798204 ], [ 4.259342131509886, 43.800202824672589 ], [ 4.264179, 43.799216 ], [ 4.265862, 43.797715 ], [ 4.266429, 43.797196 ] ] ], [ [ [ 4.313136, 43.731055 ], [ 4.316578, 43.730512 ], [ 4.317148, 43.730547 ], [ 4.31814, 43.730531 ], [ 4.318585, 43.726145 ], [ 4.318748, 43.725089 ], [ 4.318919, 43.724244 ], [ 4.3181155087925, 43.722903779870244 ], [ 4.317517, 43.722988 ], [ 4.314023208546836, 43.724892122785704 ], [ 4.314707, 43.726616 ], [ 4.315643, 43.728654 ], [ 4.315199, 43.729156 ], [ 4.314552, 43.729942 ], [ 4.314043, 43.730154 ], [ 4.313824, 43.730113 ], [ 4.313202, 43.729887 ], [ 4.310992, 43.729641 ], [ 4.310337, 43.72954 ], [ 4.306922, 43.729805 ], [ 4.306009, 43.730121 ], [ 4.30526, 43.730437 ], [ 4.311606, 43.731803 ], [ 4.312023, 43.7317 ], [ 4.313136, 43.731055 ] ] ], [ [ [ 4.311669282637707, 43.74225506424451 ], [ 4.314033989605098, 43.743584593527963 ], [ 4.315521, 43.743768 ], [ 4.320264, 43.744101 ], [ 4.324529, 43.743701 ], [ 4.332078, 43.744153 ], [ 4.332936421492239, 43.743058643501286 ], [ 4.326653, 43.742348 ], [ 4.323578, 43.742525 ], [ 4.319746, 43.743885 ], [ 4.315149, 43.742767 ], [ 4.311669282637707, 43.74225506424451 ] ] ] ] } },
{ "type": "Feature", "properties": { "codgeo": "30333", "value": 780, "isochrone_group": 13.0, "nb_agences": 1 }, "geometry": { "type": "MultiPolygon", "coordinates": [ [ [ [ 4.213791, 43.797282 ], [ 4.214148, 43.796348 ], [ 4.214706, 43.794536 ], [ 4.214761515729347, 43.793518605357214 ], [ 4.212073, 43.795854 ], [ 4.210986, 43.798233 ], [ 4.210023, 43.798814 ], [ 4.209502659388352, 43.798541983828635 ], [ 4.215615, 43.803446 ], [ 4.21728, 43.804906 ], [ 4.21923, 43.80328 ], [ 4.219295, 43.803209 ], [ 4.219737, 43.802275 ], [ 4.224423, 43.795112 ], [ 4.217154, 43.798567 ], [ 4.213791, 43.797282 ] ] ], [ [ [ 4.240784, 43.798119 ], [ 4.24213, 43.804361 ], [ 4.242086, 43.805269 ], [ 4.242091, 43.805496 ], [ 4.24221, 43.80611 ], [ 4.242909, 43.807876 ], [ 4.246259, 43.808857 ], [ 4.247185, 43.809084 ], [ 4.249652, 43.809448 ], [ 4.255664, 43.807657 ], [ 4.257794, 43.80551 ], [ 4.264177, 43.80046 ], [ 4.269391, 43.795228 ], [ 4.275509, 43.794069 ], [ 4.284361, 43.794326 ], [ 4.278754559248442, 43.792238779328883 ], [ 4.276002, 43.792743 ], [ 4.274813, 43.793011 ], [ 4.274538, 43.793013 ], [ 4.267399, 43.795866 ], [ 4.266429, 43.797196 ], [ 4.265862, 43.797715 ], [ 4.264179, 43.799216 ], [ 4.258758, 43.800322 ], [ 4.255746, 43.803302 ], [ 4.255394, 43.80393 ], [ 4.254867, 43.805111 ], [ 4.254617, 43.805632 ], [ 4.2545, 43.805662 ], [ 4.252177641067755, 43.806076496295248 ], [ 4.251868, 43.80642 ], [ 4.251754, 43.806426 ], [ 4.251525653123614, 43.806192863573187 ], [ 4.250169, 43.806435 ], [ 4.249454, 43.806308 ], [ 4.24922, 43.80618 ], [ 4.248609, 43.805639 ], [ 4.245374, 43.799583 ], [ 4.243019, 43.796792 ], [ 4.242025, 43.79549 ], [ 4.234186, 43.795056 ], [ 4.230589, 43.7952 ], [ 4.224423, 43.795112 ], [ 4.230318, 43.796988 ], [ 4.233279, 43.79736 ], [ 4.233738, 43.79738 ], [ 4.240784, 43.798119 ] ] ], [ [ [ 4.308874, 43.740561 ], [ 4.31509, 43.742231 ], [ 4.318669, 43.741842 ], [ 4.320624481787032, 43.743573221495211 ], [ 4.323578, 43.742525 ], [ 4.326653, 43.742348 ], [ 4.330705064757322, 43.742806281127592 ], [ 4.331031, 43.742459 ], [ 4.332600454644475, 43.740040758660022 ], [ 4.330661, 43.73955 ], [ 4.328784, 43.740867 ], [ 4.326907, 43.742185 ], [ 4.318547, 43.740175 ], [ 4.314125, 43.732947 ], [ 4.318884, 43.730517 ], [ 4.320177, 43.730395 ], [ 4.320781, 43.73041 ], [ 4.320876, 43.726812 ], [ 4.320761187252648, 43.724822415943919 ], [ 4.319127, 43.725036 ], [ 4.318684373474087, 43.725501206204683 ], [ 4.318585, 43.726145 ], [ 4.31814, 43.730531 ], [ 4.317148, 43.730547 ], [ 4.316578, 43.730512 ], [ 4.313136, 43.731055 ], [ 4.312023, 43.7317 ], [ 4.311606, 43.731803 ], [ 4.30526, 43.730437 ], [ 4.304096, 43.73087 ], [ 4.302317, 43.731698 ], [ 4.299982, 43.733058 ], [ 4.299388, 43.733556 ], [ 4.298495, 43.734292 ], [ 4.298748017171135, 43.736041847937798 ], [ 4.301679, 43.738368 ], [ 4.302531, 43.738362 ], [ 4.303578, 43.738393 ], [ 4.304734, 43.738273 ], [ 4.306935060711544, 43.741541311816476 ], [ 4.308167, 43.741318 ], [ 4.308592, 43.740824 ], [ 4.30873, 43.740665 ], [ 4.308874, 43.740561 ] ] ] ] } },
{ "type": "Feature", "properties": { "codgeo": "30333", "value": 840, "isochrone_group": 14.0, "nb_agences": 1 }, "geometry": { "type": "MultiPolygon", "coordinates": [ [ [ [ 4.242823, 43.810889 ], [ 4.244429, 43.811908 ], [ 4.244573, 43.811947 ], [ 4.245122, 43.81201 ], [ 4.245445534864346, 43.812032834397137 ], [ 4.245328, 43.811936 ], [ 4.245437788256143, 43.808616519784856 ], [ 4.242909, 43.807876 ], [ 4.24221, 43.80611 ], [ 4.242091, 43.805496 ], [ 4.242086, 43.805269 ], [ 4.24213, 43.804361 ], [ 4.240784, 43.798119 ], [ 4.233738, 43.79738 ], [ 4.233279, 43.79736 ], [ 4.230318, 43.796988 ], [ 4.224423, 43.795112 ], [ 4.219737, 43.802275 ], [ 4.219295, 43.803209 ], [ 4.21923, 43.80328 ], [ 4.21728, 43.804906 ], [ 4.215615, 43.803446 ], [ 4.213712198355819, 43.801919355686991 ], [ 4.209444709812871, 43.799428942321249 ], [ 4.21032, 43.802647 ], [ 4.213521, 43.807232 ], [ 4.215351, 43.808262 ], [ 4.22354, 43.811504 ], [ 4.225979, 43.810516 ], [ 4.232941, 43.80796 ], [ 4.235538, 43.808438 ], [ 4.236368, 43.808672 ], [ 4.23704, 43.808787 ], [ 4.242823, 43.810889 ] ] ], [ [ [ 4.256929, 43.809032 ], [ 4.258396, 43.808514 ], [ 4.26208, 43.806203 ], [ 4.265569, 43.803396 ], [ 4.266267180823996, 43.798362603361888 ], [ 4.264756875748473, 43.799878122378978 ], [ 4.264141, 43.800866 ], [ 4.262618664516995, 43.801692898979958 ], [ 4.257794, 43.80551 ], [ 4.255664, 43.807657 ], [ 4.249969329431972, 43.809353466232089 ], [ 4.250123, 43.809427 ], [ 4.250936575384963, 43.810784917038433 ], [ 4.251172, 43.810693 ], [ 4.256929, 43.809032 ] ] ], [ [ [ 4.318595680960656, 43.740186704393651 ], [ 4.3253641217451, 43.741814044821481 ], [ 4.32862, 43.738716 ], [ 4.327596, 43.735265 ], [ 4.327449013343362, 43.733793068047369 ], [ 4.324109, 43.73045 ], [ 4.32436, 43.726859 ], [ 4.324384060370557, 43.726623908778251 ], [ 4.322445, 43.727087 ], [ 4.320842067973519, 43.728097130855588 ], [ 4.320781, 43.73041 ], [ 4.320177, 43.730395 ], [ 4.318884, 43.730517 ], [ 4.314125, 43.732947 ], [ 4.316762304018833, 43.73725781715244 ], [ 4.318786, 43.737597 ], [ 4.318557, 43.738965 ], [ 4.318544, 43.740107 ], [ 4.318595680960656, 43.740186704393651 ] ] ], [ [ [ 4.27584535612861, 43.794180600558647 ], [ 4.275799029259664, 43.794077420415682 ], [ 4.275509, 43.794069 ], [ 4.27584535612861, 43.794180600558647 ] ] ], [ [ [ 4.273803, 43.796262 ], [ 4.275509, 43.794069 ], [ 4.270345522552367, 43.7950471742991 ], [ 4.269313554132935, 43.795305713229077 ], [ 4.267577289243145, 43.797047972128858 ], [ 4.273651, 43.796265 ], [ 4.273803, 43.796262 ] ] ] ] } },
{ "type": "Feature", "properties": { "codgeo": "30333", "value": 900, "isochrone_group": 15.0, "nb_agences": 1 }, "geometry": { "type": "MultiPolygon", "coordinates": [ [ [ [ 4.237948, 43.817321 ], [ 4.237811, 43.816955 ], [ 4.237977, 43.810172 ], [ 4.23795725984478, 43.809142364947284 ], [ 4.236583, 43.808714 ], [ 4.236583807006378, 43.808708931258536 ], [ 4.236368, 43.808672 ], [ 4.235538, 43.808438 ], [ 4.232941, 43.80796 ], [ 4.225979, 43.810516 ], [ 4.22354, 43.811504 ], [ 4.215351, 43.808262 ], [ 4.213521, 43.807232 ], [ 4.211294665788601, 43.804043077051141 ], [ 4.206066, 43.801104 ], [ 4.205549712444989, 43.801311568450714 ], [ 4.207107, 43.806328 ], [ 4.209944, 43.808544 ], [ 4.21532, 43.812919 ], [ 4.221594, 43.814601 ], [ 4.229409, 43.814258 ], [ 4.23732, 43.818235 ], [ 4.242568, 43.817694 ], [ 4.243441679960023, 43.817457636398458 ], [ 4.243409, 43.817448 ], [ 4.239654, 43.817636 ], [ 4.239225, 43.817734 ], [ 4.237948, 43.817321 ] ] ], [ [ [ 4.274513888966563, 43.798368777933128 ], [ 4.273514, 43.796369 ], [ 4.266429, 43.797196 ], [ 4.265569, 43.803396 ], [ 4.26208, 43.806203 ], [ 4.258396, 43.808514 ], [ 4.256929, 43.809032 ], [ 4.253214904590911, 43.810103584588248 ], [ 4.256247, 43.812446 ], [ 4.258240190455941, 43.812301815909215 ], [ 4.258667, 43.810675 ], [ 4.260627, 43.809884 ], [ 4.262146, 43.809504 ], [ 4.262222, 43.80945 ], [ 4.264254, 43.807239 ], [ 4.26633, 43.804298 ], [ 4.273183, 43.798487 ], [ 4.274513888966563, 43.798368777933128 ] ] ] ] } },
{ "type": "Feature", "properties": { "codgeo": "30333", "value": 960, "isochrone_group": 16.0, "nb_agences": 1 }, "geometry": { "type": "MultiPolygon", "coordinates": [ [ [ [ 4.216199, 43.815953 ], [ 4.219767, 43.816435 ], [ 4.222143545120043, 43.814576880489312 ], [ 4.221594, 43.814601 ], [ 4.21532, 43.812919 ], [ 4.211419741654796, 43.80974496163315 ], [ 4.204622873767613, 43.81009873172335 ], [ 4.206739, 43.811729 ], [ 4.214277, 43.814344 ], [ 4.216199, 43.815953 ] ] ], [ [ [ 4.229409, 43.814258 ], [ 4.226034735592468, 43.814406096313746 ], [ 4.230507, 43.818751 ], [ 4.230617866813659, 43.818917195629155 ], [ 4.23092, 43.81796 ], [ 4.230015178504764, 43.814562736684792 ], [ 4.229409, 43.814258 ] ] ], [ [ [ 4.264254, 43.807239 ], [ 4.262222, 43.80945 ], [ 4.262177358747493, 43.809481718784667 ], [ 4.263657, 43.809369 ], [ 4.264571, 43.809022 ], [ 4.2664282981597, 43.807845582210916 ], [ 4.264395154527519, 43.80703903108602 ], [ 4.264254, 43.807239 ] ] ] ] } },
{ "type": "Feature", "properties": { "codgeo": "30333", "value": 1020, "isochrone_group": 17.0, "nb_agences": 1 }, "geometry": { "type": "MultiPolygon", "coordinates": [ [ [ [ 4.369549, 43.758571 ], [ 4.369508134708726, 43.758568345847664 ], [ 4.369944, 43.760471 ], [ 4.369549, 43.758571 ] ] ], [ [ [ 4.217529, 43.821029 ], [ 4.21903, 43.81961 ], [ 4.227797, 43.820328 ], [ 4.227721240971321, 43.82127741603248 ], [ 4.228628, 43.820491 ], [ 4.225393859647579, 43.814339962514651 ], [ 4.221056676334054, 43.815426656948333 ], [ 4.219767, 43.816435 ], [ 4.218847141210248, 43.816310736564837 ], [ 4.218042, 43.816781 ], [ 4.217458, 43.816799 ], [ 4.2173, 43.816785 ], [ 4.216464491536724, 43.815988865168364 ], [ 4.216199, 43.815953 ], [ 4.21583253624117, 43.815646215302841 ], [ 4.215302, 43.818387 ], [ 4.215223, 43.819399 ], [ 4.215323, 43.819859 ], [ 4.21561, 43.820732 ], [ 4.216613, 43.821291 ], [ 4.217529, 43.821029 ] ] ] ] } },
{ "type": "Feature", "properties": { "codgeo": "30333", "value": 1080, "isochrone_group": 18.0, "nb_agences": 1 }, "geometry": { "type": "MultiPolygon", "coordinates": [ [ [ [ 4.22222, 43.823637 ], [ 4.223517, 43.82263 ], [ 4.224432, 43.822044 ], [ 4.223743982663102, 43.819996065877966 ], [ 4.21903, 43.81961 ], [ 4.217529, 43.821029 ], [ 4.216636, 43.821285 ], [ 4.21662019922286, 43.821288940833639 ], [ 4.216613, 43.821291 ], [ 4.216612673219339, 43.821290817875983 ], [ 4.212672756851711, 43.822273462894231 ], [ 4.214338, 43.823508 ], [ 4.21713910156799, 43.824788460684616 ], [ 4.217681, 43.824703 ], [ 4.218081, 43.824725 ], [ 4.22222, 43.823637 ] ] ], [ [ [ 4.183851943206387, 43.796736457607949 ], [ 4.184721, 43.798155 ], [ 4.184831425878346, 43.798274964751116 ], [ 4.185057, 43.797358 ], [ 4.183851943206387, 43.796736457607949 ] ] ] ] } },
{ "type": "Feature", "properties": { "codgeo": "30333", "value": 1140, "isochrone_group": 19.0, "nb_agences": 1 }, "geometry": { "type": "MultiPolygon", "coordinates": [ [ [ [ 4.175226539405673, 43.795030810739007 ], [ 4.175220109849112, 43.79502727619591 ], [ 4.175214, 43.795031 ], [ 4.170715, 43.794321 ], [ 4.170318348835811, 43.794813908978362 ], [ 4.175253, 43.795053 ], [ 4.175266944163533, 43.795053022590771 ], [ 4.175226539405673, 43.795030810739007 ] ] ], [ [ [ 4.184395532676027, 43.797623746807247 ], [ 4.178339, 43.793893 ], [ 4.1762680288173, 43.795054644437137 ], [ 4.180191, 43.795061 ], [ 4.184014, 43.799426 ], [ 4.184375426149081, 43.80012861567166 ], [ 4.184831425878346, 43.798274964751116 ], [ 4.184721, 43.798155 ], [ 4.184395532676027, 43.797623746807247 ] ] ] ] } },
{ "type": "Feature", "properties": { "codgeo": "30333", "value": 1200, "isochrone_group": 20.0, "nb_agences": 1 }, "geometry": { "type": "MultiPolygon", "coordinates": [ [ [ [ 4.16999, 43.794798 ], [ 4.165776423234624, 43.795963457403182 ], [ 4.165629495920491, 43.797576596872958 ], [ 4.166717, 43.796719 ], [ 4.166879, 43.796621 ], [ 4.172183081842149, 43.79490425800298 ], [ 4.16999, 43.794798 ] ] ], [ [ [ 4.184021327069859, 43.808521491110149 ], [ 4.18648629970139, 43.804022666090241 ], [ 4.185859, 43.803072 ], [ 4.1858, 43.802898 ], [ 4.184014, 43.799426 ], [ 4.180816031133124, 43.795774643969672 ], [ 4.17998653958089, 43.795322973410947 ], [ 4.183919, 43.801984 ], [ 4.184011, 43.803904 ], [ 4.184021327069859, 43.808521491110149 ] ] ] ] } }
]
}
