{
"type": "FeatureCollection",
"name": "Credit_Mutuel",
"crs": { "type": "name", "properties": { "name": "urn:ogc:def:crs:OGC:1.3:CRS84" } },
"features": [
{ "type": "Feature", "properties": { "codgeo": "31445", "value": 60, "isochrone_group": 1.0, "nb_agences": 1 }, "geometry": { "type": "Polygon", "coordinates": [ [ [ 1.522949, 43.585409 ], [ 1.523213, 43.585165 ], [ 1.525638, 43.584226 ], [ 1.526747, 43.584326 ], [ 1.527105, 43.584361 ], [ 1.529309, 43.584988 ], [ 1.529567, 43.585224 ], [ 1.529667, 43.58557 ], [ 1.527566, 43.587291 ], [ 1.52698, 43.587634 ], [ 1.526871, 43.587662 ], [ 1.526516, 43.587723 ], [ 1.522854, 43.586463 ], [ 1.522719, 43.586129 ], [ 1.522949, 43.585409 ] ] ] } },
{ "type": "Feature", "properties": { "codgeo": "31445", "value": 120, "isochrone_group": 2.0, "nb_agences": 1 }, "geometry": { "type": "Polygon", "coordinates": [ [ [ 1.517079, 43.588299 ], [ 1.517352, 43.588533 ], [ 1.518918, 43.587706 ], [ 1.520447, 43.587265 ], [ 1.525023, 43.589825 ], [ 1.525219, 43.590127 ], [ 1.527859, 43.590602 ], [ 1.528152, 43.590393 ], [ 1.531313, 43.586893 ], [ 1.532926, 43.586707 ], [ 1.533645, 43.586454 ], [ 1.533654, 43.586448 ], [ 1.533642, 43.583619 ], [ 1.533433, 43.583326 ], [ 1.52894, 43.582662 ], [ 1.524784, 43.582506 ], [ 1.522494, 43.583379 ], [ 1.521954, 43.58385 ], [ 1.521691, 43.584095 ], [ 1.518029, 43.58804 ], [ 1.517114, 43.588258 ], [ 1.517079, 43.588299 ] ], [ [ 1.523213, 43.585165 ], [ 1.525638, 43.584226 ], [ 1.526747, 43.584326 ], [ 1.527105, 43.584361 ], [ 1.529309, 43.584988 ], [ 1.529567, 43.585224 ], [ 1.529667, 43.58557 ], [ 1.527566, 43.587291 ], [ 1.52698, 43.587634 ], [ 1.526871, 43.587662 ], [ 1.526516, 43.587723 ], [ 1.522854, 43.586463 ], [ 1.522719, 43.586129 ], [ 1.522949, 43.585409 ], [ 1.523213, 43.585165 ] ] ] } },
{ "type": "Feature", "properties": { "codgeo": "31445", "value": 180, "isochrone_group": 3.0, "nb_agences": 1 }, "geometry": { "type": "Polygon", "coordinates": [ [ [ 1.511222, 43.59074 ], [ 1.511353, 43.590966 ], [ 1.518402, 43.590835 ], [ 1.520582, 43.591873 ], [ 1.521092, 43.591722 ], [ 1.521602, 43.591572 ], [ 1.530062, 43.593861 ], [ 1.530393, 43.593719 ], [ 1.534598, 43.587505 ], [ 1.53723, 43.587377 ], [ 1.537535, 43.587409 ], [ 1.537857, 43.587443 ], [ 1.538141, 43.587446 ], [ 1.538424, 43.58745 ], [ 1.538429, 43.58709 ], [ 1.538322, 43.580401 ], [ 1.53823, 43.580053 ], [ 1.53607, 43.580171 ], [ 1.535188, 43.580239 ], [ 1.527165, 43.581295 ], [ 1.523126, 43.581706 ], [ 1.52002, 43.582819 ], [ 1.514583, 43.585463 ], [ 1.5143, 43.585685 ], [ 1.511198, 43.590641 ], [ 1.511222, 43.59074 ] ], [ [ 1.518029, 43.58804 ], [ 1.521691, 43.584095 ], [ 1.521954, 43.58385 ], [ 1.522494, 43.583379 ], [ 1.524784, 43.582506 ], [ 1.52894, 43.582662 ], [ 1.533433, 43.583326 ], [ 1.533642, 43.583619 ], [ 1.533654, 43.586448 ], [ 1.533645, 43.586454 ], [ 1.532926, 43.586707 ], [ 1.531313, 43.586893 ], [ 1.528152, 43.590393 ], [ 1.527859, 43.590602 ], [ 1.525219, 43.590127 ], [ 1.525023, 43.589825 ], [ 1.520447, 43.587265 ], [ 1.518918, 43.587706 ], [ 1.517352, 43.588533 ], [ 1.517079, 43.588299 ], [ 1.517114, 43.588258 ], [ 1.518029, 43.58804 ] ] ] } },
{ "type": "Feature", "properties": { "codgeo": "31445", "value": 240, "isochrone_group": 4.0, "nb_agences": 1 }, "geometry": { "type": "Polygon", "coordinates": [ [ [ 1.526427, 43.581224 ], [ 1.525661, 43.581153 ], [ 1.520519, 43.580659 ], [ 1.520162, 43.580614 ], [ 1.511954, 43.581714 ], [ 1.511868, 43.581733 ], [ 1.511057, 43.583574 ], [ 1.508334, 43.591637 ], [ 1.5076, 43.59192 ], [ 1.507165, 43.592079 ], [ 1.506722, 43.592241 ], [ 1.506551, 43.592313 ], [ 1.506206, 43.592492 ], [ 1.505778, 43.592715 ], [ 1.505757, 43.592728 ], [ 1.505943, 43.593036 ], [ 1.514826, 43.592382 ], [ 1.516177, 43.592905 ], [ 1.520013, 43.592307 ], [ 1.528414, 43.594744 ], [ 1.531174, 43.596199 ], [ 1.53714, 43.595541 ], [ 1.537163, 43.595182 ], [ 1.540997, 43.5877 ], [ 1.543307, 43.586582 ], [ 1.545925, 43.578355 ], [ 1.545836, 43.578006 ], [ 1.538574, 43.579114 ], [ 1.536521, 43.579383 ], [ 1.529503112017834, 43.580987253983437 ], [ 1.535188, 43.580239 ], [ 1.53607, 43.580171 ], [ 1.53823, 43.580053 ], [ 1.538322, 43.580401 ], [ 1.538429, 43.58709 ], [ 1.538424, 43.58745 ], [ 1.538141, 43.587446 ], [ 1.537857, 43.587443 ], [ 1.537535, 43.587409 ], [ 1.53723, 43.587377 ], [ 1.534598, 43.587505 ], [ 1.530393, 43.593719 ], [ 1.530062, 43.593861 ], [ 1.521602, 43.591572 ], [ 1.521092, 43.591722 ], [ 1.520582, 43.591873 ], [ 1.518402, 43.590835 ], [ 1.511353, 43.590966 ], [ 1.511222, 43.59074 ], [ 1.511198, 43.590641 ], [ 1.5143, 43.585685 ], [ 1.514583, 43.585463 ], [ 1.52002, 43.582819 ], [ 1.523126, 43.581706 ], [ 1.527165, 43.581295 ], [ 1.527248599372937, 43.58128399651779 ], [ 1.526427, 43.581224 ] ] ] } },
{ "type": "Feature", "properties": { "codgeo": "31445", "value": 300, "isochrone_group": 5.0, "nb_agences": 1 }, "geometry": { "type": "MultiPolygon", "coordinates": [ [ [ [ 1.521649, 43.57987 ], [ 1.51949, 43.579927 ], [ 1.516838, 43.580131 ], [ 1.50956, 43.577497 ], [ 1.50931, 43.577755 ], [ 1.509001, 43.580144 ], [ 1.509022, 43.581515 ], [ 1.509112, 43.581864 ], [ 1.511031, 43.583298 ], [ 1.508174, 43.59105 ], [ 1.506008, 43.591783 ], [ 1.505731, 43.591893 ], [ 1.50507, 43.592183 ], [ 1.504605, 43.592511 ], [ 1.500427, 43.594291 ], [ 1.500503, 43.594642 ], [ 1.506807, 43.594987 ], [ 1.50702, 43.594966 ], [ 1.510647, 43.593651 ], [ 1.516801, 43.593898 ], [ 1.520013, 43.592307 ], [ 1.516177, 43.592905 ], [ 1.514826, 43.592382 ], [ 1.505943, 43.593036 ], [ 1.505757, 43.592728 ], [ 1.505778, 43.592715 ], [ 1.506206, 43.592492 ], [ 1.506551, 43.592313 ], [ 1.506722, 43.592241 ], [ 1.507165, 43.592079 ], [ 1.5076, 43.59192 ], [ 1.508334, 43.591637 ], [ 1.511057, 43.583574 ], [ 1.511868, 43.581733 ], [ 1.511954, 43.581714 ], [ 1.520162, 43.580614 ], [ 1.520519, 43.580659 ], [ 1.525661, 43.581153 ], [ 1.526427, 43.581224 ], [ 1.527591, 43.581309 ], [ 1.52803, 43.581324 ], [ 1.521649, 43.57987 ] ] ], [ [ [ 1.535126, 43.598594 ], [ 1.538574, 43.598801 ], [ 1.544153, 43.596943 ], [ 1.544136, 43.596583 ], [ 1.544416, 43.588415 ], [ 1.550605, 43.5859 ], [ 1.554064, 43.583913 ], [ 1.554087, 43.583554 ], [ 1.55605, 43.57493 ], [ 1.556379, 43.574777 ], [ 1.556227, 43.574451 ], [ 1.548527, 43.57376 ], [ 1.548167, 43.573746 ], [ 1.544083, 43.577813 ], [ 1.538574, 43.579114 ], [ 1.545836, 43.578006 ], [ 1.545925, 43.578355 ], [ 1.543307, 43.586582 ], [ 1.540997, 43.5877 ], [ 1.537163, 43.595182 ], [ 1.53714, 43.595541 ], [ 1.531174, 43.596199 ], [ 1.535126, 43.598594 ] ] ] ] } },
{ "type": "Feature", "properties": { "codgeo": "31445", "value": 360, "isochrone_group": 6.0, "nb_agences": 1 }, "geometry": { "type": "Polygon", "coordinates": [ [ [ 1.528882, 43.579887 ], [ 1.528323, 43.579728 ], [ 1.528086, 43.579705 ], [ 1.527318, 43.579682 ], [ 1.525541, 43.579537 ], [ 1.518071, 43.57858 ], [ 1.513312, 43.57507 ], [ 1.511874, 43.57422 ], [ 1.506341, 43.572996 ], [ 1.505859, 43.57289 ], [ 1.503712, 43.5733 ], [ 1.503619, 43.573378 ], [ 1.505606, 43.578769 ], [ 1.508738, 43.581816 ], [ 1.507045, 43.590398 ], [ 1.506095, 43.590747 ], [ 1.505807, 43.590874 ], [ 1.503682, 43.591713 ], [ 1.503238, 43.591843 ], [ 1.502387, 43.592074 ], [ 1.501662, 43.592299 ], [ 1.500514, 43.592554 ], [ 1.500102, 43.592629 ], [ 1.496482, 43.592634 ], [ 1.496479, 43.592634 ], [ 1.496986, 43.596198 ], [ 1.504063, 43.597428 ], [ 1.507882, 43.598264 ], [ 1.509158, 43.597934 ], [ 1.513051, 43.597241 ], [ 1.518822, 43.593819 ], [ 1.525601, 43.597778 ], [ 1.526388, 43.601291 ], [ 1.531931, 43.6007 ], [ 1.53512, 43.600228 ], [ 1.536116, 43.600085 ], [ 1.53715, 43.599864 ], [ 1.537898, 43.599618 ], [ 1.540518, 43.5988 ], [ 1.547707, 43.600598 ], [ 1.548437, 43.601202 ], [ 1.551024, 43.598698 ], [ 1.554066, 43.592986 ], [ 1.556923, 43.590794 ], [ 1.564297, 43.58768 ], [ 1.565146, 43.584181 ], [ 1.564534, 43.584033 ], [ 1.564061, 43.583866 ], [ 1.561738, 43.583028 ], [ 1.562998, 43.574124 ], [ 1.565816, 43.573009 ], [ 1.567446, 43.572195 ], [ 1.568063, 43.571913 ], [ 1.566702, 43.56858 ], [ 1.566468, 43.568676 ], [ 1.565891, 43.568948 ], [ 1.562896, 43.570103 ], [ 1.560182, 43.571154 ], [ 1.555141, 43.571115 ], [ 1.550701, 43.568596 ], [ 1.547009, 43.56797 ], [ 1.545511, 43.567844 ], [ 1.544989, 43.567908 ], [ 1.543293, 43.568273 ], [ 1.544051, 43.571793 ], [ 1.539557, 43.578113 ], [ 1.537142828617701, 43.579301523186487 ], [ 1.538574, 43.579114 ], [ 1.544083, 43.577813 ], [ 1.548167, 43.573746 ], [ 1.548527, 43.57376 ], [ 1.556227, 43.574451 ], [ 1.556379, 43.574777 ], [ 1.55605, 43.57493 ], [ 1.554087, 43.583554 ], [ 1.554064, 43.583913 ], [ 1.550605, 43.5859 ], [ 1.544416, 43.588415 ], [ 1.544136, 43.596583 ], [ 1.544153, 43.596943 ], [ 1.538574, 43.598801 ], [ 1.535126, 43.598594 ], [ 1.531174, 43.596199 ], [ 1.528414, 43.594744 ], [ 1.520013, 43.592307 ], [ 1.516801, 43.593898 ], [ 1.510647, 43.593651 ], [ 1.50702, 43.594966 ], [ 1.506807, 43.594987 ], [ 1.500503, 43.594642 ], [ 1.500427, 43.594291 ], [ 1.504605, 43.592511 ], [ 1.50507, 43.592183 ], [ 1.505731, 43.591893 ], [ 1.506008, 43.591783 ], [ 1.508174, 43.59105 ], [ 1.511031, 43.583298 ], [ 1.509112, 43.581864 ], [ 1.509022, 43.581515 ], [ 1.509001, 43.580144 ], [ 1.50931, 43.577755 ], [ 1.50956, 43.577497 ], [ 1.516838, 43.580131 ], [ 1.51949, 43.579927 ], [ 1.521649, 43.57987 ], [ 1.52803, 43.581324 ], [ 1.532876775835995, 43.580216051360544 ], [ 1.528882, 43.579887 ] ] ] } },
{ "type": "Feature", "properties": { "codgeo": "31445", "value": 420, "isochrone_group": 7.0, "nb_agences": 1 }, "geometry": { "type": "MultiPolygon", "coordinates": [ [ [ [ 1.513976, 43.601264 ], [ 1.519725, 43.601785 ], [ 1.522868, 43.602978 ], [ 1.525913, 43.602755 ], [ 1.531931, 43.6007 ], [ 1.526388, 43.601291 ], [ 1.525601, 43.597778 ], [ 1.518822, 43.593819 ], [ 1.513051, 43.597241 ], [ 1.509158, 43.597934 ], [ 1.507882, 43.598264 ], [ 1.504063, 43.597428 ], [ 1.496986, 43.596198 ], [ 1.496479, 43.592634 ], [ 1.496482, 43.592634 ], [ 1.500102, 43.592629 ], [ 1.500514, 43.592554 ], [ 1.501662, 43.592299 ], [ 1.502387, 43.592074 ], [ 1.503238, 43.591843 ], [ 1.503682, 43.591713 ], [ 1.505807, 43.590874 ], [ 1.498696, 43.59036 ], [ 1.49866, 43.590346 ], [ 1.496771, 43.590711 ], [ 1.496513984837924, 43.590797025736066 ], [ 1.495979, 43.592885 ], [ 1.495382, 43.59467 ], [ 1.495311873493683, 43.594659883518318 ], [ 1.495083, 43.595468 ], [ 1.494965, 43.596117 ], [ 1.494733, 43.596963 ], [ 1.494588066700978, 43.597323453709109 ], [ 1.49494, 43.597498 ], [ 1.498402, 43.598486 ], [ 1.50504, 43.60034 ], [ 1.513976, 43.601264 ] ] ], [ [ [ 1.555337, 43.605636 ], [ 1.556118, 43.602122 ], [ 1.560278, 43.595943 ], [ 1.560749, 43.595095 ], [ 1.560858, 43.594426 ], [ 1.566755, 43.587779 ], [ 1.569306, 43.587911 ], [ 1.574519, 43.587266 ], [ 1.575725, 43.585236 ], [ 1.575596, 43.583831 ], [ 1.574184, 43.58291 ], [ 1.573472, 43.582429 ], [ 1.571529, 43.582827 ], [ 1.570777, 43.582926 ], [ 1.570501, 43.582971 ], [ 1.569923, 43.583106 ], [ 1.569073, 43.583273 ], [ 1.563443, 43.580954 ], [ 1.565816, 43.573009 ], [ 1.562998, 43.574124 ], [ 1.561738, 43.583028 ], [ 1.564061, 43.583866 ], [ 1.564534, 43.584033 ], [ 1.565146, 43.584181 ], [ 1.564297, 43.58768 ], [ 1.556923, 43.590794 ], [ 1.554066, 43.592986 ], [ 1.551024, 43.598698 ], [ 1.548437, 43.601202 ], [ 1.547707, 43.600598 ], [ 1.540518, 43.5988 ], [ 1.537898, 43.599618 ], [ 1.53715, 43.599864 ], [ 1.536116, 43.600085 ], [ 1.53512, 43.600228 ], [ 1.542386, 43.603013 ], [ 1.547285, 43.604746 ], [ 1.555337, 43.605636 ] ] ], [ [ [ 1.578617, 43.567164 ], [ 1.577388, 43.56378 ], [ 1.575543, 43.56445 ], [ 1.574991, 43.564675 ], [ 1.574793, 43.564761 ], [ 1.574278, 43.56504 ], [ 1.570807, 43.566812 ], [ 1.567592, 43.568274 ], [ 1.566801, 43.568542 ], [ 1.566702644553007, 43.568581578468162 ], [ 1.568063, 43.571913 ], [ 1.567446, 43.572195 ], [ 1.565816, 43.573009 ], [ 1.571304, 43.573005 ], [ 1.574822, 43.571568 ], [ 1.578617, 43.567164 ] ] ], [ [ [ 1.548098, 43.565737 ], [ 1.547224936158587, 43.565606496484463 ], [ 1.545991, 43.566576 ], [ 1.54583536622305, 43.567871283140263 ], [ 1.547009, 43.56797 ], [ 1.550701, 43.568596 ], [ 1.555141, 43.571115 ], [ 1.560182, 43.571154 ], [ 1.562896, 43.570103 ], [ 1.563845122232266, 43.569736977903752 ], [ 1.556535, 43.568689 ], [ 1.554412, 43.565781 ], [ 1.548098, 43.565737 ] ] ], [ [ [ 1.53494, 43.580386 ], [ 1.539557, 43.578113 ], [ 1.544034446409372, 43.571816279637908 ], [ 1.540207, 43.572695 ], [ 1.539382922434186, 43.57257980636178 ], [ 1.539552, 43.572872 ], [ 1.53494, 43.580386 ] ] ], [ [ [ 1.516643, 43.573087 ], [ 1.515291, 43.571996 ], [ 1.510558751926996, 43.569159734053969 ], [ 1.508998, 43.569339 ], [ 1.506982408210678, 43.568927804589421 ], [ 1.50681457267173, 43.569001791791301 ], [ 1.506705, 43.569385 ], [ 1.50492573771718, 43.573068219625512 ], [ 1.505859, 43.57289 ], [ 1.506341, 43.572996 ], [ 1.511874, 43.57422 ], [ 1.513312, 43.57507 ], [ 1.518071, 43.57858 ], [ 1.520370551836236, 43.578874601219191 ], [ 1.516976, 43.57439 ], [ 1.516706, 43.573193 ], [ 1.516643, 43.573087 ] ] ], [ [ [ 1.503341, 43.578316 ], [ 1.50367, 43.578501 ], [ 1.504186, 43.578696 ], [ 1.504597, 43.578787 ], [ 1.508738, 43.581816 ], [ 1.505606, 43.578769 ], [ 1.504119766330468, 43.574736646848308 ], [ 1.503309, 43.576415 ], [ 1.502723413900818, 43.577803819220634 ], [ 1.503341, 43.578316 ] ] ] ] } },
{ "type": "Feature", "properties": { "codgeo": "31445", "value": 480, "isochrone_group": 8.0, "nb_agences": 1 }, "geometry": { "type": "MultiPolygon", "coordinates": [ [ [ [ 1.508354, 43.605167 ], [ 1.51201, 43.602393 ], [ 1.513209, 43.601759 ], [ 1.515219429538187, 43.601376685125999 ], [ 1.513976, 43.601264 ], [ 1.50504, 43.60034 ], [ 1.498402, 43.598486 ], [ 1.495372259107335, 43.597621359906995 ], [ 1.494628034499926, 43.598430652554498 ], [ 1.494553946284068, 43.602860557953406 ], [ 1.49659, 43.602788 ], [ 1.496953, 43.602948 ], [ 1.497508, 43.60277 ], [ 1.506186, 43.604574 ], [ 1.508354, 43.605167 ] ] ], [ [ [ 1.529332, 43.602478 ], [ 1.531178, 43.601116 ], [ 1.532609984225123, 43.600563304334152 ], [ 1.531931, 43.6007 ], [ 1.525913, 43.602755 ], [ 1.522868, 43.602978 ], [ 1.522274863987495, 43.60275286119537 ], [ 1.525675, 43.604606 ], [ 1.525881, 43.604505 ], [ 1.528201, 43.603116 ], [ 1.529332, 43.602478 ] ] ], [ [ [ 1.542252, 43.609131 ], [ 1.542842, 43.608704 ], [ 1.545242, 43.606577 ], [ 1.55365, 43.609142 ], [ 1.554084, 43.610408 ], [ 1.560234, 43.609576 ], [ 1.563203, 43.606346 ], [ 1.563279, 43.59778 ], [ 1.565087, 43.597328 ], [ 1.565606, 43.59691 ], [ 1.56576, 43.595747 ], [ 1.568953, 43.589625 ], [ 1.569299, 43.589238 ], [ 1.577839, 43.588084 ], [ 1.57812, 43.588168 ], [ 1.580494, 43.588969 ], [ 1.58113, 43.588675 ], [ 1.581423, 43.588426 ], [ 1.581581, 43.58826 ], [ 1.581817, 43.586607 ], [ 1.58181, 43.58659 ], [ 1.579872, 43.58487 ], [ 1.577163, 43.581165 ], [ 1.577012, 43.580757 ], [ 1.576853, 43.580412 ], [ 1.576183, 43.579013 ], [ 1.579807, 43.571316 ], [ 1.580723, 43.571152 ], [ 1.585665, 43.564131 ], [ 1.587194, 43.563229 ], [ 1.589424, 43.562249 ], [ 1.587976, 43.558953 ], [ 1.585746, 43.559933 ], [ 1.584835, 43.560292 ], [ 1.581874, 43.561355 ], [ 1.573173, 43.560579 ], [ 1.571055, 43.559985 ], [ 1.570931, 43.560034 ], [ 1.569849, 43.561961 ], [ 1.566801, 43.568542 ], [ 1.567592, 43.568274 ], [ 1.570807, 43.566812 ], [ 1.574278, 43.56504 ], [ 1.574793, 43.564761 ], [ 1.574991, 43.564675 ], [ 1.575543, 43.56445 ], [ 1.577388, 43.56378 ], [ 1.578617, 43.567164 ], [ 1.574822, 43.571568 ], [ 1.571304, 43.573005 ], [ 1.565816, 43.573009 ], [ 1.563443, 43.580954 ], [ 1.569073, 43.583273 ], [ 1.569923, 43.583106 ], [ 1.570501, 43.582971 ], [ 1.570777, 43.582926 ], [ 1.571529, 43.582827 ], [ 1.573472, 43.582429 ], [ 1.574184, 43.58291 ], [ 1.575596, 43.583831 ], [ 1.575725, 43.585236 ], [ 1.574519, 43.587266 ], [ 1.569306, 43.587911 ], [ 1.566755, 43.587779 ], [ 1.560858, 43.594426 ], [ 1.560749, 43.595095 ], [ 1.560278, 43.595943 ], [ 1.556118, 43.602122 ], [ 1.555337, 43.605636 ], [ 1.547285, 43.604746 ], [ 1.542386, 43.603013 ], [ 1.53512, 43.600228 ], [ 1.533744, 43.600335 ], [ 1.533044716630551, 43.600475782366175 ], [ 1.537674, 43.607388 ], [ 1.539464, 43.610511 ], [ 1.541815, 43.609374 ], [ 1.542252, 43.609131 ] ] ], [ [ [ 1.55911, 43.563663 ], [ 1.557469, 43.562578 ], [ 1.554568, 43.564709 ], [ 1.553257036023785, 43.56438579726175 ], [ 1.552413878604813, 43.565767075809084 ], [ 1.554412, 43.565781 ], [ 1.556535, 43.568689 ], [ 1.564208, 43.569789 ], [ 1.565891, 43.568948 ], [ 1.566468, 43.568676 ], [ 1.566801, 43.568542 ], [ 1.560382, 43.564847 ], [ 1.560285, 43.564649 ], [ 1.559981, 43.564209 ], [ 1.55911, 43.563663 ] ] ], [ [ [ 1.506095, 43.590747 ], [ 1.507045, 43.590398 ], [ 1.508738, 43.581816 ], [ 1.504597, 43.578787 ], [ 1.504587993633268, 43.578785005889593 ], [ 1.499143128210033, 43.583821825192125 ], [ 1.498743752818445, 43.58944266403671 ], [ 1.498907989790714, 43.590375323126487 ], [ 1.505807, 43.590874 ], [ 1.506095, 43.590747 ] ] ], [ [ [ 1.516976, 43.57439 ], [ 1.521451, 43.580302 ], [ 1.525541, 43.579537 ], [ 1.527318, 43.579682 ], [ 1.528086, 43.579705 ], [ 1.528323, 43.579728 ], [ 1.528882, 43.579887 ], [ 1.53494, 43.580386 ], [ 1.539552, 43.572872 ], [ 1.53885008798228, 43.571658981435505 ], [ 1.537902, 43.571432 ], [ 1.533047, 43.570563 ], [ 1.52473, 43.569666 ], [ 1.519604, 43.571344 ], [ 1.516393, 43.572635 ], [ 1.516198228195912, 43.572728090208408 ], [ 1.516643, 43.573087 ], [ 1.516706, 43.573193 ], [ 1.516976, 43.57439 ] ] ] ] } },
{ "type": "Feature", "properties": { "codgeo": "31445", "value": 540, "isochrone_group": 9.0, "nb_agences": 1 }, "geometry": { "type": "MultiPolygon", "coordinates": [ [ [ [ 1.515465, 43.608606 ], [ 1.51601, 43.606449 ], [ 1.521418441456498, 43.602286094625015 ], [ 1.518578, 43.600738 ], [ 1.513209, 43.601759 ], [ 1.51201, 43.602393 ], [ 1.508354, 43.605167 ], [ 1.506186, 43.604574 ], [ 1.497508, 43.60277 ], [ 1.496953, 43.602948 ], [ 1.496823202223133, 43.60289078885868 ], [ 1.4967603502085, 43.602988493129871 ], [ 1.496967967804198, 43.603473825596943 ], [ 1.499414739524528, 43.607774550223155 ], [ 1.501119, 43.608375 ], [ 1.507734, 43.606809 ], [ 1.513655, 43.609179 ], [ 1.513806, 43.609295 ], [ 1.515141, 43.608803 ], [ 1.515465, 43.608606 ] ] ], [ [ [ 1.533242, 43.612877 ], [ 1.53381, 43.612704 ], [ 1.535647, 43.611986 ], [ 1.537378, 43.611306 ], [ 1.538508, 43.610936 ], [ 1.546401, 43.614073 ], [ 1.546606, 43.614106 ], [ 1.55017, 43.612448 ], [ 1.551788, 43.611594 ], [ 1.56009, 43.611121 ], [ 1.561589, 43.611235 ], [ 1.562198, 43.611266 ], [ 1.566053, 43.611179 ], [ 1.567993, 43.610245 ], [ 1.567547, 43.607827 ], [ 1.566232, 43.604476 ], [ 1.570018, 43.596925 ], [ 1.577962, 43.592899 ], [ 1.586508, 43.593062 ], [ 1.588596, 43.593286 ], [ 1.588914, 43.592994 ], [ 1.589319, 43.590813 ], [ 1.589103, 43.590543 ], [ 1.587476, 43.588433 ], [ 1.585335, 43.584377 ], [ 1.585283, 43.58439 ], [ 1.578887, 43.582217 ], [ 1.578594, 43.577462 ], [ 1.581958, 43.572028 ], [ 1.582534, 43.571687 ], [ 1.584242, 43.570689 ], [ 1.585194, 43.570365 ], [ 1.585751, 43.570148 ], [ 1.589578, 43.565802 ], [ 1.59591, 43.560525 ], [ 1.596769, 43.559534 ], [ 1.596372, 43.558377 ], [ 1.595003, 43.557042 ], [ 1.590286, 43.555504 ], [ 1.587278, 43.557482 ], [ 1.581874, 43.561355 ], [ 1.584835, 43.560292 ], [ 1.585746, 43.559933 ], [ 1.587976, 43.558953 ], [ 1.589424, 43.562249 ], [ 1.587194, 43.563229 ], [ 1.585665, 43.564131 ], [ 1.580723, 43.571152 ], [ 1.579807, 43.571316 ], [ 1.576183, 43.579013 ], [ 1.576853, 43.580412 ], [ 1.577012, 43.580757 ], [ 1.577163, 43.581165 ], [ 1.579872, 43.58487 ], [ 1.58181, 43.58659 ], [ 1.581817, 43.586607 ], [ 1.581581, 43.58826 ], [ 1.581423, 43.588426 ], [ 1.58113, 43.588675 ], [ 1.580494, 43.588969 ], [ 1.57812, 43.588168 ], [ 1.577839, 43.588084 ], [ 1.569299, 43.589238 ], [ 1.568953, 43.589625 ], [ 1.56576, 43.595747 ], [ 1.565606, 43.59691 ], [ 1.565087, 43.597328 ], [ 1.563279, 43.59778 ], [ 1.563203, 43.606346 ], [ 1.560234, 43.609576 ], [ 1.554084, 43.610408 ], [ 1.55365, 43.609142 ], [ 1.545242, 43.606577 ], [ 1.542842, 43.608704 ], [ 1.542252, 43.609131 ], [ 1.541815, 43.609374 ], [ 1.539464, 43.610511 ], [ 1.537674, 43.607388 ], [ 1.533002, 43.600412 ], [ 1.531926864674422, 43.600826964511619 ], [ 1.531642, 43.609573 ], [ 1.530273, 43.611842 ], [ 1.530278, 43.611866 ], [ 1.533073, 43.612876 ], [ 1.533242, 43.612877 ] ] ], [ [ [ 1.567494, 43.556677 ], [ 1.567303, 43.556844 ], [ 1.567013, 43.557059 ], [ 1.563406, 43.558727 ], [ 1.563036, 43.558748 ], [ 1.56146490071981, 43.55921535398398 ], [ 1.559728, 43.560038 ], [ 1.559387331063119, 43.559833367414612 ], [ 1.557069, 43.560523 ], [ 1.556896446543051, 43.56299858304611 ], [ 1.557469, 43.562578 ], [ 1.55911, 43.563663 ], [ 1.559981, 43.564209 ], [ 1.560285, 43.564649 ], [ 1.560382, 43.564847 ], [ 1.566801, 43.568542 ], [ 1.569849, 43.561961 ], [ 1.570931, 43.560034 ], [ 1.571055, 43.559985 ], [ 1.573173, 43.560579 ], [ 1.581874, 43.561355 ], [ 1.575363, 43.559312 ], [ 1.570717, 43.555432 ], [ 1.569816, 43.555219 ], [ 1.567596469093087, 43.556278579441994 ], [ 1.567494, 43.556677 ] ] ] ] } },
{ "type": "Feature", "properties": { "codgeo": "31445", "value": 600, "isochrone_group": 10.0, "nb_agences": 1 }, "geometry": { "type": "MultiPolygon", "coordinates": [ [ [ [ 1.524955, 43.611209 ], [ 1.527622, 43.613764 ], [ 1.527987, 43.613724 ], [ 1.534696, 43.614115 ], [ 1.538749, 43.615767 ], [ 1.547138, 43.614939 ], [ 1.548406, 43.61582 ], [ 1.548788, 43.616011 ], [ 1.549107, 43.616128 ], [ 1.549633, 43.616258 ], [ 1.550162, 43.61631 ], [ 1.550661, 43.6163 ], [ 1.55094, 43.616267 ], [ 1.552753, 43.615956 ], [ 1.553427, 43.615728 ], [ 1.560114863779453, 43.611122890907843 ], [ 1.56009, 43.611121 ], [ 1.551788, 43.611594 ], [ 1.55017, 43.612448 ], [ 1.546606, 43.614106 ], [ 1.546401, 43.614073 ], [ 1.538508, 43.610936 ], [ 1.537378, 43.611306 ], [ 1.535647, 43.611986 ], [ 1.53381, 43.612704 ], [ 1.533242, 43.612877 ], [ 1.533073, 43.612876 ], [ 1.530278, 43.611866 ], [ 1.530273, 43.611842 ], [ 1.531642, 43.609573 ], [ 1.531931, 43.6007 ], [ 1.528478, 43.600894 ], [ 1.527272, 43.601574 ], [ 1.525435, 43.601346 ], [ 1.523948, 43.601228 ], [ 1.522658, 43.601332 ], [ 1.51601, 43.606449 ], [ 1.515465, 43.608606 ], [ 1.515141, 43.608803 ], [ 1.513806, 43.609295 ], [ 1.513655, 43.609179 ], [ 1.507734, 43.606809 ], [ 1.504084096187839, 43.60767305886165 ], [ 1.504527, 43.608726 ], [ 1.504545, 43.608758 ], [ 1.504052476555985, 43.610024692406157 ], [ 1.504170342478842, 43.610210597824924 ], [ 1.507987, 43.607926 ], [ 1.514402, 43.610344 ], [ 1.515605, 43.610849 ], [ 1.515911, 43.610996 ], [ 1.517757, 43.611576 ], [ 1.51826, 43.611758 ], [ 1.524955, 43.611209 ] ] ], [ [ [ 1.572034, 43.608687 ], [ 1.572063, 43.606718 ], [ 1.570901, 43.603311 ], [ 1.570406749497008, 43.596727982694496 ], [ 1.570018, 43.596925 ], [ 1.566232, 43.604476 ], [ 1.567547, 43.607827 ], [ 1.567993, 43.610245 ], [ 1.566053, 43.611179 ], [ 1.562198, 43.611266 ], [ 1.56961, 43.612754 ], [ 1.571713, 43.612944 ], [ 1.571806, 43.612889 ], [ 1.572075, 43.610131 ], [ 1.572034, 43.608687 ] ] ], [ [ [ 1.577431, 43.593223 ], [ 1.582365445744637, 43.592982988024382 ], [ 1.577962, 43.592899 ], [ 1.575089782733052, 43.59435463276899 ], [ 1.575454, 43.594264 ], [ 1.575767, 43.5942 ], [ 1.576283, 43.593984 ], [ 1.576677, 43.593711 ], [ 1.577431, 43.593223 ] ] ], [ [ [ 1.593029, 43.597795 ], [ 1.594824, 43.594674 ], [ 1.593809, 43.593023 ], [ 1.593648, 43.592731 ], [ 1.593344, 43.592337 ], [ 1.594711, 43.583683 ], [ 1.593161, 43.580434 ], [ 1.591314, 43.581315 ], [ 1.590925, 43.581531 ], [ 1.59051, 43.581799 ], [ 1.585272, 43.582251 ], [ 1.584399, 43.581827 ], [ 1.58019, 43.580779 ], [ 1.579309, 43.580548 ], [ 1.579087912102715, 43.57666416457608 ], [ 1.578594, 43.577462 ], [ 1.578887, 43.582217 ], [ 1.585283, 43.58439 ], [ 1.585335, 43.584377 ], [ 1.587476, 43.588433 ], [ 1.589103, 43.590543 ], [ 1.589319, 43.590813 ], [ 1.588914, 43.592994 ], [ 1.588596, 43.593286 ], [ 1.586516705452765, 43.593062933918297 ], [ 1.586676, 43.593255 ], [ 1.58705, 43.593601 ], [ 1.587539, 43.593951 ], [ 1.590896, 43.596901 ], [ 1.593029, 43.597795 ] ] ], [ [ [ 1.599081, 43.565932 ], [ 1.602833, 43.559506 ], [ 1.605923, 43.554644 ], [ 1.604102, 43.551539 ], [ 1.602761, 43.552326 ], [ 1.601737, 43.552943 ], [ 1.599368, 43.554422 ], [ 1.597786, 43.555553 ], [ 1.597489, 43.555731 ], [ 1.59, 43.555127 ], [ 1.588712, 43.55362 ], [ 1.586708, 43.551607 ], [ 1.586634, 43.551577 ], [ 1.577985, 43.552505 ], [ 1.572880153960282, 43.551672757877448 ], [ 1.571747, 43.555336 ], [ 1.571476779212892, 43.556066512127856 ], [ 1.575363, 43.559312 ], [ 1.581874, 43.561355 ], [ 1.587278, 43.557482 ], [ 1.590286, 43.555504 ], [ 1.595003, 43.557042 ], [ 1.596372, 43.558377 ], [ 1.596769, 43.559534 ], [ 1.59591, 43.560525 ], [ 1.589578, 43.565802 ], [ 1.585751, 43.570148 ], [ 1.585194, 43.570365 ], [ 1.584242, 43.570689 ], [ 1.588499, 43.571504 ], [ 1.58932, 43.569965 ], [ 1.590523, 43.56865 ], [ 1.591147, 43.568117 ], [ 1.599081, 43.565932 ] ] ] ] } },
{ "type": "Feature", "properties": { "codgeo": "31445", "value": 660, "isochrone_group": 11.0, "nb_agences": 1 }, "geometry": { "type": "MultiPolygon", "coordinates": [ [ [ [ 1.543409, 43.620362 ], [ 1.55094, 43.616267 ], [ 1.550661, 43.6163 ], [ 1.550162, 43.61631 ], [ 1.549633, 43.616258 ], [ 1.549107, 43.616128 ], [ 1.548788, 43.616011 ], [ 1.548406, 43.61582 ], [ 1.547138, 43.614939 ], [ 1.538749, 43.615767 ], [ 1.534696, 43.614115 ], [ 1.534547042040812, 43.614106318741683 ], [ 1.539682, 43.616706 ], [ 1.539995, 43.61703 ], [ 1.541468, 43.618375 ], [ 1.542155, 43.619119 ], [ 1.542992, 43.619994 ], [ 1.543302, 43.620282 ], [ 1.543409, 43.620362 ] ] ], [ [ [ 1.574241, 43.613441 ], [ 1.575819, 43.611278 ], [ 1.575827, 43.611207 ], [ 1.576496, 43.603437 ], [ 1.575782, 43.60313 ], [ 1.575767, 43.5942 ], [ 1.575454, 43.594264 ], [ 1.57459, 43.594479 ], [ 1.570406, 43.596718 ], [ 1.570901, 43.603311 ], [ 1.572063, 43.606718 ], [ 1.572034, 43.608687 ], [ 1.572075, 43.610131 ], [ 1.571806, 43.612889 ], [ 1.571713, 43.612944 ], [ 1.56961, 43.612754 ], [ 1.562198, 43.611266 ], [ 1.561589, 43.611235 ], [ 1.560623, 43.610773 ], [ 1.553427, 43.615728 ], [ 1.552753, 43.615956 ], [ 1.55094, 43.616267 ], [ 1.553405, 43.615942 ], [ 1.559757, 43.615731 ], [ 1.56143, 43.614691 ], [ 1.569355, 43.615073 ], [ 1.574089, 43.613665 ], [ 1.574241, 43.613441 ] ] ], [ [ [ 1.595047, 43.598461 ], [ 1.595752, 43.598517 ], [ 1.600941, 43.599545 ], [ 1.60212, 43.599086 ], [ 1.60229, 43.598917 ], [ 1.602546, 43.595695 ], [ 1.602525, 43.595672 ], [ 1.601718, 43.595562 ], [ 1.600602, 43.595244 ], [ 1.599154, 43.594529 ], [ 1.597765, 43.586057 ], [ 1.602282, 43.580108 ], [ 1.603101, 43.578284 ], [ 1.602891, 43.577838 ], [ 1.600727, 43.576861 ], [ 1.600148, 43.576914 ], [ 1.596372, 43.576628 ], [ 1.594215, 43.569943 ], [ 1.599898, 43.56672 ], [ 1.601132, 43.565962 ], [ 1.601542, 43.565621 ], [ 1.607665, 43.560101 ], [ 1.609246, 43.555276 ], [ 1.614392, 43.551013 ], [ 1.614906, 43.550788 ], [ 1.616353, 43.550105 ], [ 1.614816, 43.54685 ], [ 1.611225, 43.547983 ], [ 1.607708, 43.549571 ], [ 1.601859, 43.550756 ], [ 1.60016, 43.551538 ], [ 1.599352, 43.55334 ], [ 1.597489, 43.555731 ], [ 1.597786, 43.555553 ], [ 1.599368, 43.554422 ], [ 1.601737, 43.552943 ], [ 1.602761, 43.552326 ], [ 1.604102, 43.551539 ], [ 1.605923, 43.554644 ], [ 1.602833, 43.559506 ], [ 1.599081, 43.565932 ], [ 1.591147, 43.568117 ], [ 1.590523, 43.56865 ], [ 1.58932, 43.569965 ], [ 1.588499, 43.571504 ], [ 1.584242, 43.570689 ], [ 1.583409, 43.570846 ], [ 1.581171, 43.571103 ], [ 1.580152, 43.571234 ], [ 1.579807, 43.571316 ], [ 1.578801, 43.571624 ], [ 1.579309, 43.580548 ], [ 1.58019, 43.580779 ], [ 1.584399, 43.581827 ], [ 1.585272, 43.582251 ], [ 1.59051, 43.581799 ], [ 1.590925, 43.581531 ], [ 1.591314, 43.581315 ], [ 1.593161, 43.580434 ], [ 1.594711, 43.583683 ], [ 1.593344, 43.592337 ], [ 1.593648, 43.592731 ], [ 1.593809, 43.593023 ], [ 1.594824, 43.594674 ], [ 1.593029, 43.597795 ], [ 1.590896, 43.596901 ], [ 1.587539, 43.593951 ], [ 1.58705, 43.593601 ], [ 1.586676, 43.593255 ], [ 1.586292, 43.592792 ], [ 1.577431, 43.593223 ], [ 1.576677, 43.593711 ], [ 1.576283, 43.593984 ], [ 1.583896, 43.59712 ], [ 1.58452, 43.59804 ], [ 1.589681, 43.597419 ], [ 1.594054, 43.598234 ], [ 1.59455, 43.59837 ], [ 1.595047, 43.598461 ] ] ], [ [ [ 1.584494, 43.548836 ], [ 1.578209976178002, 43.548336461334884 ], [ 1.579279, 43.551665 ], [ 1.579177789175487, 43.552377018920701 ], [ 1.586634, 43.551577 ], [ 1.586708, 43.551607 ], [ 1.584494, 43.548836 ] ] ], [ [ [ 1.519757, 43.613928 ], [ 1.52002, 43.613778 ], [ 1.52596, 43.612539 ], [ 1.526230905863647, 43.612431324515043 ], [ 1.524955, 43.611209 ], [ 1.51826, 43.611758 ], [ 1.517757, 43.611576 ], [ 1.515911, 43.610996 ], [ 1.515605, 43.610849 ], [ 1.514402, 43.610344 ], [ 1.509274123474185, 43.60841115425729 ], [ 1.508579, 43.610617 ], [ 1.508443058605747, 43.610813304514117 ], [ 1.509354210875828, 43.612458268615832 ], [ 1.511786, 43.6123 ], [ 1.513934, 43.612805 ], [ 1.515569844896551, 43.614194246152707 ], [ 1.519757, 43.613928 ] ] ], [ [ [ 1.528971, 43.614205 ], [ 1.5285, 43.615075 ], [ 1.528440041566437, 43.61530215529897 ], [ 1.532815583451397, 43.614005409469293 ], [ 1.528993964035513, 43.613782685785935 ], [ 1.528971, 43.614205 ] ] ] ] } },
{ "type": "Feature", "properties": { "codgeo": "31445", "value": 720, "isochrone_group": 12.0, "nb_agences": 1 }, "geometry": { "type": "MultiPolygon", "coordinates": [ [ [ [ 1.547460537484877, 43.618158966405453 ], [ 1.553678840630109, 43.620235165043695 ], [ 1.559303, 43.617134 ], [ 1.562368, 43.616526 ], [ 1.568691566354003, 43.615041021242547 ], [ 1.56143, 43.614691 ], [ 1.559757, 43.615731 ], [ 1.553405, 43.615942 ], [ 1.55094, 43.616267 ], [ 1.547460537484877, 43.618158966405453 ] ] ], [ [ [ 1.578777, 43.613386 ], [ 1.578972, 43.60793 ], [ 1.579997, 43.605394 ], [ 1.577153, 43.603187 ], [ 1.575781871387095, 43.603053432450217 ], [ 1.575782, 43.60313 ], [ 1.576496, 43.603437 ], [ 1.575827, 43.611207 ], [ 1.575819, 43.611278 ], [ 1.574241, 43.613441 ], [ 1.574089, 43.613665 ], [ 1.569419356064928, 43.615053859032656 ], [ 1.573275, 43.615814 ], [ 1.577354, 43.615522 ], [ 1.577823, 43.615511 ], [ 1.578819, 43.613968 ], [ 1.578867, 43.613772 ], [ 1.578777, 43.613386 ] ] ], [ [ [ 1.605035, 43.601841 ], [ 1.6054, 43.601732 ], [ 1.607799, 43.600297 ], [ 1.608449, 43.596756 ], [ 1.608372, 43.596642 ], [ 1.608029, 43.596295 ], [ 1.607512, 43.59593 ], [ 1.60512, 43.593589 ], [ 1.605586, 43.585487 ], [ 1.605468, 43.581245 ], [ 1.610195, 43.576103 ], [ 1.609641, 43.572546 ], [ 1.608626, 43.572704 ], [ 1.604085, 43.572162 ], [ 1.603221, 43.571792 ], [ 1.597777, 43.568733 ], [ 1.597612341796154, 43.568016265421612 ], [ 1.594215, 43.569943 ], [ 1.596372, 43.576628 ], [ 1.600148, 43.576914 ], [ 1.600727, 43.576861 ], [ 1.602891, 43.577838 ], [ 1.603101, 43.578284 ], [ 1.602282, 43.580108 ], [ 1.597765, 43.586057 ], [ 1.599154, 43.594529 ], [ 1.600602, 43.595244 ], [ 1.601718, 43.595562 ], [ 1.602525, 43.595672 ], [ 1.602546, 43.595695 ], [ 1.60229, 43.598917 ], [ 1.60212, 43.599086 ], [ 1.600941, 43.599545 ], [ 1.595752, 43.598517 ], [ 1.595047, 43.598461 ], [ 1.59455, 43.59837 ], [ 1.594054, 43.598234 ], [ 1.589681, 43.597419 ], [ 1.593346, 43.600501 ], [ 1.59449, 43.603914 ], [ 1.594997, 43.603744 ], [ 1.595431, 43.603576 ], [ 1.600431, 43.602192 ], [ 1.605035, 43.601841 ] ] ], [ [ [ 1.622693, 43.548475 ], [ 1.622424, 43.546151 ], [ 1.621739, 43.545004 ], [ 1.617309, 43.544499 ], [ 1.617174, 43.54454 ], [ 1.612679531058043, 43.547524079451755 ], [ 1.614816, 43.54685 ], [ 1.616353, 43.550105 ], [ 1.614906, 43.550788 ], [ 1.614392, 43.551013 ], [ 1.609246, 43.555276 ], [ 1.607665, 43.560101 ], [ 1.607345475742578, 43.56038905714535 ], [ 1.611327, 43.561094 ], [ 1.611986, 43.560593 ], [ 1.612364, 43.556667 ], [ 1.61386, 43.553393 ], [ 1.620148, 43.551175 ], [ 1.622693, 43.548475 ] ] ], [ [ [ 1.60016, 43.551538 ], [ 1.598284189489342, 43.554710442797088 ], [ 1.599352, 43.55334 ], [ 1.60016, 43.551538 ] ] ], [ [ [ 1.586314, 43.544567 ], [ 1.586607, 43.544512 ], [ 1.587279, 43.548049 ], [ 1.585666131137551, 43.550303016884442 ], [ 1.586708, 43.551607 ], [ 1.588712, 43.55362 ], [ 1.59, 43.555127 ], [ 1.597489, 43.555731 ], [ 1.597676115485949, 43.555490853394019 ], [ 1.590991, 43.55171 ], [ 1.590732, 43.548119 ], [ 1.588173, 43.544318 ], [ 1.586728, 43.544493 ], [ 1.58624847077819, 43.544538217683566 ], [ 1.586314, 43.544567 ] ] ], [ [ [ 1.543677, 43.620528 ], [ 1.544463, 43.620921 ], [ 1.545280940183812, 43.62140794493434 ], [ 1.546266075861986, 43.618808457886765 ], [ 1.5434171750195, 43.620357554812799 ], [ 1.543677, 43.620528 ] ] ] ] } },
{ "type": "Feature", "properties": { "codgeo": "31445", "value": 780, "isochrone_group": 13.0, "nb_agences": 1 }, "geometry": { "type": "MultiPolygon", "coordinates": [ [ [ [ 1.58792, 43.608603 ], [ 1.589063, 43.607902 ], [ 1.591841, 43.605612 ], [ 1.600357, 43.604177 ], [ 1.605258, 43.604871 ], [ 1.606275, 43.604831 ], [ 1.606715, 43.604811 ], [ 1.607168, 43.604768 ], [ 1.607205, 43.604741 ], [ 1.614636, 43.599999 ], [ 1.615733, 43.600214 ], [ 1.619072, 43.600898 ], [ 1.620106, 43.601105 ], [ 1.621041, 43.599924 ], [ 1.621253, 43.59949 ], [ 1.62081, 43.597574 ], [ 1.617108, 43.595966 ], [ 1.61659, 43.59563 ], [ 1.616179, 43.595673 ], [ 1.61301, 43.587259 ], [ 1.611491, 43.583996 ], [ 1.610452, 43.576059 ], [ 1.614171, 43.574974 ], [ 1.614465, 43.574863 ], [ 1.615024, 43.574686 ], [ 1.613938, 43.571253 ], [ 1.614539, 43.562915 ], [ 1.615648, 43.562373 ], [ 1.617709, 43.561084 ], [ 1.624601, 43.555952 ], [ 1.627787, 43.555769 ], [ 1.628345, 43.555266 ], [ 1.62873, 43.5548 ], [ 1.629042, 43.554136 ], [ 1.63236, 43.546241 ], [ 1.631705, 43.542701 ], [ 1.629453, 43.542706 ], [ 1.620527, 43.543685 ], [ 1.61492, 43.541851 ], [ 1.611512, 43.540388 ], [ 1.611064, 43.540452 ], [ 1.610738, 43.540556 ], [ 1.610428, 43.540685 ], [ 1.610101, 43.541262 ], [ 1.607708, 43.549571 ], [ 1.611663, 43.548199 ], [ 1.617174, 43.54454 ], [ 1.617309, 43.544499 ], [ 1.621739, 43.545004 ], [ 1.622424, 43.546151 ], [ 1.622693, 43.548475 ], [ 1.620148, 43.551175 ], [ 1.61386, 43.553393 ], [ 1.612364, 43.556667 ], [ 1.611986, 43.560593 ], [ 1.611327, 43.561094 ], [ 1.606786, 43.56029 ], [ 1.606235, 43.560318 ], [ 1.605591, 43.560255 ], [ 1.604747, 43.560102 ], [ 1.603735, 43.560041 ], [ 1.597026, 43.565464 ], [ 1.597777, 43.568733 ], [ 1.603221, 43.571792 ], [ 1.604085, 43.572162 ], [ 1.608626, 43.572704 ], [ 1.609641, 43.572546 ], [ 1.610195, 43.576103 ], [ 1.605468, 43.581245 ], [ 1.605586, 43.585487 ], [ 1.60512, 43.593589 ], [ 1.607512, 43.59593 ], [ 1.608029, 43.596295 ], [ 1.608372, 43.596642 ], [ 1.608449, 43.596756 ], [ 1.607799, 43.600297 ], [ 1.6054, 43.601732 ], [ 1.605035, 43.601841 ], [ 1.600431, 43.602192 ], [ 1.595431, 43.603576 ], [ 1.594997, 43.603744 ], [ 1.59449, 43.603914 ], [ 1.593346, 43.600501 ], [ 1.589681, 43.597419 ], [ 1.58705, 43.593601 ], [ 1.586676, 43.593255 ], [ 1.586292, 43.592792 ], [ 1.577431, 43.593223 ], [ 1.576677, 43.593711 ], [ 1.576283, 43.593984 ], [ 1.575767, 43.5942 ], [ 1.57549, 43.603025 ], [ 1.577153, 43.603187 ], [ 1.579997, 43.605394 ], [ 1.578972, 43.60793 ], [ 1.578777, 43.613386 ], [ 1.578867, 43.613772 ], [ 1.578819, 43.613968 ], [ 1.577823, 43.615511 ], [ 1.577354, 43.615522 ], [ 1.573275, 43.615814 ], [ 1.568994, 43.61497 ], [ 1.562368, 43.616526 ], [ 1.559303, 43.617134 ], [ 1.553583554985841, 43.620287705608355 ], [ 1.555134, 43.620826 ], [ 1.5557, 43.62091 ], [ 1.562559, 43.621403 ], [ 1.564122883271817, 43.621263522661486 ], [ 1.564766, 43.620084 ], [ 1.566882, 43.61727 ], [ 1.575101, 43.615833 ], [ 1.579285, 43.617441 ], [ 1.581879, 43.61591 ], [ 1.582425, 43.615593 ], [ 1.58276, 43.61533 ], [ 1.583204, 43.614942 ], [ 1.58792, 43.608603 ] ] ], [ [ [ 1.60016, 43.551538 ], [ 1.602266059918458, 43.551041911377368 ], [ 1.597138, 43.544788 ], [ 1.595946, 43.541391 ], [ 1.59587070047442, 43.541407124389814 ], [ 1.595874, 43.541417 ], [ 1.597066, 43.544814 ], [ 1.596143, 43.545137 ], [ 1.594519, 43.545744 ], [ 1.590934109363343, 43.550921219010675 ], [ 1.590991, 43.55171 ], [ 1.597786, 43.555553 ], [ 1.60016, 43.551538 ] ] ], [ [ [ 1.549847, 43.627797 ], [ 1.553558421556999, 43.626388646007811 ], [ 1.550391, 43.627165 ], [ 1.549638101814386, 43.627935982971344 ], [ 1.549847, 43.627797 ] ] ], [ [ [ 1.549354, 43.628125 ], [ 1.549507338182813, 43.628022981898653 ], [ 1.547804, 43.628905 ], [ 1.54774052453283, 43.629345987456126 ], [ 1.549354, 43.628125 ] ] ] ] } },
{ "type": "Feature", "properties": { "codgeo": "31445", "value": 840, "isochrone_group": 14.0, "nb_agences": 1 }, "geometry": { "type": "MultiPolygon", "coordinates": [ [ [ [ 1.603595, 43.608011 ], [ 1.604014, 43.608759 ], [ 1.604634, 43.609157 ], [ 1.605663, 43.608861 ], [ 1.607154, 43.606998 ], [ 1.613614, 43.601294 ], [ 1.619072, 43.600898 ], [ 1.615733, 43.600214 ], [ 1.614636, 43.599999 ], [ 1.607205, 43.604741 ], [ 1.607168, 43.604768 ], [ 1.606715, 43.604811 ], [ 1.606275, 43.604831 ], [ 1.605258, 43.604871 ], [ 1.600357, 43.604177 ], [ 1.591841, 43.605612 ], [ 1.589063, 43.607902 ], [ 1.58792, 43.608603 ], [ 1.583204, 43.614942 ], [ 1.58276, 43.61533 ], [ 1.582425, 43.615593 ], [ 1.581879, 43.61591 ], [ 1.579285, 43.617441 ], [ 1.575101, 43.615833 ], [ 1.566882, 43.61727 ], [ 1.566863086313933, 43.617295152699725 ], [ 1.573585, 43.620071 ], [ 1.575474, 43.619507 ], [ 1.577363, 43.618944 ], [ 1.578246304124406, 43.621905515285917 ], [ 1.580107, 43.62121 ], [ 1.580832, 43.621825 ], [ 1.588392, 43.618374 ], [ 1.588529, 43.615601 ], [ 1.593756, 43.609802 ], [ 1.593848, 43.609755 ], [ 1.594215, 43.609153 ], [ 1.60255, 43.606101 ], [ 1.603595, 43.608011 ] ] ], [ [ [ 1.630491, 43.599934 ], [ 1.63019, 43.59785 ], [ 1.629824, 43.597052 ], [ 1.629534, 43.596464 ], [ 1.621842, 43.593768 ], [ 1.620321, 43.586707 ], [ 1.620382, 43.583108 ], [ 1.616619, 43.579865 ], [ 1.620288, 43.573356 ], [ 1.620634, 43.573276 ], [ 1.623005, 43.572503 ], [ 1.624894, 43.571624 ], [ 1.623376, 43.56836 ], [ 1.625752, 43.560313 ], [ 1.626699, 43.559831 ], [ 1.627226, 43.559435 ], [ 1.634121, 43.557163 ], [ 1.635767, 43.557393 ], [ 1.636949, 43.553993 ], [ 1.637651, 43.54798 ], [ 1.641007, 43.544473 ], [ 1.642951, 43.54259 ], [ 1.642944, 43.542523 ], [ 1.642405, 43.541414 ], [ 1.641435, 43.540898 ], [ 1.641334, 43.540886 ], [ 1.636578, 43.54178 ], [ 1.629337, 43.5388 ], [ 1.629078, 43.538554 ], [ 1.628367, 43.538042 ], [ 1.620661, 43.538106 ], [ 1.618638, 43.537914 ], [ 1.617897, 43.537859 ], [ 1.617454, 43.537894 ], [ 1.613358, 43.53827 ], [ 1.607595, 43.540876 ], [ 1.602129, 43.537504 ], [ 1.602055114482137, 43.537506810225722 ], [ 1.602068, 43.537544 ], [ 1.604064, 43.54054 ], [ 1.60321, 43.541109 ], [ 1.602995, 43.541268 ], [ 1.600859, 43.543407 ], [ 1.603872825451953, 43.55119438216304 ], [ 1.605727, 43.550589 ], [ 1.606978, 43.549932 ], [ 1.607708, 43.549571 ], [ 1.610101, 43.541262 ], [ 1.610428, 43.540685 ], [ 1.610738, 43.540556 ], [ 1.611064, 43.540452 ], [ 1.611512, 43.540388 ], [ 1.61492, 43.541851 ], [ 1.620527, 43.543685 ], [ 1.629453, 43.542706 ], [ 1.631705, 43.542701 ], [ 1.63236, 43.546241 ], [ 1.629042, 43.554136 ], [ 1.62873, 43.5548 ], [ 1.628345, 43.555266 ], [ 1.627787, 43.555769 ], [ 1.624601, 43.555952 ], [ 1.617709, 43.561084 ], [ 1.615648, 43.562373 ], [ 1.614539, 43.562915 ], [ 1.613938, 43.571253 ], [ 1.615024, 43.574686 ], [ 1.614465, 43.574863 ], [ 1.614171, 43.574974 ], [ 1.610452, 43.576059 ], [ 1.611491, 43.583996 ], [ 1.61301, 43.587259 ], [ 1.616179, 43.595673 ], [ 1.61659, 43.59563 ], [ 1.617108, 43.595966 ], [ 1.62081, 43.597574 ], [ 1.621253, 43.59949 ], [ 1.621041, 43.599924 ], [ 1.620106592904338, 43.601104251101589 ], [ 1.620622, 43.601207 ], [ 1.621342, 43.601322 ], [ 1.621923, 43.601378 ], [ 1.624957, 43.601719 ], [ 1.628381, 43.600606 ], [ 1.630491, 43.599934 ] ] ], [ [ [ 1.554177514869696, 43.626153721862146 ], [ 1.559024, 43.625049 ], [ 1.557638102190108, 43.624840550643732 ], [ 1.554177514869696, 43.626153721862146 ] ] ] ] } },
{ "type": "Feature", "properties": { "codgeo": "31445", "value": 900, "isochrone_group": 15.0, "nb_agences": 1 }, "geometry": { "type": "MultiPolygon", "coordinates": [ [ [ [ 1.610999, 43.611142 ], [ 1.613236, 43.603443 ], [ 1.614428, 43.602786 ], [ 1.615551, 43.602191 ], [ 1.620622, 43.601207 ], [ 1.619072, 43.600898 ], [ 1.613614, 43.601294 ], [ 1.607154, 43.606998 ], [ 1.605663, 43.608861 ], [ 1.604634, 43.609157 ], [ 1.604014, 43.608759 ], [ 1.603595, 43.608011 ], [ 1.60255, 43.606101 ], [ 1.594215, 43.609153 ], [ 1.593848, 43.609755 ], [ 1.593756, 43.609802 ], [ 1.588529, 43.615601 ], [ 1.588392, 43.618374 ], [ 1.586337877730539, 43.61931166877671 ], [ 1.581443, 43.622343 ], [ 1.581226904118921, 43.622651319087424 ], [ 1.581633, 43.622511 ], [ 1.58428, 43.623828 ], [ 1.584756, 43.623285 ], [ 1.593204, 43.622314 ], [ 1.595285, 43.622285 ], [ 1.596351, 43.618846 ], [ 1.597387, 43.615059 ], [ 1.605184, 43.612704 ], [ 1.60725, 43.612272 ], [ 1.607701, 43.612169 ], [ 1.608055, 43.61206 ], [ 1.610999, 43.611142 ] ] ], [ [ [ 1.63077, 43.606866 ], [ 1.63703, 43.6014 ], [ 1.638111, 43.601016 ], [ 1.638478, 43.600838 ], [ 1.643297, 43.594836 ], [ 1.641267, 43.591864 ], [ 1.638628, 43.593666 ], [ 1.637295, 43.594303 ], [ 1.636668, 43.594485 ], [ 1.635256, 43.594877 ], [ 1.629085, 43.588539 ], [ 1.626602, 43.57998 ], [ 1.628414, 43.574037 ], [ 1.630838, 43.571375 ], [ 1.633046, 43.569284 ], [ 1.633987, 43.566594 ], [ 1.633942, 43.566522 ], [ 1.633556, 43.56605 ], [ 1.636701, 43.557697 ], [ 1.637649, 43.557927 ], [ 1.639324, 43.558541 ], [ 1.639664, 43.558702 ], [ 1.642536, 43.560962 ], [ 1.642934, 43.561387 ], [ 1.643199, 43.561599 ], [ 1.645525, 43.558796 ], [ 1.645224, 43.556327 ], [ 1.645012, 43.555232 ], [ 1.644181, 43.548464 ], [ 1.64965, 43.541683 ], [ 1.650171, 43.541426 ], [ 1.65078, 43.541077 ], [ 1.653471, 43.539636 ], [ 1.652167, 43.53628 ], [ 1.651305, 43.536615 ], [ 1.650783, 43.536855 ], [ 1.650241, 43.537153 ], [ 1.648842, 43.538043 ], [ 1.647287, 43.538751 ], [ 1.644766, 43.539705 ], [ 1.638101, 43.536139 ], [ 1.635227, 43.538307 ], [ 1.628881, 43.535417 ], [ 1.628477, 43.535168 ], [ 1.627373, 43.535386 ], [ 1.619571, 43.531672 ], [ 1.612869, 43.533299 ], [ 1.610546948350032, 43.534284915466088 ], [ 1.610548, 43.534286 ], [ 1.611861, 43.537638 ], [ 1.611498851717442, 43.539110697626988 ], [ 1.613358, 43.53827 ], [ 1.617454, 43.537894 ], [ 1.617897, 43.537859 ], [ 1.618638, 43.537914 ], [ 1.620661, 43.538106 ], [ 1.628367, 43.538042 ], [ 1.629078, 43.538554 ], [ 1.629337, 43.5388 ], [ 1.636578, 43.54178 ], [ 1.641334, 43.540886 ], [ 1.641435, 43.540898 ], [ 1.642405, 43.541414 ], [ 1.642944, 43.542523 ], [ 1.642951, 43.54259 ], [ 1.641007, 43.544473 ], [ 1.637651, 43.54798 ], [ 1.636949, 43.553993 ], [ 1.635767, 43.557393 ], [ 1.634121, 43.557163 ], [ 1.627226, 43.559435 ], [ 1.626699, 43.559831 ], [ 1.625752, 43.560313 ], [ 1.623376, 43.56836 ], [ 1.624894, 43.571624 ], [ 1.623005, 43.572503 ], [ 1.620634, 43.573276 ], [ 1.620288, 43.573356 ], [ 1.616619, 43.579865 ], [ 1.620382, 43.583108 ], [ 1.620321, 43.586707 ], [ 1.621842, 43.593768 ], [ 1.629534, 43.596464 ], [ 1.629824, 43.597052 ], [ 1.63019, 43.59785 ], [ 1.630491, 43.599934 ], [ 1.628381, 43.600606 ], [ 1.624957, 43.601719 ], [ 1.621923, 43.601378 ], [ 1.621342, 43.601322 ], [ 1.620622, 43.601207 ], [ 1.624191, 43.605024 ], [ 1.625714, 43.607546 ], [ 1.625866, 43.607957 ], [ 1.62607, 43.608373 ], [ 1.6277, 43.608806 ], [ 1.629509, 43.607727 ], [ 1.630173, 43.607302 ], [ 1.63077, 43.606866 ] ] ] ] } },
{ "type": "Feature", "properties": { "codgeo": "31445", "value": 960, "isochrone_group": 16.0, "nb_agences": 1 }, "geometry": { "type": "MultiPolygon", "coordinates": [ [ [ [ 1.619765, 43.613618 ], [ 1.623813, 43.61268 ], [ 1.629861, 43.614622 ], [ 1.632905, 43.61282 ], [ 1.632898, 43.612454 ], [ 1.632846, 43.612026 ], [ 1.632723, 43.611522 ], [ 1.634924, 43.604237 ], [ 1.640014, 43.60272 ], [ 1.640551, 43.602625 ], [ 1.643897, 43.601597 ], [ 1.648163, 43.594205 ], [ 1.648705, 43.590646 ], [ 1.648654, 43.590308 ], [ 1.648583, 43.590186 ], [ 1.647576, 43.589667 ], [ 1.646731, 43.58924 ], [ 1.644688, 43.589194 ], [ 1.636707, 43.589762 ], [ 1.632472, 43.584568 ], [ 1.632641, 43.575646 ], [ 1.634716, 43.570677 ], [ 1.636356, 43.568684 ], [ 1.639322, 43.566476 ], [ 1.645204, 43.564909 ], [ 1.647927, 43.564847 ], [ 1.649999, 43.563947 ], [ 1.650108, 43.561937 ], [ 1.650108, 43.561925 ], [ 1.649884, 43.554377 ], [ 1.651449, 43.552283 ], [ 1.649523, 43.545955 ], [ 1.653456165392432, 43.539643943764226 ], [ 1.65078, 43.541077 ], [ 1.650171, 43.541426 ], [ 1.64965, 43.541683 ], [ 1.644181, 43.548464 ], [ 1.645012, 43.555232 ], [ 1.645224, 43.556327 ], [ 1.645525, 43.558796 ], [ 1.643199, 43.561599 ], [ 1.642934, 43.561387 ], [ 1.642536, 43.560962 ], [ 1.639664, 43.558702 ], [ 1.639324, 43.558541 ], [ 1.637649, 43.557927 ], [ 1.636701, 43.557697 ], [ 1.633556, 43.56605 ], [ 1.633942, 43.566522 ], [ 1.633987, 43.566594 ], [ 1.633046, 43.569284 ], [ 1.630838, 43.571375 ], [ 1.628414, 43.574037 ], [ 1.626602, 43.57998 ], [ 1.629085, 43.588539 ], [ 1.635256, 43.594877 ], [ 1.636668, 43.594485 ], [ 1.637295, 43.594303 ], [ 1.638628, 43.593666 ], [ 1.641267, 43.591864 ], [ 1.643297, 43.594836 ], [ 1.638478, 43.600838 ], [ 1.638111, 43.601016 ], [ 1.63703, 43.6014 ], [ 1.63077, 43.606866 ], [ 1.630173, 43.607302 ], [ 1.629509, 43.607727 ], [ 1.6277, 43.608806 ], [ 1.62607, 43.608373 ], [ 1.625866, 43.607957 ], [ 1.625714, 43.607546 ], [ 1.624191, 43.605024 ], [ 1.620622, 43.601207 ], [ 1.615551, 43.602191 ], [ 1.614428, 43.602786 ], [ 1.613236, 43.603443 ], [ 1.610999, 43.611142 ], [ 1.608055, 43.61206 ], [ 1.607701, 43.612169 ], [ 1.60725, 43.612272 ], [ 1.605184, 43.612704 ], [ 1.597387, 43.615059 ], [ 1.596351, 43.618846 ], [ 1.595285, 43.622285 ], [ 1.593204, 43.622314 ], [ 1.588006274722742, 43.622911418471155 ], [ 1.58626228533319, 43.626087823187511 ], [ 1.590891, 43.62528 ], [ 1.595352, 43.627149 ], [ 1.598866, 43.626444 ], [ 1.599037, 43.625653 ], [ 1.599419, 43.623982 ], [ 1.599611, 43.623235 ], [ 1.599585, 43.622735 ], [ 1.599323, 43.622021 ], [ 1.599196, 43.618099 ], [ 1.605961, 43.615118 ], [ 1.608897, 43.613035 ], [ 1.610704, 43.611299 ], [ 1.617898, 43.61054 ], [ 1.619765, 43.613618 ] ] ], [ [ [ 1.660465, 43.53315 ], [ 1.651609, 43.533132 ], [ 1.648769, 43.535345 ], [ 1.644766, 43.539705 ], [ 1.647287, 43.538751 ], [ 1.648842, 43.538043 ], [ 1.650241, 43.537153 ], [ 1.650783, 43.536855 ], [ 1.651305, 43.536615 ], [ 1.652167, 43.53628 ], [ 1.653471, 43.539636 ], [ 1.653461106168578, 43.539641298034581 ], [ 1.658346, 43.54011 ], [ 1.665427, 43.534816 ], [ 1.667048, 43.533932 ], [ 1.665326, 43.530771 ], [ 1.663704, 43.531655 ], [ 1.662936, 43.532015 ], [ 1.661844, 43.532485 ], [ 1.660465, 43.53315 ] ] ], [ [ [ 1.618495517495269, 43.53003705407334 ], [ 1.619138, 43.530241 ], [ 1.619850271576313, 43.53180494214746 ], [ 1.627373, 43.535386 ], [ 1.628477, 43.535168 ], [ 1.628881, 43.535417 ], [ 1.635227, 43.538307 ], [ 1.638101, 43.536139 ], [ 1.638101484951265, 43.536139259465294 ], [ 1.63801, 43.536018 ], [ 1.636852, 43.534485 ], [ 1.634817, 43.530275 ], [ 1.626871, 43.527191 ], [ 1.625245, 43.527 ], [ 1.621328, 43.527674 ], [ 1.618571, 43.529988 ], [ 1.618495517495269, 43.53003705407334 ] ] ] ] } },
{ "type": "Feature", "properties": { "codgeo": "31445", "value": 1020, "isochrone_group": 17.0, "nb_agences": 1 }, "geometry": { "type": "MultiPolygon", "coordinates": [ [ [ [ 1.655179, 43.584414 ], [ 1.653385, 43.585586 ], [ 1.649602, 43.586753 ], [ 1.648692, 43.588265 ], [ 1.647123472307979, 43.58943832624319 ], [ 1.647576, 43.589667 ], [ 1.648583, 43.590186 ], [ 1.648654, 43.590308 ], [ 1.648705, 43.590646 ], [ 1.648163, 43.594205 ], [ 1.643897, 43.601597 ], [ 1.640551, 43.602625 ], [ 1.640014, 43.60272 ], [ 1.634924, 43.604237 ], [ 1.632723, 43.611522 ], [ 1.632846, 43.612026 ], [ 1.632898, 43.612454 ], [ 1.632905, 43.61282 ], [ 1.629861, 43.614622 ], [ 1.623813, 43.61268 ], [ 1.619765, 43.613618 ], [ 1.617898, 43.61054 ], [ 1.610704, 43.611299 ], [ 1.608897, 43.613035 ], [ 1.607039789915225, 43.614352632359193 ], [ 1.609597, 43.615593 ], [ 1.611463, 43.618672 ], [ 1.620245, 43.617173 ], [ 1.62646, 43.621055 ], [ 1.629625, 43.619825 ], [ 1.637309, 43.616477 ], [ 1.639672, 43.612101 ], [ 1.640726, 43.607106 ], [ 1.647228, 43.602382 ], [ 1.653217, 43.600213 ], [ 1.660422, 43.596338 ], [ 1.662885, 43.595876 ], [ 1.66291, 43.592276 ], [ 1.657147, 43.587429 ], [ 1.655179, 43.584414 ] ] ], [ [ [ 1.632472, 43.584568 ], [ 1.636707, 43.589762 ], [ 1.633407, 43.584084 ], [ 1.636492, 43.577746 ], [ 1.634776, 43.574581 ], [ 1.63853359932055, 43.567062914598878 ], [ 1.636356, 43.568684 ], [ 1.634716, 43.570677 ], [ 1.632641, 43.575646 ], [ 1.632472, 43.584568 ] ] ], [ [ [ 1.656637, 43.561783 ], [ 1.657743, 43.553429 ], [ 1.655945, 43.55031 ], [ 1.654044, 43.544114 ], [ 1.656103776955828, 43.539894860350309 ], [ 1.653458, 43.539641 ], [ 1.649523, 43.545955 ], [ 1.651449, 43.552283 ], [ 1.649884, 43.554377 ], [ 1.650108, 43.561925 ], [ 1.650108, 43.561937 ], [ 1.649999, 43.563947 ], [ 1.647927, 43.564847 ], [ 1.645204, 43.564909 ], [ 1.639322, 43.566476 ], [ 1.646105, 43.566629 ], [ 1.651067, 43.565748 ], [ 1.653017, 43.565737 ], [ 1.653456, 43.565743 ], [ 1.65388, 43.565634 ], [ 1.65465, 43.5654 ], [ 1.656671, 43.562717 ], [ 1.656637, 43.561783 ] ] ], [ [ [ 1.670616, 43.527649 ], [ 1.66283, 43.528468 ], [ 1.659718, 43.530278 ], [ 1.650898, 43.531116 ], [ 1.650709, 43.530557 ], [ 1.650281, 43.529427 ], [ 1.646914, 43.530701 ], [ 1.639561, 43.52947 ], [ 1.633566, 43.525666 ], [ 1.631616, 43.52264 ], [ 1.628228, 43.522139 ], [ 1.627127, 43.52288 ], [ 1.626709, 43.523164 ], [ 1.623796667738612, 43.523395358137364 ], [ 1.625613, 43.526206 ], [ 1.627464, 43.525647 ], [ 1.627669, 43.525729 ], [ 1.627939, 43.52594 ], [ 1.628710132684242, 43.527904803825592 ], [ 1.634817, 43.530275 ], [ 1.636852, 43.534485 ], [ 1.63801, 43.536018 ], [ 1.640084, 43.538767 ], [ 1.644766, 43.539705 ], [ 1.648769, 43.535345 ], [ 1.651609, 43.533132 ], [ 1.660465, 43.53315 ], [ 1.661844, 43.532485 ], [ 1.662936, 43.532015 ], [ 1.663704, 43.531655 ], [ 1.665326, 43.530771 ], [ 1.667048, 43.533932 ], [ 1.665427, 43.534816 ], [ 1.663643288221193, 43.536149564490486 ], [ 1.669847, 43.53522 ], [ 1.670117, 43.534985 ], [ 1.670601, 43.534373 ], [ 1.675827, 43.530017 ], [ 1.678305, 43.528921 ], [ 1.677064, 43.525542 ], [ 1.67397, 43.526333 ], [ 1.670616, 43.527649 ] ] ], [ [ [ 1.601787, 43.634422 ], [ 1.602903, 43.634042 ], [ 1.603385, 43.631848 ], [ 1.601731, 43.62865 ], [ 1.600331, 43.625905 ], [ 1.599611, 43.623235 ], [ 1.599419, 43.623982 ], [ 1.599037, 43.625653 ], [ 1.598866, 43.626444 ], [ 1.597858100261469, 43.626646210960629 ], [ 1.59417, 43.631259 ], [ 1.594182547236541, 43.634485432253314 ], [ 1.597003, 43.634442 ], [ 1.601787, 43.634422 ] ] ] ] } },
{ "type": "Feature", "properties": { "codgeo": "31445", "value": 1080, "isochrone_group": 18.0, "nb_agences": 1 }, "geometry": { "type": "MultiPolygon", "coordinates": [ [ [ [ 1.651172, 43.607502 ], [ 1.653363, 43.606947 ], [ 1.654674, 43.605662 ], [ 1.655758, 43.604259 ], [ 1.656086, 43.603514 ], [ 1.657831, 43.600365 ], [ 1.663006, 43.595876 ], [ 1.666786, 43.597916 ], [ 1.667241, 43.598402 ], [ 1.667959, 43.59881 ], [ 1.66853, 43.598959 ], [ 1.669963, 43.599139 ], [ 1.677452, 43.594196 ], [ 1.676204, 43.590819 ], [ 1.670473, 43.589549 ], [ 1.665672, 43.584809 ], [ 1.664424, 43.581432 ], [ 1.663452, 43.581791 ], [ 1.662983, 43.581929 ], [ 1.662586, 43.582022 ], [ 1.661076, 43.582221 ], [ 1.660856, 43.582242 ], [ 1.659828, 43.582298 ], [ 1.659426, 43.582352 ], [ 1.658966, 43.582462 ], [ 1.65843, 43.582657 ], [ 1.651319, 43.581199 ], [ 1.650712, 43.581764 ], [ 1.649962, 43.58252 ], [ 1.649813, 43.585581 ], [ 1.649631, 43.586167 ], [ 1.648692, 43.588265 ], [ 1.649602, 43.586753 ], [ 1.653385, 43.585586 ], [ 1.655179, 43.584414 ], [ 1.657147, 43.587429 ], [ 1.66291, 43.592276 ], [ 1.662885, 43.595876 ], [ 1.660422, 43.596338 ], [ 1.653217, 43.600213 ], [ 1.647228, 43.602382 ], [ 1.640726, 43.607106 ], [ 1.639672, 43.612101 ], [ 1.637309, 43.616477 ], [ 1.629625, 43.619825 ], [ 1.62646, 43.621055 ], [ 1.620245, 43.617173 ], [ 1.611463, 43.618672 ], [ 1.609597, 43.615593 ], [ 1.606743032650019, 43.614208691072911 ], [ 1.605794, 43.614882 ], [ 1.601248, 43.616371 ], [ 1.599585, 43.622735 ], [ 1.599611, 43.623235 ], [ 1.601807, 43.628611 ], [ 1.603461, 43.631809 ], [ 1.602937, 43.63403 ], [ 1.597420343002691, 43.639002256106764 ], [ 1.602376, 43.63727 ], [ 1.603063, 43.637281 ], [ 1.604132, 43.637225 ], [ 1.607499, 43.636286 ], [ 1.611169, 43.628098 ], [ 1.618374, 43.626195 ], [ 1.620352, 43.626051 ], [ 1.62143, 43.626048 ], [ 1.624509, 43.624182 ], [ 1.632037, 43.623056 ], [ 1.638856, 43.619527 ], [ 1.640852, 43.618568 ], [ 1.643266, 43.615897 ], [ 1.644587, 43.611125 ], [ 1.651172, 43.607502 ] ] ], [ [ [ 1.64789, 43.569423 ], [ 1.650762, 43.568873 ], [ 1.65613, 43.569951 ], [ 1.656488, 43.570237 ], [ 1.656816, 43.570462 ], [ 1.657978, 43.571196 ], [ 1.659902, 43.568153 ], [ 1.662205, 43.562362 ], [ 1.662585, 43.559571 ], [ 1.661843, 43.550958 ], [ 1.659801, 43.547993 ], [ 1.65695, 43.544565 ], [ 1.659927, 43.53724 ], [ 1.656919, 43.538225 ], [ 1.654044, 43.544114 ], [ 1.655945, 43.55031 ], [ 1.657743, 43.553429 ], [ 1.656637, 43.561783 ], [ 1.656671, 43.562717 ], [ 1.65465, 43.5654 ], [ 1.65388, 43.565634 ], [ 1.653456, 43.565743 ], [ 1.653017, 43.565737 ], [ 1.651067, 43.565748 ], [ 1.646105, 43.566629 ], [ 1.639322, 43.566476 ], [ 1.638681, 43.566768 ], [ 1.634776, 43.574581 ], [ 1.636492, 43.577746 ], [ 1.633407, 43.584084 ], [ 1.636707, 43.589762 ], [ 1.635542, 43.583318 ], [ 1.637575, 43.576985 ], [ 1.638005, 43.576532 ], [ 1.638676, 43.575694 ], [ 1.639177, 43.575175 ], [ 1.639853, 43.574594 ], [ 1.640517, 43.573949 ], [ 1.64789, 43.569423 ] ] ], [ [ [ 1.688654, 43.524894 ], [ 1.690299, 43.524056 ], [ 1.688665, 43.520848 ], [ 1.683996, 43.522374 ], [ 1.683328, 43.52257 ], [ 1.682725, 43.522853 ], [ 1.678779, 43.524957 ], [ 1.672965, 43.521809 ], [ 1.670996, 43.520168 ], [ 1.668192, 43.522427 ], [ 1.66126, 43.524637 ], [ 1.657796, 43.525619 ], [ 1.655915, 43.528607 ], [ 1.654992, 43.529712 ], [ 1.653363779787276, 43.530881722963514 ], [ 1.659718, 43.530278 ], [ 1.66283, 43.528468 ], [ 1.670616, 43.527649 ], [ 1.67397, 43.526333 ], [ 1.677064, 43.525542 ], [ 1.678305, 43.528921 ], [ 1.675827, 43.530017 ], [ 1.670601, 43.534373 ], [ 1.670117, 43.534985 ], [ 1.669847, 43.53522 ], [ 1.662032, 43.536391 ], [ 1.660886, 43.536869 ], [ 1.659927, 43.53724 ], [ 1.667109, 43.539987 ], [ 1.667599, 43.539962 ], [ 1.674138, 43.539696 ], [ 1.675074, 43.5395 ], [ 1.675595, 43.539261 ], [ 1.675246, 43.536271 ], [ 1.682463, 43.531407 ], [ 1.688654, 43.524894 ] ] ], [ [ [ 1.628554, 43.520406 ], [ 1.626987, 43.520163 ], [ 1.626898300760897, 43.520165460774763 ], [ 1.627042, 43.521244 ], [ 1.632366, 43.522211 ], [ 1.633526, 43.52179 ], [ 1.634369, 43.522737 ], [ 1.634494, 43.522932 ], [ 1.634752, 43.525175 ], [ 1.634315462372496, 43.526141555440368 ], [ 1.637494310589632, 43.528158626102247 ], [ 1.638839, 43.523725 ], [ 1.641744, 43.522526 ], [ 1.642071, 43.522327 ], [ 1.641692, 43.519417 ], [ 1.641606, 43.519374 ], [ 1.640203, 43.51925 ], [ 1.637405, 43.520243 ], [ 1.628554, 43.520406 ] ] ] ] } },
{ "type": "Feature", "properties": { "codgeo": "31445", "value": 1140, "isochrone_group": 19.0, "nb_agences": 1 }, "geometry": { "type": "MultiPolygon", "coordinates": [ [ [ [ 1.634515, 43.626124 ], [ 1.641604, 43.622013 ], [ 1.647771, 43.618692 ], [ 1.648853, 43.617669 ], [ 1.650093, 43.615941 ], [ 1.648867, 43.614906 ], [ 1.646599, 43.612983 ], [ 1.644459930758271, 43.611584026814164 ], [ 1.643266, 43.615897 ], [ 1.640852, 43.618568 ], [ 1.638856, 43.619527 ], [ 1.632037, 43.623056 ], [ 1.624509, 43.624182 ], [ 1.62143, 43.626048 ], [ 1.620352, 43.626051 ], [ 1.619144332556382, 43.626138919166792 ], [ 1.620408, 43.629658 ], [ 1.620521, 43.63097 ], [ 1.621024, 43.631705 ], [ 1.621195, 43.631859 ], [ 1.62367, 43.63113 ], [ 1.624118, 43.630819 ], [ 1.625482, 43.629934 ], [ 1.633538, 43.626395 ], [ 1.633813, 43.626339 ], [ 1.634107, 43.62626 ], [ 1.634515, 43.626124 ] ] ], [ [ [ 1.667043, 43.601948 ], [ 1.667992, 43.603226 ], [ 1.673094, 43.603755 ], [ 1.675298, 43.600908 ], [ 1.682839, 43.596357 ], [ 1.687342, 43.596398 ], [ 1.689512, 43.593955 ], [ 1.689528, 43.593902 ], [ 1.689414, 43.593202 ], [ 1.68912, 43.592582 ], [ 1.687584, 43.589538 ], [ 1.684151, 43.588453 ], [ 1.679915, 43.590153 ], [ 1.675101, 43.582851 ], [ 1.674316, 43.579338 ], [ 1.668972, 43.579459 ], [ 1.665489, 43.572433 ], [ 1.667602, 43.564169 ], [ 1.672335, 43.558444 ], [ 1.670606, 43.555287 ], [ 1.666163, 43.552446 ], [ 1.668978, 43.544193 ], [ 1.672417, 43.543128 ], [ 1.677449, 43.542092 ], [ 1.684161, 43.538672 ], [ 1.685887, 43.537805 ], [ 1.68825, 43.529128 ], [ 1.690632, 43.525407 ], [ 1.697116, 43.521832 ], [ 1.701365, 43.519487 ], [ 1.703, 43.518729 ], [ 1.701487, 43.515462 ], [ 1.693545, 43.51683 ], [ 1.689332, 43.520509 ], [ 1.688665225853131, 43.520848443412987 ], [ 1.690299, 43.524056 ], [ 1.688654, 43.524894 ], [ 1.682463, 43.531407 ], [ 1.675246, 43.536271 ], [ 1.675595, 43.539261 ], [ 1.675074, 43.5395 ], [ 1.674138, 43.539696 ], [ 1.667599, 43.539962 ], [ 1.667109, 43.539987 ], [ 1.659927, 43.53724 ], [ 1.65695, 43.544565 ], [ 1.659801, 43.547993 ], [ 1.661843, 43.550958 ], [ 1.662585, 43.559571 ], [ 1.662205, 43.562362 ], [ 1.659902, 43.568153 ], [ 1.657978, 43.571196 ], [ 1.656816, 43.570462 ], [ 1.656488, 43.570237 ], [ 1.65613, 43.569951 ], [ 1.650762, 43.568873 ], [ 1.64789, 43.569423 ], [ 1.640517, 43.573949 ], [ 1.639853, 43.574594 ], [ 1.639177, 43.575175 ], [ 1.638676, 43.575694 ], [ 1.638005, 43.576532 ], [ 1.637575, 43.576985 ], [ 1.635542, 43.583318 ], [ 1.636707, 43.589762 ], [ 1.64202, 43.591982 ], [ 1.644604, 43.591323 ], [ 1.648692, 43.588265 ], [ 1.649631, 43.586167 ], [ 1.649813, 43.585581 ], [ 1.649962, 43.58252 ], [ 1.650712, 43.581764 ], [ 1.651319, 43.581199 ], [ 1.65843, 43.582657 ], [ 1.658966, 43.582462 ], [ 1.659426, 43.582352 ], [ 1.659828, 43.582298 ], [ 1.660856, 43.582242 ], [ 1.661076, 43.582221 ], [ 1.662586, 43.582022 ], [ 1.662983, 43.581929 ], [ 1.663452, 43.581791 ], [ 1.664424, 43.581432 ], [ 1.665672, 43.584809 ], [ 1.670473, 43.589549 ], [ 1.676204, 43.590819 ], [ 1.677452, 43.594196 ], [ 1.669963, 43.599139 ], [ 1.66853, 43.598959 ], [ 1.667959, 43.59881 ], [ 1.667241, 43.598402 ], [ 1.666786, 43.597916 ], [ 1.663006, 43.595876 ], [ 1.657831, 43.600365 ], [ 1.656086, 43.603514 ], [ 1.655758, 43.604259 ], [ 1.654674, 43.605662 ], [ 1.653365464916846, 43.606944583967852 ], [ 1.653679, 43.607223 ], [ 1.654513, 43.607874 ], [ 1.655188, 43.608356 ], [ 1.656347, 43.609162 ], [ 1.659504, 43.607501 ], [ 1.659475, 43.607428 ], [ 1.659948, 43.601565 ], [ 1.667043, 43.601948 ] ] ], [ [ [ 1.667347, 43.516767 ], [ 1.659829, 43.521334 ], [ 1.65739, 43.51941 ], [ 1.657108, 43.519617 ], [ 1.656827, 43.519866 ], [ 1.656401, 43.520491 ], [ 1.65623, 43.521433 ], [ 1.652375, 43.52506 ], [ 1.647074, 43.51799 ], [ 1.647553, 43.516603 ], [ 1.646993, 43.514231 ], [ 1.646827, 43.51405 ], [ 1.646111, 43.513304 ], [ 1.645285, 43.513665 ], [ 1.63707, 43.515944 ], [ 1.63436, 43.518315 ], [ 1.633955172942153, 43.519105976036776 ], [ 1.636548752647567, 43.52025876864969 ], [ 1.637405, 43.520243 ], [ 1.640203, 43.51925 ], [ 1.640203490072268, 43.519250043313583 ], [ 1.641469, 43.518408 ], [ 1.642776, 43.519527 ], [ 1.643463, 43.521405 ], [ 1.642203, 43.523081 ], [ 1.638839, 43.523725 ], [ 1.636638, 43.530982 ], [ 1.63777362921683, 43.53515038829152 ], [ 1.638145505089936, 43.536197606312541 ], [ 1.63814692693872, 43.536199490913475 ], [ 1.644766, 43.539705 ], [ 1.647812, 43.533725 ], [ 1.651178, 43.532452 ], [ 1.654992, 43.529712 ], [ 1.655915, 43.528607 ], [ 1.657796, 43.525619 ], [ 1.66126, 43.524637 ], [ 1.668192, 43.522427 ], [ 1.670996, 43.520168 ], [ 1.672965, 43.521809 ], [ 1.678779, 43.524957 ], [ 1.682725, 43.522853 ], [ 1.683328, 43.52257 ], [ 1.676424, 43.520651 ], [ 1.675211, 43.518371 ], [ 1.674874, 43.514982 ], [ 1.672778, 43.512055 ], [ 1.670819, 43.513458 ], [ 1.670353, 43.513847 ], [ 1.669203, 43.515051 ], [ 1.667347, 43.516767 ] ] ], [ [ [ 1.607499, 43.636286 ], [ 1.607465165831889, 43.636295435783737 ], [ 1.607392, 43.637141 ], [ 1.607326, 43.637314 ], [ 1.60661, 43.63806 ], [ 1.605441843918939, 43.638967419659792 ], [ 1.606712, 43.639759 ], [ 1.607370313304905, 43.639926674058991 ], [ 1.608312, 43.638539 ], [ 1.607519813373586, 43.636239564059153 ], [ 1.607499, 43.636286 ] ] ] ] } },
{ "type": "Feature", "properties": { "codgeo": "31445", "value": 1200, "isochrone_group": 20.0, "nb_agences": 1 }, "geometry": { "type": "MultiPolygon", "coordinates": [ [ [ [ 1.621195, 43.631859 ], [ 1.621024, 43.631705 ], [ 1.620521, 43.63097 ], [ 1.62104, 43.63213 ], [ 1.622138, 43.634326 ], [ 1.62547, 43.634095 ], [ 1.625723, 43.633994 ], [ 1.626089, 43.633519 ], [ 1.626597, 43.632757 ], [ 1.626841, 43.632236 ], [ 1.626996, 43.631478 ], [ 1.630928700717593, 43.627541264915642 ], [ 1.625482, 43.629934 ], [ 1.624118, 43.630819 ], [ 1.62367, 43.63113 ], [ 1.621195, 43.631859 ] ] ], [ [ [ 1.634107, 43.62626 ], [ 1.633813, 43.626339 ], [ 1.633538, 43.626395 ], [ 1.632409666748774, 43.626890676685214 ], [ 1.635613, 43.628622 ], [ 1.636938, 43.627843 ], [ 1.637547, 43.627268 ], [ 1.637933, 43.626213 ], [ 1.63782, 43.625373 ], [ 1.638879769801319, 43.623592815255577 ], [ 1.634515, 43.626124 ], [ 1.634107, 43.62626 ] ] ], [ [ [ 1.65684, 43.620595 ], [ 1.656984, 43.620552 ], [ 1.656282, 43.617621 ], [ 1.65773, 43.611048 ], [ 1.659086, 43.609601 ], [ 1.667208, 43.608706 ], [ 1.667604, 43.608561 ], [ 1.669687, 43.607725 ], [ 1.670988, 43.607303 ], [ 1.671506, 43.607074 ], [ 1.672459, 43.606502 ], [ 1.673256, 43.606043 ], [ 1.679702, 43.604984 ], [ 1.682826, 43.606314 ], [ 1.683015, 43.605956 ], [ 1.683194, 43.605543 ], [ 1.683312, 43.605053 ], [ 1.6833, 43.604364 ], [ 1.683093, 43.60364 ], [ 1.688597, 43.596815 ], [ 1.689075, 43.596866 ], [ 1.692428, 43.598585 ], [ 1.692812, 43.598934 ], [ 1.693189, 43.599205 ], [ 1.693658, 43.59946 ], [ 1.694121, 43.599628 ], [ 1.69463, 43.59974 ], [ 1.69506, 43.599781 ], [ 1.696093, 43.599724 ], [ 1.696655, 43.599607 ], [ 1.697017, 43.599495 ], [ 1.696074, 43.59431 ], [ 1.692516, 43.586213 ], [ 1.692418, 43.583845 ], [ 1.690128, 43.581068 ], [ 1.68391, 43.576577 ], [ 1.681071, 43.576612 ], [ 1.678582, 43.577681 ], [ 1.677797, 43.577915 ], [ 1.671052, 43.574307 ], [ 1.672695, 43.570221 ], [ 1.672272, 43.566247 ], [ 1.671932, 43.563375 ], [ 1.678159, 43.55825 ], [ 1.680603, 43.555606 ], [ 1.681914, 43.553725 ], [ 1.679976, 43.550692 ], [ 1.676796, 43.542761 ], [ 1.683631, 43.541628 ], [ 1.684113, 43.541939 ], [ 1.684494, 43.5421 ], [ 1.684717, 43.54217 ], [ 1.687533, 43.543383 ], [ 1.687896, 43.543664 ], [ 1.688522, 43.544106 ], [ 1.689792, 43.543761 ], [ 1.689892, 43.543717 ], [ 1.690068, 43.543636 ], [ 1.690599, 43.541166 ], [ 1.689771, 43.535793 ], [ 1.692429, 43.530034 ], [ 1.695827, 43.525888 ], [ 1.702668, 43.525334 ], [ 1.708067, 43.523318 ], [ 1.710601, 43.515232 ], [ 1.71247236976186, 43.514333481696227 ], [ 1.710558, 43.515252 ], [ 1.710106, 43.515448 ], [ 1.706444, 43.517205 ], [ 1.705849, 43.517506 ], [ 1.70365, 43.518435 ], [ 1.702249257845852, 43.515119610290398 ], [ 1.702046, 43.515205 ], [ 1.693732, 43.514481 ], [ 1.690183, 43.513874 ], [ 1.684615, 43.514395 ], [ 1.681406240783821, 43.511444141057268 ], [ 1.678923, 43.513072 ], [ 1.678199, 43.513623 ], [ 1.675356, 43.510787 ], [ 1.673155, 43.507938 ], [ 1.672859728394717, 43.507804531451846 ], [ 1.671405, 43.508564 ], [ 1.671417, 43.509422 ], [ 1.669203, 43.515051 ], [ 1.670353, 43.513847 ], [ 1.670819, 43.513458 ], [ 1.672778, 43.512055 ], [ 1.674874, 43.514982 ], [ 1.675211, 43.518371 ], [ 1.676424, 43.520651 ], [ 1.683328, 43.52257 ], [ 1.683996, 43.522374 ], [ 1.684442, 43.5223 ], [ 1.68702, 43.521686 ], [ 1.689332, 43.520509 ], [ 1.693545, 43.51683 ], [ 1.701487, 43.515462 ], [ 1.703, 43.518729 ], [ 1.701365, 43.519487 ], [ 1.697116, 43.521832 ], [ 1.690632, 43.525407 ], [ 1.68825, 43.529128 ], [ 1.685887, 43.537805 ], [ 1.684161, 43.538672 ], [ 1.677449, 43.542092 ], [ 1.672417, 43.543128 ], [ 1.668978, 43.544193 ], [ 1.666163, 43.552446 ], [ 1.670606, 43.555287 ], [ 1.672335, 43.558444 ], [ 1.667602, 43.564169 ], [ 1.665489, 43.572433 ], [ 1.668972, 43.579459 ], [ 1.674316, 43.579338 ], [ 1.675101, 43.582851 ], [ 1.679915, 43.590153 ], [ 1.684151, 43.588453 ], [ 1.687584, 43.589538 ], [ 1.68912, 43.592582 ], [ 1.689414, 43.593202 ], [ 1.689528, 43.593902 ], [ 1.689512, 43.593955 ], [ 1.687342, 43.596398 ], [ 1.682839, 43.596357 ], [ 1.675298, 43.600908 ], [ 1.673094, 43.603755 ], [ 1.667992, 43.603226 ], [ 1.667043, 43.601948 ], [ 1.659948, 43.601565 ], [ 1.659475, 43.607428 ], [ 1.659504, 43.607501 ], [ 1.656347, 43.609162 ], [ 1.655188, 43.608356 ], [ 1.654513, 43.607874 ], [ 1.653679, 43.607223 ], [ 1.652072, 43.605796 ], [ 1.650254, 43.603139 ], [ 1.644956, 43.601249 ], [ 1.642624, 43.601989 ], [ 1.641911, 43.609917 ], [ 1.646599, 43.612983 ], [ 1.648867, 43.614906 ], [ 1.650093, 43.615941 ], [ 1.648853, 43.617669 ], [ 1.647771, 43.618692 ], [ 1.645290627430187, 43.620027708983997 ], [ 1.645822, 43.620153 ], [ 1.65053, 43.620657 ], [ 1.652259, 43.62119 ], [ 1.652866, 43.621277 ], [ 1.653422, 43.621251 ], [ 1.653952, 43.621148 ], [ 1.656418, 43.620684 ], [ 1.65684, 43.620595 ] ] ], [ [ [ 1.649218, 43.5137 ], [ 1.649453, 43.514477 ], [ 1.648566891348984, 43.519981085047597 ], [ 1.652375, 43.52506 ], [ 1.65623, 43.521433 ], [ 1.656401, 43.520491 ], [ 1.656827, 43.519866 ], [ 1.657108, 43.519617 ], [ 1.65739, 43.51941 ], [ 1.659829, 43.521334 ], [ 1.667347, 43.516767 ], [ 1.669203, 43.515051 ], [ 1.661739, 43.516106 ], [ 1.656312, 43.511856 ], [ 1.654354, 43.51178 ], [ 1.653925, 43.511748 ], [ 1.653526, 43.511771 ], [ 1.648611861714057, 43.510814701466977 ], [ 1.648944, 43.513158 ], [ 1.649218, 43.5137 ] ] ], [ [ [ 1.607868616425063, 43.63715872368855 ], [ 1.607909, 43.637223 ], [ 1.607967141350275, 43.637265429574015 ], [ 1.60748, 43.636124 ], [ 1.607868616425063, 43.63715872368855 ] ] ] ] } }
]
}
