{
"type": "FeatureCollection",
"name": "La_Banque_Postale",
"crs": { "type": "name", "properties": { "name": "urn:ogc:def:crs:OGC:1.3:CRS84" } },
"features": [
{ "type": "Feature", "properties": { "codgeo": "65417", "value": 60, "isochrone_group": 1.0, "nb_agences": 1 }, "geometry": { "type": "Polygon", "coordinates": [ [ [ 0.09088, 43.233833 ], [ 0.090987, 43.233671 ], [ 0.094021, 43.229424 ], [ 0.095628, 43.229065 ], [ 0.095781, 43.229391 ], [ 0.096163, 43.23372 ], [ 0.096104, 43.234075 ], [ 0.09237, 43.234938 ], [ 0.090944, 43.234028 ], [ 0.090861, 43.233955 ], [ 0.09088, 43.233833 ] ] ] } },
{ "type": "Feature", "properties": { "codgeo": "65417", "value": 120, "isochrone_group": 2.0, "nb_agences": 1 }, "geometry": { "type": "Polygon", "coordinates": [ [ [ 0.103577, 43.235672 ], [ 0.104481, 43.235477 ], [ 0.104539, 43.235122 ], [ 0.104272, 43.235078 ], [ 0.101804, 43.233915 ], [ 0.100887, 43.228744 ], [ 0.100932, 43.228387 ], [ 0.101428, 43.224694 ], [ 0.101185, 43.224429 ], [ 0.096466, 43.226222 ], [ 0.095889, 43.226792 ], [ 0.090144, 43.226108 ], [ 0.089796, 43.226018 ], [ 0.086204, 43.2284 ], [ 0.086161, 43.228429 ], [ 0.086132, 43.228494 ], [ 0.086258, 43.228756 ], [ 0.087392, 43.231032 ], [ 0.087473, 43.231226 ], [ 0.087961, 43.237155 ], [ 0.090001, 43.241068 ], [ 0.09033, 43.241215 ], [ 0.094314, 43.24004 ], [ 0.094651, 43.239912 ], [ 0.095520569422045, 43.239186626854163 ], [ 0.095725, 43.238837 ], [ 0.095939, 43.238548 ], [ 0.096273544498245, 43.23863561297027 ], [ 0.098965, 43.236868 ], [ 0.103577, 43.235672 ] ], [ [ 0.090987, 43.233671 ], [ 0.094021, 43.229424 ], [ 0.095628, 43.229065 ], [ 0.095781, 43.229391 ], [ 0.096163, 43.23372 ], [ 0.096104, 43.234075 ], [ 0.09237, 43.234938 ], [ 0.090944, 43.234028 ], [ 0.090861, 43.233955 ], [ 0.09088, 43.233833 ], [ 0.090987, 43.233671 ] ] ] } },
{ "type": "Feature", "properties": { "codgeo": "65417", "value": 180, "isochrone_group": 3.0, "nb_agences": 1 }, "geometry": { "type": "MultiPolygon", "coordinates": [ [ [ [ 0.112077, 43.236378 ], [ 0.109624, 43.235061 ], [ 0.105672, 43.228182 ], [ 0.10598, 43.220386 ], [ 0.105685, 43.22018 ], [ 0.103599, 43.221354 ], [ 0.102246, 43.222204 ], [ 0.098791, 43.223568 ], [ 0.091705, 43.220636 ], [ 0.091531, 43.220461 ], [ 0.091276, 43.220247 ], [ 0.090977, 43.220079 ], [ 0.090782, 43.219998 ], [ 0.090599, 43.219942 ], [ 0.09039, 43.219881 ], [ 0.089342, 43.219726 ], [ 0.088294, 43.219571 ], [ 0.088241, 43.219927 ], [ 0.084667618574645, 43.225591398578111 ], [ 0.087424952927301, 43.227590336895098 ], [ 0.089796, 43.226018 ], [ 0.090144, 43.226108 ], [ 0.095889, 43.226792 ], [ 0.096466, 43.226222 ], [ 0.101185, 43.224429 ], [ 0.101428, 43.224694 ], [ 0.100932, 43.228387 ], [ 0.100887, 43.228744 ], [ 0.101804, 43.233915 ], [ 0.104272, 43.235078 ], [ 0.104539, 43.235122 ], [ 0.104481, 43.235477 ], [ 0.103577, 43.235672 ], [ 0.10164586139322, 43.236172789630011 ], [ 0.103902, 43.238947 ], [ 0.104002257777927, 43.239208136537862 ], [ 0.10935, 43.237285 ], [ 0.112019, 43.236733 ], [ 0.112077, 43.236378 ] ] ], [ [ [ 0.083951, 43.239644 ], [ 0.088965, 43.246987 ], [ 0.089345, 43.247113 ], [ 0.089705, 43.247111 ], [ 0.092999691637447, 43.246090386482201 ], [ 0.091281, 43.245692 ], [ 0.089814, 43.246074 ], [ 0.08972, 43.246101 ], [ 0.089658, 43.246097 ], [ 0.089465, 43.245986 ], [ 0.08936, 43.245457 ], [ 0.089363, 43.24537 ], [ 0.08966, 43.24504 ], [ 0.091823, 43.241501 ], [ 0.091592781588104, 43.240842568181222 ], [ 0.09033, 43.241215 ], [ 0.090001, 43.241068 ], [ 0.087961, 43.237155 ], [ 0.087704925479512, 43.234043799524642 ], [ 0.085254, 43.235069 ], [ 0.084026, 43.237004 ], [ 0.083819, 43.237299 ], [ 0.083409223823645, 43.237664123282038 ], [ 0.083951, 43.239644 ] ] ] ] } },
{ "type": "Feature", "properties": { "codgeo": "65417", "value": 240, "isochrone_group": 4.0, "nb_agences": 1 }, "geometry": { "type": "MultiPolygon", "coordinates": [ [ [ [ 0.119239, 43.239547 ], [ 0.118155, 43.237026 ], [ 0.11747, 43.236084 ], [ 0.111774, 43.229315 ], [ 0.111828, 43.229043 ], [ 0.111748, 43.228388 ], [ 0.11032, 43.221051 ], [ 0.11156, 43.217975 ], [ 0.109103, 43.215344 ], [ 0.103622, 43.216622 ], [ 0.102643, 43.21684 ], [ 0.094902, 43.219631 ], [ 0.093777, 43.219288 ], [ 0.091584, 43.218485 ], [ 0.091107, 43.218316 ], [ 0.090809, 43.218236 ], [ 0.090439, 43.218167 ], [ 0.088381, 43.217864 ], [ 0.085109, 43.217399 ], [ 0.085044836140009, 43.217387841067826 ], [ 0.093125, 43.219846 ], [ 0.093289, 43.22012 ], [ 0.093545, 43.220763 ], [ 0.093841191066226, 43.221519899549293 ], [ 0.098791, 43.223568 ], [ 0.102246, 43.222204 ], [ 0.103599, 43.221354 ], [ 0.105685, 43.22018 ], [ 0.10598, 43.220386 ], [ 0.105672, 43.228182 ], [ 0.109624, 43.235061 ], [ 0.112077, 43.236378 ], [ 0.112019, 43.236733 ], [ 0.109576484697776, 43.237238158653732 ], [ 0.109645, 43.237517 ], [ 0.108911887588722, 43.239492276067914 ], [ 0.115655, 43.24116 ], [ 0.116255, 43.24156 ], [ 0.119239, 43.239547 ] ] ], [ [ [ 0.083243, 43.217225 ], [ 0.082729, 43.217218 ], [ 0.082262, 43.217266 ], [ 0.081572, 43.217395 ], [ 0.081453207135082, 43.21879433967996 ], [ 0.083563, 43.217265 ], [ 0.083637054943035, 43.217260524151776 ], [ 0.083243, 43.217225 ] ] ], [ [ [ 0.08353, 43.248565 ], [ 0.084905, 43.249669 ], [ 0.0877, 43.251855 ], [ 0.088986, 43.25284 ], [ 0.089375, 43.252864 ], [ 0.091276, 43.25227 ], [ 0.09414630622447, 43.251133513886799 ], [ 0.089828, 43.250629 ], [ 0.089468, 43.25061 ], [ 0.085669, 43.247501 ], [ 0.085702, 43.247142 ], [ 0.086439177599148, 43.243287934605213 ], [ 0.084952615879215, 43.241110865855838 ], [ 0.084383, 43.241405 ], [ 0.080309927362735, 43.242775866104196 ], [ 0.08353, 43.248565 ] ] ] ] } },
{ "type": "Feature", "properties": { "codgeo": "65417", "value": 300, "isochrone_group": 5.0, "nb_agences": 1 }, "geometry": { "type": "MultiPolygon", "coordinates": [ [ [ [ 0.119023, 43.2441 ], [ 0.120602, 43.244727 ], [ 0.121832, 43.245177 ], [ 0.122859, 43.245518 ], [ 0.12373, 43.24483 ], [ 0.124538, 43.243111 ], [ 0.124434, 43.241299 ], [ 0.120662, 43.238715 ], [ 0.11747, 43.236084 ], [ 0.118155, 43.237026 ], [ 0.119239, 43.239547 ], [ 0.116255, 43.24156 ], [ 0.115655, 43.24116 ], [ 0.115033990679526, 43.241006410375114 ], [ 0.114169993348889, 43.242769410930649 ], [ 0.115789, 43.242416 ], [ 0.117056, 43.243122 ], [ 0.117917, 43.243651 ], [ 0.118274, 43.243866 ], [ 0.119023, 43.2441 ] ] ], [ [ [ 0.116392, 43.229408 ], [ 0.11481, 43.227255 ], [ 0.112965, 43.220775 ], [ 0.115494, 43.213995 ], [ 0.115551866410828, 43.21388291422106 ], [ 0.113817, 43.215231 ], [ 0.111498, 43.215757 ], [ 0.111214, 43.215536 ], [ 0.109753, 43.212937 ], [ 0.107576114613559, 43.21233943367691 ], [ 0.1028, 43.213463 ], [ 0.097808, 43.213401 ], [ 0.097586, 43.213387 ], [ 0.097088, 43.213393 ], [ 0.095886, 43.213777 ], [ 0.088239, 43.21601 ], [ 0.085728345684954, 43.215017529996786 ], [ 0.085594, 43.215155 ], [ 0.085288, 43.215295 ], [ 0.084993, 43.21509 ], [ 0.084787589813092, 43.214888724183723 ], [ 0.078612711627209, 43.216342268490706 ], [ 0.079769, 43.216184 ], [ 0.087348, 43.21589 ], [ 0.087635, 43.215929 ], [ 0.091818496194789, 43.218570864315723 ], [ 0.093777, 43.219288 ], [ 0.094902, 43.219631 ], [ 0.102643, 43.21684 ], [ 0.103622, 43.216622 ], [ 0.109103, 43.215344 ], [ 0.11156, 43.217975 ], [ 0.11032, 43.221051 ], [ 0.111748, 43.228388 ], [ 0.111828, 43.229043 ], [ 0.111774, 43.229315 ], [ 0.11747, 43.236084 ], [ 0.116316, 43.22978 ], [ 0.116392, 43.229408 ] ] ], [ [ [ 0.076396288898477, 43.216630634566833 ], [ 0.076386712490219, 43.216646955048184 ], [ 0.076978845836658, 43.216565906018161 ], [ 0.076396288898477, 43.216630634566833 ] ] ], [ [ [ 0.084327, 43.252086 ], [ 0.087819, 43.257753 ], [ 0.088855, 43.2595 ], [ 0.090511, 43.26053 ], [ 0.090532, 43.260529 ], [ 0.092221, 43.258225 ], [ 0.093067668056051, 43.257910130013229 ], [ 0.090001, 43.258369 ], [ 0.089925, 43.258372 ], [ 0.088196, 43.25711 ], [ 0.087233, 43.254285 ], [ 0.081672, 43.24886 ], [ 0.079887, 43.247567 ], [ 0.079392151322366, 43.246497267947362 ], [ 0.079361, 43.246514 ], [ 0.078521010862065, 43.247064870811833 ], [ 0.084327, 43.252086 ] ] ] ] } },
{ "type": "Feature", "properties": { "codgeo": "65417", "value": 360, "isochrone_group": 6.0, "nb_agences": 1 }, "geometry": { "type": "MultiPolygon", "coordinates": [ [ [ [ 0.129964, 43.247824 ], [ 0.131905, 43.248438 ], [ 0.132228, 43.24858 ], [ 0.133677, 43.245285 ], [ 0.133354, 43.245143 ], [ 0.131066, 43.244397 ], [ 0.127459, 43.237025 ], [ 0.127879, 43.235935 ], [ 0.126331, 43.234664 ], [ 0.121815, 43.228125 ], [ 0.118807, 43.226148 ], [ 0.113441356344723, 43.222448056430252 ], [ 0.11481, 43.227255 ], [ 0.116392, 43.229408 ], [ 0.116316, 43.22978 ], [ 0.11747, 43.236084 ], [ 0.120662, 43.238715 ], [ 0.124434, 43.241299 ], [ 0.124538, 43.243111 ], [ 0.12373, 43.24483 ], [ 0.122859, 43.245518 ], [ 0.121832, 43.245177 ], [ 0.120602, 43.244727 ], [ 0.119023, 43.2441 ], [ 0.118274, 43.243866 ], [ 0.118131490894943, 43.243780175188839 ], [ 0.114975, 43.245797 ], [ 0.114613598855065, 43.245961749226652 ], [ 0.118856, 43.24834 ], [ 0.119147, 43.248629 ], [ 0.119927, 43.249357 ], [ 0.120148, 43.249453 ], [ 0.122066, 43.24997 ], [ 0.129964, 43.247824 ] ] ], [ [ [ 0.112965, 43.220775 ], [ 0.113302653182595, 43.221960903860833 ], [ 0.113662668907191, 43.218904618350841 ], [ 0.112965, 43.220775 ] ] ], [ [ [ 0.093387990452127, 43.214493297024866 ], [ 0.093404784225528, 43.214501539665804 ], [ 0.095096278458471, 43.2140076065388 ], [ 0.094738030944465, 43.213033186245525 ], [ 0.093387990452127, 43.214493297024866 ] ] ], [ [ [ 0.079025630957047, 43.250847342248953 ], [ 0.078448504871982, 43.251445865185495 ], [ 0.079911, 43.252594 ], [ 0.081704823836934, 43.253714417195503 ], [ 0.079312, 43.251091 ], [ 0.079025630957047, 43.250847342248953 ] ] ], [ [ [ 0.097606953744123, 43.265132007065688 ], [ 0.094261, 43.264321 ], [ 0.093415, 43.26501 ], [ 0.092536, 43.26498 ], [ 0.091978, 43.264861 ], [ 0.090711, 43.263726 ], [ 0.089867490028603, 43.262767200198844 ], [ 0.09038, 43.265899 ], [ 0.09059, 43.26637 ], [ 0.092114, 43.266743 ], [ 0.092484, 43.266775 ], [ 0.093761, 43.266779 ], [ 0.097606953744123, 43.265132007065688 ] ] ] ] } },
{ "type": "Feature", "properties": { "codgeo": "65417", "value": 420, "isochrone_group": 7.0, "nb_agences": 1 }, "geometry": { "type": "MultiPolygon", "coordinates": [ [ [ [ 0.124943578386393, 43.249188120635957 ], [ 0.122066, 43.24997 ], [ 0.120148, 43.249453 ], [ 0.119927, 43.249357 ], [ 0.119147, 43.248629 ], [ 0.118856, 43.24834 ], [ 0.117366681921685, 43.247505102084766 ], [ 0.114042, 43.248134 ], [ 0.109914, 43.250485 ], [ 0.109633456668154, 43.251299569297366 ], [ 0.11366, 43.249118 ], [ 0.11769, 43.253042 ], [ 0.11876, 43.253318 ], [ 0.118778, 43.253323 ], [ 0.122029, 43.254199 ], [ 0.122966, 43.250724 ], [ 0.124943578386393, 43.249188120635957 ] ] ], [ [ [ 0.132385, 43.253682 ], [ 0.132959, 43.254372 ], [ 0.133438, 43.254659 ], [ 0.134801, 43.255223 ], [ 0.134842, 43.255235 ], [ 0.135031, 43.25525 ], [ 0.13664, 43.25411 ], [ 0.13982, 43.247532 ], [ 0.139196, 43.243986 ], [ 0.138743, 43.243919 ], [ 0.138364, 43.243897 ], [ 0.131728, 43.238179 ], [ 0.13226, 43.234223 ], [ 0.131468, 43.231726 ], [ 0.130925, 43.229014 ], [ 0.129863, 43.228355 ], [ 0.124794, 43.22189 ], [ 0.124489864550024, 43.214426832042449 ], [ 0.122231, 43.215418 ], [ 0.119796, 43.216589 ], [ 0.118637, 43.217103 ], [ 0.11809, 43.217315 ], [ 0.117406, 43.217549 ], [ 0.113595794183331, 43.219472338690672 ], [ 0.11326, 43.222323 ], [ 0.118807, 43.226148 ], [ 0.121815, 43.228125 ], [ 0.126331, 43.234664 ], [ 0.127879, 43.235935 ], [ 0.127459, 43.237025 ], [ 0.131066, 43.244397 ], [ 0.133354, 43.245143 ], [ 0.133677, 43.245285 ], [ 0.132228, 43.24858 ], [ 0.131905, 43.248438 ], [ 0.129964, 43.247824 ], [ 0.126698516533153, 43.248711278743976 ], [ 0.13216, 43.252679 ], [ 0.132385, 43.253682 ] ] ], [ [ [ 0.089497, 43.270071 ], [ 0.091483, 43.273855 ], [ 0.092465, 43.275221 ], [ 0.093279, 43.275219 ], [ 0.095083, 43.273792 ], [ 0.095076, 43.273388 ], [ 0.09833207273479, 43.271304202596149 ], [ 0.09491, 43.271449 ], [ 0.091316, 43.271645 ], [ 0.089205, 43.268574 ], [ 0.089182, 43.268412 ], [ 0.089241, 43.266431 ], [ 0.08908, 43.262834 ], [ 0.085806, 43.256276 ], [ 0.082254, 43.256124 ], [ 0.078290238566025, 43.252977517805881 ], [ 0.078288079504639, 43.252980544785402 ], [ 0.078275772099948, 43.253735017314909 ], [ 0.082272, 43.256755 ], [ 0.088566, 43.262857 ], [ 0.088727, 43.266454 ], [ 0.089322, 43.269397 ], [ 0.089497, 43.270071 ] ] ] ] } },
{ "type": "Feature", "properties": { "codgeo": "65417", "value": 480, "isochrone_group": 8.0, "nb_agences": 1 }, "geometry": { "type": "MultiPolygon", "coordinates": [ [ [ [ 0.136564, 43.261156 ], [ 0.14085, 43.259817 ], [ 0.142664, 43.258891 ], [ 0.142722, 43.258789 ], [ 0.141969, 43.256395 ], [ 0.139786, 43.254911 ], [ 0.142634, 43.247333 ], [ 0.143687, 43.247019 ], [ 0.145033, 43.2465 ], [ 0.146889, 43.245976 ], [ 0.148807, 43.245135 ], [ 0.147965, 43.241635 ], [ 0.146425, 43.241909 ], [ 0.145978, 43.241978 ], [ 0.145439, 43.242098 ], [ 0.143744, 43.24289 ], [ 0.135448, 43.239424 ], [ 0.137715, 43.231096 ], [ 0.138106, 43.227517 ], [ 0.132193, 43.223364 ], [ 0.131884, 43.223216 ], [ 0.127092, 43.219814 ], [ 0.128689100217017, 43.216015217520066 ], [ 0.124538953737542, 43.215631429702434 ], [ 0.124794, 43.22189 ], [ 0.129863, 43.228355 ], [ 0.130925, 43.229014 ], [ 0.131468, 43.231726 ], [ 0.13226, 43.234223 ], [ 0.131728, 43.238179 ], [ 0.138364, 43.243897 ], [ 0.138743, 43.243919 ], [ 0.139196, 43.243986 ], [ 0.13982, 43.247532 ], [ 0.13664, 43.25411 ], [ 0.135031, 43.25525 ], [ 0.134842, 43.255235 ], [ 0.134801, 43.255223 ], [ 0.133438, 43.254659 ], [ 0.132959, 43.254372 ], [ 0.132385, 43.253682 ], [ 0.13216, 43.252679 ], [ 0.126109, 43.248283 ], [ 0.122966, 43.250724 ], [ 0.122029, 43.254199 ], [ 0.118778, 43.253323 ], [ 0.11876, 43.253318 ], [ 0.11769, 43.253042 ], [ 0.115924575319604, 43.251323010807489 ], [ 0.111844, 43.25411 ], [ 0.111027, 43.255742 ], [ 0.109957695887802, 43.25875621846437 ], [ 0.117212, 43.256478 ], [ 0.117781, 43.256493 ], [ 0.124628, 43.256175 ], [ 0.125393, 43.255557 ], [ 0.132675, 43.260259 ], [ 0.132999, 43.26166 ], [ 0.136564, 43.261156 ] ] ], [ [ [ 0.14577, 43.207426 ], [ 0.146368, 43.206971 ], [ 0.146364891029363, 43.206966917426939 ], [ 0.14577, 43.207426 ] ] ], [ [ [ 0.082761, 43.258291 ], [ 0.078485135534619, 43.257596068900874 ], [ 0.078389370384473, 43.258442215305365 ], [ 0.082761, 43.258291 ] ] ], [ [ [ 0.087632, 43.274143 ], [ 0.089389240331607, 43.274862140527077 ], [ 0.088282, 43.272002 ], [ 0.088121, 43.271258 ], [ 0.087363, 43.268672 ], [ 0.086451, 43.266537 ], [ 0.083288, 43.258757 ], [ 0.082761, 43.258291 ], [ 0.08352, 43.260172 ], [ 0.083641, 43.260752 ], [ 0.084479, 43.264541 ], [ 0.084218, 43.265983 ], [ 0.086949, 43.271315 ], [ 0.087050695968419, 43.273871862637137 ], [ 0.087632, 43.274143 ] ] ], [ [ [ 0.105272524917814, 43.275973553821245 ], [ 0.105183, 43.275742 ], [ 0.105171, 43.275715 ], [ 0.100975, 43.270715 ], [ 0.096041, 43.277289 ], [ 0.09604, 43.277368 ], [ 0.095043, 43.278942 ], [ 0.094303, 43.278937 ], [ 0.091168, 43.278928 ], [ 0.090745286580983, 43.278089275299962 ], [ 0.090744, 43.278953 ], [ 0.089930714087412, 43.279302386069439 ], [ 0.09137, 43.27973 ], [ 0.092863, 43.279928 ], [ 0.097324, 43.278938 ], [ 0.099067, 43.276969 ], [ 0.105272524917814, 43.275973553821245 ] ] ] ] } },
{ "type": "Feature", "properties": { "codgeo": "65417", "value": 540, "isochrone_group": 9.0, "nb_agences": 1 }, "geometry": { "type": "MultiPolygon", "coordinates": [ [ [ [ 0.135897, 43.268034 ], [ 0.137906, 43.269404 ], [ 0.138182, 43.269339 ], [ 0.139477, 43.268413 ], [ 0.146424, 43.265432 ], [ 0.150138, 43.262459 ], [ 0.152315, 43.259593 ], [ 0.151554, 43.258614 ], [ 0.151235, 43.252134 ], [ 0.153723, 43.249532 ], [ 0.159273, 43.244795 ], [ 0.158501, 43.241279 ], [ 0.153071, 43.240284 ], [ 0.149992, 43.239291 ], [ 0.145978, 43.241978 ], [ 0.146425, 43.241909 ], [ 0.147965, 43.241635 ], [ 0.148807, 43.245135 ], [ 0.146889, 43.245976 ], [ 0.145033, 43.2465 ], [ 0.144421742592518, 43.246735692863659 ], [ 0.144429, 43.246764 ], [ 0.143687, 43.247019 ], [ 0.141589158923076, 43.250113128399214 ], [ 0.139786, 43.254911 ], [ 0.141969, 43.256395 ], [ 0.142722, 43.258789 ], [ 0.142664, 43.258891 ], [ 0.14085, 43.259817 ], [ 0.136564, 43.261156 ], [ 0.132999, 43.26166 ], [ 0.132675, 43.260259 ], [ 0.125393, 43.255557 ], [ 0.124628, 43.256175 ], [ 0.117781, 43.256493 ], [ 0.117212, 43.256478 ], [ 0.108949, 43.259073 ], [ 0.111447, 43.266416 ], [ 0.11261791818196, 43.267115759571134 ], [ 0.116069, 43.260642 ], [ 0.123628, 43.257544 ], [ 0.129384, 43.261179 ], [ 0.129731, 43.261672 ], [ 0.130347, 43.262146 ], [ 0.133885, 43.265347 ], [ 0.135897, 43.268034 ] ] ], [ [ [ 0.141608, 43.232309 ], [ 0.142155, 43.231633 ], [ 0.14249, 43.231013 ], [ 0.144171, 43.228347 ], [ 0.144741, 43.227566 ], [ 0.145034, 43.227096 ], [ 0.144851, 43.22657 ], [ 0.144093, 43.225341 ], [ 0.142999, 43.224983 ], [ 0.135923, 43.22046 ], [ 0.135022, 43.220115 ], [ 0.131564319974555, 43.215358082550466 ], [ 0.12759807062248, 43.22017327634758 ], [ 0.131884, 43.223216 ], [ 0.132193, 43.223364 ], [ 0.138106, 43.227517 ], [ 0.137715, 43.231096 ], [ 0.135448, 43.239424 ], [ 0.143744, 43.24289 ], [ 0.145439, 43.242098 ], [ 0.137465, 43.238081 ], [ 0.141608, 43.232309 ] ] ], [ [ [ 0.147947, 43.205363 ], [ 0.150769438148751, 43.203738008332365 ], [ 0.148926, 43.204071 ], [ 0.147947, 43.205363 ] ] ], [ [ [ 0.083641, 43.260752 ], [ 0.083586123405883, 43.26048895516869 ], [ 0.083375742041779, 43.260539765888353 ], [ 0.083663179522717, 43.260852284262015 ], [ 0.083641, 43.260752 ] ] ], [ [ [ 0.084202879318522, 43.272592768484706 ], [ 0.084421, 43.271902 ], [ 0.084662, 43.26831 ], [ 0.084590783533703, 43.266710821970605 ], [ 0.084218, 43.265983 ], [ 0.084364724784784, 43.26517235961817 ], [ 0.083138, 43.268732 ], [ 0.082633, 43.26926 ], [ 0.082329, 43.269846 ], [ 0.082148, 43.270281 ], [ 0.08216899294924, 43.27124866769671 ], [ 0.084202879318522, 43.272592768484706 ] ] ], [ [ [ 0.084425456794506, 43.264298905482555 ], [ 0.084403736361958, 43.264956824391035 ], [ 0.084472531414164, 43.264576738317139 ], [ 0.084462068513472, 43.264464444627151 ], [ 0.084425456794506, 43.264298905482555 ] ] ], [ [ [ 0.095298, 43.285228 ], [ 0.091735, 43.284717 ], [ 0.089094, 43.282244 ], [ 0.088727538495309, 43.2819357746259 ], [ 0.087143389212576, 43.282396073867957 ], [ 0.088128, 43.283353 ], [ 0.090899, 43.285652 ], [ 0.095202, 43.285899 ], [ 0.096032024435884, 43.284795462381297 ], [ 0.095298, 43.285228 ] ] ] ] } },
{ "type": "Feature", "properties": { "codgeo": "65417", "value": 600, "isochrone_group": 10.0, "nb_agences": 1 }, "geometry": { "type": "MultiPolygon", "coordinates": [ [ [ [ 0.135528, 43.275528 ], [ 0.136702, 43.27626 ], [ 0.137376, 43.276285 ], [ 0.139112, 43.275193 ], [ 0.141305, 43.271793 ], [ 0.145221, 43.266319 ], [ 0.148656, 43.266132 ], [ 0.149049, 43.266072 ], [ 0.155244, 43.26696 ], [ 0.156026, 43.267259 ], [ 0.158998, 43.265311 ], [ 0.158892, 43.265123 ], [ 0.158575, 43.264701 ], [ 0.15808, 43.26428 ], [ 0.15758, 43.264012 ], [ 0.156431, 43.263171 ], [ 0.155615, 43.262303 ], [ 0.157263, 43.253755 ], [ 0.16011, 43.252926 ], [ 0.161279, 43.249521 ], [ 0.167573, 43.243815 ], [ 0.168549, 43.2437 ], [ 0.168131, 43.240125 ], [ 0.162354, 43.239254 ], [ 0.159682, 43.239183 ], [ 0.15921, 43.239397 ], [ 0.150620818040116, 43.239493798413079 ], [ 0.153071, 43.240284 ], [ 0.158501, 43.241279 ], [ 0.159273, 43.244795 ], [ 0.153723, 43.249532 ], [ 0.151235, 43.252134 ], [ 0.151554, 43.258614 ], [ 0.152315, 43.259593 ], [ 0.150138, 43.262459 ], [ 0.146424, 43.265432 ], [ 0.139477, 43.268413 ], [ 0.138182, 43.269339 ], [ 0.137906, 43.269404 ], [ 0.135897, 43.268034 ], [ 0.134252600908722, 43.265837926263295 ], [ 0.134239, 43.265836 ], [ 0.133885, 43.265347 ], [ 0.130347, 43.262146 ], [ 0.134988, 43.26874 ], [ 0.135667, 43.274183 ], [ 0.135518, 43.275423 ], [ 0.135528, 43.275528 ] ] ], [ [ [ 0.150738, 43.227009 ], [ 0.150507, 43.221169 ], [ 0.147059, 43.220133 ], [ 0.140675, 43.222821 ], [ 0.137786, 43.220585 ], [ 0.133463044921622, 43.2136934541372 ], [ 0.132665, 43.214212 ], [ 0.131683, 43.215214 ], [ 0.131543909323274, 43.215322379049212 ], [ 0.131541, 43.215326 ], [ 0.135022, 43.220115 ], [ 0.135923, 43.22046 ], [ 0.142999, 43.224983 ], [ 0.144093, 43.225341 ], [ 0.144851, 43.22657 ], [ 0.145034, 43.227096 ], [ 0.144741, 43.227566 ], [ 0.144171, 43.228347 ], [ 0.14249, 43.231013 ], [ 0.142155, 43.231633 ], [ 0.141608, 43.232309 ], [ 0.137861967564184, 43.23752794743411 ], [ 0.138031374234775, 43.23836631794596 ], [ 0.145439, 43.242098 ], [ 0.145978, 43.241978 ], [ 0.149992, 43.239291 ], [ 0.150260583450326, 43.239377620125424 ], [ 0.15118, 43.230582 ], [ 0.150738, 43.227009 ] ] ], [ [ [ 0.188155324156677, 43.195607823509931 ], [ 0.188155, 43.195606 ], [ 0.187383, 43.195743 ], [ 0.188155324156677, 43.195607823509931 ] ] ], [ [ [ 0.114302, 43.268227 ], [ 0.114657, 43.268621 ], [ 0.114986, 43.269016 ], [ 0.115519, 43.269582 ], [ 0.115937657387262, 43.269941659598267 ], [ 0.117154, 43.26371 ], [ 0.123628, 43.257544 ], [ 0.116069, 43.260642 ], [ 0.112856073881598, 43.266669011907275 ], [ 0.11388, 43.26787 ], [ 0.114302, 43.268227 ] ] ], [ [ [ 0.096899945279034, 43.292104938833148 ], [ 0.094141, 43.292048 ], [ 0.09237, 43.292113 ], [ 0.087550247773819, 43.287554366548115 ], [ 0.086723491818111, 43.287717248055756 ], [ 0.089476, 43.292135 ], [ 0.092614, 43.294043 ], [ 0.096211, 43.29419 ], [ 0.096935, 43.292634 ], [ 0.096899945279034, 43.292104938833148 ] ] ] ] } },
{ "type": "Feature", "properties": { "codgeo": "65417", "value": 660, "isochrone_group": 11.0, "nb_agences": 1 }, "geometry": { "type": "MultiPolygon", "coordinates": [ [ [ [ 0.210847, 43.200609 ], [ 0.212001, 43.200291 ], [ 0.211999421955091, 43.200285276495428 ], [ 0.210847, 43.200609 ] ] ], [ [ [ 0.142979, 43.277805 ], [ 0.143947, 43.274338 ], [ 0.152679, 43.272763 ], [ 0.156264, 43.272437 ], [ 0.164514, 43.273453 ], [ 0.166319, 43.270338 ], [ 0.166008, 43.265837 ], [ 0.165779, 43.265731 ], [ 0.163864, 43.264734 ], [ 0.163046, 43.265033 ], [ 0.158109, 43.263827 ], [ 0.160793, 43.255483 ], [ 0.164075, 43.252875 ], [ 0.164564, 43.252658 ], [ 0.165725, 43.252081 ], [ 0.170243, 43.251215 ], [ 0.170662, 43.251175 ], [ 0.171762, 43.249188 ], [ 0.177858, 43.243687 ], [ 0.178375, 43.240124 ], [ 0.175877, 43.23817 ], [ 0.174296, 43.236808 ], [ 0.174063, 43.236808 ], [ 0.166478, 43.23731 ], [ 0.160986, 43.230229 ], [ 0.161036, 43.228196 ], [ 0.160685, 43.226642 ], [ 0.156179, 43.221463 ], [ 0.156214, 43.217863 ], [ 0.154353, 43.216504 ], [ 0.15241, 43.215664 ], [ 0.151715, 43.215356 ], [ 0.151407, 43.215628 ], [ 0.149548, 43.217527 ], [ 0.148231, 43.218532 ], [ 0.141361, 43.219057 ], [ 0.141012, 43.219075 ], [ 0.140444, 43.219209 ], [ 0.139561, 43.219406 ], [ 0.13358361154815, 43.213615113527922 ], [ 0.133463044921622, 43.2136934541372 ], [ 0.137786, 43.220585 ], [ 0.13935602110892, 43.221800149601798 ], [ 0.142516497646883, 43.222045632569738 ], [ 0.147059, 43.220133 ], [ 0.150507, 43.221169 ], [ 0.150738, 43.227009 ], [ 0.15118, 43.230582 ], [ 0.150266654458034, 43.239319541686868 ], [ 0.150852680948582, 43.239491185363107 ], [ 0.15921, 43.239397 ], [ 0.159682, 43.239183 ], [ 0.162354, 43.239254 ], [ 0.168131, 43.240125 ], [ 0.168549, 43.2437 ], [ 0.167573, 43.243815 ], [ 0.161279, 43.249521 ], [ 0.16011, 43.252926 ], [ 0.157263, 43.253755 ], [ 0.155615, 43.262303 ], [ 0.156431, 43.263171 ], [ 0.15758, 43.264012 ], [ 0.15808, 43.26428 ], [ 0.158575, 43.264701 ], [ 0.158892, 43.265123 ], [ 0.158998, 43.265311 ], [ 0.156026, 43.267259 ], [ 0.155244, 43.26696 ], [ 0.149049, 43.266072 ], [ 0.148656, 43.266132 ], [ 0.146051275699366, 43.266273800129326 ], [ 0.143806193197206, 43.268296694698293 ], [ 0.141305, 43.271793 ], [ 0.139112, 43.275193 ], [ 0.137376, 43.276285 ], [ 0.136702, 43.27626 ], [ 0.135528, 43.275528 ], [ 0.135518, 43.275423 ], [ 0.135667, 43.274183 ], [ 0.13544129222368, 43.27237368125698 ], [ 0.130986, 43.277862 ], [ 0.131311364092781, 43.278547303661362 ], [ 0.131312, 43.278547 ], [ 0.138233, 43.281895 ], [ 0.139706, 43.283257 ], [ 0.139986, 43.283263 ], [ 0.140371, 43.283193 ], [ 0.141832, 43.281806 ], [ 0.142979, 43.277805 ] ] ], [ [ [ 0.09645, 43.300195 ], [ 0.096148976952118, 43.29851576358584 ], [ 0.096053, 43.298584 ], [ 0.092454, 43.298646 ], [ 0.090623042834499, 43.296311296895503 ], [ 0.090027648093267, 43.296894151271324 ], [ 0.091575, 43.298442 ], [ 0.093081, 43.301464 ], [ 0.094141, 43.302234 ], [ 0.094587, 43.302242 ], [ 0.09645, 43.300195 ] ] ] ] } },
{ "type": "Feature", "properties": { "codgeo": "65417", "value": 720, "isochrone_group": 12.0, "nb_agences": 1 }, "geometry": { "type": "MultiPolygon", "coordinates": [ [ [ [ 0.2248, 43.185562 ], [ 0.224783370364523, 43.185557378792559 ], [ 0.224388, 43.186867 ], [ 0.224642, 43.186129 ], [ 0.2248, 43.185562 ] ] ], [ [ [ 0.15144, 43.27822 ], [ 0.151439, 43.278733 ], [ 0.151456, 43.27881 ], [ 0.153185, 43.279662 ], [ 0.154716, 43.280434 ], [ 0.155069, 43.2795 ], [ 0.156639, 43.277067 ], [ 0.164289594987173, 43.273425364182678 ], [ 0.156264, 43.272437 ], [ 0.152679, 43.272763 ], [ 0.151686751317354, 43.272941972935762 ], [ 0.152127, 43.274906 ], [ 0.151602, 43.277194 ], [ 0.151549, 43.277408 ], [ 0.151468, 43.277764 ], [ 0.15144, 43.27822 ] ] ], [ [ [ 0.16767, 43.275198 ], [ 0.167884, 43.275272 ], [ 0.16828, 43.2754 ], [ 0.168862, 43.275534 ], [ 0.169577, 43.275651 ], [ 0.173501, 43.27615 ], [ 0.173851, 43.276195 ], [ 0.17431, 43.272624 ], [ 0.175028, 43.26771 ], [ 0.17475, 43.26761 ], [ 0.172236, 43.266453 ], [ 0.171852, 43.266373 ], [ 0.169504, 43.266011 ], [ 0.169385, 43.265991 ], [ 0.168395, 43.265805 ], [ 0.168107, 43.265768 ], [ 0.167651, 43.265746 ], [ 0.166717, 43.265772 ], [ 0.165779035534729, 43.265731016448385 ], [ 0.166008, 43.265837 ], [ 0.166319, 43.270338 ], [ 0.164514348294747, 43.273452398926239 ], [ 0.167137, 43.274964 ], [ 0.16767, 43.275198 ] ] ], [ [ [ 0.1654, 43.254779 ], [ 0.173442, 43.252305 ], [ 0.177036, 43.252103 ], [ 0.17699, 43.251288 ], [ 0.17962, 43.245457 ], [ 0.184271, 43.243637 ], [ 0.187517, 43.243845 ], [ 0.188164, 43.242654 ], [ 0.188324, 43.24236 ], [ 0.188447, 43.242091 ], [ 0.188961, 43.240547 ], [ 0.188586, 43.240383 ], [ 0.187394, 43.240084 ], [ 0.18677, 43.240002 ], [ 0.184198, 43.240038 ], [ 0.177025, 43.236567 ], [ 0.175033, 43.231039 ], [ 0.170908, 43.226155 ], [ 0.165869, 43.218891 ], [ 0.165134, 43.218006 ], [ 0.163202, 43.217898 ], [ 0.156919, 43.213918 ], [ 0.152422, 43.213126 ], [ 0.151800886012464, 43.212048523377604 ], [ 0.151123, 43.212107 ], [ 0.147598, 43.212293 ], [ 0.139412, 43.209828 ], [ 0.13764, 43.210133 ], [ 0.133520708620577, 43.213554173250202 ], [ 0.139561, 43.219406 ], [ 0.140331, 43.21914 ], [ 0.140774711578016, 43.219130980015059 ], [ 0.141012, 43.219075 ], [ 0.141361, 43.219057 ], [ 0.148231, 43.218532 ], [ 0.149548, 43.217527 ], [ 0.151407, 43.215628 ], [ 0.151715, 43.215356 ], [ 0.15241, 43.215664 ], [ 0.154353, 43.216504 ], [ 0.156214, 43.217863 ], [ 0.156179, 43.221463 ], [ 0.160685, 43.226642 ], [ 0.161036, 43.228196 ], [ 0.160986, 43.230229 ], [ 0.166478, 43.23731 ], [ 0.174063, 43.236808 ], [ 0.174296, 43.236808 ], [ 0.175877, 43.23817 ], [ 0.178375, 43.240124 ], [ 0.177858, 43.243687 ], [ 0.171762, 43.249188 ], [ 0.170662, 43.251175 ], [ 0.170243, 43.251215 ], [ 0.166228272170443, 43.251984533931029 ], [ 0.164564, 43.252658 ], [ 0.164075, 43.252875 ], [ 0.160793, 43.255483 ], [ 0.158126127243238, 43.263773754948737 ], [ 0.15812100846296, 43.263829933402143 ], [ 0.163046, 43.265033 ], [ 0.163864, 43.264734 ], [ 0.165697914025747, 43.265688784482343 ], [ 0.163062, 43.257136 ], [ 0.1654, 43.254779 ] ] ], [ [ [ 0.144951, 43.285487 ], [ 0.144974, 43.285082 ], [ 0.144894, 43.284989 ], [ 0.143685, 43.28394 ], [ 0.142077228098713, 43.28095058794861 ], [ 0.141832, 43.281806 ], [ 0.140371, 43.283193 ], [ 0.139986, 43.283263 ], [ 0.139903262714035, 43.283261227058155 ], [ 0.139531, 43.286561 ], [ 0.138677, 43.286669 ], [ 0.138259, 43.286699 ], [ 0.136661, 43.286617 ], [ 0.136646362739435, 43.286631061462735 ], [ 0.138601, 43.287623 ], [ 0.140588, 43.287932 ], [ 0.142134, 43.288313 ], [ 0.144453, 43.286987 ], [ 0.144537, 43.286823 ], [ 0.144913, 43.285663 ], [ 0.144951, 43.285487 ] ] ], [ [ [ 0.123676, 43.3036 ], [ 0.123925, 43.297618 ], [ 0.126184955771838, 43.294899351392758 ], [ 0.12376, 43.295647 ], [ 0.123187, 43.302846 ], [ 0.123675905228302, 43.303602919540197 ], [ 0.123676, 43.3036 ] ] ], [ [ [ 0.120083, 43.312037 ], [ 0.120083154725988, 43.312036940613964 ], [ 0.11973, 43.311117 ], [ 0.120083, 43.312037 ] ] ], [ [ [ 0.0988, 43.304062 ], [ 0.098756868600351, 43.303205795832497 ], [ 0.098467, 43.303788 ], [ 0.097689, 43.306548 ], [ 0.094103, 43.306862 ], [ 0.093618, 43.305404 ], [ 0.092269959271287, 43.303259274788083 ], [ 0.090747773223895, 43.303927576156127 ], [ 0.090872, 43.304555 ], [ 0.094694, 43.309173 ], [ 0.098091, 43.307983 ], [ 0.0987, 43.305796 ], [ 0.0988, 43.304062 ] ] ] ] } },
{ "type": "Feature", "properties": { "codgeo": "65417", "value": 780, "isochrone_group": 13.0, "nb_agences": 1 }, "geometry": { "type": "MultiPolygon", "coordinates": [ [ [ [ 0.238965667925634, 43.176531996816735 ], [ 0.23701, 43.17706 ], [ 0.238842, 43.176699 ], [ 0.238996, 43.176663 ], [ 0.238965667925634, 43.176531996816735 ] ] ], [ [ [ 0.094948254851845, 43.311204526096894 ], [ 0.095545, 43.311652 ], [ 0.094992626525453, 43.311171913747735 ], [ 0.094948254851845, 43.311204526096894 ] ] ], [ [ [ 0.100152, 43.314924 ], [ 0.099993, 43.313745 ], [ 0.104005, 43.306467 ], [ 0.10648685895322, 43.30583732955342 ], [ 0.104003, 43.305291 ], [ 0.099778, 43.313043 ], [ 0.096352, 43.31415 ], [ 0.095545, 43.311652 ], [ 0.096456, 43.315066 ], [ 0.098095, 43.316546 ], [ 0.098389, 43.316541 ], [ 0.09873, 43.316537 ], [ 0.09967, 43.316116 ], [ 0.099948, 43.31594 ], [ 0.100256, 43.315623 ], [ 0.100152, 43.314924 ] ] ], [ [ [ 0.119007996039887, 43.316336634451169 ], [ 0.119008, 43.316337 ], [ 0.120703477932359, 43.3180239676621 ], [ 0.119067, 43.316336 ], [ 0.119007996039887, 43.316336634451169 ] ] ], [ [ [ 0.125696, 43.316635 ], [ 0.125331, 43.307753 ], [ 0.125419, 43.30688 ], [ 0.124829, 43.305539 ], [ 0.124637, 43.313854 ], [ 0.1257, 43.316646 ], [ 0.125700485923989, 43.316646769202464 ], [ 0.125696, 43.316635 ] ] ], [ [ [ 0.148436, 43.288084 ], [ 0.156614, 43.285364 ], [ 0.157484, 43.286659 ], [ 0.15922, 43.287243 ], [ 0.159483, 43.2872 ], [ 0.160785, 43.285222 ], [ 0.160578, 43.284748 ], [ 0.159959, 43.282293 ], [ 0.158752, 43.278902 ], [ 0.164387, 43.273379 ], [ 0.156639, 43.277067 ], [ 0.155069, 43.2795 ], [ 0.154716, 43.280434 ], [ 0.153185, 43.279662 ], [ 0.151456, 43.27881 ], [ 0.151439, 43.278733 ], [ 0.15144, 43.27822 ], [ 0.151468, 43.277764 ], [ 0.151549, 43.277408 ], [ 0.151588775815527, 43.277247395763709 ], [ 0.145615, 43.278106 ], [ 0.144894, 43.284989 ], [ 0.144974, 43.285082 ], [ 0.14497139163438, 43.285127929916349 ], [ 0.145348, 43.285804 ], [ 0.145352, 43.28688 ], [ 0.145157, 43.287382 ], [ 0.142904, 43.289465 ], [ 0.141249, 43.290654 ], [ 0.134594, 43.294444 ], [ 0.134131, 43.294749 ], [ 0.133688057067065, 43.295023930096306 ], [ 0.138006, 43.296161 ], [ 0.138222, 43.296243 ], [ 0.138312, 43.296273 ], [ 0.146189, 43.291972 ], [ 0.146942, 43.291803 ], [ 0.147645, 43.291505 ], [ 0.147697, 43.291478 ], [ 0.148436, 43.288084 ] ] ], [ [ [ 0.183334, 43.273765 ], [ 0.178894, 43.266715 ], [ 0.180329, 43.259771 ], [ 0.180664, 43.256187 ], [ 0.179421, 43.250696 ], [ 0.184271, 43.243637 ], [ 0.182743052745862, 43.244234906687282 ], [ 0.178886401718689, 43.247083468280728 ], [ 0.17699, 43.251288 ], [ 0.177036, 43.252103 ], [ 0.173442, 43.252305 ], [ 0.1654, 43.254779 ], [ 0.163062, 43.257136 ], [ 0.165417813893416, 43.264779939944184 ], [ 0.168107, 43.265768 ], [ 0.168395, 43.265805 ], [ 0.169837, 43.265997 ], [ 0.169855038064717, 43.266065120860041 ], [ 0.171852, 43.266373 ], [ 0.172236, 43.266453 ], [ 0.17475, 43.26761 ], [ 0.175028, 43.26771 ], [ 0.17431, 43.272624 ], [ 0.173851, 43.276195 ], [ 0.173501, 43.27615 ], [ 0.171043071846569, 43.27583743472259 ], [ 0.171043, 43.275838 ], [ 0.169577, 43.275651 ], [ 0.168862, 43.275534 ], [ 0.16828, 43.2754 ], [ 0.167884, 43.275272 ], [ 0.16767, 43.275198 ], [ 0.167137, 43.274964 ], [ 0.169732, 43.280436 ], [ 0.173305, 43.280873 ], [ 0.179068, 43.276853 ], [ 0.182809, 43.277327 ], [ 0.18288, 43.277336 ], [ 0.184731, 43.276148 ], [ 0.184739, 43.276123 ], [ 0.183334, 43.273765 ] ] ], [ [ [ 0.191303, 43.246112 ], [ 0.191682, 43.246244 ], [ 0.192023, 43.246328 ], [ 0.193438, 43.246562 ], [ 0.193997, 43.246584 ], [ 0.195841, 43.246588 ], [ 0.19705, 43.246607 ], [ 0.197109, 43.243008 ], [ 0.189822, 43.239539 ], [ 0.186817, 43.237557 ], [ 0.181496, 43.235911 ], [ 0.179273, 43.230442 ], [ 0.180145, 43.22695 ], [ 0.179369, 43.226756 ], [ 0.178715, 43.226608 ], [ 0.174831, 43.224143 ], [ 0.174542306822211, 43.222031383298976 ], [ 0.174054, 43.222662 ], [ 0.172846, 43.222821 ], [ 0.172782, 43.222828 ], [ 0.171952, 43.222907 ], [ 0.166670914439736, 43.22004700446324 ], [ 0.170908, 43.226155 ], [ 0.175033, 43.231039 ], [ 0.176595021121378, 43.235373765441253 ], [ 0.178553235946798, 43.237306510242753 ], [ 0.184198, 43.240038 ], [ 0.18677, 43.240002 ], [ 0.187394, 43.240084 ], [ 0.188586, 43.240383 ], [ 0.188961, 43.240547 ], [ 0.188447, 43.242091 ], [ 0.188324, 43.24236 ], [ 0.188164, 43.242654 ], [ 0.187517, 43.243845 ], [ 0.184271, 43.243637 ], [ 0.189047, 43.244794 ], [ 0.190806, 43.245878 ], [ 0.191303, 43.246112 ] ] ], [ [ [ 0.156516311862911, 43.213847079607611 ], [ 0.156919, 43.213918 ], [ 0.163202, 43.217898 ], [ 0.164670716891235, 43.217980102186459 ], [ 0.161146, 43.214044 ], [ 0.159452, 43.213465 ], [ 0.156516311862911, 43.213847079607611 ] ] ] ] } },
{ "type": "Feature", "properties": { "codgeo": "65417", "value": 840, "isochrone_group": 14.0, "nb_agences": 1 }, "geometry": { "type": "MultiPolygon", "coordinates": [ [ [ [ 0.102475123503942, 43.319609734185768 ], [ 0.100794, 43.320519 ], [ 0.100792516881879, 43.320519250667857 ], [ 0.100809, 43.320609 ], [ 0.101837943777946, 43.321067493082388 ], [ 0.102475123503942, 43.319609734185768 ] ] ], [ [ [ 0.125700256586545, 43.316646167516218 ], [ 0.132438, 43.321045 ], [ 0.133126765591246, 43.320993862769711 ], [ 0.125700248097315, 43.316646145243993 ], [ 0.125700256586545, 43.316646167516218 ] ] ], [ [ [ 0.151228, 43.296822 ], [ 0.152215, 43.293852 ], [ 0.158674, 43.289694 ], [ 0.16209, 43.290454 ], [ 0.162868, 43.290809 ], [ 0.163821, 43.291145 ], [ 0.164912, 43.291374 ], [ 0.166067, 43.291599 ], [ 0.171982, 43.289413 ], [ 0.173916, 43.286041 ], [ 0.181528, 43.281273 ], [ 0.182162, 43.28135 ], [ 0.183052, 43.281054 ], [ 0.191514, 43.281058 ], [ 0.194162, 43.275574 ], [ 0.191132, 43.27363 ], [ 0.185269, 43.272959 ], [ 0.183086, 43.265212 ], [ 0.189605, 43.261408 ], [ 0.190046, 43.257836 ], [ 0.18717, 43.249435 ], [ 0.192023, 43.246328 ], [ 0.191682, 43.246244 ], [ 0.191523544634515, 43.246188812379309 ], [ 0.191522, 43.246193 ], [ 0.191303, 43.246112 ], [ 0.190806, 43.245878 ], [ 0.183263, 43.245897 ], [ 0.181828356472479, 43.247192179517683 ], [ 0.179421, 43.250696 ], [ 0.180664, 43.256187 ], [ 0.180329, 43.259771 ], [ 0.178894, 43.266715 ], [ 0.183334, 43.273765 ], [ 0.184739, 43.276123 ], [ 0.184731, 43.276148 ], [ 0.18288, 43.277336 ], [ 0.182809, 43.277327 ], [ 0.179068, 43.276853 ], [ 0.173305, 43.280873 ], [ 0.169732, 43.280436 ], [ 0.167137, 43.274964 ], [ 0.164387, 43.273379 ], [ 0.158752, 43.278902 ], [ 0.159959, 43.282293 ], [ 0.160578, 43.284748 ], [ 0.160785, 43.285222 ], [ 0.159483, 43.2872 ], [ 0.15922, 43.287243 ], [ 0.157484, 43.286659 ], [ 0.156614, 43.285364 ], [ 0.15261721113047, 43.286693330609587 ], [ 0.150033, 43.290222 ], [ 0.150058, 43.290901 ], [ 0.149925, 43.291432 ], [ 0.149816, 43.291854 ], [ 0.146189, 43.291972 ], [ 0.139388, 43.297677 ], [ 0.139073, 43.297906 ], [ 0.138879, 43.298021 ], [ 0.133268, 43.298827 ], [ 0.132159168608719, 43.299011232757231 ], [ 0.135011, 43.300438 ], [ 0.136593, 43.300504 ], [ 0.138592, 43.300805 ], [ 0.140984, 43.298491 ], [ 0.141104, 43.298388 ], [ 0.149811, 43.29642 ], [ 0.150474, 43.296673 ], [ 0.151228, 43.296822 ] ] ], [ [ [ 0.197331, 43.251106 ], [ 0.197584, 43.25127 ], [ 0.198722, 43.252082 ], [ 0.199067, 43.252188 ], [ 0.199673, 43.251864 ], [ 0.200356, 43.251437 ], [ 0.201154, 43.250812 ], [ 0.203858, 43.245981 ], [ 0.203988, 43.243214 ], [ 0.203869, 43.243098 ], [ 0.202444, 43.24267 ], [ 0.19896, 43.241375 ], [ 0.198807, 43.241411 ], [ 0.197635, 43.241885 ], [ 0.190147, 43.238035 ], [ 0.18953, 43.236896 ], [ 0.18943, 43.230623 ], [ 0.188759, 43.228577 ], [ 0.187456, 43.228551 ], [ 0.185753, 43.228345 ], [ 0.18461, 43.228119 ], [ 0.183211, 43.227757 ], [ 0.179904655993831, 43.222773049284328 ], [ 0.178947, 43.224514 ], [ 0.177460380013834, 43.225811749159135 ], [ 0.178715, 43.226608 ], [ 0.179369, 43.226756 ], [ 0.180145, 43.22695 ], [ 0.179273, 43.230442 ], [ 0.181496, 43.235911 ], [ 0.186817, 43.237557 ], [ 0.189822, 43.239539 ], [ 0.197109, 43.243008 ], [ 0.19705, 43.246607 ], [ 0.195841, 43.246588 ], [ 0.193997, 43.246584 ], [ 0.193438, 43.246562 ], [ 0.192023, 43.246328 ], [ 0.196675, 43.250547 ], [ 0.196985, 43.250837 ], [ 0.197331, 43.251106 ] ] ], [ [ [ 0.240930805127893, 43.179875758667329 ], [ 0.240628995139975, 43.179921329536178 ], [ 0.240651, 43.179929 ], [ 0.240863, 43.179966 ], [ 0.240930805127893, 43.179875758667329 ] ] ], [ [ [ 0.254304032830567, 43.167794860305825 ], [ 0.252694, 43.168355 ], [ 0.250685, 43.170062 ], [ 0.254304032830567, 43.167794860305825 ] ] ], [ [ [ 0.25631, 43.162478 ], [ 0.255467, 43.162704 ], [ 0.256311686432018, 43.162484298307326 ], [ 0.25631, 43.162478 ] ] ] ] } },
{ "type": "Feature", "properties": { "codgeo": "65417", "value": 900, "isochrone_group": 15.0, "nb_agences": 1 }, "geometry": { "type": "MultiPolygon", "coordinates": [ [ [ [ 0.155093, 43.301777 ], [ 0.155262, 43.301773 ], [ 0.155814, 43.301742 ], [ 0.156663, 43.300545 ], [ 0.157517, 43.298917 ], [ 0.165463, 43.29542 ], [ 0.168803, 43.296765 ], [ 0.172313, 43.295075 ], [ 0.173327, 43.291621 ], [ 0.177284, 43.287036 ], [ 0.183036, 43.282735 ], [ 0.190556, 43.285453 ], [ 0.194774, 43.286671 ], [ 0.195167, 43.286206 ], [ 0.195547, 43.285483 ], [ 0.195657, 43.284815 ], [ 0.195546, 43.284037 ], [ 0.195389, 43.28281 ], [ 0.197717, 43.276861 ], [ 0.200859, 43.275328 ], [ 0.199848, 43.271873 ], [ 0.196673, 43.263895 ], [ 0.198411, 43.260743 ], [ 0.200294, 43.25717 ], [ 0.20676, 43.251768 ], [ 0.208032, 43.249121 ], [ 0.212175, 43.243635 ], [ 0.212014, 43.241801 ], [ 0.211931, 43.241407 ], [ 0.211488, 43.240101 ], [ 0.209946, 43.239859 ], [ 0.20898, 43.23987 ], [ 0.206577, 43.24053 ], [ 0.203952, 43.24228 ], [ 0.202299263081462, 43.242616201403678 ], [ 0.202444, 43.24267 ], [ 0.203869, 43.243098 ], [ 0.203988, 43.243214 ], [ 0.203858, 43.245981 ], [ 0.201154, 43.250812 ], [ 0.200356, 43.251437 ], [ 0.199673, 43.251864 ], [ 0.199067, 43.252188 ], [ 0.198722, 43.252082 ], [ 0.197584, 43.25127 ], [ 0.197331, 43.251106 ], [ 0.196985, 43.250837 ], [ 0.196675, 43.250547 ], [ 0.192023, 43.246328 ], [ 0.18717, 43.249435 ], [ 0.190046, 43.257836 ], [ 0.189605, 43.261408 ], [ 0.183086, 43.265212 ], [ 0.185269, 43.272959 ], [ 0.191132, 43.27363 ], [ 0.194162, 43.275574 ], [ 0.191514, 43.281058 ], [ 0.183052, 43.281054 ], [ 0.182162, 43.28135 ], [ 0.181528, 43.281273 ], [ 0.173916, 43.286041 ], [ 0.171982, 43.289413 ], [ 0.166067, 43.291599 ], [ 0.164912, 43.291374 ], [ 0.163821, 43.291145 ], [ 0.162868, 43.290809 ], [ 0.16209, 43.290454 ], [ 0.160978399548628, 43.290206688424163 ], [ 0.155552, 43.29513 ], [ 0.153368, 43.297992 ], [ 0.150474, 43.296673 ], [ 0.149811, 43.29642 ], [ 0.141104, 43.298388 ], [ 0.140984, 43.298491 ], [ 0.138729, 43.302486 ], [ 0.135216, 43.303274 ], [ 0.132793, 43.304119 ], [ 0.132651101484985, 43.304145241506198 ], [ 0.135723, 43.30779 ], [ 0.137072, 43.30939 ], [ 0.138194, 43.309604 ], [ 0.138915, 43.309676 ], [ 0.139866, 43.308704 ], [ 0.140405, 43.308028 ], [ 0.144216, 43.300253 ], [ 0.153135, 43.300903 ], [ 0.153218, 43.301179 ], [ 0.154657, 43.301733 ], [ 0.155093, 43.301777 ] ] ], [ [ [ 0.187456, 43.228551 ], [ 0.188759, 43.228577 ], [ 0.18943, 43.230623 ], [ 0.18953, 43.236896 ], [ 0.190147, 43.238035 ], [ 0.197797797626618, 43.241819158639053 ], [ 0.198005106707645, 43.241735315205261 ], [ 0.196564, 43.23707 ], [ 0.197627, 43.235162 ], [ 0.197721, 43.233661 ], [ 0.194015, 43.229002 ], [ 0.193156, 43.22881 ], [ 0.192156, 43.228548 ], [ 0.191468, 43.228431 ], [ 0.19074, 43.228373 ], [ 0.190173, 43.228355 ], [ 0.18959, 43.228402 ], [ 0.187456, 43.228551 ] ] ], [ [ [ 0.181076882361835, 43.224540051881405 ], [ 0.183211, 43.227757 ], [ 0.184196611522936, 43.219605305069351 ], [ 0.182747, 43.220463 ], [ 0.181076882361835, 43.224540051881405 ] ] ], [ [ [ 0.236105, 43.181596 ], [ 0.234521730907691, 43.181026977324535 ], [ 0.237267, 43.182711 ], [ 0.237977, 43.183379 ], [ 0.236686, 43.182164 ], [ 0.236105, 43.181596 ] ] ], [ [ [ 0.242299669677714, 43.18412717433678 ], [ 0.242624, 43.183956 ], [ 0.243291537559796, 43.182026399241217 ], [ 0.242299669677714, 43.18412717433678 ] ] ], [ [ [ 0.244496755321546, 43.177153337215891 ], [ 0.245123039606846, 43.174598557593271 ], [ 0.244956, 43.174731 ], [ 0.244496755321546, 43.177153337215891 ] ] ], [ [ [ 0.278013999906113, 43.159399647048104 ], [ 0.278014769306182, 43.159399372860847 ], [ 0.277912, 43.159388 ], [ 0.278013999906113, 43.159399647048104 ] ] ], [ [ [ 0.242268325080838, 43.170311020544013 ], [ 0.241936430255549, 43.170386455879992 ], [ 0.242128, 43.17038 ], [ 0.242268325080838, 43.170311020544013 ] ] ], [ [ [ 0.219246, 43.188895 ], [ 0.219165235902288, 43.189007882425791 ], [ 0.219165235902289, 43.189007882425791 ], [ 0.219246, 43.188895 ] ] ] ] } },
{ "type": "Feature", "properties": { "codgeo": "65417", "value": 960, "isochrone_group": 16.0, "nb_agences": 1 }, "geometry": { "type": "MultiPolygon", "coordinates": [ [ [ [ 0.008136, 43.269071 ], [ 0.008816, 43.267985 ], [ 0.008701683391227, 43.266301488546361 ], [ 0.00813, 43.267285 ], [ 0.008136, 43.269071 ] ] ], [ [ [ 0.177276, 43.290893 ], [ 0.177414, 43.28994 ], [ 0.185117, 43.285706 ], [ 0.190545, 43.291174 ], [ 0.193329, 43.293456 ], [ 0.200442, 43.289517 ], [ 0.201509, 43.287906 ], [ 0.200036, 43.279486 ], [ 0.204647, 43.274219 ], [ 0.207715, 43.273319 ], [ 0.210783, 43.27242 ], [ 0.20977, 43.268965 ], [ 0.206496, 43.260736 ], [ 0.211545, 43.253344 ], [ 0.21242, 43.253221 ], [ 0.214455, 43.247613 ], [ 0.217625, 43.242204 ], [ 0.217658, 43.242147 ], [ 0.217461, 43.239912 ], [ 0.216672, 43.239626 ], [ 0.213755, 43.239588 ], [ 0.208301, 43.235875 ], [ 0.207958, 43.235295 ], [ 0.207718, 43.235047 ], [ 0.207089, 43.234504 ], [ 0.200414, 43.23201 ], [ 0.199556, 43.232188 ], [ 0.196598452175185, 43.232249788365934 ], [ 0.197721, 43.233661 ], [ 0.197627, 43.235162 ], [ 0.196564, 43.23707 ], [ 0.197976213248149, 43.241641777998638 ], [ 0.199578, 43.2405 ], [ 0.200109, 43.240079 ], [ 0.206138558618013, 43.240822294254656 ], [ 0.206577, 43.24053 ], [ 0.20898, 43.23987 ], [ 0.209946, 43.239859 ], [ 0.211488, 43.240101 ], [ 0.211931, 43.241407 ], [ 0.212014, 43.241801 ], [ 0.212175, 43.243635 ], [ 0.208032, 43.249121 ], [ 0.20676, 43.251768 ], [ 0.200294, 43.25717 ], [ 0.198411, 43.260743 ], [ 0.196673, 43.263895 ], [ 0.199848, 43.271873 ], [ 0.200859, 43.275328 ], [ 0.197717, 43.276861 ], [ 0.195389, 43.28281 ], [ 0.195546, 43.284037 ], [ 0.195657, 43.284815 ], [ 0.195547, 43.285483 ], [ 0.195167, 43.286206 ], [ 0.194774, 43.286671 ], [ 0.190556, 43.285453 ], [ 0.183036, 43.282735 ], [ 0.177284, 43.287036 ], [ 0.173327, 43.291621 ], [ 0.172313, 43.295075 ], [ 0.168803, 43.296765 ], [ 0.165463, 43.29542 ], [ 0.157517, 43.298917 ], [ 0.157255385494499, 43.299415721797367 ], [ 0.157671, 43.301805 ], [ 0.157597, 43.302126 ], [ 0.157289, 43.303037 ], [ 0.157206, 43.303162 ], [ 0.155928, 43.303757 ], [ 0.155078, 43.303602 ], [ 0.153554, 43.301508 ], [ 0.145071, 43.300367 ], [ 0.143088009345799, 43.302554266684957 ], [ 0.140700249218894, 43.307425648208628 ], [ 0.14238, 43.309887 ], [ 0.143151966855455, 43.311778131878953 ], [ 0.143411, 43.310041 ], [ 0.146883, 43.302275 ], [ 0.15215, 43.303589 ], [ 0.155088, 43.304978 ], [ 0.163979, 43.304784 ], [ 0.171096, 43.30197 ], [ 0.172092, 43.301542 ], [ 0.170671, 43.298234 ], [ 0.174293, 43.291301 ], [ 0.177045, 43.29142 ], [ 0.177276, 43.290893 ] ] ], [ [ [ 0.233048, 43.189779 ], [ 0.23292647601342, 43.189639647030589 ], [ 0.232989, 43.190587 ], [ 0.233002, 43.190595 ], [ 0.233536003964939, 43.190581864360325 ], [ 0.233048, 43.189779 ] ] ], [ [ [ 0.245924319113702, 43.181370526931637 ], [ 0.245794394554519, 43.180756106511851 ], [ 0.245718, 43.180928 ], [ 0.245924319113702, 43.181370526931637 ] ] ], [ [ [ 0.229921, 43.174402 ], [ 0.2296817984285, 43.174474865132332 ], [ 0.2296817984285, 43.174474865132332 ], [ 0.229921, 43.174402 ] ] ], [ [ [ 0.183258971264553, 43.188867816862185 ], [ 0.18285781807726, 43.188828320565477 ], [ 0.183025, 43.188925 ], [ 0.183258971264553, 43.188867816862185 ] ] ], [ [ [ 0.177481, 43.18372 ], [ 0.173608040534663, 43.179827354773835 ], [ 0.175067, 43.183546 ], [ 0.176735, 43.18521 ], [ 0.177111, 43.185505 ], [ 0.179622475364829, 43.186957358090567 ], [ 0.17823, 43.185093 ], [ 0.177481, 43.18372 ] ] ] ] } },
{ "type": "Feature", "properties": { "codgeo": "65417", "value": 1020, "isochrone_group": 17.0, "nb_agences": 1 }, "geometry": { "type": "MultiPolygon", "coordinates": [ [ [ [ 0.148804892301613, 43.314404042940374 ], [ 0.147961, 43.311868 ], [ 0.147957, 43.311245 ], [ 0.149935034722393, 43.308467403869336 ], [ 0.146891, 43.310654 ], [ 0.146915, 43.311817 ], [ 0.148804892301613, 43.314404042940374 ] ] ], [ [ [ 0.201492, 43.29574 ], [ 0.202617, 43.297068 ], [ 0.203076, 43.297703 ], [ 0.205025, 43.296707 ], [ 0.205408, 43.296281 ], [ 0.205996, 43.295598 ], [ 0.205849, 43.290597 ], [ 0.206392, 43.287038 ], [ 0.206183, 43.279928 ], [ 0.208028, 43.273228 ], [ 0.210158201633045, 43.272603081398934 ], [ 0.209117969277846, 43.272907895247464 ], [ 0.209118, 43.272908 ], [ 0.206882, 43.273564 ], [ 0.204647, 43.274219 ], [ 0.200036, 43.279486 ], [ 0.201509, 43.287906 ], [ 0.200442, 43.289517 ], [ 0.193329, 43.293456 ], [ 0.190545, 43.291174 ], [ 0.186093929894058, 43.286690129082658 ], [ 0.184631386558149, 43.285972920331403 ], [ 0.177414, 43.28994 ], [ 0.177276, 43.290893 ], [ 0.177045, 43.29142 ], [ 0.174854179474155, 43.29132526611825 ], [ 0.174765, 43.291714 ], [ 0.17339536877102, 43.293019188103401 ], [ 0.170671, 43.298234 ], [ 0.172092, 43.301542 ], [ 0.171096, 43.30197 ], [ 0.163979, 43.304784 ], [ 0.156744572116635, 43.304941853898256 ], [ 0.15444524533793, 43.305355795504809 ], [ 0.159549, 43.310682 ], [ 0.16286, 43.312095 ], [ 0.165817, 43.309092 ], [ 0.167686, 43.306015 ], [ 0.173431, 43.302772 ], [ 0.180028, 43.302794 ], [ 0.187081, 43.298696 ], [ 0.190681, 43.298738 ], [ 0.191925, 43.295847 ], [ 0.192298, 43.295288 ], [ 0.201184, 43.295467 ], [ 0.201492, 43.29574 ] ] ], [ [ [ 0.214015, 43.271975 ], [ 0.216457, 43.271757 ], [ 0.218663, 43.27156 ], [ 0.22087, 43.271363 ], [ 0.22055, 43.267778 ], [ 0.215361, 43.261547 ], [ 0.217711, 43.25882 ], [ 0.216918, 43.258137 ], [ 0.219064, 43.249777 ], [ 0.224421, 43.242951 ], [ 0.224603, 43.239356 ], [ 0.222095, 43.237763 ], [ 0.213595, 43.235085 ], [ 0.210717, 43.232922 ], [ 0.204487, 43.231027 ], [ 0.203368, 43.230654 ], [ 0.200431532971785, 43.23201655089612 ], [ 0.207089, 43.234504 ], [ 0.207718, 43.235047 ], [ 0.207958, 43.235295 ], [ 0.208301, 43.235875 ], [ 0.213755, 43.239588 ], [ 0.216672, 43.239626 ], [ 0.217461, 43.239912 ], [ 0.217658, 43.242147 ], [ 0.217625, 43.242204 ], [ 0.214455, 43.247613 ], [ 0.21242, 43.253221 ], [ 0.211545, 43.253344 ], [ 0.206496, 43.260736 ], [ 0.20977, 43.268965 ], [ 0.210782943243526, 43.272419806422903 ], [ 0.211372, 43.272247 ], [ 0.211573, 43.272193 ], [ 0.214015, 43.271975 ] ] ], [ [ [ 0.199556, 43.232188 ], [ 0.199943914592857, 43.232107523545992 ], [ 0.196328854115126, 43.232217840125962 ], [ 0.196355664883638, 43.232254860618653 ], [ 0.199556, 43.232188 ] ] ], [ [ [ 0.20512, 43.209803 ], [ 0.205120057040288, 43.209799459568295 ], [ 0.20292846262071, 43.20974535315721 ], [ 0.203642, 43.209779 ], [ 0.20512, 43.209803 ] ] ], [ [ [ 0.235129, 43.193923 ], [ 0.23563, 43.193559 ], [ 0.235125378389462, 43.193923880241464 ], [ 0.235129, 43.193923 ] ] ], [ [ [ 0.251656, 43.182721 ], [ 0.252018, 43.184407 ], [ 0.252172223891701, 43.184857883861731 ], [ 0.25222, 43.18479 ], [ 0.252221, 43.184772 ], [ 0.253468782942215, 43.17874035820293 ], [ 0.251656, 43.182721 ] ] ], [ [ [ 0.185695, 43.216614 ], [ 0.18596311714588, 43.214630643364586 ], [ 0.185070841019232, 43.215672164905641 ], [ 0.185487704250405, 43.216746771260631 ], [ 0.185695, 43.216614 ] ] ], [ [ [ 0.176039409092001, 43.18227108166861 ], [ 0.175943868368322, 43.181982752516682 ], [ 0.175874889344991, 43.182105725688629 ], [ 0.176039409092001, 43.18227108166861 ] ] ] ] } },
{ "type": "Feature", "properties": { "codgeo": "65417", "value": 1080, "isochrone_group": 18.0, "nb_agences": 1 }, "geometry": { "type": "MultiPolygon", "coordinates": [ [ [ [ 0.193889, 43.303324 ], [ 0.19357, 43.302381 ], [ 0.193489, 43.299889 ], [ 0.201184, 43.295467 ], [ 0.193704602786109, 43.295316334672371 ], [ 0.191925, 43.295847 ], [ 0.190681, 43.298738 ], [ 0.187081, 43.298696 ], [ 0.180028, 43.302794 ], [ 0.173431, 43.302772 ], [ 0.167686, 43.306015 ], [ 0.165817, 43.309092 ], [ 0.16286, 43.312095 ], [ 0.162603394072821, 43.311985491037419 ], [ 0.161363, 43.314177 ], [ 0.162480881000457, 43.315056190592962 ], [ 0.166936, 43.30963 ], [ 0.16998, 43.310097 ], [ 0.171577, 43.310648 ], [ 0.17278, 43.307255 ], [ 0.178941, 43.305175 ], [ 0.182366, 43.306286 ], [ 0.185841, 43.306632 ], [ 0.191012, 43.304914 ], [ 0.192199, 43.304464 ], [ 0.193041, 43.304161 ], [ 0.193467, 43.303832 ], [ 0.193889, 43.303324 ] ] ], [ [ [ 0.204656, 43.299001 ], [ 0.206719, 43.300115 ], [ 0.208073, 43.301338 ], [ 0.20859, 43.301453 ], [ 0.213361, 43.302137 ], [ 0.213855, 43.302214 ], [ 0.214734, 43.302325 ], [ 0.215846, 43.300772 ], [ 0.215877, 43.300612 ], [ 0.215183, 43.298753 ], [ 0.212893, 43.290635 ], [ 0.212721, 43.287039 ], [ 0.211268, 43.278437 ], [ 0.216457, 43.271757 ], [ 0.215942989849064, 43.271802886246057 ], [ 0.215943, 43.271803 ], [ 0.213758, 43.271998 ], [ 0.211372, 43.272247 ], [ 0.208028, 43.273228 ], [ 0.206183, 43.279928 ], [ 0.206392, 43.287038 ], [ 0.205849, 43.290597 ], [ 0.205996, 43.295598 ], [ 0.205408, 43.296281 ], [ 0.205025, 43.296707 ], [ 0.203098553943866, 43.297691474228763 ], [ 0.203506, 43.298219 ], [ 0.204174, 43.298753 ], [ 0.204656, 43.299001 ] ] ], [ [ [ 0.228228, 43.272246 ], [ 0.229237, 43.272332 ], [ 0.22991, 43.272139 ], [ 0.229957, 43.27212 ], [ 0.230946, 43.271082 ], [ 0.22894, 43.268744 ], [ 0.228667, 43.268673 ], [ 0.22657, 43.268375 ], [ 0.224296, 43.260576 ], [ 0.225223, 43.251847 ], [ 0.226195, 43.248914 ], [ 0.23288, 43.243233 ], [ 0.234197, 43.241565 ], [ 0.234158, 43.241012 ], [ 0.233025, 43.239636 ], [ 0.232432, 43.239612 ], [ 0.229857, 43.239529 ], [ 0.223082, 43.234032 ], [ 0.222715, 43.230318 ], [ 0.221999338708877, 43.229410541482856 ], [ 0.221296, 43.229381 ], [ 0.221266, 43.22938 ], [ 0.221124, 43.229371 ], [ 0.220333339959565, 43.228534820107427 ], [ 0.216761, 43.229241 ], [ 0.214837, 43.229561 ], [ 0.210904, 43.23039 ], [ 0.210044, 43.230369 ], [ 0.208748, 43.230348 ], [ 0.207108262798128, 43.231824318298962 ], [ 0.210717, 43.232922 ], [ 0.213595, 43.235085 ], [ 0.222095, 43.237763 ], [ 0.224603, 43.239356 ], [ 0.224421, 43.242951 ], [ 0.219064, 43.249777 ], [ 0.216918, 43.258137 ], [ 0.217711, 43.25882 ], [ 0.215361, 43.261547 ], [ 0.22055, 43.267778 ], [ 0.22087, 43.271363 ], [ 0.218663, 43.27156 ], [ 0.216457, 43.271757 ], [ 0.218899, 43.271539 ], [ 0.223903, 43.272009 ], [ 0.228228, 43.272246 ] ] ], [ [ [ 0.196394, 43.210749 ], [ 0.198458642103517, 43.209904683412212 ], [ 0.197851, 43.20962 ], [ 0.194815, 43.207336 ], [ 0.187177, 43.211104 ], [ 0.186895821479124, 43.212011514659686 ], [ 0.187496413091892, 43.216781497806025 ], [ 0.18768, 43.216798 ], [ 0.190778, 43.214963 ], [ 0.196394, 43.210749 ] ] ], [ [ [ 0.257161, 43.175733 ], [ 0.255079, 43.178151 ], [ 0.255458451547256, 43.180116658870432 ], [ 0.258322292161173, 43.175023498213868 ], [ 0.257161, 43.175733 ] ] ], [ [ [ 0.241252425105086, 43.16258294805538 ], [ 0.241352, 43.16284 ], [ 0.242530106626091, 43.162188423166455 ], [ 0.241252425105086, 43.16258294805538 ] ] ], [ [ [ 0.223508838951006, 43.177585906529217 ], [ 0.223726, 43.176813 ], [ 0.221412886923323, 43.171864466631774 ], [ 0.223508838951006, 43.177585906529217 ] ] ], [ [ [ 0.164038, 43.168146 ], [ 0.166036, 43.167486 ], [ 0.166174460729712, 43.167345718025238 ], [ 0.166124, 43.167343 ], [ 0.164038, 43.168146 ] ] ], [ [ [ 0.152688, 43.168066 ], [ 0.152146, 43.1673 ], [ 0.151997, 43.167178 ], [ 0.151827, 43.167075 ], [ 0.150891009737895, 43.166432985536467 ], [ 0.15104, 43.168584 ], [ 0.151644, 43.169161 ], [ 0.155632922238484, 43.170469722638423 ], [ 0.152688, 43.168066 ] ] ], [ [ [ 0.158636993510918, 43.171455326229221 ], [ 0.159081, 43.171601 ], [ 0.160017, 43.171877 ], [ 0.160384992646856, 43.172128455124266 ], [ 0.163043, 43.169002 ], [ 0.158636993510918, 43.171455326229221 ] ] ] ] } },
{ "type": "Feature", "properties": { "codgeo": "65417", "value": 1140, "isochrone_group": 19.0, "nb_agences": 1 }, "geometry": { "type": "MultiPolygon", "coordinates": [ [ [ [ 0.196059, 43.307725 ], [ 0.198467, 43.305048 ], [ 0.204656, 43.299001 ], [ 0.204174, 43.298753 ], [ 0.203506, 43.298219 ], [ 0.202617, 43.297068 ], [ 0.201492, 43.29574 ], [ 0.201184, 43.295467 ], [ 0.193489, 43.299889 ], [ 0.19357, 43.302381 ], [ 0.193889, 43.303324 ], [ 0.193467, 43.303832 ], [ 0.193041, 43.304161 ], [ 0.192199, 43.304464 ], [ 0.191012, 43.304914 ], [ 0.185841, 43.306632 ], [ 0.182366, 43.306286 ], [ 0.178941, 43.305175 ], [ 0.173348055892127, 43.307063220052648 ], [ 0.177828, 43.310046 ], [ 0.177937, 43.310424 ], [ 0.178043, 43.310636 ], [ 0.181641, 43.310528 ], [ 0.187034, 43.312795 ], [ 0.188034, 43.312583 ], [ 0.193327, 43.308711 ], [ 0.196059, 43.307725 ] ] ], [ [ [ 0.162418, 43.315462 ], [ 0.162770301395233, 43.31635690140692 ], [ 0.163532982351624, 43.317574878322759 ], [ 0.167597162494049, 43.322186457569494 ], [ 0.169412, 43.321673 ], [ 0.175182, 43.320161 ], [ 0.175427221215905, 43.319912218195014 ], [ 0.175427, 43.319912 ], [ 0.167773, 43.316453 ], [ 0.168404, 43.312909 ], [ 0.170109496551954, 43.310141679148465 ], [ 0.16998, 43.310097 ], [ 0.169663477374797, 43.310048440188574 ], [ 0.16966, 43.310054 ], [ 0.166936, 43.30963 ], [ 0.162418, 43.315462 ] ] ], [ [ [ 0.21719, 43.288612 ], [ 0.216882, 43.288329 ], [ 0.216495, 43.288015 ], [ 0.21602, 43.287723 ], [ 0.214285, 43.287217 ], [ 0.213681, 43.287107 ], [ 0.2131, 43.287042 ], [ 0.211516, 43.278339 ], [ 0.213769, 43.277868 ], [ 0.215497, 43.278223 ], [ 0.222445, 43.273693 ], [ 0.224118, 43.27481 ], [ 0.227728, 43.279052 ], [ 0.231212, 43.27996 ], [ 0.235806, 43.273828 ], [ 0.237778, 43.271798 ], [ 0.23777, 43.271747 ], [ 0.237621, 43.271268 ], [ 0.236702, 43.270342 ], [ 0.236439, 43.270274 ], [ 0.23234, 43.268742 ], [ 0.227757, 43.263259 ], [ 0.227994, 43.259667 ], [ 0.228209, 43.256297 ], [ 0.227746, 43.252727 ], [ 0.234973, 43.247746 ], [ 0.235606, 43.248094 ], [ 0.236701, 43.248725 ], [ 0.236754, 43.248753 ], [ 0.239119, 43.24624 ], [ 0.243592, 43.242787 ], [ 0.243391, 43.239193 ], [ 0.23766, 43.235828 ], [ 0.236089, 43.233545 ], [ 0.230408, 43.228938 ], [ 0.228865423426446, 43.228100466093487 ], [ 0.228376, 43.229618 ], [ 0.22847, 43.233217 ], [ 0.224533644020704, 43.235209813606161 ], [ 0.229857, 43.239529 ], [ 0.232432, 43.239612 ], [ 0.233025, 43.239636 ], [ 0.234158, 43.241012 ], [ 0.234197, 43.241565 ], [ 0.23288, 43.243233 ], [ 0.226195, 43.248914 ], [ 0.225223, 43.251847 ], [ 0.224296, 43.260576 ], [ 0.22657, 43.268375 ], [ 0.228667, 43.268673 ], [ 0.22894, 43.268744 ], [ 0.230946, 43.271082 ], [ 0.229957, 43.27212 ], [ 0.22991, 43.272139 ], [ 0.229237, 43.272332 ], [ 0.228228, 43.272246 ], [ 0.223903, 43.272009 ], [ 0.218899, 43.271539 ], [ 0.216457, 43.271757 ], [ 0.211268, 43.278437 ], [ 0.212721, 43.287039 ], [ 0.212893, 43.290635 ], [ 0.215183, 43.298753 ], [ 0.215877, 43.300612 ], [ 0.215846, 43.300772 ], [ 0.214734, 43.302325 ], [ 0.213855, 43.302214 ], [ 0.213361, 43.302137 ], [ 0.20859, 43.301453 ], [ 0.208073, 43.301338 ], [ 0.206719, 43.300115 ], [ 0.204656, 43.299001 ], [ 0.207433, 43.302478 ], [ 0.210519, 43.305255 ], [ 0.212407, 43.305769 ], [ 0.217552, 43.306049 ], [ 0.22482, 43.306188 ], [ 0.225323, 43.306172 ], [ 0.22624, 43.304652 ], [ 0.22559, 43.303055 ], [ 0.222876, 43.296734 ], [ 0.21862, 43.29007 ], [ 0.217819, 43.289229 ], [ 0.21719, 43.288612 ] ] ], [ [ [ 0.261757, 43.19208 ], [ 0.262291, 43.191899 ], [ 0.262932622365992, 43.191473301667742 ], [ 0.25943, 43.19216 ], [ 0.25924745817494, 43.192155949617266 ], [ 0.259495, 43.192305 ], [ 0.260114, 43.192546 ], [ 0.261757, 43.19208 ] ] ], [ [ [ 0.266775062532396, 43.172272506963175 ], [ 0.266121, 43.172285 ], [ 0.266012870563779, 43.172302770108899 ], [ 0.266775062532396, 43.172272506963175 ] ] ], [ [ [ 0.24014800021089, 43.155835960546511 ], [ 0.247032, 43.157168 ], [ 0.247218857548523, 43.157030121778597 ], [ 0.240105405125132, 43.155799469024892 ], [ 0.24014800021089, 43.155835960546511 ] ] ], [ [ [ 0.21459563740838, 43.171122035839851 ], [ 0.214567, 43.171036 ], [ 0.21448574838366, 43.170996027339861 ], [ 0.21459563740838, 43.171122035839851 ] ] ] ] } },
{ "type": "Feature", "properties": { "codgeo": "65417", "value": 1200, "isochrone_group": 20.0, "nb_agences": 1 }, "geometry": { "type": "MultiPolygon", "coordinates": [ [ [ [ 0.209206, 43.163085 ], [ 0.211118062849725, 43.161450752667612 ], [ 0.209025974208577, 43.16314031972103 ], [ 0.209206, 43.163085 ] ] ], [ [ [ -0.074120349281939, 43.179549813972393 ], [ -0.074117038380493, 43.179556917653024 ], [ -0.074116925096141, 43.179556951204248 ], [ -0.074106690691778, 43.1795502840518 ], [ -0.074120349281939, 43.179549813972393 ] ] ], [ [ [ 0.232517, 43.306638 ], [ 0.233374, 43.303142 ], [ 0.229825, 43.294942 ], [ 0.230052, 43.294513 ], [ 0.230296, 43.293805 ], [ 0.230351, 43.293148 ], [ 0.230307, 43.285909 ], [ 0.23057, 43.28242 ], [ 0.231147, 43.28021 ], [ 0.231212242859221, 43.279959675835272 ], [ 0.231212, 43.27996 ], [ 0.227728, 43.279052 ], [ 0.224118, 43.27481 ], [ 0.222445, 43.273693 ], [ 0.215497, 43.278223 ], [ 0.213769, 43.277868 ], [ 0.211516, 43.278339 ], [ 0.2131, 43.287042 ], [ 0.213681, 43.287107 ], [ 0.214285, 43.287217 ], [ 0.215578, 43.28755 ], [ 0.215567435039043, 43.287591012754916 ], [ 0.21602, 43.287723 ], [ 0.216495, 43.288015 ], [ 0.216882, 43.288329 ], [ 0.21719, 43.288612 ], [ 0.217819, 43.289229 ], [ 0.21862, 43.29007 ], [ 0.222876, 43.296734 ], [ 0.22559, 43.303055 ], [ 0.22624, 43.304652 ], [ 0.225323, 43.306172 ], [ 0.22482, 43.306188 ], [ 0.217552, 43.306049 ], [ 0.212407, 43.305769 ], [ 0.210519, 43.305255 ], [ 0.207433, 43.302478 ], [ 0.204656, 43.299001 ], [ 0.198467, 43.305048 ], [ 0.19765727488094, 43.305948180292226 ], [ 0.197627, 43.306033 ], [ 0.197572695610848, 43.306042207994089 ], [ 0.196059, 43.307725 ], [ 0.193327, 43.308711 ], [ 0.188034, 43.312583 ], [ 0.187034, 43.312795 ], [ 0.186785667945521, 43.312690611205731 ], [ 0.18538, 43.314482 ], [ 0.184523856846419, 43.319895251593117 ], [ 0.18854, 43.316927 ], [ 0.189218, 43.317191 ], [ 0.196141, 43.314141 ], [ 0.196818, 43.313822 ], [ 0.196882, 43.313787 ], [ 0.19729, 43.313482 ], [ 0.206134, 43.312494 ], [ 0.207398, 43.313289 ], [ 0.215209, 43.313301 ], [ 0.22116, 43.309924 ], [ 0.227412, 43.309015 ], [ 0.22906, 43.309009 ], [ 0.232517, 43.306638 ] ] ], [ [ [ 0.243032, 43.276347 ], [ 0.244307, 43.276524 ], [ 0.244461, 43.276391 ], [ 0.245905, 43.273298 ], [ 0.245256, 43.272976 ], [ 0.240215, 43.265674 ], [ 0.236751, 43.264692 ], [ 0.229348, 43.261633 ], [ 0.230553, 43.257625 ], [ 0.233606, 43.255718 ], [ 0.240547, 43.254228 ], [ 0.241289, 43.2545 ], [ 0.242822, 43.254209 ], [ 0.243775, 43.252634 ], [ 0.245469, 43.245483 ], [ 0.252472, 43.243295 ], [ 0.252862, 43.243379 ], [ 0.253622, 43.23986 ], [ 0.252855, 43.239676 ], [ 0.252342, 43.239572 ], [ 0.249653, 43.239253 ], [ 0.246336, 43.238084 ], [ 0.240007, 43.231925 ], [ 0.239983, 43.230943 ], [ 0.238486, 43.227642 ], [ 0.236879541195132, 43.226789248183287 ], [ 0.2348, 43.230062 ], [ 0.234195, 43.230336 ], [ 0.232959916383263, 43.231007473469049 ], [ 0.236089, 43.233545 ], [ 0.23766, 43.235828 ], [ 0.243391, 43.239193 ], [ 0.243592, 43.242787 ], [ 0.239119, 43.24624 ], [ 0.236754, 43.248753 ], [ 0.236701, 43.248725 ], [ 0.235606, 43.248094 ], [ 0.234973, 43.247746 ], [ 0.227746, 43.252727 ], [ 0.228209, 43.256297 ], [ 0.227994, 43.259667 ], [ 0.227757, 43.263259 ], [ 0.23234, 43.268742 ], [ 0.236439, 43.270274 ], [ 0.236702, 43.270342 ], [ 0.237621, 43.271268 ], [ 0.23777, 43.271747 ], [ 0.237778, 43.271798 ], [ 0.235806, 43.273828 ], [ 0.232986439925502, 43.277591505088552 ], [ 0.239013, 43.275643 ], [ 0.242538, 43.276269 ], [ 0.243032, 43.276347 ] ] ], [ [ [ 0.266976, 43.194831 ], [ 0.270140558397621, 43.193337998015444 ], [ 0.26902, 43.193104 ], [ 0.268542, 43.193038 ], [ 0.268082, 43.192908 ], [ 0.26601, 43.192519 ], [ 0.25902, 43.197164 ], [ 0.258856405018391, 43.199631508422989 ], [ 0.259112, 43.198769 ], [ 0.266976, 43.194831 ] ] ], [ [ [ 0.27257, 43.189861 ], [ 0.27268152740824, 43.189986777077102 ], [ 0.272696, 43.189962 ], [ 0.27257, 43.189861 ] ] ], [ [ [ 0.269447, 43.17329 ], [ 0.268596592485303, 43.173670664257635 ], [ 0.270777124564949, 43.174187005711957 ], [ 0.269447, 43.17329 ] ] ] ] } }
]
}
