{
"type": "FeatureCollection",
"name": "Credit_Agricole",
"crs": { "type": "name", "properties": { "name": "urn:ogc:def:crs:OGC:1.3:CRS84" } },
"features": [
{ "type": "Feature", "properties": { "codgeo": "31118", "value": 60, "isochrone_group": 1.0, "nb_agences": 1 }, "geometry": { "type": "Polygon", "coordinates": [ [ [ 1.35896, 43.778656 ], [ 1.359444, 43.777722 ], [ 1.359806, 43.777697 ], [ 1.360894, 43.780016 ], [ 1.361095, 43.780834 ], [ 1.360823, 43.781007 ], [ 1.360474, 43.781231 ], [ 1.360372, 43.781264 ], [ 1.359043, 43.779365 ], [ 1.358828, 43.779076 ], [ 1.358788, 43.778972 ], [ 1.35896, 43.778656 ] ] ] } },
{ "type": "Feature", "properties": { "codgeo": "31118", "value": 120, "isochrone_group": 2.0, "nb_agences": 1 }, "geometry": { "type": "Polygon", "coordinates": [ [ [ 1.354451, 43.785329 ], [ 1.354641, 43.785635 ], [ 1.357998, 43.787076 ], [ 1.358347, 43.787163 ], [ 1.358639, 43.786978 ], [ 1.359581, 43.785612 ], [ 1.363392, 43.781477 ], [ 1.367555, 43.778949 ], [ 1.367713, 43.778708 ], [ 1.367726, 43.778633 ], [ 1.367448, 43.778465 ], [ 1.362396, 43.777083 ], [ 1.359843, 43.77419 ], [ 1.358917, 43.772652 ], [ 1.358726, 43.772551 ], [ 1.358712, 43.772552 ], [ 1.358563, 43.772718 ], [ 1.356909, 43.776668 ], [ 1.356762, 43.779941 ], [ 1.354451, 43.785329 ] ], [ [ 1.359444, 43.777722 ], [ 1.359806, 43.777697 ], [ 1.360894, 43.780016 ], [ 1.361095, 43.780834 ], [ 1.360823, 43.781007 ], [ 1.360474, 43.781231 ], [ 1.360372, 43.781264 ], [ 1.359043, 43.779365 ], [ 1.358828, 43.779076 ], [ 1.358788, 43.778972 ], [ 1.35896, 43.778656 ], [ 1.359444, 43.777722 ] ] ] } },
{ "type": "Feature", "properties": { "codgeo": "31118", "value": 180, "isochrone_group": 3.0, "nb_agences": 1 }, "geometry": { "type": "Polygon", "coordinates": [ [ [ 1.347825, 43.78846 ], [ 1.353848, 43.790495 ], [ 1.356829, 43.793087 ], [ 1.357189, 43.793075 ], [ 1.358144, 43.792518 ], [ 1.365773, 43.787879 ], [ 1.366114, 43.787763 ], [ 1.370267, 43.782969 ], [ 1.374767, 43.78335 ], [ 1.378421, 43.782581 ], [ 1.378443, 43.782222 ], [ 1.373612, 43.774848 ], [ 1.373431, 43.774537 ], [ 1.371452, 43.775149 ], [ 1.367337, 43.775867 ], [ 1.361294, 43.771465 ], [ 1.357953, 43.769627 ], [ 1.357597, 43.769575 ], [ 1.355382, 43.772152 ], [ 1.352033, 43.780413 ], [ 1.347846, 43.788101 ], [ 1.347807, 43.788168 ], [ 1.347825, 43.78846 ] ], [ [ 1.356909, 43.776668 ], [ 1.358563, 43.772718 ], [ 1.358712, 43.772552 ], [ 1.358726, 43.772551 ], [ 1.358917, 43.772652 ], [ 1.359843, 43.77419 ], [ 1.362396, 43.777083 ], [ 1.367448, 43.778465 ], [ 1.367726, 43.778633 ], [ 1.367713, 43.778708 ], [ 1.367555, 43.778949 ], [ 1.363392, 43.781477 ], [ 1.359581, 43.785612 ], [ 1.358639, 43.786978 ], [ 1.358347, 43.787163 ], [ 1.357998, 43.787076 ], [ 1.354641, 43.785635 ], [ 1.354451, 43.785329 ], [ 1.356762, 43.779941 ], [ 1.356909, 43.776668 ] ] ] } },
{ "type": "Feature", "properties": { "codgeo": "31118", "value": 240, "isochrone_group": 4.0, "nb_agences": 1 }, "geometry": { "type": "MultiPolygon", "coordinates": [ [ [ [ 1.382941, 43.781719 ], [ 1.379861, 43.778103 ], [ 1.380294, 43.772583 ], [ 1.380175, 43.772243 ], [ 1.377706, 43.77294 ], [ 1.37398, 43.773894 ], [ 1.370404, 43.774297 ], [ 1.369838, 43.774543 ], [ 1.369273, 43.774789 ], [ 1.364762377109182, 43.773991525903462 ], [ 1.367337, 43.775867 ], [ 1.371452, 43.775149 ], [ 1.373431, 43.774537 ], [ 1.373612, 43.774848 ], [ 1.378443, 43.782222 ], [ 1.378421, 43.782581 ], [ 1.374767, 43.78335 ], [ 1.370267, 43.782969 ], [ 1.366114, 43.787763 ], [ 1.365773, 43.787879 ], [ 1.358144, 43.792518 ], [ 1.357189, 43.793075 ], [ 1.356829, 43.793087 ], [ 1.353848, 43.790495 ], [ 1.347825, 43.78846 ], [ 1.347807, 43.788168 ], [ 1.347846, 43.788101 ], [ 1.352033, 43.780413 ], [ 1.355029591732285, 43.77302128775743 ], [ 1.353512, 43.77501 ], [ 1.349099, 43.781238 ], [ 1.349058, 43.781309 ], [ 1.348954, 43.781707 ], [ 1.344458, 43.789085 ], [ 1.344387, 43.789439 ], [ 1.344141, 43.79076 ], [ 1.344371, 43.791038 ], [ 1.351627, 43.79459 ], [ 1.356889, 43.797031 ], [ 1.3627, 43.799201 ], [ 1.368242, 43.794501 ], [ 1.369878, 43.793698 ], [ 1.369821, 43.793343 ], [ 1.37278, 43.786484 ], [ 1.381268, 43.787917 ], [ 1.381594, 43.78807 ], [ 1.382447097758036, 43.788045567160836 ], [ 1.384345, 43.785551 ], [ 1.384628, 43.785327 ], [ 1.385501307146292, 43.785459088034777 ], [ 1.385042, 43.784401 ], [ 1.382941, 43.781719 ] ] ], [ [ [ 1.361666, 43.769042 ], [ 1.361484, 43.768732 ], [ 1.358096, 43.765582 ], [ 1.357736, 43.765575 ], [ 1.356184426500404, 43.771218432012859 ], [ 1.357597, 43.769575 ], [ 1.357953, 43.769627 ], [ 1.361294, 43.771465 ], [ 1.362651545167636, 43.77245389853185 ], [ 1.361666, 43.769042 ] ] ] ] } },
{ "type": "Feature", "properties": { "codgeo": "31118", "value": 300, "isochrone_group": 5.0, "nb_agences": 1 }, "geometry": { "type": "MultiPolygon", "coordinates": [ [ [ [ 1.378898, 43.769712 ], [ 1.372533, 43.772868 ], [ 1.367564, 43.766927 ], [ 1.367447, 43.766587 ], [ 1.362191766465116, 43.761610998802944 ], [ 1.358520412223655, 43.765976598141833 ], [ 1.361484, 43.768732 ], [ 1.361666, 43.769042 ], [ 1.363006, 43.773681 ], [ 1.369273, 43.774789 ], [ 1.369838, 43.774543 ], [ 1.370404, 43.774297 ], [ 1.37398, 43.773894 ], [ 1.377706, 43.77294 ], [ 1.380175, 43.772243 ], [ 1.380294, 43.772583 ], [ 1.379861, 43.778103 ], [ 1.382649299575424, 43.781376536124924 ], [ 1.38315877890921, 43.778575731761187 ], [ 1.383677678249684, 43.772810918935264 ], [ 1.382376, 43.771178 ], [ 1.382415, 43.77113 ], [ 1.38356891580348, 43.770673368664426 ], [ 1.382466, 43.769985 ], [ 1.382159, 43.769796 ], [ 1.378898, 43.769712 ] ] ], [ [ [ 1.358076, 43.764136 ], [ 1.35797, 43.76446 ], [ 1.357879, 43.76475 ], [ 1.357806, 43.765151 ], [ 1.357739, 43.76553 ], [ 1.353862, 43.773596 ], [ 1.353741, 43.773718 ], [ 1.352142, 43.775431 ], [ 1.35202, 43.775547 ], [ 1.351768, 43.775783 ], [ 1.351649, 43.775894 ], [ 1.347123, 43.780743 ], [ 1.346867, 43.780995 ], [ 1.342015, 43.787787 ], [ 1.337212, 43.793122 ], [ 1.336973, 43.793369 ], [ 1.336734, 43.793616 ], [ 1.336993, 43.793866 ], [ 1.340302, 43.794306 ], [ 1.341003, 43.79412 ], [ 1.348095, 43.798813 ], [ 1.348173, 43.799164 ], [ 1.353984, 43.800633 ], [ 1.35434, 43.800688 ], [ 1.362876, 43.803469 ], [ 1.36296, 43.803684 ], [ 1.363166, 43.804017 ], [ 1.363365, 43.804214 ], [ 1.365634, 43.806342 ], [ 1.365926, 43.806553 ], [ 1.366773, 43.806223 ], [ 1.366951, 43.80591 ], [ 1.366883, 43.805229 ], [ 1.366594, 43.805014 ], [ 1.371516, 43.797501 ], [ 1.371872, 43.797553 ], [ 1.375286891034371, 43.794110403544629 ], [ 1.375165, 43.794055 ], [ 1.37239, 43.79373 ], [ 1.371335, 43.793495 ], [ 1.371389, 43.793139 ], [ 1.375202, 43.789227 ], [ 1.374812036905733, 43.786827061838579 ], [ 1.37278, 43.786484 ], [ 1.369821, 43.793343 ], [ 1.369878, 43.793698 ], [ 1.368242, 43.794501 ], [ 1.3627, 43.799201 ], [ 1.356889, 43.797031 ], [ 1.351627, 43.79459 ], [ 1.344371, 43.791038 ], [ 1.344141, 43.79076 ], [ 1.344387, 43.789439 ], [ 1.344458, 43.789085 ], [ 1.348954, 43.781707 ], [ 1.349058, 43.781309 ], [ 1.349099, 43.781238 ], [ 1.353512, 43.77501 ], [ 1.35606, 43.771671 ], [ 1.357736, 43.765575 ], [ 1.357799372045018, 43.76557623223421 ], [ 1.357802, 43.765545 ], [ 1.35783, 43.765293 ], [ 1.35788, 43.76503 ], [ 1.357928, 43.764782 ], [ 1.358145545304386, 43.764005378007624 ], [ 1.358076, 43.764136 ] ] ] ] } },
{ "type": "Feature", "properties": { "codgeo": "31118", "value": 360, "isochrone_group": 6.0, "nb_agences": 1 }, "geometry": { "type": "MultiPolygon", "coordinates": [ [ [ [ 1.371414, 43.763499 ], [ 1.369742, 43.763085 ], [ 1.369427, 43.763031 ], [ 1.364407998302988, 43.758941443061694 ], [ 1.362878, 43.760795 ], [ 1.362303609991435, 43.761716899619174 ], [ 1.367447, 43.766587 ], [ 1.367564, 43.766927 ], [ 1.372533, 43.772868 ], [ 1.377763838312664, 43.770274358882197 ], [ 1.377851, 43.769284 ], [ 1.37785, 43.769191 ], [ 1.3781, 43.769023 ], [ 1.382558, 43.769207 ], [ 1.383656226089288, 43.767906257808136 ], [ 1.381628, 43.767667 ], [ 1.378013, 43.765899 ], [ 1.371414, 43.763499 ] ] ], [ [ [ 1.357179, 43.762373 ], [ 1.356664, 43.763342 ], [ 1.356333, 43.764265 ], [ 1.356144, 43.765247 ], [ 1.356106, 43.766091 ], [ 1.353659226345244, 43.773805603671427 ], [ 1.353741, 43.773718 ], [ 1.353862, 43.773596 ], [ 1.357739, 43.76553 ], [ 1.357806, 43.765151 ], [ 1.357879, 43.76475 ], [ 1.35797, 43.76446 ], [ 1.358076, 43.764136 ], [ 1.358259975874583, 43.763790451217105 ], [ 1.359551, 43.758988 ], [ 1.359204492532604, 43.758445947453133 ], [ 1.357179, 43.762373 ] ] ], [ [ [ 1.347706, 43.777226 ], [ 1.342971, 43.783605 ], [ 1.34096, 43.784406 ], [ 1.339579, 43.784684 ], [ 1.331825, 43.785079 ], [ 1.32959, 43.784159 ], [ 1.328219, 43.787488 ], [ 1.330455, 43.788408 ], [ 1.332501, 43.796439 ], [ 1.331463, 43.797415 ], [ 1.330786, 43.797919 ], [ 1.332935, 43.800807 ], [ 1.340413, 43.804796 ], [ 1.340583, 43.804835 ], [ 1.341184, 43.804877 ], [ 1.341339, 43.804846 ], [ 1.344077, 43.802378 ], [ 1.351366, 43.805557 ], [ 1.353145, 43.806227 ], [ 1.35371, 43.806266 ], [ 1.361366, 43.808462 ], [ 1.363657, 43.809896 ], [ 1.371931, 43.812684 ], [ 1.373165, 43.814409 ], [ 1.373694, 43.814816 ], [ 1.375176, 43.814532 ], [ 1.375201, 43.814517 ], [ 1.375432, 43.814348 ], [ 1.375506, 43.814285 ], [ 1.375887, 43.811961 ], [ 1.374049, 43.809265 ], [ 1.373829, 43.801009 ], [ 1.37409, 43.800673 ], [ 1.382799, 43.799571 ], [ 1.384631, 43.804496 ], [ 1.384437, 43.80548 ], [ 1.384331, 43.806412 ], [ 1.384404, 43.807426 ], [ 1.384532, 43.808002 ], [ 1.38465, 43.808829 ], [ 1.384888543531122, 43.808794864982922 ], [ 1.385949, 43.806334 ], [ 1.385994, 43.806011 ], [ 1.386038, 43.805725 ], [ 1.386037, 43.803558 ], [ 1.383086, 43.797767 ], [ 1.379816, 43.796439 ], [ 1.375805, 43.796879 ], [ 1.37297584867566, 43.796440195667493 ], [ 1.371872, 43.797553 ], [ 1.371516, 43.797501 ], [ 1.366594, 43.805014 ], [ 1.366883, 43.805229 ], [ 1.366951, 43.80591 ], [ 1.366773, 43.806223 ], [ 1.365926, 43.806553 ], [ 1.365634, 43.806342 ], [ 1.363365, 43.804214 ], [ 1.363166, 43.804017 ], [ 1.36296, 43.803684 ], [ 1.362876, 43.803469 ], [ 1.35434, 43.800688 ], [ 1.353984, 43.800633 ], [ 1.348173, 43.799164 ], [ 1.348095, 43.798813 ], [ 1.341003, 43.79412 ], [ 1.340302, 43.794306 ], [ 1.336993, 43.793866 ], [ 1.336734, 43.793616 ], [ 1.336973, 43.793369 ], [ 1.337212, 43.793122 ], [ 1.342015, 43.787787 ], [ 1.346867, 43.780995 ], [ 1.347123, 43.780743 ], [ 1.351649, 43.775894 ], [ 1.351768, 43.775783 ], [ 1.35202, 43.775547 ], [ 1.352142, 43.775431 ], [ 1.353602079269906, 43.773866825022282 ], [ 1.347789, 43.777136 ], [ 1.347706, 43.777226 ] ] ], [ [ [ 1.387253275889702, 43.808456477355854 ], [ 1.388214, 43.808319 ], [ 1.390525928513615, 43.80520300875731 ], [ 1.387253275889702, 43.808456477355854 ] ] ] ] } },
{ "type": "Feature", "properties": { "codgeo": "31118", "value": 420, "isochrone_group": 7.0, "nb_agences": 1 }, "geometry": { "type": "MultiPolygon", "coordinates": [ [ [ [ 1.367982735881175, 43.758099022397793 ], [ 1.367804, 43.758162 ], [ 1.365175608732722, 43.759566903411837 ], [ 1.369427, 43.763031 ], [ 1.369742, 43.763085 ], [ 1.371414, 43.763499 ], [ 1.376184871274315, 43.765234125179333 ], [ 1.377445486369991, 43.764358755434628 ], [ 1.376028, 43.763093 ], [ 1.374943, 43.761231 ], [ 1.37459, 43.761239 ], [ 1.373944, 43.761366 ], [ 1.367982735881175, 43.758099022397793 ] ] ], [ [ [ 1.353477669921201, 43.773936790682654 ], [ 1.353648, 43.773841 ], [ 1.356106, 43.766091 ], [ 1.353477669921201, 43.773936790682654 ] ] ], [ [ [ 1.325809, 43.781909 ], [ 1.321568681328072, 43.782987517423521 ], [ 1.322287, 43.78379 ], [ 1.321805, 43.785025 ], [ 1.320042316599422, 43.786341065852113 ], [ 1.320474, 43.786698 ], [ 1.321239, 43.787142 ], [ 1.321884, 43.787185 ], [ 1.327586, 43.787218 ], [ 1.328221618810235, 43.787481641123811 ], [ 1.32959, 43.784159 ], [ 1.331825, 43.785079 ], [ 1.339579, 43.784684 ], [ 1.34096, 43.784406 ], [ 1.342971, 43.783605 ], [ 1.347164022406425, 43.777956153129779 ], [ 1.344391, 43.779286 ], [ 1.339716, 43.782376 ], [ 1.333457, 43.78336 ], [ 1.325809, 43.781909 ] ] ], [ [ [ 1.327848, 43.798039 ], [ 1.324437, 43.802562 ], [ 1.326567, 43.805464 ], [ 1.334916, 43.807737 ], [ 1.342395, 43.806546 ], [ 1.344765, 43.808019 ], [ 1.353458, 43.809805 ], [ 1.353834, 43.809893 ], [ 1.354063, 43.809926 ], [ 1.359704, 43.811032 ], [ 1.360699, 43.810891 ], [ 1.368675, 43.813394 ], [ 1.372551, 43.816086 ], [ 1.378724, 43.819209 ], [ 1.380203, 43.821047 ], [ 1.380628, 43.821408 ], [ 1.381246, 43.821866 ], [ 1.381765553371894, 43.821164045070852 ], [ 1.381242, 43.819799 ], [ 1.380621, 43.819005 ], [ 1.37999, 43.818198 ], [ 1.379891, 43.818044 ], [ 1.379786, 43.81788 ], [ 1.378776, 43.816552 ], [ 1.378412, 43.81621 ], [ 1.378217, 43.815973 ], [ 1.377863, 43.815488 ], [ 1.377114, 43.814673 ], [ 1.377294, 43.814361 ], [ 1.383196961519736, 43.816370615159919 ], [ 1.382862, 43.816121 ], [ 1.382419, 43.815716 ], [ 1.38168, 43.814936 ], [ 1.381143, 43.814251 ], [ 1.377725, 43.810441 ], [ 1.379832, 43.807522 ], [ 1.373832843128517, 43.801153222131987 ], [ 1.374049, 43.809265 ], [ 1.375887, 43.811961 ], [ 1.375506, 43.814285 ], [ 1.375432, 43.814348 ], [ 1.375201, 43.814517 ], [ 1.375176, 43.814532 ], [ 1.373694, 43.814816 ], [ 1.373165, 43.814409 ], [ 1.371931, 43.812684 ], [ 1.363657, 43.809896 ], [ 1.361366, 43.808462 ], [ 1.35371, 43.806266 ], [ 1.353145, 43.806227 ], [ 1.351366, 43.805557 ], [ 1.344077, 43.802378 ], [ 1.341339, 43.804846 ], [ 1.341184, 43.804877 ], [ 1.340583, 43.804835 ], [ 1.340413, 43.804796 ], [ 1.332935, 43.800807 ], [ 1.330786, 43.797919 ], [ 1.331463, 43.797415 ], [ 1.332501, 43.796439 ], [ 1.330455, 43.788408 ], [ 1.329879, 43.796182 ], [ 1.328436, 43.797178 ], [ 1.328165, 43.797473 ], [ 1.327848, 43.798039 ] ] ], [ [ [ 1.38812, 43.809687 ], [ 1.387833, 43.81023 ], [ 1.390808456698175, 43.807941609121059 ], [ 1.38812, 43.809687 ] ] ] ] } },
{ "type": "Feature", "properties": { "codgeo": "31118", "value": 480, "isochrone_group": 8.0, "nb_agences": 1 }, "geometry": { "type": "MultiPolygon", "coordinates": [ [ [ [ 1.330306338829851, 43.780894393583132 ], [ 1.331683431545011, 43.783023513620805 ], [ 1.333457, 43.78336 ], [ 1.339716, 43.782376 ], [ 1.344391, 43.779286 ], [ 1.351741347451479, 43.775761024316132 ], [ 1.351874, 43.775577 ], [ 1.352459640199542, 43.774312838434064 ], [ 1.346868, 43.776533 ], [ 1.345133, 43.778451 ], [ 1.338583, 43.780878 ], [ 1.334718, 43.781895 ], [ 1.330306338829851, 43.780894393583132 ] ] ], [ [ [ 1.311952, 43.793907 ], [ 1.312326, 43.793929 ], [ 1.312814, 43.793916 ], [ 1.313311, 43.793852 ], [ 1.313706, 43.793768 ], [ 1.314874, 43.793362 ], [ 1.315349, 43.793145 ], [ 1.322334, 43.794379 ], [ 1.323928, 43.802936 ], [ 1.322542, 43.803947 ], [ 1.322210415822659, 43.804264155292579 ], [ 1.32490017005222, 43.803193042014804 ], [ 1.324437, 43.802562 ], [ 1.327848, 43.798039 ], [ 1.328165, 43.797473 ], [ 1.328436, 43.797178 ], [ 1.329879, 43.796182 ], [ 1.330373178135954, 43.789512311060932 ], [ 1.32365, 43.791229 ], [ 1.32018, 43.792191 ], [ 1.314899, 43.788482 ], [ 1.308855397646275, 43.792124021829878 ], [ 1.308758777033584, 43.793020140465735 ], [ 1.308780589350588, 43.793564593005861 ], [ 1.311952, 43.793907 ] ] ], [ [ [ 1.328534, 43.810982 ], [ 1.330014, 43.811337 ], [ 1.335816, 43.811791 ], [ 1.343665, 43.809662 ], [ 1.351513, 43.813272 ], [ 1.352519, 43.813996 ], [ 1.353805, 43.814789 ], [ 1.358458, 43.811936 ], [ 1.366142, 43.81451 ], [ 1.369004, 43.816751 ], [ 1.369947321711948, 43.817265343881637 ], [ 1.370936890968971, 43.814964952138403 ], [ 1.368675, 43.813394 ], [ 1.360699, 43.810891 ], [ 1.359704, 43.811032 ], [ 1.354063, 43.809926 ], [ 1.353834, 43.809893 ], [ 1.353458, 43.809805 ], [ 1.344765, 43.808019 ], [ 1.342395, 43.806546 ], [ 1.334916, 43.807737 ], [ 1.326701281995445, 43.805500558028001 ], [ 1.325892120851237, 43.810815436077036 ], [ 1.328534, 43.810982 ] ] ] ] } },
{ "type": "Feature", "properties": { "codgeo": "31118", "value": 540, "isochrone_group": 9.0, "nb_agences": 1 }, "geometry": { "type": "MultiPolygon", "coordinates": [ [ [ [ 1.333928278602729, 43.773902652341178 ], [ 1.333196, 43.77519 ], [ 1.333034344285566, 43.775997669699414 ], [ 1.335090708837498, 43.781796928877696 ], [ 1.338583, 43.780878 ], [ 1.345133, 43.778451 ], [ 1.346868, 43.776533 ], [ 1.353648, 43.773841 ], [ 1.356098, 43.768663 ], [ 1.349254, 43.773658 ], [ 1.347797, 43.774151 ], [ 1.343955, 43.776346 ], [ 1.336139, 43.779079 ], [ 1.333928278602729, 43.773902652341178 ] ] ], [ [ [ 1.33087, 43.814884 ], [ 1.331602, 43.814794 ], [ 1.340511, 43.814716 ], [ 1.34773, 43.812841 ], [ 1.351065, 43.814196 ], [ 1.356729, 43.817124 ], [ 1.357181, 43.817449 ], [ 1.357651, 43.817741 ], [ 1.362989, 43.815069 ], [ 1.366215645515058, 43.8172401003593 ], [ 1.367611234616177, 43.815660438425866 ], [ 1.366142, 43.81451 ], [ 1.358458, 43.811936 ], [ 1.353805, 43.814789 ], [ 1.352519, 43.813996 ], [ 1.351513, 43.813272 ], [ 1.343665, 43.809662 ], [ 1.335816, 43.811791 ], [ 1.331375777620304, 43.811443557573192 ], [ 1.331509, 43.81279 ], [ 1.330805885260489, 43.814877114595625 ], [ 1.33087, 43.814884 ] ] ], [ [ [ 1.323056247398102, 43.798256208899353 ], [ 1.322384, 43.802132 ], [ 1.322921, 43.802058 ], [ 1.323653189383326, 43.801460746269228 ], [ 1.323056247398102, 43.798256208899353 ] ] ], [ [ [ 1.317408, 43.802267 ], [ 1.316306415013154, 43.804036019295751 ], [ 1.319122, 43.804453 ], [ 1.320159, 43.803378 ], [ 1.320467, 43.803221 ], [ 1.322384, 43.802132 ], [ 1.317408, 43.802267 ] ] ] ] } },
{ "type": "Feature", "properties": { "codgeo": "31118", "value": 600, "isochrone_group": 10.0, "nb_agences": 1 }, "geometry": { "type": "MultiPolygon", "coordinates": [ [ [ [ 1.342335279632334, 43.776912363327121 ], [ 1.343955, 43.776346 ], [ 1.347797, 43.774151 ], [ 1.349254, 43.773658 ], [ 1.355763306184034, 43.768907271714006 ], [ 1.356098975781135, 43.768349286365066 ], [ 1.356106, 43.766091 ], [ 1.356144, 43.765247 ], [ 1.356333, 43.764265 ], [ 1.352518, 43.770738 ], [ 1.346192, 43.77272 ], [ 1.339598220704629, 43.771440820063866 ], [ 1.340214, 43.775202 ], [ 1.342335279632334, 43.776912363327121 ] ] ], [ [ [ 1.334828, 43.81822 ], [ 1.342919, 43.816683 ], [ 1.344431, 43.817651 ], [ 1.34911, 43.816481 ], [ 1.356729, 43.817124 ], [ 1.351065, 43.814196 ], [ 1.34773, 43.812841 ], [ 1.340511, 43.814716 ], [ 1.334580717369559, 43.81476792075938 ], [ 1.334703, 43.816866 ], [ 1.334546353041982, 43.818221955881647 ], [ 1.334828, 43.81822 ] ] ], [ [ [ 1.358286709083517, 43.819361350270221 ], [ 1.358153775298163, 43.817489329787065 ], [ 1.357651, 43.817741 ], [ 1.357181, 43.817449 ], [ 1.356729, 43.817124 ], [ 1.358286709083517, 43.819361350270221 ] ] ] ] } },
{ "type": "Feature", "properties": { "codgeo": "31118", "value": 660, "isochrone_group": 11.0, "nb_agences": 1 }, "geometry": { "type": "Polygon", "coordinates": [ [ [ 1.353627690338062, 43.821748801504057 ], [ 1.352265, 43.818672 ], [ 1.353288379212003, 43.816833631294564 ], [ 1.34911, 43.816481 ], [ 1.344431, 43.817651 ], [ 1.342919, 43.816683 ], [ 1.339554097055303, 43.81732221095367 ], [ 1.339276, 43.819276 ], [ 1.3395892509474, 43.821120272960265 ], [ 1.34472, 43.818986 ], [ 1.347421, 43.820387 ], [ 1.353627690338062, 43.821748801504057 ] ] ] } },
{ "type": "Feature", "properties": { "codgeo": "31118", "value": 720, "isochrone_group": 12.0, "nb_agences": 1 }, "geometry": { "type": "Polygon", "coordinates": [ [ [ 1.343650667025855, 43.819430817789531 ], [ 1.344177586907212, 43.821950721938357 ], [ 1.347319, 43.820968 ], [ 1.347541224430164, 43.820413378279078 ], [ 1.347421, 43.820387 ], [ 1.34472, 43.818986 ], [ 1.343650667025855, 43.819430817789531 ] ] ] } },
{ "type": "Feature", "properties": { "codgeo": "31118", "value": 780, "isochrone_group": 13.0, "nb_agences": 1 }, "geometry": { "type": "Polygon", "coordinates": [ [ [ 1.325306, 43.763905 ], [ 1.325285136799724, 43.764013298697492 ], [ 1.325568, 43.763943 ], [ 1.324647, 43.75761 ], [ 1.324453902755268, 43.757357481426645 ], [ 1.325306, 43.763905 ] ] ] } },
{ "type": "Feature", "properties": { "codgeo": "31118", "value": 900, "isochrone_group": 15.0, "nb_agences": 1 }, "geometry": { "type": "MultiPolygon", "coordinates": [ [ [ [ 1.32511387376449, 43.745528157309337 ], [ 1.32432519871042, 43.745891578135954 ], [ 1.324928365642093, 43.745711726997833 ], [ 1.32511387376449, 43.745528157309337 ] ] ], [ [ [ 1.332486, 43.735812 ], [ 1.33253533772977, 43.735724692680961 ], [ 1.332723, 43.73535 ], [ 1.332758689251596, 43.735194547427795 ], [ 1.3301182050114, 43.737658847633334 ], [ 1.332486, 43.735812 ] ] ], [ [ [ 1.325398, 43.745247 ], [ 1.325545517586845, 43.744561900577153 ], [ 1.325212230061137, 43.745430828769187 ], [ 1.325398, 43.745247 ] ] ] ] } }
]
}
