{
"type": "FeatureCollection",
"name": "La_Banque_Postale",
"crs": { "type": "name", "properties": { "name": "urn:ogc:def:crs:OGC:1.3:CRS84" } },
"features": [
{ "type": "Feature", "properties": { "codgeo": "31157", "value": 60, "isochrone_group": 1.0, "nb_agences": 2 }, "geometry": { "type": "Polygon", "coordinates": [ [ [ 1.346015, 43.537091 ], [ 1.345717, 43.537413 ], [ 1.34612, 43.538025 ], [ 1.346695, 43.538927 ], [ 1.346765, 43.539015 ], [ 1.347618, 43.538386 ], [ 1.34787, 43.538128 ], [ 1.347383, 43.537655 ], [ 1.346897, 43.537181 ], [ 1.346754, 43.53713 ], [ 1.346015, 43.537091 ] ] ] } },
{ "type": "Feature", "properties": { "codgeo": "31157", "value": 120, "isochrone_group": 2.0, "nb_agences": 2 }, "geometry": { "type": "Polygon", "coordinates": [ [ [ 1.346829, 43.539452 ], [ 1.348046, 43.540229 ], [ 1.348795, 43.540118 ], [ 1.348851, 43.539763 ], [ 1.34787, 43.538128 ], [ 1.347618, 43.538386 ], [ 1.346765, 43.539015 ], [ 1.346695, 43.538927 ], [ 1.34612, 43.538025 ], [ 1.345717, 43.537413 ], [ 1.346829, 43.539452 ] ] ] } },
{ "type": "Feature", "properties": { "codgeo": "31157", "value": 180, "isochrone_group": 3.0, "nb_agences": 2 }, "geometry": { "type": "Polygon", "coordinates": [ [ [ 1.345572, 43.538976 ], [ 1.345487, 43.541137 ], [ 1.34572, 43.541411 ], [ 1.346821, 43.542342 ], [ 1.347633, 43.542602 ], [ 1.350582, 43.541095 ], [ 1.351871, 43.540323 ], [ 1.351813, 43.539968 ], [ 1.346897, 43.537181 ], [ 1.347383, 43.537655 ], [ 1.34787, 43.538128 ], [ 1.348851, 43.539763 ], [ 1.348795, 43.540118 ], [ 1.348046, 43.540229 ], [ 1.346829, 43.539452 ], [ 1.345717, 43.537413 ], [ 1.345572, 43.538976 ] ] ] } },
{ "type": "Feature", "properties": { "codgeo": "31157", "value": 240, "isochrone_group": 4.0, "nb_agences": 2 }, "geometry": { "type": "Polygon", "coordinates": [ [ [ 1.344611, 43.535999 ], [ 1.344248774723253, 43.536238680056158 ], [ 1.343191, 43.536799 ], [ 1.342928, 43.537044 ], [ 1.342514, 43.537444 ], [ 1.343127, 43.542542 ], [ 1.346394, 43.544578 ], [ 1.350857, 43.545144 ], [ 1.351852, 43.54431 ], [ 1.354642, 43.54077 ], [ 1.354642, 43.54041 ], [ 1.350465, 43.53813 ], [ 1.349303, 43.537638 ], [ 1.345405, 43.535895 ], [ 1.344978593659938, 43.535948780979822 ], [ 1.34483, 43.535909 ], [ 1.344611, 43.535999 ] ], [ [ 1.346015, 43.537091 ], [ 1.346754, 43.53713 ], [ 1.346897, 43.537181 ], [ 1.351813, 43.539968 ], [ 1.351871, 43.540323 ], [ 1.350582, 43.541095 ], [ 1.347633, 43.542602 ], [ 1.346821, 43.542342 ], [ 1.34572, 43.541411 ], [ 1.345487, 43.541137 ], [ 1.345572, 43.538976 ], [ 1.345717, 43.537413 ], [ 1.346015, 43.537091 ] ] ] } },
{ "type": "Feature", "properties": { "codgeo": "31157", "value": 300, "isochrone_group": 5.0, "nb_agences": 2 }, "geometry": { "type": "Polygon", "coordinates": [ [ [ 1.359897, 43.536634 ], [ 1.359626, 43.536677 ], [ 1.359423, 43.536726 ], [ 1.359236, 43.536773 ], [ 1.351934, 43.53651 ], [ 1.347906, 43.53368 ], [ 1.343799, 43.532966 ], [ 1.338282, 43.536903 ], [ 1.338124, 43.537226 ], [ 1.340291, 43.542908 ], [ 1.340545, 43.543163 ], [ 1.342293, 43.544642 ], [ 1.342448, 43.544759 ], [ 1.342603, 43.544876 ], [ 1.344253, 43.545813 ], [ 1.344748, 43.546031 ], [ 1.350772, 43.548762 ], [ 1.35092, 43.548733 ], [ 1.350971757485025, 43.548696080838326 ], [ 1.351035, 43.548675 ], [ 1.351100979738058, 43.548603905238039 ], [ 1.351213, 43.548524 ], [ 1.352883, 43.546719 ], [ 1.355898, 43.543435 ], [ 1.359953, 43.536989 ], [ 1.359897, 43.536634 ] ], [ [ 1.344978593659938, 43.535948780979822 ], [ 1.345405, 43.535895 ], [ 1.349303, 43.537638 ], [ 1.350465, 43.53813 ], [ 1.354642, 43.54041 ], [ 1.354642, 43.54077 ], [ 1.351852, 43.54431 ], [ 1.350857, 43.545144 ], [ 1.346394, 43.544578 ], [ 1.343127, 43.542542 ], [ 1.342514, 43.537444 ], [ 1.342928, 43.537044 ], [ 1.343191, 43.536799 ], [ 1.344248774723253, 43.536238680056158 ], [ 1.344611, 43.535999 ], [ 1.34483, 43.535909 ], [ 1.344978593659938, 43.535948780979822 ] ] ] } },
{ "type": "Feature", "properties": { "codgeo": "31157", "value": 360, "isochrone_group": 6.0, "nb_agences": 2 }, "geometry": { "type": "Polygon", "coordinates": [ [ [ 1.366491, 43.536644 ], [ 1.366622, 43.536308 ], [ 1.363729, 43.535101 ], [ 1.355529, 43.534103 ], [ 1.348846, 43.529812 ], [ 1.342441, 43.529384 ], [ 1.33872, 43.530223 ], [ 1.338462, 43.530474 ], [ 1.333881, 43.535685 ], [ 1.333813, 43.535773 ], [ 1.332177, 43.541556 ], [ 1.332235, 43.541912 ], [ 1.337852, 43.545609 ], [ 1.341584, 43.547261 ], [ 1.345858, 43.549173 ], [ 1.347979, 43.549735 ], [ 1.354918, 43.553469 ], [ 1.356181, 43.553517 ], [ 1.356409, 43.553238 ], [ 1.355837, 43.546413 ], [ 1.355777, 43.545412 ], [ 1.355952252414495, 43.543348758060709 ], [ 1.355898, 43.543435 ], [ 1.352883, 43.546719 ], [ 1.351213, 43.548524 ], [ 1.351100979738058, 43.548603905238039 ], [ 1.351035, 43.548675 ], [ 1.350971757485025, 43.548696080838326 ], [ 1.35092, 43.548733 ], [ 1.350772, 43.548762 ], [ 1.344748, 43.546031 ], [ 1.344253, 43.545813 ], [ 1.342603, 43.544876 ], [ 1.342448, 43.544759 ], [ 1.342293, 43.544642 ], [ 1.340545, 43.543163 ], [ 1.340291, 43.542908 ], [ 1.338124, 43.537226 ], [ 1.338282, 43.536903 ], [ 1.343799, 43.532966 ], [ 1.347906, 43.53368 ], [ 1.351934, 43.53651 ], [ 1.359236, 43.536773 ], [ 1.359423, 43.536726 ], [ 1.359626, 43.536677 ], [ 1.359897, 43.536634 ], [ 1.359953, 43.536989 ], [ 1.356189461972816, 43.542971679685131 ], [ 1.361502, 43.536845 ], [ 1.363051, 43.5367 ], [ 1.363407, 43.536685 ], [ 1.366491, 43.536644 ] ] ] } },
{ "type": "Feature", "properties": { "codgeo": "31157", "value": 420, "isochrone_group": 7.0, "nb_agences": 2 }, "geometry": { "type": "MultiPolygon", "coordinates": [ [ [ [ 1.323961, 43.542665 ], [ 1.323961184540298, 43.542665253220633 ], [ 1.323871, 43.542731 ], [ 1.325992, 43.54564 ], [ 1.327927, 43.546493 ], [ 1.33451, 43.549833 ], [ 1.33782, 43.551247 ], [ 1.346713, 43.552301 ], [ 1.348336, 43.55174 ], [ 1.353230522419758, 43.552560938134519 ], [ 1.347979, 43.549735 ], [ 1.345858, 43.549173 ], [ 1.341584, 43.547261 ], [ 1.337852, 43.545609 ], [ 1.332235, 43.541912 ], [ 1.332177, 43.541556 ], [ 1.333813, 43.535773 ], [ 1.333881, 43.535685 ], [ 1.338462, 43.530474 ], [ 1.33872, 43.530223 ], [ 1.342441, 43.529384 ], [ 1.348846, 43.529812 ], [ 1.355529, 43.534103 ], [ 1.363729, 43.535101 ], [ 1.366622, 43.536308 ], [ 1.366491, 43.536644 ], [ 1.363407, 43.536685 ], [ 1.363051, 43.5367 ], [ 1.361502, 43.536845 ], [ 1.35804379475121, 43.540833172082031 ], [ 1.36312, 43.538319 ], [ 1.368591, 43.539963 ], [ 1.368755, 43.540052 ], [ 1.370793, 43.540733 ], [ 1.371494, 43.541118 ], [ 1.371496302556515, 43.54111381666862 ], [ 1.371637, 43.54119 ], [ 1.371924, 43.541319 ], [ 1.373339681284749, 43.538164931248915 ], [ 1.373344853135019, 43.53795010054538 ], [ 1.371878768247072, 43.535608103374656 ], [ 1.369649, 43.532901 ], [ 1.368536, 43.532422 ], [ 1.368302, 43.53221 ], [ 1.3669945669154, 43.53013936090295 ], [ 1.365662, 43.530637 ], [ 1.358050527832013, 43.530766176420606 ], [ 1.357930551891376, 43.530682247063048 ], [ 1.353765, 43.525741 ], [ 1.353739, 43.525695 ], [ 1.353115, 43.525072 ], [ 1.352469, 43.524862 ], [ 1.347188, 43.5251 ], [ 1.340993, 43.524941 ], [ 1.335484, 43.525046 ], [ 1.335398, 43.525053 ], [ 1.334701556966734, 43.525355895162193 ], [ 1.334518, 43.525368 ], [ 1.333919415790122, 43.525696061934227 ], [ 1.333462, 43.525895 ], [ 1.329682, 43.531193 ], [ 1.329284, 43.533701 ], [ 1.328028278908863, 43.538421106565551 ], [ 1.327938, 43.538692 ], [ 1.324753, 43.542088 ], [ 1.323961, 43.542665 ] ] ], [ [ [ 1.35772, 43.554891 ], [ 1.35958, 43.556635 ], [ 1.363315, 43.557009 ], [ 1.363443, 43.556956 ], [ 1.364216, 43.554194 ], [ 1.363940846212565, 43.553981017122595 ], [ 1.363957, 43.553957 ], [ 1.363676, 43.553698 ], [ 1.363326, 43.553414 ], [ 1.362908, 43.55314 ], [ 1.361952128672318, 43.55240186034348 ], [ 1.361844, 43.5523 ], [ 1.359694, 43.550341 ], [ 1.359444698135112, 43.550089101240701 ], [ 1.357083, 43.546089 ], [ 1.357907206841601, 43.540990691965519 ], [ 1.355962, 43.543234 ], [ 1.355777, 43.545412 ], [ 1.355837, 43.546413 ], [ 1.356409, 43.553238 ], [ 1.356181, 43.553517 ], [ 1.356169635393994, 43.553516568090984 ], [ 1.356979, 43.554281 ], [ 1.35772, 43.554891 ] ] ] ] } },
{ "type": "Feature", "properties": { "codgeo": "31157", "value": 480, "isochrone_group": 8.0, "nb_agences": 2 }, "geometry": { "type": "Polygon", "coordinates": [ [ [ 1.333002, 43.554765 ], [ 1.333091, 43.55486 ], [ 1.333656, 43.555297 ], [ 1.333656777365186, 43.555297026746807 ], [ 1.333715, 43.555342 ], [ 1.334915, 43.555497 ], [ 1.335021885725443, 43.555343996068153 ], [ 1.335022, 43.555344 ], [ 1.335309, 43.554933 ], [ 1.335618, 43.554535 ], [ 1.344055444750712, 43.552696525196417 ], [ 1.344378510634775, 43.552883425898408 ], [ 1.346238, 43.554751 ], [ 1.346646, 43.554776 ], [ 1.34675624963493, 43.554728077419988 ], [ 1.346758, 43.554728 ], [ 1.347044, 43.554603 ], [ 1.348098, 43.553662 ], [ 1.356654974037552, 43.55425841559839 ], [ 1.357543, 43.55533 ], [ 1.358887, 43.55741 ], [ 1.359035, 43.557573 ], [ 1.365248, 43.559896 ], [ 1.367458, 43.557054 ], [ 1.366992885905637, 43.556502147395321 ], [ 1.364219, 43.552014 ], [ 1.363972, 43.551719 ], [ 1.363947186264454, 43.551711852565305 ], [ 1.363762, 43.551506 ], [ 1.363454, 43.551241 ], [ 1.359973, 43.549435 ], [ 1.357923, 43.540893 ], [ 1.357083, 43.546089 ], [ 1.359444698135112, 43.550089101240701 ], [ 1.359694, 43.550341 ], [ 1.361844, 43.5523 ], [ 1.361952128672318, 43.55240186034348 ], [ 1.362908, 43.55314 ], [ 1.363326, 43.553414 ], [ 1.363676, 43.553698 ], [ 1.363957, 43.553957 ], [ 1.363940846212565, 43.553981017122595 ], [ 1.364216, 43.554194 ], [ 1.363443, 43.556956 ], [ 1.363315, 43.557009 ], [ 1.35958, 43.556635 ], [ 1.35772, 43.554891 ], [ 1.356979, 43.554281 ], [ 1.355574, 43.552954 ], [ 1.348336, 43.55174 ], [ 1.346713, 43.552301 ], [ 1.33782, 43.551247 ], [ 1.33451, 43.549833 ], [ 1.327927, 43.546493 ], [ 1.325992, 43.54564 ], [ 1.323871, 43.542731 ], [ 1.323961184540298, 43.542665253220633 ], [ 1.323961, 43.542665 ], [ 1.324753, 43.542088 ], [ 1.327938, 43.538692 ], [ 1.328028278908863, 43.538421106565551 ], [ 1.329284, 43.533701 ], [ 1.329682, 43.531193 ], [ 1.333462, 43.525895 ], [ 1.333919415790122, 43.525696061934227 ], [ 1.334518, 43.525368 ], [ 1.334701556966734, 43.525355895162193 ], [ 1.335398, 43.525053 ], [ 1.335484, 43.525046 ], [ 1.340993, 43.524941 ], [ 1.347188, 43.5251 ], [ 1.352469, 43.524862 ], [ 1.353115, 43.525072 ], [ 1.353739, 43.525695 ], [ 1.353765, 43.525741 ], [ 1.357930551891376, 43.530682247063048 ], [ 1.358050527832013, 43.530766176420606 ], [ 1.362415068565496, 43.530692104580496 ], [ 1.361481680898664, 43.527393663639536 ], [ 1.359383, 43.527345 ], [ 1.358016288646001, 43.525207005725314 ], [ 1.356856, 43.525057 ], [ 1.356561, 43.525081 ], [ 1.356187, 43.524855 ], [ 1.35491, 43.523328 ], [ 1.354907, 43.523241 ], [ 1.355640216484903, 43.522297907714787 ], [ 1.354728, 43.52162 ], [ 1.353372, 43.521512 ], [ 1.352259517169996, 43.522593552814108 ], [ 1.352209948699125, 43.522583459141892 ], [ 1.343594, 43.520287 ], [ 1.343306, 43.520118 ], [ 1.342485986101012, 43.52017508957524 ], [ 1.343803, 43.522225 ], [ 1.34385, 43.52226 ], [ 1.343887, 43.522305 ], [ 1.343667, 43.523365 ], [ 1.343034, 43.524398 ], [ 1.342774, 43.524573 ], [ 1.341407, 43.524914 ], [ 1.336634, 43.523565 ], [ 1.330821, 43.522893 ], [ 1.32822642434685, 43.52327839273741 ], [ 1.325723, 43.527404 ], [ 1.325185, 43.529698 ], [ 1.324274, 43.535095 ], [ 1.324189, 43.537592 ], [ 1.321268895677245, 43.542696295257727 ], [ 1.320653, 43.543236 ], [ 1.316185, 43.547888 ], [ 1.315851, 43.54816 ], [ 1.315429000437946, 43.548585809941848 ], [ 1.315468, 43.548569 ], [ 1.316762, 43.549018 ], [ 1.318309, 43.55078 ], [ 1.318296334760908, 43.551319539185293 ], [ 1.324615, 43.54922 ], [ 1.331964, 43.553435 ], [ 1.333002, 43.554765 ] ] ] } },
{ "type": "Feature", "properties": { "codgeo": "31157", "value": 540, "isochrone_group": 9.0, "nb_agences": 2 }, "geometry": { "type": "MultiPolygon", "coordinates": [ [ [ [ 1.333836, 43.560102 ], [ 1.335590158424685, 43.558608635055073 ], [ 1.336084446813474, 43.558436488922197 ], [ 1.343477, 43.555977 ], [ 1.345455, 43.556654 ], [ 1.346235, 43.556954 ], [ 1.346307572261993, 43.556934847548554 ], [ 1.346308, 43.556935 ], [ 1.346936, 43.556769 ], [ 1.34821, 43.554338 ], [ 1.356675325622392, 43.554282973935422 ], [ 1.356654974037552, 43.55425841559839 ], [ 1.348098, 43.553662 ], [ 1.347044, 43.554603 ], [ 1.346758, 43.554728 ], [ 1.34675624963493, 43.554728077419988 ], [ 1.346646, 43.554776 ], [ 1.346238, 43.554751 ], [ 1.344378510634775, 43.552883425898408 ], [ 1.344055444750712, 43.552696525196417 ], [ 1.335618, 43.554535 ], [ 1.335309, 43.554933 ], [ 1.335022, 43.555344 ], [ 1.335021885725443, 43.555343996068153 ], [ 1.334915, 43.555497 ], [ 1.333715, 43.555342 ], [ 1.333656777365186, 43.555297026746807 ], [ 1.333656, 43.555297 ], [ 1.333091, 43.55486 ], [ 1.333002, 43.554765 ], [ 1.331964, 43.553435 ], [ 1.324615, 43.54922 ], [ 1.321043877435243, 43.550406597402514 ], [ 1.321281102766563, 43.551750458642104 ], [ 1.321383139983417, 43.551651031329492 ], [ 1.327982387891618, 43.554156619175409 ], [ 1.32923983806291, 43.555362876943853 ], [ 1.330142, 43.557974 ], [ 1.330216, 43.55804 ], [ 1.333836, 43.560102 ] ] ], [ [ [ 1.373027, 43.554885 ], [ 1.37275, 43.554493 ], [ 1.372082, 43.553512 ], [ 1.365964, 43.550746 ], [ 1.365064, 43.549867 ], [ 1.359437472052582, 43.547203546474719 ], [ 1.359973, 43.549435 ], [ 1.363454, 43.551241 ], [ 1.363762, 43.551506 ], [ 1.363947186264454, 43.551711852565305 ], [ 1.363972, 43.551719 ], [ 1.364219, 43.552014 ], [ 1.366992885905637, 43.556502147395321 ], [ 1.367458, 43.557054 ], [ 1.367192370180037, 43.557395592736789 ], [ 1.370638, 43.558043 ], [ 1.370749, 43.558067 ], [ 1.372404543909138, 43.559335871239497 ], [ 1.373275668504125, 43.558908323419118 ], [ 1.373885, 43.556628 ], [ 1.373027, 43.554885 ] ] ], [ [ [ 1.358887, 43.55741 ], [ 1.357543, 43.55533 ], [ 1.357257581802889, 43.554985584745381 ], [ 1.359566, 43.560824 ], [ 1.359631, 43.560942 ], [ 1.361419, 43.561746 ], [ 1.361844982494278, 43.561756682202422 ], [ 1.366953607311217, 43.562974442733662 ], [ 1.366066, 43.56074 ], [ 1.364994382808323, 43.55980117419341 ], [ 1.359035, 43.557573 ], [ 1.358887, 43.55741 ] ] ], [ [ [ 1.319927, 43.536493 ], [ 1.319421, 43.536611 ], [ 1.319421035876372, 43.536611153580644 ], [ 1.319396, 43.536617 ], [ 1.320215, 43.540122 ], [ 1.316654549813995, 43.546983155370832 ], [ 1.317554435168194, 43.546462169113155 ], [ 1.320653, 43.543236 ], [ 1.321268895677245, 43.542696295257727 ], [ 1.324189, 43.537592 ], [ 1.324274, 43.535095 ], [ 1.325185, 43.529698 ], [ 1.325627241043528, 43.527812310494681 ], [ 1.324846, 43.528161 ], [ 1.32379, 43.528567 ], [ 1.323638, 43.528462 ], [ 1.321565146547419, 43.52707230135244 ], [ 1.321616, 43.527731 ], [ 1.32169, 43.527859 ], [ 1.319927, 43.536493 ] ] ], [ [ [ 1.351534110710709, 43.520395709698533 ], [ 1.350795383640845, 43.520417185741522 ], [ 1.34494488914719, 43.517332431808406 ], [ 1.347882, 43.520541 ], [ 1.3487, 43.520841 ], [ 1.348921, 43.520906 ], [ 1.34906264891669, 43.521744590944088 ], [ 1.350314743569612, 43.52207831904677 ], [ 1.351359, 43.521122 ], [ 1.351534110710709, 43.520395709698533 ] ] ] ] } },
{ "type": "Feature", "properties": { "codgeo": "31157", "value": 600, "isochrone_group": 10.0, "nb_agences": 2 }, "geometry": { "type": "MultiPolygon", "coordinates": [ [ [ [ 1.347487155363807, 43.558683400739802 ], [ 1.3476161834854, 43.558650015620564 ], [ 1.348087224473315, 43.558948254744465 ], [ 1.348115, 43.558951 ], [ 1.348205099683807, 43.55902288731447 ], [ 1.35358, 43.562426 ], [ 1.35819, 43.563159 ], [ 1.36305043518895, 43.563689062770578 ], [ 1.359339, 43.562205 ], [ 1.359045, 43.562246 ], [ 1.35855, 43.55868 ], [ 1.358656250241118, 43.558523075116995 ], [ 1.356979, 43.554281 ], [ 1.34821, 43.554338 ], [ 1.346936, 43.556769 ], [ 1.346308, 43.556935 ], [ 1.346307572261993, 43.556934847548554 ], [ 1.346235, 43.556954 ], [ 1.345455, 43.556654 ], [ 1.343477, 43.555977 ], [ 1.337349330184665, 43.558015664538416 ], [ 1.341616, 43.558758 ], [ 1.346418, 43.558778 ], [ 1.346951480677214, 43.558834088768933 ], [ 1.347487155363807, 43.558683400739802 ] ] ], [ [ [ 1.336084446813474, 43.558436488922197 ], [ 1.335590158424685, 43.558608635055073 ], [ 1.333836, 43.560102 ], [ 1.330216, 43.55804 ], [ 1.330142, 43.557974 ], [ 1.32923983806291, 43.555362876943853 ], [ 1.327982387891618, 43.554156619175409 ], [ 1.322375119057279, 43.552027663749627 ], [ 1.32147, 43.553286 ], [ 1.323124341717944, 43.556549302491035 ], [ 1.328329756143352, 43.557746933915105 ], [ 1.333238291182397, 43.561436589851155 ], [ 1.334329, 43.560565 ], [ 1.335581, 43.559271 ], [ 1.336401016663917, 43.558331166712044 ], [ 1.336084446813474, 43.558436488922197 ] ] ], [ [ [ 1.372019, 43.541424 ], [ 1.371488, 43.541189 ], [ 1.368542612274079, 43.539580053640286 ], [ 1.368538, 43.539578 ], [ 1.368537912475819, 43.539577486330288 ], [ 1.367197, 43.538845 ], [ 1.364024643384293, 43.538319887775636 ], [ 1.363768162735314, 43.538319636077262 ], [ 1.357866174387667, 43.541244507002006 ], [ 1.357083, 43.546089 ], [ 1.365064, 43.549867 ], [ 1.365964, 43.550746 ], [ 1.371546929993492, 43.553270090284741 ], [ 1.374177, 43.550554 ], [ 1.373106, 43.541702 ], [ 1.372608, 43.541603 ], [ 1.372019, 43.541424 ] ] ], [ [ [ 1.314778, 43.537741 ], [ 1.313959, 43.537907 ], [ 1.314672, 43.541436 ], [ 1.311907664394606, 43.54511447603209 ], [ 1.316743203459689, 43.546812315615888 ], [ 1.320215, 43.540122 ], [ 1.319396, 43.536617 ], [ 1.319421035876372, 43.536611153580644 ], [ 1.319421, 43.536611 ], [ 1.319927, 43.536493 ], [ 1.321343112279255, 43.529557825060074 ], [ 1.321109, 43.529469 ], [ 1.319849370057562, 43.529421291152325 ], [ 1.320238916166855, 43.53026972293393 ], [ 1.316769, 43.537265 ], [ 1.314778, 43.537741 ] ] ] ] } },
{ "type": "Feature", "properties": { "codgeo": "31157", "value": 660, "isochrone_group": 11.0, "nb_agences": 2 }, "geometry": { "type": "Polygon", "coordinates": [ [ [ 1.319584317512863, 43.531589379874198 ], [ 1.317699448055475, 43.531086396896406 ], [ 1.318701, 43.532422 ], [ 1.318580491583128, 43.533613071562108 ], [ 1.319584317512863, 43.531589379874198 ] ] ] } }
]
}
