{
"type": "FeatureCollection",
"name": "Others",
"crs": { "type": "name", "properties": { "name": "urn:ogc:def:crs:OGC:1.3:CRS84" } },
"features": [
{ "type": "Feature", "properties": { "codgeo": "31157", "value": 60, "isochrone_group": 1.0, "nb_agences": 1 }, "geometry": { "type": "Polygon", "coordinates": [ [ [ 1.351592, 43.548206 ], [ 1.352012, 43.545976 ], [ 1.352107, 43.545724 ], [ 1.352108, 43.545724 ], [ 1.352208, 43.545674 ], [ 1.356162, 43.54572 ], [ 1.356282, 43.546024 ], [ 1.356367, 43.546708 ], [ 1.354447, 43.54793 ], [ 1.35407, 43.548102 ], [ 1.351688, 43.548552 ], [ 1.351592, 43.548206 ] ] ] } },
{ "type": "Feature", "properties": { "codgeo": "31157", "value": 120, "isochrone_group": 2.0, "nb_agences": 1 }, "geometry": { "type": "Polygon", "coordinates": [ [ [ 1.350296, 43.544526 ], [ 1.348372, 43.544854 ], [ 1.348295, 43.545206 ], [ 1.348774, 43.549224 ], [ 1.348951, 43.549394 ], [ 1.354266, 43.551819 ], [ 1.354507, 43.551551 ], [ 1.35702, 43.546124 ], [ 1.357083, 43.546089 ], [ 1.357086, 43.545983 ], [ 1.356162, 43.54572 ], [ 1.350296, 43.544526 ] ], [ [ 1.356282, 43.546024 ], [ 1.356367, 43.546708 ], [ 1.354447, 43.54793 ], [ 1.35407, 43.548102 ], [ 1.351688, 43.548552 ], [ 1.351592, 43.548206 ], [ 1.352012, 43.545976 ], [ 1.352107, 43.545724 ], [ 1.352108, 43.545724 ], [ 1.352208, 43.545674 ], [ 1.356162, 43.54572 ], [ 1.356282, 43.546024 ] ] ] } },
{ "type": "Feature", "properties": { "codgeo": "31157", "value": 180, "isochrone_group": 3.0, "nb_agences": 1 }, "geometry": { "type": "Polygon", "coordinates": [ [ [ 1.357776, 43.538237 ], [ 1.357477, 43.538036 ], [ 1.353452, 43.540867 ], [ 1.347284, 43.541592 ], [ 1.347085, 43.541701 ], [ 1.343912, 43.543647 ], [ 1.343893, 43.543678 ], [ 1.343868, 43.543811 ], [ 1.343881, 43.543867 ], [ 1.346143, 43.549927 ], [ 1.346325, 43.550193 ], [ 1.346581, 43.550411 ], [ 1.346717, 43.550497 ], [ 1.34838, 43.550325 ], [ 1.355574, 43.552954 ], [ 1.35645, 43.553547 ], [ 1.357202, 43.553983 ], [ 1.357854, 43.554101 ], [ 1.359961, 43.55443 ], [ 1.360387, 43.554402 ], [ 1.3604, 43.554042 ], [ 1.357086, 43.545983 ], [ 1.357776, 43.538237 ] ], [ [ 1.357083, 43.546089 ], [ 1.35702, 43.546124 ], [ 1.354507, 43.551551 ], [ 1.354266, 43.551819 ], [ 1.348951, 43.549394 ], [ 1.348774, 43.549224 ], [ 1.348295, 43.545206 ], [ 1.348372, 43.544854 ], [ 1.350296, 43.544526 ], [ 1.356162, 43.54572 ], [ 1.357086, 43.545983 ], [ 1.357083, 43.546089 ] ] ] } },
{ "type": "Feature", "properties": { "codgeo": "31157", "value": 240, "isochrone_group": 4.0, "nb_agences": 1 }, "geometry": { "type": "MultiPolygon", "coordinates": [ [ [ [ 1.361502, 43.536845 ], [ 1.363051, 43.5367 ], [ 1.363407, 43.536685 ], [ 1.364639, 43.536457 ], [ 1.364716, 43.536443 ], [ 1.364803, 43.536402 ], [ 1.36519, 43.536137 ], [ 1.365174, 43.535777 ], [ 1.364948, 43.535648 ], [ 1.364755, 43.53555 ], [ 1.359626, 43.536677 ], [ 1.359423, 43.536726 ], [ 1.359236, 43.536773 ], [ 1.359014, 43.536853 ], [ 1.358811, 43.536928 ], [ 1.358628, 43.53702 ], [ 1.358464, 43.537104 ], [ 1.358282, 43.537217 ], [ 1.358028, 43.537412 ], [ 1.351751, 43.539674 ], [ 1.345479, 43.538113 ], [ 1.345306, 43.538131 ], [ 1.340123, 43.539342 ], [ 1.339866, 43.539594 ], [ 1.340259, 43.542939 ], [ 1.343892, 43.550744 ], [ 1.34629, 43.552552 ], [ 1.346649, 43.552584 ], [ 1.355574, 43.552954 ], [ 1.34838, 43.550325 ], [ 1.346717, 43.550497 ], [ 1.346581, 43.550411 ], [ 1.346325, 43.550193 ], [ 1.346143, 43.549927 ], [ 1.343881, 43.543867 ], [ 1.343868, 43.543811 ], [ 1.343893, 43.543678 ], [ 1.343912, 43.543647 ], [ 1.347085, 43.541701 ], [ 1.347284, 43.541592 ], [ 1.353452, 43.540867 ], [ 1.357477, 43.538036 ], [ 1.357776, 43.538237 ], [ 1.357703245175497, 43.539053751986387 ], [ 1.361502, 43.536845 ] ] ], [ [ [ 1.358592, 43.555105 ], [ 1.359554, 43.555707 ], [ 1.359843, 43.555862 ], [ 1.36378, 43.557075 ], [ 1.364643, 43.557295 ], [ 1.364876, 43.55702 ], [ 1.365332, 43.556234 ], [ 1.365155, 43.555921 ], [ 1.362552, 43.553115 ], [ 1.361658, 43.552234 ], [ 1.360179, 43.55126 ], [ 1.357086, 43.545983 ], [ 1.3604, 43.554042 ], [ 1.360387, 43.554402 ], [ 1.359961, 43.55443 ], [ 1.357854, 43.554101 ], [ 1.357202, 43.553983 ], [ 1.35645, 43.553547 ], [ 1.358592, 43.555105 ] ] ] ] } },
{ "type": "Feature", "properties": { "codgeo": "31157", "value": 300, "isochrone_group": 5.0, "nb_agences": 1 }, "geometry": { "type": "MultiPolygon", "coordinates": [ [ [ [ 1.367666, 43.537223 ], [ 1.369054, 43.538021 ], [ 1.369481, 43.538345 ], [ 1.370973, 43.53896 ], [ 1.371155, 43.538649 ], [ 1.366114, 43.532451 ], [ 1.359642, 43.533473 ], [ 1.359563, 43.533573 ], [ 1.359524, 43.53365 ], [ 1.358389, 43.535712 ], [ 1.350599, 43.537786 ], [ 1.346054, 43.535425 ], [ 1.338608, 43.537129 ], [ 1.338591, 43.537137 ], [ 1.335479, 43.539653 ], [ 1.334084, 43.540858 ], [ 1.334087, 43.540987 ], [ 1.334088, 43.540993 ], [ 1.334253, 43.541176 ], [ 1.340088, 43.547959 ], [ 1.341398, 43.550762 ], [ 1.345086, 43.554461 ], [ 1.346283, 43.554933 ], [ 1.346639, 43.554883 ], [ 1.352639941094793, 43.552832363944553 ], [ 1.346649, 43.552584 ], [ 1.34629, 43.552552 ], [ 1.343892, 43.550744 ], [ 1.340259, 43.542939 ], [ 1.339866, 43.539594 ], [ 1.340123, 43.539342 ], [ 1.345306, 43.538131 ], [ 1.345479, 43.538113 ], [ 1.351751, 43.539674 ], [ 1.358028, 43.537412 ], [ 1.358282, 43.537217 ], [ 1.358464, 43.537104 ], [ 1.358628, 43.53702 ], [ 1.358811, 43.536928 ], [ 1.359014, 43.536853 ], [ 1.359236, 43.536773 ], [ 1.359423, 43.536726 ], [ 1.359626, 43.536677 ], [ 1.364755, 43.53555 ], [ 1.364948, 43.535648 ], [ 1.365174, 43.535777 ], [ 1.36519, 43.536137 ], [ 1.364803, 43.536402 ], [ 1.364716, 43.536443 ], [ 1.364639, 43.536457 ], [ 1.363407, 43.536685 ], [ 1.367666, 43.537223 ] ] ], [ [ [ 1.360549, 43.557088 ], [ 1.363575, 43.559703 ], [ 1.369187, 43.560946 ], [ 1.369412, 43.560665 ], [ 1.369544, 43.560467 ], [ 1.370506, 43.556656 ], [ 1.37032, 43.556348 ], [ 1.367248, 43.554323 ], [ 1.365242, 43.551651 ], [ 1.361332, 43.549741 ], [ 1.357086, 43.545983 ], [ 1.360179, 43.55126 ], [ 1.361658, 43.552234 ], [ 1.362552, 43.553115 ], [ 1.365155, 43.555921 ], [ 1.365332, 43.556234 ], [ 1.364876, 43.55702 ], [ 1.364643, 43.557295 ], [ 1.36378, 43.557075 ], [ 1.359843, 43.555862 ], [ 1.359554, 43.555707 ], [ 1.358592, 43.555105 ], [ 1.360549, 43.557088 ] ] ] ] } },
{ "type": "Feature", "properties": { "codgeo": "31157", "value": 360, "isochrone_group": 6.0, "nb_agences": 1 }, "geometry": { "type": "Polygon", "coordinates": [ [ [ 1.328328, 43.544463 ], [ 1.328509, 43.544647 ], [ 1.335399, 43.548012 ], [ 1.338508, 43.551212 ], [ 1.343965, 43.556996 ], [ 1.345929, 43.558062 ], [ 1.34872, 43.55807 ], [ 1.356529, 43.56231 ], [ 1.356764, 43.562328 ], [ 1.357203, 43.562325 ], [ 1.36488, 43.563186 ], [ 1.372941, 43.567136 ], [ 1.373502389097492, 43.567729729089812 ], [ 1.376018, 43.564349 ], [ 1.376103454990691, 43.564200930084127 ], [ 1.37531, 43.557089 ], [ 1.377128, 43.555069 ], [ 1.378406, 43.553513 ], [ 1.378251, 43.551202 ], [ 1.377991, 43.550985 ], [ 1.37721, 43.542287 ], [ 1.37881, 43.541498 ], [ 1.378896, 43.541382 ], [ 1.378493, 43.538924 ], [ 1.378075813189295, 43.538163878763626 ], [ 1.375992, 43.539858 ], [ 1.375378, 43.540494 ], [ 1.374624, 43.541666 ], [ 1.373697, 43.541671 ], [ 1.371949, 43.539396 ], [ 1.371973, 43.539322 ], [ 1.373971, 43.535812 ], [ 1.374279, 43.535293 ], [ 1.375420635098915, 43.533391303891484 ], [ 1.3726, 43.527464 ], [ 1.372059, 43.527343 ], [ 1.36904, 43.52789 ], [ 1.368974, 43.527934 ], [ 1.366004, 43.531142 ], [ 1.358641, 43.527851 ], [ 1.35386, 43.528984 ], [ 1.352807, 43.529908 ], [ 1.34801, 43.53166 ], [ 1.343629, 43.530709 ], [ 1.343223, 43.530897 ], [ 1.334794, 43.533912 ], [ 1.334696, 43.533976 ], [ 1.332845, 43.536155 ], [ 1.327159, 43.540763 ], [ 1.327299, 43.542557 ], [ 1.327417, 43.54283 ], [ 1.328328, 43.544463 ] ], [ [ 1.338591, 43.537137 ], [ 1.338608, 43.537129 ], [ 1.346054, 43.535425 ], [ 1.350599, 43.537786 ], [ 1.358389, 43.535712 ], [ 1.359524, 43.53365 ], [ 1.359563, 43.533573 ], [ 1.359642, 43.533473 ], [ 1.366114, 43.532451 ], [ 1.371155, 43.538649 ], [ 1.370973, 43.53896 ], [ 1.369481, 43.538345 ], [ 1.369054, 43.538021 ], [ 1.367666, 43.537223 ], [ 1.363407, 43.536685 ], [ 1.363051, 43.5367 ], [ 1.361502, 43.536845 ], [ 1.356922, 43.539508 ], [ 1.357086, 43.545983 ], [ 1.361332, 43.549741 ], [ 1.365242, 43.551651 ], [ 1.367248, 43.554323 ], [ 1.37032, 43.556348 ], [ 1.370506, 43.556656 ], [ 1.369544, 43.560467 ], [ 1.369412, 43.560665 ], [ 1.369187, 43.560946 ], [ 1.363575, 43.559703 ], [ 1.360549, 43.557088 ], [ 1.358592, 43.555105 ], [ 1.35645, 43.553547 ], [ 1.355574, 43.552954 ], [ 1.354748, 43.552112 ], [ 1.346639, 43.554883 ], [ 1.346283, 43.554933 ], [ 1.345086, 43.554461 ], [ 1.341398, 43.550762 ], [ 1.340088, 43.547959 ], [ 1.334253, 43.541176 ], [ 1.334088, 43.540993 ], [ 1.334087, 43.540987 ], [ 1.334084, 43.540858 ], [ 1.335479, 43.539653 ], [ 1.338591, 43.537137 ] ] ] } },
{ "type": "Feature", "properties": { "codgeo": "31157", "value": 420, "isochrone_group": 7.0, "nb_agences": 1 }, "geometry": { "type": "MultiPolygon", "coordinates": [ [ [ [ 1.326211, 43.547966 ], [ 1.332607, 43.552916 ], [ 1.334231, 43.554854 ], [ 1.341697, 43.558199 ], [ 1.347909, 43.562552 ], [ 1.356705, 43.563523 ], [ 1.36421, 43.564652 ], [ 1.368402, 43.566875 ], [ 1.371415020917919, 43.568966511048707 ], [ 1.372109, 43.568019 ], [ 1.373272947724496, 43.567487070266957 ], [ 1.372941, 43.567136 ], [ 1.36488, 43.563186 ], [ 1.357203, 43.562325 ], [ 1.356764, 43.562328 ], [ 1.356529, 43.56231 ], [ 1.34872, 43.55807 ], [ 1.345929, 43.558062 ], [ 1.343965, 43.556996 ], [ 1.338508, 43.551212 ], [ 1.335399, 43.548012 ], [ 1.328509, 43.544647 ], [ 1.328328, 43.544463 ], [ 1.327417, 43.54283 ], [ 1.327299, 43.542557 ], [ 1.327159, 43.540763 ], [ 1.332285743189935, 43.536608228171083 ], [ 1.32798640967565, 43.534748146302036 ], [ 1.325758, 43.538055 ], [ 1.320832, 43.54344 ], [ 1.31761, 43.547061 ], [ 1.317659439489763, 43.547160351761541 ], [ 1.318582, 43.547429 ], [ 1.319135, 43.54764 ], [ 1.319237, 43.547734 ], [ 1.319336, 43.549109 ], [ 1.319334790138713, 43.549783497666731 ], [ 1.31957, 43.55008 ], [ 1.320078, 43.54975 ], [ 1.326211, 43.547966 ] ] ], [ [ [ 1.37531, 43.557089 ], [ 1.376093543224587, 43.564112088513525 ], [ 1.3777, 43.559568 ], [ 1.376779, 43.556816 ], [ 1.377036722655123, 43.555170419272095 ], [ 1.37531, 43.557089 ] ] ], [ [ [ 1.374689847666237, 43.566839540148678 ], [ 1.375214, 43.5666 ], [ 1.375349649723367, 43.566216295714106 ], [ 1.374689847666237, 43.566839540148678 ] ] ], [ [ [ 1.361401, 43.525917 ], [ 1.360714, 43.526099 ], [ 1.351809, 43.527376 ], [ 1.350916, 43.527056 ], [ 1.349899, 43.526697 ], [ 1.345431565702116, 43.527646232020942 ], [ 1.33844, 43.530741 ], [ 1.336576606323171, 43.533274372990356 ], [ 1.343223, 43.530897 ], [ 1.343629, 43.530709 ], [ 1.34801, 43.53166 ], [ 1.352807, 43.529908 ], [ 1.35386, 43.528984 ], [ 1.358641, 43.527851 ], [ 1.366004, 43.531142 ], [ 1.368974, 43.527934 ], [ 1.36904, 43.52789 ], [ 1.369936985852491, 43.527727478879996 ], [ 1.368267202915562, 43.525954680404595 ], [ 1.362872, 43.525975 ], [ 1.361401, 43.525917 ] ] ] ] } },
{ "type": "Feature", "properties": { "codgeo": "31157", "value": 480, "isochrone_group": 8.0, "nb_agences": 1 }, "geometry": { "type": "MultiPolygon", "coordinates": [ [ [ [ 1.330923, 43.556662 ], [ 1.332715, 43.558243 ], [ 1.339056, 43.563542 ], [ 1.340809, 43.564474 ], [ 1.349362, 43.564822 ], [ 1.352856, 43.565489 ], [ 1.358974, 43.566696 ], [ 1.359523, 43.56659 ], [ 1.364642, 43.566854 ], [ 1.366526, 43.567557 ], [ 1.36667908816384, 43.572295574280012 ], [ 1.369358434337518, 43.57073472704765 ], [ 1.370066722499773, 43.568030579598073 ], [ 1.368402, 43.566875 ], [ 1.36421, 43.564652 ], [ 1.356705, 43.563523 ], [ 1.347909, 43.562552 ], [ 1.341697, 43.558199 ], [ 1.334231, 43.554854 ], [ 1.332607, 43.552916 ], [ 1.326211, 43.547966 ], [ 1.323418773958577, 43.548778217716922 ], [ 1.322219006290754, 43.550477717002217 ], [ 1.322823, 43.550248 ], [ 1.330853, 43.55381 ], [ 1.331012, 43.554907 ], [ 1.330923, 43.556662 ] ] ], [ [ [ 1.353028736572244, 43.52279405524537 ], [ 1.353229, 43.523071 ], [ 1.353225, 43.523108 ], [ 1.352882598693873, 43.527222043174376 ], [ 1.360714, 43.526099 ], [ 1.361368563476962, 43.525925593081794 ], [ 1.360369600562062, 43.524544106033886 ], [ 1.354053, 43.522883 ], [ 1.353502, 43.522764 ], [ 1.353028736572244, 43.52279405524537 ] ] ], [ [ [ 1.32475896716786, 43.536112610155193 ], [ 1.322829, 43.540257 ], [ 1.320121, 43.542629 ], [ 1.315771055633987, 43.547147345525019 ], [ 1.318017, 43.546167 ], [ 1.318682530882385, 43.545855651047439 ], [ 1.320832, 43.54344 ], [ 1.325758, 43.538055 ], [ 1.326447729986744, 43.53703147358916 ], [ 1.32475896716786, 43.536112610155193 ] ] ] ] } },
{ "type": "Feature", "properties": { "codgeo": "31157", "value": 540, "isochrone_group": 9.0, "nb_agences": 1 }, "geometry": { "type": "MultiPolygon", "coordinates": [ [ [ [ 1.323128864910186, 43.539613073455953 ], [ 1.322407, 43.539537 ], [ 1.320192197553756, 43.537043924259542 ], [ 1.320591, 43.540027 ], [ 1.318204962456427, 43.544619213881454 ], [ 1.320121, 43.542629 ], [ 1.322829, 43.540257 ], [ 1.323128864910186, 43.539613073455953 ] ] ], [ [ [ 1.330543, 43.558827 ], [ 1.332613831656443, 43.563655242618026 ], [ 1.335225, 43.562855 ], [ 1.336648949217069, 43.561530493597417 ], [ 1.332715, 43.558243 ], [ 1.330923, 43.556662 ], [ 1.331012, 43.554907 ], [ 1.330853, 43.55381 ], [ 1.324420806477216, 43.550956765463503 ], [ 1.32394, 43.551961 ], [ 1.32495171860527, 43.556157758658905 ], [ 1.328299, 43.558095 ], [ 1.328628, 43.55838 ], [ 1.328977, 43.558621 ], [ 1.330543, 43.558827 ] ] ], [ [ [ 1.356487, 43.567605 ], [ 1.359829, 43.56884 ], [ 1.360364, 43.568729 ], [ 1.365851, 43.567859 ], [ 1.366319728124706, 43.571942787638434 ], [ 1.366514, 43.571688 ], [ 1.366650529041439, 43.571411576984104 ], [ 1.366526, 43.567557 ], [ 1.364642, 43.566854 ], [ 1.359523, 43.56659 ], [ 1.358974, 43.566696 ], [ 1.352856, 43.565489 ], [ 1.349362, 43.564822 ], [ 1.342231644403458, 43.564531883812982 ], [ 1.342432737232925, 43.565716712848094 ], [ 1.346055, 43.564971 ], [ 1.352214, 43.565576 ], [ 1.35627, 43.567569 ], [ 1.356487, 43.567605 ] ] ] ] } },
{ "type": "Feature", "properties": { "codgeo": "31157", "value": 600, "isochrone_group": 10.0, "nb_agences": 1 }, "geometry": { "type": "MultiPolygon", "coordinates": [ [ [ [ 1.32553320968985, 43.557068004088904 ], [ 1.326586898416234, 43.55710412006578 ], [ 1.324694300144889, 43.556008777553153 ], [ 1.325066, 43.556546 ], [ 1.32553320968985, 43.557068004088904 ] ] ], [ [ [ 1.330543, 43.558827 ], [ 1.329039809319726, 43.558629262273207 ], [ 1.329900890109276, 43.559473635525066 ], [ 1.330685204843615, 43.55915855736454 ], [ 1.330543, 43.558827 ] ] ], [ [ [ 1.352214, 43.565576 ], [ 1.356122, 43.568016 ], [ 1.357402, 43.568851 ], [ 1.358230266345029, 43.568249205247191 ], [ 1.356487, 43.567605 ], [ 1.35627, 43.567569 ], [ 1.352214, 43.565576 ] ] ] ] } },
{ "type": "Feature", "properties": { "codgeo": "31157", "value": 660, "isochrone_group": 11.0, "nb_agences": 1 }, "geometry": { "type": "Polygon", "coordinates": [ [ [ 1.356122, 43.568016 ], [ 1.352214, 43.565576 ], [ 1.350816, 43.56501 ], [ 1.347768, 43.564415 ], [ 1.342738084283701, 43.565426309613819 ], [ 1.34557, 43.573032 ], [ 1.345625771095091, 43.5730613594137 ], [ 1.345644, 43.57307 ], [ 1.345730300715807, 43.573116386634744 ], [ 1.346005794692124, 43.573261414119116 ], [ 1.346572044586834, 43.573524443760995 ], [ 1.35133683382651, 43.575657085940506 ], [ 1.356491, 43.57439 ], [ 1.362158, 43.569677 ], [ 1.359894003765187, 43.567040380989759 ], [ 1.357402, 43.568851 ], [ 1.356122, 43.568016 ] ] ] } },
{ "type": "Feature", "properties": { "codgeo": "31157", "value": 720, "isochrone_group": 12.0, "nb_agences": 1 }, "geometry": { "type": "Polygon", "coordinates": [ [ [ 1.409008, 43.519517 ], [ 1.40771982287639, 43.519267923687138 ], [ 1.409359158436804, 43.519986447556349 ], [ 1.409287, 43.519723 ], [ 1.409008, 43.519517 ] ] ] } },
{ "type": "Feature", "properties": { "codgeo": "31157", "value": 780, "isochrone_group": 13.0, "nb_agences": 1 }, "geometry": { "type": "MultiPolygon", "coordinates": [ [ [ [ 1.40986, 43.521815 ], [ 1.409883994103382, 43.521967383603929 ], [ 1.410304, 43.522259 ], [ 1.410436, 43.522394 ], [ 1.410644438607973, 43.522598924236092 ], [ 1.411970145921086, 43.523378538766515 ], [ 1.411609, 43.521091 ], [ 1.411366, 43.520936 ], [ 1.409370729947347, 43.520028694676874 ], [ 1.40986, 43.521815 ] ] ], [ [ [ 1.397875, 43.51453 ], [ 1.395867870923808, 43.513765606694626 ], [ 1.396718, 43.515912 ], [ 1.402117, 43.517312 ], [ 1.402918, 43.517739 ], [ 1.403813, 43.51827 ], [ 1.404141, 43.518464 ], [ 1.404327194942149, 43.51857084076218 ], [ 1.404824, 43.518708 ], [ 1.407681344509738, 43.519260483677904 ], [ 1.404397, 43.517767 ], [ 1.397875, 43.51453 ] ] ] ] } },
{ "type": "Feature", "properties": { "codgeo": "31157", "value": 840, "isochrone_group": 14.0, "nb_agences": 1 }, "geometry": { "type": "Polygon", "coordinates": [ [ [ 1.411736736211175, 43.521900095487155 ], [ 1.411970145921086, 43.523378538766515 ], [ 1.41207750990153, 43.523441676774702 ], [ 1.413048856744588, 43.522441348921909 ], [ 1.412693, 43.522231 ], [ 1.411794, 43.521926 ], [ 1.411736736211175, 43.521900095487155 ] ] ] } }
]
}
