{
"type": "FeatureCollection",
"name": "BPCE",
"crs": { "type": "name", "properties": { "name": "urn:ogc:def:crs:OGC:1.3:CRS84" } },
"features": [
{ "type": "Feature", "properties": { "codgeo": "34031", "value": 60, "isochrone_group": 1.0, "nb_agences": 1 }, "geometry": { "type": "Polygon", "coordinates": [ [ [ 3.422159, 43.361433 ], [ 3.422196, 43.361237 ], [ 3.422405, 43.360488 ], [ 3.425221, 43.357852 ], [ 3.425542, 43.357691 ], [ 3.427695, 43.359841 ], [ 3.427778, 43.360019 ], [ 3.428388, 43.361483 ], [ 3.428239, 43.361811 ], [ 3.426706, 43.363377 ], [ 3.423684, 43.365729 ], [ 3.423336, 43.365639 ], [ 3.423275, 43.365489 ], [ 3.422159, 43.361433 ] ] ] } },
{ "type": "Feature", "properties": { "codgeo": "34031", "value": 120, "isochrone_group": 2.0, "nb_agences": 1 }, "geometry": { "type": "Polygon", "coordinates": [ [ [ 3.419971, 43.369957 ], [ 3.421734, 43.371975 ], [ 3.422086, 43.372047 ], [ 3.423818, 43.370031 ], [ 3.423845, 43.369672 ], [ 3.425713, 43.365317 ], [ 3.428653, 43.365352 ], [ 3.428986, 43.365215 ], [ 3.430876, 43.364211 ], [ 3.435407, 43.362153 ], [ 3.435736, 43.362007 ], [ 3.436202, 43.360135 ], [ 3.435911, 43.358937 ], [ 3.435604, 43.358748 ], [ 3.433255, 43.358061 ], [ 3.428048, 43.357055 ], [ 3.429211, 43.351765 ], [ 3.429008, 43.351467 ], [ 3.428568, 43.351766 ], [ 3.428128, 43.352066 ], [ 3.427856, 43.352263 ], [ 3.426217, 43.353352 ], [ 3.420712, 43.355628 ], [ 3.420545, 43.35571 ], [ 3.419617, 43.358983 ], [ 3.419526, 43.359539 ], [ 3.419527, 43.359899 ], [ 3.420568, 43.3614 ], [ 3.420778, 43.361619 ], [ 3.422423, 43.364425 ], [ 3.420036, 43.369597 ], [ 3.419962, 43.369798 ], [ 3.419941, 43.369864 ], [ 3.419971, 43.369957 ] ], [ [ 3.422196, 43.361237 ], [ 3.422405, 43.360488 ], [ 3.425221, 43.357852 ], [ 3.425542, 43.357691 ], [ 3.427695, 43.359841 ], [ 3.427778, 43.360019 ], [ 3.428388, 43.361483 ], [ 3.428239, 43.361811 ], [ 3.426706, 43.363377 ], [ 3.423684, 43.365729 ], [ 3.423336, 43.365639 ], [ 3.423275, 43.365489 ], [ 3.422159, 43.361433 ], [ 3.422196, 43.361237 ] ] ] } },
{ "type": "Feature", "properties": { "codgeo": "34031", "value": 180, "isochrone_group": 3.0, "nb_agences": 1 }, "geometry": { "type": "Polygon", "coordinates": [ [ [ 3.419607, 43.379608 ], [ 3.419963, 43.379665 ], [ 3.423946, 43.373856 ], [ 3.425194, 43.371941 ], [ 3.429778, 43.367176 ], [ 3.437522, 43.368718 ], [ 3.437866, 43.36861 ], [ 3.439483, 43.363492 ], [ 3.444843, 43.356271 ], [ 3.44556, 43.356148 ], [ 3.445499, 43.355793 ], [ 3.444782, 43.355916 ], [ 3.444066, 43.35604 ], [ 3.443738, 43.356109 ], [ 3.443012, 43.356301 ], [ 3.442296, 43.356491 ], [ 3.441959, 43.356614 ], [ 3.441638, 43.356733 ], [ 3.441414, 43.35683 ], [ 3.4412, 43.356924 ], [ 3.44076, 43.357149 ], [ 3.44033, 43.357369 ], [ 3.440035, 43.357546 ], [ 3.439762, 43.357738 ], [ 3.436043, 43.358588 ], [ 3.431929, 43.355733 ], [ 3.434663, 43.349106 ], [ 3.435674, 43.34876 ], [ 3.435558, 43.348419 ], [ 3.429899, 43.347073 ], [ 3.428389, 43.347079 ], [ 3.428078, 43.347259 ], [ 3.425427, 43.351746 ], [ 3.420392, 43.353984 ], [ 3.417194, 43.353802 ], [ 3.416896, 43.354005 ], [ 3.416733, 43.354229 ], [ 3.414318, 43.362324 ], [ 3.414416, 43.36267 ], [ 3.415657, 43.365121 ], [ 3.418152, 43.372756 ], [ 3.419607, 43.379608 ] ], [ [ 3.419962, 43.369798 ], [ 3.420036, 43.369597 ], [ 3.422423, 43.364425 ], [ 3.420778, 43.361619 ], [ 3.420568, 43.3614 ], [ 3.419527, 43.359899 ], [ 3.419526, 43.359539 ], [ 3.419617, 43.358983 ], [ 3.420545, 43.35571 ], [ 3.420712, 43.355628 ], [ 3.426217, 43.353352 ], [ 3.427856, 43.352263 ], [ 3.428128, 43.352066 ], [ 3.428568, 43.351766 ], [ 3.429008, 43.351467 ], [ 3.429211, 43.351765 ], [ 3.428048, 43.357055 ], [ 3.433255, 43.358061 ], [ 3.435604, 43.358748 ], [ 3.435911, 43.358937 ], [ 3.436202, 43.360135 ], [ 3.435736, 43.362007 ], [ 3.435407, 43.362153 ], [ 3.430876, 43.364211 ], [ 3.428986, 43.365215 ], [ 3.428653, 43.365352 ], [ 3.425713, 43.365317 ], [ 3.423845, 43.369672 ], [ 3.423818, 43.370031 ], [ 3.422086, 43.372047 ], [ 3.421734, 43.371975 ], [ 3.419971, 43.369957 ], [ 3.419941, 43.369864 ], [ 3.419962, 43.369798 ] ] ] } },
{ "type": "Feature", "properties": { "codgeo": "34031", "value": 240, "isochrone_group": 4.0, "nb_agences": 1 }, "geometry": { "type": "Polygon", "coordinates": [ [ [ 3.410505, 43.369775 ], [ 3.410759, 43.370031 ], [ 3.414706, 43.378077 ], [ 3.416903, 43.382002 ], [ 3.420264, 43.386127 ], [ 3.420602, 43.386251 ], [ 3.420687, 43.38602 ], [ 3.420753, 43.385766 ], [ 3.420813, 43.38553 ], [ 3.420872, 43.385221 ], [ 3.420928, 43.384924 ], [ 3.42095, 43.384667 ], [ 3.420943, 43.384456 ], [ 3.425354, 43.376756 ], [ 3.427223, 43.373945 ], [ 3.435924, 43.374613 ], [ 3.437379, 43.376116 ], [ 3.437726, 43.37602 ], [ 3.437636, 43.375694 ], [ 3.437631, 43.371397 ], [ 3.440864, 43.36695 ], [ 3.440956, 43.366602 ], [ 3.443029, 43.363185 ], [ 3.449898, 43.361445 ], [ 3.451895, 43.361337 ], [ 3.453561, 43.361153 ], [ 3.453577, 43.360793 ], [ 3.450195, 43.354268 ], [ 3.449859, 43.35414 ], [ 3.445719, 43.351353 ], [ 3.443071, 43.342883 ], [ 3.443339, 43.342643 ], [ 3.443604, 43.342321 ], [ 3.443364, 43.342052 ], [ 3.438664, 43.34443 ], [ 3.430622, 43.343023 ], [ 3.425279, 43.342274 ], [ 3.424921, 43.342313 ], [ 3.42395, 43.345751 ], [ 3.419217, 43.350235 ], [ 3.418824, 43.350464 ], [ 3.418581, 43.35073 ], [ 3.416583, 43.353449 ], [ 3.411073, 43.355953 ], [ 3.410946, 43.35629 ], [ 3.408992, 43.363316 ], [ 3.410505, 43.369775 ] ], [ [ 3.415657, 43.365121 ], [ 3.414416, 43.36267 ], [ 3.414318, 43.362324 ], [ 3.416733, 43.354229 ], [ 3.416896, 43.354005 ], [ 3.417194, 43.353802 ], [ 3.420392, 43.353984 ], [ 3.425427, 43.351746 ], [ 3.428078, 43.347259 ], [ 3.428389, 43.347079 ], [ 3.429899, 43.347073 ], [ 3.435558, 43.348419 ], [ 3.435674, 43.34876 ], [ 3.434663, 43.349106 ], [ 3.431929, 43.355733 ], [ 3.436043, 43.358588 ], [ 3.439762, 43.357738 ], [ 3.440035, 43.357546 ], [ 3.44033, 43.357369 ], [ 3.44076, 43.357149 ], [ 3.4412, 43.356924 ], [ 3.441414, 43.35683 ], [ 3.441638, 43.356733 ], [ 3.441959, 43.356614 ], [ 3.442296, 43.356491 ], [ 3.443012, 43.356301 ], [ 3.443738, 43.356109 ], [ 3.444066, 43.35604 ], [ 3.444782, 43.355916 ], [ 3.445499, 43.355793 ], [ 3.44556, 43.356148 ], [ 3.444843, 43.356271 ], [ 3.439483, 43.363492 ], [ 3.437866, 43.36861 ], [ 3.437522, 43.368718 ], [ 3.429778, 43.367176 ], [ 3.425194, 43.371941 ], [ 3.423946, 43.373856 ], [ 3.419963, 43.379665 ], [ 3.419607, 43.379608 ], [ 3.418152, 43.372756 ], [ 3.415657, 43.365121 ] ] ] } },
{ "type": "Feature", "properties": { "codgeo": "34031", "value": 300, "isochrone_group": 5.0, "nb_agences": 1 }, "geometry": { "type": "Polygon", "coordinates": [ [ [ 3.399998, 43.374772 ], [ 3.40282, 43.376233 ], [ 3.403367, 43.37646 ], [ 3.41008, 43.38185 ], [ 3.410579, 43.382913 ], [ 3.413292, 43.388802 ], [ 3.415405, 43.391717 ], [ 3.420275, 43.391613 ], [ 3.420468, 43.391589 ], [ 3.422037, 43.389658 ], [ 3.422588, 43.38766 ], [ 3.42283, 43.385367 ], [ 3.422896, 43.384612 ], [ 3.42902, 43.378312 ], [ 3.434681, 43.383059 ], [ 3.436314470936065, 43.383620280762152 ], [ 3.43968, 43.377239 ], [ 3.443933943548795, 43.372901645793384 ], [ 3.443202, 43.369596 ], [ 3.445796, 43.368311 ], [ 3.448763, 43.368487 ], [ 3.449041, 43.368245 ], [ 3.453753, 43.366125 ], [ 3.459593, 43.365475 ], [ 3.465666, 43.364004 ], [ 3.466816, 43.362684 ], [ 3.467031, 43.362229 ], [ 3.467031, 43.36222 ], [ 3.465911, 43.360412 ], [ 3.465354, 43.360374 ], [ 3.463115, 43.360239 ], [ 3.45693, 43.357075 ], [ 3.453349, 43.3567 ], [ 3.450378, 43.348434 ], [ 3.449061, 43.341262 ], [ 3.452331, 43.336695 ], [ 3.45237, 43.33666 ], [ 3.452152, 43.333942 ], [ 3.452029, 43.333852 ], [ 3.449972, 43.333975 ], [ 3.447542, 43.335365 ], [ 3.444118, 43.337474 ], [ 3.438997, 43.33836 ], [ 3.438882, 43.338371 ], [ 3.431006, 43.338561 ], [ 3.42576, 43.335289 ], [ 3.422161, 43.335362 ], [ 3.419518, 43.340372 ], [ 3.415821, 43.34822 ], [ 3.415002, 43.350027 ], [ 3.406629, 43.352757 ], [ 3.404798, 43.353342 ], [ 3.404741, 43.353415 ], [ 3.405128, 43.356029 ], [ 3.399259, 43.361532 ], [ 3.397636, 43.363326 ], [ 3.397632, 43.363524 ], [ 3.398337, 43.364789 ], [ 3.397557, 43.373581 ], [ 3.399998, 43.374772 ] ], [ [ 3.411073, 43.355953 ], [ 3.416583, 43.353449 ], [ 3.418581, 43.35073 ], [ 3.418824, 43.350464 ], [ 3.419217, 43.350235 ], [ 3.42395, 43.345751 ], [ 3.424921, 43.342313 ], [ 3.425279, 43.342274 ], [ 3.430622, 43.343023 ], [ 3.438664, 43.34443 ], [ 3.443364, 43.342052 ], [ 3.443604, 43.342321 ], [ 3.443339, 43.342643 ], [ 3.443071, 43.342883 ], [ 3.445719, 43.351353 ], [ 3.449859, 43.35414 ], [ 3.450195, 43.354268 ], [ 3.453577, 43.360793 ], [ 3.453561, 43.361153 ], [ 3.451895, 43.361337 ], [ 3.449898, 43.361445 ], [ 3.443029, 43.363185 ], [ 3.440956, 43.366602 ], [ 3.440864, 43.36695 ], [ 3.437631, 43.371397 ], [ 3.437636, 43.375694 ], [ 3.437726, 43.37602 ], [ 3.437379, 43.376116 ], [ 3.435924, 43.374613 ], [ 3.427223, 43.373945 ], [ 3.425354, 43.376756 ], [ 3.420943, 43.384456 ], [ 3.42095, 43.384667 ], [ 3.420928, 43.384924 ], [ 3.420872, 43.385221 ], [ 3.420813, 43.38553 ], [ 3.420753, 43.385766 ], [ 3.420687, 43.38602 ], [ 3.420602, 43.386251 ], [ 3.420264, 43.386127 ], [ 3.416903, 43.382002 ], [ 3.414706, 43.378077 ], [ 3.410759, 43.370031 ], [ 3.410505, 43.369775 ], [ 3.408992, 43.363316 ], [ 3.410946, 43.35629 ], [ 3.411073, 43.355953 ] ] ] } },
{ "type": "Feature", "properties": { "codgeo": "34031", "value": 360, "isochrone_group": 6.0, "nb_agences": 1 }, "geometry": { "type": "MultiPolygon", "coordinates": [ [ [ [ 3.453832, 43.369112 ], [ 3.458027230380069, 43.368975597467809 ], [ 3.458764, 43.367779 ], [ 3.458869, 43.367144 ], [ 3.458899, 43.366986 ], [ 3.45895, 43.366695 ], [ 3.45903, 43.366245 ], [ 3.459866418985672, 43.365408772546047 ], [ 3.459593, 43.365475 ], [ 3.453753, 43.366125 ], [ 3.449041, 43.368245 ], [ 3.448763, 43.368487 ], [ 3.447879617005369, 43.368434598447237 ], [ 3.447751, 43.368956 ], [ 3.447785, 43.369961 ], [ 3.447753, 43.37017 ], [ 3.448562421970407, 43.372333274118759 ], [ 3.44856, 43.371721 ], [ 3.453832, 43.369112 ] ] ], [ [ [ 3.465586, 43.357119 ], [ 3.459107, 43.35414 ], [ 3.456453, 43.351707 ], [ 3.453767, 43.345534 ], [ 3.451735, 43.342563 ], [ 3.451138, 43.340929 ], [ 3.455178, 43.334151 ], [ 3.457348, 43.33221 ], [ 3.457444, 43.332124 ], [ 3.455044, 43.329441 ], [ 3.452811, 43.330294 ], [ 3.452057, 43.33056 ], [ 3.444961, 43.334513 ], [ 3.43994, 43.334708 ], [ 3.437911, 43.334982 ], [ 3.431989, 43.337533 ], [ 3.431139, 43.337459 ], [ 3.426734, 43.33013 ], [ 3.427282, 43.328105 ], [ 3.427827, 43.326093 ], [ 3.428429, 43.323936 ], [ 3.429031, 43.321779 ], [ 3.427470467171695, 43.321343868729826 ], [ 3.426412, 43.325136 ], [ 3.422641, 43.329387 ], [ 3.421852, 43.333191 ], [ 3.421769, 43.334809 ], [ 3.421714, 43.335859 ], [ 3.42169360539769, 43.336247980687716 ], [ 3.422161, 43.335362 ], [ 3.42576, 43.335289 ], [ 3.431006, 43.338561 ], [ 3.438882, 43.338371 ], [ 3.438997, 43.33836 ], [ 3.444118, 43.337474 ], [ 3.447542, 43.335365 ], [ 3.449972, 43.333975 ], [ 3.452029, 43.333852 ], [ 3.452152, 43.333942 ], [ 3.45237, 43.33666 ], [ 3.452331, 43.336695 ], [ 3.449061, 43.341262 ], [ 3.450378, 43.348434 ], [ 3.453349, 43.3567 ], [ 3.45693, 43.357075 ], [ 3.463115, 43.360239 ], [ 3.465354, 43.360374 ], [ 3.465911, 43.360412 ], [ 3.466511671969899, 43.361381656179987 ], [ 3.468238, 43.361106 ], [ 3.473296, 43.360233 ], [ 3.474792207255881, 43.36023947358467 ], [ 3.467679, 43.358139 ], [ 3.465586, 43.357119 ] ] ], [ [ [ 3.41985, 43.333571 ], [ 3.415875, 43.3393 ], [ 3.415237, 43.344756 ], [ 3.409769, 43.348852 ], [ 3.403483, 43.350266 ], [ 3.402318, 43.350224 ], [ 3.400165, 43.351497 ], [ 3.400175, 43.353117 ], [ 3.400003, 43.355094 ], [ 3.392899, 43.360023 ], [ 3.389002, 43.360902 ], [ 3.380619, 43.362324 ], [ 3.379502, 43.362051 ], [ 3.378647, 43.365548 ], [ 3.379765, 43.365821 ], [ 3.381846, 43.36641 ], [ 3.383248, 43.366886 ], [ 3.38478, 43.367459 ], [ 3.386053, 43.367979 ], [ 3.388122, 43.368921 ], [ 3.39152, 43.370592 ], [ 3.394563, 43.372092 ], [ 3.396837, 43.378957 ], [ 3.395936, 43.381417 ], [ 3.396541, 43.381927 ], [ 3.396563, 43.381939 ], [ 3.398024, 43.382356 ], [ 3.398309, 43.382256 ], [ 3.398532, 43.382175 ], [ 3.398928, 43.381993 ], [ 3.405403, 43.381348 ], [ 3.405963, 43.381468 ], [ 3.40629, 43.381501 ], [ 3.408082, 43.381926 ], [ 3.409306, 43.382376 ], [ 3.411703, 43.390618 ], [ 3.411313, 43.391789 ], [ 3.409619, 43.394291 ], [ 3.409433, 43.39463 ], [ 3.408934, 43.400953 ], [ 3.408809, 43.401346 ], [ 3.412237, 43.402443 ], [ 3.412363, 43.40205 ], [ 3.416795, 43.396447 ], [ 3.421218, 43.395082 ], [ 3.421604, 43.394911 ], [ 3.422275, 43.394523 ], [ 3.422314093760018, 43.394482302393421 ], [ 3.422217, 43.394262 ], [ 3.422696635630146, 43.39390430563175 ], [ 3.423435, 43.39255 ], [ 3.424608, 43.390875 ], [ 3.428642744116061, 43.391057262002036 ], [ 3.430644, 43.390602 ], [ 3.434445, 43.385617 ], [ 3.435230285043827, 43.383247741116371 ], [ 3.434681, 43.383059 ], [ 3.42902, 43.378312 ], [ 3.422896, 43.384612 ], [ 3.42283, 43.385367 ], [ 3.422588, 43.38766 ], [ 3.422037, 43.389658 ], [ 3.420468, 43.391589 ], [ 3.420275, 43.391613 ], [ 3.415405, 43.391717 ], [ 3.413292, 43.388802 ], [ 3.410579, 43.382913 ], [ 3.41008, 43.38185 ], [ 3.403367, 43.37646 ], [ 3.40282, 43.376233 ], [ 3.399998, 43.374772 ], [ 3.397557, 43.373581 ], [ 3.398337, 43.364789 ], [ 3.397632, 43.363524 ], [ 3.397636, 43.363326 ], [ 3.399259, 43.361532 ], [ 3.405128, 43.356029 ], [ 3.404741, 43.353415 ], [ 3.404798, 43.353342 ], [ 3.406629, 43.352757 ], [ 3.415002, 43.350027 ], [ 3.415821, 43.34822 ], [ 3.419518, 43.340372 ], [ 3.421353910080123, 43.336891898032007 ], [ 3.421299, 43.336889 ], [ 3.420436, 43.334993 ], [ 3.420020374109679, 43.333295207448018 ], [ 3.41985, 43.333571 ] ] ], [ [ [ 3.443202, 43.369596 ], [ 3.443895094043189, 43.372726191408965 ], [ 3.444703, 43.372191 ], [ 3.444778, 43.37205 ], [ 3.445867035588343, 43.368315213772689 ], [ 3.445796, 43.368311 ], [ 3.443202, 43.369596 ] ] ] ] } },
{ "type": "Feature", "properties": { "codgeo": "34031", "value": 420, "isochrone_group": 7.0, "nb_agences": 1 }, "geometry": { "type": "MultiPolygon", "coordinates": [ [ [ [ 3.440009, 43.332666 ], [ 3.439109, 43.333235 ], [ 3.43221, 43.334965 ], [ 3.427282, 43.328105 ], [ 3.426734, 43.33013 ], [ 3.431139, 43.337459 ], [ 3.431989, 43.337533 ], [ 3.437911, 43.334982 ], [ 3.43994, 43.334708 ], [ 3.444961, 43.334513 ], [ 3.452057, 43.33056 ], [ 3.452811, 43.330294 ], [ 3.453854167471513, 43.329895512828841 ], [ 3.450791, 43.326807 ], [ 3.450719, 43.32651 ], [ 3.450685, 43.32571 ], [ 3.450146146936993, 43.323940635077513 ], [ 3.449206, 43.324078 ], [ 3.447422, 43.329341 ], [ 3.443528, 43.331797 ], [ 3.441583, 43.332093 ], [ 3.440009, 43.332666 ] ] ], [ [ [ 3.411347, 43.337878 ], [ 3.408883, 43.343711 ], [ 3.400444, 43.346362 ], [ 3.397573, 43.347315 ], [ 3.39579, 43.347766 ], [ 3.395343, 43.34819 ], [ 3.393444, 43.351858 ], [ 3.392916, 43.35266 ], [ 3.38728, 43.357663 ], [ 3.378713, 43.35936 ], [ 3.369889, 43.360751 ], [ 3.368049, 43.360688 ], [ 3.365356, 43.360644 ], [ 3.362664, 43.3606 ], [ 3.359971, 43.360555 ], [ 3.357317, 43.360512 ], [ 3.355398, 43.36044 ], [ 3.355262, 43.364037 ], [ 3.357181, 43.36411 ], [ 3.359912, 43.364155 ], [ 3.362605, 43.364199 ], [ 3.365297, 43.364243 ], [ 3.36799, 43.364288 ], [ 3.369765, 43.364349 ], [ 3.371634, 43.364465 ], [ 3.372641, 43.364558 ], [ 3.374008, 43.364716 ], [ 3.375077, 43.364864 ], [ 3.376431, 43.365088 ], [ 3.377492, 43.365294 ], [ 3.378677541390774, 43.365555457781475 ], [ 3.378647, 43.365548 ], [ 3.379502, 43.362051 ], [ 3.380619, 43.362324 ], [ 3.389002, 43.360902 ], [ 3.392899, 43.360023 ], [ 3.400003, 43.355094 ], [ 3.400175, 43.353117 ], [ 3.400165, 43.351497 ], [ 3.402318, 43.350224 ], [ 3.403483, 43.350266 ], [ 3.409769, 43.348852 ], [ 3.415237, 43.344756 ], [ 3.415874987981123, 43.339300102782126 ], [ 3.415867, 43.339285 ], [ 3.415052, 43.33797 ], [ 3.413426104537351, 43.334871160580846 ], [ 3.411347, 43.337878 ] ] ], [ [ [ 3.393412, 43.376536 ], [ 3.392521, 43.378372 ], [ 3.389406, 43.381986 ], [ 3.387416, 43.382727 ], [ 3.388672, 43.386101 ], [ 3.38987, 43.385708 ], [ 3.390662, 43.38536 ], [ 3.39273, 43.384828 ], [ 3.400573, 43.388616 ], [ 3.399563, 43.392071 ], [ 3.40465, 43.395687 ], [ 3.408504, 43.403542 ], [ 3.408558, 43.404477 ], [ 3.408663, 43.405108 ], [ 3.408821, 43.405746 ], [ 3.409016, 43.40629 ], [ 3.410228, 43.409322 ], [ 3.410981, 43.411234 ], [ 3.411157, 43.411611 ], [ 3.411433, 43.412138 ], [ 3.411946, 43.412926 ], [ 3.412453, 43.413569 ], [ 3.41301, 43.414168 ], [ 3.414631, 43.415723 ], [ 3.417124, 43.413125 ], [ 3.415503, 43.41157 ], [ 3.414249, 43.409723 ], [ 3.413579, 43.408008 ], [ 3.417768, 43.400436 ], [ 3.419241, 43.400339 ], [ 3.420845, 43.399919 ], [ 3.421644, 43.399452 ], [ 3.421924, 43.399197 ], [ 3.425841982039652, 43.396227548773496 ], [ 3.423937, 43.396874 ], [ 3.423508, 43.397208 ], [ 3.423155, 43.397216 ], [ 3.417676276807304, 43.396175025583986 ], [ 3.416795, 43.396447 ], [ 3.412363, 43.40205 ], [ 3.412237, 43.402443 ], [ 3.408809, 43.401346 ], [ 3.408934, 43.400953 ], [ 3.409433, 43.39463 ], [ 3.409619, 43.394291 ], [ 3.411313, 43.391789 ], [ 3.411703, 43.390618 ], [ 3.409306, 43.382376 ], [ 3.408082, 43.381926 ], [ 3.40629, 43.381501 ], [ 3.405963, 43.381468 ], [ 3.405403, 43.381348 ], [ 3.398928, 43.381993 ], [ 3.398532, 43.382175 ], [ 3.398309, 43.382256 ], [ 3.398024, 43.382356 ], [ 3.396563, 43.381939 ], [ 3.396541, 43.381927 ], [ 3.395936, 43.381417 ], [ 3.396837, 43.378957 ], [ 3.394563, 43.372092 ], [ 3.39152, 43.370592 ], [ 3.388122, 43.368921 ], [ 3.386053, 43.367979 ], [ 3.38478, 43.367459 ], [ 3.383248, 43.366886 ], [ 3.387358, 43.369399 ], [ 3.388256, 43.369802 ], [ 3.388393, 43.369816 ], [ 3.393412, 43.376536 ] ] ], [ [ [ 3.480636, 43.405528 ], [ 3.481764, 43.406051 ], [ 3.483278, 43.402785 ], [ 3.48215, 43.402262 ], [ 3.481609, 43.401982 ], [ 3.480436, 43.401346 ], [ 3.479291078249729, 43.400655798944861 ], [ 3.478926, 43.401918 ], [ 3.476822491632496, 43.403370997339607 ], [ 3.478721, 43.404511 ], [ 3.479963, 43.405184 ], [ 3.480636, 43.405528 ] ] ], [ [ [ 3.461773, 43.350418 ], [ 3.458838, 43.348333 ], [ 3.457523, 43.342365 ], [ 3.455178, 43.334151 ], [ 3.451138, 43.340929 ], [ 3.451735, 43.342563 ], [ 3.453767, 43.345534 ], [ 3.456453, 43.351707 ], [ 3.459107, 43.35414 ], [ 3.465586, 43.357119 ], [ 3.473013, 43.35704 ], [ 3.473264006686599, 43.35693316591334 ], [ 3.469003, 43.354854 ], [ 3.468281, 43.353863 ], [ 3.461773, 43.350418 ] ] ], [ [ [ 3.456712993945202, 43.332777993895107 ], [ 3.455178, 43.334151 ], [ 3.457348201409615, 43.3322099132604 ], [ 3.457348, 43.33221 ], [ 3.456713, 43.332778 ], [ 3.456712993945202, 43.332777993895107 ] ] ] ] } },
{ "type": "Feature", "properties": { "codgeo": "34031", "value": 480, "isochrone_group": 8.0, "nb_agences": 1 }, "geometry": { "type": "MultiPolygon", "coordinates": [ [ [ [ 3.403124, 43.34188 ], [ 3.400494, 43.343569 ], [ 3.392515, 43.344786 ], [ 3.387972, 43.351668 ], [ 3.381985, 43.357094 ], [ 3.374893, 43.356731 ], [ 3.374435, 43.356631 ], [ 3.370599, 43.355863 ], [ 3.368701, 43.358922 ], [ 3.362664, 43.3606 ], [ 3.365356, 43.360644 ], [ 3.368049, 43.360688 ], [ 3.369889, 43.360751 ], [ 3.378713, 43.35936 ], [ 3.38728, 43.357663 ], [ 3.392916, 43.35266 ], [ 3.393444, 43.351858 ], [ 3.395343, 43.34819 ], [ 3.39579, 43.347766 ], [ 3.397573, 43.347315 ], [ 3.400444, 43.346362 ], [ 3.408883, 43.343711 ], [ 3.409787974333196, 43.341568664251028 ], [ 3.40965, 43.341567 ], [ 3.40959, 43.341551 ], [ 3.409408, 43.341476 ], [ 3.409003, 43.341063 ], [ 3.405997450579063, 43.337502742986082 ], [ 3.403124, 43.34188 ] ] ], [ [ [ 3.348301, 43.359226 ], [ 3.346349, 43.358578 ], [ 3.344946, 43.358001 ], [ 3.337769, 43.353073 ], [ 3.337087, 43.352409 ], [ 3.334575, 43.354987 ], [ 3.335257, 43.355652 ], [ 3.336538, 43.356852 ], [ 3.337647, 43.357781 ], [ 3.338789, 43.358629 ], [ 3.339732, 43.359278 ], [ 3.346197, 43.363318 ], [ 3.352656, 43.363804 ], [ 3.354202, 43.363962 ], [ 3.355175, 43.364033 ], [ 3.35526202493754, 43.36403634043878 ], [ 3.355398, 43.36044 ], [ 3.355414711868563, 43.360440627021639 ], [ 3.354563, 43.36038 ], [ 3.353193, 43.360244 ], [ 3.35082, 43.359859 ], [ 3.349496, 43.359553 ], [ 3.348301, 43.359226 ] ] ], [ [ [ 3.380654, 43.386725 ], [ 3.380409, 43.389272 ], [ 3.380416, 43.38928 ], [ 3.38239, 43.389879 ], [ 3.386999, 43.389519 ], [ 3.391726, 43.391125 ], [ 3.399145, 43.396088 ], [ 3.399906, 43.396257 ], [ 3.400731, 43.396253 ], [ 3.401223, 43.396106 ], [ 3.404664, 43.39618 ], [ 3.408152, 43.403619 ], [ 3.408237, 43.40442 ], [ 3.407253, 43.410342 ], [ 3.407527, 43.414241 ], [ 3.410871, 43.415576 ], [ 3.415604, 43.422335 ], [ 3.414856074074113, 43.423276988052514 ], [ 3.415382, 43.422615 ], [ 3.418200806051013, 43.424853845955383 ], [ 3.418423, 43.424574 ], [ 3.418878, 43.423967 ], [ 3.419244, 43.423417 ], [ 3.419555, 43.422877 ], [ 3.419937, 43.422041 ], [ 3.420225, 43.421087 ], [ 3.420356, 43.420382 ], [ 3.420412, 43.419633 ], [ 3.420383, 43.418849 ], [ 3.42028, 43.418129 ], [ 3.420146, 43.417562 ], [ 3.419915, 43.41687 ], [ 3.419585, 43.416143 ], [ 3.419228, 43.415518 ], [ 3.418985, 43.415158 ], [ 3.41878, 43.414879 ], [ 3.418327, 43.414342 ], [ 3.417864, 43.413848 ], [ 3.417398, 43.413388 ], [ 3.417123933294902, 43.413125069514571 ], [ 3.414631, 43.415723 ], [ 3.41301, 43.414168 ], [ 3.412453, 43.413569 ], [ 3.411946, 43.412926 ], [ 3.411433, 43.412138 ], [ 3.411157, 43.411611 ], [ 3.410981, 43.411234 ], [ 3.410228, 43.409322 ], [ 3.409016, 43.40629 ], [ 3.408821, 43.405746 ], [ 3.408663, 43.405108 ], [ 3.408558, 43.404477 ], [ 3.408504, 43.403542 ], [ 3.40465, 43.395687 ], [ 3.399563, 43.392071 ], [ 3.400573, 43.388616 ], [ 3.39273, 43.384828 ], [ 3.390662, 43.38536 ], [ 3.38987, 43.385708 ], [ 3.388672, 43.386101 ], [ 3.387416, 43.382727 ], [ 3.389406, 43.381986 ], [ 3.392521, 43.378372 ], [ 3.393412, 43.376536 ], [ 3.388393, 43.369816 ], [ 3.388256, 43.369802 ], [ 3.387358, 43.369399 ], [ 3.383248, 43.366886 ], [ 3.381846, 43.36641 ], [ 3.379765, 43.365821 ], [ 3.386127, 43.370821 ], [ 3.385493, 43.37946 ], [ 3.385067, 43.379796 ], [ 3.381924, 43.383191 ], [ 3.380654, 43.386725 ] ] ], [ [ [ 3.419241, 43.400339 ], [ 3.417768, 43.400436 ], [ 3.413579, 43.408008 ], [ 3.414249, 43.409723 ], [ 3.417884, 43.401546 ], [ 3.420845, 43.399919 ], [ 3.420236876210263, 43.400078234408767 ], [ 3.420209, 43.400111 ], [ 3.419241, 43.400339 ] ] ], [ [ [ 3.425524702014201, 43.396468016328271 ], [ 3.421924, 43.399197 ], [ 3.421644, 43.399452 ], [ 3.426233709673138, 43.396794326075003 ], [ 3.425524702014201, 43.396468016328271 ] ] ], [ [ [ 3.486787, 43.407858 ], [ 3.487643, 43.408099 ], [ 3.489504, 43.408541 ], [ 3.491454, 43.408936 ], [ 3.49239, 43.409104 ], [ 3.495282, 43.409596 ], [ 3.50205, 43.41093 ], [ 3.505113, 43.411743 ], [ 3.5061, 43.408281 ], [ 3.504554, 43.40784 ], [ 3.502911, 43.407434 ], [ 3.500464, 43.40687 ], [ 3.498823, 43.406547 ], [ 3.495886, 43.406047 ], [ 3.492994, 43.405555 ], [ 3.49209, 43.405392 ], [ 3.490219, 43.405013 ], [ 3.488477, 43.404596 ], [ 3.487768, 43.404394 ], [ 3.486675, 43.404072 ], [ 3.485507, 43.403671 ], [ 3.484318, 43.403228 ], [ 3.484070119944924, 43.403122353703459 ], [ 3.4818472293136, 43.405871457768683 ], [ 3.481764437468513, 43.406050056293168 ], [ 3.481827, 43.406079 ], [ 3.483063, 43.406602 ], [ 3.484344, 43.407078 ], [ 3.485657, 43.407525 ], [ 3.486787, 43.407858 ] ] ], [ [ [ 3.462676, 43.338117 ], [ 3.462384, 43.337322 ], [ 3.463168145862451, 43.333861539395379 ], [ 3.457403921170413, 43.332225868333559 ], [ 3.45726, 43.332289 ], [ 3.457259897160582, 43.332288894965089 ], [ 3.455178, 43.334151 ], [ 3.457523, 43.342365 ], [ 3.458838, 43.348333 ], [ 3.461773, 43.350418 ], [ 3.467001922271092, 43.353185922130287 ], [ 3.468342, 43.353298 ], [ 3.472156, 43.3559 ], [ 3.475497504600639, 43.35305709521478 ], [ 3.470562, 43.35106 ], [ 3.46827, 43.348901 ], [ 3.464567, 43.346072 ], [ 3.462676, 43.338117 ] ] ], [ [ [ 3.445313, 43.3241 ], [ 3.44428, 43.326708 ], [ 3.441396, 43.330815 ], [ 3.435968, 43.33215 ], [ 3.432388, 43.331766 ], [ 3.429640106678021, 43.327825289131013 ], [ 3.428316763278814, 43.32954543751881 ], [ 3.43221, 43.334965 ], [ 3.439109, 43.333235 ], [ 3.440009, 43.332666 ], [ 3.441583, 43.332093 ], [ 3.443528, 43.331797 ], [ 3.446876625321998, 43.329684975400411 ], [ 3.447177, 43.327295 ], [ 3.448152, 43.323829 ], [ 3.447717122149773, 43.32308559209136 ], [ 3.44542, 43.324073 ], [ 3.445313, 43.3241 ] ] ] ] } },
{ "type": "Feature", "properties": { "codgeo": "34031", "value": 540, "isochrone_group": 9.0, "nb_agences": 1 }, "geometry": { "type": "MultiPolygon", "coordinates": [ [ [ [ 3.398636, 43.338989 ], [ 3.391589, 43.344425 ], [ 3.39072, 43.344143 ], [ 3.390224, 43.344073 ], [ 3.38964, 43.344028 ], [ 3.388483, 43.343983 ], [ 3.386869, 43.344135 ], [ 3.386371, 43.344198 ], [ 3.384805, 43.344325 ], [ 3.382025, 43.351265 ], [ 3.378565, 43.353606 ], [ 3.376776, 43.354505 ], [ 3.368019, 43.354295 ], [ 3.365449, 43.353217 ], [ 3.362585, 43.352317 ], [ 3.361615, 43.352145 ], [ 3.36103, 43.353036 ], [ 3.360732, 43.353543 ], [ 3.360602, 43.3556 ], [ 3.354563, 43.36038 ], [ 3.355434, 43.360442 ], [ 3.357317, 43.360512 ], [ 3.359971, 43.360555 ], [ 3.362664, 43.3606 ], [ 3.368701, 43.358922 ], [ 3.370599, 43.355863 ], [ 3.374435, 43.356631 ], [ 3.374893, 43.356731 ], [ 3.381985, 43.357094 ], [ 3.387972, 43.351668 ], [ 3.392515, 43.344786 ], [ 3.400494, 43.343569 ], [ 3.403124, 43.34188 ], [ 3.404310233105095, 43.340072957548244 ], [ 3.402927, 43.337958 ], [ 3.399972959548383, 43.337230523224576 ], [ 3.398636, 43.338989 ] ] ], [ [ [ 3.33238, 43.348133 ], [ 3.330906, 43.347122 ], [ 3.329742, 43.346409 ], [ 3.328267, 43.345637 ], [ 3.326934, 43.345026 ], [ 3.32589, 43.344605 ], [ 3.324984, 43.344272 ], [ 3.32353, 43.343815 ], [ 3.322249, 43.343443 ], [ 3.321005, 43.34312 ], [ 3.318037, 43.342445 ], [ 3.31507, 43.34177 ], [ 3.314272, 43.34528 ], [ 3.317239, 43.345955 ], [ 3.320206, 43.34663 ], [ 3.321342, 43.346927 ], [ 3.322523, 43.347271 ], [ 3.324642, 43.347981 ], [ 3.332143, 43.35261 ], [ 3.332609, 43.353041 ], [ 3.333909, 43.354327 ], [ 3.334577669455803, 43.354984260407221 ], [ 3.337087, 43.352409 ], [ 3.337769, 43.353073 ], [ 3.336439, 43.351767 ], [ 3.335051, 43.350396 ], [ 3.334494, 43.349884 ], [ 3.333381, 43.348926 ], [ 3.33238, 43.348133 ] ] ], [ [ [ 3.339732, 43.359278 ], [ 3.338789, 43.358629 ], [ 3.341268, 43.3605 ], [ 3.345615, 43.363401 ], [ 3.352656, 43.363804 ], [ 3.346197, 43.363318 ], [ 3.339732, 43.359278 ] ] ], [ [ [ 3.374008, 43.364716 ], [ 3.372641, 43.364558 ], [ 3.371634, 43.364465 ], [ 3.369765, 43.364349 ], [ 3.36799, 43.364288 ], [ 3.370764, 43.364753 ], [ 3.37138, 43.364837 ], [ 3.372211, 43.364846 ], [ 3.375077, 43.364864 ], [ 3.374008, 43.364716 ] ] ], [ [ [ 3.378225, 43.37943 ], [ 3.377682, 43.379937 ], [ 3.377548, 43.380124 ], [ 3.375862, 43.38242 ], [ 3.375598, 43.385195 ], [ 3.373603, 43.391583 ], [ 3.373081, 43.393001 ], [ 3.373086, 43.393073 ], [ 3.375991, 43.394277 ], [ 3.376069, 43.394208 ], [ 3.383464, 43.391841 ], [ 3.387833, 43.394015 ], [ 3.3932, 43.396207 ], [ 3.393448, 43.396256 ], [ 3.393937, 43.396297 ], [ 3.394748, 43.396216 ], [ 3.396656, 43.396024 ], [ 3.400962, 43.402967 ], [ 3.400746, 43.404993 ], [ 3.401114, 43.405448 ], [ 3.402201, 43.406347 ], [ 3.404952, 43.409845 ], [ 3.405571, 43.418763 ], [ 3.405286, 43.419762 ], [ 3.405352, 43.421929 ], [ 3.405446, 43.422278 ], [ 3.407862, 43.423089 ], [ 3.409380421838828, 43.425420759011992 ], [ 3.414333658600505, 43.422985764469509 ], [ 3.414872069026339, 43.42128975988782 ], [ 3.410871, 43.415576 ], [ 3.407527, 43.414241 ], [ 3.407253, 43.410342 ], [ 3.408237, 43.40442 ], [ 3.408152, 43.403619 ], [ 3.404664, 43.39618 ], [ 3.401223, 43.396106 ], [ 3.400731, 43.396253 ], [ 3.399906, 43.396257 ], [ 3.399145, 43.396088 ], [ 3.391726, 43.391125 ], [ 3.386999, 43.389519 ], [ 3.38239, 43.389879 ], [ 3.380416, 43.38928 ], [ 3.380409, 43.389272 ], [ 3.380654, 43.386725 ], [ 3.381924, 43.383191 ], [ 3.385067, 43.379796 ], [ 3.385493, 43.37946 ], [ 3.386127, 43.370821 ], [ 3.379765, 43.365821 ], [ 3.37868, 43.365556 ], [ 3.377492, 43.365294 ], [ 3.376431, 43.365088 ], [ 3.375077, 43.364864 ], [ 3.381325, 43.369869 ], [ 3.381397, 43.370049 ], [ 3.382176, 43.374326 ], [ 3.379268, 43.378866 ], [ 3.378225, 43.37943 ] ] ], [ [ [ 3.414650776629014, 43.408819196012253 ], [ 3.414249, 43.409723 ], [ 3.415503, 43.41157 ], [ 3.417398, 43.413388 ], [ 3.414650776629014, 43.408819196012253 ] ] ], [ [ [ 3.420845, 43.399919 ], [ 3.418313959804167, 43.401309747179532 ], [ 3.417706036560307, 43.401946332062295 ], [ 3.416143296728173, 43.405461744333891 ], [ 3.417326, 43.403145 ], [ 3.418702, 43.401851 ], [ 3.420465, 43.400603 ], [ 3.421097804932031, 43.399985223514193 ], [ 3.420845, 43.399919 ] ] ], [ [ [ 3.517113, 43.416318 ], [ 3.519286, 43.417306 ], [ 3.521177, 43.418184 ], [ 3.523121, 43.419084 ], [ 3.525395, 43.420053 ], [ 3.526806, 43.416741 ], [ 3.524532, 43.415772 ], [ 3.522692, 43.414918 ], [ 3.520801, 43.414041 ], [ 3.518604, 43.413041 ], [ 3.516419, 43.412047 ], [ 3.515609, 43.411694 ], [ 3.513608, 43.410835 ], [ 3.511801, 43.41015 ], [ 3.510068, 43.409494 ], [ 3.507517, 43.408701 ], [ 3.50615, 43.408295 ], [ 3.504554, 43.40784 ], [ 3.5061, 43.408281 ], [ 3.505113, 43.411743 ], [ 3.50205, 43.41093 ], [ 3.505124, 43.411746 ], [ 3.506453, 43.41214 ], [ 3.514172, 43.414995 ], [ 3.514928, 43.415324 ], [ 3.517113, 43.416318 ] ] ], [ [ [ 3.464567, 43.346072 ], [ 3.468045244268877, 43.348729292205419 ], [ 3.468295, 43.348781 ], [ 3.475136864325782, 43.348876724218229 ], [ 3.470579, 43.345815 ], [ 3.467247001521701, 43.342247952855274 ], [ 3.463042662133289, 43.339659462861086 ], [ 3.464567, 43.346072 ] ] ], [ [ [ 3.43773, 43.326412 ], [ 3.435298, 43.327604 ], [ 3.434378430711248, 43.326494531969821 ], [ 3.43304, 43.326447 ], [ 3.430069803303798, 43.328441510346728 ], [ 3.432388, 43.331766 ], [ 3.435968, 43.33215 ], [ 3.441396, 43.330815 ], [ 3.443388962493239, 43.327976894258079 ], [ 3.44365, 43.326348 ], [ 3.444053, 43.324662 ], [ 3.443306807672031, 43.322703316833184 ], [ 3.438305, 43.32591 ], [ 3.43773, 43.326412 ] ] ] ] } },
{ "type": "Feature", "properties": { "codgeo": "34031", "value": 600, "isochrone_group": 10.0, "nb_agences": 1 }, "geometry": { "type": "MultiPolygon", "coordinates": [ [ [ [ 3.388084317362258, 43.34402054632028 ], [ 3.388483, 43.343983 ], [ 3.38964, 43.344028 ], [ 3.390224, 43.344073 ], [ 3.39072, 43.344143 ], [ 3.391589, 43.344425 ], [ 3.395363707908756, 43.341513220208306 ], [ 3.394384, 43.340947 ], [ 3.393389, 43.339694 ], [ 3.392842162494508, 43.338822690447671 ], [ 3.39261, 43.339019 ], [ 3.388084317362258, 43.34402054632028 ] ] ], [ [ [ 3.386869, 43.344135 ], [ 3.388015088724709, 43.344027065993714 ], [ 3.383831, 43.342664 ], [ 3.380607, 43.344265 ], [ 3.380279, 43.351131 ], [ 3.376776, 43.354505 ], [ 3.378565, 43.353606 ], [ 3.382025, 43.351265 ], [ 3.384805, 43.344325 ], [ 3.386371, 43.344198 ], [ 3.386869, 43.344135 ] ] ], [ [ [ 3.344946, 43.358001 ], [ 3.346349, 43.358578 ], [ 3.34725, 43.358907 ], [ 3.348301, 43.359226 ], [ 3.349496, 43.359553 ], [ 3.35082, 43.359859 ], [ 3.353193, 43.360244 ], [ 3.354563, 43.36038 ], [ 3.360602, 43.3556 ], [ 3.360732, 43.353543 ], [ 3.36103, 43.353036 ], [ 3.361615, 43.352145 ], [ 3.362585, 43.352317 ], [ 3.360558, 43.351319 ], [ 3.360107, 43.351048 ], [ 3.357738, 43.349736 ], [ 3.354629, 43.349997 ], [ 3.353923, 43.350084 ], [ 3.351795, 43.350461 ], [ 3.352246, 43.354033 ], [ 3.344374, 43.357741 ], [ 3.344946, 43.358001 ] ] ], [ [ [ 3.30357, 43.34283 ], [ 3.306375, 43.343483 ], [ 3.309301, 43.344149 ], [ 3.31222, 43.344813 ], [ 3.316213, 43.345722 ], [ 3.320206, 43.34663 ], [ 3.317239, 43.345955 ], [ 3.314272, 43.34528 ], [ 3.31507, 43.34177 ], [ 3.318037, 43.342445 ], [ 3.321005, 43.34312 ], [ 3.317012, 43.342211 ], [ 3.313019, 43.341303 ], [ 3.3101, 43.340639 ], [ 3.309418501885904, 43.340483730842067 ], [ 3.309417, 43.340624 ], [ 3.308835, 43.341913 ], [ 3.307893, 43.343006 ], [ 3.306133, 43.342978 ], [ 3.305517, 43.342923 ], [ 3.305095, 43.342845 ], [ 3.301617, 43.341992 ], [ 3.300052299940161, 43.342181026720887 ], [ 3.30357, 43.34283 ] ] ], [ [ [ 3.370764, 43.364753 ], [ 3.36799, 43.364288 ], [ 3.365297, 43.364243 ], [ 3.362605, 43.364199 ], [ 3.359912, 43.364155 ], [ 3.366036, 43.36723 ], [ 3.366882, 43.367853 ], [ 3.370113, 43.366754 ], [ 3.370956, 43.366549 ], [ 3.376447465653118, 43.365961820197491 ], [ 3.375077, 43.364864 ], [ 3.372211, 43.364846 ], [ 3.37138, 43.364837 ], [ 3.370764, 43.364753 ] ] ], [ [ [ 3.3654, 43.394683 ], [ 3.365619, 43.396658 ], [ 3.365837, 43.396996 ], [ 3.366704, 43.398039 ], [ 3.372804, 43.398878 ], [ 3.373088, 43.398811 ], [ 3.373509, 43.39866 ], [ 3.3776, 43.396391 ], [ 3.386084, 43.395223 ], [ 3.389096, 43.397004 ], [ 3.390855, 43.396787 ], [ 3.39637, 43.402894 ], [ 3.395084, 43.405098 ], [ 3.392198, 43.408088 ], [ 3.392818, 43.40926 ], [ 3.394122, 43.411131 ], [ 3.395748, 43.410687 ], [ 3.404167, 43.410494 ], [ 3.403238, 43.419389 ], [ 3.403212, 43.419415 ], [ 3.40251, 43.420288 ], [ 3.402566, 43.420839 ], [ 3.402726, 43.421465 ], [ 3.403644, 43.423605 ], [ 3.403902976432843, 43.423939018572995 ], [ 3.40553, 43.422583 ], [ 3.405696087971975, 43.422361949232311 ], [ 3.405446, 43.422278 ], [ 3.405352, 43.421929 ], [ 3.405286, 43.419762 ], [ 3.405571, 43.418763 ], [ 3.404952, 43.409845 ], [ 3.402201, 43.406347 ], [ 3.401114, 43.405448 ], [ 3.400746, 43.404993 ], [ 3.400962, 43.402967 ], [ 3.396656, 43.396024 ], [ 3.394748, 43.396216 ], [ 3.393937, 43.396297 ], [ 3.393448, 43.396256 ], [ 3.3932, 43.396207 ], [ 3.387833, 43.394015 ], [ 3.383464, 43.391841 ], [ 3.376069, 43.394208 ], [ 3.375991, 43.394277 ], [ 3.373086, 43.393073 ], [ 3.373081, 43.393001 ], [ 3.373603, 43.391583 ], [ 3.375598, 43.385195 ], [ 3.375862, 43.38242 ], [ 3.377548, 43.380124 ], [ 3.377682, 43.379937 ], [ 3.378225, 43.37943 ], [ 3.379268, 43.378866 ], [ 3.382176, 43.374326 ], [ 3.381397, 43.370049 ], [ 3.381325, 43.369869 ], [ 3.376748808739879, 43.36620321298706 ], [ 3.377703, 43.374309 ], [ 3.375032, 43.376963 ], [ 3.37058, 43.379905 ], [ 3.370182, 43.381633 ], [ 3.369715, 43.3834 ], [ 3.370212, 43.391581 ], [ 3.36844, 43.392962 ], [ 3.366414, 43.394255 ], [ 3.3654, 43.394683 ] ] ], [ [ [ 3.539169, 43.423792 ], [ 3.5401171382092, 43.423960147073288 ], [ 3.539668, 43.42269 ], [ 3.538406, 43.421922 ], [ 3.538157, 43.421772 ], [ 3.537334, 43.419779 ], [ 3.537296739671629, 43.41969493515596 ], [ 3.535059, 43.419155 ], [ 3.532765, 43.418576 ], [ 3.530651, 43.418019 ], [ 3.52777, 43.41711 ], [ 3.526805933261755, 43.416741156652776 ], [ 3.525395454062118, 43.420051934192948 ], [ 3.525499, 43.420096 ], [ 3.526579, 43.420507 ], [ 3.527661, 43.420885 ], [ 3.529735, 43.421501 ], [ 3.531884, 43.422066 ], [ 3.534214, 43.422654 ], [ 3.537217, 43.423379 ], [ 3.538163, 43.423593 ], [ 3.539169, 43.423792 ] ] ], [ [ [ 3.442613, 43.322634 ], [ 3.440472680258383, 43.320630718422137 ], [ 3.439706762982436, 43.320803313884269 ], [ 3.438395, 43.322638 ], [ 3.438945428403253, 43.325499418243389 ], [ 3.442075988557142, 43.323492400939564 ], [ 3.442613, 43.322634 ] ] ], [ [ [ 3.437685455405568, 43.326433832712404 ], [ 3.437616, 43.32644 ], [ 3.437075, 43.326484 ], [ 3.435130200096064, 43.327401548013889 ], [ 3.435298, 43.327604 ], [ 3.437685455405568, 43.326433832712404 ] ] ] ] } },
{ "type": "Feature", "properties": { "codgeo": "34031", "value": 660, "isochrone_group": 11.0, "nb_agences": 1 }, "geometry": { "type": "MultiPolygon", "coordinates": [ [ [ [ 3.380417, 43.343748 ], [ 3.380412, 43.34379 ], [ 3.377751, 43.35016 ], [ 3.377543, 43.350665 ], [ 3.37276549567164, 43.354408824836256 ], [ 3.376776, 43.354505 ], [ 3.380279, 43.351131 ], [ 3.380607, 43.344265 ], [ 3.383831, 43.342664 ], [ 3.388064, 43.344043 ], [ 3.390355040958261, 43.341511062082198 ], [ 3.390648, 43.338588 ], [ 3.38997282111888, 43.33778729387943 ], [ 3.388321, 43.338962 ], [ 3.383262, 43.341542 ], [ 3.380417, 43.343748 ] ] ], [ [ [ 3.33991, 43.354981 ], [ 3.340933, 43.355738 ], [ 3.341768, 43.356309 ], [ 3.342996, 43.357025 ], [ 3.343575, 43.357341 ], [ 3.344374, 43.357741 ], [ 3.352246, 43.354033 ], [ 3.351795, 43.350461 ], [ 3.353923, 43.350084 ], [ 3.354629, 43.349997 ], [ 3.357738, 43.349736 ], [ 3.360107, 43.351048 ], [ 3.360558, 43.351319 ], [ 3.362585, 43.352317 ], [ 3.368019, 43.354295 ], [ 3.362782, 43.350008 ], [ 3.362324, 43.349362 ], [ 3.359191, 43.349053 ], [ 3.350707, 43.348555 ], [ 3.345488, 43.351064 ], [ 3.343006, 43.352197 ], [ 3.335051, 43.350396 ], [ 3.336439, 43.351767 ], [ 3.337769, 43.353073 ], [ 3.338999, 43.354225 ], [ 3.33991, 43.354981 ] ] ], [ [ [ 3.36771883132453, 43.393422252269183 ], [ 3.36844, 43.392962 ], [ 3.370212, 43.391581 ], [ 3.369715, 43.3834 ], [ 3.370182, 43.381633 ], [ 3.37058, 43.379905 ], [ 3.375032, 43.376963 ], [ 3.377703, 43.374309 ], [ 3.376717, 43.365933 ], [ 3.370956, 43.366549 ], [ 3.370113, 43.366754 ], [ 3.366882, 43.367853 ], [ 3.366036, 43.36723 ], [ 3.359912, 43.364155 ], [ 3.357181, 43.36411 ], [ 3.355175, 43.364033 ], [ 3.354202, 43.363962 ], [ 3.36032, 43.368639 ], [ 3.363967, 43.369226 ], [ 3.365885, 43.369898 ], [ 3.365099, 43.378169 ], [ 3.364368, 43.381694 ], [ 3.367589, 43.384957 ], [ 3.364883, 43.392366 ], [ 3.361972, 43.394147 ], [ 3.361114647031119, 43.394394349121143 ], [ 3.361433, 43.394366 ], [ 3.36771883132453, 43.393422252269183 ] ] ], [ [ [ 3.382873, 43.39862 ], [ 3.383991, 43.398286 ], [ 3.385354, 43.398138 ], [ 3.391422, 43.403623 ], [ 3.388303, 43.40903 ], [ 3.385255, 43.410962 ], [ 3.384671, 43.411194 ], [ 3.386001, 43.41454 ], [ 3.386586, 43.414307 ], [ 3.389079, 43.41318 ], [ 3.389578, 43.412995 ], [ 3.391675, 43.412307 ], [ 3.398038, 43.413666 ], [ 3.398508, 43.420034 ], [ 3.398504, 43.421352 ], [ 3.399098207332078, 43.423030750277498 ], [ 3.402561822680761, 43.42079789816249 ], [ 3.40251, 43.420288 ], [ 3.403212, 43.419415 ], [ 3.403238, 43.419389 ], [ 3.404167, 43.410494 ], [ 3.395748, 43.410687 ], [ 3.394122, 43.411131 ], [ 3.392818, 43.40926 ], [ 3.392198, 43.408088 ], [ 3.395084, 43.405098 ], [ 3.39628944770408, 43.403032053857089 ], [ 3.396187919511668, 43.402692374335047 ], [ 3.390855, 43.396787 ], [ 3.389096, 43.397004 ], [ 3.386084, 43.395223 ], [ 3.3776, 43.396391 ], [ 3.373509, 43.39866 ], [ 3.373088, 43.398811 ], [ 3.372804, 43.398878 ], [ 3.369836745921799, 43.398469880955474 ], [ 3.369329, 43.399748 ], [ 3.368975, 43.399883 ], [ 3.367627905739186, 43.402539848263601 ], [ 3.374407, 43.401619 ], [ 3.374738, 43.401639 ], [ 3.382873, 43.39862 ] ] ] ] } },
{ "type": "Feature", "properties": { "codgeo": "34031", "value": 720, "isochrone_group": 12.0, "nb_agences": 1 }, "geometry": { "type": "MultiPolygon", "coordinates": [ [ [ [ 3.380417, 43.343748 ], [ 3.379157, 43.345617 ], [ 3.379002680685944, 43.347163680582689 ], [ 3.380412, 43.34379 ], [ 3.380417, 43.343748 ] ] ], [ [ [ 3.372499681806928, 43.354617126175206 ], [ 3.368019, 43.354295 ], [ 3.370772, 43.355971 ], [ 3.372499681806928, 43.354617126175206 ] ] ], [ [ [ 3.359191, 43.349053 ], [ 3.362324, 43.349362 ], [ 3.362782, 43.350008 ], [ 3.364998557481887, 43.351822470484031 ], [ 3.361349, 43.346883 ], [ 3.360375, 43.346957 ], [ 3.351654, 43.347301 ], [ 3.343136, 43.350119 ], [ 3.341674, 43.350547 ], [ 3.333381, 43.348926 ], [ 3.334494, 43.349884 ], [ 3.335051, 43.350396 ], [ 3.343006, 43.352197 ], [ 3.345488, 43.351064 ], [ 3.350707, 43.348555 ], [ 3.359191, 43.349053 ] ] ], [ [ [ 3.332085, 43.355384 ], [ 3.333052, 43.358852 ], [ 3.341268, 43.3605 ], [ 3.338789, 43.358629 ], [ 3.337647, 43.357781 ], [ 3.336538, 43.356852 ], [ 3.335257, 43.355652 ], [ 3.333909, 43.354327 ], [ 3.332609, 43.353041 ], [ 3.332143, 43.35261 ], [ 3.327397705687634, 43.349681594804423 ], [ 3.332085, 43.355384 ] ] ], [ [ [ 3.378884, 43.411833 ], [ 3.379744, 43.412252 ], [ 3.380536, 43.412674 ], [ 3.38123, 43.413072 ], [ 3.381229647410672, 43.413072616045305 ], [ 3.381286, 43.413105 ], [ 3.381983, 43.413533 ], [ 3.383358, 43.414446 ], [ 3.38473, 43.415524 ], [ 3.385552, 43.416255 ], [ 3.38598, 43.416675 ], [ 3.386681, 43.417408 ], [ 3.386694644372183, 43.417423552675999 ], [ 3.388465, 43.416905 ], [ 3.392438, 43.423272 ], [ 3.392677173049226, 43.423838635000358 ], [ 3.393178, 43.424237 ], [ 3.398522911539681, 43.421405428745786 ], [ 3.398504, 43.421352 ], [ 3.398508, 43.420034 ], [ 3.398038, 43.413666 ], [ 3.39502263898086, 43.413021983714451 ], [ 3.389578, 43.412995 ], [ 3.389079, 43.41318 ], [ 3.387289, 43.413991 ], [ 3.387288296829357, 43.413989515633055 ], [ 3.386586, 43.414307 ], [ 3.386001, 43.41454 ], [ 3.384671, 43.411194 ], [ 3.385255, 43.410962 ], [ 3.387958979631597, 43.409248060154773 ], [ 3.391216170158366, 43.403436945833668 ], [ 3.385354, 43.398138 ], [ 3.383991, 43.398286 ], [ 3.382873, 43.39862 ], [ 3.374738, 43.401639 ], [ 3.374407, 43.401619 ], [ 3.372541444326167, 43.401872410505412 ], [ 3.370581, 43.404441 ], [ 3.372927608646959, 43.408488535535774 ], [ 3.378617, 43.410041 ], [ 3.378600016358718, 43.411706003404213 ], [ 3.378884, 43.411833 ] ] ], [ [ [ 3.365099, 43.378169 ], [ 3.365885, 43.369898 ], [ 3.363967, 43.369226 ], [ 3.36032, 43.368639 ], [ 3.354202, 43.363962 ], [ 3.352656, 43.363804 ], [ 3.350005, 43.363366 ], [ 3.345615, 43.363401 ], [ 3.353614, 43.367154 ], [ 3.355472, 43.370237 ], [ 3.359263, 43.376521 ], [ 3.358225, 43.379968 ], [ 3.363866, 43.385308 ], [ 3.364165, 43.387609 ], [ 3.360674864396077, 43.392318171113338 ], [ 3.361753, 43.39275 ], [ 3.364949251339859, 43.392184604517027 ], [ 3.367589, 43.384957 ], [ 3.364368, 43.381694 ], [ 3.365099, 43.378169 ] ] ] ] } },
{ "type": "Feature", "properties": { "codgeo": "34031", "value": 780, "isochrone_group": 13.0, "nb_agences": 1 }, "geometry": { "type": "MultiPolygon", "coordinates": [ [ [ [ 3.383948875211936, 43.341260270867544 ], [ 3.383768061013047, 43.34079492389553 ], [ 3.383262, 43.341542 ], [ 3.383948875211936, 43.341260270867544 ] ] ], [ [ [ 3.377004, 43.344904 ], [ 3.376296, 43.34565 ], [ 3.375919, 43.346207 ], [ 3.375789, 43.346494 ], [ 3.376674, 43.348292 ], [ 3.376777, 43.350502 ], [ 3.372276203808704, 43.354601059845166 ], [ 3.376184, 43.354882 ], [ 3.37898, 43.347391 ], [ 3.379157, 43.345617 ], [ 3.380417, 43.343748 ], [ 3.383262, 43.341542 ], [ 3.377217, 43.344841 ], [ 3.377004, 43.344904 ] ] ], [ [ [ 3.356658041245366, 43.347103615504118 ], [ 3.360375, 43.346957 ], [ 3.361349, 43.346883 ], [ 3.365095, 43.351953 ], [ 3.368019, 43.354295 ], [ 3.369604884174791, 43.354409012738607 ], [ 3.367237, 43.35124 ], [ 3.365065, 43.348368 ], [ 3.363799, 43.345903 ], [ 3.358465, 43.345171 ], [ 3.356658041245366, 43.347103615504118 ] ] ], [ [ [ 3.332197, 43.360408 ], [ 3.32937, 43.358178 ], [ 3.326158365807492, 43.356878780906086 ], [ 3.326662, 43.360345 ], [ 3.329015, 43.363069 ], [ 3.33287, 43.360407 ], [ 3.339288472445536, 43.360102937997823 ], [ 3.334470111816915, 43.359136450861037 ], [ 3.332197, 43.360408 ] ] ], [ [ [ 3.340198420552313, 43.36028545923444 ], [ 3.345615, 43.363401 ], [ 3.341268, 43.3605 ], [ 3.340198420552313, 43.36028545923444 ] ] ], [ [ [ 3.358225, 43.379968 ], [ 3.359263, 43.376521 ], [ 3.355472, 43.370237 ], [ 3.353614, 43.367154 ], [ 3.345615, 43.363401 ], [ 3.3491, 43.369742 ], [ 3.350683, 43.372975 ], [ 3.353943, 43.378251 ], [ 3.354666, 43.380155 ], [ 3.358492, 43.384321 ], [ 3.357408293480437, 43.387027568070799 ], [ 3.358828, 43.387238 ], [ 3.362628093567734, 43.389682717527357 ], [ 3.364165, 43.387609 ], [ 3.363866, 43.385308 ], [ 3.358225, 43.379968 ] ] ] ] } },
{ "type": "Feature", "properties": { "codgeo": "34031", "value": 840, "isochrone_group": 14.0, "nb_agences": 1 }, "geometry": { "type": "MultiPolygon", "coordinates": [ [ [ [ 3.377217, 43.344841 ], [ 3.383262, 43.341542 ], [ 3.37838, 43.341611 ], [ 3.377693, 43.341776 ], [ 3.377486, 43.341829 ], [ 3.375528, 43.342344 ], [ 3.374872, 43.345605 ], [ 3.367211, 43.346747 ], [ 3.36448933266848, 43.347247131143632 ], [ 3.365065, 43.348368 ], [ 3.367237, 43.35124 ], [ 3.370772, 43.355971 ], [ 3.376777, 43.350502 ], [ 3.376674, 43.348292 ], [ 3.375789, 43.346494 ], [ 3.375919, 43.346207 ], [ 3.376296, 43.34565 ], [ 3.377004, 43.344904 ], [ 3.377217, 43.344841 ] ] ], [ [ [ 3.354666, 43.380155 ], [ 3.353943, 43.378251 ], [ 3.350683, 43.372975 ], [ 3.3491, 43.369742 ], [ 3.345615, 43.363401 ], [ 3.341442695529212, 43.361001148804135 ], [ 3.334135, 43.362079 ], [ 3.331764, 43.364788 ], [ 3.325864, 43.363701 ], [ 3.325626, 43.363265 ], [ 3.325415, 43.362199 ], [ 3.325706, 43.361307 ], [ 3.325131762114744, 43.360730705924396 ], [ 3.324818, 43.362969 ], [ 3.324507, 43.363793 ], [ 3.324469, 43.364075 ], [ 3.327999, 43.364654 ], [ 3.332724, 43.366172 ], [ 3.335545, 43.363936 ], [ 3.341767, 43.363362 ], [ 3.343924, 43.37183 ], [ 3.343637, 43.372543 ], [ 3.343679, 43.373556 ], [ 3.345165, 43.375312 ], [ 3.345256, 43.375345 ], [ 3.351776, 43.377432 ], [ 3.353425402235854, 43.381232586277335 ], [ 3.356668361121108, 43.382335302255747 ], [ 3.354666, 43.380155 ] ] ], [ [ [ 3.415769, 43.288775 ], [ 3.415709, 43.288783 ], [ 3.415699436369739, 43.288785199407421 ], [ 3.416475453054228, 43.289047627630787 ], [ 3.417492204042971, 43.288951790336625 ], [ 3.420709, 43.288569 ], [ 3.421845881959542, 43.289222625218798 ], [ 3.421869905728351, 43.289219856599388 ], [ 3.420733, 43.288564 ], [ 3.415769, 43.288775 ] ] ], [ [ [ 3.440896, 43.285728 ], [ 3.440719, 43.286641 ], [ 3.441231556762189, 43.285427019187964 ], [ 3.440896, 43.285728 ] ] ], [ [ [ 3.442692, 43.284039 ], [ 3.442629814966085, 43.28409880919375 ], [ 3.442728840233047, 43.28405518877409 ], [ 3.442692, 43.284039 ] ] ] ] } },
{ "type": "Feature", "properties": { "codgeo": "34031", "value": 900, "isochrone_group": 15.0, "nb_agences": 1 }, "geometry": { "type": "MultiPolygon", "coordinates": [ [ [ [ 3.331352, 43.374116 ], [ 3.335141, 43.372373 ], [ 3.335989, 43.371338 ], [ 3.337768, 43.369719 ], [ 3.341067, 43.371035 ], [ 3.343596, 43.372948 ], [ 3.343657433970067, 43.373035847897079 ], [ 3.343637, 43.372543 ], [ 3.343924, 43.37183 ], [ 3.341767, 43.363362 ], [ 3.341325324810046, 43.363402745991486 ], [ 3.337232, 43.365115 ], [ 3.335198, 43.368086 ], [ 3.334238, 43.367428 ], [ 3.325918, 43.366677 ], [ 3.325052, 43.367269 ], [ 3.325051248009469, 43.367269325604148 ], [ 3.330459, 43.374369 ], [ 3.330842, 43.374251 ], [ 3.331352, 43.374116 ] ] ], [ [ [ 3.351186, 43.378531 ], [ 3.35222474716232, 43.37846601236523 ], [ 3.351776, 43.377432 ], [ 3.345276968705605, 43.375351711915442 ], [ 3.345659, 43.375898 ], [ 3.351186, 43.378531 ] ] ], [ [ [ 3.377098432447053, 43.329979711593886 ], [ 3.382206, 43.332073 ], [ 3.382337529809332, 43.332266196604202 ], [ 3.38216, 43.331974 ], [ 3.377107934740211, 43.329980147906284 ], [ 3.377098432447053, 43.329979711593886 ] ] ], [ [ [ 3.382543, 43.332568 ], [ 3.382631996107023, 43.332631577569785 ], [ 3.38250701218015, 43.332515139552456 ], [ 3.382543, 43.332568 ] ] ], [ [ [ 3.383968, 43.333586 ], [ 3.3834054871331, 43.339925026018484 ], [ 3.383418, 43.339894 ], [ 3.385011688425971, 43.332315594664713 ], [ 3.383830365867819, 43.333487676107673 ], [ 3.383968, 43.333586 ] ] ], [ [ [ 3.377486, 43.341829 ], [ 3.377693, 43.341776 ], [ 3.37838, 43.341611 ], [ 3.382750441757762, 43.34154923013493 ], [ 3.382796743191454, 43.341434424379422 ], [ 3.377259, 43.340154 ], [ 3.37403, 43.342738 ], [ 3.369281, 43.345161 ], [ 3.368881, 43.345489 ], [ 3.367212590390441, 43.346746762925754 ], [ 3.374872, 43.345605 ], [ 3.375528, 43.342344 ], [ 3.377486, 43.341829 ] ] ], [ [ [ 3.534244, 43.350861 ], [ 3.534869153631467, 43.354167063248539 ], [ 3.535822580434671, 43.355944342415839 ], [ 3.535555, 43.351154 ], [ 3.535196, 43.350454 ], [ 3.534141910524919, 43.349443159570164 ], [ 3.534121135455133, 43.350479800340501 ], [ 3.534188, 43.350752 ], [ 3.534244, 43.350861 ] ] ], [ [ [ 3.462068, 43.278104 ], [ 3.462025480083267, 43.278917424494033 ], [ 3.463369, 43.278691 ], [ 3.468492, 43.277245 ], [ 3.468664, 43.277199 ], [ 3.470025306237492, 43.276888654589904 ], [ 3.469823, 43.27663 ], [ 3.465081, 43.277117 ], [ 3.462968, 43.277762 ], [ 3.462068, 43.278104 ] ] ], [ [ [ 3.428019, 43.289958 ], [ 3.436588022498611, 43.291447702320326 ], [ 3.438662961242506, 43.289033355383928 ], [ 3.439339697821576, 43.287015721747252 ], [ 3.436842, 43.289737 ], [ 3.428019, 43.289958 ] ] ], [ [ [ 3.426273, 43.289518 ], [ 3.427827, 43.289777 ], [ 3.428019, 43.289958 ], [ 3.427789, 43.289741 ], [ 3.426325, 43.289493 ], [ 3.423526, 43.289029 ], [ 3.426273, 43.289518 ] ] ], [ [ [ 3.408336, 43.288604 ], [ 3.408294268072347, 43.288610223605389 ], [ 3.412996120258905, 43.287917277031283 ], [ 3.412969, 43.287914 ], [ 3.408336, 43.288604 ] ] ], [ [ [ 3.407222756860143, 43.288872678586124 ], [ 3.407238974576273, 43.288875471751425 ], [ 3.407471, 43.288733 ], [ 3.407222756860143, 43.288872678586124 ] ] ] ] } },
{ "type": "Feature", "properties": { "codgeo": "34031", "value": 960, "isochrone_group": 16.0, "nb_agences": 1 }, "geometry": { "type": "MultiPolygon", "coordinates": [ [ [ [ 3.467447292872262, 43.276873983418639 ], [ 3.469823, 43.27663 ], [ 3.470078694810276, 43.276956913480824 ], [ 3.474232361944583, 43.276118929411659 ], [ 3.471254, 43.275615 ], [ 3.470612, 43.275464 ], [ 3.467447292872262, 43.276873983418639 ] ] ], [ [ [ 3.456929539878485, 43.279820139477003 ], [ 3.458094, 43.27958 ], [ 3.462025480083267, 43.278917424494033 ], [ 3.462033760668754, 43.27875901329341 ], [ 3.458834, 43.278922 ], [ 3.457962, 43.27918 ], [ 3.456929539878485, 43.279820139477003 ] ] ], [ [ [ 3.522262397784879, 43.309852822132882 ], [ 3.52225, 43.309849 ], [ 3.522262093378875, 43.309852732225146 ], [ 3.522262397784879, 43.309852822132882 ] ] ], [ [ [ 3.52584280549413, 43.310957630037841 ], [ 3.525843, 43.310957 ], [ 3.524047, 43.310403 ], [ 3.522286631945748, 43.309860293321051 ], [ 3.525244, 43.310773 ], [ 3.52584280549413, 43.310957630037841 ] ] ] ] } },
{ "type": "Feature", "properties": { "codgeo": "34031", "value": 1020, "isochrone_group": 17.0, "nb_agences": 1 }, "geometry": { "type": "MultiPolygon", "coordinates": [ [ [ [ 3.538194, 43.362302 ], [ 3.535239973731642, 43.355079077942506 ], [ 3.535219610904865, 43.355128579687609 ], [ 3.538194, 43.362302 ] ] ], [ [ [ 3.526970500662872, 43.311305332929237 ], [ 3.52823917709124, 43.311696504652417 ], [ 3.530428488265749, 43.310775191200925 ], [ 3.530394, 43.310763 ], [ 3.525246478979875, 43.310772995186454 ], [ 3.525843, 43.310957 ], [ 3.52584280549413, 43.310957630037841 ], [ 3.526970500662872, 43.311305332929237 ] ] ], [ [ [ 3.514673, 43.302322 ], [ 3.515791967716434, 43.299604506974369 ], [ 3.51403, 43.299788 ], [ 3.515648894833834, 43.307674770657655 ], [ 3.515669593532747, 43.307727301548965 ], [ 3.517735, 43.308371 ], [ 3.519996, 43.309134 ], [ 3.514673, 43.302322 ] ] ], [ [ [ 3.479306, 43.274659 ], [ 3.47393778513404, 43.276069087947945 ], [ 3.474232361944583, 43.276118929411659 ], [ 3.475952, 43.275772 ], [ 3.481477, 43.274836 ], [ 3.487438816623067, 43.276115308556207 ], [ 3.488719383075249, 43.27598511593834 ], [ 3.486651, 43.275013 ], [ 3.4848, 43.274646 ], [ 3.480994, 43.274429 ], [ 3.479443, 43.274636 ], [ 3.479306, 43.274659 ] ] ], [ [ [ 3.40656339173395, 43.287841723967283 ], [ 3.40682810060697, 43.287925066293468 ], [ 3.407228, 43.287994 ], [ 3.414314, 43.289998 ], [ 3.407188, 43.287942 ], [ 3.40656339173395, 43.287841723967283 ] ] ] ] } },
{ "type": "Feature", "properties": { "codgeo": "34031", "value": 1080, "isochrone_group": 18.0, "nb_agences": 1 }, "geometry": { "type": "MultiPolygon", "coordinates": [ [ [ [ 3.541578136870354, 43.36771342919959 ], [ 3.541408314839393, 43.36857895638115 ], [ 3.541971, 43.370108 ], [ 3.542349, 43.370979 ], [ 3.544107658323191, 43.373260502689554 ], [ 3.544434, 43.372514 ], [ 3.544457, 43.372473 ], [ 3.543381, 43.369436 ], [ 3.542837, 43.36872 ], [ 3.541578136870354, 43.36771342919959 ] ] ], [ [ [ 3.490071, 43.275458 ], [ 3.487090410715143, 43.275219517914792 ], [ 3.488719383075247, 43.27598511593834 ], [ 3.491933948828124, 43.275658297498019 ], [ 3.491886, 43.27564 ], [ 3.490071, 43.275458 ] ] ], [ [ [ 3.456592112566928, 43.280185282287881 ], [ 3.456821, 43.280074 ], [ 3.456920253740817, 43.2800530366641 ], [ 3.458094, 43.27958 ], [ 3.449477, 43.281331 ], [ 3.448905, 43.281408 ], [ 3.447687, 43.281739 ], [ 3.446975, 43.282051 ], [ 3.445608, 43.282718 ], [ 3.441601, 43.284552 ], [ 3.444895, 43.283101 ], [ 3.445308, 43.283042 ], [ 3.445809, 43.283021 ], [ 3.450641269294784, 43.282764767635477 ], [ 3.455554, 43.28069 ], [ 3.456509508939999, 43.280225443167289 ], [ 3.456568, 43.280195 ], [ 3.456592112566927, 43.280185282287881 ], [ 3.456592112566928, 43.280185282287881 ] ] ], [ [ [ 3.399136, 43.286754 ], [ 3.394275112173434, 43.285864777705996 ], [ 3.394292651803843, 43.285868765390717 ], [ 3.399126, 43.286755 ], [ 3.399162820283649, 43.286757935996476 ], [ 3.399136, 43.286754 ] ] ], [ [ [ 3.391963047514153, 43.285325033563247 ], [ 3.39197264009294, 43.285327370541559 ], [ 3.390186, 43.284571 ], [ 3.385653, 43.28362 ], [ 3.385465121249966, 43.2836046635191 ], [ 3.385495206718, 43.283619547250012 ], [ 3.385635, 43.283629 ], [ 3.390179, 43.284576 ], [ 3.391963047514153, 43.285325033563247 ] ] ] ] } },
{ "type": "Feature", "properties": { "codgeo": "34031", "value": 1140, "isochrone_group": 19.0, "nb_agences": 1 }, "geometry": { "type": "MultiPolygon", "coordinates": [ [ [ [ 3.515838, 43.277548 ], [ 3.516097, 43.277773 ], [ 3.516159241967014, 43.277843207858666 ], [ 3.519688, 43.280856 ], [ 3.522085, 43.285008 ], [ 3.524065, 43.289215 ], [ 3.524102, 43.289431 ], [ 3.524174638113714, 43.289908777744934 ], [ 3.524373, 43.289556 ], [ 3.524422, 43.289346 ], [ 3.522746, 43.285424 ], [ 3.521662, 43.283128 ], [ 3.519433, 43.279658 ], [ 3.519132, 43.279174 ], [ 3.516348, 43.276436 ], [ 3.51597, 43.276166 ], [ 3.515377, 43.275803 ], [ 3.514208263594869, 43.275558277275593 ], [ 3.515621928643162, 43.277342051661719 ], [ 3.515622, 43.277342 ], [ 3.515642, 43.277359 ], [ 3.515826228534281, 43.277556860243003 ], [ 3.515838, 43.277548 ] ] ], [ [ [ 3.489157801873221, 43.275384933444137 ], [ 3.490071, 43.275458 ], [ 3.491886, 43.27564 ], [ 3.491933948828124, 43.275658297498019 ], [ 3.492409, 43.27561 ], [ 3.496109, 43.276051 ], [ 3.496735704343145, 43.275717700349347 ], [ 3.496163, 43.275645 ], [ 3.49181, 43.274505 ], [ 3.491742, 43.274534 ], [ 3.489157801873221, 43.275384933444137 ] ] ], [ [ [ 3.45153548414839, 43.28091270990555 ], [ 3.445467, 43.280956 ], [ 3.444781, 43.280975 ], [ 3.443036, 43.282967 ], [ 3.442139764585911, 43.283956918558395 ], [ 3.442449190860213, 43.284020919396525 ], [ 3.44284, 43.283925 ], [ 3.442979745781725, 43.283920949397626 ], [ 3.445608, 43.282718 ], [ 3.446975, 43.282051 ], [ 3.447687, 43.281739 ], [ 3.448905, 43.281408 ], [ 3.449477, 43.281331 ], [ 3.45153548414839, 43.28091270990555 ] ] ], [ [ [ 3.429863852988738, 43.290278722903743 ], [ 3.436588022498611, 43.291447702320326 ], [ 3.436588850652127, 43.291446738701573 ], [ 3.431131, 43.290351 ], [ 3.429863852988738, 43.290278722903743 ] ] ], [ [ [ 3.382746, 43.282257 ], [ 3.384264368304694, 43.283008810875785 ], [ 3.384284337180238, 43.28300993661464 ], [ 3.382764, 43.282254 ], [ 3.382630353411212, 43.28226058357582 ], [ 3.382634239762174, 43.282261896711454 ], [ 3.382746, 43.282257 ] ] ], [ [ [ 3.373643714883086, 43.281411342724653 ], [ 3.373684218133495, 43.28139889467738 ], [ 3.372525, 43.28123 ], [ 3.371167455437013, 43.282024491728983 ], [ 3.371178851623669, 43.282031591346076 ], [ 3.371187985022421, 43.282037281287423 ], [ 3.372585, 43.28126 ], [ 3.373643714883086, 43.281411342724653 ] ] ] ] } },
{ "type": "Feature", "properties": { "codgeo": "34031", "value": 1200, "isochrone_group": 20.0, "nb_agences": 1 }, "geometry": { "type": "MultiPolygon", "coordinates": [ [ [ [ 3.554379274654038, 43.317099934868473 ], [ 3.553273, 43.314729 ], [ 3.552824, 43.31429 ], [ 3.545953, 43.309707 ], [ 3.547184542814947, 43.310997347419232 ], [ 3.552736, 43.314372 ], [ 3.554379274654038, 43.317099934868473 ] ] ], [ [ [ 3.523364, 43.298862 ], [ 3.523626965426788, 43.297802070035438 ], [ 3.52223080799015, 43.298199572762066 ], [ 3.521224668811077, 43.298486032624332 ], [ 3.520760217597733, 43.298703323166762 ], [ 3.52076, 43.298704 ], [ 3.519705, 43.299197 ], [ 3.52305, 43.298868 ], [ 3.523113, 43.298879 ], [ 3.523199, 43.298882 ], [ 3.523364, 43.298862 ] ] ], [ [ [ 3.524431, 43.291595 ], [ 3.524320404816259, 43.29504328570173 ], [ 3.525693, 43.290162 ], [ 3.525325, 43.2893 ], [ 3.523198648343961, 43.286483240337105 ], [ 3.524422, 43.289346 ], [ 3.524373, 43.289556 ], [ 3.524174638113714, 43.289908777744934 ], [ 3.524431, 43.291595 ] ] ], [ [ [ 3.514253475141598, 43.275567744160369 ], [ 3.512959, 43.273905 ], [ 3.512784, 43.273668 ], [ 3.511697880701983, 43.274188147660496 ], [ 3.513288462711174, 43.275401937186452 ], [ 3.513801, 43.275473 ], [ 3.514253475141598, 43.275567744160369 ] ] ], [ [ [ 3.37776, 43.280421 ], [ 3.377634, 43.280398 ], [ 3.376941756068539, 43.280433734080503 ], [ 3.378576, 43.281578 ], [ 3.380249333416895, 43.282355412692269 ], [ 3.380322, 43.282366 ], [ 3.38112079853671, 43.282329904977708 ], [ 3.37776, 43.280421 ] ] ] ] } }
]
}
