{
"type": "FeatureCollection",
"name": "Credit_Agricole",
"crs": { "type": "name", "properties": { "name": "urn:ogc:def:crs:OGC:1.3:CRS84" } },
"features": [
{ "type": "Feature", "properties": { "codgeo": "34031", "value": 60, "isochrone_group": 1.0, "nb_agences": 1 }, "geometry": { "type": "Polygon", "coordinates": [ [ [ 3.422159, 43.361433 ], [ 3.422196, 43.361237 ], [ 3.422405, 43.360488 ], [ 3.425221, 43.357852 ], [ 3.425542, 43.357691 ], [ 3.427695, 43.359841 ], [ 3.427778, 43.360019 ], [ 3.428388, 43.361483 ], [ 3.428239, 43.361811 ], [ 3.426706, 43.363377 ], [ 3.423684, 43.365729 ], [ 3.423336, 43.365639 ], [ 3.423275, 43.365489 ], [ 3.422159, 43.361433 ] ] ] } },
{ "type": "Feature", "properties": { "codgeo": "34031", "value": 120, "isochrone_group": 2.0, "nb_agences": 1 }, "geometry": { "type": "Polygon", "coordinates": [ [ [ 3.419971, 43.369957 ], [ 3.421734, 43.371975 ], [ 3.422086, 43.372047 ], [ 3.423818, 43.370031 ], [ 3.423845, 43.369672 ], [ 3.425713, 43.365317 ], [ 3.428653, 43.365352 ], [ 3.428986, 43.365215 ], [ 3.430876, 43.364211 ], [ 3.435407, 43.362153 ], [ 3.435736, 43.362007 ], [ 3.436202, 43.360135 ], [ 3.435911, 43.358937 ], [ 3.435604, 43.358748 ], [ 3.433255, 43.358061 ], [ 3.428048, 43.357055 ], [ 3.429211, 43.351765 ], [ 3.429008, 43.351467 ], [ 3.428568, 43.351766 ], [ 3.428128, 43.352066 ], [ 3.427856, 43.352263 ], [ 3.426217, 43.353352 ], [ 3.420712, 43.355628 ], [ 3.420545, 43.35571 ], [ 3.419617, 43.358983 ], [ 3.419526, 43.359539 ], [ 3.419527, 43.359899 ], [ 3.420568, 43.3614 ], [ 3.420778, 43.361619 ], [ 3.422423, 43.364425 ], [ 3.420036, 43.369597 ], [ 3.419962, 43.369798 ], [ 3.419941, 43.369864 ], [ 3.419971, 43.369957 ] ], [ [ 3.422196, 43.361237 ], [ 3.422405, 43.360488 ], [ 3.425221, 43.357852 ], [ 3.425542, 43.357691 ], [ 3.427695, 43.359841 ], [ 3.427778, 43.360019 ], [ 3.428388, 43.361483 ], [ 3.428239, 43.361811 ], [ 3.426706, 43.363377 ], [ 3.423684, 43.365729 ], [ 3.423336, 43.365639 ], [ 3.423275, 43.365489 ], [ 3.422159, 43.361433 ], [ 3.422196, 43.361237 ] ] ] } },
{ "type": "Feature", "properties": { "codgeo": "34031", "value": 180, "isochrone_group": 3.0, "nb_agences": 1 }, "geometry": { "type": "Polygon", "coordinates": [ [ [ 3.419607, 43.379608 ], [ 3.419963, 43.379665 ], [ 3.423946, 43.373856 ], [ 3.425194, 43.371941 ], [ 3.429778, 43.367176 ], [ 3.437522, 43.368718 ], [ 3.437866, 43.36861 ], [ 3.439483, 43.363492 ], [ 3.444843, 43.356271 ], [ 3.44556, 43.356148 ], [ 3.445499, 43.355793 ], [ 3.444782, 43.355916 ], [ 3.444066, 43.35604 ], [ 3.443738, 43.356109 ], [ 3.443012, 43.356301 ], [ 3.442296, 43.356491 ], [ 3.441959, 43.356614 ], [ 3.441638, 43.356733 ], [ 3.441414, 43.35683 ], [ 3.4412, 43.356924 ], [ 3.44076, 43.357149 ], [ 3.44033, 43.357369 ], [ 3.440035, 43.357546 ], [ 3.439762, 43.357738 ], [ 3.436043, 43.358588 ], [ 3.431929, 43.355733 ], [ 3.434663, 43.349106 ], [ 3.435674, 43.34876 ], [ 3.435558, 43.348419 ], [ 3.429899, 43.347073 ], [ 3.428389, 43.347079 ], [ 3.428078, 43.347259 ], [ 3.425427, 43.351746 ], [ 3.420392, 43.353984 ], [ 3.417194, 43.353802 ], [ 3.416896, 43.354005 ], [ 3.416733, 43.354229 ], [ 3.414318, 43.362324 ], [ 3.414416, 43.36267 ], [ 3.415657, 43.365121 ], [ 3.418152, 43.372756 ], [ 3.419607, 43.379608 ] ], [ [ 3.419962, 43.369798 ], [ 3.420036, 43.369597 ], [ 3.422423, 43.364425 ], [ 3.420778, 43.361619 ], [ 3.420568, 43.3614 ], [ 3.419527, 43.359899 ], [ 3.419526, 43.359539 ], [ 3.419617, 43.358983 ], [ 3.420545, 43.35571 ], [ 3.420712, 43.355628 ], [ 3.426217, 43.353352 ], [ 3.427856, 43.352263 ], [ 3.428128, 43.352066 ], [ 3.428568, 43.351766 ], [ 3.429008, 43.351467 ], [ 3.429211, 43.351765 ], [ 3.428048, 43.357055 ], [ 3.433255, 43.358061 ], [ 3.435604, 43.358748 ], [ 3.435911, 43.358937 ], [ 3.436202, 43.360135 ], [ 3.435736, 43.362007 ], [ 3.435407, 43.362153 ], [ 3.430876, 43.364211 ], [ 3.428986, 43.365215 ], [ 3.428653, 43.365352 ], [ 3.425713, 43.365317 ], [ 3.423845, 43.369672 ], [ 3.423818, 43.370031 ], [ 3.422086, 43.372047 ], [ 3.421734, 43.371975 ], [ 3.419971, 43.369957 ], [ 3.419941, 43.369864 ], [ 3.419962, 43.369798 ] ] ] } },
{ "type": "Feature", "properties": { "codgeo": "34031", "value": 240, "isochrone_group": 4.0, "nb_agences": 1 }, "geometry": { "type": "Polygon", "coordinates": [ [ [ 3.410505, 43.369775 ], [ 3.410759, 43.370031 ], [ 3.414706, 43.378077 ], [ 3.416903, 43.382002 ], [ 3.420264, 43.386127 ], [ 3.420602, 43.386251 ], [ 3.420687, 43.38602 ], [ 3.420753, 43.385766 ], [ 3.420813, 43.38553 ], [ 3.420872, 43.385221 ], [ 3.420928, 43.384924 ], [ 3.42095, 43.384667 ], [ 3.420943, 43.384456 ], [ 3.425354, 43.376756 ], [ 3.427223, 43.373945 ], [ 3.435924, 43.374613 ], [ 3.437379, 43.376116 ], [ 3.437726, 43.37602 ], [ 3.437636, 43.375694 ], [ 3.437631, 43.371397 ], [ 3.440864, 43.36695 ], [ 3.440956, 43.366602 ], [ 3.443029, 43.363185 ], [ 3.449898, 43.361445 ], [ 3.451895, 43.361337 ], [ 3.453561, 43.361153 ], [ 3.453577, 43.360793 ], [ 3.450195, 43.354268 ], [ 3.449859, 43.35414 ], [ 3.445719, 43.351353 ], [ 3.443071, 43.342883 ], [ 3.443339, 43.342643 ], [ 3.443604, 43.342321 ], [ 3.443364, 43.342052 ], [ 3.438664, 43.34443 ], [ 3.430622, 43.343023 ], [ 3.425279, 43.342274 ], [ 3.424921, 43.342313 ], [ 3.42395, 43.345751 ], [ 3.419217, 43.350235 ], [ 3.418824, 43.350464 ], [ 3.418581, 43.35073 ], [ 3.416583, 43.353449 ], [ 3.411073, 43.355953 ], [ 3.410946, 43.35629 ], [ 3.408992, 43.363316 ], [ 3.410505, 43.369775 ] ], [ [ 3.415657, 43.365121 ], [ 3.414416, 43.36267 ], [ 3.414318, 43.362324 ], [ 3.416733, 43.354229 ], [ 3.416896, 43.354005 ], [ 3.417194, 43.353802 ], [ 3.420392, 43.353984 ], [ 3.425427, 43.351746 ], [ 3.428078, 43.347259 ], [ 3.428389, 43.347079 ], [ 3.429899, 43.347073 ], [ 3.435558, 43.348419 ], [ 3.435674, 43.34876 ], [ 3.434663, 43.349106 ], [ 3.431929, 43.355733 ], [ 3.436043, 43.358588 ], [ 3.439762, 43.357738 ], [ 3.440035, 43.357546 ], [ 3.44033, 43.357369 ], [ 3.44076, 43.357149 ], [ 3.4412, 43.356924 ], [ 3.441414, 43.35683 ], [ 3.441638, 43.356733 ], [ 3.441959, 43.356614 ], [ 3.442296, 43.356491 ], [ 3.443012, 43.356301 ], [ 3.443738, 43.356109 ], [ 3.444066, 43.35604 ], [ 3.444782, 43.355916 ], [ 3.445499, 43.355793 ], [ 3.44556, 43.356148 ], [ 3.444843, 43.356271 ], [ 3.439483, 43.363492 ], [ 3.437866, 43.36861 ], [ 3.437522, 43.368718 ], [ 3.429778, 43.367176 ], [ 3.425194, 43.371941 ], [ 3.423946, 43.373856 ], [ 3.419963, 43.379665 ], [ 3.419607, 43.379608 ], [ 3.418152, 43.372756 ], [ 3.415657, 43.365121 ] ] ] } },
{ "type": "Feature", "properties": { "codgeo": "34031", "value": 300, "isochrone_group": 5.0, "nb_agences": 1 }, "geometry": { "type": "Polygon", "coordinates": [ [ [ 3.399998, 43.374772 ], [ 3.40282, 43.376233 ], [ 3.403367, 43.37646 ], [ 3.41008, 43.38185 ], [ 3.410579, 43.382913 ], [ 3.413292, 43.388802 ], [ 3.415405, 43.391717 ], [ 3.420275, 43.391613 ], [ 3.420468, 43.391589 ], [ 3.422037, 43.389658 ], [ 3.422588, 43.38766 ], [ 3.42283, 43.385367 ], [ 3.422896, 43.384612 ], [ 3.42902, 43.378312 ], [ 3.434681, 43.383059 ], [ 3.43780394821954, 43.384132083529188 ], [ 3.44087, 43.38016 ], [ 3.440918, 43.379803 ], [ 3.441175, 43.377931 ], [ 3.441293, 43.377591 ], [ 3.443987, 43.37436 ], [ 3.444288, 43.374558 ], [ 3.444301919395682, 43.374563519598162 ], [ 3.443202, 43.369596 ], [ 3.445796, 43.368311 ], [ 3.448763, 43.368487 ], [ 3.449041, 43.368245 ], [ 3.453753, 43.366125 ], [ 3.459593, 43.365475 ], [ 3.465666, 43.364004 ], [ 3.466816, 43.362684 ], [ 3.467031, 43.362229 ], [ 3.467031, 43.36222 ], [ 3.465911, 43.360412 ], [ 3.465354, 43.360374 ], [ 3.463115, 43.360239 ], [ 3.45693, 43.357075 ], [ 3.453349, 43.3567 ], [ 3.450378, 43.348434 ], [ 3.449061, 43.341262 ], [ 3.452331, 43.336695 ], [ 3.45237, 43.33666 ], [ 3.452152, 43.333942 ], [ 3.452029, 43.333852 ], [ 3.449972, 43.333975 ], [ 3.447542, 43.335365 ], [ 3.444118, 43.337474 ], [ 3.438997, 43.33836 ], [ 3.438882, 43.338371 ], [ 3.431006, 43.338561 ], [ 3.42576, 43.335289 ], [ 3.422161, 43.335362 ], [ 3.419518, 43.340372 ], [ 3.415821, 43.34822 ], [ 3.415002, 43.350027 ], [ 3.406629, 43.352757 ], [ 3.404798, 43.353342 ], [ 3.404741, 43.353415 ], [ 3.405128, 43.356029 ], [ 3.399259, 43.361532 ], [ 3.397636, 43.363326 ], [ 3.397632, 43.363524 ], [ 3.398337, 43.364789 ], [ 3.397557, 43.373581 ], [ 3.399998, 43.374772 ] ], [ [ 3.411073, 43.355953 ], [ 3.416583, 43.353449 ], [ 3.418581, 43.35073 ], [ 3.418824, 43.350464 ], [ 3.419217, 43.350235 ], [ 3.42395, 43.345751 ], [ 3.424921, 43.342313 ], [ 3.425279, 43.342274 ], [ 3.430622, 43.343023 ], [ 3.438664, 43.34443 ], [ 3.443364, 43.342052 ], [ 3.443604, 43.342321 ], [ 3.443339, 43.342643 ], [ 3.443071, 43.342883 ], [ 3.445719, 43.351353 ], [ 3.449859, 43.35414 ], [ 3.450195, 43.354268 ], [ 3.453577, 43.360793 ], [ 3.453561, 43.361153 ], [ 3.451895, 43.361337 ], [ 3.449898, 43.361445 ], [ 3.443029, 43.363185 ], [ 3.440956, 43.366602 ], [ 3.440864, 43.36695 ], [ 3.437631, 43.371397 ], [ 3.437636, 43.375694 ], [ 3.437726, 43.37602 ], [ 3.437379, 43.376116 ], [ 3.435924, 43.374613 ], [ 3.427223, 43.373945 ], [ 3.425354, 43.376756 ], [ 3.420943, 43.384456 ], [ 3.42095, 43.384667 ], [ 3.420928, 43.384924 ], [ 3.420872, 43.385221 ], [ 3.420813, 43.38553 ], [ 3.420753, 43.385766 ], [ 3.420687, 43.38602 ], [ 3.420602, 43.386251 ], [ 3.420264, 43.386127 ], [ 3.416903, 43.382002 ], [ 3.414706, 43.378077 ], [ 3.410759, 43.370031 ], [ 3.410505, 43.369775 ], [ 3.408992, 43.363316 ], [ 3.410946, 43.35629 ], [ 3.411073, 43.355953 ] ] ] } },
{ "type": "Feature", "properties": { "codgeo": "34031", "value": 360, "isochrone_group": 6.0, "nb_agences": 1 }, "geometry": { "type": "MultiPolygon", "coordinates": [ [ [ [ 3.456453, 43.351707 ], [ 3.453767, 43.345534 ], [ 3.451735, 43.342563 ], [ 3.451138, 43.340929 ], [ 3.455178, 43.334151 ], [ 3.457348, 43.33221 ], [ 3.457444, 43.332124 ], [ 3.455044, 43.329441 ], [ 3.452811, 43.330294 ], [ 3.452057, 43.33056 ], [ 3.444961, 43.334513 ], [ 3.43994, 43.334708 ], [ 3.437911, 43.334982 ], [ 3.431989, 43.337533 ], [ 3.431139, 43.337459 ], [ 3.426734, 43.33013 ], [ 3.427282, 43.328105 ], [ 3.427827, 43.326093 ], [ 3.428429, 43.323936 ], [ 3.429031, 43.321779 ], [ 3.427470324257394, 43.321343828880309 ], [ 3.426928, 43.323287 ], [ 3.422641, 43.329387 ], [ 3.421858, 43.333065 ], [ 3.421782, 43.334557 ], [ 3.421422, 43.334538 ], [ 3.420632619183189, 43.332304137668864 ], [ 3.41985, 43.333571 ], [ 3.415875, 43.3393 ], [ 3.415237, 43.344756 ], [ 3.409769, 43.348852 ], [ 3.403483, 43.350266 ], [ 3.402318, 43.350224 ], [ 3.400165, 43.351497 ], [ 3.400175, 43.353117 ], [ 3.400003, 43.355094 ], [ 3.392899, 43.360023 ], [ 3.389002, 43.360902 ], [ 3.380619, 43.362324 ], [ 3.379502, 43.362051 ], [ 3.378647, 43.365548 ], [ 3.379765, 43.365821 ], [ 3.381846, 43.36641 ], [ 3.383248, 43.366886 ], [ 3.38478, 43.367459 ], [ 3.386053, 43.367979 ], [ 3.388122, 43.368921 ], [ 3.39152, 43.370592 ], [ 3.394563, 43.372092 ], [ 3.396837, 43.378957 ], [ 3.396207350151762, 43.380676132770994 ], [ 3.397339, 43.380499 ], [ 3.397483, 43.380829 ], [ 3.397068417218488, 43.382083256659882 ], [ 3.398024, 43.382356 ], [ 3.398309, 43.382256 ], [ 3.398532, 43.382175 ], [ 3.398928, 43.381993 ], [ 3.405403, 43.381348 ], [ 3.405963, 43.381468 ], [ 3.40629, 43.381501 ], [ 3.408082, 43.381926 ], [ 3.409306, 43.382376 ], [ 3.411703, 43.390618 ], [ 3.411313, 43.391789 ], [ 3.409619, 43.394291 ], [ 3.409433, 43.39463 ], [ 3.408934, 43.400953 ], [ 3.408809, 43.401346 ], [ 3.412237, 43.402443 ], [ 3.412363, 43.40205 ], [ 3.416795, 43.396447 ], [ 3.421218, 43.395082 ], [ 3.421604, 43.394911 ], [ 3.422275, 43.394523 ], [ 3.42247, 43.39432 ], [ 3.423435, 43.39255 ], [ 3.424608, 43.390875 ], [ 3.429483701042661, 43.391095250654743 ], [ 3.430644, 43.390602 ], [ 3.434631, 43.386086 ], [ 3.435741320004401, 43.383423339032348 ], [ 3.434681, 43.383059 ], [ 3.42902, 43.378312 ], [ 3.422896, 43.384612 ], [ 3.42283, 43.385367 ], [ 3.422588, 43.38766 ], [ 3.422037, 43.389658 ], [ 3.420468, 43.391589 ], [ 3.420275, 43.391613 ], [ 3.415405, 43.391717 ], [ 3.413292, 43.388802 ], [ 3.410579, 43.382913 ], [ 3.41008, 43.38185 ], [ 3.403367, 43.37646 ], [ 3.40282, 43.376233 ], [ 3.399998, 43.374772 ], [ 3.397557, 43.373581 ], [ 3.398337, 43.364789 ], [ 3.397632, 43.363524 ], [ 3.397636, 43.363326 ], [ 3.399259, 43.361532 ], [ 3.405128, 43.356029 ], [ 3.404741, 43.353415 ], [ 3.404798, 43.353342 ], [ 3.406629, 43.352757 ], [ 3.415002, 43.350027 ], [ 3.415821, 43.34822 ], [ 3.419518, 43.340372 ], [ 3.422161, 43.335362 ], [ 3.42576, 43.335289 ], [ 3.431006, 43.338561 ], [ 3.438882, 43.338371 ], [ 3.438997, 43.33836 ], [ 3.444118, 43.337474 ], [ 3.447542, 43.335365 ], [ 3.449972, 43.333975 ], [ 3.452029, 43.333852 ], [ 3.452152, 43.333942 ], [ 3.45237, 43.33666 ], [ 3.452331, 43.336695 ], [ 3.449061, 43.341262 ], [ 3.450378, 43.348434 ], [ 3.453349, 43.3567 ], [ 3.45693, 43.357075 ], [ 3.462588198565737, 43.359969509339045 ], [ 3.465428, 43.359417 ], [ 3.471009960839497, 43.359182019967093 ], [ 3.471109746404971, 43.359152072154401 ], [ 3.467679, 43.358139 ], [ 3.465586, 43.357119 ], [ 3.459107, 43.35414 ], [ 3.456453, 43.351707 ] ] ], [ [ [ 3.438673, 43.387421 ], [ 3.437594, 43.387782 ], [ 3.436753, 43.388083 ], [ 3.433948, 43.390271 ], [ 3.433519, 43.391031 ], [ 3.433362465342259, 43.391259374234949 ], [ 3.435583, 43.390601 ], [ 3.43951, 43.388849 ], [ 3.439252816592344, 43.388081049894737 ], [ 3.438673, 43.387421 ] ] ], [ [ [ 3.455272627853304, 43.36595586333825 ], [ 3.453753, 43.366125 ], [ 3.451722173814598, 43.367038699387329 ], [ 3.455172, 43.366743 ], [ 3.455272627853304, 43.36595586333825 ] ] ], [ [ [ 3.444778, 43.37205 ], [ 3.446767434149777, 43.368368624674879 ], [ 3.445796, 43.368311 ], [ 3.443202, 43.369596 ], [ 3.443911302778226, 43.372799394235734 ], [ 3.444778, 43.37205 ] ] ] ] } },
{ "type": "Feature", "properties": { "codgeo": "34031", "value": 420, "isochrone_group": 7.0, "nb_agences": 1 }, "geometry": { "type": "MultiPolygon", "coordinates": [ [ [ [ 3.426734, 43.33013 ], [ 3.431139, 43.337459 ], [ 3.431989, 43.337533 ], [ 3.437911, 43.334982 ], [ 3.43994, 43.334708 ], [ 3.444961, 43.334513 ], [ 3.449118074917235, 43.332197199950969 ], [ 3.447569, 43.329172 ], [ 3.44756204032036, 43.328927865355347 ], [ 3.447422, 43.329341 ], [ 3.443528, 43.331797 ], [ 3.441583, 43.332093 ], [ 3.440009, 43.332666 ], [ 3.439109, 43.333235 ], [ 3.43221, 43.334965 ], [ 3.427282, 43.328105 ], [ 3.426734, 43.33013 ] ] ], [ [ [ 3.397573, 43.347315 ], [ 3.39579, 43.347766 ], [ 3.395343, 43.34819 ], [ 3.393444, 43.351858 ], [ 3.392916, 43.35266 ], [ 3.38728, 43.357663 ], [ 3.378713, 43.35936 ], [ 3.369889, 43.360751 ], [ 3.368049, 43.360688 ], [ 3.365356, 43.360644 ], [ 3.362664, 43.3606 ], [ 3.359971, 43.360555 ], [ 3.357317, 43.360512 ], [ 3.355398, 43.36044 ], [ 3.355262, 43.364037 ], [ 3.357181, 43.36411 ], [ 3.359912, 43.364155 ], [ 3.362605, 43.364199 ], [ 3.365297, 43.364243 ], [ 3.36799, 43.364288 ], [ 3.369765, 43.364349 ], [ 3.371634, 43.364465 ], [ 3.372641, 43.364558 ], [ 3.374008, 43.364716 ], [ 3.375077, 43.364864 ], [ 3.376431, 43.365088 ], [ 3.377492, 43.365294 ], [ 3.378677541390774, 43.365555457781475 ], [ 3.378647, 43.365548 ], [ 3.379502, 43.362051 ], [ 3.380619, 43.362324 ], [ 3.389002, 43.360902 ], [ 3.392899, 43.360023 ], [ 3.400003, 43.355094 ], [ 3.400175, 43.353117 ], [ 3.400165, 43.351497 ], [ 3.402318, 43.350224 ], [ 3.403483, 43.350266 ], [ 3.409769, 43.348852 ], [ 3.415237, 43.344756 ], [ 3.415875, 43.3393 ], [ 3.417218018889442, 43.33736436346728 ], [ 3.417009, 43.336352 ], [ 3.414304355061937, 43.333459950237319 ], [ 3.413727, 43.334436 ], [ 3.411347, 43.337878 ], [ 3.408883, 43.343711 ], [ 3.400444, 43.346362 ], [ 3.397573, 43.347315 ] ] ], [ [ [ 3.395900837077552, 43.376130808943458 ], [ 3.394563, 43.372092 ], [ 3.39152, 43.370592 ], [ 3.388122, 43.368921 ], [ 3.386053, 43.367979 ], [ 3.38478, 43.367459 ], [ 3.383248, 43.366886 ], [ 3.387358, 43.369399 ], [ 3.388256, 43.369802 ], [ 3.388393, 43.369816 ], [ 3.393412, 43.376536 ], [ 3.39304180871291, 43.37729881840977 ], [ 3.393927, 43.376892 ], [ 3.395900837077552, 43.376130808943458 ] ] ], [ [ [ 3.408663, 43.405108 ], [ 3.408821, 43.405746 ], [ 3.409016, 43.40629 ], [ 3.410228, 43.409322 ], [ 3.410981, 43.411234 ], [ 3.411157, 43.411611 ], [ 3.411433, 43.412138 ], [ 3.411946, 43.412926 ], [ 3.412453, 43.413569 ], [ 3.41301, 43.414168 ], [ 3.414016921118407, 43.415133923713192 ], [ 3.413118, 43.414271 ], [ 3.415610698853967, 43.411673313829695 ], [ 3.415503, 43.41157 ], [ 3.414249, 43.409723 ], [ 3.413579, 43.408008 ], [ 3.417768, 43.400436 ], [ 3.419241, 43.400339 ], [ 3.420845, 43.399919 ], [ 3.421644, 43.399452 ], [ 3.421924, 43.399197 ], [ 3.4266667313471, 43.395602468612893 ], [ 3.424266, 43.395897 ], [ 3.421365, 43.39704 ], [ 3.419729, 43.396969 ], [ 3.419584, 43.396961 ], [ 3.418448427810508, 43.395936728925776 ], [ 3.416795, 43.396447 ], [ 3.412363, 43.40205 ], [ 3.412237, 43.402443 ], [ 3.408809, 43.401346 ], [ 3.408934, 43.400953 ], [ 3.409433, 43.39463 ], [ 3.409470091703057, 43.394562397379907 ], [ 3.40789, 43.394371 ], [ 3.401276, 43.392115 ], [ 3.400158060467789, 43.39249398774357 ], [ 3.40465, 43.395687 ], [ 3.408504, 43.403542 ], [ 3.408558, 43.404477 ], [ 3.408663, 43.405108 ] ] ], [ [ [ 3.417123794347375, 43.413125214314292 ], [ 3.417124, 43.413125 ], [ 3.416509921118802, 43.412535923713584 ], [ 3.417123794347375, 43.413125214314292 ] ] ], [ [ [ 3.408082, 43.381926 ], [ 3.40629, 43.381501 ], [ 3.405963, 43.381468 ], [ 3.405403, 43.381348 ], [ 3.402310889799678, 43.38165601715508 ], [ 3.401257, 43.384518 ], [ 3.405134, 43.391639 ], [ 3.409571, 43.392085 ], [ 3.409755, 43.392175 ], [ 3.409938, 43.392264 ], [ 3.410035, 43.392325 ], [ 3.410667532494092, 43.392742341027031 ], [ 3.411313, 43.391789 ], [ 3.411703, 43.390618 ], [ 3.409306, 43.382376 ], [ 3.408082, 43.381926 ] ] ], [ [ [ 3.477038, 43.399731 ], [ 3.475458774365416, 43.402550981647657 ], [ 3.476606, 43.403241 ], [ 3.478721, 43.404511 ], [ 3.479963, 43.405184 ], [ 3.480375600434836, 43.405394898290602 ], [ 3.478908, 43.401166 ], [ 3.478459648896654, 43.400154585888949 ], [ 3.477294012040414, 43.399453493794496 ], [ 3.477038, 43.399731 ] ] ], [ [ [ 3.455178, 43.334151 ], [ 3.451138, 43.340929 ], [ 3.451735, 43.342563 ], [ 3.453767, 43.345534 ], [ 3.456453, 43.351707 ], [ 3.459107, 43.35414 ], [ 3.461812659988717, 43.35538404400468 ], [ 3.464541, 43.354505 ], [ 3.468132, 43.354754 ], [ 3.469634702525286, 43.355162240388857 ], [ 3.469003, 43.354854 ], [ 3.468281, 43.353863 ], [ 3.461773, 43.350418 ], [ 3.458838, 43.348333 ], [ 3.457523, 43.342365 ], [ 3.455178, 43.334151 ] ] ], [ [ [ 3.457348201409615, 43.3322099132604 ], [ 3.457348, 43.33221 ], [ 3.455178, 43.334151 ], [ 3.457348201409615, 43.3322099132604 ] ] ] ] } },
{ "type": "Feature", "properties": { "codgeo": "34031", "value": 480, "isochrone_group": 8.0, "nb_agences": 1 }, "geometry": { "type": "MultiPolygon", "coordinates": [ [ [ [ 3.403124, 43.34188 ], [ 3.400494, 43.343569 ], [ 3.392515, 43.344786 ], [ 3.387972, 43.351668 ], [ 3.381985, 43.357094 ], [ 3.374893, 43.356731 ], [ 3.374435, 43.356631 ], [ 3.370599, 43.355863 ], [ 3.368701, 43.358922 ], [ 3.362664, 43.3606 ], [ 3.365356, 43.360644 ], [ 3.368049, 43.360688 ], [ 3.369889, 43.360751 ], [ 3.378713, 43.35936 ], [ 3.38728, 43.357663 ], [ 3.392916, 43.35266 ], [ 3.393444, 43.351858 ], [ 3.395343, 43.34819 ], [ 3.39579, 43.347766 ], [ 3.397573, 43.347315 ], [ 3.400444, 43.346362 ], [ 3.408883, 43.343711 ], [ 3.411344398661308, 43.337884158120367 ], [ 3.411343, 43.337879 ], [ 3.408237001660193, 43.33487609583338 ], [ 3.406508, 43.336725 ], [ 3.403124, 43.34188 ] ] ], [ [ [ 3.344946, 43.358001 ], [ 3.337769, 43.353073 ], [ 3.337087, 43.352409 ], [ 3.334575, 43.354987 ], [ 3.335257, 43.355652 ], [ 3.336538, 43.356852 ], [ 3.337647, 43.357781 ], [ 3.338789, 43.358629 ], [ 3.339732, 43.359278 ], [ 3.346197, 43.363318 ], [ 3.352656, 43.363804 ], [ 3.354202, 43.363962 ], [ 3.355175, 43.364033 ], [ 3.35526202493754, 43.36403634043878 ], [ 3.355398, 43.36044 ], [ 3.355414711868563, 43.360440627021639 ], [ 3.354563, 43.36038 ], [ 3.353193, 43.360244 ], [ 3.35082, 43.359859 ], [ 3.349496, 43.359553 ], [ 3.348301, 43.359226 ], [ 3.346349, 43.358578 ], [ 3.344946, 43.358001 ] ] ], [ [ [ 3.401223, 43.396106 ], [ 3.403345095760876, 43.396151636467977 ], [ 3.403068, 43.395821 ], [ 3.40219, 43.395637 ], [ 3.398830290897574, 43.395877472802894 ], [ 3.399145, 43.396088 ], [ 3.399906, 43.396257 ], [ 3.400731, 43.396253 ], [ 3.401223, 43.396106 ] ] ], [ [ [ 3.407527, 43.414241 ], [ 3.410823370168583, 43.415556985100203 ], [ 3.412355, 43.413453 ], [ 3.412160658943186, 43.41319824004038 ], [ 3.411946, 43.412926 ], [ 3.411905344481777, 43.412863550587971 ], [ 3.41185, 43.412791 ], [ 3.411647598913458, 43.412467637317363 ], [ 3.411433, 43.412138 ], [ 3.411390621673653, 43.41205708196383 ], [ 3.411343, 43.411981 ], [ 3.411160221342232, 43.41161715089622 ], [ 3.411157, 43.411611 ], [ 3.411155271483688, 43.411607297439481 ], [ 3.411129, 43.411555 ], [ 3.411070921397373, 43.411426615720494 ], [ 3.410981, 43.411234 ], [ 3.410962263079545, 43.411186423649511 ], [ 3.410939, 43.411135 ], [ 3.410236837748047, 43.409344440603284 ], [ 3.410228, 43.409322 ], [ 3.409016, 43.40629 ], [ 3.408996350734095, 43.406235183586411 ], [ 3.408992, 43.406225 ], [ 3.408981384474997, 43.406193431561022 ], [ 3.408821, 43.405746 ], [ 3.408793260544358, 43.40563398878038 ], [ 3.408763, 43.405544 ], [ 3.408691411805075, 43.405222726149603 ], [ 3.408663, 43.405108 ], [ 3.408654601282248, 43.405057527705694 ], [ 3.40864, 43.404992 ], [ 3.408617345243706, 43.404833636655027 ], [ 3.408558, 43.404477 ], [ 3.408552362559861, 43.404379388767943 ], [ 3.408537, 43.404272 ], [ 3.408532829862107, 43.404128874910178 ], [ 3.40853, 43.404129 ], [ 3.408504, 43.403542 ], [ 3.407042738471858, 43.400563741228986 ], [ 3.406308862112298, 43.399688064579536 ], [ 3.408152, 43.403619 ], [ 3.408237, 43.40442 ], [ 3.407253, 43.410342 ], [ 3.407527, 43.414241 ] ] ], [ [ [ 3.418510988970548, 43.424456616911833 ], [ 3.418878, 43.423967 ], [ 3.418906934995663, 43.423923518449115 ], [ 3.418510988970548, 43.424456616911833 ] ] ], [ [ [ 3.419074351931365, 43.423671935622266 ], [ 3.419244, 43.423417 ], [ 3.419277452668743, 43.423358914980312 ], [ 3.419074351931365, 43.423671935622266 ] ] ], [ [ [ 3.419375197268003, 43.423189197669707 ], [ 3.419555, 43.422877 ], [ 3.419589481119049, 43.422801538702814 ], [ 3.419375197268003, 43.423189197669707 ] ] ], [ [ [ 3.419709415243751, 43.422539065068641 ], [ 3.419937, 43.422041 ], [ 3.419993629759997, 43.421853413920012 ], [ 3.419709415243751, 43.422539065068641 ] ] ], [ [ [ 3.420185908256884, 43.421216491399065 ], [ 3.420225, 43.421087 ], [ 3.420239780643451, 43.421007455315781 ], [ 3.420185908256884, 43.421216491399065 ] ] ], [ [ [ 3.420294630288081, 43.420712272113768 ], [ 3.420356, 43.420382 ], [ 3.420363559718968, 43.420280888758782 ], [ 3.420294630288081, 43.420712272113768 ] ] ], [ [ [ 3.420392886107635, 43.419888648310383 ], [ 3.420412, 43.419633 ], [ 3.420408493253944, 43.41953819693417 ], [ 3.420392886107635, 43.419888648310383 ] ] ], [ [ [ 3.420393045835171, 43.419120583957692 ], [ 3.420383, 43.418849 ], [ 3.420370336461756, 43.418760478179244 ], [ 3.420393045835171, 43.419120583957692 ] ] ], [ [ [ 3.420308720907055, 43.418329767505618 ], [ 3.42028, 43.418129 ], [ 3.4202632481287, 43.418058117081898 ], [ 3.420308720907055, 43.418329767505618 ] ] ], [ [ [ 3.420190893320752, 43.417751959051238 ], [ 3.420146, 43.417562 ], [ 3.420122270615478, 43.417490914571033 ], [ 3.420190893320752, 43.417751959051238 ] ] ], [ [ [ 3.420021615384609, 43.417189384615369 ], [ 3.419915, 43.41687 ], [ 3.419874910692442, 43.416781682040629 ], [ 3.420021615384609, 43.417189384615369 ] ] ], [ [ [ 3.41969616393681, 43.416387897521396 ], [ 3.419585, 43.416143 ], [ 3.419542461648889, 43.416068528096787 ], [ 3.41969616393681, 43.416387897521396 ] ] ], [ [ [ 3.419350374342575, 43.415732240795826 ], [ 3.419228, 43.415518 ], [ 3.41918581865554, 43.415455509119319 ], [ 3.419350374342575, 43.415732240795826 ] ] ], [ [ [ 3.419010184873959, 43.415195310924375 ], [ 3.418985, 43.415158 ], [ 3.418970361852688, 43.415138077838527 ], [ 3.419010184873959, 43.415195310924375 ] ] ], [ [ [ 3.418922008086237, 43.415072269541781 ], [ 3.41878, 43.414879 ], [ 3.418744020953093, 43.414836349341755 ], [ 3.418922008086237, 43.415072269541781 ] ] ], [ [ [ 3.418436440367062, 43.414471733945064 ], [ 3.418327, 43.414342 ], [ 3.418300074035093, 43.414313271216699 ], [ 3.418436440367062, 43.414471733945064 ] ] ], [ [ [ 3.417948979551225, 43.413938669326804 ], [ 3.417864, 43.413848 ], [ 3.417852439530799, 43.413836588378075 ], [ 3.417948979551225, 43.413938669326804 ] ] ], [ [ [ 3.383248, 43.366886 ], [ 3.381846, 43.36641 ], [ 3.379765, 43.365821 ], [ 3.386127, 43.370821 ], [ 3.385908502268017, 43.373798290073516 ], [ 3.391177127710658, 43.3735437023741 ], [ 3.388393, 43.369816 ], [ 3.388256, 43.369802 ], [ 3.387358, 43.369399 ], [ 3.383248, 43.366886 ] ] ], [ [ [ 3.417884, 43.401546 ], [ 3.420845, 43.399919 ], [ 3.419241, 43.400339 ], [ 3.417768, 43.400436 ], [ 3.413869167373165, 43.407483495977658 ], [ 3.414672880750968, 43.408769472379454 ], [ 3.417884, 43.401546 ] ] ], [ [ [ 3.425158, 43.396993 ], [ 3.42457269570172, 43.39718954498349 ], [ 3.421924, 43.399197 ], [ 3.421644, 43.399452 ], [ 3.426047647770616, 43.396902065322585 ], [ 3.425796, 43.39678 ], [ 3.425556, 43.396876 ], [ 3.425158, 43.396993 ] ] ], [ [ [ 3.46154, 43.334415 ], [ 3.457348065759424, 43.332210034589586 ], [ 3.455178, 43.334151 ], [ 3.457523, 43.342365 ], [ 3.458838, 43.348333 ], [ 3.461773, 43.350418 ], [ 3.462436585178929, 43.350769267815224 ], [ 3.46447, 43.350467 ], [ 3.468069, 43.350387 ], [ 3.468756, 43.350966 ], [ 3.470055941433524, 43.350583306961155 ], [ 3.46827, 43.348901 ], [ 3.464567, 43.346072 ], [ 3.462676, 43.338117 ], [ 3.462384, 43.337322 ], [ 3.462620542880321, 43.336278128753769 ], [ 3.46154, 43.334415 ] ] ], [ [ [ 3.432388, 43.331766 ], [ 3.429568455277241, 43.327722534976935 ], [ 3.42827131021423, 43.329482164786846 ], [ 3.43221, 43.334965 ], [ 3.439109, 43.333235 ], [ 3.440009, 43.332666 ], [ 3.441583, 43.332093 ], [ 3.443528, 43.331797 ], [ 3.444303761835419, 43.331307716212699 ], [ 3.444343, 43.331139 ], [ 3.44433, 43.326788 ], [ 3.444317254490284, 43.326613944132951 ], [ 3.44428, 43.326708 ], [ 3.441396, 43.330815 ], [ 3.435968, 43.33215 ], [ 3.432388, 43.331766 ] ] ] ] } },
{ "type": "Feature", "properties": { "codgeo": "34031", "value": 540, "isochrone_group": 9.0, "nb_agences": 1 }, "geometry": { "type": "MultiPolygon", "coordinates": [ [ [ [ 3.391589, 43.344425 ], [ 3.39072, 43.344143 ], [ 3.390224, 43.344073 ], [ 3.38964, 43.344028 ], [ 3.388483, 43.343983 ], [ 3.386869, 43.344135 ], [ 3.386371, 43.344198 ], [ 3.384805, 43.344325 ], [ 3.382025, 43.351265 ], [ 3.378565, 43.353606 ], [ 3.376776, 43.354505 ], [ 3.368019, 43.354295 ], [ 3.365449, 43.353217 ], [ 3.362585, 43.352317 ], [ 3.361615, 43.352145 ], [ 3.36103, 43.353036 ], [ 3.360732, 43.353543 ], [ 3.360602, 43.3556 ], [ 3.354563, 43.36038 ], [ 3.355434, 43.360442 ], [ 3.357317, 43.360512 ], [ 3.359971, 43.360555 ], [ 3.362664, 43.3606 ], [ 3.368701, 43.358922 ], [ 3.370599, 43.355863 ], [ 3.374435, 43.356631 ], [ 3.374893, 43.356731 ], [ 3.381985, 43.357094 ], [ 3.387972, 43.351668 ], [ 3.392515, 43.344786 ], [ 3.400494, 43.343569 ], [ 3.403124, 43.34188 ], [ 3.404719800182133, 43.339449045526337 ], [ 3.403306, 43.33784 ], [ 3.400189717595297, 43.336945425599993 ], [ 3.398636, 43.338989 ], [ 3.391589, 43.344425 ] ] ], [ [ [ 3.329742, 43.346409 ], [ 3.328267, 43.345637 ], [ 3.326934, 43.345026 ], [ 3.32589, 43.344605 ], [ 3.324984, 43.344272 ], [ 3.32353, 43.343815 ], [ 3.322249, 43.343443 ], [ 3.321005, 43.34312 ], [ 3.318037, 43.342445 ], [ 3.31507, 43.34177 ], [ 3.314272, 43.34528 ], [ 3.317239, 43.345955 ], [ 3.320206, 43.34663 ], [ 3.321342, 43.346927 ], [ 3.322523, 43.347271 ], [ 3.324642, 43.347981 ], [ 3.332143, 43.35261 ], [ 3.332609, 43.353041 ], [ 3.333909, 43.354327 ], [ 3.334577669455803, 43.354984260407221 ], [ 3.337087, 43.352409 ], [ 3.337769, 43.353073 ], [ 3.336439, 43.351767 ], [ 3.335051, 43.350396 ], [ 3.334494, 43.349884 ], [ 3.333381, 43.348926 ], [ 3.33238, 43.348133 ], [ 3.330906, 43.347122 ], [ 3.329742, 43.346409 ] ] ], [ [ [ 3.341268, 43.3605 ], [ 3.345615, 43.363401 ], [ 3.352656, 43.363804 ], [ 3.346197, 43.363318 ], [ 3.339732, 43.359278 ], [ 3.338789, 43.358629 ], [ 3.341268, 43.3605 ] ] ], [ [ [ 3.371634, 43.364465 ], [ 3.369765, 43.364349 ], [ 3.36799, 43.364288 ], [ 3.370764, 43.364753 ], [ 3.37138, 43.364837 ], [ 3.372211, 43.364846 ], [ 3.375077, 43.364864 ], [ 3.374008, 43.364716 ], [ 3.372641, 43.364558 ], [ 3.371634, 43.364465 ] ] ], [ [ [ 3.402201, 43.406347 ], [ 3.404952, 43.409845 ], [ 3.405513167851294, 43.417929805973877 ], [ 3.407414, 43.416368 ], [ 3.40789833080149, 43.41438924360645 ], [ 3.407527, 43.414241 ], [ 3.407253, 43.410342 ], [ 3.408237, 43.40442 ], [ 3.408152, 43.403619 ], [ 3.405888303032098, 43.398791121059546 ], [ 3.403927508308698, 43.396164161468995 ], [ 3.401223, 43.396106 ], [ 3.400731, 43.396253 ], [ 3.399906, 43.396257 ], [ 3.399145, 43.396088 ], [ 3.398941413970106, 43.395951809480188 ], [ 3.397328, 43.395985 ], [ 3.396764912218014, 43.396199610201975 ], [ 3.400962, 43.402967 ], [ 3.400746, 43.404993 ], [ 3.401114, 43.405448 ], [ 3.402201, 43.406347 ] ] ], [ [ [ 3.377492, 43.365294 ], [ 3.376431, 43.365088 ], [ 3.375077, 43.364864 ], [ 3.381325, 43.369869 ], [ 3.381397, 43.370049 ], [ 3.381641951648228, 43.371393875737461 ], [ 3.384509, 43.371616 ], [ 3.386054018349688, 43.371815461320253 ], [ 3.386127, 43.370821 ], [ 3.379765, 43.365821 ], [ 3.37868, 43.365556 ], [ 3.377492, 43.365294 ] ] ], [ [ [ 3.417383084449175, 43.413373690516408 ], [ 3.417398, 43.413388 ], [ 3.414650776629014, 43.408819196012253 ], [ 3.414475070696011, 43.409214449771326 ], [ 3.417383084449175, 43.413373690516408 ] ] ], [ [ [ 3.416143296728173, 43.405461744333891 ], [ 3.417326, 43.403145 ], [ 3.418702, 43.401851 ], [ 3.420465, 43.400603 ], [ 3.421644, 43.399452 ], [ 3.420845, 43.399919 ], [ 3.417884, 43.401546 ], [ 3.416143296728173, 43.405461744333891 ] ] ], [ [ [ 3.521177, 43.418184 ], [ 3.523121, 43.419084 ], [ 3.525395, 43.420053 ], [ 3.526806, 43.416741 ], [ 3.524532, 43.415772 ], [ 3.522692, 43.414918 ], [ 3.520801, 43.414041 ], [ 3.519310047645445, 43.413362368978355 ], [ 3.518094, 43.413301 ], [ 3.513345, 43.413541 ], [ 3.511901226647118, 43.414155116864556 ], [ 3.514172, 43.414995 ], [ 3.514928, 43.415324 ], [ 3.517113, 43.416318 ], [ 3.519286, 43.417306 ], [ 3.521177, 43.418184 ] ] ], [ [ [ 3.464898543077254, 43.34632529067391 ], [ 3.465327, 43.346285 ], [ 3.468491, 43.3463 ], [ 3.470047985215303, 43.346208212130392 ], [ 3.470422118781283, 43.345647051933121 ], [ 3.469151410905724, 43.344286704703421 ], [ 3.465822, 43.343174 ], [ 3.463705086668958, 43.342446129799875 ], [ 3.464567, 43.346072 ], [ 3.464898543077254, 43.34632529067391 ] ] ], [ [ [ 3.434366843712784, 43.326480552159367 ], [ 3.429665422780664, 43.327861594558179 ], [ 3.432388, 43.331766 ], [ 3.435968, 43.33215 ], [ 3.438676753787868, 43.331483790289823 ], [ 3.438892, 43.330169 ], [ 3.43973, 43.32778 ], [ 3.442163531826431, 43.323436276524866 ], [ 3.438305, 43.32591 ], [ 3.43773, 43.326412 ], [ 3.435298, 43.327604 ], [ 3.434366843712784, 43.326480552159367 ] ] ] ] } },
{ "type": "Feature", "properties": { "codgeo": "34031", "value": 600, "isochrone_group": 10.0, "nb_agences": 1 }, "geometry": { "type": "MultiPolygon", "coordinates": [ [ [ [ 3.388084317362258, 43.34402054632028 ], [ 3.388483, 43.343983 ], [ 3.38964, 43.344028 ], [ 3.390224, 43.344073 ], [ 3.39072, 43.344143 ], [ 3.391589, 43.344425 ], [ 3.397997385668571, 43.339481622038541 ], [ 3.39705, 43.338407 ], [ 3.39353273203237, 43.338238765825778 ], [ 3.39261, 43.339019 ], [ 3.388084317362258, 43.34402054632028 ] ] ], [ [ [ 3.388015088724709, 43.344027065993714 ], [ 3.383831, 43.342664 ], [ 3.380607, 43.344265 ], [ 3.380279, 43.351131 ], [ 3.376776, 43.354505 ], [ 3.378565, 43.353606 ], [ 3.382025, 43.351265 ], [ 3.384805, 43.344325 ], [ 3.386371, 43.344198 ], [ 3.386869, 43.344135 ], [ 3.388015088724709, 43.344027065993714 ] ] ], [ [ [ 3.346349, 43.358578 ], [ 3.34725, 43.358907 ], [ 3.348301, 43.359226 ], [ 3.349496, 43.359553 ], [ 3.35082, 43.359859 ], [ 3.353193, 43.360244 ], [ 3.354563, 43.36038 ], [ 3.360602, 43.3556 ], [ 3.360732, 43.353543 ], [ 3.36103, 43.353036 ], [ 3.361615, 43.352145 ], [ 3.362585, 43.352317 ], [ 3.360558, 43.351319 ], [ 3.360107, 43.351048 ], [ 3.357738, 43.349736 ], [ 3.354629, 43.349997 ], [ 3.353923, 43.350084 ], [ 3.351795, 43.350461 ], [ 3.352246, 43.354033 ], [ 3.344374, 43.357741 ], [ 3.344946, 43.358001 ], [ 3.346349, 43.358578 ] ] ], [ [ [ 3.316213, 43.345722 ], [ 3.320206, 43.34663 ], [ 3.317239, 43.345955 ], [ 3.316129865361596, 43.345702669066092 ], [ 3.316129229601207, 43.345702929804048 ], [ 3.316213, 43.345722 ] ] ], [ [ [ 3.318037, 43.342445 ], [ 3.321005, 43.34312 ], [ 3.317104524743233, 43.342232063108355 ], [ 3.317104351510623, 43.342232820111114 ], [ 3.318037, 43.342445 ] ] ], [ [ [ 3.36799, 43.364288 ], [ 3.365297, 43.364243 ], [ 3.362605, 43.364199 ], [ 3.359912, 43.364155 ], [ 3.366036, 43.36723 ], [ 3.366882, 43.367853 ], [ 3.370113, 43.366754 ], [ 3.370956, 43.366549 ], [ 3.376447465653118, 43.365961820197491 ], [ 3.375077, 43.364864 ], [ 3.372211, 43.364846 ], [ 3.37138, 43.364837 ], [ 3.370764, 43.364753 ], [ 3.36799, 43.364288 ] ] ], [ [ [ 3.400011, 43.410196 ], [ 3.399817999521304, 43.410593697956088 ], [ 3.400534679844679, 43.41057726853429 ], [ 3.400011, 43.410196 ] ] ], [ [ [ 3.40390223848649, 43.41302904161752 ], [ 3.403651238945604, 43.415432314939565 ], [ 3.40447522311254, 43.413446206820176 ], [ 3.40390223848649, 43.41302904161752 ] ] ], [ [ [ 3.378953, 43.371125 ], [ 3.381554307065382, 43.370912674349988 ], [ 3.381397, 43.370049 ], [ 3.381325, 43.369869 ], [ 3.376748808739879, 43.36620321298706 ], [ 3.37729733296037, 43.370862887298252 ], [ 3.378953, 43.371125 ] ] ], [ [ [ 3.419206, 43.41465 ], [ 3.419210732082882, 43.414656288689095 ], [ 3.418828586247624, 43.413138283779467 ], [ 3.417318958430795, 43.41315976641576 ], [ 3.417616, 43.413418 ], [ 3.419206, 43.41465 ] ] ], [ [ [ 3.532765, 43.418576 ], [ 3.530651, 43.418019 ], [ 3.52777, 43.41711 ], [ 3.526805933261755, 43.416741156652776 ], [ 3.525395454062118, 43.420051934192948 ], [ 3.525499, 43.420096 ], [ 3.526579, 43.420507 ], [ 3.527661, 43.420885 ], [ 3.529735, 43.421501 ], [ 3.531884, 43.422066 ], [ 3.533616138643824, 43.422503123400247 ], [ 3.533441, 43.420798 ], [ 3.533971, 43.419054 ], [ 3.533919436092873, 43.418867376851701 ], [ 3.532765, 43.418576 ] ] ] ] } },
{ "type": "Feature", "properties": { "codgeo": "34031", "value": 660, "isochrone_group": 11.0, "nb_agences": 1 }, "geometry": { "type": "MultiPolygon", "coordinates": [ [ [ [ 3.37276549567164, 43.354408824836256 ], [ 3.376776, 43.354505 ], [ 3.380279, 43.351131 ], [ 3.380607, 43.344265 ], [ 3.383831, 43.342664 ], [ 3.388064, 43.344043 ], [ 3.39168163941105, 43.340044975274722 ], [ 3.391567, 43.338296 ], [ 3.390651377006041, 43.337304733301494 ], [ 3.388321, 43.338962 ], [ 3.383262, 43.341542 ], [ 3.380417, 43.343748 ], [ 3.380412, 43.34379 ], [ 3.377751, 43.35016 ], [ 3.377543, 43.350665 ], [ 3.37276549567164, 43.354408824836256 ] ] ], [ [ [ 3.343575, 43.357341 ], [ 3.344374, 43.357741 ], [ 3.352246, 43.354033 ], [ 3.351795, 43.350461 ], [ 3.353923, 43.350084 ], [ 3.354629, 43.349997 ], [ 3.357738, 43.349736 ], [ 3.360107, 43.351048 ], [ 3.360558, 43.351319 ], [ 3.362585, 43.352317 ], [ 3.368019, 43.354295 ], [ 3.362782, 43.350008 ], [ 3.362324, 43.349362 ], [ 3.359191, 43.349053 ], [ 3.350707, 43.348555 ], [ 3.345488, 43.351064 ], [ 3.343006, 43.352197 ], [ 3.33523580076079, 43.35043783861348 ], [ 3.335167522430368, 43.35051109528245 ], [ 3.336439, 43.351767 ], [ 3.337769, 43.353073 ], [ 3.338999, 43.354225 ], [ 3.33991, 43.354981 ], [ 3.340933, 43.355738 ], [ 3.341768, 43.356309 ], [ 3.342996, 43.357025 ], [ 3.343575, 43.357341 ] ] ], [ [ [ 3.376911072519906, 43.367581632278629 ], [ 3.376717, 43.365933 ], [ 3.373336458770562, 43.366294467348943 ], [ 3.376911072519906, 43.367581632278629 ] ] ], [ [ [ 3.355175, 43.364033 ], [ 3.354202, 43.363962 ], [ 3.359203092096005, 43.367785162427758 ], [ 3.361901470378738, 43.365153958428259 ], [ 3.359912, 43.364155 ], [ 3.357181, 43.36411 ], [ 3.355175, 43.364033 ] ] ] ] } },
{ "type": "Feature", "properties": { "codgeo": "34031", "value": 720, "isochrone_group": 12.0, "nb_agences": 1 }, "geometry": { "type": "MultiPolygon", "coordinates": [ [ [ [ 3.379157, 43.345617 ], [ 3.379002680685944, 43.347163680582689 ], [ 3.380412, 43.34379 ], [ 3.380417, 43.343748 ], [ 3.379157, 43.345617 ] ] ], [ [ [ 3.370772, 43.355971 ], [ 3.372499681806928, 43.354617126175206 ], [ 3.368019, 43.354295 ], [ 3.370772, 43.355971 ] ] ], [ [ [ 3.360375, 43.346957 ], [ 3.351654, 43.347301 ], [ 3.343136, 43.350119 ], [ 3.341674, 43.350547 ], [ 3.333687959581989, 43.348986000178733 ], [ 3.334426, 43.349611 ], [ 3.335331, 43.350456 ], [ 3.335335413805191, 43.350460390856462 ], [ 3.343006, 43.352197 ], [ 3.345488, 43.351064 ], [ 3.350707, 43.348555 ], [ 3.359191, 43.349053 ], [ 3.362324, 43.349362 ], [ 3.362782, 43.350008 ], [ 3.364998557481887, 43.351822470484031 ], [ 3.361349, 43.346883 ], [ 3.360375, 43.346957 ] ] ], [ [ [ 3.332108617448112, 43.355468700424041 ], [ 3.332149, 43.355512 ], [ 3.332132153742908, 43.355553109803928 ], [ 3.333052, 43.358852 ], [ 3.341268, 43.3605 ], [ 3.338789, 43.358629 ], [ 3.337647, 43.357781 ], [ 3.336538, 43.356852 ], [ 3.335257, 43.355652 ], [ 3.333909, 43.354327 ], [ 3.332609, 43.353041 ], [ 3.332143, 43.35261 ], [ 3.327599872376295, 43.349806355449914 ], [ 3.327720396439435, 43.350074169560145 ], [ 3.332085, 43.355384 ], [ 3.332108617448112, 43.355468700424041 ] ] ], [ [ [ 3.352656, 43.363804 ], [ 3.350005, 43.363366 ], [ 3.345615, 43.363401 ], [ 3.353614, 43.367154 ], [ 3.354540446366459, 43.368691262727538 ], [ 3.356638, 43.366739 ], [ 3.357117915152321, 43.366191116568714 ], [ 3.354202, 43.363962 ], [ 3.352656, 43.363804 ] ] ] ] } },
{ "type": "Feature", "properties": { "codgeo": "34031", "value": 780, "isochrone_group": 13.0, "nb_agences": 1 }, "geometry": { "type": "MultiPolygon", "coordinates": [ [ [ [ 3.376777, 43.350502 ], [ 3.372276203808704, 43.354601059845166 ], [ 3.376184, 43.354882 ], [ 3.37898, 43.347391 ], [ 3.379157, 43.345617 ], [ 3.380417, 43.343748 ], [ 3.381204182955809, 43.343137621933018 ], [ 3.381167894907942, 43.342684837501857 ], [ 3.377217, 43.344841 ], [ 3.377004, 43.344904 ], [ 3.376296, 43.34565 ], [ 3.375919, 43.346207 ], [ 3.375789, 43.346494 ], [ 3.376674, 43.348292 ], [ 3.376777, 43.350502 ] ] ], [ [ [ 3.369604884174791, 43.354409012738607 ], [ 3.367237, 43.35124 ], [ 3.365065, 43.348368 ], [ 3.363799, 43.345903 ], [ 3.358465, 43.345171 ], [ 3.356658041245366, 43.347103615504118 ], [ 3.360375, 43.346957 ], [ 3.361349, 43.346883 ], [ 3.365095, 43.351953 ], [ 3.368019, 43.354295 ], [ 3.369604884174791, 43.354409012738607 ] ] ], [ [ [ 3.339288472445536, 43.360102937997823 ], [ 3.337307961852052, 43.359705678813548 ], [ 3.333079157555296, 43.36039709158868 ], [ 3.339288472445536, 43.360102937997823 ] ] ], [ [ [ 3.341268, 43.3605 ], [ 3.340198420552313, 43.36028545923444 ], [ 3.345615, 43.363401 ], [ 3.341268, 43.3605 ] ] ], [ [ [ 3.351946, 43.371106 ], [ 3.353832285874347, 43.36751620417148 ], [ 3.353614, 43.367154 ], [ 3.345615, 43.363401 ], [ 3.3491, 43.369742 ], [ 3.349975188355857, 43.371529418796243 ], [ 3.351946, 43.371106 ] ] ] ] } },
{ "type": "Feature", "properties": { "codgeo": "34031", "value": 840, "isochrone_group": 14.0, "nb_agences": 1 }, "geometry": { "type": "MultiPolygon", "coordinates": [ [ [ [ 3.375528, 43.342344 ], [ 3.374872, 43.345605 ], [ 3.367211, 43.346747 ], [ 3.36448933266848, 43.347247131143632 ], [ 3.365065, 43.348368 ], [ 3.367237, 43.35124 ], [ 3.369547074661534, 43.354331644476318 ], [ 3.372494416984705, 43.35440232414831 ], [ 3.376777, 43.350502 ], [ 3.376674, 43.348292 ], [ 3.375789, 43.346494 ], [ 3.375919, 43.346207 ], [ 3.376296, 43.34565 ], [ 3.377004, 43.344904 ], [ 3.377217, 43.344841 ], [ 3.383262, 43.341542 ], [ 3.37838, 43.341611 ], [ 3.377693, 43.341776 ], [ 3.377486, 43.341829 ], [ 3.375528, 43.342344 ] ] ], [ [ [ 3.349975188355857, 43.371529418796243 ], [ 3.3491, 43.369742 ], [ 3.345615, 43.363401 ], [ 3.341817890761784, 43.361216955856051 ], [ 3.335925016833365, 43.363783946039426 ], [ 3.336051077700077, 43.363889312664753 ], [ 3.341767, 43.363362 ], [ 3.343508569171067, 43.370199092137497 ], [ 3.346231, 43.371803 ], [ 3.347125, 43.371896 ], [ 3.348497, 43.371847 ], [ 3.349975188355857, 43.371529418796243 ] ] ], [ [ [ 3.421869905728355, 43.289219856599374 ], [ 3.420733, 43.288564 ], [ 3.417137692826645, 43.28871682228317 ], [ 3.420668513643833, 43.289358311041042 ], [ 3.421869905728355, 43.289219856599374 ] ] ], [ [ [ 3.441231556762189, 43.285427019187964 ], [ 3.440896, 43.285728 ], [ 3.440719, 43.286641 ], [ 3.441231556762189, 43.285427019187964 ] ] ], [ [ [ 3.442728840233047, 43.28405518877409 ], [ 3.442692, 43.284039 ], [ 3.442629814966085, 43.28409880919375 ], [ 3.442728840233047, 43.28405518877409 ] ] ] ] } },
{ "type": "Feature", "properties": { "codgeo": "34031", "value": 900, "isochrone_group": 15.0, "nb_agences": 1 }, "geometry": { "type": "MultiPolygon", "coordinates": [ [ [ [ 3.382206, 43.332073 ], [ 3.382337529809332, 43.332266196604202 ], [ 3.38216, 43.331974 ], [ 3.377107934740214, 43.329980147906284 ], [ 3.377098432447059, 43.329979711593886 ], [ 3.382206, 43.332073 ] ] ], [ [ [ 3.382631996107023, 43.332631577569785 ], [ 3.38250701218015, 43.332515139552456 ], [ 3.382543, 43.332568 ], [ 3.382631996107023, 43.332631577569785 ] ] ], [ [ [ 3.383403461833193, 43.339947849369857 ], [ 3.383418, 43.339894 ], [ 3.384685070612808, 43.333868747801496 ], [ 3.384267, 43.333743 ], [ 3.383648049845558, 43.333357432100193 ], [ 3.383968, 43.333586 ], [ 3.383403461833193, 43.339947849369857 ] ] ], [ [ [ 3.369281, 43.345161 ], [ 3.368881, 43.345489 ], [ 3.367212590390441, 43.346746762925754 ], [ 3.374872, 43.345605 ], [ 3.375528, 43.342344 ], [ 3.377486, 43.341829 ], [ 3.377693, 43.341776 ], [ 3.37838, 43.341611 ], [ 3.382971968906728, 43.341546099169491 ], [ 3.38299005164163, 43.341479120719399 ], [ 3.377259, 43.340154 ], [ 3.37403, 43.342738 ], [ 3.369281, 43.345161 ] ] ], [ [ [ 3.32278, 43.368584 ], [ 3.325908, 43.374375 ], [ 3.327373678723672, 43.374058726991663 ], [ 3.330905, 43.369053 ], [ 3.330449802633294, 43.36744813412556 ], [ 3.325052, 43.367269 ], [ 3.323155, 43.368372 ], [ 3.322559877875861, 43.368206167427005 ], [ 3.32278, 43.368584 ] ] ], [ [ [ 3.341901, 43.369252 ], [ 3.343508569171067, 43.370199092137497 ], [ 3.342229699575827, 43.365178476591623 ], [ 3.339427243004244, 43.366605876228519 ], [ 3.33945, 43.366621 ], [ 3.340008, 43.367075 ], [ 3.341451, 43.368818 ], [ 3.341901, 43.369252 ] ] ], [ [ [ 3.411504, 43.288236 ], [ 3.412263, 43.288295 ], [ 3.412565184418931, 43.288482590327568 ], [ 3.413951410128493, 43.288194063379038 ], [ 3.413209, 43.287943 ], [ 3.412969, 43.287914 ], [ 3.408336, 43.288604 ], [ 3.407471, 43.288733 ], [ 3.40722275686014, 43.288872678586124 ], [ 3.40873312883601, 43.289132808839092 ], [ 3.411504, 43.288236 ] ] ], [ [ [ 3.427789, 43.289741 ], [ 3.426325, 43.289493 ], [ 3.425096709718148, 43.289289382032564 ], [ 3.425143587279651, 43.289348112920379 ], [ 3.427272, 43.289768 ], [ 3.427671834042842, 43.290313860388942 ], [ 3.429682097436459, 43.29093687322036 ], [ 3.43663, 43.291455 ], [ 3.439255903654399, 43.288363510591267 ], [ 3.440265499518163, 43.286007047278503 ], [ 3.436842, 43.289737 ], [ 3.428019, 43.289958 ], [ 3.427789, 43.289741 ] ] ], [ [ [ 3.470041592014884, 43.276909476444544 ], [ 3.469823, 43.27663 ], [ 3.465081, 43.277117 ], [ 3.462968, 43.277762 ], [ 3.462068, 43.278104 ], [ 3.462025480083267, 43.278917424494033 ], [ 3.463369, 43.278691 ], [ 3.468492, 43.277245 ], [ 3.468664, 43.277199 ], [ 3.470041592014884, 43.276909476444544 ] ] ], [ [ [ 3.535557450908949, 43.351197877248012 ], [ 3.535555, 43.351154 ], [ 3.53554973545143, 43.351143734863498 ], [ 3.535557450908949, 43.351197877248012 ] ] ] ] } },
{ "type": "Feature", "properties": { "codgeo": "34031", "value": 960, "isochrone_group": 16.0, "nb_agences": 1 }, "geometry": { "type": "MultiPolygon", "coordinates": [ [ [ [ 3.522286631945748, 43.309860293321051 ], [ 3.525244, 43.310773 ], [ 3.5252452141981, 43.310772605047745 ], [ 3.524047, 43.310403 ], [ 3.522286631945748, 43.309860293321051 ] ] ], [ [ [ 3.522262093378875, 43.309852732225146 ], [ 3.522262397784879, 43.309852822132882 ], [ 3.52225, 43.309849 ], [ 3.522262093378875, 43.309852732225146 ] ] ], [ [ [ 3.470078694810276, 43.276956913480824 ], [ 3.474232361944583, 43.276118929411659 ], [ 3.471254, 43.275615 ], [ 3.470612, 43.275464 ], [ 3.467447292872262, 43.276873983418639 ], [ 3.469823, 43.27663 ], [ 3.470078694810276, 43.276956913480824 ] ] ], [ [ [ 3.462025480083267, 43.278917424494033 ], [ 3.462033760668754, 43.27875901329341 ], [ 3.458834, 43.278922 ], [ 3.457962, 43.27918 ], [ 3.456939609640772, 43.279813896085869 ], [ 3.458094, 43.27958 ], [ 3.462025480083267, 43.278917424494033 ] ] ] ] } },
{ "type": "Feature", "properties": { "codgeo": "34031", "value": 1020, "isochrone_group": 17.0, "nb_agences": 1 }, "geometry": { "type": "MultiPolygon", "coordinates": [ [ [ [ 3.538614351707373, 43.363024763781723 ], [ 3.540048883268498, 43.3653717241381 ], [ 3.540054786272369, 43.365379893156707 ], [ 3.54005672851242, 43.365382580973858 ], [ 3.538614351707373, 43.363024763781723 ] ] ], [ [ [ 3.538194, 43.362302 ], [ 3.536035404317186, 43.357023993999327 ], [ 3.53603263693146, 43.35708937809936 ], [ 3.538194, 43.362302 ] ] ], [ [ [ 3.526970500662872, 43.311305332929237 ], [ 3.52823917709124, 43.311696504652417 ], [ 3.530428488265749, 43.310775191200925 ], [ 3.530394, 43.310763 ], [ 3.525246478979875, 43.310772995186454 ], [ 3.525843, 43.310957 ], [ 3.52584280549413, 43.310957630037841 ], [ 3.526970500662872, 43.311305332929237 ] ] ], [ [ [ 3.51403, 43.299788 ], [ 3.515659, 43.307724 ], [ 3.517735, 43.308371 ], [ 3.519996, 43.309134 ], [ 3.514673, 43.302322 ], [ 3.515791967716434, 43.299604506974369 ], [ 3.51403, 43.299788 ] ] ], [ [ [ 3.47393778513404, 43.276069087947945 ], [ 3.474232361944583, 43.276118929411659 ], [ 3.475952, 43.275772 ], [ 3.481477, 43.274836 ], [ 3.487438816623067, 43.276115308556207 ], [ 3.488719383075249, 43.27598511593834 ], [ 3.486651, 43.275013 ], [ 3.4848, 43.274646 ], [ 3.480994, 43.274429 ], [ 3.479443, 43.274636 ], [ 3.479306, 43.274659 ], [ 3.47393778513404, 43.276069087947945 ] ] ], [ [ [ 3.412669554672078, 43.289523543138621 ], [ 3.409339405966724, 43.288562725605892 ], [ 3.411695345454681, 43.289403068154243 ], [ 3.41265, 43.289528 ], [ 3.412669554672078, 43.289523543138621 ] ] ] ] } },
{ "type": "Feature", "properties": { "codgeo": "34031", "value": 1080, "isochrone_group": 18.0, "nb_agences": 1 }, "geometry": { "type": "MultiPolygon", "coordinates": [ [ [ [ 3.543377, 43.369431 ], [ 3.544456, 43.372474 ], [ 3.544454409841474, 43.372477617239092 ], [ 3.544457, 43.372473 ], [ 3.543381, 43.369436 ], [ 3.542837, 43.36872 ], [ 3.543377, 43.369431 ] ] ], [ [ [ 3.515776711038515, 43.277516609615233 ], [ 3.515835431292299, 43.277566743945052 ], [ 3.515642, 43.277359 ], [ 3.515622, 43.277342 ], [ 3.515595050625093, 43.277361511118571 ], [ 3.515776711038515, 43.277516609615233 ] ] ], [ [ [ 3.491933948828124, 43.275658297498019 ], [ 3.491886, 43.27564 ], [ 3.490071, 43.275458 ], [ 3.487090410715143, 43.275219517914792 ], [ 3.488719383075247, 43.27598511593834 ], [ 3.491933948828124, 43.275658297498019 ] ] ], [ [ [ 3.445608, 43.282718 ], [ 3.442712990292118, 43.2840430431256 ], [ 3.442743917254859, 43.284048547378021 ], [ 3.444895, 43.283101 ], [ 3.445308, 43.283042 ], [ 3.445809, 43.283021 ], [ 3.450641269294784, 43.282764767635477 ], [ 3.455554, 43.28069 ], [ 3.456509508939999, 43.280225443167289 ], [ 3.456568, 43.280195 ], [ 3.456592112566941, 43.280185282287881 ], [ 3.456821, 43.280074 ], [ 3.456920253740817, 43.2800530366641 ], [ 3.458094, 43.27958 ], [ 3.449477, 43.281331 ], [ 3.448905, 43.281408 ], [ 3.447687, 43.281739 ], [ 3.446975, 43.282051 ], [ 3.445608, 43.282718 ] ] ], [ [ [ 3.399027742085199, 43.286734195932354 ], [ 3.392853323004995, 43.285604683938935 ], [ 3.393019, 43.285654 ], [ 3.393110565097125, 43.285691840196478 ], [ 3.397493, 43.286762 ], [ 3.399027742085199, 43.286734195932354 ] ] ], [ [ [ 3.386670138862481, 43.284200803751936 ], [ 3.389071560090535, 43.284337196259877 ], [ 3.385653, 43.28362 ], [ 3.385465121249969, 43.2836046635191 ], [ 3.386670138862481, 43.284200803751936 ] ] ] ] } },
{ "type": "Feature", "properties": { "codgeo": "34031", "value": 1140, "isochrone_group": 19.0, "nb_agences": 1 }, "geometry": { "type": "MultiPolygon", "coordinates": [ [ [ [ 3.521224668811076, 43.298486032624332 ], [ 3.521144, 43.298509 ], [ 3.519705, 43.299197 ], [ 3.521224668811076, 43.298486032624332 ] ] ], [ [ [ 3.522746, 43.285424 ], [ 3.521662, 43.283128 ], [ 3.519433, 43.279658 ], [ 3.519132, 43.279174 ], [ 3.516348, 43.276436 ], [ 3.51597, 43.276166 ], [ 3.515377, 43.275803 ], [ 3.513801, 43.275473 ], [ 3.513288462711176, 43.275401937186452 ], [ 3.513396, 43.275484 ], [ 3.515595050625093, 43.277361511118571 ], [ 3.515622, 43.277342 ], [ 3.515642, 43.277359 ], [ 3.515835431292299, 43.277566743945052 ], [ 3.519688, 43.280856 ], [ 3.522085, 43.285008 ], [ 3.524065, 43.289215 ], [ 3.524102, 43.289431 ], [ 3.524174638113714, 43.289908777744934 ], [ 3.524373, 43.289556 ], [ 3.524422, 43.289346 ], [ 3.522746, 43.285424 ] ] ], [ [ [ 3.490071, 43.275458 ], [ 3.491886, 43.27564 ], [ 3.491933948828124, 43.275658297498019 ], [ 3.492409, 43.27561 ], [ 3.496109, 43.276051 ], [ 3.496970200873996, 43.275747467854892 ], [ 3.496163, 43.275645 ], [ 3.49181, 43.274505 ], [ 3.491742, 43.274534 ], [ 3.489157801873221, 43.275384933444137 ], [ 3.490071, 43.275458 ] ] ], [ [ [ 3.444781, 43.280975 ], [ 3.443036, 43.282967 ], [ 3.441989730019908, 43.284122636180101 ], [ 3.442319781156679, 43.284223014564176 ], [ 3.445608, 43.282718 ], [ 3.446975, 43.282051 ], [ 3.447687, 43.281739 ], [ 3.448905, 43.281408 ], [ 3.449477, 43.281331 ], [ 3.45153548414839, 43.28091270990555 ], [ 3.445467, 43.280956 ], [ 3.444781, 43.280975 ] ] ], [ [ [ 3.431131, 43.290351 ], [ 3.429863852988734, 43.290278722903743 ], [ 3.434910633268462, 43.291156092556356 ], [ 3.434893499059796, 43.291106373515547 ], [ 3.431131, 43.290351 ] ] ], [ [ [ 3.406359211488584, 43.288477715789035 ], [ 3.406604279441809, 43.288529016058348 ], [ 3.406744911077281, 43.288326501649706 ], [ 3.40574658693221, 43.288063956881579 ], [ 3.406359211488584, 43.288477715789035 ] ] ], [ [ [ 3.385483460797143, 43.283606160570329 ], [ 3.382764, 43.282254 ], [ 3.382358, 43.282274 ], [ 3.38218300483068, 43.28228190744381 ], [ 3.385068755230554, 43.28357230829058 ], [ 3.385483460797143, 43.283606160570329 ] ] ] ] } },
{ "type": "Feature", "properties": { "codgeo": "34031", "value": 1200, "isochrone_group": 20.0, "nb_agences": 1 }, "geometry": { "type": "MultiPolygon", "coordinates": [ [ [ [ 3.552824, 43.31429 ], [ 3.545953, 43.309707 ], [ 3.548661923219406, 43.312545270860426 ], [ 3.552899, 43.315257 ], [ 3.553760953116333, 43.315774766576553 ], [ 3.553273, 43.314729 ], [ 3.552824, 43.31429 ] ] ], [ [ [ 3.519705, 43.299197 ], [ 3.52305, 43.298868 ], [ 3.523113, 43.298879 ], [ 3.523199, 43.298882 ], [ 3.523364, 43.298862 ], [ 3.523626965426789, 43.297802070035438 ], [ 3.521224668811076, 43.298486032624332 ], [ 3.520217546766958, 43.298957208259111 ], [ 3.520217, 43.298958 ], [ 3.519705, 43.299197 ] ] ], [ [ [ 3.524422, 43.289346 ], [ 3.524373, 43.289556 ], [ 3.524174638113714, 43.289908777744934 ], [ 3.524431, 43.291595 ], [ 3.524320404816259, 43.29504328570173 ], [ 3.525693, 43.290162 ], [ 3.525325, 43.2893 ], [ 3.523198648343961, 43.286483240337105 ], [ 3.524422, 43.289346 ] ] ], [ [ [ 3.514253475141598, 43.275567744160369 ], [ 3.512959, 43.273905 ], [ 3.512784, 43.273668 ], [ 3.511697880701985, 43.274188147660496 ], [ 3.513288462711176, 43.275401937186452 ], [ 3.513801, 43.275473 ], [ 3.514253475141598, 43.275567744160369 ] ] ], [ [ [ 3.38112079853671, 43.282329904977708 ], [ 3.37776, 43.280421 ], [ 3.377634, 43.280398 ], [ 3.376801, 43.280441 ], [ 3.375020900692544, 43.280988085976773 ], [ 3.376165, 43.281275 ], [ 3.377713766164759, 43.281985987990666 ], [ 3.380322, 43.282366 ], [ 3.38112079853671, 43.282329904977708 ] ] ] ] } }
]
}
