{
"type": "FeatureCollection",
"name": "Credit_Agricole",
"crs": { "type": "name", "properties": { "name": "urn:ogc:def:crs:OGC:1.3:CRS84" } },
"features": [
{ "type": "Feature", "properties": { "codgeo": "34169", "value": 60, "isochrone_group": 1.0, "nb_agences": 1 }, "geometry": { "type": "Polygon", "coordinates": [ [ [ 3.859812, 43.66876 ], [ 3.859996, 43.66845 ], [ 3.862644, 43.664763 ], [ 3.863291, 43.663819 ], [ 3.863615, 43.663663 ], [ 3.863689, 43.663816 ], [ 3.863717, 43.663925 ], [ 3.86373, 43.664083 ], [ 3.864465, 43.669201 ], [ 3.866612, 43.673006 ], [ 3.866533, 43.673357 ], [ 3.862174, 43.674049 ], [ 3.861815, 43.674064 ], [ 3.859676, 43.673746 ], [ 3.859351, 43.673592 ], [ 3.859812, 43.66876 ] ] ] } },
{ "type": "Feature", "properties": { "codgeo": "34169", "value": 120, "isochrone_group": 2.0, "nb_agences": 1 }, "geometry": { "type": "Polygon", "coordinates": [ [ [ 3.863973, 43.662943 ], [ 3.863917, 43.657155 ], [ 3.864025, 43.656841 ], [ 3.863684, 43.656724 ], [ 3.863577, 43.657038 ], [ 3.863469, 43.657352 ], [ 3.863415, 43.65752 ], [ 3.86333, 43.657883 ], [ 3.86024, 43.662739 ], [ 3.8571, 43.667808 ], [ 3.855608, 43.673144 ], [ 3.855895, 43.677475 ], [ 3.856048, 43.677613 ], [ 3.861249, 43.67813 ], [ 3.861561, 43.677949 ], [ 3.862746, 43.676169 ], [ 3.86739, 43.675424 ], [ 3.867554, 43.675435 ], [ 3.868459, 43.674516 ], [ 3.869118, 43.672702 ], [ 3.868616, 43.669018 ], [ 3.868256, 43.669011 ], [ 3.864174784057197, 43.667180149394206 ], [ 3.864465, 43.669201 ], [ 3.866612, 43.673006 ], [ 3.866533, 43.673357 ], [ 3.862174, 43.674049 ], [ 3.861815, 43.674064 ], [ 3.859676, 43.673746 ], [ 3.859351, 43.673592 ], [ 3.859812, 43.66876 ], [ 3.859996, 43.66845 ], [ 3.862644, 43.664763 ], [ 3.863291, 43.663819 ], [ 3.863615, 43.663663 ], [ 3.863682498863586, 43.663802558461192 ], [ 3.863973, 43.662943 ] ] ] } },
{ "type": "Feature", "properties": { "codgeo": "34169", "value": 180, "isochrone_group": 3.0, "nb_agences": 1 }, "geometry": { "type": "Polygon", "coordinates": [ [ [ 3.853125, 43.677055 ], [ 3.856565, 43.682538 ], [ 3.856922, 43.682583 ], [ 3.865636, 43.680944 ], [ 3.871963, 43.677532 ], [ 3.87222, 43.677279 ], [ 3.871783, 43.67677 ], [ 3.868612, 43.668971 ], [ 3.868551, 43.668708 ], [ 3.868458, 43.668465 ], [ 3.866487, 43.661231 ], [ 3.865065, 43.65413 ], [ 3.865803, 43.652221 ], [ 3.866139, 43.651428 ], [ 3.866121, 43.651243 ], [ 3.866096, 43.651209 ], [ 3.865828, 43.651246 ], [ 3.862701, 43.654391 ], [ 3.86166, 43.655589 ], [ 3.861413, 43.65602 ], [ 3.859059, 43.66135 ], [ 3.855432, 43.665947 ], [ 3.85455, 43.667158 ], [ 3.854406, 43.667488 ], [ 3.854727, 43.672142 ], [ 3.853125, 43.677055 ] ], [ [ 3.8571, 43.667808 ], [ 3.86024, 43.662739 ], [ 3.86333, 43.657883 ], [ 3.863415, 43.65752 ], [ 3.863469, 43.657352 ], [ 3.863577, 43.657038 ], [ 3.863684, 43.656724 ], [ 3.864025, 43.656841 ], [ 3.863917, 43.657155 ], [ 3.863973, 43.662943 ], [ 3.863365, 43.664742 ], [ 3.863635, 43.666938 ], [ 3.868256, 43.669011 ], [ 3.868616, 43.669018 ], [ 3.869118, 43.672702 ], [ 3.868459, 43.674516 ], [ 3.867554, 43.675435 ], [ 3.86739, 43.675424 ], [ 3.862746, 43.676169 ], [ 3.861561, 43.677949 ], [ 3.861249, 43.67813 ], [ 3.856048, 43.677613 ], [ 3.855895, 43.677475 ], [ 3.855608, 43.673144 ], [ 3.8571, 43.667808 ] ] ] } },
{ "type": "Feature", "properties": { "codgeo": "34169", "value": 240, "isochrone_group": 4.0, "nb_agences": 1 }, "geometry": { "type": "Polygon", "coordinates": [ [ [ 3.869981, 43.660406 ], [ 3.87016, 43.660094 ], [ 3.873169, 43.655138 ], [ 3.873077, 43.65479 ], [ 3.870593, 43.651629 ], [ 3.86508, 43.648797 ], [ 3.858954, 43.649933 ], [ 3.85888, 43.650285 ], [ 3.859948, 43.654233 ], [ 3.858262, 43.660949 ], [ 3.854327, 43.664325 ], [ 3.854009, 43.664495 ], [ 3.851725, 43.666083 ], [ 3.851617, 43.666256 ], [ 3.851607, 43.666423 ], [ 3.851204, 43.675229 ], [ 3.851073, 43.675564 ], [ 3.850899, 43.682246 ], [ 3.850893, 43.682606 ], [ 3.854824, 43.688722 ], [ 3.855078, 43.688977 ], [ 3.8584, 43.686894 ], [ 3.863809, 43.684457 ], [ 3.864942, 43.682495 ], [ 3.870645, 43.679827 ], [ 3.873887, 43.680804 ], [ 3.874234, 43.680709 ], [ 3.873872, 43.679151 ], [ 3.872748, 43.675305 ], [ 3.872481, 43.675063 ], [ 3.868612, 43.668971 ], [ 3.869981, 43.660406 ] ], [ [ 3.871783, 43.67677 ], [ 3.87222, 43.677279 ], [ 3.871963, 43.677532 ], [ 3.865636, 43.680944 ], [ 3.856922, 43.682583 ], [ 3.856565, 43.682538 ], [ 3.853125, 43.677055 ], [ 3.854727, 43.672142 ], [ 3.854406, 43.667488 ], [ 3.85455, 43.667158 ], [ 3.855432, 43.665947 ], [ 3.859059, 43.66135 ], [ 3.861413, 43.65602 ], [ 3.86166, 43.655589 ], [ 3.862701, 43.654391 ], [ 3.865828, 43.651246 ], [ 3.866096, 43.651209 ], [ 3.866121, 43.651243 ], [ 3.866139, 43.651428 ], [ 3.865803, 43.652221 ], [ 3.865065, 43.65413 ], [ 3.866487, 43.661231 ], [ 3.868458, 43.668465 ], [ 3.868551, 43.668708 ], [ 3.868612, 43.668971 ], [ 3.871783, 43.67677 ] ] ] } },
{ "type": "Feature", "properties": { "codgeo": "34169", "value": 300, "isochrone_group": 5.0, "nb_agences": 1 }, "geometry": { "type": "MultiPolygon", "coordinates": [ [ [ [ 3.874691, 43.66341 ], [ 3.877103, 43.655001 ], [ 3.878375, 43.654971 ], [ 3.878718, 43.654935 ], [ 3.879005, 43.654877 ], [ 3.879202, 43.654818 ], [ 3.879398, 43.654759 ], [ 3.879294, 43.654414 ], [ 3.870952, 43.651773 ], [ 3.865904, 43.648654 ], [ 3.862652, 43.645561 ], [ 3.862552, 43.645508 ], [ 3.862358, 43.645497 ], [ 3.862202, 43.645582 ], [ 3.860300284116126, 43.645559121565803 ], [ 3.861438971846938, 43.649472189027399 ], [ 3.86508, 43.648797 ], [ 3.870593, 43.651629 ], [ 3.873077, 43.65479 ], [ 3.873169, 43.655138 ], [ 3.87016, 43.660094 ], [ 3.869981, 43.660406 ], [ 3.868612, 43.668971 ], [ 3.874488, 43.663707 ], [ 3.874691, 43.66341 ] ] ], [ [ [ 3.853395, 43.655802 ], [ 3.850949, 43.66367 ], [ 3.848974, 43.664752 ], [ 3.848818, 43.665077 ], [ 3.848855, 43.665835 ], [ 3.848125, 43.674148 ], [ 3.847285, 43.681548 ], [ 3.8486, 43.683634 ], [ 3.851335, 43.691855 ], [ 3.851496, 43.692177 ], [ 3.853479, 43.694706 ], [ 3.85383, 43.694626 ], [ 3.858806, 43.690479 ], [ 3.864478, 43.687276 ], [ 3.865075, 43.686913 ], [ 3.867098, 43.685591 ], [ 3.875265, 43.683653 ], [ 3.876235, 43.684207 ], [ 3.876705, 43.684293 ], [ 3.877155, 43.684252 ], [ 3.877535, 43.681231 ], [ 3.874586, 43.675037 ], [ 3.874508, 43.674795 ], [ 3.874192, 43.674624 ], [ 3.87389, 43.674451 ], [ 3.868612, 43.668971 ], [ 3.872481, 43.675063 ], [ 3.872748, 43.675305 ], [ 3.873872, 43.679151 ], [ 3.874234, 43.680709 ], [ 3.873887, 43.680804 ], [ 3.870645, 43.679827 ], [ 3.864942, 43.682495 ], [ 3.863809, 43.684457 ], [ 3.8584, 43.686894 ], [ 3.855078, 43.688977 ], [ 3.854824, 43.688722 ], [ 3.850893, 43.682606 ], [ 3.850899, 43.682246 ], [ 3.851073, 43.675564 ], [ 3.851204, 43.675229 ], [ 3.851607, 43.666423 ], [ 3.851617, 43.666256 ], [ 3.851725, 43.666083 ], [ 3.854009, 43.664495 ], [ 3.854327, 43.664325 ], [ 3.858262, 43.660949 ], [ 3.859948, 43.654233 ], [ 3.85888, 43.650285 ], [ 3.858892876965346, 43.650223747408106 ], [ 3.858125, 43.650036 ], [ 3.857361, 43.649848 ], [ 3.857096, 43.649762 ], [ 3.856845, 43.64968 ], [ 3.856487, 43.649507 ], [ 3.856151, 43.649344 ], [ 3.854859, 43.648143 ], [ 3.853734050933391, 43.647275249981341 ], [ 3.853395, 43.655802 ] ] ] ] } },
{ "type": "Feature", "properties": { "codgeo": "34169", "value": 360, "isochrone_group": 6.0, "nb_agences": 1 }, "geometry": { "type": "Polygon", "coordinates": [ [ [ 3.851559, 43.699866 ], [ 3.851636, 43.701197 ], [ 3.8518, 43.701661 ], [ 3.852533, 43.702922 ], [ 3.853089, 43.703331 ], [ 3.853149, 43.70336 ], [ 3.854989, 43.702714 ], [ 3.855474, 43.70018 ], [ 3.855607, 43.699709 ], [ 3.85559, 43.698294 ], [ 3.855545, 43.696806 ], [ 3.862659, 43.692316 ], [ 3.863027, 43.692336 ], [ 3.869159, 43.689645 ], [ 3.870238, 43.68921 ], [ 3.877411, 43.684845 ], [ 3.880633, 43.683238 ], [ 3.880498, 43.68248 ], [ 3.879817, 43.68099 ], [ 3.879583, 43.680659 ], [ 3.878926, 43.680093 ], [ 3.876185, 43.674774 ], [ 3.879253, 43.667066 ], [ 3.87917, 43.666498 ], [ 3.879089, 43.66555 ], [ 3.878845, 43.664306 ], [ 3.880528, 43.6561 ], [ 3.883541, 43.655341 ], [ 3.884556, 43.655398 ], [ 3.88518, 43.653342 ], [ 3.885731, 43.650045 ], [ 3.884487, 43.648693 ], [ 3.883161, 43.64792 ], [ 3.88288, 43.648138 ], [ 3.879777, 43.65045 ], [ 3.871668, 43.65032 ], [ 3.866032, 43.646184 ], [ 3.866284842519762, 43.643839638916511 ], [ 3.865791, 43.643756 ], [ 3.863214526657523, 43.64329631107605 ], [ 3.863205, 43.643881 ], [ 3.868604, 43.649298 ], [ 3.868448243160815, 43.650226007610662 ], [ 3.870952, 43.651773 ], [ 3.879294, 43.654414 ], [ 3.879398, 43.654759 ], [ 3.879202, 43.654818 ], [ 3.879005, 43.654877 ], [ 3.878718, 43.654935 ], [ 3.878375, 43.654971 ], [ 3.877103, 43.655001 ], [ 3.874691, 43.66341 ], [ 3.874488, 43.663707 ], [ 3.868612, 43.668971 ], [ 3.87389, 43.674451 ], [ 3.874192, 43.674624 ], [ 3.874508, 43.674795 ], [ 3.874586, 43.675037 ], [ 3.877535, 43.681231 ], [ 3.877155, 43.684252 ], [ 3.876705, 43.684293 ], [ 3.876235, 43.684207 ], [ 3.875265, 43.683653 ], [ 3.867098, 43.685591 ], [ 3.865075, 43.686913 ], [ 3.864478, 43.687276 ], [ 3.858806, 43.690479 ], [ 3.85383, 43.694626 ], [ 3.853479, 43.694706 ], [ 3.851496, 43.692177 ], [ 3.851335, 43.691855 ], [ 3.8486, 43.683634 ], [ 3.847285, 43.681548 ], [ 3.848125, 43.674148 ], [ 3.848855, 43.665835 ], [ 3.848818, 43.665077 ], [ 3.848974, 43.664752 ], [ 3.850949, 43.66367 ], [ 3.853395, 43.655802 ], [ 3.853583750345847, 43.651055140880949 ], [ 3.851358064162038, 43.651360895970164 ], [ 3.852117, 43.656736 ], [ 3.850159, 43.657833 ], [ 3.849423, 43.658207 ], [ 3.847002, 43.659373 ], [ 3.846486, 43.659872 ], [ 3.845188, 43.663937 ], [ 3.844929, 43.666475 ], [ 3.845036, 43.671911 ], [ 3.844143, 43.676684 ], [ 3.843841, 43.679949 ], [ 3.843932, 43.680817 ], [ 3.844823, 43.684842 ], [ 3.848978, 43.692523 ], [ 3.851559, 43.699866 ] ] ] } },
{ "type": "Feature", "properties": { "codgeo": "34169", "value": 420, "isochrone_group": 7.0, "nb_agences": 1 }, "geometry": { "type": "MultiPolygon", "coordinates": [ [ [ [ 3.87136, 43.645726 ], [ 3.871182, 43.644589 ], [ 3.871177, 43.644555 ], [ 3.869972370547674, 43.642813377277733 ], [ 3.867923857811038, 43.64339462044677 ], [ 3.871668, 43.65032 ], [ 3.879777, 43.65045 ], [ 3.88288, 43.648138 ], [ 3.883161, 43.64792 ], [ 3.88347924614787, 43.648105523583936 ], [ 3.885224, 43.645902 ], [ 3.881, 43.648127 ], [ 3.880471, 43.648374 ], [ 3.880017, 43.648671 ], [ 3.879513, 43.649288 ], [ 3.87136, 43.645726 ] ] ], [ [ [ 3.849423, 43.658207 ], [ 3.850159, 43.657833 ], [ 3.852117, 43.656736 ], [ 3.851568210488004, 43.652849240975179 ], [ 3.850234871450717, 43.653276288281653 ], [ 3.848673509451063, 43.658567969012822 ], [ 3.849423, 43.658207 ] ] ], [ [ [ 3.839888, 43.670627 ], [ 3.840305, 43.676413 ], [ 3.840675, 43.681722 ], [ 3.84078427082982, 43.683341102760103 ], [ 3.841347, 43.683973 ], [ 3.84088997402915, 43.684907342735343 ], [ 3.840998, 43.686508 ], [ 3.841117, 43.687324 ], [ 3.841143, 43.687393 ], [ 3.842813, 43.688387 ], [ 3.846667, 43.694487 ], [ 3.844482, 43.702825 ], [ 3.843108, 43.702959 ], [ 3.843459, 43.706542 ], [ 3.851316, 43.708531 ], [ 3.854867, 43.709123 ], [ 3.855087, 43.707804 ], [ 3.85512, 43.707471 ], [ 3.855258, 43.706492 ], [ 3.855504, 43.705281 ], [ 3.855593, 43.704784 ], [ 3.855682, 43.702977 ], [ 3.855661, 43.702464 ], [ 3.855529, 43.70187 ], [ 3.862055, 43.695833 ], [ 3.862188, 43.695835 ], [ 3.862754, 43.695754 ], [ 3.86342, 43.695405 ], [ 3.868196, 43.692001 ], [ 3.873245, 43.690769 ], [ 3.873417, 43.690701 ], [ 3.8762647706139, 43.68554251725503 ], [ 3.870238, 43.68921 ], [ 3.869159, 43.689645 ], [ 3.863027, 43.692336 ], [ 3.862659, 43.692316 ], [ 3.855545, 43.696806 ], [ 3.85559, 43.698294 ], [ 3.855607, 43.699709 ], [ 3.855474, 43.70018 ], [ 3.854989, 43.702714 ], [ 3.853149, 43.70336 ], [ 3.853089, 43.703331 ], [ 3.852533, 43.702922 ], [ 3.8518, 43.701661 ], [ 3.851636, 43.701197 ], [ 3.851559, 43.699866 ], [ 3.848978, 43.692523 ], [ 3.844823, 43.684842 ], [ 3.843932, 43.680817 ], [ 3.843841, 43.679949 ], [ 3.844143, 43.676684 ], [ 3.845036, 43.671911 ], [ 3.844929, 43.666475 ], [ 3.845188, 43.663937 ], [ 3.846348110482705, 43.66030383427411 ], [ 3.843463364422817, 43.661229703436355 ], [ 3.84379, 43.66183 ], [ 3.844033, 43.661957 ], [ 3.842677, 43.665123 ], [ 3.841039642032688, 43.665828757744507 ], [ 3.839888, 43.670627 ] ] ], [ [ [ 3.882576, 43.66821 ], [ 3.882, 43.667777 ], [ 3.879143, 43.663832 ], [ 3.881686, 43.657571 ], [ 3.884169074820361, 43.656762456839871 ], [ 3.882961788193999, 43.655486908317535 ], [ 3.880528, 43.6561 ], [ 3.878845, 43.664306 ], [ 3.879089, 43.66555 ], [ 3.87917, 43.666498 ], [ 3.879253, 43.667066 ], [ 3.876185, 43.674774 ], [ 3.876584931216085, 43.675550079583495 ], [ 3.880404, 43.670995 ], [ 3.882649, 43.66829 ], [ 3.882576, 43.66821 ] ] ], [ [ [ 3.886354, 43.645558 ], [ 3.887219211873949, 43.644977016717426 ], [ 3.885224, 43.645902 ], [ 3.886354, 43.645558 ] ] ] ] } },
{ "type": "Feature", "properties": { "codgeo": "34169", "value": 480, "isochrone_group": 8.0, "nb_agences": 1 }, "geometry": { "type": "MultiPolygon", "coordinates": [ [ [ [ 3.871182, 43.644589 ], [ 3.871245688456431, 43.644995818960474 ], [ 3.871507, 43.645653 ], [ 3.871559994453757, 43.645813376455827 ], [ 3.879513, 43.649288 ], [ 3.880017, 43.648671 ], [ 3.880471, 43.648374 ], [ 3.881, 43.648127 ], [ 3.885224, 43.645902 ], [ 3.882377, 43.646927 ], [ 3.874935, 43.643468 ], [ 3.873843785933087, 43.642778172966054 ], [ 3.873167, 43.643096 ], [ 3.870919246398238, 43.644174839036573 ], [ 3.870926268127228, 43.644192498214942 ], [ 3.871177, 43.644555 ], [ 3.871182, 43.644589 ] ] ], [ [ [ 3.839949, 43.68928 ], [ 3.844398, 43.691087 ], [ 3.846224, 43.695587 ], [ 3.840552, 43.700442 ], [ 3.83941, 43.700635 ], [ 3.839053, 43.700896 ], [ 3.836345980990609, 43.702195884858789 ], [ 3.837659, 43.702469 ], [ 3.838396, 43.702536 ], [ 3.840025, 43.702707 ], [ 3.840805, 43.702811 ], [ 3.841168, 43.702895 ], [ 3.84035, 43.706401 ], [ 3.840262666172395, 43.70650863354863 ], [ 3.841, 43.706626 ], [ 3.84153, 43.706746 ], [ 3.842043, 43.706791 ], [ 3.846361, 43.708739 ], [ 3.845977, 43.714911 ], [ 3.846041, 43.717167 ], [ 3.846052, 43.717181 ], [ 3.847729, 43.717793 ], [ 3.848184, 43.717755 ], [ 3.848537, 43.717705 ], [ 3.848859, 43.717646 ], [ 3.849357, 43.717508 ], [ 3.849798, 43.717319 ], [ 3.850299, 43.716974 ], [ 3.850657, 43.716651 ], [ 3.852565, 43.7149 ], [ 3.854271, 43.713036 ], [ 3.854978, 43.709506 ], [ 3.855087, 43.707804 ], [ 3.854867, 43.709123 ], [ 3.851316, 43.708531 ], [ 3.843459, 43.706542 ], [ 3.843108, 43.702959 ], [ 3.844482, 43.702825 ], [ 3.846667, 43.694487 ], [ 3.842813, 43.688387 ], [ 3.842658432893402, 43.688295000177263 ], [ 3.839927185239032, 43.689274478421503 ], [ 3.839949, 43.68928 ] ] ], [ [ [ 3.849592116041264, 43.655454678953262 ], [ 3.845874, 43.653274 ], [ 3.841615802848284, 43.656463388356038 ], [ 3.84544830536818, 43.660592629818098 ], [ 3.848351, 43.659661 ], [ 3.849592116041264, 43.655454678953262 ] ] ], [ [ [ 3.85512, 43.707471 ], [ 3.855504, 43.705281 ], [ 3.855258, 43.706492 ], [ 3.85512, 43.707471 ] ] ], [ [ [ 3.863883, 43.699117 ], [ 3.864712, 43.698391 ], [ 3.864751, 43.698225 ], [ 3.865586, 43.696229 ], [ 3.873327, 43.69358 ], [ 3.875641, 43.693867 ], [ 3.875716, 43.693818 ], [ 3.875862, 43.693508 ], [ 3.87623, 43.691452 ], [ 3.876975, 43.684256 ], [ 3.873417, 43.690701 ], [ 3.873245, 43.690769 ], [ 3.868196, 43.692001 ], [ 3.86342, 43.695405 ], [ 3.862754, 43.695754 ], [ 3.862188, 43.695835 ], [ 3.862055, 43.695833 ], [ 3.855529, 43.70187 ], [ 3.855661, 43.702464 ], [ 3.855682, 43.702977 ], [ 3.855593, 43.704784 ], [ 3.862577, 43.699373 ], [ 3.862673, 43.699369 ], [ 3.863883, 43.699117 ] ] ], [ [ [ 3.883048, 43.668994 ], [ 3.882634605221216, 43.668307344265749 ], [ 3.880404, 43.670995 ], [ 3.875926, 43.676336 ], [ 3.880687, 43.672111 ], [ 3.883151, 43.669639 ], [ 3.883048, 43.668994 ] ] ], [ [ [ 3.882, 43.667777 ], [ 3.879266611069568, 43.663527663033186 ], [ 3.879143, 43.663832 ], [ 3.882, 43.667777 ] ] ], [ [ [ 3.88165214769917, 43.657654346148455 ], [ 3.879369856212199, 43.663273468051706 ], [ 3.883972058110252, 43.659322654729984 ], [ 3.883731, 43.658297 ], [ 3.88165214769917, 43.657654346148455 ] ] ], [ [ [ 3.886987542256211, 43.645084419107263 ], [ 3.887749000601791, 43.644584691028591 ], [ 3.885224, 43.645902 ], [ 3.886987542256211, 43.645084419107263 ] ] ] ] } },
{ "type": "Feature", "properties": { "codgeo": "34169", "value": 540, "isochrone_group": 9.0, "nb_agences": 1 }, "geometry": { "type": "MultiPolygon", "coordinates": [ [ [ [ 3.882377, 43.646927 ], [ 3.885224, 43.645902 ], [ 3.877043, 43.643813 ], [ 3.876644, 43.643556 ], [ 3.874553931238611, 43.641223994018638 ], [ 3.874885838898575, 43.643436922086138 ], [ 3.874935, 43.643468 ], [ 3.882377, 43.646927 ] ] ], [ [ [ 3.839782, 43.690835 ], [ 3.840492, 43.698607 ], [ 3.838051375171859, 43.699527484647746 ], [ 3.838216, 43.699601 ], [ 3.840288043982618, 43.700486609029205 ], [ 3.840552, 43.700442 ], [ 3.846224, 43.695587 ], [ 3.844398, 43.691087 ], [ 3.840856768641725, 43.689648698119917 ], [ 3.839653218185957, 43.69075893381865 ], [ 3.839782, 43.690835 ] ] ], [ [ [ 3.839935, 43.716481 ], [ 3.839455, 43.716819 ], [ 3.839245, 43.717036 ], [ 3.838729, 43.717652 ], [ 3.837535, 43.718722 ], [ 3.837237, 43.719504 ], [ 3.837346, 43.720485 ], [ 3.837767, 43.721138 ], [ 3.838604, 43.721638 ], [ 3.839346, 43.721735 ], [ 3.839737, 43.721708 ], [ 3.84463, 43.719509 ], [ 3.849357, 43.717508 ], [ 3.848859, 43.717646 ], [ 3.848537, 43.717705 ], [ 3.848184, 43.717755 ], [ 3.847729, 43.717793 ], [ 3.846052, 43.717181 ], [ 3.846041, 43.717167 ], [ 3.845977, 43.714911 ], [ 3.846361, 43.708739 ], [ 3.842043, 43.706791 ], [ 3.841922701816303, 43.706780447527748 ], [ 3.841787, 43.706778 ], [ 3.841664470374882, 43.706757795646908 ], [ 3.84153, 43.706746 ], [ 3.841361316476321, 43.706707807504067 ], [ 3.841223, 43.706685 ], [ 3.841172161660879, 43.706725740160962 ], [ 3.843546, 43.708101 ], [ 3.840519, 43.716288 ], [ 3.839935, 43.716481 ] ] ], [ [ [ 3.86952, 43.698845 ], [ 3.874378, 43.695938 ], [ 3.87563885161878, 43.69522000535931 ], [ 3.873907, 43.695075 ], [ 3.873174326068864, 43.693632245606985 ], [ 3.865586, 43.696229 ], [ 3.864751, 43.698225 ], [ 3.864712, 43.698391 ], [ 3.863883, 43.699117 ], [ 3.862673, 43.699369 ], [ 3.862577, 43.699373 ], [ 3.855593, 43.704784 ], [ 3.855504, 43.705281 ], [ 3.85512, 43.707471 ], [ 3.855087, 43.707804 ], [ 3.862269, 43.70254 ], [ 3.864866, 43.701104 ], [ 3.86952, 43.698845 ] ] ], [ [ [ 3.876433530588502, 43.689486085751859 ], [ 3.8791514129051, 43.688670480566721 ], [ 3.876975, 43.684256 ], [ 3.876433530588502, 43.689486085751859 ] ] ], [ [ [ 3.880687, 43.672111 ], [ 3.883120746212497, 43.669669352014083 ], [ 3.883120746212497, 43.669669352014083 ], [ 3.880687, 43.672111 ] ] ], [ [ [ 3.881181001940176, 43.666503782459458 ], [ 3.881492247113143, 43.661451477093621 ], [ 3.879198, 43.663421 ], [ 3.881181001940176, 43.666503782459458 ] ] ] ] } },
{ "type": "Feature", "properties": { "codgeo": "34169", "value": 600, "isochrone_group": 10.0, "nb_agences": 1 }, "geometry": { "type": "MultiPolygon", "coordinates": [ [ [ [ 3.838729, 43.717652 ], [ 3.839245, 43.717036 ], [ 3.839455, 43.716819 ], [ 3.839935, 43.716481 ], [ 3.840519, 43.716288 ], [ 3.843546, 43.708101 ], [ 3.841172161660879, 43.706725740160962 ], [ 3.834346, 43.712196 ], [ 3.834889240683211, 43.715624254872317 ], [ 3.837535, 43.718722 ], [ 3.838729, 43.717652 ] ] ], [ [ [ 3.839111321045927, 43.693124958430538 ], [ 3.839094840580073, 43.693134921475902 ], [ 3.838290752699997, 43.696098437568942 ], [ 3.838820029274995, 43.696975742050071 ], [ 3.840491584096621, 43.698602447322465 ], [ 3.839960986908724, 43.692794276414936 ], [ 3.839111321045927, 43.693124958430538 ] ] ], [ [ [ 3.84463, 43.719509 ], [ 3.839737, 43.721708 ], [ 3.839346, 43.721735 ], [ 3.838604, 43.721638 ], [ 3.837767, 43.721138 ], [ 3.837346, 43.720485 ], [ 3.837237, 43.719504 ], [ 3.836692763742599, 43.72084101862724 ], [ 3.84232, 43.723631 ], [ 3.842322489402537, 43.723631398533222 ], [ 3.842333, 43.723633 ], [ 3.842346146422682, 43.723635105046895 ], [ 3.84751129782459, 43.718289309509849 ], [ 3.84463, 43.719509 ] ] ], [ [ [ 3.869552, 43.700338 ], [ 3.875299, 43.697575 ], [ 3.876636226599783, 43.696676359188686 ], [ 3.875744, 43.696519 ], [ 3.874905, 43.696468 ], [ 3.873189352624967, 43.696649279933958 ], [ 3.86952, 43.698845 ], [ 3.86744259725827, 43.699853348258195 ], [ 3.868487434855664, 43.701494279100224 ], [ 3.869552, 43.700338 ] ] ], [ [ [ 3.862269, 43.70254 ], [ 3.856136271489538, 43.707034943313715 ], [ 3.863347, 43.703941 ], [ 3.863375842844853, 43.703950290724066 ], [ 3.863376, 43.70395 ], [ 3.86419111351811, 43.701477175582589 ], [ 3.862269, 43.70254 ] ] ], [ [ [ 3.876975, 43.684256 ], [ 3.878921332795919, 43.688203802498244 ], [ 3.882592, 43.687638 ], [ 3.8829, 43.687437 ], [ 3.883949065386879, 43.686708232449924 ], [ 3.876975, 43.684256 ] ] ], [ [ [ 3.883120746212497, 43.669669352014083 ], [ 3.883120746212497, 43.669669352014083 ], [ 3.880687, 43.672111 ], [ 3.883120746212497, 43.669669352014083 ] ] ] ] } },
{ "type": "Feature", "properties": { "codgeo": "34169", "value": 660, "isochrone_group": 11.0, "nb_agences": 1 }, "geometry": { "type": "MultiPolygon", "coordinates": [ [ [ [ 3.874683, 43.699592 ], [ 3.875299964549043, 43.698511276863755 ], [ 3.874669835195661, 43.697877485184343 ], [ 3.871862860541522, 43.69922700162239 ], [ 3.871984, 43.699829 ], [ 3.872087, 43.70108 ], [ 3.871708837100993, 43.703874985894544 ], [ 3.874486, 43.699733 ], [ 3.874683, 43.699592 ] ] ], [ [ [ 3.888922862357312, 43.682887330829494 ], [ 3.888664, 43.683002 ], [ 3.887374, 43.683543 ], [ 3.885864, 43.684348 ], [ 3.876975, 43.684256 ], [ 3.883949065386879, 43.686708232449924 ], [ 3.884066, 43.686627 ], [ 3.884608, 43.686257 ], [ 3.887357, 43.684086 ], [ 3.887971, 43.683492 ], [ 3.8884, 43.68316 ], [ 3.888922862357312, 43.682887330829494 ] ] ], [ [ [ 3.880687, 43.672111 ], [ 3.883702700026362, 43.669784076651403 ], [ 3.883120746212497, 43.669669352014083 ], [ 3.880687, 43.672111 ] ] ] ] } },
{ "type": "Feature", "properties": { "codgeo": "34169", "value": 720, "isochrone_group": 12.0, "nb_agences": 1 }, "geometry": { "type": "MultiPolygon", "coordinates": [ [ [ [ 3.855087, 43.707804 ], [ 3.854773, 43.709477 ], [ 3.854334, 43.711055 ], [ 3.854142, 43.713039 ], [ 3.853626105209041, 43.713647801652485 ], [ 3.85383, 43.713574 ], [ 3.855114, 43.712737 ], [ 3.859031, 43.706678 ], [ 3.858949836243345, 43.705827713025521 ], [ 3.85512, 43.707471 ], [ 3.855087, 43.707804 ] ] ], [ [ [ 3.871933238913856, 43.707858123289071 ], [ 3.870959, 43.709417 ], [ 3.87196254844832, 43.710124015692081 ], [ 3.871705, 43.709425 ], [ 3.871933238913856, 43.707858123289071 ] ] ] ] } },
{ "type": "Feature", "properties": { "codgeo": "34169", "value": 840, "isochrone_group": 14.0, "nb_agences": 1 }, "geometry": { "type": "Polygon", "coordinates": [ [ [ 3.792482233523267, 43.715598283005917 ], [ 3.792452, 43.715586 ], [ 3.792598, 43.714653 ], [ 3.793054773409138, 43.713801511747704 ], [ 3.793054443053758, 43.713800977275689 ], [ 3.792401, 43.715017 ], [ 3.792328, 43.715198 ], [ 3.792377, 43.716872 ], [ 3.792381, 43.716892 ], [ 3.792596149485887, 43.716884844880461 ], [ 3.792482233523267, 43.715598283005917 ] ] ] } },
{ "type": "Feature", "properties": { "codgeo": "34169", "value": 900, "isochrone_group": 15.0, "nb_agences": 1 }, "geometry": { "type": "Polygon", "coordinates": [ [ [ 3.80254, 43.731709 ], [ 3.801054540656706, 43.731833092426719 ], [ 3.808598, 43.735489 ], [ 3.810401782973734, 43.735591822346549 ], [ 3.807693, 43.73389 ], [ 3.807665, 43.733871 ], [ 3.80254, 43.731709 ] ] ] } },
{ "type": "Feature", "properties": { "codgeo": "34169", "value": 960, "isochrone_group": 16.0, "nb_agences": 1 }, "geometry": { "type": "Polygon", "coordinates": [ [ [ 3.801478807364415, 43.732038711599472 ], [ 3.79841881243733, 43.732989449276978 ], [ 3.798464, 43.733014 ], [ 3.801746163901429, 43.732168284881944 ], [ 3.801478807364415, 43.732038711599472 ] ] ] } },
{ "type": "Feature", "properties": { "codgeo": "34169", "value": 1020, "isochrone_group": 17.0, "nb_agences": 1 }, "geometry": { "type": "MultiPolygon", "coordinates": [ [ [ [ 3.805283706408396, 43.732728501361109 ], [ 3.803050666623541, 43.731832153687186 ], [ 3.802914876062976, 43.731867142838666 ], [ 3.807665, 43.733871 ], [ 3.805283706408396, 43.732728501361109 ] ] ], [ [ [ 3.810554758092702, 43.735599621717725 ], [ 3.807693, 43.73389 ], [ 3.814133, 43.737936 ], [ 3.810554758092702, 43.735599621717725 ] ] ], [ [ [ 3.820831330604192, 43.740340706640438 ], [ 3.820656365899433, 43.740083773962368 ], [ 3.820147236779652, 43.739797086721083 ], [ 3.815761, 43.739272 ], [ 3.816094, 43.739559 ], [ 3.820831330604192, 43.740340706640438 ] ] ] ] } },
{ "type": "Feature", "properties": { "codgeo": "34169", "value": 1080, "isochrone_group": 18.0, "nb_agences": 1 }, "geometry": { "type": "MultiPolygon", "coordinates": [ [ [ [ 3.845528, 43.75713 ], [ 3.844845994283807, 43.757114110287596 ], [ 3.846983058663538, 43.757659483785758 ], [ 3.846948407164394, 43.757646246546408 ], [ 3.845528, 43.75713 ] ] ], [ [ [ 3.847039068252572, 43.757680880041455 ], [ 3.847003418731578, 43.757667261547205 ], [ 3.847042494498918, 43.757684230776455 ], [ 3.847042010723453, 43.757682048375507 ], [ 3.847039068252572, 43.757680880041455 ] ] ] ] } },
{ "type": "Feature", "properties": { "codgeo": "34169", "value": 1140, "isochrone_group": 19.0, "nb_agences": 1 }, "geometry": { "type": "Polygon", "coordinates": [ [ [ 3.847042494498918, 43.757684230776455 ], [ 3.847003418731578, 43.757667261547205 ], [ 3.846983058663538, 43.757659483785758 ], [ 3.843268643350422, 43.756711574264585 ], [ 3.842353, 43.756542 ], [ 3.838446, 43.756965 ], [ 3.837402857278065, 43.757720876411483 ], [ 3.842703, 43.758588 ], [ 3.847448201916788, 43.759514452271169 ], [ 3.847042494498918, 43.757684230776455 ] ] ] } }
]
}
