{
"type": "FeatureCollection",
"name": "La_Banque_Postale",
"crs": { "type": "name", "properties": { "name": "urn:ogc:def:crs:OGC:1.3:CRS84" } },
"features": [
{ "type": "Feature", "properties": { "codgeo": "46038", "value": 60, "isochrone_group": 1.0, "nb_agences": 1 }, "geometry": { "type": "Polygon", "coordinates": [ [ [ 1.837089, 44.913517 ], [ 1.841328, 44.910108 ], [ 1.843473, 44.909598 ], [ 1.844915, 44.909567 ], [ 1.847114, 44.91181 ], [ 1.847087, 44.912169 ], [ 1.846076, 44.914051 ], [ 1.8458, 44.914283 ], [ 1.840641, 44.916182 ], [ 1.839607, 44.916581 ], [ 1.837919, 44.916897 ], [ 1.837818, 44.916906 ], [ 1.837367, 44.91686 ], [ 1.837089, 44.913517 ] ] ] } },
{ "type": "Feature", "properties": { "codgeo": "46038", "value": 120, "isochrone_group": 2.0, "nb_agences": 1 }, "geometry": { "type": "Polygon", "coordinates": [ [ [ 1.829612, 44.911493 ], [ 1.8299, 44.911608 ], [ 1.830189, 44.911723 ], [ 1.830434, 44.911803 ], [ 1.830668, 44.911879 ], [ 1.830971, 44.911951 ], [ 1.831259, 44.912019 ], [ 1.831537, 44.912103 ], [ 1.833112, 44.917748 ], [ 1.832948, 44.918068 ], [ 1.834184, 44.919424 ], [ 1.834552, 44.919209 ], [ 1.840324, 44.91935 ], [ 1.840624, 44.91915 ], [ 1.843229, 44.917498 ], [ 1.844835, 44.916557 ], [ 1.850246, 44.91778 ], [ 1.850515, 44.918019 ], [ 1.853119, 44.918739 ], [ 1.858723, 44.916899 ], [ 1.858709, 44.916539 ], [ 1.8553, 44.915702 ], [ 1.852346, 44.911948 ], [ 1.852477, 44.909375 ], [ 1.852481, 44.90936 ], [ 1.852455, 44.909193 ], [ 1.850669, 44.904165 ], [ 1.850466, 44.903867 ], [ 1.849703, 44.904204 ], [ 1.848017, 44.905199 ], [ 1.847717, 44.905355 ], [ 1.84742, 44.905542 ], [ 1.847164, 44.905738 ], [ 1.846937, 44.905961 ], [ 1.846754, 44.906204 ], [ 1.846603, 44.90648 ], [ 1.846502, 44.906744 ], [ 1.842136, 44.909506 ], [ 1.839978, 44.907835 ], [ 1.839709, 44.907595 ], [ 1.836751, 44.907429 ], [ 1.832217, 44.911158 ], [ 1.829745, 44.911159 ], [ 1.829612, 44.911493 ] ], [ [ 1.841328, 44.910108 ], [ 1.843473, 44.909598 ], [ 1.844915, 44.909567 ], [ 1.847114, 44.91181 ], [ 1.847087, 44.912169 ], [ 1.846076, 44.914051 ], [ 1.8458, 44.914283 ], [ 1.840641, 44.916182 ], [ 1.839607, 44.916581 ], [ 1.837919, 44.916897 ], [ 1.837818, 44.916906 ], [ 1.837367, 44.91686 ], [ 1.837089, 44.913517 ], [ 1.841328, 44.910108 ] ] ] } },
{ "type": "Feature", "properties": { "codgeo": "46038", "value": 180, "isochrone_group": 3.0, "nb_agences": 1 }, "geometry": { "type": "Polygon", "coordinates": [ [ [ 1.821037, 44.907911 ], [ 1.820857, 44.908223 ], [ 1.822491, 44.909853 ], [ 1.824935, 44.911733 ], [ 1.825191, 44.911986 ], [ 1.832073, 44.917634 ], [ 1.827889, 44.922164 ], [ 1.827708, 44.922283 ], [ 1.82764, 44.922434 ], [ 1.827661, 44.922794 ], [ 1.827891, 44.922865 ], [ 1.833075, 44.921907 ], [ 1.839159, 44.922289 ], [ 1.843191, 44.922668 ], [ 1.848699, 44.919643 ], [ 1.85554, 44.92005 ], [ 1.855683, 44.920078 ], [ 1.855969, 44.920099 ], [ 1.863171, 44.921237 ], [ 1.86335, 44.921276 ], [ 1.863653, 44.921295 ], [ 1.863858, 44.921249 ], [ 1.864078, 44.921116 ], [ 1.864227, 44.920901 ], [ 1.864356, 44.920573 ], [ 1.864904, 44.91914 ], [ 1.864617, 44.918923 ], [ 1.861243, 44.917215 ], [ 1.861506, 44.910317 ], [ 1.861519, 44.909957 ], [ 1.859234, 44.904944 ], [ 1.858506, 44.897782 ], [ 1.858207, 44.897581 ], [ 1.853302, 44.899981 ], [ 1.849514, 44.901291 ], [ 1.846722, 44.903546 ], [ 1.840913, 44.905809 ], [ 1.831942, 44.905473 ], [ 1.831717, 44.905418 ], [ 1.827817, 44.908726 ], [ 1.821704, 44.908296 ], [ 1.821037, 44.907911 ] ], [ [ 1.832217, 44.911158 ], [ 1.836751, 44.907429 ], [ 1.839709, 44.907595 ], [ 1.839978, 44.907835 ], [ 1.842136, 44.909506 ], [ 1.846502, 44.906744 ], [ 1.846603, 44.90648 ], [ 1.846754, 44.906204 ], [ 1.846937, 44.905961 ], [ 1.847164, 44.905738 ], [ 1.84742, 44.905542 ], [ 1.847717, 44.905355 ], [ 1.848017, 44.905199 ], [ 1.849703, 44.904204 ], [ 1.850466, 44.903867 ], [ 1.850669, 44.904165 ], [ 1.852455, 44.909193 ], [ 1.852481, 44.90936 ], [ 1.852477, 44.909375 ], [ 1.852346, 44.911948 ], [ 1.8553, 44.915702 ], [ 1.858709, 44.916539 ], [ 1.858723, 44.916899 ], [ 1.853119, 44.918739 ], [ 1.850515, 44.918019 ], [ 1.850246, 44.91778 ], [ 1.844835, 44.916557 ], [ 1.843229, 44.917498 ], [ 1.840624, 44.91915 ], [ 1.840324, 44.91935 ], [ 1.834552, 44.919209 ], [ 1.834184, 44.919424 ], [ 1.832948, 44.918068 ], [ 1.833112, 44.917748 ], [ 1.831537, 44.912103 ], [ 1.831259, 44.912019 ], [ 1.830971, 44.911951 ], [ 1.830668, 44.911879 ], [ 1.830434, 44.911803 ], [ 1.830189, 44.911723 ], [ 1.8299, 44.911608 ], [ 1.829612, 44.911493 ], [ 1.829745, 44.911159 ], [ 1.832217, 44.911158 ] ] ] } },
{ "type": "Feature", "properties": { "codgeo": "46038", "value": 240, "isochrone_group": 4.0, "nb_agences": 1 }, "geometry": { "type": "Polygon", "coordinates": [ [ [ 1.868656, 44.921906 ], [ 1.869704, 44.921654 ], [ 1.875126, 44.919188 ], [ 1.875189, 44.918833 ], [ 1.874892, 44.91878 ], [ 1.874596, 44.918727 ], [ 1.874404, 44.918714 ], [ 1.874173, 44.918722 ], [ 1.873958, 44.91873 ], [ 1.873747, 44.918756 ], [ 1.873508, 44.918811 ], [ 1.873259, 44.918892 ], [ 1.873026, 44.918968 ], [ 1.872815, 44.91906 ], [ 1.872621, 44.919146 ], [ 1.867276, 44.917929 ], [ 1.868495, 44.910903 ], [ 1.869079, 44.910497 ], [ 1.869168, 44.910149 ], [ 1.869159, 44.910124 ], [ 1.869029, 44.909788 ], [ 1.86523, 44.902197 ], [ 1.864978, 44.90194 ], [ 1.862259, 44.894197 ], [ 1.863473, 44.890431 ], [ 1.863179, 44.890223 ], [ 1.858903, 44.892129 ], [ 1.854654, 44.893694 ], [ 1.854486, 44.894013 ], [ 1.852931, 44.897344 ], [ 1.845152, 44.901762 ], [ 1.841098, 44.903799 ], [ 1.832641, 44.902712 ], [ 1.828649, 44.903142 ], [ 1.821811, 44.90546 ], [ 1.816084, 44.903118 ], [ 1.814059, 44.902708 ], [ 1.813742, 44.90288 ], [ 1.813861, 44.904893 ], [ 1.814025, 44.905214 ], [ 1.820078, 44.910933 ], [ 1.820197, 44.91106 ], [ 1.824258, 44.912545 ], [ 1.821584, 44.921064 ], [ 1.820763, 44.922051 ], [ 1.820726, 44.922123 ], [ 1.820739, 44.92241 ], [ 1.825797, 44.926872 ], [ 1.832456, 44.926224 ], [ 1.838459, 44.92418 ], [ 1.844857, 44.92629 ], [ 1.84516, 44.926096 ], [ 1.85291, 44.922542 ], [ 1.860140244893035, 44.920758105344113 ], [ 1.855969, 44.920099 ], [ 1.855683, 44.920078 ], [ 1.85554, 44.92005 ], [ 1.848699, 44.919643 ], [ 1.843191, 44.922668 ], [ 1.839159, 44.922289 ], [ 1.833075, 44.921907 ], [ 1.827891, 44.922865 ], [ 1.827661, 44.922794 ], [ 1.82764, 44.922434 ], [ 1.827708, 44.922283 ], [ 1.827889, 44.922164 ], [ 1.832073, 44.917634 ], [ 1.825191, 44.911986 ], [ 1.824935, 44.911733 ], [ 1.822491, 44.909853 ], [ 1.820857, 44.908223 ], [ 1.821037, 44.907911 ], [ 1.821704, 44.908296 ], [ 1.827817, 44.908726 ], [ 1.831717, 44.905418 ], [ 1.831942, 44.905473 ], [ 1.840913, 44.905809 ], [ 1.846722, 44.903546 ], [ 1.849514, 44.901291 ], [ 1.853302, 44.899981 ], [ 1.858207, 44.897581 ], [ 1.858506, 44.897782 ], [ 1.859234, 44.904944 ], [ 1.861519, 44.909957 ], [ 1.861506, 44.910317 ], [ 1.861243, 44.917215 ], [ 1.864617, 44.918923 ], [ 1.864904, 44.91914 ], [ 1.864356, 44.920573 ], [ 1.864227, 44.920901 ], [ 1.864078, 44.921116 ], [ 1.863858, 44.921249 ], [ 1.863653, 44.921295 ], [ 1.868656, 44.921906 ] ] ] } },
{ "type": "Feature", "properties": { "codgeo": "46038", "value": 300, "isochrone_group": 5.0, "nb_agences": 1 }, "geometry": { "type": "Polygon", "coordinates": [ [ [ 1.854558, 44.893644 ], [ 1.854209, 44.893421 ], [ 1.853793, 44.893172 ], [ 1.853581, 44.893135 ], [ 1.853258, 44.893114 ], [ 1.850935, 44.893744 ], [ 1.850774, 44.894017 ], [ 1.849703, 44.895989 ], [ 1.842869, 44.90101 ], [ 1.841375, 44.902795 ], [ 1.833151, 44.901917 ], [ 1.832998, 44.901791 ], [ 1.832694, 44.901704 ], [ 1.828709, 44.900328 ], [ 1.827764, 44.899862 ], [ 1.823858, 44.901275 ], [ 1.817592, 44.901594 ], [ 1.81225, 44.89989 ], [ 1.811891, 44.899859 ], [ 1.811506, 44.900457 ], [ 1.810133, 44.905991 ], [ 1.810173, 44.906348 ], [ 1.813592, 44.90694 ], [ 1.817789, 44.910766 ], [ 1.816762, 44.919559 ], [ 1.813105, 44.921521 ], [ 1.813082, 44.92188 ], [ 1.8199, 44.925222 ], [ 1.825067, 44.927687 ], [ 1.827919, 44.930088 ], [ 1.828078, 44.930201 ], [ 1.828333, 44.930365 ], [ 1.828565, 44.930089 ], [ 1.835592, 44.926508 ], [ 1.839943, 44.927572 ], [ 1.846417, 44.930358 ], [ 1.846445, 44.930377 ], [ 1.848094, 44.931263 ], [ 1.85294, 44.929178 ], [ 1.853101, 44.928856 ], [ 1.860885, 44.924655 ], [ 1.861216, 44.924758 ], [ 1.861747, 44.924886 ], [ 1.862612, 44.925125 ], [ 1.869726, 44.923848 ], [ 1.876794, 44.922017 ], [ 1.87912, 44.92352 ], [ 1.87969, 44.923386 ], [ 1.885309, 44.921775 ], [ 1.886326, 44.92128 ], [ 1.886435, 44.921194 ], [ 1.886212, 44.920912 ], [ 1.880648, 44.917282 ], [ 1.88036, 44.917067 ], [ 1.874789, 44.910878 ], [ 1.875996, 44.908181 ], [ 1.87614, 44.907852 ], [ 1.875562, 44.907175 ], [ 1.871033, 44.904675 ], [ 1.869005, 44.898983 ], [ 1.867076, 44.892001 ], [ 1.86697, 44.889884 ], [ 1.866928, 44.889527 ], [ 1.865366, 44.884509 ], [ 1.865195, 44.884356 ], [ 1.865091, 44.884421 ], [ 1.865006, 44.884519 ], [ 1.862435, 44.889077 ], [ 1.85733341709297, 44.892707111849731 ], [ 1.858903, 44.892129 ], [ 1.863179, 44.890223 ], [ 1.863473, 44.890431 ], [ 1.862259, 44.894197 ], [ 1.864978, 44.90194 ], [ 1.86523, 44.902197 ], [ 1.869029, 44.909788 ], [ 1.869159, 44.910124 ], [ 1.869168, 44.910149 ], [ 1.869079, 44.910497 ], [ 1.868495, 44.910903 ], [ 1.867276, 44.917929 ], [ 1.872621, 44.919146 ], [ 1.872815, 44.91906 ], [ 1.873026, 44.918968 ], [ 1.873259, 44.918892 ], [ 1.873508, 44.918811 ], [ 1.873747, 44.918756 ], [ 1.873958, 44.91873 ], [ 1.874173, 44.918722 ], [ 1.874404, 44.918714 ], [ 1.874596, 44.918727 ], [ 1.874892, 44.91878 ], [ 1.875189, 44.918833 ], [ 1.875126, 44.919188 ], [ 1.869704, 44.921654 ], [ 1.868656, 44.921906 ], [ 1.863653, 44.921295 ], [ 1.86335, 44.921276 ], [ 1.863171, 44.921237 ], [ 1.861235, 44.920488 ], [ 1.85291, 44.922542 ], [ 1.84516, 44.926096 ], [ 1.844857, 44.92629 ], [ 1.838459, 44.92418 ], [ 1.832456, 44.926224 ], [ 1.825797, 44.926872 ], [ 1.820739, 44.92241 ], [ 1.820726, 44.922123 ], [ 1.820763, 44.922051 ], [ 1.821584, 44.921064 ], [ 1.824258, 44.912545 ], [ 1.820197, 44.91106 ], [ 1.820078, 44.910933 ], [ 1.814025, 44.905214 ], [ 1.813861, 44.904893 ], [ 1.813742, 44.90288 ], [ 1.814059, 44.902708 ], [ 1.816084, 44.903118 ], [ 1.821811, 44.90546 ], [ 1.828649, 44.903142 ], [ 1.832641, 44.902712 ], [ 1.841098, 44.903799 ], [ 1.845152, 44.901762 ], [ 1.852931, 44.897344 ], [ 1.854486, 44.894013 ], [ 1.854653810235597, 44.893694360326457 ], [ 1.854558, 44.893644 ] ] ] } },
{ "type": "Feature", "properties": { "codgeo": "46038", "value": 360, "isochrone_group": 6.0, "nb_agences": 1 }, "geometry": { "type": "Polygon", "coordinates": [ [ [ 1.814769, 44.917031 ], [ 1.812859, 44.917606 ], [ 1.80772, 44.918016 ], [ 1.804432, 44.919249 ], [ 1.804243, 44.920571 ], [ 1.803938, 44.922814 ], [ 1.805655, 44.923052 ], [ 1.807965, 44.923178 ], [ 1.809768, 44.923289 ], [ 1.812898, 44.923492 ], [ 1.816032, 44.923694 ], [ 1.823594, 44.928421 ], [ 1.824197, 44.929054 ], [ 1.827252, 44.931845 ], [ 1.827767, 44.932254 ], [ 1.828301, 44.932481 ], [ 1.831609, 44.93355 ], [ 1.834607, 44.933489 ], [ 1.834775, 44.93297 ], [ 1.842715, 44.930275 ], [ 1.844364, 44.932837 ], [ 1.846778, 44.935508 ], [ 1.849825, 44.936923 ], [ 1.85173, 44.937031 ], [ 1.852547, 44.936888 ], [ 1.859698, 44.934395 ], [ 1.867228, 44.930072 ], [ 1.86819, 44.927673 ], [ 1.876767, 44.927532 ], [ 1.878482, 44.930251 ], [ 1.878915, 44.930062 ], [ 1.879412, 44.92977 ], [ 1.880409, 44.928727 ], [ 1.886049, 44.923942 ], [ 1.89126, 44.92524 ], [ 1.891791, 44.92498 ], [ 1.894521, 44.923152 ], [ 1.897673, 44.921042 ], [ 1.896195, 44.91776 ], [ 1.894991, 44.918302 ], [ 1.89004, 44.91849 ], [ 1.883795, 44.913957 ], [ 1.8847, 44.908065 ], [ 1.880933, 44.904443 ], [ 1.875179, 44.899363 ], [ 1.874698, 44.896084 ], [ 1.874882, 44.894749 ], [ 1.874822, 44.893708 ], [ 1.873824, 44.892591 ], [ 1.869868, 44.889297 ], [ 1.871209, 44.883576 ], [ 1.870513, 44.881958 ], [ 1.866959, 44.877124 ], [ 1.865286, 44.876976 ], [ 1.864504, 44.877212 ], [ 1.863895, 44.877744 ], [ 1.863535, 44.878258 ], [ 1.863325, 44.87862 ], [ 1.859895, 44.886122 ], [ 1.859056, 44.886757 ], [ 1.852537, 44.891664 ], [ 1.849604, 44.890958 ], [ 1.848128, 44.890839 ], [ 1.846056, 44.891565 ], [ 1.844897, 44.894894 ], [ 1.841111, 44.898518 ], [ 1.83374, 44.898585 ], [ 1.831433, 44.895821 ], [ 1.825176, 44.895655 ], [ 1.824017, 44.895837 ], [ 1.823642, 44.895924 ], [ 1.814861, 44.895616 ], [ 1.810442, 44.893385 ], [ 1.809068, 44.893887 ], [ 1.808732, 44.894019 ], [ 1.807313, 44.895166 ], [ 1.805036, 44.897384 ], [ 1.803922, 44.899586 ], [ 1.80393, 44.89963 ], [ 1.804129, 44.900289 ], [ 1.804143, 44.900309 ], [ 1.804667, 44.900965 ], [ 1.807126, 44.905725 ], [ 1.807641, 44.906635 ], [ 1.808818, 44.907698 ], [ 1.811911, 44.907782 ], [ 1.816679903744403, 44.909754943942353 ], [ 1.813592, 44.90694 ], [ 1.810173, 44.906348 ], [ 1.810133, 44.905991 ], [ 1.811506, 44.900457 ], [ 1.811891, 44.899859 ], [ 1.81225, 44.89989 ], [ 1.817592, 44.901594 ], [ 1.823858, 44.901275 ], [ 1.827764, 44.899862 ], [ 1.828709, 44.900328 ], [ 1.832694, 44.901704 ], [ 1.832998, 44.901791 ], [ 1.833151, 44.901917 ], [ 1.841375, 44.902795 ], [ 1.842869, 44.90101 ], [ 1.849703, 44.895989 ], [ 1.850774, 44.894017 ], [ 1.850935, 44.893744 ], [ 1.853258, 44.893114 ], [ 1.853581, 44.893135 ], [ 1.853793, 44.893172 ], [ 1.854209, 44.893421 ], [ 1.854558, 44.893644 ], [ 1.855397, 44.894085 ], [ 1.862435, 44.889077 ], [ 1.865006, 44.884519 ], [ 1.865091, 44.884421 ], [ 1.865195, 44.884356 ], [ 1.865366, 44.884509 ], [ 1.866928, 44.889527 ], [ 1.86697, 44.889884 ], [ 1.867076, 44.892001 ], [ 1.869005, 44.898983 ], [ 1.871033, 44.904675 ], [ 1.875562, 44.907175 ], [ 1.87614, 44.907852 ], [ 1.875996, 44.908181 ], [ 1.874789, 44.910878 ], [ 1.88036, 44.917067 ], [ 1.880648, 44.917282 ], [ 1.886212, 44.920912 ], [ 1.886435, 44.921194 ], [ 1.886326, 44.92128 ], [ 1.885309, 44.921775 ], [ 1.87969, 44.923386 ], [ 1.87912, 44.92352 ], [ 1.876794, 44.922017 ], [ 1.869726, 44.923848 ], [ 1.862612, 44.925125 ], [ 1.861747, 44.924886 ], [ 1.861216, 44.924758 ], [ 1.860885, 44.924655 ], [ 1.853101, 44.928856 ], [ 1.85294, 44.929178 ], [ 1.848094, 44.931263 ], [ 1.846445, 44.930377 ], [ 1.846417, 44.930358 ], [ 1.839943, 44.927572 ], [ 1.835592, 44.926508 ], [ 1.828565, 44.930089 ], [ 1.828333, 44.930365 ], [ 1.828078, 44.930201 ], [ 1.827919, 44.930088 ], [ 1.825067, 44.927687 ], [ 1.8199, 44.925222 ], [ 1.813082, 44.92188 ], [ 1.813105, 44.921521 ], [ 1.816762, 44.919559 ], [ 1.81762936109523, 44.912132801255744 ], [ 1.814769, 44.917031 ] ] ] } },
{ "type": "Feature", "properties": { "codgeo": "46038", "value": 420, "isochrone_group": 7.0, "nb_agences": 1 }, "geometry": { "type": "MultiPolygon", "coordinates": [ [ [ [ 1.865598, 44.940513 ], [ 1.866686, 44.941044 ], [ 1.868266, 44.937809 ], [ 1.875645, 44.935011 ], [ 1.878619, 44.932983 ], [ 1.879355, 44.930272 ], [ 1.887451, 44.927068 ], [ 1.890924, 44.928015 ], [ 1.891046, 44.927873 ], [ 1.891327, 44.927274 ], [ 1.894521, 44.923152 ], [ 1.891791, 44.92498 ], [ 1.89126, 44.92524 ], [ 1.886049, 44.923942 ], [ 1.880409, 44.928727 ], [ 1.879412, 44.92977 ], [ 1.878915, 44.930062 ], [ 1.878482, 44.930251 ], [ 1.876767, 44.927532 ], [ 1.86819, 44.927673 ], [ 1.867228, 44.930072 ], [ 1.859698, 44.934395 ], [ 1.852547, 44.936888 ], [ 1.85173, 44.937031 ], [ 1.849825, 44.936923 ], [ 1.846778, 44.935508 ], [ 1.844364, 44.932837 ], [ 1.842715, 44.930275 ], [ 1.834775, 44.93297 ], [ 1.834607, 44.933489 ], [ 1.831609, 44.93355 ], [ 1.828301, 44.932481 ], [ 1.827767, 44.932254 ], [ 1.830497, 44.934 ], [ 1.833555, 44.935899 ], [ 1.841154, 44.936247 ], [ 1.842411, 44.938933 ], [ 1.842629, 44.939531 ], [ 1.850925, 44.94141 ], [ 1.85206526169124, 44.94203108187358 ], [ 1.852476, 44.941835 ], [ 1.853955, 44.941181 ], [ 1.854294, 44.941194 ], [ 1.856072, 44.941988 ], [ 1.856155166295002, 44.942323344876506 ], [ 1.860641, 44.93898 ], [ 1.864947, 44.94013 ], [ 1.865598, 44.940513 ] ] ], [ [ [ 1.899582, 44.921231 ], [ 1.904682, 44.921694 ], [ 1.905391, 44.921891 ], [ 1.90566, 44.92188 ], [ 1.906525, 44.91867 ], [ 1.906387, 44.918423 ], [ 1.90588, 44.917885 ], [ 1.904659, 44.917289 ], [ 1.903245, 44.916678 ], [ 1.902338, 44.916348 ], [ 1.901842, 44.916248 ], [ 1.901414, 44.916209 ], [ 1.893765, 44.911966 ], [ 1.893031, 44.909987 ], [ 1.887594, 44.906024 ], [ 1.885739, 44.902939 ], [ 1.884674, 44.903374 ], [ 1.883573, 44.903747 ], [ 1.879624865103059, 44.903288094668675 ], [ 1.880933, 44.904443 ], [ 1.8847, 44.908065 ], [ 1.883795, 44.913957 ], [ 1.89004, 44.91849 ], [ 1.894991, 44.918302 ], [ 1.896195, 44.91776 ], [ 1.897673, 44.921042 ], [ 1.894521, 44.923152 ], [ 1.899111, 44.921287 ], [ 1.899582, 44.921231 ] ] ], [ [ [ 1.877328, 44.894501 ], [ 1.877876, 44.893795 ], [ 1.879509, 44.892426 ], [ 1.881291, 44.891094 ], [ 1.881424, 44.891015 ], [ 1.881862, 44.889191 ], [ 1.881796, 44.888952 ], [ 1.879589, 44.887918 ], [ 1.87557, 44.882108 ], [ 1.873436846644996, 44.879241942891831 ], [ 1.868390943049131, 44.879071668176572 ], [ 1.870513, 44.881958 ], [ 1.871209, 44.883576 ], [ 1.869868, 44.889297 ], [ 1.873824, 44.892591 ], [ 1.874822, 44.893708 ], [ 1.874882, 44.894749 ], [ 1.874698, 44.896084 ], [ 1.875179, 44.899363 ], [ 1.879452702582854, 44.903136098561177 ], [ 1.876913, 44.894916 ], [ 1.877328, 44.894501 ] ] ], [ [ [ 1.857274, 44.876923 ], [ 1.856935, 44.882348 ], [ 1.84977, 44.886009 ], [ 1.846095, 44.887832 ], [ 1.845096, 44.888223 ], [ 1.844489, 44.88906 ], [ 1.836677, 44.892842 ], [ 1.83147, 44.892067 ], [ 1.827207, 44.893165 ], [ 1.818618, 44.89201 ], [ 1.813908, 44.892173 ], [ 1.806898, 44.889211 ], [ 1.80511, 44.888251 ], [ 1.802881, 44.889305 ], [ 1.797174, 44.894923 ], [ 1.795188, 44.897925 ], [ 1.796572, 44.898841 ], [ 1.798061, 44.89979 ], [ 1.799016, 44.900372 ], [ 1.799562, 44.90063 ], [ 1.800698, 44.900895 ], [ 1.807158881436989, 44.905783101179921 ], [ 1.807126, 44.905725 ], [ 1.804667, 44.900965 ], [ 1.804143, 44.900309 ], [ 1.804129, 44.900289 ], [ 1.80393, 44.89963 ], [ 1.803922, 44.899586 ], [ 1.805036, 44.897384 ], [ 1.807313, 44.895166 ], [ 1.808732, 44.894019 ], [ 1.809068, 44.893887 ], [ 1.810442, 44.893385 ], [ 1.814861, 44.895616 ], [ 1.823642, 44.895924 ], [ 1.824017, 44.895837 ], [ 1.825176, 44.895655 ], [ 1.831433, 44.895821 ], [ 1.83374, 44.898585 ], [ 1.841111, 44.898518 ], [ 1.844897, 44.894894 ], [ 1.846056, 44.891565 ], [ 1.848128, 44.890839 ], [ 1.849604, 44.890958 ], [ 1.852537, 44.891664 ], [ 1.859056, 44.886757 ], [ 1.859895, 44.886122 ], [ 1.862873075430757, 44.879608436769246 ], [ 1.858188, 44.876758 ], [ 1.856721, 44.874595 ], [ 1.856712867439197, 44.874591313041407 ], [ 1.857274, 44.876923 ] ] ], [ [ [ 1.802478, 44.917609 ], [ 1.797555, 44.917095 ], [ 1.797397, 44.917092 ], [ 1.797177, 44.917136 ], [ 1.795808, 44.917589 ], [ 1.795456, 44.918157 ], [ 1.795405, 44.918335 ], [ 1.795387, 44.91846 ], [ 1.796841, 44.921147 ], [ 1.797468, 44.921554 ], [ 1.79781, 44.921725 ], [ 1.798321, 44.921921 ], [ 1.798671, 44.922024 ], [ 1.79916, 44.922131 ], [ 1.79993, 44.922246 ], [ 1.80393849762035, 44.92281034045098 ], [ 1.804243, 44.920571 ], [ 1.804432, 44.919249 ], [ 1.80772, 44.918016 ], [ 1.812859, 44.917606 ], [ 1.814769, 44.917031 ], [ 1.818563, 44.910534 ], [ 1.811911, 44.907782 ], [ 1.808818, 44.907698 ], [ 1.809766, 44.915028 ], [ 1.802478, 44.917609 ] ] ] ] } },
{ "type": "Feature", "properties": { "codgeo": "46038", "value": 480, "isochrone_group": 8.0, "nb_agences": 1 }, "geometry": { "type": "MultiPolygon", "coordinates": [ [ [ [ 1.867715, 44.943009 ], [ 1.868663, 44.943373 ], [ 1.870606, 44.943496 ], [ 1.873056, 44.940858 ], [ 1.879689, 44.937792 ], [ 1.882897, 44.937175 ], [ 1.888323, 44.930351 ], [ 1.890471, 44.928806 ], [ 1.891046, 44.927873 ], [ 1.890924, 44.928015 ], [ 1.887451, 44.927068 ], [ 1.879355, 44.930272 ], [ 1.878619, 44.932983 ], [ 1.875645, 44.935011 ], [ 1.868266, 44.937809 ], [ 1.866686, 44.941044 ], [ 1.865598, 44.940513 ], [ 1.864947, 44.94013 ], [ 1.860641, 44.93898 ], [ 1.85743803297129, 44.941367209181017 ], [ 1.85927565953144, 44.943819477112903 ], [ 1.860804, 44.94184 ], [ 1.867456, 44.942832 ], [ 1.867715, 44.943009 ] ] ], [ [ [ 1.906335, 44.924302 ], [ 1.907308, 44.924821 ], [ 1.908252, 44.925381 ], [ 1.910179, 44.923436 ], [ 1.910897, 44.922496 ], [ 1.911204, 44.922017 ], [ 1.911291, 44.9214 ], [ 1.911375, 44.918405 ], [ 1.911282, 44.917483 ], [ 1.907894, 44.916265 ], [ 1.902405, 44.910533 ], [ 1.901236, 44.907128 ], [ 1.900636, 44.907334 ], [ 1.89942, 44.90811 ], [ 1.895277, 44.90904 ], [ 1.891416, 44.901141 ], [ 1.888233, 44.899458 ], [ 1.887374, 44.892078 ], [ 1.889591, 44.889617 ], [ 1.890097, 44.888928 ], [ 1.889702142494856, 44.887511790779818 ], [ 1.889578, 44.887421 ], [ 1.887574, 44.886069 ], [ 1.887236600684006, 44.885573426648619 ], [ 1.886795, 44.885511 ], [ 1.879052, 44.882802 ], [ 1.877416, 44.879843 ], [ 1.876702880309953, 44.878959954795825 ], [ 1.873955021176647, 44.879938150595876 ], [ 1.87557, 44.882108 ], [ 1.879589, 44.887918 ], [ 1.881796, 44.888952 ], [ 1.881862, 44.889191 ], [ 1.881424, 44.891015 ], [ 1.881291, 44.891094 ], [ 1.879509, 44.892426 ], [ 1.877876, 44.893795 ], [ 1.877328, 44.894501 ], [ 1.876913, 44.894916 ], [ 1.879495, 44.903273 ], [ 1.883573, 44.903747 ], [ 1.884674, 44.903374 ], [ 1.885739, 44.902939 ], [ 1.887594, 44.906024 ], [ 1.893031, 44.909987 ], [ 1.893765, 44.911966 ], [ 1.901414, 44.916209 ], [ 1.901842, 44.916248 ], [ 1.902338, 44.916348 ], [ 1.903245, 44.916678 ], [ 1.904659, 44.917289 ], [ 1.90588, 44.917885 ], [ 1.906387, 44.918423 ], [ 1.906525, 44.91867 ], [ 1.90566, 44.92188 ], [ 1.905391, 44.921891 ], [ 1.904682, 44.921694 ], [ 1.899582, 44.921231 ], [ 1.899111, 44.921287 ], [ 1.894521, 44.923152 ], [ 1.901768, 44.921523 ], [ 1.906335, 44.924302 ] ] ], [ [ [ 1.849197, 44.875997 ], [ 1.848563, 44.876867 ], [ 1.8484, 44.877256 ], [ 1.843977, 44.884969 ], [ 1.843175, 44.885165 ], [ 1.84215, 44.885534 ], [ 1.841528, 44.885903 ], [ 1.834459, 44.890897 ], [ 1.833255, 44.889754 ], [ 1.826644, 44.887135 ], [ 1.825593, 44.887741 ], [ 1.823221, 44.888405 ], [ 1.81702, 44.884283 ], [ 1.815086, 44.881247 ], [ 1.807664, 44.883834 ], [ 1.803003, 44.88551 ], [ 1.800927, 44.886593 ], [ 1.793685, 44.890676 ], [ 1.790166, 44.891197 ], [ 1.789355, 44.89764 ], [ 1.790656, 44.898357 ], [ 1.791441, 44.898824 ], [ 1.79203, 44.899028 ], [ 1.792618, 44.899109 ], [ 1.793796, 44.898823 ], [ 1.798061, 44.89979 ], [ 1.796572, 44.898841 ], [ 1.795188, 44.897925 ], [ 1.797174, 44.894923 ], [ 1.802881, 44.889305 ], [ 1.80511, 44.888251 ], [ 1.806898, 44.889211 ], [ 1.813908, 44.892173 ], [ 1.818618, 44.89201 ], [ 1.827207, 44.893165 ], [ 1.83147, 44.892067 ], [ 1.836677, 44.892842 ], [ 1.844489, 44.88906 ], [ 1.845096, 44.888223 ], [ 1.846095, 44.887832 ], [ 1.84977, 44.886009 ], [ 1.856935, 44.882348 ], [ 1.857119231787723, 44.879399747939843 ], [ 1.855129, 44.877312 ], [ 1.851776, 44.878503 ], [ 1.849459996016042, 44.875766809566684 ], [ 1.849197, 44.875997 ] ] ], [ [ [ 1.798616, 44.914475 ], [ 1.797911, 44.913698 ], [ 1.797383, 44.91302 ], [ 1.79662, 44.912275 ], [ 1.796022, 44.911817 ], [ 1.795458, 44.911448 ], [ 1.793033, 44.909931 ], [ 1.791124, 44.912983 ], [ 1.789239, 44.915306 ], [ 1.788573, 44.915935 ], [ 1.788507, 44.916025 ], [ 1.788918, 44.918405 ], [ 1.790183, 44.919657 ], [ 1.793717, 44.92048 ], [ 1.798437, 44.924548 ], [ 1.798767, 44.924866 ], [ 1.799961, 44.925885 ], [ 1.800492, 44.925803 ], [ 1.801117, 44.925545 ], [ 1.809768, 44.923289 ], [ 1.807965, 44.923178 ], [ 1.805655, 44.923052 ], [ 1.79993, 44.922246 ], [ 1.79916, 44.922131 ], [ 1.798671, 44.922024 ], [ 1.798321, 44.921921 ], [ 1.79781, 44.921725 ], [ 1.797468, 44.921554 ], [ 1.796841, 44.921147 ], [ 1.795387, 44.91846 ], [ 1.795405, 44.918335 ], [ 1.795456, 44.918157 ], [ 1.795808, 44.917589 ], [ 1.797177, 44.917136 ], [ 1.797397, 44.917092 ], [ 1.797555, 44.917095 ], [ 1.802478, 44.917609 ], [ 1.809766, 44.915028 ], [ 1.808818, 44.907698 ], [ 1.807641, 44.906635 ], [ 1.807438, 44.914348 ], [ 1.798616, 44.914475 ] ] ], [ [ [ 1.83839, 44.939315 ], [ 1.838038, 44.941156 ], [ 1.841505, 44.942128 ], [ 1.843002, 44.942029 ], [ 1.846585, 44.942384 ], [ 1.84665842891369, 44.942482732120439 ], [ 1.848204903888075, 44.940793912657391 ], [ 1.842629, 44.939531 ], [ 1.842411, 44.938933 ], [ 1.841154, 44.936247 ], [ 1.834775158585866, 44.935954877771792 ], [ 1.838465, 44.938842 ], [ 1.83839, 44.939315 ] ] ] ] } },
{ "type": "Feature", "properties": { "codgeo": "46038", "value": 540, "isochrone_group": 9.0, "nb_agences": 1 }, "geometry": { "type": "MultiPolygon", "coordinates": [ [ [ [ 1.876329, 44.943682 ], [ 1.882167, 44.938573 ], [ 1.882531, 44.938322 ], [ 1.886262, 44.936075 ], [ 1.88931, 44.934494 ], [ 1.893189, 44.931264 ], [ 1.894054, 44.930372 ], [ 1.894, 44.929605 ], [ 1.894521, 44.923152 ], [ 1.891327, 44.927274 ], [ 1.891046, 44.927873 ], [ 1.890471, 44.928806 ], [ 1.888323, 44.930351 ], [ 1.882897, 44.937175 ], [ 1.879689, 44.937792 ], [ 1.873056, 44.940858 ], [ 1.870606, 44.943496 ], [ 1.868663, 44.943373 ], [ 1.867715, 44.943009 ], [ 1.867456, 44.942832 ], [ 1.866002353055544, 44.942615220419583 ], [ 1.867179047872179, 44.945739767680806 ], [ 1.873824, 44.94631 ], [ 1.8742, 44.946585 ], [ 1.876329, 44.943682 ] ] ], [ [ [ 1.904342, 44.926419 ], [ 1.904886, 44.92702 ], [ 1.905484, 44.927343 ], [ 1.906442, 44.927483 ], [ 1.906814, 44.927441 ], [ 1.91298, 44.921176 ], [ 1.917391, 44.918597 ], [ 1.918083, 44.918277 ], [ 1.91885, 44.917844 ], [ 1.917081, 44.914709 ], [ 1.915342, 44.914428 ], [ 1.914472, 44.91428 ], [ 1.910987, 44.914133 ], [ 1.909698, 44.914178 ], [ 1.904559, 44.907254 ], [ 1.905396, 44.906205 ], [ 1.906145, 44.904908 ], [ 1.906338, 44.904162 ], [ 1.905032, 44.90149 ], [ 1.904453, 44.901608 ], [ 1.904001, 44.901762 ], [ 1.903506, 44.902076 ], [ 1.902919, 44.902898 ], [ 1.901357, 44.905252 ], [ 1.89721, 44.90732 ], [ 1.896643, 44.907442 ], [ 1.895259, 44.907804 ], [ 1.894736460887941, 44.907934141816597 ], [ 1.895277, 44.90904 ], [ 1.89942, 44.90811 ], [ 1.900636, 44.907334 ], [ 1.901236, 44.907128 ], [ 1.902405, 44.910533 ], [ 1.907894, 44.916265 ], [ 1.911282, 44.917483 ], [ 1.911375, 44.918405 ], [ 1.911291, 44.9214 ], [ 1.911204, 44.922017 ], [ 1.910897, 44.922496 ], [ 1.910179, 44.923436 ], [ 1.908252, 44.925381 ], [ 1.907308, 44.924821 ], [ 1.906335, 44.924302 ], [ 1.901768, 44.921523 ], [ 1.899557303913884, 44.922019926165902 ], [ 1.904067, 44.925521 ], [ 1.904342, 44.926419 ] ] ], [ [ [ 1.895235, 44.893052 ], [ 1.896699, 44.893051 ], [ 1.898132, 44.89326 ], [ 1.89865, 44.889697 ], [ 1.897318607884251, 44.888306571966474 ], [ 1.895803, 44.88857 ], [ 1.89395, 44.891656 ], [ 1.88781746022658, 44.891585733144964 ], [ 1.887374, 44.892078 ], [ 1.88801365340008, 44.897573508838882 ], [ 1.888916, 44.892617 ], [ 1.895235, 44.893052 ] ] ], [ [ [ 1.843284, 44.879673 ], [ 1.838942, 44.883671 ], [ 1.830062, 44.884104 ], [ 1.824611, 44.879446 ], [ 1.82449718694506, 44.879312234292044 ], [ 1.8228, 44.878325 ], [ 1.822898891993294, 44.877433741039681 ], [ 1.822278, 44.876704 ], [ 1.821234, 44.877592 ], [ 1.8185, 44.879502 ], [ 1.816065, 44.880727 ], [ 1.815364, 44.881077 ], [ 1.815088753649491, 44.881251322688648 ], [ 1.81702, 44.884283 ], [ 1.823221, 44.888405 ], [ 1.825593, 44.887741 ], [ 1.826644, 44.887135 ], [ 1.833255, 44.889754 ], [ 1.834459, 44.890897 ], [ 1.841528, 44.885903 ], [ 1.84215, 44.885534 ], [ 1.843175, 44.885165 ], [ 1.843977, 44.884969 ], [ 1.844903135922474, 44.883353968037525 ], [ 1.844577, 44.88337 ], [ 1.844396, 44.879775 ], [ 1.843543920322477, 44.879218957280408 ], [ 1.843284, 44.879673 ] ] ], [ [ [ 1.802732, 44.881078 ], [ 1.796451, 44.885172 ], [ 1.790204812101043, 44.891191253735521 ], [ 1.793685, 44.890676 ], [ 1.800927, 44.886593 ], [ 1.803003, 44.88551 ], [ 1.807664, 44.883834 ], [ 1.812251285072772, 44.882235063529606 ], [ 1.806308, 44.881493 ], [ 1.802732, 44.881078 ] ] ], [ [ [ 1.78722, 44.890568 ], [ 1.785117, 44.890908 ], [ 1.779697, 44.891698 ], [ 1.779092, 44.89176 ], [ 1.778594, 44.891843 ], [ 1.778047, 44.891968 ], [ 1.776686, 44.892363 ], [ 1.777688, 44.89582 ], [ 1.779049, 44.895425 ], [ 1.780049, 44.895281 ], [ 1.78526, 44.896627 ], [ 1.785798, 44.896682 ], [ 1.786914, 44.896791 ], [ 1.788745, 44.89745 ], [ 1.789087, 44.897572 ], [ 1.790656, 44.898357 ], [ 1.789355, 44.89764 ], [ 1.790166, 44.891197 ], [ 1.79019877425807, 44.89119214765887 ], [ 1.787853, 44.890719 ], [ 1.78722, 44.890568 ] ] ], [ [ [ 1.797209, 44.912334 ], [ 1.795458, 44.911448 ], [ 1.796022, 44.911817 ], [ 1.79662, 44.912275 ], [ 1.797383, 44.91302 ], [ 1.797911, 44.913698 ], [ 1.798616, 44.914475 ], [ 1.807438, 44.914348 ], [ 1.807641, 44.906635 ], [ 1.807523, 44.9064 ], [ 1.802758, 44.91366 ], [ 1.797209, 44.912334 ] ] ], [ [ [ 1.792332, 44.909515 ], [ 1.791812, 44.909238 ], [ 1.791401, 44.909059 ], [ 1.790251, 44.908655 ], [ 1.789459, 44.908455 ], [ 1.78893, 44.908358 ], [ 1.788318, 44.90828 ], [ 1.787611, 44.908233 ], [ 1.786562, 44.908235 ], [ 1.786006, 44.908273 ], [ 1.785389, 44.908354 ], [ 1.784844, 44.908457 ], [ 1.784198, 44.90861 ], [ 1.783637, 44.908781 ], [ 1.782496, 44.90917 ], [ 1.781836, 44.9094 ], [ 1.780122, 44.911508 ], [ 1.778818, 44.914863 ], [ 1.782702, 44.92237 ], [ 1.783757, 44.923321 ], [ 1.78789, 44.922911 ], [ 1.791427, 44.922364 ], [ 1.797888, 44.926576 ], [ 1.805023, 44.931516 ], [ 1.808329, 44.931774 ], [ 1.80988, 44.931673 ], [ 1.809958, 44.931627 ], [ 1.810294, 44.928757 ], [ 1.816032, 44.923694 ], [ 1.812898, 44.923492 ], [ 1.809768, 44.923289 ], [ 1.801117, 44.925545 ], [ 1.800492, 44.925803 ], [ 1.799961, 44.925885 ], [ 1.798767, 44.924866 ], [ 1.798437, 44.924548 ], [ 1.793717, 44.92048 ], [ 1.790183, 44.919657 ], [ 1.788918, 44.918405 ], [ 1.788507, 44.916025 ], [ 1.788573, 44.915935 ], [ 1.789239, 44.915306 ], [ 1.791124, 44.912983 ], [ 1.793032531992041, 44.909931748224359 ], [ 1.792737, 44.909747 ], [ 1.792332, 44.909515 ] ] ], [ [ [ 1.833476, 44.942554 ], [ 1.836411, 44.946617 ], [ 1.836535, 44.946568 ], [ 1.836699, 44.946501 ], [ 1.838122, 44.945852 ], [ 1.838589, 44.94557 ], [ 1.839063, 44.94515 ], [ 1.844803, 44.942409 ], [ 1.845259947227947, 44.942252715117469 ], [ 1.843002, 44.942029 ], [ 1.841505, 44.942128 ], [ 1.838038, 44.941156 ], [ 1.83839, 44.939315 ], [ 1.838465, 44.938842 ], [ 1.831547, 44.933429 ], [ 1.830608, 44.933102 ], [ 1.828975, 44.932649 ], [ 1.828301, 44.932481 ], [ 1.833948, 44.938986 ], [ 1.833476, 44.942554 ] ] ] ] } },
{ "type": "Feature", "properties": { "codgeo": "46038", "value": 600, "isochrone_group": 10.0, "nb_agences": 1 }, "geometry": { "type": "MultiPolygon", "coordinates": [ [ [ [ 1.882531, 44.938322 ], [ 1.882167, 44.938573 ], [ 1.876329, 44.943682 ], [ 1.8742, 44.946585 ], [ 1.873824, 44.94631 ], [ 1.869244127910335, 44.945916981204221 ], [ 1.869391, 44.946618 ], [ 1.876977, 44.948136 ], [ 1.878934, 44.945114 ], [ 1.879935, 44.945351 ], [ 1.880332, 44.945454 ], [ 1.881405576351496, 44.946043461772028 ], [ 1.881595, 44.944971 ], [ 1.884097713454606, 44.937378444617401 ], [ 1.882531, 44.938322 ] ] ], [ [ [ 1.894783, 44.933697 ], [ 1.89528, 44.933618 ], [ 1.897022, 44.933252 ], [ 1.898384, 44.932798 ], [ 1.898865, 44.932528 ], [ 1.905484, 44.927343 ], [ 1.904886, 44.92702 ], [ 1.904342, 44.926419 ], [ 1.904067, 44.925521 ], [ 1.899341, 44.921852 ], [ 1.898836, 44.921793 ], [ 1.894521, 44.923152 ], [ 1.894, 44.929605 ], [ 1.894054, 44.930372 ], [ 1.893189, 44.931264 ], [ 1.88931, 44.934494 ], [ 1.888901940729739, 44.934705660664797 ], [ 1.893301, 44.933847 ], [ 1.894783, 44.933697 ] ] ], [ [ [ 1.907899, 44.927072 ], [ 1.908904, 44.926367 ], [ 1.909548, 44.9258 ], [ 1.910084, 44.925291 ], [ 1.91298, 44.921176 ], [ 1.906831099101031, 44.927423626359406 ], [ 1.907117, 44.92738 ], [ 1.907899, 44.927072 ] ] ], [ [ [ 1.924222, 44.921003 ], [ 1.925646, 44.917697 ], [ 1.921545, 44.911806 ], [ 1.913651, 44.910794 ], [ 1.912558, 44.9104 ], [ 1.912932, 44.901805 ], [ 1.912684, 44.898213 ], [ 1.912248, 44.898243 ], [ 1.911349, 44.898474 ], [ 1.91072, 44.898773 ], [ 1.909691, 44.899362 ], [ 1.903362, 44.893166 ], [ 1.904327563793992, 44.891777539965446 ], [ 1.903042, 44.892382 ], [ 1.900907, 44.894171 ], [ 1.899725, 44.89488 ], [ 1.899059, 44.89501 ], [ 1.893845, 44.894965 ], [ 1.892103, 44.894308 ], [ 1.888854676359185, 44.892953845251881 ], [ 1.887435, 44.900752 ], [ 1.888493, 44.909613 ], [ 1.889288, 44.909732 ], [ 1.892216, 44.909144 ], [ 1.892753, 44.908831 ], [ 1.893399, 44.908424 ], [ 1.894199, 44.908068 ], [ 1.895259, 44.907804 ], [ 1.896643, 44.907442 ], [ 1.89721, 44.90732 ], [ 1.901357, 44.905252 ], [ 1.902919, 44.902898 ], [ 1.903506, 44.902076 ], [ 1.904001, 44.901762 ], [ 1.904453, 44.901608 ], [ 1.905032, 44.90149 ], [ 1.906338, 44.904162 ], [ 1.906145, 44.904908 ], [ 1.905396, 44.906205 ], [ 1.904559, 44.907254 ], [ 1.909698, 44.914178 ], [ 1.910987, 44.914133 ], [ 1.914472, 44.91428 ], [ 1.915342, 44.914428 ], [ 1.917081, 44.914709 ], [ 1.91885, 44.917844 ], [ 1.918083, 44.918277 ], [ 1.917391, 44.918597 ], [ 1.91298, 44.921176 ], [ 1.920262, 44.920292 ], [ 1.924222, 44.921003 ] ] ], [ [ [ 1.815364, 44.881077 ], [ 1.815377045593557, 44.881070486508229 ], [ 1.815377842784369, 44.881061508245345 ], [ 1.815364, 44.881077 ] ] ], [ [ [ 1.830062, 44.884104 ], [ 1.836175456900004, 44.883805900130902 ], [ 1.829797, 44.882531 ], [ 1.828172343371689, 44.882489246638293 ], [ 1.830062, 44.884104 ] ] ], [ [ [ 1.805216, 44.879985 ], [ 1.80369, 44.878947 ], [ 1.796446, 44.877381 ], [ 1.795783, 44.877209 ], [ 1.794878, 44.880693 ], [ 1.794876, 44.886068 ], [ 1.787767, 44.888653 ], [ 1.784403, 44.889821 ], [ 1.778594, 44.891843 ], [ 1.779092, 44.89176 ], [ 1.779697, 44.891698 ], [ 1.785117, 44.890908 ], [ 1.78722, 44.890568 ], [ 1.787853, 44.890719 ], [ 1.790203, 44.891193 ], [ 1.796451, 44.885172 ], [ 1.802732, 44.881078 ], [ 1.806308, 44.881493 ], [ 1.813324, 44.882369 ], [ 1.806293, 44.880975 ], [ 1.805216, 44.879985 ] ] ], [ [ [ 1.770434, 44.894008 ], [ 1.768624, 44.894443 ], [ 1.76666, 44.894924 ], [ 1.764973, 44.895495 ], [ 1.764162, 44.895794 ], [ 1.765409, 44.899171 ], [ 1.766219, 44.898872 ], [ 1.767813, 44.898334 ], [ 1.769467, 44.897944 ], [ 1.771276, 44.897508 ], [ 1.771692, 44.897473 ], [ 1.772625, 44.89749 ], [ 1.773439, 44.897413 ], [ 1.773892, 44.897312 ], [ 1.774511, 44.897086 ], [ 1.774904, 44.8969 ], [ 1.776523, 44.896158 ], [ 1.782715, 44.896457 ], [ 1.782888, 44.896512 ], [ 1.78423, 44.89685 ], [ 1.784846, 44.896916 ], [ 1.788745, 44.89745 ], [ 1.786914, 44.896791 ], [ 1.785798, 44.896682 ], [ 1.78526, 44.896627 ], [ 1.780049, 44.895281 ], [ 1.779049, 44.895425 ], [ 1.777688, 44.89582 ], [ 1.77668601199402, 44.892363041380563 ], [ 1.775439, 44.892725 ], [ 1.770434, 44.894008 ] ] ], [ [ [ 1.807523, 44.9064 ], [ 1.807168, 44.90579 ], [ 1.805016053871827, 44.910219607322269 ], [ 1.807523, 44.9064 ] ] ], [ [ [ 1.797074, 44.910563 ], [ 1.796533, 44.910397 ], [ 1.796189, 44.910324 ], [ 1.795907, 44.910303 ], [ 1.792332, 44.909515 ], [ 1.792737, 44.909747 ], [ 1.795458, 44.911448 ], [ 1.797209, 44.912334 ], [ 1.802758, 44.91366 ], [ 1.802948928751885, 44.913369099110469 ], [ 1.797103, 44.910582 ], [ 1.797074, 44.910563 ] ] ], [ [ [ 1.790141, 44.908318 ], [ 1.789237, 44.9079 ], [ 1.787611, 44.908233 ], [ 1.788318, 44.90828 ], [ 1.78893, 44.908358 ], [ 1.789459, 44.908455 ], [ 1.790251, 44.908655 ], [ 1.791401, 44.909059 ], [ 1.791812, 44.909238 ], [ 1.791148, 44.908789 ], [ 1.790141, 44.908318 ] ] ], [ [ [ 1.78297, 44.907554 ], [ 1.778459, 44.908805 ], [ 1.774084, 44.909076 ], [ 1.772327, 44.908753 ], [ 1.771677, 44.912294 ], [ 1.772692, 44.914606 ], [ 1.772512, 44.922565 ], [ 1.774075, 44.925808 ], [ 1.776514, 44.925805 ], [ 1.783209, 44.926827 ], [ 1.784259, 44.926724 ], [ 1.784453, 44.926555 ], [ 1.791109, 44.924621 ], [ 1.794405, 44.926069 ], [ 1.797627, 44.929696 ], [ 1.799657, 44.932669 ], [ 1.803749, 44.935134 ], [ 1.810962, 44.935846 ], [ 1.81193, 44.935764 ], [ 1.814980755335579, 44.9350840629046 ], [ 1.814368, 44.934335 ], [ 1.80993, 44.933058 ], [ 1.807629269339088, 44.931719393070018 ], [ 1.805023, 44.931516 ], [ 1.797888, 44.926576 ], [ 1.791427, 44.922364 ], [ 1.78789, 44.922911 ], [ 1.783757, 44.923321 ], [ 1.782702, 44.92237 ], [ 1.778818, 44.914863 ], [ 1.780122, 44.911508 ], [ 1.781836, 44.9094 ], [ 1.782496, 44.90917 ], [ 1.783637, 44.908781 ], [ 1.784198, 44.90861 ], [ 1.784844, 44.908457 ], [ 1.785389, 44.908354 ], [ 1.786006, 44.908273 ], [ 1.783146, 44.907634 ], [ 1.78297, 44.907554 ] ] ], [ [ [ 1.816931, 44.927028 ], [ 1.819007, 44.927394 ], [ 1.822069, 44.931068 ], [ 1.8226, 44.931476 ], [ 1.824473992993981, 44.93316676161858 ], [ 1.828301, 44.932481 ], [ 1.827767, 44.932254 ], [ 1.827252, 44.931845 ], [ 1.824197, 44.929054 ], [ 1.823594, 44.928421 ], [ 1.816032, 44.923694 ], [ 1.812370590986375, 44.926924692547225 ], [ 1.814353, 44.926878 ], [ 1.816931, 44.927028 ] ] ], [ [ [ 1.835248319619928, 44.945007470056488 ], [ 1.835158746279294, 44.944883471254769 ], [ 1.835103, 44.944983 ], [ 1.835248319619928, 44.945007470056488 ] ] ] ] } },
{ "type": "Feature", "properties": { "codgeo": "46038", "value": 660, "isochrone_group": 11.0, "nb_agences": 1 }, "geometry": { "type": "MultiPolygon", "coordinates": [ [ [ [ 1.888767, 44.934732 ], [ 1.888003, 44.934999 ], [ 1.884204, 44.937056 ], [ 1.881595, 44.944971 ], [ 1.881276599388839, 44.946773691936052 ], [ 1.884337, 44.947653 ], [ 1.886261, 44.948495 ], [ 1.888771987513544, 44.949029159211378 ], [ 1.887893, 44.945399 ], [ 1.885836, 44.942445 ], [ 1.888767, 44.934732 ] ] ], [ [ [ 1.896298, 44.935158 ], [ 1.904533, 44.932238 ], [ 1.905707, 44.93238 ], [ 1.906281, 44.9324 ], [ 1.907615, 44.931725 ], [ 1.908033, 44.930848 ], [ 1.910376, 44.924936 ], [ 1.911878, 44.923686 ], [ 1.918672, 44.921037 ], [ 1.922017, 44.9247 ], [ 1.923824, 44.926539 ], [ 1.923827, 44.926539 ], [ 1.925395, 44.925805 ], [ 1.927036, 44.923054 ], [ 1.931651, 44.918942 ], [ 1.93188, 44.918779 ], [ 1.932345, 44.915474 ], [ 1.93201, 44.915372 ], [ 1.931627, 44.915295 ], [ 1.92405, 44.910743 ], [ 1.922241, 44.911328 ], [ 1.921819, 44.911564 ], [ 1.921446427529535, 44.911793363144149 ], [ 1.921545, 44.911806 ], [ 1.925646, 44.917697 ], [ 1.924222, 44.921003 ], [ 1.920262, 44.920292 ], [ 1.91298, 44.921176 ], [ 1.910084, 44.925291 ], [ 1.909548, 44.9258 ], [ 1.908904, 44.926367 ], [ 1.907899, 44.927072 ], [ 1.907117, 44.92738 ], [ 1.906442, 44.927483 ], [ 1.905484, 44.927343 ], [ 1.898865, 44.932528 ], [ 1.898384, 44.932798 ], [ 1.897022, 44.933252 ], [ 1.89528, 44.933618 ], [ 1.894783, 44.933697 ], [ 1.893301, 44.933847 ], [ 1.888767, 44.934732 ], [ 1.892719, 44.934769 ], [ 1.896298, 44.935158 ] ] ], [ [ [ 1.917619, 44.902793 ], [ 1.918341, 44.902372 ], [ 1.919646, 44.901458 ], [ 1.920474, 44.901049 ], [ 1.92122, 44.900637 ], [ 1.921668, 44.897134 ], [ 1.9215, 44.897087 ], [ 1.920176, 44.897192 ], [ 1.919569, 44.897434 ], [ 1.918679, 44.897929 ], [ 1.914526, 44.898545 ], [ 1.913001, 44.898219 ], [ 1.91268510938759, 44.898229068226691 ], [ 1.912932, 44.901805 ], [ 1.912558, 44.9104 ], [ 1.913651, 44.910794 ], [ 1.91449408655743, 44.910902082543224 ], [ 1.916637, 44.903032 ], [ 1.917619, 44.902793 ] ] ], [ [ [ 1.905379, 44.890391 ], [ 1.904668, 44.891288 ], [ 1.903362, 44.893166 ], [ 1.909691, 44.899362 ], [ 1.91072, 44.898773 ], [ 1.911349, 44.898474 ], [ 1.912248, 44.898243 ], [ 1.907932, 44.897569 ], [ 1.905379, 44.890391 ] ] ], [ [ [ 1.911673, 44.88831 ], [ 1.912492970922087, 44.885604253039673 ], [ 1.911364, 44.885568 ], [ 1.91009, 44.885079 ], [ 1.905430283311234, 44.889049226807714 ], [ 1.905379, 44.890391 ], [ 1.908433, 44.888355 ], [ 1.911673, 44.88831 ] ] ], [ [ [ 1.82419330701862, 44.870489935454344 ], [ 1.824367, 44.87052 ], [ 1.824349504493152, 44.870262388516139 ], [ 1.82419330701862, 44.870489935454344 ] ] ], [ [ [ 1.806293, 44.880975 ], [ 1.811129381341311, 44.881933884310897 ], [ 1.811297923619737, 44.881334630965839 ], [ 1.806293, 44.880975 ] ] ], [ [ [ 1.798629, 44.876434 ], [ 1.797775, 44.876033 ], [ 1.7932, 44.873301 ], [ 1.790749, 44.873349 ], [ 1.789197, 44.873748 ], [ 1.788878, 44.874175 ], [ 1.788279, 44.875967 ], [ 1.788641, 44.876931 ], [ 1.790048, 44.884995 ], [ 1.786542, 44.886523 ], [ 1.783315, 44.888119 ], [ 1.778047, 44.891968 ], [ 1.778594, 44.891843 ], [ 1.784403, 44.889821 ], [ 1.787767, 44.888653 ], [ 1.794876, 44.886068 ], [ 1.794878, 44.880693 ], [ 1.795783, 44.877209 ], [ 1.796446, 44.877381 ], [ 1.80369, 44.878947 ], [ 1.799674, 44.877076 ], [ 1.798629, 44.876434 ] ] ], [ [ [ 1.76239, 44.893673 ], [ 1.762309, 44.893684 ], [ 1.762209, 44.893705 ], [ 1.760009, 44.896576 ], [ 1.760064, 44.897257 ], [ 1.760267, 44.89762 ], [ 1.760326, 44.89772 ], [ 1.761762, 44.899721 ], [ 1.76421, 44.908342 ], [ 1.762924, 44.908974 ], [ 1.761692, 44.909269 ], [ 1.76253, 44.91277 ], [ 1.766085, 44.915681 ], [ 1.769843, 44.919518 ], [ 1.76767, 44.924798 ], [ 1.766765, 44.925397 ], [ 1.766254, 44.925636 ], [ 1.767777, 44.928897 ], [ 1.769762, 44.928428 ], [ 1.770391, 44.928329 ], [ 1.778344, 44.932157 ], [ 1.778858, 44.932482 ], [ 1.779001, 44.932542 ], [ 1.781257, 44.931274 ], [ 1.788339, 44.928356 ], [ 1.791416, 44.929755 ], [ 1.794628, 44.934862 ], [ 1.79768, 44.935173 ], [ 1.797965, 44.935153 ], [ 1.806549, 44.936069 ], [ 1.80759, 44.936663 ], [ 1.809496, 44.938138 ], [ 1.812677, 44.937793 ], [ 1.813042744288134, 44.937643052775577 ], [ 1.810573, 44.937246 ], [ 1.804407642815689, 44.935199015067901 ], [ 1.803749, 44.935134 ], [ 1.803738515082338, 44.935127683938873 ], [ 1.8035, 44.935184 ], [ 1.802915, 44.935228 ], [ 1.802305, 44.93513 ], [ 1.8022, 44.935095 ], [ 1.800831711189278, 44.933376640049275 ], [ 1.799657, 44.932669 ], [ 1.797627, 44.929696 ], [ 1.794405, 44.926069 ], [ 1.791109, 44.924621 ], [ 1.784453, 44.926555 ], [ 1.784259, 44.926724 ], [ 1.783209, 44.926827 ], [ 1.776514, 44.925805 ], [ 1.774075, 44.925808 ], [ 1.772512, 44.922565 ], [ 1.772692, 44.914606 ], [ 1.771677, 44.912294 ], [ 1.772327, 44.908753 ], [ 1.774084, 44.909076 ], [ 1.778459, 44.908805 ], [ 1.78297, 44.907554 ], [ 1.783146, 44.907634 ], [ 1.786006, 44.908273 ], [ 1.786562, 44.908235 ], [ 1.787611, 44.908233 ], [ 1.789237, 44.9079 ], [ 1.790141, 44.908318 ], [ 1.791148, 44.908789 ], [ 1.791812, 44.909238 ], [ 1.792332, 44.909515 ], [ 1.795907, 44.910303 ], [ 1.796189, 44.910324 ], [ 1.796533, 44.910397 ], [ 1.797074, 44.910563 ], [ 1.797103, 44.910582 ], [ 1.803385, 44.913577 ], [ 1.807168, 44.90579 ], [ 1.801594, 44.900947 ], [ 1.800698, 44.900895 ], [ 1.799562, 44.90063 ], [ 1.799016, 44.900372 ], [ 1.798061, 44.89979 ], [ 1.793796, 44.898823 ], [ 1.792618, 44.899109 ], [ 1.79203, 44.899028 ], [ 1.791441, 44.898824 ], [ 1.790656, 44.898357 ], [ 1.789087, 44.897572 ], [ 1.788745, 44.89745 ], [ 1.784846, 44.896916 ], [ 1.78423, 44.89685 ], [ 1.782888, 44.896512 ], [ 1.782715, 44.896457 ], [ 1.776523, 44.896158 ], [ 1.774904, 44.8969 ], [ 1.774511, 44.897086 ], [ 1.773892, 44.897312 ], [ 1.773439, 44.897413 ], [ 1.772625, 44.89749 ], [ 1.771692, 44.897473 ], [ 1.771276, 44.897508 ], [ 1.769467, 44.897944 ], [ 1.767813, 44.898334 ], [ 1.766219, 44.898872 ], [ 1.765409, 44.899171 ], [ 1.764162, 44.895794 ], [ 1.764973, 44.895495 ], [ 1.76666, 44.894924 ], [ 1.768624, 44.894443 ], [ 1.770434, 44.894008 ], [ 1.762413, 44.893672 ], [ 1.76239, 44.893673 ] ] ] ] } },
{ "type": "Feature", "properties": { "codgeo": "46038", "value": 720, "isochrone_group": 12.0, "nb_agences": 1 }, "geometry": { "type": "MultiPolygon", "coordinates": [ [ [ [ 1.896382, 44.936811 ], [ 1.899281157486975, 44.934100219810325 ], [ 1.896298, 44.935158 ], [ 1.892719, 44.934769 ], [ 1.888767, 44.934732 ], [ 1.885836, 44.942445 ], [ 1.887893, 44.945399 ], [ 1.88878834907066, 44.949096731339949 ], [ 1.892788, 44.950049 ], [ 1.893063, 44.950045 ], [ 1.893693, 44.950076 ], [ 1.894108, 44.950146 ], [ 1.894573, 44.950267 ], [ 1.895197138648445, 44.950116358324358 ], [ 1.89239, 44.943004 ], [ 1.895476, 44.937444 ], [ 1.896382, 44.936811 ] ] ], [ [ [ 1.905804, 44.933087 ], [ 1.906286, 44.933378 ], [ 1.90718, 44.933847 ], [ 1.907562, 44.934052 ], [ 1.909269, 44.930883 ], [ 1.917145, 44.928715 ], [ 1.918995, 44.928526 ], [ 1.920229, 44.928454 ], [ 1.920695, 44.928428 ], [ 1.921305, 44.928278 ], [ 1.922183, 44.928057 ], [ 1.922809, 44.927883 ], [ 1.927933, 44.924952 ], [ 1.928995, 44.924262 ], [ 1.9294, 44.923733 ], [ 1.935916, 44.918077 ], [ 1.937268, 44.918166 ], [ 1.93806, 44.918178 ], [ 1.938518, 44.918068 ], [ 1.939368, 44.917765 ], [ 1.93816, 44.914374 ], [ 1.934828, 44.912599 ], [ 1.934034, 44.912491 ], [ 1.928887, 44.912139 ], [ 1.92405, 44.910743 ], [ 1.931627, 44.915295 ], [ 1.93201, 44.915372 ], [ 1.932345, 44.915474 ], [ 1.93188, 44.918779 ], [ 1.931651, 44.918942 ], [ 1.927036, 44.923054 ], [ 1.925395, 44.925805 ], [ 1.923827, 44.926539 ], [ 1.923824, 44.926539 ], [ 1.922017, 44.9247 ], [ 1.918672, 44.921037 ], [ 1.911878, 44.923686 ], [ 1.910376, 44.924936 ], [ 1.908033, 44.930848 ], [ 1.907615, 44.931725 ], [ 1.906281, 44.9324 ], [ 1.905707, 44.93238 ], [ 1.904533, 44.932238 ], [ 1.903364689117248, 44.932652264453878 ], [ 1.90534, 44.932851 ], [ 1.905804, 44.933087 ] ] ], [ [ [ 1.922729, 44.900066 ], [ 1.922584, 44.89774 ], [ 1.921661563813941, 44.897184325803039 ], [ 1.92122, 44.900637 ], [ 1.920474, 44.901049 ], [ 1.919646, 44.901458 ], [ 1.918341, 44.902372 ], [ 1.917619, 44.902793 ], [ 1.916637, 44.903032 ], [ 1.914337, 44.911479 ], [ 1.919828, 44.912673 ], [ 1.920513, 44.912368 ], [ 1.921819, 44.911564 ], [ 1.922241, 44.911328 ], [ 1.92405, 44.910743 ], [ 1.922178, 44.905195 ], [ 1.922729, 44.900066 ] ] ], [ [ [ 1.912973, 44.888214 ], [ 1.914152890394593, 44.88764934409086 ], [ 1.912293693920503, 44.886261828969218 ], [ 1.911673, 44.88831 ], [ 1.908433, 44.888355 ], [ 1.905379, 44.890391 ], [ 1.907932, 44.897569 ], [ 1.912248, 44.898243 ], [ 1.913001, 44.898219 ], [ 1.909974, 44.895393 ], [ 1.912973, 44.888214 ] ] ], [ [ [ 1.80266, 44.87036 ], [ 1.802271, 44.869824 ], [ 1.802255, 44.869824 ], [ 1.801637, 44.869944 ], [ 1.801567, 44.869975 ], [ 1.798144, 44.871123 ], [ 1.79245, 44.868931 ], [ 1.78806, 44.866893 ], [ 1.78475, 44.868307 ], [ 1.78268, 44.876759 ], [ 1.783856, 44.877724 ], [ 1.782895, 44.886217 ], [ 1.782515, 44.887016 ], [ 1.778047, 44.891968 ], [ 1.783315, 44.888119 ], [ 1.786542, 44.886523 ], [ 1.790048, 44.884995 ], [ 1.788641, 44.876931 ], [ 1.788279, 44.875967 ], [ 1.788878, 44.874175 ], [ 1.789197, 44.873748 ], [ 1.790749, 44.873349 ], [ 1.7932, 44.873301 ], [ 1.797775, 44.876033 ], [ 1.798629, 44.876434 ], [ 1.799674, 44.877076 ], [ 1.80369, 44.878947 ], [ 1.805216, 44.879985 ], [ 1.806293, 44.880975 ], [ 1.810255535464694, 44.881259729711125 ], [ 1.812349, 44.87556 ], [ 1.811796, 44.874826 ], [ 1.809887, 44.87266 ], [ 1.809488907953098, 44.870067142349001 ], [ 1.80266, 44.87036 ] ] ], [ [ [ 1.759788, 44.891485 ], [ 1.759139, 44.891829 ], [ 1.758704, 44.892256 ], [ 1.758334, 44.893071 ], [ 1.757332, 44.895268 ], [ 1.752169, 44.899933 ], [ 1.749664, 44.900885 ], [ 1.750943, 44.90425 ], [ 1.751993, 44.911707 ], [ 1.752276, 44.915296 ], [ 1.753368, 44.91521 ], [ 1.759643, 44.917418 ], [ 1.761355, 44.919019 ], [ 1.76328, 44.926114 ], [ 1.761109, 44.928127 ], [ 1.760853, 44.92825 ], [ 1.762415, 44.931493 ], [ 1.769864, 44.935649 ], [ 1.77206, 44.938501 ], [ 1.775703, 44.936416 ], [ 1.776199, 44.936189 ], [ 1.77682, 44.935718 ], [ 1.782388, 44.933271 ], [ 1.782798, 44.933194 ], [ 1.788062, 44.933409 ], [ 1.794072906037962, 44.937687209697884 ], [ 1.794961754197725, 44.934896009683968 ], [ 1.794628, 44.934862 ], [ 1.791416, 44.929755 ], [ 1.788339, 44.928356 ], [ 1.781257, 44.931274 ], [ 1.779001, 44.932542 ], [ 1.778858, 44.932482 ], [ 1.778344, 44.932157 ], [ 1.770391, 44.928329 ], [ 1.769762, 44.928428 ], [ 1.767777, 44.928897 ], [ 1.766254, 44.925636 ], [ 1.766765, 44.925397 ], [ 1.76767, 44.924798 ], [ 1.769843, 44.919518 ], [ 1.766085, 44.915681 ], [ 1.76253, 44.91277 ], [ 1.761692, 44.909269 ], [ 1.762924, 44.908974 ], [ 1.76421, 44.908342 ], [ 1.761762, 44.899721 ], [ 1.760326, 44.89772 ], [ 1.760267, 44.89762 ], [ 1.760064, 44.897257 ], [ 1.760009, 44.896576 ], [ 1.762209, 44.893705 ], [ 1.762309, 44.893684 ], [ 1.76239, 44.893673 ], [ 1.762413, 44.893672 ], [ 1.770434, 44.894008 ], [ 1.771061782367306, 44.893864202554269 ], [ 1.765047, 44.892939 ], [ 1.759788, 44.891485 ] ] ], [ [ [ 1.899574487358725, 44.954955824341319 ], [ 1.900024964468275, 44.954760291469398 ], [ 1.899824, 44.954776 ], [ 1.899574487358725, 44.954955824341319 ] ] ] ] } },
{ "type": "Feature", "properties": { "codgeo": "46038", "value": 780, "isochrone_group": 13.0, "nb_agences": 1 }, "geometry": { "type": "MultiPolygon", "coordinates": [ [ [ [ 1.894697, 44.941656 ], [ 1.895432, 44.939711 ], [ 1.898305, 44.936782 ], [ 1.906286, 44.933378 ], [ 1.905804, 44.933087 ], [ 1.90534, 44.932851 ], [ 1.901076, 44.932422 ], [ 1.896382, 44.936811 ], [ 1.895476, 44.937444 ], [ 1.89239, 44.943004 ], [ 1.895197138648445, 44.950116358324358 ], [ 1.903195, 44.948186 ], [ 1.903545, 44.947753 ], [ 1.896747, 44.949038 ], [ 1.894476, 44.943082 ], [ 1.894697, 44.941656 ] ] ], [ [ [ 1.908754, 44.934392 ], [ 1.910747, 44.934893 ], [ 1.912257, 44.931625 ], [ 1.911885921055532, 44.930162648952724 ], [ 1.909269, 44.930883 ], [ 1.907570287021289, 44.934036615365869 ], [ 1.907886, 44.93419 ], [ 1.908754, 44.934392 ] ] ], [ [ [ 1.937268, 44.918166 ], [ 1.935916, 44.918077 ], [ 1.9294, 44.923733 ], [ 1.928995, 44.924262 ], [ 1.927933, 44.924952 ], [ 1.930663, 44.923482 ], [ 1.937268, 44.918166 ] ] ], [ [ [ 1.940439, 44.918877 ], [ 1.941388, 44.918848 ], [ 1.942482, 44.918555 ], [ 1.943314, 44.918347 ], [ 1.943892, 44.917976 ], [ 1.94443, 44.917445 ], [ 1.944748, 44.916987 ], [ 1.945818, 44.91456 ], [ 1.945886, 44.914377 ], [ 1.943135, 44.912382 ], [ 1.942775, 44.912457 ], [ 1.942444, 44.912549 ], [ 1.934339, 44.912377 ], [ 1.928663, 44.909394 ], [ 1.927253, 44.90368 ], [ 1.927063, 44.903395 ], [ 1.926923090225798, 44.903218355710415 ], [ 1.924235, 44.904805 ], [ 1.922297725368081, 44.904080532825965 ], [ 1.922178, 44.905195 ], [ 1.92405, 44.910743 ], [ 1.928887, 44.912139 ], [ 1.934034, 44.912491 ], [ 1.934828, 44.912599 ], [ 1.93816, 44.914374 ], [ 1.939368, 44.917765 ], [ 1.938518, 44.918068 ], [ 1.93806, 44.918178 ], [ 1.937268, 44.918166 ], [ 1.939949, 44.918752 ], [ 1.940439, 44.918877 ] ] ], [ [ [ 1.909974, 44.895393 ], [ 1.913001, 44.898219 ], [ 1.914526, 44.898545 ], [ 1.91602004595749, 44.898409906836299 ], [ 1.912139, 44.895206 ], [ 1.912063, 44.894829 ], [ 1.91025819857117, 44.894712686047868 ], [ 1.909974, 44.895393 ] ] ], [ [ [ 1.800551, 44.867102 ], [ 1.800442, 44.867103 ], [ 1.799204, 44.867104 ], [ 1.79479, 44.869439 ], [ 1.787574, 44.866153 ], [ 1.786831, 44.86323 ], [ 1.78684, 44.86249 ], [ 1.786478, 44.859718 ], [ 1.782905, 44.859279 ], [ 1.781649, 44.862849 ], [ 1.781171, 44.866417 ], [ 1.781284, 44.873372 ], [ 1.77961, 44.876559 ], [ 1.779516, 44.880119 ], [ 1.780563, 44.881928 ], [ 1.781033, 44.883384 ], [ 1.781088832570632, 44.888596658261008 ], [ 1.782515, 44.887016 ], [ 1.782895, 44.886217 ], [ 1.783856, 44.877724 ], [ 1.78268, 44.876759 ], [ 1.78475, 44.868307 ], [ 1.78806, 44.866893 ], [ 1.79245, 44.868931 ], [ 1.798144, 44.871123 ], [ 1.801567, 44.869975 ], [ 1.801637, 44.869944 ], [ 1.802255, 44.869824 ], [ 1.802271, 44.869824 ], [ 1.80266, 44.87036 ], [ 1.804922586691788, 44.87026296899176 ], [ 1.805118, 44.869954 ], [ 1.807771599248356, 44.865993200022629 ], [ 1.800551, 44.867102 ] ] ], [ [ [ 1.76952, 44.891912 ], [ 1.768945, 44.891807 ], [ 1.767029, 44.892209 ], [ 1.759788, 44.891485 ], [ 1.765047, 44.892939 ], [ 1.771275, 44.893897 ], [ 1.774206, 44.893144 ], [ 1.775439, 44.892725 ], [ 1.770489, 44.892291 ], [ 1.76952, 44.891912 ] ] ], [ [ [ 1.749956, 44.893994 ], [ 1.748182, 44.900209 ], [ 1.745823, 44.903226 ], [ 1.745356, 44.903723 ], [ 1.740203, 44.908033 ], [ 1.739815, 44.908273 ], [ 1.739658, 44.908394 ], [ 1.741846, 44.911253 ], [ 1.743284, 44.917237 ], [ 1.746596, 44.918647 ], [ 1.74891, 44.916692 ], [ 1.756435, 44.920685 ], [ 1.757674, 44.924065 ], [ 1.754496, 44.931304 ], [ 1.754252, 44.934336 ], [ 1.754256, 44.934338 ], [ 1.755308, 44.934659 ], [ 1.755395, 44.934658 ], [ 1.756135, 44.934509 ], [ 1.756153, 44.9345 ], [ 1.756348, 44.934392 ], [ 1.756373, 44.93437 ], [ 1.764718, 44.936845 ], [ 1.764853, 44.939005 ], [ 1.767889, 44.941956 ], [ 1.768211, 44.942261 ], [ 1.768527, 44.942489 ], [ 1.768813, 44.94266 ], [ 1.771539, 44.938901 ], [ 1.775703, 44.936416 ], [ 1.77206, 44.938501 ], [ 1.769864, 44.935649 ], [ 1.762415, 44.931493 ], [ 1.760853, 44.92825 ], [ 1.761109, 44.928127 ], [ 1.76328, 44.926114 ], [ 1.761355, 44.919019 ], [ 1.759643, 44.917418 ], [ 1.753368, 44.91521 ], [ 1.752276, 44.915296 ], [ 1.751993, 44.911707 ], [ 1.750943, 44.90425 ], [ 1.749664, 44.900885 ], [ 1.752169, 44.899933 ], [ 1.757332, 44.895268 ], [ 1.758334, 44.893071 ], [ 1.758704, 44.892256 ], [ 1.759139, 44.891829 ], [ 1.759788, 44.891485 ], [ 1.751142, 44.891138 ], [ 1.749956, 44.893994 ] ] ], [ [ [ 1.784908261974225, 44.936050118588348 ], [ 1.785743, 44.936461 ], [ 1.786506, 44.93709 ], [ 1.79086414740917, 44.935403403862757 ], [ 1.788062, 44.933409 ], [ 1.782798, 44.933194 ], [ 1.782388, 44.933271 ], [ 1.77682, 44.935718 ], [ 1.783668, 44.935012 ], [ 1.784908261974225, 44.936050118588348 ] ] ] ] } },
{ "type": "Feature", "properties": { "codgeo": "46038", "value": 840, "isochrone_group": 14.0, "nb_agences": 1 }, "geometry": { "type": "MultiPolygon", "coordinates": [ [ [ [ 1.920015, 44.92623 ], [ 1.91298, 44.921176 ], [ 1.912181, 44.921707 ], [ 1.910179, 44.923436 ], [ 1.912257, 44.931625 ], [ 1.910747, 44.934893 ], [ 1.908754, 44.934392 ], [ 1.907886, 44.93419 ], [ 1.90718, 44.933847 ], [ 1.906286, 44.933378 ], [ 1.898305, 44.936782 ], [ 1.895432, 44.939711 ], [ 1.894697, 44.941656 ], [ 1.894476, 44.943082 ], [ 1.896747, 44.949038 ], [ 1.903545, 44.947753 ], [ 1.904, 44.947378 ], [ 1.90483, 44.946777 ], [ 1.905582, 44.946673 ], [ 1.911085, 44.944405 ], [ 1.911789, 44.943999 ], [ 1.912886, 44.943257 ], [ 1.913544, 44.94311 ], [ 1.914273, 44.94311 ], [ 1.915653750024708, 44.94301295690989 ], [ 1.913515, 44.936489 ], [ 1.914701, 44.93309 ], [ 1.920695, 44.928428 ], [ 1.920015, 44.92623 ] ] ], [ [ [ 1.931365, 44.922979 ], [ 1.937268, 44.918166 ], [ 1.930663, 44.923482 ], [ 1.927933, 44.924952 ], [ 1.922809, 44.927883 ], [ 1.93004, 44.926892 ], [ 1.931231, 44.926506 ], [ 1.931365, 44.922979 ] ] ], [ [ [ 1.953793, 44.914438 ], [ 1.953444, 44.912433 ], [ 1.952753, 44.911735 ], [ 1.952167, 44.911163 ], [ 1.951444, 44.910732 ], [ 1.950906, 44.9106 ], [ 1.950313, 44.910587 ], [ 1.949893, 44.910651 ], [ 1.945789, 44.910941 ], [ 1.944487, 44.910907 ], [ 1.943783, 44.911042 ], [ 1.941401, 44.911695 ], [ 1.935767, 44.910365 ], [ 1.934982, 44.903049 ], [ 1.934709, 44.901763 ], [ 1.934416103133332, 44.897955776591758 ], [ 1.932986, 44.899548 ], [ 1.930729, 44.905201 ], [ 1.930326, 44.905491 ], [ 1.928348, 44.906864 ], [ 1.928066532730312, 44.906976826965234 ], [ 1.928663, 44.909394 ], [ 1.934339, 44.912377 ], [ 1.942444, 44.912549 ], [ 1.942775, 44.912457 ], [ 1.943135, 44.912382 ], [ 1.945886, 44.914377 ], [ 1.945818, 44.91456 ], [ 1.944748, 44.916987 ], [ 1.94443, 44.917445 ], [ 1.943892, 44.917976 ], [ 1.946314, 44.916637 ], [ 1.953329, 44.914893 ], [ 1.953793, 44.914438 ] ] ], [ [ [ 1.828832, 44.834171 ], [ 1.826057181199706, 44.83581797037251 ], [ 1.827087, 44.835923 ], [ 1.828369, 44.835907 ], [ 1.829808714392696, 44.834150022896743 ], [ 1.828832, 44.834171 ] ] ], [ [ [ 1.817529001760445, 44.852168377741052 ], [ 1.817761, 44.851859 ], [ 1.817526246968278, 44.851577278050449 ], [ 1.817529001760445, 44.852168377741052 ] ] ], [ [ [ 1.806146407398234, 44.865785123224896 ], [ 1.80744, 44.865215 ], [ 1.807832409537716, 44.864065451727697 ], [ 1.806146407398234, 44.865785123224896 ] ] ], [ [ [ 1.797187, 44.860761 ], [ 1.789275, 44.862813 ], [ 1.786581, 44.857253 ], [ 1.786379, 44.856592 ], [ 1.785812119028104, 44.855201282992731 ], [ 1.785472, 44.855669 ], [ 1.78204, 44.856756 ], [ 1.78073076490922, 44.855595355303841 ], [ 1.777935, 44.86077 ], [ 1.776975, 44.861913 ], [ 1.776939, 44.862073 ], [ 1.777431, 44.863784 ], [ 1.777639, 44.871731 ], [ 1.776293, 44.874067 ], [ 1.774837, 44.882644 ], [ 1.774506, 44.885258 ], [ 1.768461, 44.891796 ], [ 1.765638, 44.891895 ], [ 1.757512, 44.889586 ], [ 1.754391, 44.885996 ], [ 1.754103, 44.885585 ], [ 1.753588, 44.88499 ], [ 1.750099, 44.885799 ], [ 1.74696, 44.889922 ], [ 1.746454, 44.890654 ], [ 1.748725, 44.893485 ], [ 1.74751, 44.899652 ], [ 1.745356, 44.903723 ], [ 1.745823, 44.903226 ], [ 1.748182, 44.900209 ], [ 1.749956, 44.893994 ], [ 1.751142, 44.891138 ], [ 1.759788, 44.891485 ], [ 1.767029, 44.892209 ], [ 1.768945, 44.891807 ], [ 1.76952, 44.891912 ], [ 1.770489, 44.892291 ], [ 1.775439, 44.892725 ], [ 1.778047, 44.891968 ], [ 1.781102, 44.889826 ], [ 1.781033, 44.883384 ], [ 1.780563, 44.881928 ], [ 1.779516, 44.880119 ], [ 1.77961, 44.876559 ], [ 1.781284, 44.873372 ], [ 1.781171, 44.866417 ], [ 1.781649, 44.862849 ], [ 1.782905, 44.859279 ], [ 1.786478, 44.859718 ], [ 1.78684, 44.86249 ], [ 1.786831, 44.86323 ], [ 1.787574, 44.866153 ], [ 1.79479, 44.869439 ], [ 1.799204, 44.867104 ], [ 1.800442, 44.867103 ], [ 1.800551, 44.867102 ], [ 1.804552767224921, 44.866487485988664 ], [ 1.805273917430224, 44.866169654485816 ], [ 1.80075, 44.861568 ], [ 1.800782, 44.860948 ], [ 1.797187, 44.860761 ] ] ], [ [ [ 1.734643, 44.911786 ], [ 1.735001, 44.912948 ], [ 1.735203, 44.913493 ], [ 1.735754, 44.914462 ], [ 1.738503, 44.916787 ], [ 1.739996, 44.925029 ], [ 1.739345, 44.926581 ], [ 1.741069, 44.927428 ], [ 1.742664, 44.927974 ], [ 1.748014, 44.934456 ], [ 1.748221, 44.936195 ], [ 1.749597, 44.937689 ], [ 1.751643, 44.937313 ], [ 1.757732, 44.938313 ], [ 1.760953, 44.940801 ], [ 1.76316, 44.944593 ], [ 1.764766, 44.944345 ], [ 1.769346230935514, 44.945071875197293 ], [ 1.768013, 44.942084 ], [ 1.767964606223027, 44.942027614590145 ], [ 1.767889, 44.941956 ], [ 1.765745693783843, 44.939872700710197 ], [ 1.764811, 44.938991 ], [ 1.764552, 44.938075 ], [ 1.764477, 44.937143 ], [ 1.764539257875523, 44.936791987806117 ], [ 1.756373, 44.93437 ], [ 1.756348, 44.934392 ], [ 1.756153, 44.9345 ], [ 1.756135, 44.934509 ], [ 1.755395, 44.934658 ], [ 1.755308, 44.934659 ], [ 1.754256, 44.934338 ], [ 1.754252, 44.934336 ], [ 1.754496, 44.931304 ], [ 1.757674, 44.924065 ], [ 1.756435, 44.920685 ], [ 1.74891, 44.916692 ], [ 1.746596, 44.918647 ], [ 1.743284, 44.917237 ], [ 1.741846, 44.911253 ], [ 1.739658, 44.908394 ], [ 1.739815, 44.908273 ], [ 1.740203, 44.908033 ], [ 1.740346249130642, 44.907913185570926 ], [ 1.735959, 44.910194 ], [ 1.734649, 44.911632 ], [ 1.734643, 44.911786 ] ] ], [ [ [ 1.77682, 44.935718 ], [ 1.776199, 44.936189 ], [ 1.775703, 44.936416 ], [ 1.774238880941182, 44.93728975981297 ], [ 1.781279, 44.936744 ], [ 1.782696815997042, 44.935112124986297 ], [ 1.77682, 44.935718 ] ] ], [ [ [ 1.91792502377826, 44.949610685270258 ], [ 1.917555, 44.949439 ], [ 1.914154, 44.951438 ], [ 1.91792502377826, 44.949610685270258 ] ] ] ] } },
{ "type": "Feature", "properties": { "codgeo": "46038", "value": 900, "isochrone_group": 15.0, "nb_agences": 1 }, "geometry": { "type": "MultiPolygon", "coordinates": [ [ [ [ 1.914701, 44.93309 ], [ 1.913515, 44.936489 ], [ 1.915753488571916, 44.943317195356052 ], [ 1.922179, 44.941668 ], [ 1.922294951611012, 44.941267848369314 ], [ 1.916756, 44.9368 ], [ 1.915968, 44.933985 ], [ 1.920695, 44.928428 ], [ 1.914701, 44.93309 ] ] ], [ [ [ 1.933535, 44.925835 ], [ 1.934487, 44.925154 ], [ 1.934943, 44.924477 ], [ 1.941388, 44.918848 ], [ 1.940439, 44.918877 ], [ 1.939949, 44.918752 ], [ 1.937268, 44.918166 ], [ 1.931365, 44.922979 ], [ 1.931231, 44.926506 ], [ 1.93004, 44.926892 ], [ 1.93203, 44.926446 ], [ 1.932627, 44.926246 ], [ 1.933535, 44.925835 ] ] ], [ [ [ 1.953731, 44.920355 ], [ 1.954038, 44.920517 ], [ 1.954136, 44.920513 ], [ 1.956222, 44.920266 ], [ 1.956488, 44.920189 ], [ 1.956779, 44.920026 ], [ 1.960656, 44.916891 ], [ 1.961155, 44.91638 ], [ 1.962332, 44.914523 ], [ 1.959791, 44.911973 ], [ 1.954999, 44.908584 ], [ 1.952125, 44.907344 ], [ 1.946759, 44.908337 ], [ 1.943316, 44.909538 ], [ 1.939383, 44.903173 ], [ 1.940033, 44.901792 ], [ 1.940199, 44.901173 ], [ 1.940432646113619, 44.900677532800231 ], [ 1.937613, 44.904115 ], [ 1.93657, 44.907561 ], [ 1.935484229110683, 44.907729647355097 ], [ 1.935767, 44.910365 ], [ 1.941401, 44.911695 ], [ 1.943783, 44.911042 ], [ 1.944487, 44.910907 ], [ 1.945789, 44.910941 ], [ 1.949893, 44.910651 ], [ 1.950313, 44.910587 ], [ 1.950906, 44.9106 ], [ 1.951444, 44.910732 ], [ 1.952167, 44.911163 ], [ 1.952753, 44.911735 ], [ 1.953444, 44.912433 ], [ 1.953793, 44.914438 ], [ 1.953329, 44.914893 ], [ 1.946314, 44.916637 ], [ 1.943892, 44.917976 ], [ 1.943314, 44.918347 ], [ 1.948204, 44.917651 ], [ 1.953672, 44.920297 ], [ 1.953731, 44.920355 ] ] ], [ [ [ 1.830385, 44.833133 ], [ 1.829499, 44.833579 ], [ 1.823489923920359, 44.834770882858763 ], [ 1.826359692310971, 44.835638417445459 ], [ 1.828832, 44.834171 ], [ 1.829808714392696, 44.834150022896743 ], [ 1.830889043977177, 44.832831626447074 ], [ 1.830385, 44.833133 ] ] ], [ [ [ 1.800722, 44.85874 ], [ 1.800503, 44.853794 ], [ 1.800502531611393, 44.853793646222314 ], [ 1.799898, 44.854594 ], [ 1.798481, 44.85647 ], [ 1.795609, 44.854301 ], [ 1.795607161542863, 44.854302040767166 ], [ 1.79558, 44.854338 ], [ 1.795558376973745, 44.854329658151421 ], [ 1.788197, 44.858497 ], [ 1.787816356936422, 44.859802585956395 ], [ 1.789275, 44.862813 ], [ 1.797187, 44.860761 ], [ 1.800782, 44.860948 ], [ 1.80075, 44.861568 ], [ 1.80356921226044, 44.864435656394008 ], [ 1.804294, 44.864353 ], [ 1.808155629394875, 44.859446039996897 ], [ 1.800722, 44.85874 ] ] ], [ [ [ 1.811499040564997, 44.846794071224494 ], [ 1.812358758254615, 44.848303573144399 ], [ 1.812705, 44.847381 ], [ 1.811600447262191, 44.846837209311545 ], [ 1.811499040564997, 44.846794071224494 ] ] ], [ [ [ 1.775052, 44.861089 ], [ 1.773993, 44.861147 ], [ 1.774071, 44.864746 ], [ 1.773934, 44.871314 ], [ 1.774425, 44.874859 ], [ 1.77111, 44.880595 ], [ 1.768756, 44.883478 ], [ 1.760869, 44.885587 ], [ 1.752786, 44.883154 ], [ 1.751836, 44.881869 ], [ 1.75156, 44.881516 ], [ 1.749011, 44.877589 ], [ 1.748779, 44.877166 ], [ 1.748376, 44.876364 ], [ 1.747786, 44.875269 ], [ 1.744617, 44.876978 ], [ 1.745245, 44.878383 ], [ 1.746189, 44.880911 ], [ 1.746063, 44.889381 ], [ 1.74301, 44.893369 ], [ 1.742742, 44.893758 ], [ 1.743954, 44.901541 ], [ 1.743938, 44.901733 ], [ 1.738433, 44.907693 ], [ 1.735675, 44.906964 ], [ 1.735152, 44.906636 ], [ 1.734515, 44.906341 ], [ 1.733004, 44.909609 ], [ 1.73258, 44.915817 ], [ 1.733307, 44.919169 ], [ 1.735744, 44.923602 ], [ 1.735113, 44.928277 ], [ 1.735424, 44.931864 ], [ 1.735563, 44.935562 ], [ 1.740385, 44.942109 ], [ 1.747564, 44.941443 ], [ 1.749649, 44.94118 ], [ 1.751563, 44.938131 ], [ 1.75233170042406, 44.937426105669928 ], [ 1.751643, 44.937313 ], [ 1.749597, 44.937689 ], [ 1.748221, 44.936195 ], [ 1.748014, 44.934456 ], [ 1.742664, 44.927974 ], [ 1.741069, 44.927428 ], [ 1.739345, 44.926581 ], [ 1.739996, 44.925029 ], [ 1.738503, 44.916787 ], [ 1.735754, 44.914462 ], [ 1.735203, 44.913493 ], [ 1.735001, 44.912948 ], [ 1.734643, 44.911786 ], [ 1.734649, 44.911632 ], [ 1.735959, 44.910194 ], [ 1.74323, 44.906414 ], [ 1.745356, 44.903723 ], [ 1.74751, 44.899652 ], [ 1.748725, 44.893485 ], [ 1.746454, 44.890654 ], [ 1.74696, 44.889922 ], [ 1.750099, 44.885799 ], [ 1.753588, 44.88499 ], [ 1.754103, 44.885585 ], [ 1.754391, 44.885996 ], [ 1.757512, 44.889586 ], [ 1.765638, 44.891895 ], [ 1.768461, 44.891796 ], [ 1.774506, 44.885258 ], [ 1.774837, 44.882644 ], [ 1.776293, 44.874067 ], [ 1.777639, 44.871731 ], [ 1.777431, 44.863784 ], [ 1.776939, 44.862073 ], [ 1.776975, 44.861913 ], [ 1.777935, 44.86077 ], [ 1.779625268043217, 44.85764150499098 ], [ 1.778405287722691, 44.856278382494025 ], [ 1.776429, 44.860895 ], [ 1.775052, 44.861089 ] ] ], [ [ [ 1.90334, 44.954424 ], [ 1.902538, 44.95465 ], [ 1.901889530687605, 44.956048620621516 ], [ 1.90334, 44.954424 ] ] ], [ [ [ 1.760053, 44.949225 ], [ 1.760088, 44.949409 ], [ 1.763634239858389, 44.94919431294197 ], [ 1.763187, 44.944676 ], [ 1.760953, 44.940801 ], [ 1.760419, 44.945192 ], [ 1.760086, 44.946676 ], [ 1.760103, 44.948312 ], [ 1.760053, 44.949225 ] ] ] ] } },
{ "type": "Feature", "properties": { "codgeo": "46038", "value": 960, "isochrone_group": 16.0, "nb_agences": 1 }, "geometry": { "type": "MultiPolygon", "coordinates": [ [ [ [ 1.924973, 44.939534 ], [ 1.92497, 44.939533 ], [ 1.920061, 44.934478 ], [ 1.922809, 44.927883 ], [ 1.922183, 44.928057 ], [ 1.921305, 44.928278 ], [ 1.920695, 44.928428 ], [ 1.915968, 44.933985 ], [ 1.916756, 44.9368 ], [ 1.922134514180653, 44.941138435772515 ], [ 1.922632, 44.941 ], [ 1.925823, 44.940443 ], [ 1.926324, 44.941058 ], [ 1.925636, 44.93996 ], [ 1.925532, 44.939856 ], [ 1.92522, 44.939613 ], [ 1.924973, 44.939534 ] ] ], [ [ [ 1.955465, 44.926142 ], [ 1.955824, 44.926443 ], [ 1.95825, 44.925249 ], [ 1.964843, 44.920152 ], [ 1.96796, 44.918352 ], [ 1.970415, 44.912908 ], [ 1.969057, 44.909574 ], [ 1.965497, 44.910128 ], [ 1.964842, 44.910204 ], [ 1.957926, 44.905133 ], [ 1.955272, 44.903473 ], [ 1.954731, 44.903573 ], [ 1.953756, 44.904085 ], [ 1.952489, 44.905309 ], [ 1.946958061918482, 44.90592606399246 ], [ 1.947121, 44.90666 ], [ 1.947106, 44.907117 ], [ 1.943907, 44.907514 ], [ 1.942171269650775, 44.90768541706769 ], [ 1.943316, 44.909538 ], [ 1.946759, 44.908337 ], [ 1.952125, 44.907344 ], [ 1.954999, 44.908584 ], [ 1.959791, 44.911973 ], [ 1.962332, 44.914523 ], [ 1.961155, 44.91638 ], [ 1.960656, 44.916891 ], [ 1.956779, 44.920026 ], [ 1.956488, 44.920189 ], [ 1.956222, 44.920266 ], [ 1.954136, 44.920513 ], [ 1.954038, 44.920517 ], [ 1.953731, 44.920355 ], [ 1.953672, 44.920297 ], [ 1.948204, 44.917651 ], [ 1.943314, 44.918347 ], [ 1.942482, 44.918555 ], [ 1.950025, 44.921533 ], [ 1.955016, 44.925581 ], [ 1.955465, 44.926142 ] ] ], [ [ [ 1.946823, 44.897672 ], [ 1.945530186242125, 44.896123089195157 ], [ 1.94562184953035, 44.899393680960486 ], [ 1.946823, 44.897672 ] ] ], [ [ [ 1.806708, 44.847939 ], [ 1.80157, 44.852299 ], [ 1.80136304329822, 44.855708681266094 ], [ 1.805855, 44.855566 ], [ 1.809366, 44.854953 ], [ 1.808486153041588, 44.848002811074359 ], [ 1.806708, 44.847939 ] ] ], [ [ [ 1.769768, 44.861913 ], [ 1.770898, 44.865331 ], [ 1.771578, 44.865285 ], [ 1.772023, 44.865226 ], [ 1.773658, 44.864788 ], [ 1.774070924405413, 44.864749624125899 ], [ 1.774071, 44.864746 ], [ 1.773993, 44.861147 ], [ 1.775052, 44.861089 ], [ 1.776429, 44.860895 ], [ 1.776969944484276, 44.859631351115695 ], [ 1.776004, 44.856907 ], [ 1.774080548028289, 44.854510791864882 ], [ 1.769929, 44.86186 ], [ 1.769768, 44.861913 ] ] ], [ [ [ 1.76846, 44.880375 ], [ 1.767057, 44.882224 ], [ 1.76526124873659, 44.88441250366612 ], [ 1.768756, 44.883478 ], [ 1.77111, 44.880595 ], [ 1.773983049904116, 44.875623713650064 ], [ 1.770132, 44.878219 ], [ 1.76966, 44.878246 ], [ 1.76846, 44.880375 ] ] ], [ [ [ 1.752786, 44.883154 ], [ 1.755193659379399, 44.883878710536948 ], [ 1.75156, 44.881516 ], [ 1.751836, 44.881869 ], [ 1.752786, 44.883154 ] ] ], [ [ [ 1.746914, 44.874128 ], [ 1.746429, 44.873641 ], [ 1.742368, 44.866874 ], [ 1.738838, 44.866169 ], [ 1.73605, 44.86841 ], [ 1.734677, 44.870413 ], [ 1.735059, 44.870871 ], [ 1.735931, 44.871712 ], [ 1.736617, 44.871965 ], [ 1.73764, 44.872416 ], [ 1.740616, 44.874236 ], [ 1.741026, 44.874514 ], [ 1.742228, 44.875108 ], [ 1.745245, 44.878383 ], [ 1.744617, 44.876978 ], [ 1.747774992023137, 44.875274936457075 ], [ 1.747663, 44.875072 ], [ 1.747377, 44.874678 ], [ 1.746914, 44.874128 ] ] ], [ [ [ 1.740384, 44.894364 ], [ 1.739305, 44.895819 ], [ 1.734697, 44.902801 ], [ 1.733597, 44.903786 ], [ 1.732968, 44.905027 ], [ 1.731918, 44.907553 ], [ 1.729441, 44.914784 ], [ 1.727402, 44.917751 ], [ 1.730471, 44.924283 ], [ 1.729054, 44.927776 ], [ 1.72887, 44.931372 ], [ 1.732833, 44.932432 ], [ 1.733911, 44.939647 ], [ 1.73126, 44.942283 ], [ 1.730891, 44.944944 ], [ 1.731063, 44.945118 ], [ 1.734739, 44.946332 ], [ 1.734934, 44.946365 ], [ 1.735179, 44.946391 ], [ 1.736726, 44.945695 ], [ 1.736778, 44.945634 ], [ 1.743554, 44.942291 ], [ 1.747823, 44.943858 ], [ 1.753416, 44.943991 ], [ 1.756622, 44.94769 ], [ 1.757182, 44.948701 ], [ 1.757809856228561, 44.951380746987397 ], [ 1.759004, 44.950587 ], [ 1.76006693392022, 44.948970566616772 ], [ 1.760103, 44.948312 ], [ 1.760086, 44.946676 ], [ 1.760112520472571, 44.946557812668772 ], [ 1.755778, 44.941467 ], [ 1.755143, 44.941365 ], [ 1.753796, 44.941205 ], [ 1.752327552381708, 44.937429909403377 ], [ 1.751563, 44.938131 ], [ 1.749649, 44.94118 ], [ 1.747564, 44.941443 ], [ 1.740385, 44.942109 ], [ 1.735563, 44.935562 ], [ 1.735424, 44.931864 ], [ 1.735113, 44.928277 ], [ 1.735744, 44.923602 ], [ 1.733307, 44.919169 ], [ 1.73258, 44.915817 ], [ 1.733004, 44.909609 ], [ 1.734515, 44.906341 ], [ 1.735152, 44.906636 ], [ 1.735675, 44.906964 ], [ 1.738433, 44.907693 ], [ 1.743938, 44.901733 ], [ 1.743954, 44.901541 ], [ 1.742742, 44.893758 ], [ 1.74301, 44.893369 ], [ 1.746063, 44.889381 ], [ 1.746189, 44.880911 ], [ 1.745245, 44.878383 ], [ 1.744192, 44.885849 ], [ 1.743742, 44.88942 ], [ 1.740384, 44.894364 ] ] ], [ [ [ 1.911905, 44.956477 ], [ 1.911906010920633, 44.956476534767539 ], [ 1.911018, 44.956233 ], [ 1.911905, 44.956477 ] ] ] ] } },
{ "type": "Feature", "properties": { "codgeo": "46038", "value": 1020, "isochrone_group": 17.0, "nb_agences": 1 }, "geometry": { "type": "MultiPolygon", "coordinates": [ [ [ [ 1.924705226196229, 44.939260351481337 ], [ 1.921998, 44.936396 ], [ 1.922809, 44.927883 ], [ 1.920061, 44.934478 ], [ 1.924705226196229, 44.939260351481337 ] ] ], [ [ [ 1.954969, 44.930944 ], [ 1.959904, 44.930332 ], [ 1.961337, 44.928993 ], [ 1.961749, 44.926885 ], [ 1.968317, 44.921447 ], [ 1.968972, 44.92141 ], [ 1.972413, 44.92107 ], [ 1.977838, 44.919438 ], [ 1.978467, 44.917064 ], [ 1.97888, 44.909722 ], [ 1.978119, 44.906774 ], [ 1.977899, 44.906393 ], [ 1.977471, 44.906505 ], [ 1.976936, 44.906732 ], [ 1.9736, 44.907871 ], [ 1.973449, 44.907972 ], [ 1.97009, 44.909329 ], [ 1.969434, 44.90945 ], [ 1.962431, 44.907597 ], [ 1.96127, 44.902706 ], [ 1.959962, 44.900372 ], [ 1.959638, 44.899808 ], [ 1.953506, 44.894946 ], [ 1.951389, 44.893099 ], [ 1.950828, 44.892541 ], [ 1.94901, 44.891957 ], [ 1.947073995037503, 44.891496922061634 ], [ 1.946172, 44.892708 ], [ 1.946441, 44.893843 ], [ 1.946259, 44.894779 ], [ 1.945522, 44.895831 ], [ 1.945530186242125, 44.896123089195157 ], [ 1.946823, 44.897672 ], [ 1.94562184953035, 44.899393680960486 ], [ 1.945763, 44.90443 ], [ 1.947643, 44.905209 ], [ 1.948475, 44.905536 ], [ 1.948719987385258, 44.905729493221472 ], [ 1.952489, 44.905309 ], [ 1.953756, 44.904085 ], [ 1.954731, 44.903573 ], [ 1.955272, 44.903473 ], [ 1.957926, 44.905133 ], [ 1.964842, 44.910204 ], [ 1.965497, 44.910128 ], [ 1.969057, 44.909574 ], [ 1.970415, 44.912908 ], [ 1.96796, 44.918352 ], [ 1.964843, 44.920152 ], [ 1.95825, 44.925249 ], [ 1.955824, 44.926443 ], [ 1.955465, 44.926142 ], [ 1.955016, 44.925581 ], [ 1.950025, 44.921533 ], [ 1.942482, 44.918555 ], [ 1.948782, 44.924863 ], [ 1.952911, 44.929448 ], [ 1.954969, 44.930944 ] ] ], [ [ [ 1.76682, 44.860806 ], [ 1.766466, 44.864388 ], [ 1.769322, 44.865395 ], [ 1.770697, 44.865436 ], [ 1.771578, 44.865285 ], [ 1.770898, 44.865331 ], [ 1.769768, 44.861913 ], [ 1.769929, 44.86186 ], [ 1.772248710353899, 44.857753571726043 ], [ 1.768714002583919, 44.855179964605597 ], [ 1.768737, 44.855559 ], [ 1.76682, 44.860806 ] ] ], [ [ [ 1.764211, 44.881556 ], [ 1.756854, 44.88309 ], [ 1.751306688282622, 44.881125746914812 ], [ 1.75156, 44.881516 ], [ 1.757238, 44.885208 ], [ 1.763765, 44.886236 ], [ 1.767057, 44.882224 ], [ 1.76846, 44.880375 ], [ 1.76966, 44.878246 ], [ 1.770132, 44.878219 ], [ 1.776293, 44.874067 ], [ 1.768974, 44.875691 ], [ 1.766439, 44.878248 ], [ 1.764211, 44.881556 ] ] ], [ [ [ 1.742886, 44.867607 ], [ 1.74289226537882, 44.867747603501208 ], [ 1.746429, 44.873641 ], [ 1.746914, 44.874128 ], [ 1.747377, 44.874678 ], [ 1.745897, 44.87182 ], [ 1.747310074750602, 44.865796618961241 ], [ 1.742886, 44.867607 ] ] ], [ [ [ 1.727675, 44.862598 ], [ 1.730022, 44.866361 ], [ 1.731135, 44.872507 ], [ 1.733534, 44.875191 ], [ 1.741026, 44.874514 ], [ 1.740616, 44.874236 ], [ 1.73764, 44.872416 ], [ 1.736617, 44.871965 ], [ 1.735931, 44.871712 ], [ 1.735059, 44.870871 ], [ 1.734677, 44.870413 ], [ 1.73605, 44.86841 ], [ 1.736182909378844, 44.868303167174311 ], [ 1.735336, 44.86681 ], [ 1.735576, 44.863967 ], [ 1.733133799618101, 44.860267973700672 ], [ 1.73, 44.85985 ], [ 1.727675, 44.862598 ] ] ], [ [ [ 1.741026, 44.874514 ], [ 1.745245, 44.878383 ], [ 1.742228, 44.875108 ], [ 1.741026, 44.874514 ] ] ], [ [ [ 1.73794, 44.895339 ], [ 1.734706, 44.900098 ], [ 1.732968, 44.905027 ], [ 1.733597, 44.903786 ], [ 1.734697, 44.902801 ], [ 1.739305, 44.895819 ], [ 1.740384, 44.894364 ], [ 1.742489430463262, 44.891264164320923 ], [ 1.74246, 44.891273 ], [ 1.739716, 44.893603 ], [ 1.73794, 44.895339 ] ] ], [ [ [ 1.723977, 44.915196 ], [ 1.724598, 44.917356 ], [ 1.725973, 44.924919 ], [ 1.725049, 44.927097 ], [ 1.723391, 44.930196 ], [ 1.723375, 44.930285 ], [ 1.723734, 44.930486 ], [ 1.725818, 44.931029 ], [ 1.728424, 44.938883 ], [ 1.727466, 44.941401 ], [ 1.723147, 44.946147 ], [ 1.724992, 44.949239 ], [ 1.729215, 44.947712 ], [ 1.735285, 44.950676 ], [ 1.735436, 44.950847 ], [ 1.735591, 44.950917 ], [ 1.7374, 44.951488 ], [ 1.737927, 44.951059 ], [ 1.739092, 44.950044 ], [ 1.741285, 44.947833 ], [ 1.745821, 44.945451 ], [ 1.748392, 44.944917 ], [ 1.752237, 44.944544 ], [ 1.755317761100403, 44.94713383294124 ], [ 1.755545663749916, 44.946448151032733 ], [ 1.753416, 44.943991 ], [ 1.747823, 44.943858 ], [ 1.743554, 44.942291 ], [ 1.736778, 44.945634 ], [ 1.736726, 44.945695 ], [ 1.735179, 44.946391 ], [ 1.734934, 44.946365 ], [ 1.734739, 44.946332 ], [ 1.731063, 44.945118 ], [ 1.730891, 44.944944 ], [ 1.73126, 44.942283 ], [ 1.733911, 44.939647 ], [ 1.732833, 44.932432 ], [ 1.72887, 44.931372 ], [ 1.729054, 44.927776 ], [ 1.730471, 44.924283 ], [ 1.727402, 44.917751 ], [ 1.729441, 44.914784 ], [ 1.731918, 44.907553 ], [ 1.725105, 44.912909 ], [ 1.723961, 44.914328 ], [ 1.723977, 44.915196 ] ] ] ] } },
{ "type": "Feature", "properties": { "codgeo": "46038", "value": 1080, "isochrone_group": 18.0, "nb_agences": 1 }, "geometry": { "type": "MultiPolygon", "coordinates": [ [ [ [ 1.925771, 44.936803 ], [ 1.9248, 44.936532 ], [ 1.922809, 44.927883 ], [ 1.921998, 44.936396 ], [ 1.925823, 44.940443 ], [ 1.927890350425737, 44.940990816251961 ], [ 1.92746, 44.940636 ], [ 1.92773, 44.937046 ], [ 1.926955, 44.936988 ], [ 1.925771, 44.936803 ] ] ], [ [ [ 1.935727, 44.922913 ], [ 1.934943, 44.924477 ], [ 1.937978, 44.921475 ], [ 1.941388, 44.918848 ], [ 1.935727, 44.922913 ] ] ], [ [ [ 1.947668, 44.927978 ], [ 1.94703, 44.933947 ], [ 1.946595, 44.934832 ], [ 1.946408, 44.935484 ], [ 1.949867, 44.936478 ], [ 1.956673, 44.936732 ], [ 1.956877, 44.936625 ], [ 1.957216, 44.936222 ], [ 1.957556, 44.935484 ], [ 1.95927, 44.932382 ], [ 1.95956, 44.931877 ], [ 1.961337, 44.928993 ], [ 1.959904, 44.930332 ], [ 1.954969, 44.930944 ], [ 1.952911, 44.929448 ], [ 1.948782, 44.924863 ], [ 1.942482, 44.918555 ], [ 1.948665, 44.925027 ], [ 1.948429, 44.926207 ], [ 1.947668, 44.927978 ] ] ], [ [ [ 1.972332, 44.922207 ], [ 1.978591, 44.919456 ], [ 1.981408, 44.919736 ], [ 1.986774, 44.920643 ], [ 1.988328, 44.919677 ], [ 1.989214, 44.917995 ], [ 1.988877, 44.917685 ], [ 1.988547, 44.917409 ], [ 1.988078, 44.91712 ], [ 1.987235, 44.916534 ], [ 1.986377, 44.915916 ], [ 1.986006, 44.915739 ], [ 1.985619, 44.915617 ], [ 1.984402, 44.906783 ], [ 1.985705, 44.905697 ], [ 1.986516, 44.904126 ], [ 1.983831, 44.901671 ], [ 1.983398, 44.901954 ], [ 1.980569, 44.903895 ], [ 1.974276, 44.906362 ], [ 1.973494, 44.906635 ], [ 1.965853, 44.908082 ], [ 1.962039, 44.90146 ], [ 1.962006, 44.900988 ], [ 1.961941, 44.900101 ], [ 1.960536, 44.898861 ], [ 1.958331, 44.890234 ], [ 1.95764, 44.886701 ], [ 1.956529, 44.886918 ], [ 1.955838, 44.887153 ], [ 1.955039, 44.887664 ], [ 1.954008, 44.888757 ], [ 1.953653, 44.889213 ], [ 1.94901, 44.891957 ], [ 1.950828, 44.892541 ], [ 1.951389, 44.893099 ], [ 1.953506, 44.894946 ], [ 1.959638, 44.899808 ], [ 1.959962, 44.900372 ], [ 1.96127, 44.902706 ], [ 1.962431, 44.907597 ], [ 1.969434, 44.90945 ], [ 1.97009, 44.909329 ], [ 1.973449, 44.907972 ], [ 1.9736, 44.907871 ], [ 1.976936, 44.906732 ], [ 1.977471, 44.906505 ], [ 1.977899, 44.906393 ], [ 1.978119, 44.906774 ], [ 1.97888, 44.909722 ], [ 1.978467, 44.917064 ], [ 1.977838, 44.919438 ], [ 1.972413, 44.92107 ], [ 1.968972, 44.92141 ], [ 1.968317, 44.921447 ], [ 1.971505, 44.922935 ], [ 1.971975, 44.922515 ], [ 1.972332, 44.922207 ] ] ], [ [ [ 1.762038, 44.853126 ], [ 1.762881, 44.854972 ], [ 1.763099, 44.856567 ], [ 1.763871, 44.856407 ], [ 1.765164, 44.856028 ], [ 1.766258, 44.855859 ], [ 1.767589, 44.85565 ], [ 1.768596160137028, 44.855944491268133 ], [ 1.768737, 44.855559 ], [ 1.768600414725143, 44.853307849116696 ], [ 1.766772, 44.853766 ], [ 1.766679, 44.852699 ], [ 1.764778764913656, 44.850179316201469 ], [ 1.763742, 44.851476 ], [ 1.762038, 44.853126 ] ] ], [ [ [ 1.766993, 44.873108 ], [ 1.766539, 44.872983 ], [ 1.766178, 44.872915 ], [ 1.765179, 44.875714 ], [ 1.762697, 44.881825 ], [ 1.762681643053046, 44.88187488453945 ], [ 1.764211, 44.881556 ], [ 1.766439, 44.878248 ], [ 1.768974, 44.875691 ], [ 1.776293, 44.874067 ], [ 1.76795, 44.873656 ], [ 1.76751, 44.873344 ], [ 1.766993, 44.873108 ] ] ], [ [ [ 1.747781, 44.875262 ], [ 1.748008745251433, 44.875698511731898 ], [ 1.748376, 44.876364 ], [ 1.748666702703549, 44.876942520020457 ], [ 1.748946, 44.877451 ], [ 1.74897796430419, 44.877528766813263 ], [ 1.749011, 44.877589 ], [ 1.749573, 44.870069 ], [ 1.749296821435244, 44.868999626126048 ], [ 1.747781, 44.875262 ] ] ], [ [ [ 1.72579, 44.869971 ], [ 1.725701, 44.870485 ], [ 1.725989, 44.871735 ], [ 1.72645, 44.871864 ], [ 1.727653, 44.872072 ], [ 1.731029631616296, 44.871925154459781 ], [ 1.730022, 44.866361 ], [ 1.729752830198955, 44.865929433761679 ], [ 1.72313, 44.861596 ], [ 1.720290367673112, 44.862123816409323 ], [ 1.726431, 44.868163 ], [ 1.72579, 44.869971 ] ] ], [ [ [ 1.732081, 44.898495 ], [ 1.727858, 44.900727 ], [ 1.724364, 44.901593 ], [ 1.724691, 44.90373 ], [ 1.725344, 44.906387 ], [ 1.721052, 44.91255 ], [ 1.720352, 44.91304 ], [ 1.720052, 44.91338 ], [ 1.72012, 44.917881 ], [ 1.720715, 44.923762 ], [ 1.718869, 44.930112 ], [ 1.722708, 44.937805 ], [ 1.721824, 44.943633 ], [ 1.716397, 44.948035 ], [ 1.716455, 44.95132 ], [ 1.716523, 44.951633 ], [ 1.718776, 44.954073 ], [ 1.720196, 44.95336 ], [ 1.720249, 44.953333 ], [ 1.7285, 44.95121 ], [ 1.729833, 44.954553 ], [ 1.737445871144135, 44.958890926576018 ], [ 1.737027, 44.958032 ], [ 1.736583, 44.956752 ], [ 1.733584, 44.95315 ], [ 1.732532, 44.949707 ], [ 1.732393535074253, 44.949264088626059 ], [ 1.729215, 44.947712 ], [ 1.724992, 44.949239 ], [ 1.723147, 44.946147 ], [ 1.727466, 44.941401 ], [ 1.728424, 44.938883 ], [ 1.725818, 44.931029 ], [ 1.723734, 44.930486 ], [ 1.723375, 44.930285 ], [ 1.723391, 44.930196 ], [ 1.725049, 44.927097 ], [ 1.725973, 44.924919 ], [ 1.724598, 44.917356 ], [ 1.723977, 44.915196 ], [ 1.723961, 44.914328 ], [ 1.725105, 44.912909 ], [ 1.731918, 44.907553 ], [ 1.732414, 44.906498 ], [ 1.732968, 44.905027 ], [ 1.734706, 44.900098 ], [ 1.73794, 44.895339 ], [ 1.739716, 44.893603 ], [ 1.74246, 44.891273 ], [ 1.74696, 44.889922 ], [ 1.746969848106739, 44.889159330125558 ], [ 1.740585, 44.889611 ], [ 1.738028, 44.892146 ], [ 1.732081, 44.898495 ] ] ], [ [ [ 1.947032, 44.955923 ], [ 1.947045764272743, 44.955907157889271 ], [ 1.946094, 44.955788 ], [ 1.947032, 44.955923 ] ] ], [ [ [ 1.905460776169125, 44.971141709494894 ], [ 1.905492, 44.971184 ], [ 1.907079, 44.974918 ], [ 1.907619, 44.975677 ], [ 1.908328, 44.976554 ], [ 1.908765, 44.977159 ], [ 1.908989, 44.978027 ], [ 1.909357, 44.979205 ], [ 1.909033, 44.972421 ], [ 1.908019, 44.970593 ], [ 1.90737899012524, 44.969428397130336 ], [ 1.905460776169125, 44.971141709494894 ] ] ], [ [ [ 1.909484, 44.980123 ], [ 1.909465, 44.983692 ], [ 1.909542954158094, 44.984186971062066 ], [ 1.909484, 44.980123 ] ] ] ] } },
{ "type": "Feature", "properties": { "codgeo": "46038", "value": 1140, "isochrone_group": 19.0, "nb_agences": 1 }, "geometry": { "type": "MultiPolygon", "coordinates": [ [ [ [ 1.955017, 44.938733 ], [ 1.955746, 44.938876 ], [ 1.958056, 44.939118 ], [ 1.959092, 44.939009 ], [ 1.961856, 44.938416 ], [ 1.962384, 44.936715 ], [ 1.962564, 44.935509 ], [ 1.962502, 44.93505 ], [ 1.961337, 44.928993 ], [ 1.95956, 44.931877 ], [ 1.95927, 44.932382 ], [ 1.957556, 44.935484 ], [ 1.957216, 44.936222 ], [ 1.956877, 44.936625 ], [ 1.956673, 44.936732 ], [ 1.949867, 44.936478 ], [ 1.946408, 44.935484 ], [ 1.946595, 44.934832 ], [ 1.94703, 44.933947 ], [ 1.947668, 44.927978 ], [ 1.948429, 44.926207 ], [ 1.948665, 44.925027 ], [ 1.942501282195654, 44.918575183465983 ], [ 1.941690046157514, 44.918767104639706 ], [ 1.941388, 44.918848 ], [ 1.937978, 44.921475 ], [ 1.934943, 44.924477 ], [ 1.934487, 44.925154 ], [ 1.933535, 44.925835 ], [ 1.932627, 44.926246 ], [ 1.93203, 44.926446 ], [ 1.931293, 44.926555 ], [ 1.93004, 44.926892 ], [ 1.928504, 44.926569 ], [ 1.922809, 44.927883 ], [ 1.9248, 44.936532 ], [ 1.925771, 44.936803 ], [ 1.926955, 44.936988 ], [ 1.92773, 44.937046 ], [ 1.927571139984674, 44.93915824983339 ], [ 1.928128, 44.938749 ], [ 1.928404, 44.938446 ], [ 1.929163, 44.937569 ], [ 1.929402, 44.937726 ], [ 1.930042, 44.938392 ], [ 1.930679, 44.939106 ], [ 1.931264, 44.939758 ], [ 1.936309, 44.942291 ], [ 1.942367, 44.93982 ], [ 1.942963, 44.939167 ], [ 1.943476, 44.938672 ], [ 1.94395, 44.938301 ], [ 1.944261, 44.938124 ], [ 1.946808, 44.937863 ], [ 1.947013, 44.938135 ], [ 1.947336, 44.938839 ], [ 1.94733, 44.939755 ], [ 1.946738, 44.940737 ], [ 1.945886, 44.941784 ], [ 1.945890856450045, 44.941792069577716 ], [ 1.946813, 44.940666 ], [ 1.951211, 44.939073 ], [ 1.951738, 44.938923 ], [ 1.955017, 44.938733 ] ] ], [ [ [ 1.984123, 44.924557 ], [ 1.984536, 44.924181 ], [ 1.993272, 44.924989 ], [ 1.999067, 44.923389 ], [ 1.999761, 44.923156 ], [ 2.000251, 44.922924 ], [ 1.998716, 44.919668 ], [ 1.996447, 44.919847 ], [ 1.99587, 44.919826 ], [ 1.992396, 44.919038 ], [ 1.991674, 44.918731 ], [ 1.989379, 44.91734 ], [ 1.986377, 44.915916 ], [ 1.987235, 44.916534 ], [ 1.988078, 44.91712 ], [ 1.988547, 44.917409 ], [ 1.988877, 44.917685 ], [ 1.989214, 44.917995 ], [ 1.988328, 44.919677 ], [ 1.986774, 44.920643 ], [ 1.981408, 44.919736 ], [ 1.978591, 44.919456 ], [ 1.975661292450636, 44.920743685807359 ], [ 1.981301, 44.92248 ], [ 1.983779, 44.924679 ], [ 1.984123, 44.924557 ] ] ], [ [ [ 1.986093, 44.899464 ], [ 1.985885, 44.898715 ], [ 1.985683, 44.898363 ], [ 1.984259, 44.896505 ], [ 1.983014, 44.895373 ], [ 1.982825, 44.895489 ], [ 1.982511, 44.895709 ], [ 1.981886, 44.896248 ], [ 1.981692, 44.89644 ], [ 1.981225, 44.897251 ], [ 1.981116, 44.898106 ], [ 1.978739384728421, 44.904612251052747 ], [ 1.980569, 44.903895 ], [ 1.983398, 44.901954 ], [ 1.983831, 44.901671 ], [ 1.986497007121709, 44.904108634072195 ], [ 1.986873, 44.903423 ], [ 1.986903, 44.902522 ], [ 1.986093, 44.899464 ] ] ], [ [ [ 1.962006, 44.900988 ], [ 1.962039, 44.90146 ], [ 1.965853, 44.908082 ], [ 1.97147557933971, 44.90701723461531 ], [ 1.966357, 44.904974 ], [ 1.961941, 44.900101 ], [ 1.962006, 44.900988 ] ] ], [ [ [ 1.960395, 44.889184 ], [ 1.9619, 44.888016 ], [ 1.961952831470512, 44.887944724916622 ], [ 1.955751, 44.884932 ], [ 1.951882, 44.885858 ], [ 1.951101, 44.88609 ], [ 1.946826988083918, 44.891828569864188 ], [ 1.947995, 44.892153 ], [ 1.94901, 44.891957 ], [ 1.953653, 44.889213 ], [ 1.954008, 44.888757 ], [ 1.955039, 44.887664 ], [ 1.955838, 44.887153 ], [ 1.956529, 44.886918 ], [ 1.95764, 44.886701 ], [ 1.958331, 44.890234 ], [ 1.960536, 44.898861 ], [ 1.958916, 44.890183 ], [ 1.959707, 44.88985 ], [ 1.960395, 44.889184 ] ] ], [ [ [ 1.723272, 44.873053 ], [ 1.724259, 44.87257 ], [ 1.724805, 44.872343 ], [ 1.726071428957986, 44.87175806580386 ], [ 1.725989, 44.871735 ], [ 1.725701, 44.870485 ], [ 1.725731723948535, 44.870307560566886 ], [ 1.723081, 44.866088 ], [ 1.722253, 44.865144 ], [ 1.720689607466023, 44.86507551330812 ], [ 1.721688, 44.86982 ], [ 1.723272, 44.873053 ] ] ], [ [ [ 1.751639881798185, 44.881618167662161 ], [ 1.751712, 44.881698 ], [ 1.751773867298583, 44.881789533175372 ], [ 1.751773867298585, 44.881789533175372 ], [ 1.751836, 44.881869 ], [ 1.755270109936348, 44.884121298884523 ], [ 1.762246, 44.88329 ], [ 1.762697, 44.881825 ], [ 1.765179, 44.875714 ], [ 1.766178, 44.872915 ], [ 1.766539, 44.872983 ], [ 1.766993, 44.873108 ], [ 1.76751, 44.873344 ], [ 1.76795, 44.873656 ], [ 1.774301429361104, 44.873968889544216 ], [ 1.773933, 44.871315 ], [ 1.774071, 44.864746 ], [ 1.773993, 44.861147 ], [ 1.77459119610589, 44.858489939750044 ], [ 1.774087, 44.85755 ], [ 1.767589, 44.85565 ], [ 1.766258, 44.855859 ], [ 1.765164, 44.856028 ], [ 1.763871, 44.856407 ], [ 1.763099, 44.856567 ], [ 1.762881, 44.854972 ], [ 1.762038, 44.853126 ], [ 1.763742, 44.851476 ], [ 1.764778764913656, 44.850179316201469 ], [ 1.764730605310254, 44.850115457275123 ], [ 1.762014085659558, 44.85016836840488 ], [ 1.757414, 44.854131 ], [ 1.757719, 44.857718 ], [ 1.759396, 44.861253 ], [ 1.760288, 44.862006 ], [ 1.76068, 44.862646 ], [ 1.762306, 44.864873 ], [ 1.762606, 44.866042 ], [ 1.762365, 44.866862 ], [ 1.761896, 44.867676 ], [ 1.753988, 44.869846 ], [ 1.753071, 44.870408 ], [ 1.7525, 44.870655 ], [ 1.749139614934769, 44.877787144703355 ], [ 1.75156, 44.881516 ], [ 1.751639881798185, 44.881618167662161 ] ] ], [ [ [ 1.737733, 44.889164 ], [ 1.738096436553835, 44.892078152262826 ], [ 1.740585, 44.889611 ], [ 1.746131430021877, 44.889218640571919 ], [ 1.746131579741415, 44.889197035281278 ], [ 1.740489, 44.889521 ], [ 1.739164, 44.888789 ], [ 1.737733, 44.889164 ] ] ], [ [ [ 1.726232, 44.893926 ], [ 1.725876, 44.893667 ], [ 1.720986, 44.892396 ], [ 1.719286, 44.892854 ], [ 1.718451, 44.893569 ], [ 1.718713, 44.895187 ], [ 1.720807, 44.90051 ], [ 1.721022, 44.904085 ], [ 1.721368, 44.905292 ], [ 1.717234, 44.912646 ], [ 1.716184, 44.912941 ], [ 1.715654, 44.91324 ], [ 1.714944, 44.916271 ], [ 1.715703, 44.917865 ], [ 1.714235, 44.926326 ], [ 1.713254, 44.927059 ], [ 1.712765, 44.927452 ], [ 1.711889, 44.928232 ], [ 1.711716, 44.928418 ], [ 1.714351, 44.93087 ], [ 1.716966, 44.936558 ], [ 1.716425, 44.940117 ], [ 1.711458, 44.946448 ], [ 1.71101, 44.946747 ], [ 1.705632, 44.948606 ], [ 1.705185, 44.952178 ], [ 1.711996, 44.955434 ], [ 1.714041, 44.958281 ], [ 1.714646, 44.959012 ], [ 1.714918, 44.959252 ], [ 1.715531, 44.959435 ], [ 1.720577, 44.957551 ], [ 1.726782, 44.956693 ], [ 1.728883973717394, 44.957251023596243 ], [ 1.728887, 44.955003 ], [ 1.726992, 44.951942 ], [ 1.727045915500259, 44.951584139061076 ], [ 1.720249, 44.953333 ], [ 1.720196, 44.95336 ], [ 1.718776, 44.954073 ], [ 1.716523, 44.951633 ], [ 1.716455, 44.95132 ], [ 1.716397, 44.948035 ], [ 1.721824, 44.943633 ], [ 1.722708, 44.937805 ], [ 1.718869, 44.930112 ], [ 1.720715, 44.923762 ], [ 1.72012, 44.917881 ], [ 1.720052, 44.91338 ], [ 1.720352, 44.91304 ], [ 1.721052, 44.91255 ], [ 1.725344, 44.906387 ], [ 1.724691, 44.90373 ], [ 1.724364, 44.901593 ], [ 1.727858, 44.900727 ], [ 1.732081, 44.898495 ], [ 1.732652775501885, 44.897884574127879 ], [ 1.726899, 44.897195 ], [ 1.726334, 44.894867 ], [ 1.726232, 44.893926 ] ] ], [ [ [ 1.9199, 44.96496 ], [ 1.920732, 44.964436 ], [ 1.91955, 44.964644 ], [ 1.911247, 44.964491 ], [ 1.910579261232914, 44.965487818463274 ], [ 1.917997, 44.964991 ], [ 1.918652, 44.965093 ], [ 1.919392, 44.965075 ], [ 1.9199, 44.96496 ] ] ], [ [ [ 1.908227325444692, 44.970968561058093 ], [ 1.909033, 44.972421 ], [ 1.909529759834569, 44.966617865129862 ], [ 1.908719, 44.967163 ], [ 1.908227325444692, 44.970968561058093 ] ] ] ] } },
{ "type": "Feature", "properties": { "codgeo": "46038", "value": 1200, "isochrone_group": 20.0, "nb_agences": 1 }, "geometry": { "type": "MultiPolygon", "coordinates": [ [ [ [ 1.955102, 44.954878 ], [ 1.953725731925225, 44.957058127019103 ], [ 1.960159, 44.954739 ], [ 1.958536, 44.954493 ], [ 1.957933, 44.954469 ], [ 1.955514, 44.954804 ], [ 1.955102, 44.954878 ] ] ], [ [ [ 1.968081, 44.940499 ], [ 1.969642, 44.939776 ], [ 1.97023, 44.939327 ], [ 1.971312, 44.93839 ], [ 1.969622, 44.935212 ], [ 1.964547, 44.931305 ], [ 1.961749, 44.926885 ], [ 1.961337, 44.928993 ], [ 1.962502, 44.93505 ], [ 1.962564, 44.935509 ], [ 1.962384, 44.936715 ], [ 1.961856, 44.938416 ], [ 1.959092, 44.939009 ], [ 1.966172, 44.941591 ], [ 1.966299, 44.941599 ], [ 1.968081, 44.940499 ] ] ], [ [ [ 1.980495, 44.926434 ], [ 1.981347, 44.927868 ], [ 1.983922, 44.92844 ], [ 1.992859, 44.927543 ], [ 2.001193, 44.92434 ], [ 2.003736, 44.924948 ], [ 2.006888, 44.926688 ], [ 2.009458, 44.924125 ], [ 2.009439, 44.923164 ], [ 2.006885, 44.920627 ], [ 2.006007, 44.920258 ], [ 2.00557, 44.920088 ], [ 2.005031, 44.91997 ], [ 2.002874, 44.919691 ], [ 2.001913, 44.919542 ], [ 2.000757, 44.91931 ], [ 1.993268, 44.916143 ], [ 1.990872, 44.915279 ], [ 1.986006, 44.915739 ], [ 1.986377, 44.915916 ], [ 1.989379, 44.91734 ], [ 1.991674, 44.918731 ], [ 1.992396, 44.919038 ], [ 1.99587, 44.919826 ], [ 1.996447, 44.919847 ], [ 1.998716, 44.919668 ], [ 2.000251, 44.922924 ], [ 1.999761, 44.923156 ], [ 1.999067, 44.923389 ], [ 1.993272, 44.924989 ], [ 1.984536, 44.924181 ], [ 1.984123, 44.924557 ], [ 1.983779, 44.924679 ], [ 1.981301, 44.92248 ], [ 1.972791, 44.91986 ], [ 1.980121, 44.924942 ], [ 1.980194, 44.925839 ], [ 1.980495, 44.926434 ] ] ], [ [ [ 1.979096, 44.897704 ], [ 1.979113, 44.897751 ], [ 1.978109, 44.906338 ], [ 1.981116, 44.898106 ], [ 1.981123092533408, 44.898050365907672 ], [ 1.981112, 44.897997 ], [ 1.981164577710856, 44.897724954653377 ], [ 1.981225, 44.897251 ], [ 1.981271928965632, 44.897169502374474 ], [ 1.98129, 44.897076 ], [ 1.980971753777799, 44.895007147778614 ], [ 1.979096, 44.897704 ] ] ], [ [ [ 1.986093, 44.899464 ], [ 1.986903, 44.902522 ], [ 1.986873, 44.903423 ], [ 1.990979339914232, 44.897550492380716 ], [ 1.985888309126286, 44.898726916036495 ], [ 1.986093, 44.899464 ] ] ], [ [ [ 1.966357, 44.904974 ], [ 1.974406, 44.908187 ], [ 1.975926, 44.907623 ], [ 1.968311, 44.903315 ], [ 1.961941, 44.900101 ], [ 1.966357, 44.904974 ] ] ], [ [ [ 1.9619, 44.888016 ], [ 1.961999884000816, 44.887967582088905 ], [ 1.961952831470512, 44.887944724916622 ], [ 1.9619, 44.888016 ] ] ], [ [ [ 1.718866, 44.866986 ], [ 1.718262, 44.871601 ], [ 1.718208, 44.872329 ], [ 1.718221, 44.873064 ], [ 1.721348, 44.873412 ], [ 1.722047, 44.873345 ], [ 1.722673, 44.873253 ], [ 1.723248552276627, 44.873005142367653 ], [ 1.721688, 44.86982 ], [ 1.721188856202446, 44.867448005995421 ], [ 1.720425, 44.864267 ], [ 1.719981819460121, 44.862443117027802 ], [ 1.718036553386746, 44.861225732296425 ], [ 1.713372456610846, 44.86070506542368 ], [ 1.715905, 44.861801 ], [ 1.718866, 44.866986 ] ] ], [ [ [ 1.73583, 44.898234 ], [ 1.726899, 44.897195 ], [ 1.735802, 44.898262 ], [ 1.73583, 44.898234 ] ] ], [ [ [ 1.717627, 44.894089 ], [ 1.717006, 44.893691 ], [ 1.712394812981746, 44.891264164073583 ], [ 1.715763, 44.897842 ], [ 1.715391, 44.90157 ], [ 1.71645, 44.901846 ], [ 1.718023, 44.902574 ], [ 1.718764, 44.903135 ], [ 1.71385, 44.910562 ], [ 1.713129, 44.910789 ], [ 1.712318, 44.911992 ], [ 1.711929, 44.913641 ], [ 1.713049, 44.915705 ], [ 1.714088, 44.916522 ], [ 1.7156374725718, 44.918242675456405 ], [ 1.715703, 44.917865 ], [ 1.714944, 44.916271 ], [ 1.715654, 44.91324 ], [ 1.716184, 44.912941 ], [ 1.717234, 44.912646 ], [ 1.721368, 44.905292 ], [ 1.721022, 44.904085 ], [ 1.720807, 44.90051 ], [ 1.718713, 44.895187 ], [ 1.718451, 44.893569 ], [ 1.719286, 44.892854 ], [ 1.720986, 44.892396 ], [ 1.721704484413798, 44.892582747175872 ], [ 1.720124, 44.891496 ], [ 1.720106365812932, 44.891480667175017 ], [ 1.717627, 44.894089 ] ] ], [ [ [ 1.718101808971, 44.88952165993647 ], [ 1.718797, 44.890306 ], [ 1.719345676394192, 44.890788153504722 ], [ 1.718452, 44.889843 ], [ 1.718101808971, 44.88952165993647 ] ] ], [ [ [ 1.717061, 44.88873 ], [ 1.716902818523736, 44.888531140377779 ], [ 1.717002, 44.888688 ], [ 1.717865950210305, 44.889305232721398 ], [ 1.717748, 44.889197 ], [ 1.717061, 44.88873 ] ] ], [ [ [ 1.71051470754717, 44.888836735849047 ], [ 1.710425443020904, 44.888606271072156 ], [ 1.710436, 44.888656 ], [ 1.71051470754717, 44.888836735849047 ] ] ], [ [ [ 1.710703168483845, 44.88916793005555 ], [ 1.710580937334509, 44.888988819064423 ], [ 1.710598, 44.889028 ], [ 1.710703168483845, 44.88916793005555 ] ] ], [ [ [ 1.704338, 44.931735 ], [ 1.705087, 44.935256 ], [ 1.709789, 44.939693 ], [ 1.703141, 44.944341 ], [ 1.7027, 44.944526 ], [ 1.698958, 44.945755 ], [ 1.697522, 44.949057 ], [ 1.699016, 44.952126 ], [ 1.701934, 44.954617 ], [ 1.701977, 44.954638 ], [ 1.705342, 44.954702 ], [ 1.712618, 44.959674 ], [ 1.712157090536058, 44.963836182426014 ], [ 1.713118, 44.960864 ], [ 1.713421, 44.959548 ], [ 1.713906944278069, 44.958094370836022 ], [ 1.711996, 44.955434 ], [ 1.705185, 44.952178 ], [ 1.705632, 44.948606 ], [ 1.71101, 44.946747 ], [ 1.711458, 44.946448 ], [ 1.716425, 44.940117 ], [ 1.716966, 44.936558 ], [ 1.714351, 44.93087 ], [ 1.711716, 44.928418 ], [ 1.711889, 44.928232 ], [ 1.706812, 44.93103 ], [ 1.706207, 44.931188 ], [ 1.704338, 44.931735 ] ] ], [ [ [ 1.953689, 44.948977 ], [ 1.955152294124908, 44.948564635308166 ], [ 1.95394, 44.94197 ], [ 1.958056, 44.939118 ], [ 1.955746, 44.938876 ], [ 1.955017, 44.938733 ], [ 1.951738, 44.938923 ], [ 1.951211, 44.939073 ], [ 1.94718743999881, 44.94053037405228 ], [ 1.946704720642644, 44.943155851466514 ], [ 1.947724692385006, 44.944847478688416 ], [ 1.953689, 44.948977 ] ] ], [ [ [ 1.926646, 44.965955 ], [ 1.932181223382675, 44.96960619829067 ], [ 1.930476585995006, 44.964390236154081 ], [ 1.928621976611252, 44.963514456275185 ], [ 1.926432, 44.964168 ], [ 1.920732, 44.964436 ], [ 1.9199, 44.96496 ], [ 1.919392, 44.965075 ], [ 1.918652, 44.965093 ], [ 1.917997, 44.964991 ], [ 1.910191562678025, 44.965513785379379 ], [ 1.909569992528486, 44.966147867894286 ], [ 1.909051249152936, 44.972207813891984 ], [ 1.912288, 44.96776 ], [ 1.915675, 44.966539 ], [ 1.92384, 44.965128 ], [ 1.926485, 44.965898 ], [ 1.926646, 44.965955 ] ] ] ] } }
]
}
