{
"type": "FeatureCollection",
"name": "La_Banque_Postale",
"crs": { "type": "name", "properties": { "name": "urn:ogc:def:crs:OGC:1.3:CRS84" } },
"features": [
{ "type": "Feature", "properties": { "codgeo": "30133", "value": 60, "isochrone_group": 1.0, "nb_agences": 2 }, "geometry": { "type": "MultiPolygon", "coordinates": [ [ [ [ 4.136774, 43.535774 ], [ 4.137043, 43.536013 ], [ 4.138382, 43.535863 ], [ 4.140544, 43.535262 ], [ 4.14066, 43.53523 ], [ 4.14137, 43.531214 ], [ 4.141095, 43.530983 ], [ 4.13927, 43.532269 ], [ 4.139035, 43.532534 ], [ 4.138799, 43.532799 ], [ 4.136948, 43.534729 ], [ 4.136803, 43.535058 ], [ 4.136774, 43.535774 ] ] ], [ [ [ 4.128901, 43.544473 ], [ 4.129091, 43.544778 ], [ 4.131105, 43.54516 ], [ 4.131461, 43.545216 ], [ 4.133227, 43.543845 ], [ 4.133312, 43.543709 ], [ 4.133636, 43.542282 ], [ 4.133676, 43.542076 ], [ 4.132359, 43.541222 ], [ 4.132065, 43.541408 ], [ 4.131772, 43.541595 ], [ 4.131557, 43.541759 ], [ 4.130078, 43.543124 ], [ 4.128901, 43.544473 ] ] ] ] } },
{ "type": "Feature", "properties": { "codgeo": "30133", "value": 120, "isochrone_group": 2.0, "nb_agences": 2 }, "geometry": { "type": "MultiPolygon", "coordinates": [ [ [ [ 4.135258, 43.535758 ], [ 4.135395, 43.535875 ], [ 4.136377, 43.536499 ], [ 4.138515, 43.537556 ], [ 4.139972, 43.537536 ], [ 4.139988, 43.537534 ], [ 4.144295, 43.535392 ], [ 4.145763, 43.532406 ], [ 4.145361, 43.531483 ], [ 4.145215, 43.531154 ], [ 4.143059, 43.527041 ], [ 4.141238, 43.526662 ], [ 4.141233, 43.52667 ], [ 4.141052, 43.527708 ], [ 4.139599540488454, 43.532036786811965 ], [ 4.141095, 43.530983 ], [ 4.14137, 43.531214 ], [ 4.14066, 43.53523 ], [ 4.140544, 43.535262 ], [ 4.138382, 43.535863 ], [ 4.137043, 43.536013 ], [ 4.136774, 43.535774 ], [ 4.136803, 43.535058 ], [ 4.136948, 43.534729 ], [ 4.138799, 43.532799 ], [ 4.138837617979759, 43.532755636590537 ], [ 4.137454, 43.533769 ], [ 4.136778, 43.53434 ], [ 4.136382, 43.534675 ], [ 4.135166, 43.535589 ], [ 4.135122, 43.53564 ], [ 4.135258, 43.535758 ] ] ], [ [ [ 4.128686, 43.547744 ], [ 4.128791, 43.547782 ], [ 4.128937, 43.547802 ], [ 4.12944, 43.547646 ], [ 4.133331, 43.54567 ], [ 4.133402, 43.54561 ], [ 4.135065, 43.542852 ], [ 4.135467, 43.542161 ], [ 4.135215, 43.54061 ], [ 4.135078, 43.540276 ], [ 4.134414, 43.539807 ], [ 4.134099, 43.539711 ], [ 4.132881, 43.539804 ], [ 4.132843, 43.539811 ], [ 4.128961, 43.543877 ], [ 4.128311, 43.54428 ], [ 4.127471, 43.545479 ], [ 4.128686, 43.547744 ] ], [ [ 4.130078, 43.543124 ], [ 4.131557, 43.541759 ], [ 4.131772, 43.541595 ], [ 4.132065, 43.541408 ], [ 4.132359, 43.541222 ], [ 4.133676, 43.542076 ], [ 4.133636, 43.542282 ], [ 4.133312, 43.543709 ], [ 4.133227, 43.543845 ], [ 4.131461, 43.545216 ], [ 4.131105, 43.54516 ], [ 4.129091, 43.544778 ], [ 4.128901, 43.544473 ], [ 4.130078, 43.543124 ] ] ] ] } },
{ "type": "Feature", "properties": { "codgeo": "30133", "value": 180, "isochrone_group": 3.0, "nb_agences": 2 }, "geometry": { "type": "MultiPolygon", "coordinates": [ [ [ [ 4.137285, 43.537676 ], [ 4.141083, 43.538834 ], [ 4.14241, 43.53926 ], [ 4.143213, 43.539168 ], [ 4.145291, 43.537649 ], [ 4.149151, 43.531309 ], [ 4.148576, 43.528008 ], [ 4.148467, 43.527776 ], [ 4.141372, 43.524647 ], [ 4.141139, 43.524921 ], [ 4.140594, 43.526566 ], [ 4.136778, 43.53434 ], [ 4.137454, 43.533769 ], [ 4.139528, 43.53225 ], [ 4.141052, 43.527708 ], [ 4.141233, 43.52667 ], [ 4.141238, 43.526662 ], [ 4.143059, 43.527041 ], [ 4.145215, 43.531154 ], [ 4.145361, 43.531483 ], [ 4.145763, 43.532406 ], [ 4.144295, 43.535392 ], [ 4.139988, 43.537534 ], [ 4.139972, 43.537536 ], [ 4.138515, 43.537556 ], [ 4.136377, 43.536499 ], [ 4.135395, 43.535875 ], [ 4.135258, 43.535758 ], [ 4.137285, 43.537676 ] ] ], [ [ [ 4.126402, 43.550685 ], [ 4.134192, 43.549371 ], [ 4.134869, 43.549237 ], [ 4.137925, 43.542059 ], [ 4.137953, 43.541824 ], [ 4.136809, 43.538722 ], [ 4.136487, 43.53856 ], [ 4.134024, 43.537926 ], [ 4.133907, 43.537942 ], [ 4.133529, 43.538296 ], [ 4.128311, 43.54428 ], [ 4.128961, 43.543877 ], [ 4.132843, 43.539811 ], [ 4.132881, 43.539804 ], [ 4.134099, 43.539711 ], [ 4.134414, 43.539807 ], [ 4.135078, 43.540276 ], [ 4.135215, 43.54061 ], [ 4.135467, 43.542161 ], [ 4.135065, 43.542852 ], [ 4.133402, 43.54561 ], [ 4.133331, 43.54567 ], [ 4.12944, 43.547646 ], [ 4.128937, 43.547802 ], [ 4.128791, 43.547782 ], [ 4.128686, 43.547744 ], [ 4.127471, 43.545479 ], [ 4.126475, 43.547308 ], [ 4.125412, 43.55023 ], [ 4.125445, 43.550589 ], [ 4.126402, 43.550685 ] ] ] ] } },
{ "type": "Feature", "properties": { "codgeo": "30133", "value": 240, "isochrone_group": 4.0, "nb_agences": 2 }, "geometry": { "type": "MultiPolygon", "coordinates": [ [ [ [ 4.146775, 43.541756 ], [ 4.146921, 43.541427 ], [ 4.147566797843619, 43.5339110315211 ], [ 4.145291, 43.537649 ], [ 4.143213, 43.539168 ], [ 4.14241, 43.53926 ], [ 4.141083, 43.538834 ], [ 4.137285, 43.537676 ], [ 4.142928, 43.540521 ], [ 4.146775, 43.541756 ] ] ], [ [ [ 4.149572, 43.530812 ], [ 4.149762, 43.530553 ], [ 4.149959, 43.530284 ], [ 4.150119, 43.530027 ], [ 4.15029, 43.52975 ], [ 4.150383, 43.529546 ], [ 4.150483, 43.529323 ], [ 4.150551, 43.529117 ], [ 4.150626, 43.52888 ], [ 4.150656, 43.528666 ], [ 4.150687, 43.528418 ], [ 4.150675, 43.528178 ], [ 4.150286, 43.526037 ], [ 4.150256, 43.525953 ], [ 4.15007, 43.525749 ], [ 4.147787, 43.524867 ], [ 4.147301, 43.524699 ], [ 4.146815, 43.524531 ], [ 4.140945, 43.522527 ], [ 4.14047, 43.522485 ], [ 4.138626, 43.523245 ], [ 4.140594, 43.526566 ], [ 4.141139, 43.524921 ], [ 4.141372, 43.524647 ], [ 4.148467, 43.527776 ], [ 4.148576, 43.528008 ], [ 4.149150981995076, 43.531308896636091 ], [ 4.149572, 43.530812 ] ] ], [ [ [ 4.134136, 43.536216 ], [ 4.13402, 43.536162 ], [ 4.133067286596485, 43.538825492718786 ], [ 4.133529, 43.538296 ], [ 4.133907, 43.537942 ], [ 4.134024, 43.537926 ], [ 4.136487, 43.53856 ], [ 4.136809, 43.538722 ], [ 4.137953, 43.541824 ], [ 4.137925, 43.542059 ], [ 4.134869, 43.549237 ], [ 4.134192, 43.549371 ], [ 4.126402, 43.550685 ], [ 4.125445, 43.550589 ], [ 4.125412, 43.55023 ], [ 4.126475, 43.547308 ], [ 4.127471, 43.545479 ], [ 4.128311, 43.54428 ], [ 4.123823, 43.548116 ], [ 4.121163, 43.549877 ], [ 4.121478, 43.550607 ], [ 4.126423, 43.552099 ], [ 4.126583, 43.552117 ], [ 4.13228, 43.552785 ], [ 4.139847, 43.551244 ], [ 4.142287, 43.552442 ], [ 4.143548, 43.553229 ], [ 4.143738, 43.552924 ], [ 4.140816, 43.549117 ], [ 4.139883, 43.540607 ], [ 4.137919, 43.538173 ], [ 4.137285, 43.537676 ], [ 4.134294, 43.536291 ], [ 4.134136, 43.536216 ] ] ] ] } },
{ "type": "Feature", "properties": { "codgeo": "30133", "value": 300, "isochrone_group": 5.0, "nb_agences": 2 }, "geometry": { "type": "MultiPolygon", "coordinates": [ [ [ [ 4.147544, 43.542097 ], [ 4.150918, 43.543579 ], [ 4.154415, 43.545115 ], [ 4.156165, 43.545887 ], [ 4.157915, 43.546659 ], [ 4.158061, 43.54633 ], [ 4.156311, 43.545558 ], [ 4.15456, 43.544786 ], [ 4.151063, 43.54325 ], [ 4.147689, 43.541767 ], [ 4.147085776662475, 43.539509285016187 ], [ 4.146921, 43.541427 ], [ 4.146820002130633, 43.541654591089184 ], [ 4.147544, 43.542097 ] ] ], [ [ [ 4.151903, 43.528255 ], [ 4.152024, 43.527915 ], [ 4.15216, 43.527294 ], [ 4.152234, 43.525331 ], [ 4.14987, 43.521961 ], [ 4.141901, 43.518636 ], [ 4.141541, 43.518651 ], [ 4.132842, 43.520189 ], [ 4.132683, 43.520512 ], [ 4.134621, 43.52183 ], [ 4.135002, 43.522135 ], [ 4.135286, 43.522356 ], [ 4.140594, 43.526566 ], [ 4.138626, 43.523245 ], [ 4.14047, 43.522485 ], [ 4.140945, 43.522527 ], [ 4.146815, 43.524531 ], [ 4.147301, 43.524699 ], [ 4.147787, 43.524867 ], [ 4.15007, 43.525749 ], [ 4.150256, 43.525953 ], [ 4.150286, 43.526037 ], [ 4.150675, 43.528178 ], [ 4.150687, 43.528418 ], [ 4.150656, 43.528666 ], [ 4.150626, 43.52888 ], [ 4.150551, 43.529117 ], [ 4.150483, 43.529323 ], [ 4.150383, 43.529546 ], [ 4.15029, 43.52975 ], [ 4.150119, 43.530027 ], [ 4.149959, 43.530284 ], [ 4.151903, 43.528255 ] ] ], [ [ [ 4.134136, 43.536216 ], [ 4.134294, 43.536291 ], [ 4.137285, 43.537676 ], [ 4.134136, 43.536216 ] ] ], [ [ [ 4.124048, 43.546636 ], [ 4.119518, 43.548726 ], [ 4.116573, 43.551402 ], [ 4.116686, 43.551744 ], [ 4.119027, 43.552486 ], [ 4.126156227444229, 43.55201850967579 ], [ 4.121478, 43.550607 ], [ 4.121163, 43.549877 ], [ 4.123823, 43.548116 ], [ 4.128311, 43.54428 ], [ 4.124048, 43.546636 ] ] ], [ [ [ 4.129466, 43.553023 ], [ 4.129923, 43.55308 ], [ 4.13228, 43.552785 ], [ 4.126844150094878, 43.552147621074859 ], [ 4.129466, 43.553023 ] ] ], [ [ [ 4.140756886267631, 43.551690739241238 ], [ 4.139847, 43.551244 ], [ 4.13228, 43.552785 ], [ 4.140756886267631, 43.551690739241238 ] ] ], [ [ [ 4.14321620764011, 43.553021925783312 ], [ 4.142287, 43.552442 ], [ 4.142283802118301, 43.552440429892506 ], [ 4.14321620764011, 43.553021925783312 ] ] ], [ [ [ 4.145659, 43.554546 ], [ 4.147976, 43.555991 ], [ 4.150293, 43.557436 ], [ 4.151296, 43.558063 ], [ 4.153099, 43.559322 ], [ 4.153575, 43.559625 ], [ 4.153681, 43.55969 ], [ 4.153774, 43.559655 ], [ 4.153868, 43.559382 ], [ 4.153785, 43.559295 ], [ 4.152504, 43.558393 ], [ 4.151487, 43.557757 ], [ 4.150558, 43.557131 ], [ 4.148167, 43.555686 ], [ 4.14585, 43.554241 ], [ 4.143736433964008, 43.552921959651265 ], [ 4.143738, 43.552924 ], [ 4.143548043193706, 43.55322893066274 ], [ 4.145659, 43.554546 ] ] ], [ [ [ 4.140792, 43.548754 ], [ 4.141310677843013, 43.546515167979315 ], [ 4.146184430587666, 43.541566409871528 ], [ 4.142928, 43.540521 ], [ 4.137285, 43.537676 ], [ 4.137919, 43.538173 ], [ 4.139883, 43.540607 ], [ 4.140816, 43.549117 ], [ 4.14272736684693, 43.551607271590093 ], [ 4.140792, 43.548754 ] ] ] ] } },
{ "type": "Feature", "properties": { "codgeo": "30133", "value": 360, "isochrone_group": 6.0, "nb_agences": 2 }, "geometry": { "type": "MultiPolygon", "coordinates": [ [ [ [ 4.148245, 43.553825 ], [ 4.150266, 43.545062 ], [ 4.153761, 43.546598 ], [ 4.156757, 43.547919 ], [ 4.159776, 43.54925 ], [ 4.16195, 43.550173 ], [ 4.164977, 43.551452 ], [ 4.165897, 43.551842 ], [ 4.167303, 43.548529 ], [ 4.166383, 43.548138 ], [ 4.163357, 43.546859 ], [ 4.161182, 43.545936 ], [ 4.15821, 43.544625 ], [ 4.155214, 43.543304 ], [ 4.151714, 43.541766 ], [ 4.148872, 43.534142 ], [ 4.150878, 43.53177 ], [ 4.151334, 43.531141 ], [ 4.155871, 43.527364 ], [ 4.15645, 43.526807 ], [ 4.156511, 43.526714 ], [ 4.15542, 43.524215 ], [ 4.152207, 43.516148 ], [ 4.152003, 43.515302 ], [ 4.148821, 43.515937 ], [ 4.141547, 43.51513 ], [ 4.139852, 43.514116 ], [ 4.13981, 43.514121 ], [ 4.139333, 43.514235 ], [ 4.131199, 43.516995 ], [ 4.130439, 43.517355 ], [ 4.126362, 43.52026 ], [ 4.1265, 43.524052 ], [ 4.126513, 43.524056 ], [ 4.135065, 43.522346 ], [ 4.13860385131873, 43.524987528645795 ], [ 4.135286, 43.522356 ], [ 4.135002, 43.522135 ], [ 4.134621, 43.52183 ], [ 4.132683, 43.520512 ], [ 4.132842, 43.520189 ], [ 4.141541, 43.518651 ], [ 4.141901, 43.518636 ], [ 4.14987, 43.521961 ], [ 4.152234, 43.525331 ], [ 4.15216, 43.527294 ], [ 4.152024, 43.527915 ], [ 4.151903, 43.528255 ], [ 4.149959, 43.530284 ], [ 4.149762, 43.530553 ], [ 4.149572, 43.530812 ], [ 4.148601, 43.531958 ], [ 4.147637, 43.533094 ], [ 4.147369, 43.533434 ], [ 4.147096, 43.533778 ], [ 4.146935, 43.534002 ], [ 4.146594, 43.534521 ], [ 4.146068, 43.5357 ], [ 4.147689, 43.541767 ], [ 4.151063, 43.54325 ], [ 4.15456, 43.544786 ], [ 4.156311, 43.545558 ], [ 4.158061, 43.54633 ], [ 4.157915, 43.546659 ], [ 4.156165, 43.545887 ], [ 4.154415, 43.545115 ], [ 4.150918, 43.543579 ], [ 4.147544, 43.542097 ], [ 4.146369, 43.541379 ], [ 4.141310677843013, 43.546515167979315 ], [ 4.140792, 43.548754 ], [ 4.143533, 43.552795 ], [ 4.14585, 43.554241 ], [ 4.148167, 43.555686 ], [ 4.150558, 43.557131 ], [ 4.151487, 43.557757 ], [ 4.152504, 43.558393 ], [ 4.153785, 43.559295 ], [ 4.153868, 43.559382 ], [ 4.153774, 43.559655 ], [ 4.153681, 43.55969 ], [ 4.153575, 43.559625 ], [ 4.153099, 43.559322 ], [ 4.151296, 43.558063 ], [ 4.150293, 43.557436 ], [ 4.147976, 43.555991 ], [ 4.145659, 43.554546 ], [ 4.143343, 43.553101 ], [ 4.141026, 43.551656 ], [ 4.137613313520175, 43.552096535448854 ], [ 4.142485, 43.554475 ], [ 4.142967401923941, 43.554776058775133 ], [ 4.141407, 43.561735 ], [ 4.141457, 43.562091 ], [ 4.1424, 43.561958 ], [ 4.150784, 43.563403 ], [ 4.157125, 43.564396 ], [ 4.164976, 43.566477 ], [ 4.16725, 43.567953 ], [ 4.167446, 43.567651 ], [ 4.163602, 43.564086 ], [ 4.161367, 43.559895 ], [ 4.161102, 43.55965 ], [ 4.156681, 43.556342 ], [ 4.149172648492287, 43.555763484779291 ], [ 4.149783, 43.554785 ], [ 4.148245, 43.553825 ] ] ], [ [ [ 4.135744958589234, 43.536961976354497 ], [ 4.137285, 43.537676 ], [ 4.135258, 43.535758 ], [ 4.135744958589234, 43.536961976354497 ] ] ], [ [ [ 4.126467, 43.545214 ], [ 4.126288, 43.545326 ], [ 4.12088, 43.547921 ], [ 4.119518, 43.548726 ], [ 4.124048, 43.546636 ], [ 4.128311, 43.54428 ], [ 4.126467, 43.545214 ] ] ], [ [ [ 4.112997, 43.552602 ], [ 4.109948, 43.553704 ], [ 4.109847, 43.553755 ], [ 4.110009, 43.554077 ], [ 4.118631, 43.554877 ], [ 4.126408, 43.552002 ], [ 4.119027, 43.552486 ], [ 4.116686, 43.551744 ], [ 4.116573, 43.551402 ], [ 4.119518, 43.548726 ], [ 4.112997, 43.552602 ] ] ] ] } },
{ "type": "Feature", "properties": { "codgeo": "30133", "value": 420, "isochrone_group": 7.0, "nb_agences": 2 }, "geometry": { "type": "MultiPolygon", "coordinates": [ [ [ [ 4.149783, 43.554785 ], [ 4.149172648492287, 43.555763484779291 ], [ 4.151656088841546, 43.555954832778973 ], [ 4.151341, 43.555757 ], [ 4.149024, 43.554311 ], [ 4.148572730882751, 43.554029565440487 ], [ 4.149783, 43.554785 ] ] ], [ [ [ 4.170294, 43.553702 ], [ 4.172102, 43.554461 ], [ 4.173889, 43.555212 ], [ 4.174955, 43.555675 ], [ 4.175602, 43.555979 ], [ 4.176172, 43.556268 ], [ 4.176968, 43.556711 ], [ 4.177756098051911, 43.555295033996956 ], [ 4.177398, 43.555096 ], [ 4.176965, 43.554855 ], [ 4.176652, 43.554695 ], [ 4.176343, 43.554538 ], [ 4.175994, 43.554373 ], [ 4.175649, 43.554211 ], [ 4.175092, 43.553969 ], [ 4.174537, 43.553728 ], [ 4.173551, 43.553313 ], [ 4.172565, 43.552899 ], [ 4.172704, 43.552567 ], [ 4.17369, 43.552981 ], [ 4.174676, 43.553396 ], [ 4.178388537029785, 43.554158738723189 ], [ 4.178719, 43.553565 ], [ 4.177922, 43.553122 ], [ 4.177237, 43.552771 ], [ 4.176486, 43.552417 ], [ 4.175324, 43.551911 ], [ 4.173497, 43.551143 ], [ 4.17169, 43.550383 ], [ 4.16861, 43.549083 ], [ 4.166383, 43.548138 ], [ 4.167303, 43.548529 ], [ 4.165897, 43.551842 ], [ 4.164977, 43.551452 ], [ 4.167211, 43.5524 ], [ 4.170294, 43.553702 ] ] ], [ [ [ 4.158728, 43.524161 ], [ 4.15799, 43.517648 ], [ 4.157935, 43.517195 ], [ 4.156559, 43.515952 ], [ 4.156397, 43.515867 ], [ 4.148811, 43.51111 ], [ 4.147466, 43.510312 ], [ 4.145909, 43.510062 ], [ 4.138525, 43.511052 ], [ 4.136858, 43.512629 ], [ 4.129928, 43.517364 ], [ 4.1291, 43.517722 ], [ 4.129007, 43.517815 ], [ 4.128000709464705, 43.519092364239654 ], [ 4.130439, 43.517355 ], [ 4.131199, 43.516995 ], [ 4.139333, 43.514235 ], [ 4.13981, 43.514121 ], [ 4.139852, 43.514116 ], [ 4.141547, 43.51513 ], [ 4.148821, 43.515937 ], [ 4.152003, 43.515302 ], [ 4.152207, 43.516148 ], [ 4.15542, 43.524215 ], [ 4.156288751494275, 43.526204926658288 ], [ 4.15773, 43.524862 ], [ 4.158728, 43.524161 ] ] ], [ [ [ 4.126414023104655, 43.52168950444095 ], [ 4.126393742010506, 43.521132215245167 ], [ 4.126156, 43.521434 ], [ 4.126414023104655, 43.52168950444095 ] ] ], [ [ [ 4.134136, 43.536216 ], [ 4.134294, 43.536291 ], [ 4.135745405733682, 43.536963081892729 ], [ 4.135376901352604, 43.536051976572566 ], [ 4.13402, 43.536162 ], [ 4.134136, 43.536216 ] ] ], [ [ [ 4.116747, 43.55647 ], [ 4.117071, 43.556628 ], [ 4.117765, 43.55574 ], [ 4.118177, 43.555333 ], [ 4.118596, 43.55492 ], [ 4.118628960226434, 43.554876810737795 ], [ 4.111690124036709, 43.554232984600951 ], [ 4.111961, 43.555039 ], [ 4.111869, 43.55507 ], [ 4.110968, 43.555176 ], [ 4.110619365607262, 43.555285761244235 ], [ 4.116747, 43.55647 ] ] ], [ [ [ 4.112997, 43.552602 ], [ 4.111300440406514, 43.553073446475537 ], [ 4.11134291575411, 43.553199835631041 ], [ 4.112997, 43.552602 ] ] ], [ [ [ 4.142485, 43.554475 ], [ 4.136553166238166, 43.551578948215024 ], [ 4.132863134358678, 43.552620417066649 ], [ 4.133941, 43.553135 ], [ 4.142485, 43.554475 ] ] ], [ [ [ 4.13851, 43.562141 ], [ 4.136268, 43.562455 ], [ 4.135783, 43.562538 ], [ 4.13529, 43.562623 ], [ 4.135007, 43.562684 ], [ 4.134712, 43.562747 ], [ 4.134217, 43.562889 ], [ 4.133716, 43.563032 ], [ 4.133526, 43.563093 ], [ 4.133327, 43.563158 ], [ 4.132337, 43.563536 ], [ 4.131351, 43.563913 ], [ 4.131075, 43.564011 ], [ 4.130747, 43.56411 ], [ 4.130424, 43.564208 ], [ 4.130089, 43.564298 ], [ 4.129763, 43.564385 ], [ 4.127707, 43.564817 ], [ 4.125651, 43.56525 ], [ 4.125725, 43.565602 ], [ 4.127781, 43.56517 ], [ 4.129837, 43.564737 ], [ 4.130182, 43.564646 ], [ 4.130517, 43.564556 ], [ 4.130851, 43.564455 ], [ 4.13118, 43.564355 ], [ 4.131471, 43.564253 ], [ 4.132465, 43.563873 ], [ 4.136329, 43.562809 ], [ 4.13856, 43.562497 ], [ 4.140797, 43.562185 ], [ 4.141595636098425, 43.56207144687054 ], [ 4.141457, 43.562091 ], [ 4.141407, 43.561735 ], [ 4.141407091757281, 43.561734590789051 ], [ 4.140747, 43.561828 ], [ 4.13851, 43.562141 ] ] ], [ [ [ 4.152793, 43.566775 ], [ 4.153584, 43.56765 ], [ 4.15385, 43.567893 ], [ 4.160036, 43.565678 ], [ 4.165519299275128, 43.566829642801274 ], [ 4.164976, 43.566477 ], [ 4.157125, 43.564396 ], [ 4.150784, 43.563403 ], [ 4.146280697360096, 43.562626846336528 ], [ 4.150277, 43.563719 ], [ 4.152793, 43.566775 ] ] ], [ [ [ 4.171109, 43.570377 ], [ 4.174127, 43.572921 ], [ 4.179112, 43.575337 ], [ 4.179298, 43.575029 ], [ 4.175986, 43.571829 ], [ 4.171298, 43.570071 ], [ 4.168533, 43.568356 ], [ 4.165093, 43.561585 ], [ 4.164587, 43.556462 ], [ 4.164324, 43.556216 ], [ 4.16036, 43.552719 ], [ 4.160091, 43.552479 ], [ 4.159557, 43.552671 ], [ 4.157524, 43.553702 ], [ 4.15734, 43.553853 ], [ 4.157157, 43.554004 ], [ 4.154337105564558, 43.556161403952359 ], [ 4.156681, 43.556342 ], [ 4.161102, 43.55965 ], [ 4.161367, 43.559895 ], [ 4.163602, 43.564086 ], [ 4.167446, 43.567651 ], [ 4.167250255332216, 43.567952606579958 ], [ 4.168343, 43.568662 ], [ 4.171109, 43.570377 ] ] ] ] } },
{ "type": "Feature", "properties": { "codgeo": "30133", "value": 480, "isochrone_group": 8.0, "nb_agences": 2 }, "geometry": { "type": "MultiPolygon", "coordinates": [ [ [ [ 4.128961, 43.543877 ], [ 4.132581, 43.540185 ], [ 4.132845783597473, 43.539444746759798 ], [ 4.132561, 43.53988 ], [ 4.131537482979303, 43.541204587361506 ], [ 4.128311, 43.54428 ], [ 4.128961, 43.543877 ] ] ], [ [ [ 4.113427, 43.550622 ], [ 4.113905800756882, 43.550455132485787 ], [ 4.113884, 43.550462 ], [ 4.113427, 43.550622 ] ] ], [ [ [ 4.099379, 43.555124 ], [ 4.098966, 43.55538 ], [ 4.098877, 43.55545 ], [ 4.098934600393902, 43.555523649556854 ], [ 4.099341, 43.555449 ], [ 4.104279, 43.553522 ], [ 4.099379, 43.555124 ] ] ], [ [ [ 4.119518, 43.548726 ], [ 4.119658496633436, 43.548642960506676 ], [ 4.114360807022494, 43.550311799755782 ], [ 4.115675, 43.549909 ], [ 4.116696, 43.549589 ], [ 4.117101813603755, 43.55016215066275 ], [ 4.119518, 43.548726 ] ] ], [ [ [ 4.124975, 43.553256 ], [ 4.127115, 43.554314 ], [ 4.127712, 43.554641 ], [ 4.132276043006178, 43.560222999570613 ], [ 4.132332, 43.561674 ], [ 4.130623, 43.562337 ], [ 4.129867, 43.562578 ], [ 4.129299, 43.562716 ], [ 4.127821, 43.563029 ], [ 4.126644025330626, 43.56328011876051 ], [ 4.127003433443204, 43.564965173306959 ], [ 4.127707, 43.564817 ], [ 4.129763, 43.564385 ], [ 4.130089, 43.564298 ], [ 4.130424, 43.564208 ], [ 4.130747, 43.56411 ], [ 4.131075, 43.564011 ], [ 4.131351, 43.563913 ], [ 4.132337, 43.563536 ], [ 4.133327, 43.563158 ], [ 4.133526, 43.563093 ], [ 4.133716, 43.563032 ], [ 4.134217, 43.562889 ], [ 4.134712, 43.562747 ], [ 4.135007, 43.562684 ], [ 4.13529, 43.562623 ], [ 4.135783, 43.562538 ], [ 4.136268, 43.562455 ], [ 4.13851, 43.562141 ], [ 4.140747, 43.561828 ], [ 4.142019, 43.561648 ], [ 4.143073283571852, 43.554842137697392 ], [ 4.142485, 43.554475 ], [ 4.133941, 43.553135 ], [ 4.132863134358675, 43.552620417066649 ], [ 4.13228, 43.552785 ], [ 4.129466, 43.553023 ], [ 4.126408, 43.552002 ], [ 4.123881875091379, 43.552858892655649 ], [ 4.12429, 43.552997 ], [ 4.124975, 43.553256 ] ] ], [ [ [ 4.12254, 43.563949 ], [ 4.121203954418619, 43.564815686959768 ], [ 4.123025366767653, 43.563913199448599 ], [ 4.12254, 43.563949 ] ] ], [ [ [ 4.116118, 43.570378 ], [ 4.123829, 43.569637 ], [ 4.127139, 43.568223 ], [ 4.13165, 43.565906 ], [ 4.132011, 43.56578 ], [ 4.134034, 43.565007 ], [ 4.134282964733119, 43.564928876583764 ], [ 4.134283, 43.564929 ], [ 4.136604, 43.564406 ], [ 4.138785, 43.564102 ], [ 4.141021, 43.563789 ], [ 4.144680886076272, 43.564393897837611 ], [ 4.150006, 43.569024 ], [ 4.151698, 43.57038 ], [ 4.155148, 43.572016 ], [ 4.156996, 43.568926 ], [ 4.164639, 43.568189 ], [ 4.166927, 43.571829 ], [ 4.167453, 43.57539 ], [ 4.174589, 43.576701 ], [ 4.181014, 43.578181 ], [ 4.184705, 43.579934 ], [ 4.18545, 43.580304 ], [ 4.186113, 43.580616 ], [ 4.186659, 43.580788 ], [ 4.190245, 43.581113 ], [ 4.191747, 43.581257 ], [ 4.192752961355615, 43.581339491436175 ], [ 4.191936, 43.580721 ], [ 4.186761, 43.579368 ], [ 4.186409, 43.579292 ], [ 4.179425, 43.575527 ], [ 4.174213, 43.57313 ], [ 4.173891, 43.57296 ], [ 4.173882, 43.572954 ], [ 4.173582, 43.572708 ], [ 4.172365265506471, 43.571435959393128 ], [ 4.171109, 43.570377 ], [ 4.168343, 43.568662 ], [ 4.165521, 43.56683 ], [ 4.160036, 43.565678 ], [ 4.15385, 43.567893 ], [ 4.153584, 43.56765 ], [ 4.152793, 43.566775 ], [ 4.150277, 43.563719 ], [ 4.143343, 43.561824 ], [ 4.14207, 43.562004 ], [ 4.140797, 43.562185 ], [ 4.13856, 43.562497 ], [ 4.136329, 43.562809 ], [ 4.132465, 43.563873 ], [ 4.131471, 43.564253 ], [ 4.13118, 43.564355 ], [ 4.130851, 43.564455 ], [ 4.130517, 43.564556 ], [ 4.130182, 43.564646 ], [ 4.129837, 43.564737 ], [ 4.127781, 43.56517 ], [ 4.12707860013052, 43.565317585964785 ], [ 4.127395, 43.566801 ], [ 4.123876, 43.56787 ], [ 4.120555, 43.569146 ], [ 4.119883, 43.569397 ], [ 4.11889, 43.569723 ], [ 4.117606, 43.570038 ], [ 4.117215, 43.570116 ], [ 4.116172, 43.570265 ], [ 4.114241, 43.570465 ], [ 4.11338007124234, 43.570749998242768 ], [ 4.116118, 43.570378 ] ] ], [ [ [ 4.173195, 43.569067 ], [ 4.172152, 43.568694 ], [ 4.169386, 43.566979 ], [ 4.165864, 43.562418 ], [ 4.166502273391914, 43.557181215139003 ], [ 4.170294, 43.553702 ], [ 4.167211, 43.5524 ], [ 4.164977, 43.551452 ], [ 4.16195, 43.550173 ], [ 4.159776, 43.54925 ], [ 4.156757, 43.547919 ], [ 4.153761, 43.546598 ], [ 4.150266, 43.545062 ], [ 4.146707, 43.552866 ], [ 4.149024, 43.554311 ], [ 4.151341, 43.555757 ], [ 4.152367130224723, 43.556401269701652 ], [ 4.153722, 43.556632 ], [ 4.157157, 43.554004 ], [ 4.15734, 43.553853 ], [ 4.157524, 43.553702 ], [ 4.159557, 43.552671 ], [ 4.160091, 43.552479 ], [ 4.16036, 43.552719 ], [ 4.164324, 43.556216 ], [ 4.164587, 43.556462 ], [ 4.165093, 43.561585 ], [ 4.168533, 43.568356 ], [ 4.171298, 43.570071 ], [ 4.172659186426547, 43.570581444909962 ], [ 4.175615388312071, 43.569340519361496 ], [ 4.173195, 43.569067 ] ] ], [ [ [ 4.179255, 43.558 ], [ 4.179969, 43.558356 ], [ 4.180686506669515, 43.558908436116702 ], [ 4.180406, 43.556768 ], [ 4.179979, 43.556551 ], [ 4.179509, 43.556285 ], [ 4.177837, 43.55534 ], [ 4.177756098051911, 43.555295033996956 ], [ 4.176968, 43.556711 ], [ 4.176172, 43.556268 ], [ 4.178241, 43.557429 ], [ 4.179255, 43.558 ] ] ], [ [ [ 4.157638, 43.513531 ], [ 4.154054, 43.513864 ], [ 4.150674550932103, 43.512278588423932 ], [ 4.156397, 43.515867 ], [ 4.156559, 43.515952 ], [ 4.157935, 43.517195 ], [ 4.15799, 43.517648 ], [ 4.157744, 43.514665 ], [ 4.157638, 43.513531 ] ] ], [ [ [ 4.147292, 43.506383 ], [ 4.147075, 43.505318 ], [ 4.143518, 43.50587 ], [ 4.141811, 43.506636 ], [ 4.134178, 43.509365 ], [ 4.133242, 43.512842 ], [ 4.131699704140216, 43.516153463332763 ], [ 4.136858, 43.512629 ], [ 4.138525, 43.511052 ], [ 4.145909, 43.510062 ], [ 4.147466, 43.510312 ], [ 4.148811, 43.51111 ], [ 4.149286208958269, 43.511407992224427 ], [ 4.147399, 43.507039 ], [ 4.147292, 43.506383 ] ] ], [ [ [ 4.135792259062477, 43.536018297573925 ], [ 4.135258, 43.535758 ], [ 4.136382, 43.534675 ], [ 4.136386364816353, 43.534671307541736 ], [ 4.134240745055656, 43.536144101036612 ], [ 4.135792259062477, 43.536018297573925 ] ] ] ] } },
{ "type": "Feature", "properties": { "codgeo": "30133", "value": 540, "isochrone_group": 9.0, "nb_agences": 2 }, "geometry": { "type": "MultiPolygon", "coordinates": [ [ [ [ 4.107808, 43.573506 ], [ 4.114065342426566, 43.570656891482543 ], [ 4.112017914316835, 43.570935072445756 ], [ 4.109516, 43.571919 ], [ 4.107416, 43.5737 ], [ 4.107327436893105, 43.574166488593526 ], [ 4.107808, 43.573506 ] ] ], [ [ [ 4.126141, 43.571462 ], [ 4.126641, 43.571423 ], [ 4.128709, 43.570989 ], [ 4.134275050727451, 43.564968941929145 ], [ 4.127497, 43.569639 ], [ 4.125862, 43.57088 ], [ 4.117914440742537, 43.57020536835816 ], [ 4.116118, 43.570378 ], [ 4.12422, 43.571254 ], [ 4.126141, 43.571462 ] ] ], [ [ [ 4.136604, 43.564406 ], [ 4.134357331744633, 43.564912250537496 ], [ 4.134315284399436, 43.564941221041217 ], [ 4.136604, 43.564406 ] ] ], [ [ [ 4.147131, 43.569518 ], [ 4.148279, 43.570577 ], [ 4.149077, 43.571461 ], [ 4.15158876364515, 43.57029245597095 ], [ 4.150006, 43.569024 ], [ 4.144680886076272, 43.564393897837611 ], [ 4.141021, 43.563789 ], [ 4.146655, 43.569125 ], [ 4.147131, 43.569518 ] ] ], [ [ [ 4.161283, 43.575551 ], [ 4.161468, 43.575668 ], [ 4.161933, 43.575878 ], [ 4.162441, 43.576002 ], [ 4.169984, 43.576694 ], [ 4.174873156073498, 43.576905973545976 ], [ 4.174391, 43.576727 ], [ 4.167235, 43.575422 ], [ 4.163694541874544, 43.568280072306479 ], [ 4.158631130113838, 43.568768327503065 ], [ 4.161807, 43.572513 ], [ 4.161283, 43.575551 ] ] ], [ [ [ 4.175003243816417, 43.555697667882846 ], [ 4.174987081775352, 43.555690073971732 ], [ 4.173909, 43.555221 ], [ 4.172102, 43.554461 ], [ 4.170294, 43.553702 ], [ 4.166502273391914, 43.557181215139003 ], [ 4.165864, 43.562418 ], [ 4.169386, 43.566979 ], [ 4.170866684373958, 43.567897067137153 ], [ 4.178083, 43.564134 ], [ 4.175003243816417, 43.555697667882846 ] ] ], [ [ [ 4.144203, 43.501632 ], [ 4.143845, 43.501419 ], [ 4.142832, 43.500832 ], [ 4.139261, 43.501085 ], [ 4.135621, 43.506093 ], [ 4.128604, 43.509148 ], [ 4.128788, 43.512743 ], [ 4.128057655204754, 43.520332354572446 ], [ 4.13038, 43.518987 ], [ 4.133242, 43.512842 ], [ 4.134178, 43.509365 ], [ 4.141811, 43.506636 ], [ 4.143518, 43.50587 ], [ 4.147075, 43.505318 ], [ 4.147292, 43.506383 ], [ 4.147399, 43.507039 ], [ 4.149405, 43.511683 ], [ 4.150934159877982, 43.512400379585692 ], [ 4.149864, 43.507172 ], [ 4.144203, 43.501632 ] ] ], [ [ [ 4.137956, 43.53131 ], [ 4.137588, 43.531723 ], [ 4.136178, 43.533299 ], [ 4.136071, 43.533418 ], [ 4.134136, 43.536216 ], [ 4.136386364816374, 43.534671307541707 ], [ 4.136778, 43.53434 ], [ 4.138934, 43.532919 ], [ 4.139528, 43.53225 ], [ 4.140748, 43.526588 ], [ 4.140292549033781, 43.528701740467845 ], [ 4.137956, 43.53131 ] ] ], [ [ [ 4.132374, 43.538544 ], [ 4.132278, 43.538694 ], [ 4.130615, 43.541292 ], [ 4.12572, 43.54564 ], [ 4.125687, 43.545659 ], [ 4.119147143889512, 43.548804043090186 ], [ 4.120998, 43.548221 ], [ 4.124683, 43.546426 ], [ 4.125116, 43.546189 ], [ 4.126384, 43.545478 ], [ 4.128311, 43.54428 ], [ 4.131537482979303, 43.541204587361506 ], [ 4.132561, 43.53988 ], [ 4.133100369919699, 43.539055645973669 ], [ 4.134046, 43.536462 ], [ 4.133783264478996, 43.537182623148937 ], [ 4.132374, 43.538544 ] ] ], [ [ [ 4.098318, 43.554431 ], [ 4.096693523476905, 43.55593530201967 ], [ 4.098934600393902, 43.555523649556854 ], [ 4.098877, 43.55545 ], [ 4.098966, 43.55538 ], [ 4.099379, 43.555124 ], [ 4.104279, 43.553522 ], [ 4.106639, 43.552764 ], [ 4.100328, 43.553926 ], [ 4.098318, 43.554431 ] ] ], [ [ [ 4.125965178382685, 43.553745536789201 ], [ 4.124975, 43.553256 ], [ 4.12429, 43.552997 ], [ 4.123829, 43.552841 ], [ 4.123856645112463, 43.552759215543283 ], [ 4.123631, 43.552675 ], [ 4.122533736425664, 43.552613159668674 ], [ 4.120967717146787, 43.553003266811508 ], [ 4.125965178382685, 43.553745536789201 ] ] ], [ [ [ 4.125276, 43.563572 ], [ 4.127821, 43.563029 ], [ 4.129299, 43.562716 ], [ 4.129867, 43.562578 ], [ 4.130623, 43.562337 ], [ 4.132332, 43.561674 ], [ 4.132276043006178, 43.560222999570613 ], [ 4.127712, 43.554641 ], [ 4.127115, 43.554314 ], [ 4.126687, 43.56327 ], [ 4.125276, 43.563572 ] ] ], [ [ [ 4.123826, 43.563515 ], [ 4.123314720848544, 43.563891856752036 ], [ 4.124072, 43.563836 ], [ 4.125276, 43.563572 ], [ 4.123948, 43.563534 ], [ 4.123826, 43.563515 ] ] ], [ [ [ 4.186675, 43.585216 ], [ 4.187279, 43.585278 ], [ 4.188551285916207, 43.585241184189478 ], [ 4.186014, 43.584942 ], [ 4.185849, 43.584831 ], [ 4.185458851864658, 43.58434090380301 ], [ 4.185465, 43.584355 ], [ 4.185781, 43.584972 ], [ 4.186675, 43.585216 ] ] ], [ [ [ 4.17169, 43.550383 ], [ 4.173497, 43.551143 ], [ 4.173497226296488, 43.551142980474793 ], [ 4.17169, 43.550383 ] ] ], [ [ [ 4.163357, 43.546859 ], [ 4.161190656815684, 43.545939673673963 ], [ 4.161190656815693, 43.545939673673963 ], [ 4.163357, 43.546859 ] ] ] ] } },
{ "type": "Feature", "properties": { "codgeo": "30133", "value": 600, "isochrone_group": 10.0, "nb_agences": 2 }, "geometry": { "type": "MultiPolygon", "coordinates": [ [ [ [ 4.114564748053318, 43.550323487361624 ], [ 4.120057679080185, 43.548366163057146 ], [ 4.120314585161456, 43.548242615890025 ], [ 4.121122, 43.547454 ], [ 4.121381, 43.547164 ], [ 4.121531955092955, 43.547027461966458 ], [ 4.120773, 43.547427 ], [ 4.114564748053318, 43.550323487361624 ] ] ], [ [ [ 4.125687, 43.545659 ], [ 4.12572, 43.54564 ], [ 4.128284059646864, 43.543362465506746 ], [ 4.127156, 43.543823 ], [ 4.126276, 43.544504 ], [ 4.121681, 43.546949 ], [ 4.121584331636014, 43.546999889292934 ], [ 4.123349458907446, 43.546783132907059 ], [ 4.125687, 43.545659 ] ] ], [ [ [ 4.099065703734379, 43.57998008343224 ], [ 4.098941, 43.579824 ], [ 4.098763395904409, 43.57988762185169 ], [ 4.099065703734379, 43.57998008343224 ] ] ], [ [ [ 4.107743085135517, 43.573786186679939 ], [ 4.107673940366293, 43.574084630549152 ], [ 4.114243, 43.570576 ], [ 4.108044719326608, 43.573398216375004 ], [ 4.107743085135517, 43.573786186679939 ] ] ], [ [ [ 4.131188, 43.570427 ], [ 4.136604, 43.564406 ], [ 4.134484407011311, 43.564901671356495 ], [ 4.128937, 43.570941 ], [ 4.124616, 43.572322 ], [ 4.11914738324286, 43.571071000826556 ], [ 4.125023, 43.574261 ], [ 4.128619, 43.574086 ], [ 4.131188, 43.570427 ] ] ], [ [ [ 4.153308, 43.572783 ], [ 4.153853623124427, 43.57191446905987 ], [ 4.156356, 43.572696 ], [ 4.157044, 43.572849 ], [ 4.160194252032272, 43.573987359580045 ], [ 4.157576140072365, 43.567785824595873 ], [ 4.152784, 43.570259 ], [ 4.152296459630862, 43.56996321563016 ], [ 4.149077, 43.571461 ], [ 4.148279, 43.570577 ], [ 4.147131, 43.569518 ], [ 4.146655, 43.569125 ], [ 4.141021, 43.563789 ], [ 4.138785, 43.564102 ], [ 4.145715, 43.568432 ], [ 4.149753, 43.573348 ], [ 4.153308, 43.572783 ] ] ], [ [ [ 4.155029925452999, 43.526285634719699 ], [ 4.151764, 43.530421 ], [ 4.154628, 43.527195 ], [ 4.15513, 43.526776 ], [ 4.155029925452999, 43.526285634719699 ] ] ], [ [ [ 4.142693, 43.496516 ], [ 4.139216, 43.495583 ], [ 4.139123, 43.495932 ], [ 4.13809, 43.499396 ], [ 4.130725, 43.504493 ], [ 4.125119, 43.511262 ], [ 4.124572, 43.512095 ], [ 4.12519, 43.514615 ], [ 4.126156, 43.521434 ], [ 4.127991, 43.521025 ], [ 4.128788, 43.512743 ], [ 4.128604, 43.509148 ], [ 4.135621, 43.506093 ], [ 4.139261, 43.501085 ], [ 4.142832, 43.500832 ], [ 4.143845, 43.501419 ], [ 4.144203, 43.501632 ], [ 4.148656225482871, 43.505990040836437 ], [ 4.148138, 43.503789 ], [ 4.146355, 43.500681 ], [ 4.142693, 43.496516 ] ] ], [ [ [ 4.130484, 43.521422 ], [ 4.134000084243652, 43.522131203632647 ], [ 4.134000084243653, 43.522131203632647 ], [ 4.130484, 43.521422 ] ] ], [ [ [ 4.138999, 43.527105 ], [ 4.137577901569216, 43.531734287324078 ], [ 4.137588, 43.531723 ], [ 4.137956, 43.53131 ], [ 4.140292549033781, 43.528701740467845 ], [ 4.140748, 43.526588 ], [ 4.135065, 43.522346 ], [ 4.134000084243653, 43.522131203632647 ], [ 4.13437, 43.523201 ], [ 4.134696, 43.523322 ], [ 4.138999, 43.527105 ] ] ], [ [ [ 4.132336783796972, 43.53860215031721 ], [ 4.132374, 43.538544 ], [ 4.133783264478996, 43.537182623148937 ], [ 4.134046, 43.536462 ], [ 4.134136, 43.536216 ], [ 4.134407214602169, 43.535823825086894 ], [ 4.132948, 43.536483 ], [ 4.13282, 43.536722 ], [ 4.132336783796972, 43.53860215031721 ] ] ], [ [ [ 4.167577801022252, 43.576473253653354 ], [ 4.167397584372082, 43.576456720454111 ], [ 4.169783, 43.577185 ], [ 4.170590532823627, 43.577111159449998 ], [ 4.169994, 43.576735 ], [ 4.167577801022252, 43.576473253653354 ] ] ], [ [ [ 4.184935604526528, 43.583141223389788 ], [ 4.181282, 43.582602 ], [ 4.179462340544926, 43.581910828489207 ], [ 4.180674, 43.583185 ], [ 4.185744714140751, 43.584901150711524 ], [ 4.185465, 43.584355 ], [ 4.184935604526528, 43.583141223389788 ] ] ], [ [ [ 4.19042342496628, 43.585305041398598 ], [ 4.189529921699036, 43.584817630487173 ], [ 4.188765, 43.585235 ], [ 4.187279, 43.585278 ], [ 4.189473, 43.58531 ], [ 4.189928, 43.585309 ], [ 4.19042342496628, 43.585305041398598 ] ] ], [ [ [ 4.161190656815684, 43.545939673673963 ], [ 4.161190656815693, 43.545939673673963 ], [ 4.163357, 43.546859 ], [ 4.161190656815684, 43.545939673673963 ] ] ] ] } },
{ "type": "Feature", "properties": { "codgeo": "30133", "value": 660, "isochrone_group": 11.0, "nb_agences": 2 }, "geometry": { "type": "MultiPolygon", "coordinates": [ [ [ [ 4.104279, 43.553522 ], [ 4.097016142813393, 43.555876041650933 ], [ 4.099341, 43.555449 ], [ 4.104279, 43.553522 ] ] ], [ [ [ 4.114243, 43.570576 ], [ 4.107643583069703, 43.57410084482396 ], [ 4.106673777845077, 43.577609507934746 ], [ 4.105904644953431, 43.58166076283576 ], [ 4.105915630529594, 43.581673878395399 ], [ 4.107651726278116, 43.574180511387283 ], [ 4.114243, 43.570576 ] ] ], [ [ [ 4.125119, 43.575614 ], [ 4.125448, 43.576343 ], [ 4.12652, 43.576735 ], [ 4.127415, 43.576881 ], [ 4.127951, 43.576953 ], [ 4.128314, 43.576499 ], [ 4.128636, 43.574849 ], [ 4.128612007135399, 43.574243725461187 ], [ 4.125031, 43.574417 ], [ 4.118117730909495, 43.57052467831722 ], [ 4.117136035836988, 43.57045267193849 ], [ 4.118755579947088, 43.571007318230379 ], [ 4.124934, 43.575087 ], [ 4.125119, 43.575614 ] ] ], [ [ [ 4.157395, 43.525745 ], [ 4.15718, 43.52526 ], [ 4.156504879003153, 43.523750828229936 ], [ 4.156127, 43.524468 ], [ 4.15531, 43.525931 ], [ 4.155029925452999, 43.526285634719699 ], [ 4.15513, 43.526776 ], [ 4.154628, 43.527195 ], [ 4.151764, 43.530421 ], [ 4.156616, 43.526424 ], [ 4.157021, 43.526117 ], [ 4.157395, 43.525745 ] ] ], [ [ [ 4.151184, 43.513621 ], [ 4.153484, 43.515786 ], [ 4.154947067188561, 43.516936066213439 ], [ 4.155064, 43.51598 ], [ 4.150850770892454, 43.51269102195598 ], [ 4.151184, 43.513621 ] ] ], [ [ [ 4.14411, 43.494141 ], [ 4.144583, 43.493352 ], [ 4.141495, 43.491502 ], [ 4.141022, 43.492291 ], [ 4.140222, 43.493728 ], [ 4.1394, 43.495138 ], [ 4.13924229303761, 43.495590055336244 ], [ 4.142693, 43.496516 ], [ 4.146355, 43.500681 ], [ 4.148138, 43.503789 ], [ 4.149052, 43.507671 ], [ 4.148372, 43.502307 ], [ 4.148343, 43.501862 ], [ 4.14411, 43.494141 ] ] ], [ [ [ 4.128976, 43.501478 ], [ 4.128167, 43.501206 ], [ 4.128115, 43.501185 ], [ 4.127278, 43.500966 ], [ 4.126118, 43.502361 ], [ 4.126029, 43.502585 ], [ 4.125119, 43.511262 ], [ 4.130725, 43.504493 ], [ 4.133878519806505, 43.502310584459792 ], [ 4.130459, 43.502929 ], [ 4.129706, 43.501922 ], [ 4.128976, 43.501478 ] ] ], [ [ [ 4.123265, 43.515847 ], [ 4.126156, 43.521434 ], [ 4.12519, 43.514615 ], [ 4.124581787969039, 43.512134912106752 ], [ 4.122781, 43.515061 ], [ 4.122791, 43.515145 ], [ 4.123265, 43.515847 ] ] ], [ [ [ 4.127091, 43.523091 ], [ 4.127209, 43.523164 ], [ 4.127225, 43.523173 ], [ 4.12736, 43.523228 ], [ 4.129004, 43.523172 ], [ 4.130378, 43.523219 ], [ 4.130486, 43.523225 ], [ 4.134136020076665, 43.5225243300617 ], [ 4.134000084243652, 43.522131203632647 ], [ 4.130484, 43.521422 ], [ 4.12749, 43.52234 ], [ 4.127364, 43.522357 ], [ 4.127078, 43.522347 ], [ 4.126156, 43.521434 ], [ 4.126614683995237, 43.521888206602654 ], [ 4.126834, 43.522407 ], [ 4.127091, 43.523091 ] ] ], [ [ [ 4.12431, 43.54458 ], [ 4.124070083478844, 43.544803720723898 ], [ 4.125379174011647, 43.544981201205985 ], [ 4.126276, 43.544504 ], [ 4.127156, 43.543823 ], [ 4.130014966808018, 43.542655816301966 ], [ 4.131122788808171, 43.541599864727978 ], [ 4.130167206627433, 43.542510704653253 ], [ 4.124676, 43.544396 ], [ 4.12431, 43.54458 ] ] ], [ [ [ 4.153537, 43.574221 ], [ 4.162284, 43.575961 ], [ 4.162385112748328, 43.574779038232776 ], [ 4.157044, 43.572849 ], [ 4.156356, 43.572696 ], [ 4.153853623124427, 43.57191446905987 ], [ 4.153308, 43.572783 ], [ 4.149753, 43.573348 ], [ 4.145715, 43.568432 ], [ 4.138785, 43.564102 ], [ 4.137308286240893, 43.564307832637681 ], [ 4.137047159237481, 43.564597035773666 ], [ 4.144301, 43.567724 ], [ 4.144966, 43.570163 ], [ 4.149981, 43.574786 ], [ 4.153537, 43.574221 ] ] ], [ [ [ 4.16310681885186, 43.576112638587183 ], [ 4.162923, 43.575969 ], [ 4.162284, 43.575961 ], [ 4.16310681885186, 43.576112638587183 ] ] ], [ [ [ 4.17871, 43.586072 ], [ 4.179866, 43.585792 ], [ 4.185494570719334, 43.585315857139904 ], [ 4.186088, 43.586014 ], [ 4.187584743445478, 43.585777323300832 ], [ 4.187464500267196, 43.585280705564514 ], [ 4.187279, 43.585278 ], [ 4.186675, 43.585216 ], [ 4.183010465648626, 43.58397576182842 ], [ 4.179948, 43.584378 ], [ 4.178554, 43.586033 ], [ 4.177738, 43.58583 ], [ 4.176428, 43.585151 ], [ 4.176306009257321, 43.585081620840391 ], [ 4.176372, 43.585254 ], [ 4.176901, 43.585992 ], [ 4.176991, 43.586106 ], [ 4.17871, 43.586072 ] ] ], [ [ [ 4.194273707033046, 43.595131924627147 ], [ 4.194301, 43.595021 ], [ 4.194284227961728, 43.59500399623348 ], [ 4.194273707033046, 43.595131924627147 ] ] ], [ [ [ 4.189540414322775, 43.55559789664327 ], [ 4.189319, 43.556239 ], [ 4.190807269451069, 43.557292941247269 ], [ 4.189540414322775, 43.55559789664327 ] ] ], [ [ [ 4.161190656815684, 43.545939673673963 ], [ 4.161190656815693, 43.545939673673963 ], [ 4.163357, 43.546859 ], [ 4.161190656815684, 43.545939673673963 ] ] ] ] } },
{ "type": "Feature", "properties": { "codgeo": "30133", "value": 720, "isochrone_group": 12.0, "nb_agences": 2 }, "geometry": { "type": "MultiPolygon", "coordinates": [ [ [ [ 4.101744918290013, 43.554343348091919 ], [ 4.104279, 43.553522 ], [ 4.102735, 43.554007 ], [ 4.101732, 43.554299 ], [ 4.101744918290013, 43.554343348091919 ] ] ], [ [ [ 4.087535, 43.578556 ], [ 4.08753569150872, 43.578556035895353 ], [ 4.085905, 43.577691 ], [ 4.085849139971762, 43.577662256333916 ], [ 4.087535, 43.578556 ] ] ], [ [ [ 4.084611844160099, 43.577025586092176 ], [ 4.082438, 43.575907 ], [ 4.081861, 43.575658 ], [ 4.084611844160099, 43.577025586092176 ] ] ], [ [ [ 4.150878, 43.53177 ], [ 4.15024410804877, 43.532519547212523 ], [ 4.15024410804877, 43.532519547212523 ], [ 4.150878, 43.53177 ] ] ], [ [ [ 4.150850770892454, 43.51269102195598 ], [ 4.155064, 43.51598 ], [ 4.154947067188561, 43.516936066213439 ], [ 4.155723, 43.517546 ], [ 4.156147, 43.517926 ], [ 4.156695, 43.52339 ], [ 4.15799, 43.517648 ], [ 4.157777, 43.515103 ], [ 4.150815831576624, 43.512593513077377 ], [ 4.149052, 43.507671 ], [ 4.150850770892454, 43.51269102195598 ] ] ], [ [ [ 4.1439, 43.488252 ], [ 4.143704, 43.488528 ], [ 4.141766, 43.491137 ], [ 4.141520738167499, 43.491517419562797 ], [ 4.144583, 43.493352 ], [ 4.14411, 43.494141 ], [ 4.148331932839785, 43.501841813478869 ], [ 4.148313, 43.501622 ], [ 4.148112, 43.500669 ], [ 4.147325, 43.498317 ], [ 4.146837, 43.490334 ], [ 4.1439, 43.488252 ] ] ], [ [ [ 4.132732, 43.540066 ], [ 4.126668, 43.543176 ], [ 4.125428, 43.543953 ], [ 4.126258, 43.543433 ], [ 4.132615347873245, 43.540177190242531 ], [ 4.132732, 43.540066 ] ] ], [ [ [ 4.125070233667892, 43.544260647799653 ], [ 4.125070233667892, 43.544260647799653 ], [ 4.125428, 43.543953 ], [ 4.125070233667892, 43.544260647799653 ] ] ], [ [ [ 4.11424, 43.550475 ], [ 4.111126, 43.551368 ], [ 4.110651, 43.551517 ], [ 4.106639, 43.552764 ], [ 4.112481, 43.551066 ], [ 4.11424, 43.550475 ] ] ], [ [ [ 4.126396, 43.57903 ], [ 4.126562, 43.578952 ], [ 4.127792, 43.577151 ], [ 4.127875378323859, 43.577046856959477 ], [ 4.12652, 43.576735 ], [ 4.125448, 43.576343 ], [ 4.125119, 43.575614 ], [ 4.124934, 43.575087 ], [ 4.120029334507985, 43.571848393006206 ], [ 4.12352, 43.57748 ], [ 4.123996, 43.578135 ], [ 4.124916, 43.578894 ], [ 4.125305, 43.579112 ], [ 4.126396, 43.57903 ] ] ], [ [ [ 4.128621644291194, 43.574486844618754 ], [ 4.128639, 43.574486 ], [ 4.128548, 43.572629 ], [ 4.128636, 43.574849 ], [ 4.128621644291194, 43.574486844618754 ] ] ], [ [ [ 4.129267724536277, 43.571205554043026 ], [ 4.128548, 43.572629 ], [ 4.12926772453628, 43.571205554043026 ], [ 4.129267724536277, 43.571205554043026 ] ] ], [ [ [ 4.151962, 43.57722 ], [ 4.154256, 43.576549 ], [ 4.162284, 43.575961 ], [ 4.153537, 43.574221 ], [ 4.149981, 43.574786 ], [ 4.147770446842412, 43.572748235842965 ], [ 4.149293, 43.577217 ], [ 4.150268, 43.57736 ], [ 4.151009, 43.577337 ], [ 4.151187, 43.577331 ], [ 4.151962, 43.57722 ] ] ], [ [ [ 4.144301, 43.567724 ], [ 4.14126385886481, 43.566414758180272 ], [ 4.144858429768481, 43.56976846797793 ], [ 4.144301, 43.567724 ] ] ], [ [ [ 4.188385747711316, 43.585650662284749 ], [ 4.188033574884464, 43.585706350587536 ], [ 4.188822548402909, 43.585991114889246 ], [ 4.188385747711316, 43.585650662284749 ] ] ], [ [ [ 4.197208677867435, 43.604738319389028 ], [ 4.195714, 43.6051 ], [ 4.19541531044781, 43.607609169502226 ], [ 4.195427, 43.607611 ], [ 4.197208677867435, 43.604738319389028 ] ] ], [ [ [ 4.220985, 43.589184 ], [ 4.215059, 43.589543 ], [ 4.214125564093509, 43.590381483714005 ], [ 4.216424, 43.589717 ], [ 4.220985, 43.589184 ] ] ], [ [ [ 4.220985, 43.589184 ], [ 4.223255, 43.589089 ], [ 4.223254933131004, 43.58908740710082 ], [ 4.220985, 43.589184 ] ] ], [ [ [ 4.163357, 43.546859 ], [ 4.161190656815684, 43.545939673673963 ], [ 4.161190656815693, 43.545939673673963 ], [ 4.163357, 43.546859 ] ] ] ] } },
{ "type": "Feature", "properties": { "codgeo": "30133", "value": 780, "isochrone_group": 13.0, "nb_agences": 2 }, "geometry": { "type": "MultiPolygon", "coordinates": [ [ [ [ 4.090576, 43.557059 ], [ 4.092698368403563, 43.556479119360901 ], [ 4.091029, 43.556738 ], [ 4.089091, 43.556458 ], [ 4.088402, 43.556421 ], [ 4.088165694027396, 43.55646597473693 ], [ 4.090576, 43.557059 ] ] ], [ [ [ 4.104279, 43.553522 ], [ 4.099881444911418, 43.554772174225121 ], [ 4.100257, 43.554765 ], [ 4.100428359598402, 43.555024669917763 ], [ 4.101788742565142, 43.554493795479338 ], [ 4.101732, 43.554299 ], [ 4.102735, 43.554007 ], [ 4.104279, 43.553522 ] ] ], [ [ [ 4.085873271408329, 43.577675049399893 ], [ 4.085873271408317, 43.577675049399893 ], [ 4.081861, 43.575658 ], [ 4.085873271408329, 43.577675049399893 ] ] ], [ [ [ 4.150052, 43.509199 ], [ 4.148993229201348, 43.50720740211181 ], [ 4.149052, 43.507671 ], [ 4.150815831576624, 43.512593513077377 ], [ 4.152053007939464, 43.513039512615741 ], [ 4.150052, 43.509199 ] ] ], [ [ [ 4.148112, 43.500669 ], [ 4.147285413587408, 43.497669421451377 ], [ 4.147325, 43.498317 ], [ 4.148112, 43.500669 ] ] ], [ [ [ 4.147041, 43.487869 ], [ 4.146619, 43.486213 ], [ 4.146303, 43.485585 ], [ 4.146175, 43.485385 ], [ 4.14314, 43.48732 ], [ 4.141022, 43.492291 ], [ 4.141766, 43.491137 ], [ 4.143704, 43.488528 ], [ 4.1439, 43.488252 ], [ 4.146837, 43.490334 ], [ 4.146837045282835, 43.490334740764069 ], [ 4.14699, 43.490076 ], [ 4.147178, 43.489545 ], [ 4.14723, 43.489143 ], [ 4.147216, 43.488711 ], [ 4.147149, 43.488293 ], [ 4.147041, 43.487869 ] ] ], [ [ [ 4.111346691490991, 43.551304712427282 ], [ 4.11424, 43.550475 ], [ 4.114322906984576, 43.550450733430651 ], [ 4.120125954315661, 43.548512296227777 ], [ 4.12016189058799, 43.548481394172107 ], [ 4.116477, 43.549629 ], [ 4.11583, 43.549865 ], [ 4.113998, 43.550423 ], [ 4.113427, 43.550622 ], [ 4.112962, 43.550804 ], [ 4.111346691490991, 43.551304712427282 ] ] ], [ [ [ 4.133228, 43.580235 ], [ 4.134503, 43.579395 ], [ 4.134295, 43.577981 ], [ 4.134222, 43.57783 ], [ 4.133292, 43.576005 ], [ 4.128727331236126, 43.572274324967857 ], [ 4.128548, 43.572629 ], [ 4.128639, 43.574486 ], [ 4.128621644291194, 43.574486844618754 ], [ 4.128636, 43.574849 ], [ 4.128314, 43.576499 ], [ 4.12743, 43.57985 ], [ 4.126871, 43.579707 ], [ 4.126247, 43.579514 ], [ 4.125486, 43.579201 ], [ 4.1253188262641, 43.579110960812422 ], [ 4.125305, 43.579112 ], [ 4.124916, 43.578894 ], [ 4.124704, 43.580066 ], [ 4.125667, 43.580339 ], [ 4.127338, 43.58077 ], [ 4.132755, 43.5803 ], [ 4.132884, 43.580297 ], [ 4.133228, 43.580235 ] ] ], [ [ [ 4.120350516604537, 43.572366566788659 ], [ 4.119864851271954, 43.571583026718756 ], [ 4.11816140033005, 43.570570468609581 ], [ 4.117988025861205, 43.57055413840623 ], [ 4.120350516604537, 43.572366566788659 ] ] ], [ [ [ 4.15498, 43.578736 ], [ 4.157649551192354, 43.577721760602586 ], [ 4.159060740412083, 43.576197083288193 ], [ 4.154256, 43.576549 ], [ 4.151962, 43.57722 ], [ 4.151187, 43.577331 ], [ 4.151009, 43.577337 ], [ 4.150268, 43.57736 ], [ 4.149293, 43.577217 ], [ 4.147525591410807, 43.572029573791042 ], [ 4.146241892777854, 43.570941332272859 ], [ 4.146468, 43.575926 ], [ 4.147056, 43.577817 ], [ 4.152308, 43.579773 ], [ 4.152902, 43.579928 ], [ 4.153142, 43.579924 ], [ 4.154356, 43.579566 ], [ 4.15498, 43.578736 ] ] ], [ [ [ 4.177678075448092, 43.585090353863912 ], [ 4.173466, 43.581102 ], [ 4.177669394969747, 43.585082134443404 ], [ 4.177738, 43.58583 ], [ 4.178906, 43.586119 ], [ 4.180242, 43.586408 ], [ 4.186675, 43.585216 ], [ 4.178185, 43.585642 ], [ 4.177678075448092, 43.585090353863912 ] ] ], [ [ [ 4.199477, 43.601081 ], [ 4.19632671284358, 43.606160351884277 ], [ 4.196609770225914, 43.607110497717393 ], [ 4.202712, 43.603049 ], [ 4.20459, 43.599977 ], [ 4.205897310403229, 43.598870315293944 ], [ 4.20569, 43.598289 ], [ 4.201179887778687, 43.597732696246602 ], [ 4.201324, 43.597991 ], [ 4.199477, 43.601081 ] ] ], [ [ [ 4.211051082089386, 43.594241050480797 ], [ 4.214415096009048, 43.590297779294822 ], [ 4.214125564093509, 43.590381483714005 ], [ 4.210881, 43.593296 ], [ 4.211051082089386, 43.594241050480797 ] ] ], [ [ [ 4.230231, 43.587031 ], [ 4.229707, 43.587182 ], [ 4.225407, 43.58867 ], [ 4.230231, 43.587031 ] ] ], [ [ [ 4.235037607362018, 43.585510675803825 ], [ 4.234701, 43.585466 ], [ 4.230231, 43.587031 ], [ 4.235037607362018, 43.585510675803825 ] ] ], [ [ [ 4.234289, 43.58184 ], [ 4.234496400955574, 43.581683532787935 ], [ 4.232617873011604, 43.581784026640534 ], [ 4.233691, 43.582011 ], [ 4.234289, 43.58184 ] ] ], [ [ [ 4.171693667304536, 43.550383026768657 ], [ 4.171711060474009, 43.550372874107495 ], [ 4.17169, 43.550383 ], [ 4.171693667304536, 43.550383026768657 ] ] ], [ [ [ 4.161190656815684, 43.545939673673963 ], [ 4.161190656815693, 43.545939673673963 ], [ 4.163357, 43.546859 ], [ 4.161190656815684, 43.545939673673963 ] ] ] ] } },
{ "type": "Feature", "properties": { "codgeo": "30133", "value": 840, "isochrone_group": 14.0, "nb_agences": 2 }, "geometry": { "type": "MultiPolygon", "coordinates": [ [ [ [ 4.138955, 43.497972 ], [ 4.13891, 43.498773 ], [ 4.138578764502778, 43.501460551552356 ], [ 4.130459, 43.502929 ], [ 4.139273, 43.501335 ], [ 4.139099, 43.49783 ], [ 4.139058503419335, 43.496922442701177 ], [ 4.139048, 43.496925 ], [ 4.138955, 43.497972 ] ] ], [ [ [ 4.091809582268929, 43.556301095174135 ], [ 4.087542, 43.555265 ], [ 4.086443, 43.554832 ], [ 4.086384, 43.554832 ], [ 4.080525974046144, 43.556577078049635 ], [ 4.084063, 43.555684 ], [ 4.08413, 43.555674 ], [ 4.084211, 43.555688 ], [ 4.084345042315187, 43.555743543710022 ], [ 4.086408464414116, 43.556179165602551 ], [ 4.091809582268929, 43.556301095174135 ] ] ], [ [ [ 4.072936736373505, 43.558148411529125 ], [ 4.075643, 43.55781 ], [ 4.077850954645784, 43.557252504563309 ], [ 4.077248, 43.557004 ], [ 4.072963, 43.558125 ], [ 4.072936736373505, 43.558148411529125 ] ] ], [ [ [ 4.088957, 43.57931 ], [ 4.085905, 43.577691 ], [ 4.081861, 43.575658 ], [ 4.085882790947552, 43.5776798350634 ], [ 4.088187, 43.578902 ], [ 4.088187894618658, 43.578902011267239 ], [ 4.088957, 43.57931 ] ] ], [ [ [ 4.124661, 43.580055 ], [ 4.124704, 43.580066 ], [ 4.124916, 43.578894 ], [ 4.124651, 43.580052 ], [ 4.124661, 43.580055 ] ] ], [ [ [ 4.102245, 43.594214 ], [ 4.102303, 43.59523 ], [ 4.102244, 43.594194 ], [ 4.102245083421012, 43.594213024138433 ], [ 4.102245, 43.594214 ] ] ], [ [ [ 4.134559, 43.603075 ], [ 4.136242548961625, 43.604645667326267 ], [ 4.136256, 43.604631 ], [ 4.134559, 43.603075 ] ] ], [ [ [ 4.103957, 43.607206 ], [ 4.103871, 43.607061 ], [ 4.103521, 43.606255 ], [ 4.103139, 43.605106 ], [ 4.104003, 43.60815 ], [ 4.106526373184806, 43.610247117222208 ], [ 4.103957, 43.607206 ] ] ], [ [ [ 4.146175, 43.485385 ], [ 4.146303, 43.485585 ], [ 4.146619, 43.486213 ], [ 4.147041, 43.487869 ], [ 4.147149, 43.488293 ], [ 4.146446, 43.483384 ], [ 4.14637, 43.483192 ], [ 4.143156, 43.483205 ], [ 4.143101, 43.483255 ], [ 4.142551, 43.484012 ], [ 4.142236, 43.485395 ], [ 4.140222, 43.493728 ], [ 4.141022, 43.492291 ], [ 4.14314, 43.48732 ], [ 4.146175, 43.485385 ] ] ], [ [ [ 4.161190656815693, 43.545939673673963 ], [ 4.163357, 43.546859 ], [ 4.161190656815684, 43.545939673673963 ], [ 4.161190656815693, 43.545939673673963 ] ] ], [ [ [ 4.16861, 43.549083 ], [ 4.17169, 43.550383 ], [ 4.171711060474009, 43.550372874107495 ], [ 4.178017, 43.546692 ], [ 4.178465, 43.544819 ], [ 4.178814670138199, 43.543890980520885 ], [ 4.17433, 43.546218 ], [ 4.166383, 43.548138 ], [ 4.16861, 43.549083 ] ] ], [ [ [ 4.15074, 43.580258 ], [ 4.150580085951773, 43.579129473747464 ], [ 4.147056, 43.577817 ], [ 4.146468, 43.575926 ], [ 4.146237527348392, 43.570845093792947 ], [ 4.144834, 43.569679 ], [ 4.138785, 43.564102 ], [ 4.136604, 43.564406 ], [ 4.130961, 43.570479 ], [ 4.128766256583201, 43.572290160890532 ], [ 4.133533, 43.575919 ], [ 4.134439, 43.576976 ], [ 4.134744, 43.579309 ], [ 4.134237, 43.579897 ], [ 4.133747, 43.580509 ], [ 4.131816, 43.580456 ], [ 4.129133081454788, 43.580678124749689 ], [ 4.131423, 43.581837 ], [ 4.132017, 43.582016 ], [ 4.132941, 43.582236 ], [ 4.135599, 43.581147 ], [ 4.138593, 43.57737 ], [ 4.138863, 43.577016 ], [ 4.147457, 43.579105 ], [ 4.152104222967347, 43.581405371559015 ], [ 4.150772, 43.580323 ], [ 4.15074, 43.580258 ] ] ], [ [ [ 4.226761, 43.579326 ], [ 4.223231259826973, 43.578549405845138 ], [ 4.225261, 43.580228 ], [ 4.232617873011604, 43.581784026640534 ], [ 4.234496400955574, 43.581683532787935 ], [ 4.234760362661889, 43.581484395073439 ], [ 4.228788, 43.579279 ], [ 4.227475, 43.579295 ], [ 4.226761, 43.579326 ] ] ], [ [ [ 4.251564, 43.584062 ], [ 4.252331, 43.583918 ], [ 4.252716, 43.583813 ], [ 4.25274517058127, 43.583623045130082 ], [ 4.248972, 43.584458 ], [ 4.251564, 43.584062 ] ] ], [ [ [ 4.243566608808276, 43.586481039277572 ], [ 4.235051853332385, 43.585506169820334 ], [ 4.230231, 43.587031 ], [ 4.229763151369039, 43.587189956033626 ], [ 4.237901, 43.588343 ], [ 4.238618, 43.588443 ], [ 4.239436, 43.588544 ], [ 4.243566608808276, 43.586481039277572 ] ] ], [ [ [ 4.212015, 43.599597 ], [ 4.213437349975763, 43.601208347164338 ], [ 4.21344, 43.601206 ], [ 4.212015, 43.599597 ] ] ] ] } },
{ "type": "Feature", "properties": { "codgeo": "30133", "value": 900, "isochrone_group": 15.0, "nb_agences": 2 }, "geometry": { "type": "MultiPolygon", "coordinates": [ [ [ [ 4.147216, 43.488711 ], [ 4.14731, 43.480931 ], [ 4.147249, 43.480869 ], [ 4.145945, 43.480188 ], [ 4.145643, 43.480217 ], [ 4.143101, 43.483255 ], [ 4.143156, 43.483205 ], [ 4.14637, 43.483192 ], [ 4.146446, 43.483384 ], [ 4.147149, 43.488293 ], [ 4.147216, 43.488711 ] ] ], [ [ [ 4.129706, 43.501922 ], [ 4.12933, 43.50167 ], [ 4.129317633929928, 43.50168578830808 ], [ 4.129706, 43.501922 ] ] ], [ [ [ 4.12718, 43.504415 ], [ 4.124809, 43.511635 ], [ 4.125032737140427, 43.511820989580961 ], [ 4.125119, 43.511262 ], [ 4.12718, 43.504415 ] ] ], [ [ [ 4.07551, 43.556014 ], [ 4.07502, 43.556117 ], [ 4.074395, 43.556444 ], [ 4.069515557366669, 43.558548236049774 ], [ 4.070381, 43.558468 ], [ 4.072280836133928, 43.558249918096443 ], [ 4.072280836133932, 43.558249918096443 ], [ 4.073466, 43.55772 ], [ 4.074447125380942, 43.557736737560781 ], [ 4.077248, 43.557004 ], [ 4.077876768150279, 43.557263143462457 ], [ 4.08029585551431, 43.556645629264978 ], [ 4.083480067948347, 43.555697067536549 ], [ 4.07641, 43.555948 ], [ 4.07551, 43.556014 ] ] ], [ [ [ 4.029344, 43.56225 ], [ 4.033002, 43.563051 ], [ 4.035287595919423, 43.563551149502686 ], [ 4.033233, 43.563101 ], [ 4.029344, 43.56225 ] ] ], [ [ [ 4.127998949870449, 43.580112471433857 ], [ 4.126623815526344, 43.580168599366267 ], [ 4.129851, 43.582913 ], [ 4.133439, 43.583203 ], [ 4.135929, 43.582634 ], [ 4.138818, 43.581701 ], [ 4.143454683781172, 43.578132130721301 ], [ 4.139011820779678, 43.577052174843935 ], [ 4.138995, 43.57739 ], [ 4.135664, 43.581164 ], [ 4.133065, 43.582266 ], [ 4.132017, 43.582016 ], [ 4.131423, 43.581837 ], [ 4.129993, 43.581159 ], [ 4.127998949870449, 43.580112471433857 ] ] ], [ [ [ 4.147963, 43.581048 ], [ 4.14781, 43.580342 ], [ 4.14814960418397, 43.57944783850327 ], [ 4.147457, 43.579105 ], [ 4.144401744387225, 43.578362338960325 ], [ 4.14822, 43.582285 ], [ 4.148135, 43.581996 ], [ 4.147963, 43.581048 ] ] ], [ [ [ 4.129542615814477, 43.600471070397106 ], [ 4.129549, 43.600459 ], [ 4.127214, 43.599224 ], [ 4.129542615814477, 43.600471070397106 ] ] ], [ [ [ 4.098304, 43.605744 ], [ 4.097615, 43.605343 ], [ 4.099425, 43.602231 ], [ 4.102244, 43.594194 ], [ 4.098181, 43.601615 ], [ 4.096598, 43.604849 ], [ 4.098304, 43.605744 ] ] ], [ [ [ 4.107001, 43.611558 ], [ 4.109789360801043, 43.614738854093808 ], [ 4.107632016191675, 43.611519205500016 ], [ 4.107216, 43.61108 ], [ 4.101887, 43.607341 ], [ 4.099992, 43.606524 ], [ 4.099992302479817, 43.606523297754016 ], [ 4.099746, 43.606417 ], [ 4.107001, 43.611558 ] ] ], [ [ [ 4.247310898637329, 43.579874563630561 ], [ 4.251425086998164, 43.580304094665877 ], [ 4.252181, 43.580154 ], [ 4.252843, 43.579844 ], [ 4.25477411852919, 43.577701704049417 ], [ 4.254316, 43.577703 ], [ 4.252217, 43.579433 ], [ 4.244899, 43.575829 ], [ 4.244258, 43.574979 ], [ 4.243195, 43.573835 ], [ 4.242246, 43.573397 ], [ 4.241964, 43.573704 ], [ 4.241287, 43.574585 ], [ 4.240261, 43.576393 ], [ 4.234443622373751, 43.581367433410087 ], [ 4.234760362661889, 43.581484395073439 ], [ 4.239607, 43.577828 ], [ 4.24258, 43.575633 ], [ 4.242723, 43.575671 ], [ 4.247310898637329, 43.579874563630561 ] ] ], [ [ [ 4.227194, 43.579302 ], [ 4.226761, 43.579326 ], [ 4.227209464554008, 43.579306528849912 ], [ 4.227194, 43.579302 ] ] ], [ [ [ 4.148310763291096, 43.582629934060066 ], [ 4.148265, 43.582431 ], [ 4.14822, 43.582285 ], [ 4.148310763291096, 43.582629934060066 ] ] ], [ [ [ 4.156378, 43.582258 ], [ 4.153360216374037, 43.583547504679473 ], [ 4.159454, 43.584226 ], [ 4.162552, 43.58448 ], [ 4.156378, 43.582258 ] ] ], [ [ [ 4.168761, 43.584839 ], [ 4.168762772846068, 43.584837591896765 ], [ 4.167405, 43.584756 ], [ 4.165526, 43.584642 ], [ 4.168761, 43.584839 ] ] ], [ [ [ 4.252356, 43.58541 ], [ 4.258154, 43.583833 ], [ 4.262134, 43.583317 ], [ 4.263413, 43.583111 ], [ 4.262751, 43.58318 ], [ 4.262325, 43.583204 ], [ 4.261878, 43.583202 ], [ 4.261007, 43.583129 ], [ 4.253726, 43.583406 ], [ 4.25274517058127, 43.583623045130082 ], [ 4.252716, 43.583813 ], [ 4.252331, 43.583918 ], [ 4.251564, 43.584062 ], [ 4.248972, 43.584458 ], [ 4.2445, 43.586414 ], [ 4.243575, 43.586482 ], [ 4.247206, 43.586573 ], [ 4.252356, 43.58541 ] ] ], [ [ [ 4.211070770948567, 43.59435045039411 ], [ 4.215059, 43.589543 ], [ 4.210881, 43.593296 ], [ 4.211070770948567, 43.59435045039411 ] ] ], [ [ [ 4.193741031544298, 43.597126971963803 ], [ 4.193974, 43.59635 ], [ 4.193919395252401, 43.596287648427662 ], [ 4.193741031544298, 43.597126971963803 ] ] ], [ [ [ 4.200492, 43.614457 ], [ 4.19867, 43.613056 ], [ 4.19828, 43.612717 ], [ 4.198225506991556, 43.612534081948255 ], [ 4.196973, 43.614245 ], [ 4.198971817804152, 43.616774604350226 ], [ 4.200492, 43.614457 ] ] ] ] } },
{ "type": "Feature", "properties": { "codgeo": "30133", "value": 960, "isochrone_group": 16.0, "nb_agences": 2 }, "geometry": { "type": "MultiPolygon", "coordinates": [ [ [ [ 4.124567, 43.514839 ], [ 4.125032737140427, 43.511820989580961 ], [ 4.124894159007637, 43.511705791501647 ], [ 4.123325, 43.514803 ], [ 4.123331, 43.514845 ], [ 4.126156, 43.521434 ], [ 4.124606, 43.515177 ], [ 4.124567, 43.514839 ] ] ], [ [ [ 4.079108624182634, 43.555852219815272 ], [ 4.08413, 43.555674 ], [ 4.079383, 43.555703 ], [ 4.079371, 43.555704 ], [ 4.079108624182634, 43.555852219815272 ] ] ], [ [ [ 4.031566355424799, 43.556578544244552 ], [ 4.031749, 43.556593 ], [ 4.039018903984762, 43.555600145131059 ], [ 4.038876, 43.55546 ], [ 4.037452, 43.555364 ], [ 4.031566355424799, 43.556578544244552 ] ] ], [ [ [ 4.093522015046446, 43.556517860898488 ], [ 4.099341, 43.555449 ], [ 4.093874, 43.55552 ], [ 4.093852, 43.555532 ], [ 4.092570485204248, 43.5563193425563 ], [ 4.093522015046446, 43.556517860898488 ] ] ], [ [ [ 4.066402327880021, 43.558029464152668 ], [ 4.068956, 43.557368 ], [ 4.069113220231029, 43.557332314769901 ], [ 4.06867, 43.557222 ], [ 4.068504, 43.557223 ], [ 4.066402327880021, 43.558029464152668 ] ] ], [ [ [ 4.014063487554927, 43.558494574764978 ], [ 4.012881646977268, 43.558363993974865 ], [ 4.015123, 43.559206 ], [ 4.018291, 43.559884 ], [ 4.021459, 43.560562 ], [ 4.017516, 43.559718 ], [ 4.014063487554927, 43.558494574764978 ] ] ], [ [ [ 4.028172231797221, 43.5619991827636 ], [ 4.026662037935999, 43.561675925442039 ], [ 4.027264, 43.561805 ], [ 4.028172231797221, 43.5619991827636 ] ] ], [ [ [ 4.035287595914703, 43.563551149501663 ], [ 4.033169391819531, 43.563087629806084 ], [ 4.03602, 43.563712 ], [ 4.03602728067161, 43.56371320994495 ], [ 4.035525372131044, 43.563603244828286 ], [ 4.035287595914703, 43.563551149501663 ] ] ], [ [ [ 4.139942, 43.581732 ], [ 4.13629, 43.582678 ], [ 4.133371, 43.584211 ], [ 4.131498, 43.585218 ], [ 4.129109, 43.585061 ], [ 4.128821019484528, 43.585346584584258 ], [ 4.129652, 43.585489 ], [ 4.133237, 43.585821 ], [ 4.139255, 43.583069 ], [ 4.141761, 43.581917 ], [ 4.148915, 43.585112 ], [ 4.148752, 43.584548 ], [ 4.14822, 43.582285 ], [ 4.144773533333336, 43.578744294010406 ], [ 4.139942, 43.581732 ] ] ], [ [ [ 4.101581426418468, 43.592928862165053 ], [ 4.101576784808191, 43.592926662892502 ], [ 4.102244, 43.594194 ], [ 4.101581426418468, 43.592928862165053 ] ] ], [ [ [ 4.111616, 43.617478 ], [ 4.107899280559207, 43.612764063477826 ], [ 4.109168, 43.615766 ], [ 4.112310879654385, 43.618269506928144 ], [ 4.111616, 43.617478 ] ] ], [ [ [ 4.147216, 43.488711 ], [ 4.14723, 43.489143 ], [ 4.151092, 43.481016 ], [ 4.148781, 43.478255 ], [ 4.146246477578339, 43.480345443428568 ], [ 4.147249, 43.480869 ], [ 4.14731, 43.480931 ], [ 4.147216, 43.488711 ] ] ], [ [ [ 4.146546347756763, 43.490831865999432 ], [ 4.146255, 43.491339 ], [ 4.145757, 43.492123 ], [ 4.147304144795092, 43.497737394657676 ], [ 4.14655, 43.490834 ], [ 4.146546347756763, 43.490831865999432 ] ] ], [ [ [ 4.180188, 43.539646 ], [ 4.180307515740123, 43.538314472074781 ], [ 4.180302, 43.538314 ], [ 4.180187380757377, 43.539647859165463 ], [ 4.180188, 43.539646 ] ] ], [ [ [ 4.212488, 43.551221 ], [ 4.212247, 43.551381 ], [ 4.212510577269538, 43.551255081683038 ], [ 4.212488, 43.551221 ] ] ], [ [ [ 4.240665869301883, 43.575679546103501 ], [ 4.240946712374776, 43.575184649148561 ], [ 4.240917, 43.57517 ], [ 4.240665869301883, 43.575679546103501 ] ] ], [ [ [ 4.255506386729515, 43.575395387762342 ], [ 4.253332, 43.575103 ], [ 4.252442, 43.575135 ], [ 4.251757, 43.575332 ], [ 4.249488333705567, 43.57808917473011 ], [ 4.252217, 43.579433 ], [ 4.253938579925648, 43.578014070380483 ], [ 4.255506386729515, 43.575395387762342 ] ] ], [ [ [ 4.265147, 43.5844 ], [ 4.26544, 43.584411 ], [ 4.265640396056932, 43.584392073705722 ], [ 4.263413, 43.583111 ], [ 4.262134, 43.583317 ], [ 4.261562018724232, 43.583391156366403 ], [ 4.264379, 43.584151 ], [ 4.265147, 43.5844 ] ] ], [ [ [ 4.160950735665206, 43.584348714931885 ], [ 4.160982, 43.584378 ], [ 4.162552, 43.58448 ], [ 4.160950735665206, 43.584348714931885 ] ] ], [ [ [ 4.251785, 43.587442 ], [ 4.257465756781103, 43.584020195508131 ], [ 4.252356, 43.58541 ], [ 4.247206, 43.586573 ], [ 4.243575, 43.586482 ], [ 4.234701, 43.585466 ], [ 4.241115, 43.587266 ], [ 4.241346, 43.587278 ], [ 4.244049309265233, 43.586537461253926 ], [ 4.251785, 43.587442 ] ] ], [ [ [ 4.185913, 43.606287 ], [ 4.183425286065105, 43.608903187424502 ], [ 4.18472, 43.608734 ], [ 4.185913, 43.606287 ] ] ], [ [ [ 4.209056837897768, 43.615494724011228 ], [ 4.21052355962556, 43.613793158056637 ], [ 4.207905, 43.611031 ], [ 4.207697, 43.610943 ], [ 4.202792, 43.607469 ], [ 4.198282974466773, 43.612719585498041 ], [ 4.19867, 43.613056 ], [ 4.200188127549594, 43.614223341765637 ], [ 4.205583, 43.614187 ], [ 4.206954, 43.611948 ], [ 4.207273, 43.61163 ], [ 4.207941, 43.611076 ], [ 4.210239, 43.613847 ], [ 4.209056837897768, 43.615494724011228 ] ] ] ] } },
{ "type": "Feature", "properties": { "codgeo": "30133", "value": 1020, "isochrone_group": 17.0, "nb_agences": 2 }, "geometry": { "type": "MultiPolygon", "coordinates": [ [ [ [ 4.034951424900574, 43.555880011297695 ], [ 4.034372, 43.555267 ], [ 4.034227, 43.555296 ], [ 4.033794, 43.555431 ], [ 4.031076161142243, 43.555972822516011 ], [ 4.033092, 43.555832 ], [ 4.03359031105985, 43.556160886732869 ], [ 4.034951424900574, 43.555880011297695 ] ] ], [ [ [ 4.004730006803354, 43.550162068359235 ], [ 4.005129, 43.55027 ], [ 4.004731, 43.550162 ], [ 4.004730006803354, 43.550162068359235 ] ] ], [ [ [ 4.022414, 43.555683 ], [ 4.019188560455499, 43.555160405563996 ], [ 4.020860231499341, 43.555610377798665 ], [ 4.023309, 43.555925 ], [ 4.024395939773072, 43.556011027934645 ], [ 4.022414, 43.555683 ] ] ], [ [ [ 4.016674578931481, 43.559538061400119 ], [ 4.015123, 43.559206 ], [ 4.012881646977272, 43.558363993974865 ], [ 4.009361, 43.557975 ], [ 4.009125812857468, 43.557924825998775 ], [ 4.009806, 43.55807 ], [ 4.013574, 43.558875 ], [ 4.016674578931481, 43.559538061400119 ] ] ], [ [ [ 4.017269497499502, 43.559665382987582 ], [ 4.017274, 43.559667 ], [ 4.019173315794321, 43.560072828948407 ], [ 4.018291, 43.559884 ], [ 4.017269497499502, 43.559665382987582 ] ] ], [ [ [ 4.03602728067161, 43.56371320994495 ], [ 4.03714, 43.563957 ], [ 4.036027280671624, 43.56371320994495 ], [ 4.03602728067161, 43.56371320994495 ] ] ], [ [ [ 4.06127, 43.55749 ], [ 4.064078, 43.557298 ], [ 4.06426, 43.557296 ], [ 4.064801207612668, 43.557399626094131 ], [ 4.064458, 43.557284 ], [ 4.056043, 43.556565 ], [ 4.057358025727823, 43.556963430581725 ], [ 4.06127, 43.55749 ] ] ], [ [ [ 4.039657, 43.555513 ], [ 4.039018903984762, 43.555600145131059 ], [ 4.039018903984765, 43.555600145131059 ], [ 4.039657, 43.555513 ] ] ], [ [ [ 4.093922, 43.585524 ], [ 4.095792, 43.5886 ], [ 4.102244, 43.594194 ], [ 4.095818, 43.588584 ], [ 4.093948, 43.585508 ], [ 4.089960162273484, 43.580555762326398 ], [ 4.089947047817988, 43.580549105164344 ], [ 4.093922, 43.585524 ] ] ], [ [ [ 4.106456, 43.610709 ], [ 4.107874, 43.612732 ], [ 4.107899280559207, 43.612764063477826 ], [ 4.107157812409207, 43.611009664319141 ], [ 4.106759496585207, 43.610528190274714 ], [ 4.105948628327178, 43.609997786326595 ], [ 4.106456, 43.610709 ] ] ], [ [ [ 4.112310879654385, 43.618269506928144 ], [ 4.112892009611227, 43.618931446566279 ], [ 4.112310879654394, 43.618269506928151 ], [ 4.112310879654385, 43.618269506928144 ] ] ], [ [ [ 4.148915, 43.585112 ], [ 4.141862996009436, 43.581962551754309 ], [ 4.141777680283623, 43.582002537314892 ], [ 4.148915, 43.585112 ] ] ], [ [ [ 4.181953943182979, 43.609095455929562 ], [ 4.183425286065105, 43.608903187424502 ], [ 4.185913, 43.606287 ], [ 4.181953943182979, 43.609095455929562 ] ] ], [ [ [ 4.175087, 43.609064 ], [ 4.175086037099296, 43.6090659802475 ], [ 4.176593, 43.609796 ], [ 4.176728960289918, 43.609778233317606 ], [ 4.175087, 43.609064 ] ] ], [ [ [ 4.246973, 43.587375 ], [ 4.249706247089756, 43.587198930232169 ], [ 4.244049309265233, 43.586537461253926 ], [ 4.243920405016419, 43.586572773007553 ], [ 4.246973, 43.587375 ] ] ], [ [ [ 4.255545804396354, 43.585176679045006 ], [ 4.258154, 43.583833 ], [ 4.26056202327246, 43.583531705703805 ], [ 4.260296982579887, 43.583118914673307 ], [ 4.260184, 43.583099 ], [ 4.259274, 43.582931 ], [ 4.255545804396354, 43.585176679045006 ] ] ], [ [ [ 4.28846, 43.57606 ], [ 4.284995, 43.57704 ], [ 4.284153291141844, 43.576906078423136 ], [ 4.286209, 43.577895 ], [ 4.287073, 43.577771 ], [ 4.288931, 43.577502 ], [ 4.290211, 43.577264 ], [ 4.292683, 43.57648 ], [ 4.2916, 43.575068 ], [ 4.290532, 43.575348 ], [ 4.28846, 43.57606 ] ] ], [ [ [ 4.257743, 43.574553 ], [ 4.257492, 43.574787 ], [ 4.256775775214479, 43.575566081251949 ], [ 4.256854665161309, 43.575576689509781 ], [ 4.257535, 43.574853 ], [ 4.258327462311362, 43.574680794005531 ], [ 4.257743, 43.574553 ] ] ], [ [ [ 4.213797271309019, 43.550654324296481 ], [ 4.213848, 43.55072 ], [ 4.214841, 43.550178 ], [ 4.213797271309019, 43.550654324296481 ] ] ], [ [ [ 4.180448, 43.536609 ], [ 4.180182, 43.539707 ], [ 4.179061374645051, 43.543043422140045 ], [ 4.174507, 43.544904 ], [ 4.166383, 43.548138 ], [ 4.16861, 43.549083 ], [ 4.17169, 43.550383 ], [ 4.178465, 43.544819 ], [ 4.180109, 43.54056 ], [ 4.180302, 43.538314 ], [ 4.181595820675644, 43.538424734024929 ], [ 4.182328327406701, 43.536677405511625 ], [ 4.180448, 43.536609 ] ] ], [ [ [ 4.147178, 43.496582673031043 ], [ 4.147178, 43.489545 ], [ 4.14699, 43.490076 ], [ 4.146656, 43.490641 ], [ 4.146546347756763, 43.490831865999432 ], [ 4.14655, 43.490834 ], [ 4.147178, 43.496582673031043 ] ] ], [ [ [ 4.147178, 43.489545 ], [ 4.147645098906287, 43.488269486584315 ], [ 4.14723, 43.489143 ], [ 4.147178, 43.489545 ] ] ], [ [ [ 4.150818832523831, 43.512601888141084 ], [ 4.150818832523833, 43.512601888141084 ], [ 4.149052, 43.507671 ], [ 4.150818832523831, 43.512601888141084 ] ] ] ] } },
{ "type": "Feature", "properties": { "codgeo": "30133", "value": 1080, "isochrone_group": 18.0, "nb_agences": 2 }, "geometry": { "type": "MultiPolygon", "coordinates": [ [ [ [ 4.011226490978366, 43.552765129945222 ], [ 4.007601, 43.550928 ], [ 4.007229, 43.550827 ], [ 4.006179992102763, 43.55083149494547 ], [ 4.007523, 43.551549 ], [ 4.011226490978366, 43.552765129945222 ] ] ], [ [ [ 4.039657, 43.555513 ], [ 4.041680872882506, 43.555654932203467 ], [ 4.041526, 43.555644 ], [ 4.039657, 43.555513 ] ] ], [ [ [ 4.077145668563579, 43.555876040090816 ], [ 4.077143, 43.555876 ], [ 4.07551, 43.556014 ], [ 4.077145668563579, 43.555876040090816 ] ] ], [ [ [ 4.084063, 43.555684 ], [ 4.082956673146348, 43.555963340960908 ], [ 4.077164731520301, 43.555876326480664 ], [ 4.080611396197365, 43.556555509463699 ], [ 4.084063, 43.555684 ] ] ], [ [ [ 4.026056912823165, 43.556142488834816 ], [ 4.026813195368996, 43.556202346268549 ], [ 4.026813195369003, 43.556202346268549 ], [ 4.026056912823087, 43.556142488834801 ], [ 4.026056912823165, 43.556142488834816 ] ] ], [ [ [ 4.000934, 43.556176 ], [ 3.998347466485296, 43.555624067023558 ], [ 4.001441, 43.556285 ], [ 4.005147, 43.557076 ], [ 4.000934, 43.556176 ] ] ], [ [ [ 4.005147, 43.557076 ], [ 4.009125812857468, 43.557924825998775 ], [ 4.009125812851117, 43.557924825997439 ], [ 4.005147, 43.557076 ] ] ], [ [ [ 4.009806, 43.55807 ], [ 4.009478488524808, 43.558000098426852 ], [ 4.013574, 43.558875 ], [ 4.009806, 43.55807 ] ] ], [ [ [ 4.048209, 43.56631 ], [ 4.048571605915283, 43.566386965680095 ], [ 4.044865, 43.565599 ], [ 4.048209, 43.56631 ] ] ], [ [ [ 4.059962120573211, 43.568807729896093 ], [ 4.058351565209041, 43.568465565215611 ], [ 4.059952, 43.568806 ], [ 4.059962120573211, 43.568807729896093 ] ] ], [ [ [ 4.142963870702215, 43.483443739778913 ], [ 4.142957, 43.48344 ], [ 4.142551, 43.484012 ], [ 4.142963870702215, 43.483443739778913 ] ] ], [ [ [ 4.182328327406701, 43.536677405511625 ], [ 4.182466, 43.536349 ], [ 4.182897, 43.533853 ], [ 4.183218232867994, 43.532696437045601 ], [ 4.18192, 43.531966 ], [ 4.18091, 43.53376 ], [ 4.1805, 43.53617 ], [ 4.180460555090437, 43.536609456748856 ], [ 4.182328327406701, 43.536677405511625 ] ] ], [ [ [ 4.180226, 43.539193 ], [ 4.179014822702765, 43.543062439792301 ], [ 4.179061374645051, 43.543043422140045 ], [ 4.180182, 43.539707 ], [ 4.180226132015729, 43.539193011335612 ], [ 4.180226, 43.539193 ] ] ], [ [ [ 4.211568054616357, 43.551761302740658 ], [ 4.212247, 43.551381 ], [ 4.204771, 43.54741 ], [ 4.20473941001259, 43.541005130052653 ], [ 4.203801, 43.541894 ], [ 4.201099, 43.544694 ], [ 4.201017863737753, 43.544776866545661 ], [ 4.201018, 43.544777 ], [ 4.202888, 43.549393 ], [ 4.2101871064575, 43.551981486260161 ], [ 4.211568054616357, 43.551761302740658 ] ] ], [ [ [ 4.099341, 43.555449 ], [ 4.091389, 43.555447 ], [ 4.089306, 43.555409 ], [ 4.087286, 43.555783 ], [ 4.086129, 43.556011 ], [ 4.085572293704738, 43.556002636395526 ], [ 4.086044906578461, 43.556102412643234 ], [ 4.093874, 43.55552 ], [ 4.099341, 43.555449 ] ] ], [ [ [ 4.284153291141844, 43.576906078423136 ], [ 4.284995, 43.57704 ], [ 4.28846, 43.57606 ], [ 4.290532, 43.575348 ], [ 4.2916, 43.575068 ], [ 4.292683, 43.57648 ], [ 4.295342, 43.575937 ], [ 4.29649, 43.575631 ], [ 4.296701, 43.575575 ], [ 4.297086, 43.575473 ], [ 4.297816, 43.575278 ], [ 4.297907, 43.575254 ], [ 4.302362, 43.572132 ], [ 4.302345650751886, 43.571960095457563 ], [ 4.298452, 43.572657 ], [ 4.292808, 43.573052 ], [ 4.28479, 43.573631 ], [ 4.278145, 43.573524 ], [ 4.27661382634253, 43.573303084397693 ], [ 4.278632, 43.57425 ], [ 4.284153291141844, 43.576906078423136 ] ] ], [ [ [ 4.260843, 43.572437 ], [ 4.257352, 43.573317 ], [ 4.256187764614833, 43.575002288170111 ], [ 4.25195, 43.574391 ], [ 4.251107, 43.574413 ], [ 4.250325, 43.574621 ], [ 4.24258, 43.575633 ], [ 4.242723, 43.575671 ], [ 4.248429, 43.580899 ], [ 4.251895, 43.578531 ], [ 4.254316, 43.577703 ], [ 4.255078145789461, 43.577412696008317 ], [ 4.257492, 43.574787 ], [ 4.257743, 43.574553 ], [ 4.258370608461166, 43.574690228008734 ], [ 4.26106, 43.574087 ], [ 4.262712015522516, 43.572840303616061 ], [ 4.260843, 43.572437 ] ] ], [ [ [ 4.290344, 43.580611 ], [ 4.28936481039927, 43.582373394108529 ], [ 4.291023, 43.582412 ], [ 4.295031, 43.581126 ], [ 4.302253, 43.576592 ], [ 4.306113, 43.574931 ], [ 4.306261728658392, 43.573943982539745 ], [ 4.302668, 43.573986 ], [ 4.30041, 43.574589 ], [ 4.293712, 43.57934 ], [ 4.290344, 43.580611 ] ] ], [ [ [ 4.092921, 43.590175 ], [ 4.094216, 43.589439 ], [ 4.092954, 43.590156 ], [ 4.091176, 43.587026 ], [ 4.089375421667871, 43.580573612415897 ], [ 4.089349138860602, 43.580567261333968 ], [ 4.091142, 43.587045 ], [ 4.092921, 43.590175 ] ] ], [ [ [ 4.173335, 43.588451 ], [ 4.170522, 43.588287 ], [ 4.168435, 43.588018 ], [ 4.167856, 43.58792 ], [ 4.167241, 43.587862 ], [ 4.165876, 43.587795 ], [ 4.163775, 43.587863 ], [ 4.158012, 43.582235 ], [ 4.152427, 43.584983 ], [ 4.148915, 43.585112 ], [ 4.141869607686797, 43.582042586638892 ], [ 4.136011, 43.587698 ], [ 4.133664, 43.588001 ], [ 4.130495, 43.588633 ], [ 4.129146, 43.589427 ], [ 4.128573, 43.589707 ], [ 4.127977, 43.589952 ], [ 4.127289, 43.590191 ], [ 4.1267, 43.590345 ], [ 4.127214, 43.599224 ], [ 4.129901, 43.600663 ], [ 4.13236, 43.601822 ], [ 4.132347824201411, 43.601858970741908 ], [ 4.132948, 43.602147 ], [ 4.134236, 43.602826 ], [ 4.134559, 43.603075 ], [ 4.136647, 43.605023 ], [ 4.138171, 43.606966 ], [ 4.140972, 43.609763 ], [ 4.14744, 43.612848 ], [ 4.155139, 43.612764 ], [ 4.156638, 43.610973 ], [ 4.157232127310377, 43.610808132184609 ], [ 4.161681, 43.606651 ], [ 4.163846, 43.603775 ], [ 4.165430201423162, 43.604966833699585 ], [ 4.167057, 43.602979 ], [ 4.167836, 43.603559 ], [ 4.168395, 43.604009 ], [ 4.168649, 43.60426 ], [ 4.171122, 43.60642 ], [ 4.172708, 43.607752 ], [ 4.174923, 43.608987 ], [ 4.175086037099296, 43.6090659802475 ], [ 4.175087, 43.609064 ], [ 4.176728960289918, 43.609778233317606 ], [ 4.181781257843522, 43.609118021677162 ], [ 4.185913, 43.606287 ], [ 4.186632, 43.605807 ], [ 4.193028, 43.599505 ], [ 4.193227338247215, 43.595497408671655 ], [ 4.18818, 43.589734 ], [ 4.184563, 43.589337 ], [ 4.180455, 43.589365 ], [ 4.179673, 43.589272 ], [ 4.17602, 43.588604 ], [ 4.173335, 43.588451 ] ] ] ] } },
{ "type": "Feature", "properties": { "codgeo": "30133", "value": 1140, "isochrone_group": 19.0, "nb_agences": 2 }, "geometry": { "type": "MultiPolygon", "coordinates": [ [ [ [ 4.14398, 43.481394 ], [ 4.142551, 43.484012 ], [ 4.142957, 43.48344 ], [ 4.142963870702215, 43.483443739778913 ], [ 4.143101, 43.483255 ], [ 4.144890465485315, 43.481589091410783 ], [ 4.144245, 43.481067 ], [ 4.14398, 43.481394 ] ] ], [ [ [ 4.180373, 43.537489 ], [ 4.180226826866866, 43.539193070999438 ], [ 4.180228640181056, 43.539193226700803 ], [ 4.180381543098166, 43.537489731380695 ], [ 4.180373, 43.537489 ] ] ], [ [ [ 3.997658828525219, 43.54823348760673 ], [ 3.997658, 43.548233 ], [ 3.996079, 43.547801 ], [ 3.990946862381536, 43.547683931850045 ], [ 3.992632, 43.54866 ], [ 3.997657, 43.548233 ], [ 3.997658828525219, 43.54823348760673 ] ] ], [ [ [ 4.084063, 43.555684 ], [ 4.08413, 43.555674 ], [ 4.084211, 43.555688 ], [ 4.085679185289117, 43.556004242267299 ], [ 4.086129, 43.556011 ], [ 4.087286, 43.555783 ], [ 4.088210168614936, 43.555611891553468 ], [ 4.087524, 43.555465 ], [ 4.087175, 43.555326 ], [ 4.083422, 43.554002 ], [ 4.082596, 43.554617 ], [ 4.079768538624164, 43.555915444437368 ], [ 4.082956673146348, 43.555963340960908 ], [ 4.084063, 43.555684 ] ] ], [ [ [ 4.005147, 43.557076 ], [ 4.001896050896554, 43.556382125002472 ], [ 4.001975, 43.556399 ], [ 4.005147, 43.557076 ] ] ], [ [ [ 4.067750917204197, 43.557227157787572 ], [ 4.067753, 43.557227 ], [ 4.069737, 43.557034 ], [ 4.067750917204197, 43.557227157787572 ] ] ], [ [ [ 3.959975462902331, 43.568113882421571 ], [ 3.962765, 43.564763 ], [ 3.959673233747723, 43.567355156412439 ], [ 3.959797565407606, 43.567667282700327 ], [ 3.959975462902331, 43.568113882421571 ] ] ], [ [ [ 4.065671298715161, 43.570043285717283 ], [ 4.064697, 43.569832 ], [ 4.060307, 43.568881 ], [ 4.064419, 43.569772 ], [ 4.065671298715161, 43.570043285717283 ] ] ], [ [ [ 4.088751025591086, 43.585377538157509 ], [ 4.088994, 43.588224 ], [ 4.090724, 43.591381 ], [ 4.090776980465075, 43.591351964351588 ], [ 4.089047, 43.588195 ], [ 4.088835297343011, 43.585890604411865 ], [ 4.088751025591086, 43.585377538157509 ] ] ], [ [ [ 4.20335, 43.537176 ], [ 4.199353, 43.533037 ], [ 4.198447, 43.533368 ], [ 4.197415, 43.533882 ], [ 4.195455, 43.53553 ], [ 4.188396911921307, 43.533480623511672 ], [ 4.188128, 43.533684 ], [ 4.187867, 43.533997 ], [ 4.187778, 43.534096 ], [ 4.187064950802755, 43.535761427640232 ], [ 4.194263, 43.536608 ], [ 4.195416, 43.535565 ], [ 4.202149, 43.538422 ], [ 4.202206185556566, 43.538477198413673 ], [ 4.203481833988653, 43.53730320377138 ], [ 4.20335, 43.537176 ] ] ], [ [ [ 4.204742302447834, 43.541591571298405 ], [ 4.204771, 43.54741 ], [ 4.212247, 43.551381 ], [ 4.213145, 43.550952 ], [ 4.213796435265616, 43.550654705839882 ], [ 4.208327, 43.543729 ], [ 4.20669866605465, 43.540963016143955 ], [ 4.204742302447834, 43.541591571298405 ] ] ], [ [ [ 4.214841, 43.550178 ], [ 4.216337782677511, 43.549747674980225 ], [ 4.218386, 43.54867 ], [ 4.219068190503096, 43.548478657231129 ], [ 4.218607, 43.548241 ], [ 4.214841, 43.550178 ] ] ], [ [ [ 4.221389715810981, 43.549674968241348 ], [ 4.221586, 43.550319 ], [ 4.221833531370095, 43.550435099058355 ], [ 4.221807, 43.54989 ], [ 4.221389715810981, 43.549674968241348 ] ] ], [ [ [ 4.309303600437183, 43.566846463946703 ], [ 4.310084, 43.566626 ], [ 4.310167954838672, 43.56619925567545 ], [ 4.309303600437183, 43.566846463946703 ] ] ], [ [ [ 4.275768, 43.570991 ], [ 4.27555, 43.570954 ], [ 4.272185638654461, 43.570752085183791 ], [ 4.275467, 43.572765 ], [ 4.27661382634253, 43.573303084397693 ], [ 4.278144366678185, 43.573523908625219 ], [ 4.277176, 43.572082 ], [ 4.275768, 43.570991 ] ] ], [ [ [ 4.26859, 43.572409 ], [ 4.26938222107949, 43.571862225748369 ], [ 4.268505, 43.572283 ], [ 4.264559661569319, 43.573238996041489 ], [ 4.264714993227089, 43.573272514125492 ], [ 4.26859, 43.572409 ] ] ], [ [ [ 4.306219918235226, 43.574221451711686 ], [ 4.309938, 43.573901 ], [ 4.306335474939988, 43.573454575398237 ], [ 4.306219918235226, 43.574221451711686 ] ] ] ] } },
{ "type": "Feature", "properties": { "codgeo": "30133", "value": 1200, "isochrone_group": 20.0, "nb_agences": 2 }, "geometry": { "type": "MultiPolygon", "coordinates": [ [ [ [ 3.967803303460255, 43.558333473513969 ], [ 3.966532783271711, 43.559222105659011 ], [ 3.966171074722754, 43.560325815760358 ], [ 3.96517962229284, 43.563351113517498 ], [ 3.96601, 43.562613 ], [ 3.967803303460255, 43.558333473513969 ] ] ], [ [ [ 3.962765, 43.564763 ], [ 3.96069912723688, 43.567244593355746 ], [ 3.960723409984733, 43.567793617194916 ], [ 3.963319, 43.565005 ], [ 3.964389509655835, 43.564053435861489 ], [ 3.962765, 43.564763 ] ] ], [ [ [ 3.998049171448376, 43.548463213667006 ], [ 4.000719827229417, 43.550034957881003 ], [ 4.000938241473495, 43.549996337663224 ], [ 3.998718, 43.548523 ], [ 3.998353, 43.548423 ], [ 3.998049171448376, 43.548463213667006 ] ] ], [ [ [ 3.986209228004034, 43.545385292757189 ], [ 3.988507064038045, 43.545757315904503 ], [ 3.98838, 43.545705 ], [ 3.983343, 43.544023 ], [ 3.982214, 43.543643 ], [ 3.98264111694274, 43.543790748912208 ], [ 3.983348, 43.544025 ], [ 3.984544, 43.544442 ], [ 3.985865879448568, 43.545245058887801 ], [ 3.986209228004034, 43.545385292757189 ] ] ], [ [ [ 3.999896655397076, 43.555954763669369 ], [ 3.999562530296972, 43.555883346009253 ], [ 3.996827397832942, 43.555299703928753 ], [ 3.996832, 43.555301 ], [ 3.999896655397076, 43.555954763669369 ] ] ], [ [ [ 4.068532, 43.570663 ], [ 4.065671298722821, 43.570043285718945 ], [ 4.06911, 43.570789 ], [ 4.071146, 43.571203 ], [ 4.073131, 43.571606 ], [ 4.07374, 43.571749 ], [ 4.077510524276939, 43.573090863051512 ], [ 4.076594633381674, 43.572550412418593 ], [ 4.075569450179077, 43.571945470374075 ], [ 4.075569450179075, 43.571945470374075 ], [ 4.072784, 43.571344 ], [ 4.068532, 43.570663 ] ] ], [ [ [ 4.084045, 43.57783 ], [ 4.087782192926682, 43.57946164479047 ], [ 4.088640781847699, 43.584671336923648 ], [ 4.088264, 43.579672 ], [ 4.084292, 43.577876 ], [ 4.081861, 43.575658 ], [ 4.084045, 43.57783 ] ] ], [ [ [ 4.09093794418061, 43.591263898196516 ], [ 4.090938, 43.591264 ], [ 4.092795, 43.590246 ], [ 4.09093794418061, 43.591263898196516 ] ] ], [ [ [ 4.233394, 43.61469 ], [ 4.234405524217972, 43.615225842013125 ], [ 4.234405, 43.615225 ], [ 4.233394, 43.61469 ] ] ], [ [ [ 4.281878777254801, 43.59305777479269 ], [ 4.279558, 43.592949 ], [ 4.281877, 43.593061 ], [ 4.281878777254801, 43.59305777479269 ] ] ], [ [ [ 4.28496132585548, 43.586565547961541 ], [ 4.284658068402575, 43.588014159127823 ], [ 4.284786, 43.587782 ], [ 4.28496132585548, 43.586565547961541 ] ] ], [ [ [ 4.298744, 43.576894 ], [ 4.295384303692223, 43.578128870180926 ], [ 4.293712, 43.57934 ], [ 4.290344, 43.580611 ], [ 4.287754594822261, 43.583250144607746 ], [ 4.29114, 43.583391 ], [ 4.294714, 43.583826 ], [ 4.297628, 43.58049 ], [ 4.302758331974927, 43.574512507382899 ], [ 4.302736, 43.574513 ], [ 4.300192, 43.574647 ], [ 4.299271134806155, 43.575313916721406 ], [ 4.298744, 43.576894 ] ] ], [ [ [ 4.28918, 43.573752 ], [ 4.288657384556916, 43.574267857484791 ], [ 4.293372, 43.574366 ], [ 4.297444, 43.573515 ], [ 4.297819, 43.573415 ], [ 4.29855438556439, 43.573711630633959 ], [ 4.298584179209027, 43.573690991186176 ], [ 4.302792, 43.568686 ], [ 4.304220610555908, 43.567169455112051 ], [ 4.302564, 43.567323 ], [ 4.302506, 43.567339 ], [ 4.301305, 43.56977 ], [ 4.299660860635403, 43.571470386963192 ], [ 4.291984, 43.571494 ], [ 4.28918, 43.573752 ] ] ], [ [ [ 4.27378, 43.570161 ], [ 4.27073, 43.568631 ], [ 4.267466, 43.570149 ], [ 4.264078082045679, 43.572231675757749 ], [ 4.260588, 43.571425 ], [ 4.257097, 43.572304 ], [ 4.25383249500404, 43.578090170115082 ], [ 4.254316, 43.577703 ], [ 4.25463774320728, 43.577702089835334 ], [ 4.257413, 43.57439 ], [ 4.257595, 43.574284 ], [ 4.260889, 43.573453 ], [ 4.261094, 43.573435 ], [ 4.261240879068522, 43.574043171143089 ], [ 4.268505, 43.572283 ], [ 4.26938222107949, 43.571862225748369 ], [ 4.271553, 43.570364 ], [ 4.272142590725431, 43.570749501628157 ], [ 4.274657406658442, 43.570900430302217 ], [ 4.27378, 43.570161 ] ] ], [ [ [ 4.223711, 43.570349 ], [ 4.224298, 43.569256 ], [ 4.225558, 43.561967 ], [ 4.223754, 43.570194 ], [ 4.223711, 43.570349 ] ] ], [ [ [ 4.230600895362392, 43.557809862372004 ], [ 4.229686311322225, 43.558504995281901 ], [ 4.230601, 43.55781 ], [ 4.230600895362392, 43.557809862372004 ] ] ], [ [ [ 4.223242, 43.547514 ], [ 4.220153, 43.545666 ], [ 4.219941100053304, 43.54602036230505 ], [ 4.220871, 43.547973 ], [ 4.221389715810981, 43.549674968241348 ], [ 4.221807, 43.54989 ], [ 4.221833531370095, 43.550435099058355 ], [ 4.225783152343094, 43.552287580525835 ], [ 4.222415, 43.548897 ], [ 4.223242, 43.547514 ] ] ], [ [ [ 4.204799, 43.536091 ], [ 4.206081, 43.535516 ], [ 4.206960981719829, 43.535320923146259 ], [ 4.204438, 43.533092 ], [ 4.203404, 43.532839 ], [ 4.202387, 43.532691 ], [ 4.200989, 43.532716 ], [ 4.199671, 43.532946 ], [ 4.199366502342561, 43.533050982035491 ], [ 4.20335, 43.537176 ], [ 4.203481833988653, 43.53730320377138 ], [ 4.204799, 43.536091 ] ] ], [ [ [ 4.195455, 43.53553 ], [ 4.18980984461782, 43.532462732999427 ], [ 4.188404887094807, 43.533482939171776 ], [ 4.195455, 43.53553 ] ] ], [ [ [ 4.1805, 43.53617 ], [ 4.180381543098166, 43.537489731380695 ], [ 4.181932138233373, 43.537622478928519 ], [ 4.182086500276068, 43.53725426224581 ], [ 4.181452992621255, 43.534659429198136 ], [ 4.180675, 43.534574 ], [ 4.1805, 43.53617 ] ] ], [ [ [ 4.180187966556383, 43.53964610040849 ], [ 4.178465, 43.544819 ], [ 4.180145, 43.540147 ], [ 4.180187966556383, 43.53964610040849 ] ] ], [ [ [ 4.144890465485315, 43.481589091410783 ], [ 4.14607, 43.480491 ], [ 4.147524415100497, 43.479304138027473 ], [ 4.144804, 43.481288 ], [ 4.144686297894665, 43.48142394835066 ], [ 4.144890465485315, 43.481589091410783 ] ] ], [ [ [ 4.064591, 43.557278 ], [ 4.064254, 43.557299 ], [ 4.06127, 43.55749 ], [ 4.059617272038547, 43.557614806642476 ], [ 4.061411287738456, 43.558141730608526 ], [ 4.062227, 43.558323 ], [ 4.064495149030523, 43.558363333775986 ], [ 4.066694312577014, 43.557579982089365 ], [ 4.065424, 43.557274 ], [ 4.064591, 43.557278 ] ] ] ] } }
]
}
