{
"type": "FeatureCollection",
"name": "Credit_Agricole",
"crs": { "type": "name", "properties": { "name": "urn:ogc:def:crs:OGC:1.3:CRS84" } },
"features": [
{ "type": "Feature", "properties": { "codgeo": "30341", "value": 60, "isochrone_group": 1.0, "nb_agences": 3 }, "geometry": { "type": "Polygon", "coordinates": [ [ [ 4.276376, 43.6894 ], [ 4.276278, 43.689232 ], [ 4.27618, 43.689063 ], [ 4.274926, 43.687442 ], [ 4.273063, 43.685764 ], [ 4.271081, 43.685575 ], [ 4.270794, 43.685793 ], [ 4.270268, 43.68678 ], [ 4.270244, 43.687078 ], [ 4.271417, 43.689028 ], [ 4.271492, 43.689127 ], [ 4.27272, 43.689867 ], [ 4.272853617959564, 43.689891682780988 ], [ 4.271954, 43.690178 ], [ 4.270194, 43.691544 ], [ 4.27064897449089, 43.694898742101223 ], [ 4.270612, 43.694934 ], [ 4.270478, 43.695099 ], [ 4.270431, 43.695942 ], [ 4.27058, 43.696269 ], [ 4.274455, 43.696619 ], [ 4.274618, 43.696575 ], [ 4.276574, 43.695741 ], [ 4.276593, 43.695706 ], [ 4.276638, 43.695596 ], [ 4.276667, 43.695393 ], [ 4.276665842918895, 43.695096471669601 ], [ 4.278154, 43.692668 ], [ 4.278692, 43.691754 ], [ 4.278602, 43.691406 ], [ 4.276207237211752, 43.689498218857487 ], [ 4.276376, 43.6894 ] ] ] } },
{ "type": "Feature", "properties": { "codgeo": "30341", "value": 120, "isochrone_group": 2.0, "nb_agences": 3 }, "geometry": { "type": "Polygon", "coordinates": [ [ [ 4.282408, 43.688323 ], [ 4.282928, 43.686928 ], [ 4.282984, 43.686573 ], [ 4.282948, 43.685678 ], [ 4.282701, 43.685417 ], [ 4.281584, 43.685626 ], [ 4.281229, 43.685688 ], [ 4.277227, 43.683084 ], [ 4.277944, 43.68052 ], [ 4.278095, 43.680278 ], [ 4.27779, 43.680087 ], [ 4.274556, 43.680702 ], [ 4.27057, 43.681786 ], [ 4.270298, 43.682022 ], [ 4.268469, 43.684122 ], [ 4.268478, 43.684156 ], [ 4.269058, 43.685337 ], [ 4.268425804032819, 43.688110402408803 ], [ 4.265407, 43.689156 ], [ 4.262996, 43.690058 ], [ 4.262852, 43.690209 ], [ 4.262817, 43.69041 ], [ 4.262781, 43.690611 ], [ 4.263135, 43.690674 ], [ 4.266004909809179, 43.692162735740126 ], [ 4.266911634570817, 43.695984950217756 ], [ 4.266849102308196, 43.696460797883972 ], [ 4.266736, 43.696604 ], [ 4.265472, 43.698112 ], [ 4.264432, 43.698824 ], [ 4.26456, 43.699161 ], [ 4.266269, 43.699974 ], [ 4.26991, 43.703232 ], [ 4.270197, 43.70345 ], [ 4.270455, 43.703645 ], [ 4.273005, 43.702201 ], [ 4.274629, 43.70026 ], [ 4.278847, 43.697215 ], [ 4.280793, 43.696505 ], [ 4.280840463497809, 43.696296753903361 ], [ 4.282077, 43.694964 ], [ 4.28225, 43.694648 ], [ 4.281227772776386, 43.689980195401866 ], [ 4.281732, 43.689475 ], [ 4.282408, 43.688323 ] ], [ [ 4.276207237211752, 43.689498218857487 ], [ 4.278602, 43.691406 ], [ 4.278692, 43.691754 ], [ 4.278154, 43.692668 ], [ 4.276665842918895, 43.695096471669601 ], [ 4.276667, 43.695393 ], [ 4.276638, 43.695596 ], [ 4.276593, 43.695706 ], [ 4.276574, 43.695741 ], [ 4.274618, 43.696575 ], [ 4.274455, 43.696619 ], [ 4.27058, 43.696269 ], [ 4.270431, 43.695942 ], [ 4.270478, 43.695099 ], [ 4.270612, 43.694934 ], [ 4.27064897449089, 43.694898742101223 ], [ 4.270194, 43.691544 ], [ 4.271954, 43.690178 ], [ 4.272853617959564, 43.689891682780988 ], [ 4.27272, 43.689867 ], [ 4.271492, 43.689127 ], [ 4.271417, 43.689028 ], [ 4.270244, 43.687078 ], [ 4.270268, 43.68678 ], [ 4.270794, 43.685793 ], [ 4.271081, 43.685575 ], [ 4.273063, 43.685764 ], [ 4.274926, 43.687442 ], [ 4.27618, 43.689063 ], [ 4.276278, 43.689232 ], [ 4.276376, 43.6894 ], [ 4.276207237211752, 43.689498218857487 ] ] ] } },
{ "type": "Feature", "properties": { "codgeo": "30341", "value": 180, "isochrone_group": 3.0, "nb_agences": 3 }, "geometry": { "type": "Polygon", "coordinates": [ [ [ 4.289282, 43.682463 ], [ 4.289167, 43.682122 ], [ 4.288434, 43.680054 ], [ 4.288234, 43.679591 ], [ 4.28793, 43.679398 ], [ 4.282571, 43.672718 ], [ 4.282593, 43.670156 ], [ 4.282251, 43.670043 ], [ 4.278914, 43.673103 ], [ 4.273018, 43.676962 ], [ 4.267332, 43.676658 ], [ 4.266975, 43.676614 ], [ 4.266283, 43.677246 ], [ 4.263924, 43.684113 ], [ 4.263851, 43.684292 ], [ 4.261546205667909, 43.685919486242938 ], [ 4.258951, 43.686724 ], [ 4.257145, 43.687027 ], [ 4.251288, 43.688138 ], [ 4.251234, 43.688156 ], [ 4.251305, 43.688509 ], [ 4.253423, 43.689552 ], [ 4.254018, 43.689911 ], [ 4.257187411303835, 43.691296454914614 ], [ 4.260777, 43.697135 ], [ 4.25727, 43.70232 ], [ 4.257046, 43.702602 ], [ 4.257256, 43.702931 ], [ 4.257484, 43.70321 ], [ 4.260686, 43.705532 ], [ 4.267148, 43.708252 ], [ 4.271319, 43.708805 ], [ 4.271674, 43.708745 ], [ 4.278067, 43.704264 ], [ 4.283316512252045, 43.699705907690962 ], [ 4.284618, 43.698711 ], [ 4.287779, 43.697029 ], [ 4.287901, 43.69669 ], [ 4.288091, 43.696154 ], [ 4.287989, 43.695809 ], [ 4.285934798580429, 43.689097495839967 ], [ 4.286025, 43.688933 ], [ 4.289282, 43.682463 ] ], [ [ 4.281227772776386, 43.689980195401866 ], [ 4.28225, 43.694648 ], [ 4.282077, 43.694964 ], [ 4.280840463497809, 43.696296753903361 ], [ 4.280793, 43.696505 ], [ 4.278847, 43.697215 ], [ 4.274629, 43.70026 ], [ 4.273005, 43.702201 ], [ 4.270455, 43.703645 ], [ 4.270197, 43.70345 ], [ 4.26991, 43.703232 ], [ 4.266269, 43.699974 ], [ 4.26456, 43.699161 ], [ 4.264432, 43.698824 ], [ 4.265472, 43.698112 ], [ 4.266736, 43.696604 ], [ 4.266849102308196, 43.696460797883972 ], [ 4.266911634570817, 43.695984950217756 ], [ 4.266004909809179, 43.692162735740126 ], [ 4.263135, 43.690674 ], [ 4.262781, 43.690611 ], [ 4.262817, 43.69041 ], [ 4.262852, 43.690209 ], [ 4.262996, 43.690058 ], [ 4.265407, 43.689156 ], [ 4.268425804032819, 43.688110402408803 ], [ 4.269058, 43.685337 ], [ 4.268478, 43.684156 ], [ 4.268469, 43.684122 ], [ 4.270298, 43.682022 ], [ 4.27057, 43.681786 ], [ 4.274556, 43.680702 ], [ 4.27779, 43.680087 ], [ 4.278095, 43.680278 ], [ 4.277944, 43.68052 ], [ 4.277227, 43.683084 ], [ 4.281229, 43.685688 ], [ 4.281584, 43.685626 ], [ 4.282701, 43.685417 ], [ 4.282948, 43.685678 ], [ 4.282984, 43.686573 ], [ 4.282928, 43.686928 ], [ 4.282408, 43.688323 ], [ 4.281732, 43.689475 ], [ 4.281227772776386, 43.689980195401866 ] ] ] } },
{ "type": "Feature", "properties": { "codgeo": "30341", "value": 240, "isochrone_group": 4.0, "nb_agences": 3 }, "geometry": { "type": "Polygon", "coordinates": [ [ [ 4.286794, 43.663623 ], [ 4.285443, 43.659907 ], [ 4.285219, 43.659144 ], [ 4.284873, 43.659246 ], [ 4.283619, 43.66249 ], [ 4.283457, 43.662811 ], [ 4.277272, 43.668964 ], [ 4.277068, 43.669261 ], [ 4.270364, 43.673397 ], [ 4.262659, 43.670355 ], [ 4.262384, 43.670588 ], [ 4.260759, 43.675214 ], [ 4.26016767096915, 43.680900673194884 ], [ 4.254978, 43.682707 ], [ 4.254527, 43.682691 ], [ 4.254292, 43.682711 ], [ 4.24929, 43.684085 ], [ 4.249143, 43.68412 ], [ 4.245635, 43.686102 ], [ 4.245335, 43.687277 ], [ 4.245237, 43.688046 ], [ 4.245202, 43.688539 ], [ 4.245258, 43.688764 ], [ 4.250288604679169, 43.694191224384362 ], [ 4.250488875654943, 43.694605711703645 ], [ 4.251068, 43.701659 ], [ 4.251209, 43.701932 ], [ 4.253696628864881, 43.704179697334396 ], [ 4.25439, 43.70484 ], [ 4.258614192952265, 43.707597335565481 ], [ 4.260062, 43.708559 ], [ 4.262721847848928, 43.71326241127349 ], [ 4.262991, 43.714097 ], [ 4.266534, 43.714735 ], [ 4.268481, 43.715104 ], [ 4.273902, 43.711967 ], [ 4.278172, 43.708188 ], [ 4.283248, 43.707437 ], [ 4.284559816437937, 43.705697906207988 ], [ 4.284869, 43.705451 ], [ 4.290171, 43.700519 ], [ 4.295257, 43.696301 ], [ 4.295327, 43.6962 ], [ 4.293618, 43.693388 ], [ 4.290298923707985, 43.688900261464106 ], [ 4.290550395781358, 43.687587035420528 ], [ 4.291022682266472, 43.686484288156137 ], [ 4.295212, 43.681326 ], [ 4.295184, 43.680967 ], [ 4.292842, 43.672653 ], [ 4.292579, 43.672407 ], [ 4.287638231689535, 43.672193673105234 ], [ 4.28750236953323, 43.67191313177954 ], [ 4.286707, 43.663972 ], [ 4.286794, 43.663623 ] ], [ [ 4.285934798580429, 43.689097495839967 ], [ 4.287989, 43.695809 ], [ 4.288091, 43.696154 ], [ 4.287901, 43.69669 ], [ 4.287779, 43.697029 ], [ 4.284618, 43.698711 ], [ 4.283316512252045, 43.699705907690962 ], [ 4.278067, 43.704264 ], [ 4.271674, 43.708745 ], [ 4.271319, 43.708805 ], [ 4.267148, 43.708252 ], [ 4.260686, 43.705532 ], [ 4.257484, 43.70321 ], [ 4.257256, 43.702931 ], [ 4.257046, 43.702602 ], [ 4.25727, 43.70232 ], [ 4.260777, 43.697135 ], [ 4.257187411303835, 43.691296454914614 ], [ 4.254018, 43.689911 ], [ 4.253423, 43.689552 ], [ 4.251305, 43.688509 ], [ 4.251234, 43.688156 ], [ 4.251288, 43.688138 ], [ 4.257145, 43.687027 ], [ 4.258951, 43.686724 ], [ 4.261546205667909, 43.685919486242938 ], [ 4.263851, 43.684292 ], [ 4.263924, 43.684113 ], [ 4.266283, 43.677246 ], [ 4.266975, 43.676614 ], [ 4.267332, 43.676658 ], [ 4.273018, 43.676962 ], [ 4.278914, 43.673103 ], [ 4.282251, 43.670043 ], [ 4.282593, 43.670156 ], [ 4.282571, 43.672718 ], [ 4.28793, 43.679398 ], [ 4.288234, 43.679591 ], [ 4.288434, 43.680054 ], [ 4.289167, 43.682122 ], [ 4.289282, 43.682463 ], [ 4.286025, 43.688933 ], [ 4.285934798580429, 43.689097495839967 ] ] ] } },
{ "type": "Feature", "properties": { "codgeo": "30341", "value": 300, "isochrone_group": 5.0, "nb_agences": 3 }, "geometry": { "type": "Polygon", "coordinates": [ [ [ 4.298819, 43.666282 ], [ 4.298406, 43.665791 ], [ 4.297309, 43.665093 ], [ 4.295351, 43.66483 ], [ 4.29319, 43.656569 ], [ 4.292049, 43.653155 ], [ 4.283746, 43.653132 ], [ 4.279584, 43.656694 ], [ 4.277512, 43.659381 ], [ 4.274475, 43.664782 ], [ 4.269386, 43.667923 ], [ 4.261929, 43.664999 ], [ 4.261115, 43.664574 ], [ 4.259223, 43.663583 ], [ 4.257596, 43.663816 ], [ 4.257269, 43.66533 ], [ 4.257057, 43.666458 ], [ 4.256581, 43.668974 ], [ 4.256386, 43.671144 ], [ 4.255755, 43.674688 ], [ 4.254009073765495, 43.678426673217849 ], [ 4.253312, 43.678805 ], [ 4.251538, 43.678908 ], [ 4.248336, 43.679287 ], [ 4.247594, 43.679326 ], [ 4.247051, 43.679804 ], [ 4.246714, 43.680546 ], [ 4.240515, 43.687067 ], [ 4.239323, 43.689045 ], [ 4.239326, 43.689127 ], [ 4.239676, 43.690568 ], [ 4.240116, 43.690673 ], [ 4.246954840646152, 43.695944024141816 ], [ 4.248153, 43.698567 ], [ 4.251177292075618, 43.701885042299303 ], [ 4.251195987377599, 43.701906805348109 ], [ 4.251068, 43.701659 ], [ 4.250488875654943, 43.694605711703645 ], [ 4.250288604679169, 43.694191224384362 ], [ 4.245258, 43.688764 ], [ 4.245202, 43.688539 ], [ 4.245237, 43.688046 ], [ 4.245335, 43.687277 ], [ 4.245635, 43.686102 ], [ 4.249143, 43.68412 ], [ 4.24929, 43.684085 ], [ 4.254292, 43.682711 ], [ 4.254527, 43.682691 ], [ 4.254978, 43.682707 ], [ 4.26016767096915, 43.680900673194884 ], [ 4.260759, 43.675214 ], [ 4.262384, 43.670588 ], [ 4.262659, 43.670355 ], [ 4.270364, 43.673397 ], [ 4.277068, 43.669261 ], [ 4.277272, 43.668964 ], [ 4.283457, 43.662811 ], [ 4.283619, 43.66249 ], [ 4.284873, 43.659246 ], [ 4.285219, 43.659144 ], [ 4.285443, 43.659907 ], [ 4.286794, 43.663623 ], [ 4.286707, 43.663972 ], [ 4.28750236953323, 43.67191313177954 ], [ 4.287638231689535, 43.672193673105234 ], [ 4.292579, 43.672407 ], [ 4.292842, 43.672653 ], [ 4.295184, 43.680967 ], [ 4.295212, 43.681326 ], [ 4.291022682266472, 43.686484288156137 ], [ 4.290550395781358, 43.687587035420528 ], [ 4.290298923707985, 43.688900261464106 ], [ 4.293618, 43.693388 ], [ 4.295327, 43.6962 ], [ 4.295257, 43.696301 ], [ 4.290171, 43.700519 ], [ 4.284869, 43.705451 ], [ 4.284559816437937, 43.705697906207988 ], [ 4.283248, 43.707437 ], [ 4.278172, 43.708188 ], [ 4.273902, 43.711967 ], [ 4.268481, 43.715104 ], [ 4.266534, 43.714735 ], [ 4.262991, 43.714097 ], [ 4.262721847848928, 43.71326241127349 ], [ 4.260062, 43.708559 ], [ 4.258614192952265, 43.707597335565481 ], [ 4.25439, 43.70484 ], [ 4.253696628864881, 43.704179697334396 ], [ 4.251247561052761, 43.701966841843479 ], [ 4.253068, 43.704086 ], [ 4.253451, 43.707021 ], [ 4.253946, 43.707319 ], [ 4.260047, 43.713256 ], [ 4.263623146515149, 43.719987673870122 ], [ 4.263904, 43.720532 ], [ 4.263914537775133, 43.720536183536197 ], [ 4.264094, 43.720874 ], [ 4.271609, 43.72006 ], [ 4.27178883918767, 43.719804224174638 ], [ 4.273523, 43.718201 ], [ 4.273891, 43.71776 ], [ 4.274184, 43.717033 ], [ 4.276222315306964, 43.713993341202773 ], [ 4.277454, 43.712372 ], [ 4.281944, 43.711301 ], [ 4.285536, 43.711062 ], [ 4.287332, 43.709782 ], [ 4.289311, 43.706775 ], [ 4.289751952310808, 43.705502736779927 ], [ 4.293998, 43.701032 ], [ 4.298342, 43.697384 ], [ 4.297852, 43.693817 ], [ 4.296670779262951, 43.68814395335729 ], [ 4.296675262990687, 43.688080393119911 ], [ 4.298133, 43.68169 ], [ 4.297662877681167, 43.679822305020529 ], [ 4.300019, 43.673596 ], [ 4.298819, 43.666282 ] ] ] } },
{ "type": "Feature", "properties": { "codgeo": "30341", "value": 360, "isochrone_group": 6.0, "nb_agences": 3 }, "geometry": { "type": "MultiPolygon", "coordinates": [ [ [ [ 4.249983973746075, 43.705965262511846 ], [ 4.250494, 43.707105 ], [ 4.250550706711787, 43.707155848960596 ], [ 4.251478, 43.709282 ], [ 4.256052839459703, 43.712414071888425 ], [ 4.256334667431219, 43.7203901648002 ], [ 4.25528, 43.721563 ], [ 4.257159, 43.724634 ], [ 4.258308, 43.72393 ], [ 4.258682, 43.723651 ], [ 4.260898, 43.722247 ], [ 4.261559, 43.721888 ], [ 4.268958, 43.726994 ], [ 4.269374, 43.728577 ], [ 4.27086, 43.728433 ], [ 4.272856, 43.727661 ], [ 4.272921, 43.723384 ], [ 4.27977, 43.717653 ], [ 4.281186, 43.717747 ], [ 4.282034, 43.717836 ], [ 4.282041701100946, 43.717828417802181 ], [ 4.282237, 43.717847 ], [ 4.283237, 43.717847 ], [ 4.283784697504055, 43.717228986942715 ], [ 4.281369, 43.716137 ], [ 4.281406, 43.715779 ], [ 4.283687, 43.71447 ], [ 4.284047, 43.714466 ], [ 4.28583354939043, 43.715012531386584 ], [ 4.292253, 43.711633 ], [ 4.294257, 43.708643 ], [ 4.294473930993682, 43.707385573536627 ], [ 4.295736, 43.702309 ], [ 4.301106, 43.697809 ], [ 4.301329, 43.694216 ], [ 4.302795001172633, 43.687854584706187 ], [ 4.302912, 43.687754 ], [ 4.302241, 43.686974 ], [ 4.301843, 43.686619 ], [ 4.300606, 43.685002 ], [ 4.298035846518288, 43.682115899141699 ], [ 4.296675262990687, 43.688080393119911 ], [ 4.296670779262951, 43.68814395335729 ], [ 4.297852, 43.693817 ], [ 4.298342, 43.697384 ], [ 4.293998, 43.701032 ], [ 4.289751952310808, 43.705502736779927 ], [ 4.289311, 43.706775 ], [ 4.287332, 43.709782 ], [ 4.285536, 43.711062 ], [ 4.281944, 43.711301 ], [ 4.277454, 43.712372 ], [ 4.276222315306964, 43.713993341202773 ], [ 4.274184, 43.717033 ], [ 4.273891, 43.71776 ], [ 4.273523, 43.718201 ], [ 4.27178883918767, 43.719804224174638 ], [ 4.271609, 43.72006 ], [ 4.264094, 43.720874 ], [ 4.263914537775133, 43.720536183536197 ], [ 4.263904, 43.720532 ], [ 4.263623146515149, 43.719987673870122 ], [ 4.260047, 43.713256 ], [ 4.253946, 43.707319 ], [ 4.253451, 43.707021 ], [ 4.253068, 43.704086 ], [ 4.251177292075618, 43.701885042299303 ], [ 4.248153, 43.698567 ], [ 4.246954840646152, 43.695944024141816 ], [ 4.242290165333185, 43.692348734024584 ], [ 4.242001, 43.692591 ], [ 4.238919, 43.693986 ], [ 4.238480980643669, 43.694377203786878 ], [ 4.239536, 43.694921 ], [ 4.246626, 43.698977 ], [ 4.249983973746075, 43.705965262511846 ] ] ], [ [ [ 4.303768, 43.67605 ], [ 4.305853, 43.673116 ], [ 4.305419, 43.671537 ], [ 4.302171, 43.666499 ], [ 4.300685, 43.664182 ], [ 4.30031, 43.663386 ], [ 4.298923, 43.661043 ], [ 4.299857, 43.654241 ], [ 4.299879, 43.654187 ], [ 4.299945, 43.653987 ], [ 4.299966, 43.653875 ], [ 4.297237, 43.648966 ], [ 4.296039, 43.648757 ], [ 4.288315, 43.648445 ], [ 4.286138, 43.647266 ], [ 4.28601, 43.647289 ], [ 4.284806, 43.647641 ], [ 4.284086, 43.649337 ], [ 4.282741, 43.651735 ], [ 4.277243, 43.656061 ], [ 4.275904, 43.656665 ], [ 4.275638, 43.65704 ], [ 4.27244, 43.659993 ], [ 4.272244, 43.660117 ], [ 4.266385, 43.661702 ], [ 4.258524, 43.658325 ], [ 4.257118, 43.65587 ], [ 4.256975, 43.655582 ], [ 4.253755, 43.657192 ], [ 4.253355, 43.658625 ], [ 4.254978, 43.661838 ], [ 4.250509, 43.669011 ], [ 4.24925, 43.668827 ], [ 4.246627, 43.668373 ], [ 4.246013, 43.67192 ], [ 4.246266633693805, 43.673859901454975 ], [ 4.243449, 43.676159 ], [ 4.24264, 43.679667 ], [ 4.239312946891233, 43.683122147487403 ], [ 4.242253026431556, 43.68523869376348 ], [ 4.246714, 43.680546 ], [ 4.247051, 43.679804 ], [ 4.247594, 43.679326 ], [ 4.248336, 43.679287 ], [ 4.251538, 43.678908 ], [ 4.253312, 43.678805 ], [ 4.254009073765495, 43.678426673217849 ], [ 4.255755, 43.674688 ], [ 4.256386, 43.671144 ], [ 4.256581, 43.668974 ], [ 4.257057, 43.666458 ], [ 4.257269, 43.66533 ], [ 4.257596, 43.663816 ], [ 4.259223, 43.663583 ], [ 4.261115, 43.664574 ], [ 4.261929, 43.664999 ], [ 4.269386, 43.667923 ], [ 4.274475, 43.664782 ], [ 4.277512, 43.659381 ], [ 4.279584, 43.656694 ], [ 4.283746, 43.653132 ], [ 4.292049, 43.653155 ], [ 4.29319, 43.656569 ], [ 4.295351, 43.66483 ], [ 4.297309, 43.665093 ], [ 4.298406, 43.665791 ], [ 4.298819, 43.666282 ], [ 4.300019, 43.673596 ], [ 4.297662877681167, 43.679822305020529 ], [ 4.297859374272997, 43.680602943767823 ], [ 4.303768, 43.67605 ] ] ] ] } },
{ "type": "Feature", "properties": { "codgeo": "30341", "value": 420, "isochrone_group": 7.0, "nb_agences": 3 }, "geometry": { "type": "MultiPolygon", "coordinates": [ [ [ [ 4.238123, 43.67372 ], [ 4.238175, 43.673765 ], [ 4.238194309330912, 43.673814871092318 ], [ 4.239574, 43.674221 ], [ 4.239685, 43.674332 ], [ 4.239592685298356, 43.677426520677265 ], [ 4.240029188562421, 43.678553897626792 ], [ 4.239548958269505, 43.678892313151472 ], [ 4.239545, 43.679025 ], [ 4.240745731471064, 43.681634199480811 ], [ 4.24264, 43.679667 ], [ 4.243449, 43.676159 ], [ 4.246266633693805, 43.673859901454975 ], [ 4.246013, 43.67192 ], [ 4.246627, 43.668373 ], [ 4.24925, 43.668827 ], [ 4.250509, 43.669011 ], [ 4.253215799381285, 43.66466643254374 ], [ 4.247327, 43.666569 ], [ 4.244049, 43.665083 ], [ 4.238255, 43.670851 ], [ 4.238123, 43.67372 ] ] ], [ [ [ 4.241523901808963, 43.698675748136864 ], [ 4.241786, 43.698648 ], [ 4.246646266978225, 43.699327252848825 ], [ 4.247119, 43.707497 ], [ 4.247555, 43.708152 ], [ 4.249627, 43.711175 ], [ 4.253209, 43.719054 ], [ 4.250817, 43.723645 ], [ 4.251599, 43.727159 ], [ 4.255111, 43.726876 ], [ 4.258316, 43.725238 ], [ 4.266154549421096, 43.725059357662396 ], [ 4.261559, 43.721888 ], [ 4.260898, 43.722247 ], [ 4.258682, 43.723651 ], [ 4.258308, 43.72393 ], [ 4.257159, 43.724634 ], [ 4.25528, 43.721563 ], [ 4.256334667431219, 43.7203901648002 ], [ 4.256052839459703, 43.712414071888425 ], [ 4.251478, 43.709282 ], [ 4.250550706711787, 43.707155848960596 ], [ 4.250494, 43.707105 ], [ 4.249983973746075, 43.705965262511846 ], [ 4.246626, 43.698977 ], [ 4.243065461618569, 43.696940110906219 ], [ 4.241523901808963, 43.698675748136864 ] ] ], [ [ [ 4.269768, 43.731785 ], [ 4.269695319584566, 43.732830269415508 ], [ 4.269404, 43.734323 ], [ 4.269522, 43.734435 ], [ 4.27, 43.73489 ], [ 4.270023273982956, 43.734891162039112 ], [ 4.276720519240317, 43.736853189803519 ], [ 4.278841, 43.737608 ], [ 4.280739, 43.734549 ], [ 4.280327967057739, 43.734294053110283 ], [ 4.280328, 43.734294 ], [ 4.280158058433684, 43.734188665753727 ], [ 4.278577, 43.733208 ], [ 4.276437477764254, 43.730973152516142 ], [ 4.276531071520246, 43.727251316911996 ], [ 4.278439, 43.7231 ], [ 4.285309635960651, 43.720896263364942 ], [ 4.279662, 43.718134 ], [ 4.279305, 43.718176 ], [ 4.279177212745991, 43.718149023324976 ], [ 4.272921, 43.723384 ], [ 4.272856, 43.727661 ], [ 4.27086, 43.728433 ], [ 4.269374, 43.728577 ], [ 4.268958, 43.726994 ], [ 4.266168616709445, 43.725069065403225 ], [ 4.269768, 43.731785 ] ] ], [ [ [ 4.298683068202221, 43.708243486995222 ], [ 4.298836, 43.7038 ], [ 4.304037, 43.699155 ], [ 4.304242, 43.69873 ], [ 4.305185, 43.694987 ], [ 4.30525671787172, 43.693699557160997 ], [ 4.305943, 43.690273 ], [ 4.304608, 43.688377 ], [ 4.309723, 43.681268 ], [ 4.310773, 43.68171 ], [ 4.311785, 43.680402 ], [ 4.312459, 43.67853 ], [ 4.310564, 43.673388 ], [ 4.309101, 43.66922 ], [ 4.304844, 43.664712 ], [ 4.304129, 43.66124 ], [ 4.308651, 43.653828 ], [ 4.310124, 43.653509 ], [ 4.309364, 43.64999 ], [ 4.303034, 43.64962 ], [ 4.297764, 43.645841 ], [ 4.295883, 43.64374 ], [ 4.295629, 43.64379 ], [ 4.290942, 43.644893 ], [ 4.285511, 43.645546 ], [ 4.282165, 43.648411 ], [ 4.278434, 43.652202 ], [ 4.275273, 43.656255 ], [ 4.266924, 43.657842 ], [ 4.263407, 43.655452 ], [ 4.258542, 43.652123 ], [ 4.253588, 43.647737 ], [ 4.250033, 43.648305 ], [ 4.250444, 43.650872 ], [ 4.250596, 43.651426 ], [ 4.251966, 43.653965 ], [ 4.25207, 43.654217 ], [ 4.252433, 43.655174 ], [ 4.252599, 43.655521 ], [ 4.253741048894767, 43.657241979834509 ], [ 4.253755, 43.657192 ], [ 4.256975, 43.655582 ], [ 4.257118, 43.65587 ], [ 4.258524, 43.658325 ], [ 4.266385, 43.661702 ], [ 4.272244, 43.660117 ], [ 4.27244, 43.659993 ], [ 4.275638, 43.65704 ], [ 4.275904, 43.656665 ], [ 4.277243, 43.656061 ], [ 4.282741, 43.651735 ], [ 4.284086, 43.649337 ], [ 4.284806, 43.647641 ], [ 4.28601, 43.647289 ], [ 4.286138, 43.647266 ], [ 4.288315, 43.648445 ], [ 4.296039, 43.648757 ], [ 4.297237, 43.648966 ], [ 4.299966, 43.653875 ], [ 4.299945, 43.653987 ], [ 4.299879, 43.654187 ], [ 4.299857, 43.654241 ], [ 4.298923, 43.661043 ], [ 4.30031, 43.663386 ], [ 4.300685, 43.664182 ], [ 4.302171, 43.666499 ], [ 4.305419, 43.671537 ], [ 4.305853, 43.673116 ], [ 4.303768, 43.67605 ], [ 4.297165, 43.681138 ], [ 4.300606, 43.685002 ], [ 4.301843, 43.686619 ], [ 4.302241, 43.686974 ], [ 4.302912, 43.687754 ], [ 4.302795001172633, 43.687854584706187 ], [ 4.301329, 43.694216 ], [ 4.301106, 43.697809 ], [ 4.295736, 43.702309 ], [ 4.294478619192399, 43.707366715625199 ], [ 4.298683068202221, 43.708243486995222 ] ] ] ] } },
{ "type": "Feature", "properties": { "codgeo": "30341", "value": 480, "isochrone_group": 8.0, "nb_agences": 3 }, "geometry": { "type": "MultiPolygon", "coordinates": [ [ [ [ 4.246592697780628, 43.699319766216867 ], [ 4.246309, 43.699898 ], [ 4.242932167388277, 43.703437611557106 ], [ 4.245444567086569, 43.704788898755922 ], [ 4.245791078480642, 43.705262063143429 ], [ 4.246945, 43.70717 ], [ 4.247116008155188, 43.707445295095724 ], [ 4.246646266978225, 43.699327252848825 ], [ 4.246592697780628, 43.699319766216867 ] ] ], [ [ [ 4.244065216398423, 43.72263601912389 ], [ 4.249247, 43.723498 ], [ 4.250971540172376, 43.723348388824675 ], [ 4.253209, 43.719054 ], [ 4.249627, 43.711175 ], [ 4.247555, 43.708152 ], [ 4.249086, 43.713338 ], [ 4.248152, 43.717878 ], [ 4.244065216398423, 43.72263601912389 ] ] ], [ [ [ 4.260375, 43.732352 ], [ 4.267441, 43.736776 ], [ 4.268753, 43.738882 ], [ 4.269993, 43.738368 ], [ 4.27045, 43.738098 ], [ 4.278982, 43.737694 ], [ 4.279475, 43.737971 ], [ 4.280122, 43.738297 ], [ 4.280796, 43.738587 ], [ 4.284853, 43.740937 ], [ 4.287648, 43.740449 ], [ 4.288759, 43.737024 ], [ 4.286348, 43.735192 ], [ 4.287632068097293, 43.730072081308293 ], [ 4.286951, 43.730084 ], [ 4.282509, 43.725621 ], [ 4.281876, 43.723923 ], [ 4.280379171578085, 43.722477695571513 ], [ 4.278439, 43.7231 ], [ 4.276531071520246, 43.727251316911996 ], [ 4.276437477764254, 43.730973152516142 ], [ 4.278577, 43.733208 ], [ 4.280158058433684, 43.734188665753727 ], [ 4.280328, 43.734294 ], [ 4.280327967057739, 43.734294053110283 ], [ 4.280739, 43.734549 ], [ 4.278841, 43.737608 ], [ 4.276720519240317, 43.736853189803519 ], [ 4.270023273982956, 43.734891162039112 ], [ 4.27, 43.73489 ], [ 4.269522, 43.734435 ], [ 4.269404, 43.734323 ], [ 4.269695319584566, 43.732830269415508 ], [ 4.269768, 43.731785 ], [ 4.266163306910316, 43.725059158077208 ], [ 4.258316, 43.725238 ], [ 4.255111, 43.726876 ], [ 4.253498918858513, 43.727005902893787 ], [ 4.252744959133651, 43.728279299279649 ], [ 4.256975, 43.731168 ], [ 4.260375, 43.732352 ] ] ], [ [ [ 4.306498, 43.699413 ], [ 4.306885, 43.699241 ], [ 4.307871894385978, 43.698360920680052 ], [ 4.31022832045483, 43.694763706509654 ], [ 4.310527, 43.694476 ], [ 4.310813214700091, 43.693686568558377 ], [ 4.311288, 43.692757 ], [ 4.31123, 43.692537 ], [ 4.313691981031212, 43.690511099829791 ], [ 4.313829, 43.687519 ], [ 4.312282, 43.68277 ], [ 4.31454, 43.679966 ], [ 4.317305272573734, 43.680756555613058 ], [ 4.316997, 43.673968 ], [ 4.313149, 43.668839 ], [ 4.312474, 43.668745 ], [ 4.311777, 43.668612 ], [ 4.308525227156379, 43.665825693542644 ], [ 4.306911366705203, 43.664039834358604 ], [ 4.309191, 43.659585 ], [ 4.310137, 43.65914 ], [ 4.315043, 43.655089 ], [ 4.322585, 43.650721 ], [ 4.322404, 43.647126 ], [ 4.320155, 43.647164 ], [ 4.319036, 43.647242 ], [ 4.310176, 43.647379 ], [ 4.304803, 43.642089 ], [ 4.298397, 43.638088 ], [ 4.298381, 43.638085 ], [ 4.298054, 43.638141 ], [ 4.291854, 43.639104 ], [ 4.286405, 43.643666 ], [ 4.285762, 43.644912 ], [ 4.279084, 43.649424 ], [ 4.2778, 43.650127 ], [ 4.274524, 43.653368 ], [ 4.269025, 43.65403 ], [ 4.261691, 43.649992 ], [ 4.260562, 43.649011 ], [ 4.260065, 43.648628 ], [ 4.25592, 43.646162 ], [ 4.255802, 43.640542 ], [ 4.255995, 43.640009 ], [ 4.255046, 43.63876 ], [ 4.25261, 43.638782 ], [ 4.251253, 43.641115 ], [ 4.251076, 43.64158 ], [ 4.250579, 43.643738 ], [ 4.250031, 43.646852 ], [ 4.249996, 43.647309 ], [ 4.250005, 43.648016 ], [ 4.250049028959863, 43.648302438973502 ], [ 4.253588, 43.647737 ], [ 4.258542, 43.652123 ], [ 4.263407, 43.655452 ], [ 4.266924, 43.657842 ], [ 4.275273, 43.656255 ], [ 4.278434, 43.652202 ], [ 4.282165, 43.648411 ], [ 4.285511, 43.645546 ], [ 4.290942, 43.644893 ], [ 4.295629, 43.64379 ], [ 4.295883, 43.64374 ], [ 4.297764, 43.645841 ], [ 4.303034, 43.64962 ], [ 4.309364, 43.64999 ], [ 4.310124, 43.653509 ], [ 4.308651, 43.653828 ], [ 4.304129, 43.66124 ], [ 4.304844, 43.664712 ], [ 4.309101, 43.66922 ], [ 4.310564, 43.673388 ], [ 4.312459, 43.67853 ], [ 4.311785, 43.680402 ], [ 4.310773, 43.68171 ], [ 4.309723, 43.681268 ], [ 4.304608, 43.688377 ], [ 4.305943, 43.690273 ], [ 4.30525671787172, 43.693699557160997 ], [ 4.305185, 43.694987 ], [ 4.304242, 43.69873 ], [ 4.304037, 43.699155 ], [ 4.29930239690628, 43.703383462097747 ], [ 4.305298, 43.700336 ], [ 4.306163, 43.699601 ], [ 4.306498, 43.699413 ] ] ], [ [ [ 4.250114014813873, 43.648810997633106 ], [ 4.250114, 43.648811 ], [ 4.250444, 43.650872 ], [ 4.250114014813873, 43.648810997633106 ] ] ], [ [ [ 4.245245, 43.661972 ], [ 4.244992, 43.662511 ], [ 4.244831, 43.662928 ], [ 4.244649, 43.663604 ], [ 4.244077207075311, 43.665025000217724 ], [ 4.244075, 43.665024 ], [ 4.244061032812778, 43.665038013395915 ], [ 4.238873870165036, 43.668508345699713 ], [ 4.239366480679196, 43.669744506980038 ], [ 4.244049, 43.665083 ], [ 4.247327, 43.666569 ], [ 4.25376833769082, 43.664487917138842 ], [ 4.255728, 43.662606 ], [ 4.254574, 43.659355 ], [ 4.254057, 43.657945 ], [ 4.254064822634438, 43.657940618428995 ], [ 4.253899, 43.65748 ], [ 4.252599, 43.655521 ], [ 4.248768, 43.663048 ], [ 4.245628, 43.661287 ], [ 4.245245, 43.661972 ] ] ] ] } },
{ "type": "Feature", "properties": { "codgeo": "30341", "value": 540, "isochrone_group": 9.0, "nb_agences": 3 }, "geometry": { "type": "MultiPolygon", "coordinates": [ [ [ [ 4.257485195592548, 43.737948607941917 ], [ 4.257833, 43.73799 ], [ 4.257915, 43.738003 ], [ 4.257958, 43.738019 ], [ 4.260291, 43.738513 ], [ 4.260464, 43.738568 ], [ 4.261379766695225, 43.739409044118077 ], [ 4.264196, 43.740033 ], [ 4.264965, 43.740186 ], [ 4.265703, 43.740057 ], [ 4.267893, 43.739292 ], [ 4.268475, 43.739058 ], [ 4.269993, 43.738368 ], [ 4.268753, 43.738882 ], [ 4.267441, 43.736776 ], [ 4.260375, 43.732352 ], [ 4.256975, 43.731168 ], [ 4.254906663010216, 43.729755529827472 ], [ 4.253048011156668, 43.730955928047514 ], [ 4.254901, 43.734733 ], [ 4.25693, 43.737302 ], [ 4.257485195592548, 43.737948607941917 ] ] ], [ [ [ 4.281716, 43.744862 ], [ 4.282101195210342, 43.744646864377223 ], [ 4.282113, 43.744658 ], [ 4.28228, 43.744547 ], [ 4.282843, 43.744127 ], [ 4.286985238021832, 43.742880749283316 ], [ 4.291303657761738, 43.742422327824052 ], [ 4.293401, 43.743935 ], [ 4.296849, 43.745442 ], [ 4.298267, 43.744798 ], [ 4.298324, 43.744744 ], [ 4.298378, 43.744686 ], [ 4.29841, 43.744647 ], [ 4.298607, 43.742301 ], [ 4.295442, 43.739029 ], [ 4.293886, 43.73633 ], [ 4.29385036829491, 43.736218561680062 ], [ 4.288208, 43.732116 ], [ 4.287464, 43.731535 ], [ 4.28732508424857, 43.731296107003224 ], [ 4.286348, 43.735192 ], [ 4.288759, 43.737024 ], [ 4.287648, 43.740449 ], [ 4.284853, 43.740937 ], [ 4.280796, 43.738587 ], [ 4.280122, 43.738297 ], [ 4.279475, 43.737971 ], [ 4.278982, 43.737694 ], [ 4.27762529057838, 43.737758241749454 ], [ 4.280216, 43.741945 ], [ 4.280909, 43.745048 ], [ 4.281225, 43.745002 ], [ 4.281716, 43.744862 ] ] ], [ [ [ 4.311288, 43.692757 ], [ 4.310813214700091, 43.693686568558377 ], [ 4.310769330013104, 43.693807610390614 ], [ 4.312174, 43.692147 ], [ 4.312191238764429, 43.691746021616417 ], [ 4.31123, 43.692537 ], [ 4.311288, 43.692757 ] ] ], [ [ [ 4.320916, 43.675286 ], [ 4.32104, 43.671689 ], [ 4.317392, 43.669336 ], [ 4.314145, 43.661702 ], [ 4.319754, 43.656776 ], [ 4.32605, 43.652357 ], [ 4.331184, 43.652728 ], [ 4.334287546748833, 43.653490151969542 ], [ 4.332372, 43.652841 ], [ 4.333528, 43.649431 ], [ 4.334792, 43.649669 ], [ 4.335074050085681, 43.649745780301103 ], [ 4.329684, 43.644888 ], [ 4.326052, 43.643138 ], [ 4.325657, 43.643166 ], [ 4.321142, 43.643347 ], [ 4.31975, 43.64568 ], [ 4.317051903320537, 43.646528801340978 ], [ 4.312015, 43.645964 ], [ 4.309845, 43.642914 ], [ 4.308792, 43.64275 ], [ 4.307815, 43.642578 ], [ 4.30559, 43.642178 ], [ 4.304532, 43.634861 ], [ 4.302226, 43.632097 ], [ 4.294899, 43.635249 ], [ 4.289611, 43.637655 ], [ 4.280837, 43.637446 ], [ 4.28083, 43.637446 ], [ 4.279279, 43.638909 ], [ 4.279265, 43.639068 ], [ 4.279681, 43.639589 ], [ 4.280895, 43.641045 ], [ 4.283068771502934, 43.646731683584733 ], [ 4.279084, 43.649424 ], [ 4.285762, 43.644912 ], [ 4.286405, 43.643666 ], [ 4.291854, 43.639104 ], [ 4.298054, 43.638141 ], [ 4.298381, 43.638085 ], [ 4.298397, 43.638088 ], [ 4.304803, 43.642089 ], [ 4.310176, 43.647379 ], [ 4.319036, 43.647242 ], [ 4.320155, 43.647164 ], [ 4.322404, 43.647126 ], [ 4.322585, 43.650721 ], [ 4.315043, 43.655089 ], [ 4.310137, 43.65914 ], [ 4.309191, 43.659585 ], [ 4.306911366705203, 43.664039834358604 ], [ 4.308525227156379, 43.665825693542644 ], [ 4.311777, 43.668612 ], [ 4.312474, 43.668745 ], [ 4.313149, 43.668839 ], [ 4.316997, 43.673968 ], [ 4.317197853425816, 43.678391048845064 ], [ 4.317905, 43.678645 ], [ 4.321493, 43.678947 ], [ 4.32194311436377, 43.679066232101384 ], [ 4.320916, 43.675286 ] ] ], [ [ [ 4.278156, 43.649932 ], [ 4.27815584675698, 43.649932171129173 ], [ 4.279084, 43.649424 ], [ 4.278156, 43.649932 ] ] ], [ [ [ 4.259926, 43.643551 ], [ 4.257934, 43.63831 ], [ 4.257918, 43.635041 ], [ 4.253205, 43.6304 ], [ 4.249856, 43.631719 ], [ 4.250475, 43.635604 ], [ 4.250579, 43.643738 ], [ 4.251076, 43.64158 ], [ 4.251253, 43.641115 ], [ 4.25261, 43.638782 ], [ 4.255046, 43.63876 ], [ 4.255995, 43.640009 ], [ 4.255802, 43.640542 ], [ 4.25592, 43.646162 ], [ 4.260065, 43.648628 ], [ 4.260562, 43.649011 ], [ 4.261691, 43.649992 ], [ 4.269025, 43.65403 ], [ 4.274524, 43.653368 ], [ 4.277348488335086, 43.650573687822344 ], [ 4.272195, 43.650453 ], [ 4.268615, 43.650079 ], [ 4.264562, 43.64829 ], [ 4.259926, 43.643551 ] ] ], [ [ [ 4.250579, 43.643738 ], [ 4.250206318477149, 43.645855755952859 ], [ 4.250182, 43.645866 ], [ 4.250031, 43.646852 ], [ 4.250579, 43.643738 ] ] ], [ [ [ 4.246069, 43.659854 ], [ 4.245245, 43.661972 ], [ 4.245628, 43.661287 ], [ 4.248768, 43.663048 ], [ 4.252599, 43.655521 ], [ 4.252433, 43.655174 ], [ 4.25207, 43.654217 ], [ 4.251966, 43.653965 ], [ 4.250596, 43.651426 ], [ 4.250444, 43.650872 ], [ 4.247125, 43.657446 ], [ 4.24669, 43.658407 ], [ 4.246385, 43.65899 ], [ 4.246069, 43.659854 ] ] ], [ [ [ 4.242284016790316, 43.666226878393218 ], [ 4.244061032812778, 43.665038013395915 ], [ 4.244075, 43.665024 ], [ 4.244077207075311, 43.665025000217724 ], [ 4.244649, 43.663604 ], [ 4.244777144144145, 43.663128036036042 ], [ 4.244769, 43.663126 ], [ 4.244584298487354, 43.663632929692717 ], [ 4.241935030292078, 43.664817484916803 ], [ 4.242284016790316, 43.666226878393218 ] ] ], [ [ [ 4.242487, 43.718444 ], [ 4.24394, 43.718313 ], [ 4.245072, 43.718268 ], [ 4.245425, 43.71838 ], [ 4.246693184621376, 43.719576419135038 ], [ 4.248152, 43.717878 ], [ 4.249086, 43.713338 ], [ 4.247555, 43.708152 ], [ 4.246945, 43.70717 ], [ 4.246277107800383, 43.706065682139112 ], [ 4.241740508298183, 43.710371869630727 ], [ 4.243156, 43.711909 ], [ 4.241491922918468, 43.719028239901199 ], [ 4.242487, 43.718444 ] ] ] ] } },
{ "type": "Feature", "properties": { "codgeo": "30341", "value": 600, "isochrone_group": 10.0, "nb_agences": 3 }, "geometry": { "type": "MultiPolygon", "coordinates": [ [ [ [ 4.326205, 43.671562 ], [ 4.323326, 43.669401 ], [ 4.316645, 43.665175 ], [ 4.318613, 43.659281 ], [ 4.324166, 43.656743 ], [ 4.327816, 43.657205 ], [ 4.330391770232608, 43.657048506117633 ], [ 4.327724, 43.654912 ], [ 4.324755997420215, 43.653265227033039 ], [ 4.319754, 43.656776 ], [ 4.314145, 43.661702 ], [ 4.317392, 43.669336 ], [ 4.32104, 43.671689 ], [ 4.320916, 43.675286 ], [ 4.321496482380813, 43.67742243018504 ], [ 4.321615, 43.677491 ], [ 4.327427097358441, 43.678582842755958 ], [ 4.32607, 43.676267 ], [ 4.326205, 43.671562 ] ] ], [ [ [ 4.327839466496815, 43.64177619163604 ], [ 4.327838, 43.641775 ], [ 4.327126, 43.641682 ], [ 4.326639, 43.641684 ], [ 4.323373641356071, 43.643257536636675 ], [ 4.325657, 43.643166 ], [ 4.326052, 43.643138 ], [ 4.329684, 43.644888 ], [ 4.332301077519153, 43.647246639978654 ], [ 4.336751, 43.646469 ], [ 4.329901, 43.642116 ], [ 4.328141, 43.641816 ], [ 4.327839466496815, 43.64177619163604 ] ] ], [ [ [ 4.317051903320537, 43.646528801340978 ], [ 4.31975, 43.64568 ], [ 4.320530420588189, 43.644372010609025 ], [ 4.312587, 43.644884 ], [ 4.310737788689256, 43.644168841245261 ], [ 4.312015, 43.645964 ], [ 4.317051903320537, 43.646528801340978 ] ] ], [ [ [ 4.309276, 43.630904 ], [ 4.311098, 43.629383 ], [ 4.312921, 43.627862 ], [ 4.310614, 43.625098 ], [ 4.308792, 43.626619 ], [ 4.306969, 43.628139 ], [ 4.305386591241913, 43.629459656933435 ], [ 4.304464, 43.630229 ], [ 4.302978, 43.631469 ], [ 4.30222425384123, 43.632097751179536 ], [ 4.302226, 43.632097 ], [ 4.304532, 43.634861 ], [ 4.30559, 43.642178 ], [ 4.305284, 43.634234 ], [ 4.306771, 43.632994 ], [ 4.308195811772133, 43.631805058817349 ], [ 4.309276, 43.630904 ] ] ], [ [ [ 4.285163, 43.636878 ], [ 4.283523, 43.637141 ], [ 4.28345273892623, 43.63750830789099 ], [ 4.289611, 43.637655 ], [ 4.294899, 43.635249 ], [ 4.298909771622562, 43.633523607321635 ], [ 4.292222, 43.634781 ], [ 4.287713669586569, 43.637103948620407 ], [ 4.285296, 43.636905 ], [ 4.285163, 43.636878 ] ] ], [ [ [ 4.275582, 43.638272 ], [ 4.275594495933107, 43.638290281913363 ], [ 4.275215, 43.638774 ], [ 4.274541, 43.640246 ], [ 4.274404, 43.640925 ], [ 4.273995, 43.642559 ], [ 4.269239, 43.64665 ], [ 4.264828, 43.640266 ], [ 4.264024, 43.635137 ], [ 4.260243, 43.63232 ], [ 4.254602, 43.626206 ], [ 4.254906, 43.624857 ], [ 4.254955, 43.622452 ], [ 4.254623, 43.622208 ], [ 4.254387, 43.622061 ], [ 4.254227, 43.621978 ], [ 4.252564, 43.622154 ], [ 4.249466, 43.62313 ], [ 4.246423, 43.625054 ], [ 4.247674, 43.627034 ], [ 4.249325, 43.630746 ], [ 4.249898167954611, 43.63198365671029 ], [ 4.249856, 43.631719 ], [ 4.253205, 43.6304 ], [ 4.257918, 43.635041 ], [ 4.257934, 43.63831 ], [ 4.259926, 43.643551 ], [ 4.264562, 43.64829 ], [ 4.268615, 43.650079 ], [ 4.272195, 43.650453 ], [ 4.277362807013898, 43.650574023146689 ], [ 4.277705449058388, 43.650435138118318 ], [ 4.278156, 43.649932 ], [ 4.279084, 43.649424 ], [ 4.283068771502934, 43.646731683584733 ], [ 4.280895, 43.641045 ], [ 4.279681, 43.639589 ], [ 4.279265, 43.639068 ], [ 4.279279, 43.638909 ], [ 4.28083, 43.637446 ], [ 4.280837, 43.637446 ], [ 4.282657535149044, 43.637489365836132 ], [ 4.279497, 43.635765 ], [ 4.276286, 43.637777 ], [ 4.275692, 43.638166 ], [ 4.275582, 43.638272 ] ] ], [ [ [ 4.239401421691095, 43.659603667325499 ], [ 4.24466316251862, 43.663416480360155 ], [ 4.244769, 43.663126 ], [ 4.244777144144145, 43.663128036036042 ], [ 4.244831, 43.662928 ], [ 4.244992, 43.662511 ], [ 4.245245, 43.661972 ], [ 4.246069, 43.659854 ], [ 4.246385, 43.65899 ], [ 4.24669, 43.658407 ], [ 4.247125, 43.657446 ], [ 4.250444, 43.650872 ], [ 4.250005, 43.648016 ], [ 4.249996, 43.647309 ], [ 4.247523, 43.653922 ], [ 4.243521, 43.656824 ], [ 4.239375143348007, 43.658607338702495 ], [ 4.239401421691095, 43.659603667325499 ] ] ], [ [ [ 4.338706303217903, 43.646744411983327 ], [ 4.338706, 43.646744 ], [ 4.336751, 43.646469 ], [ 4.338706303217903, 43.646744411983327 ] ] ], [ [ [ 4.277028, 43.743426 ], [ 4.275528, 43.744926 ], [ 4.278072, 43.747472 ], [ 4.279965, 43.746455 ], [ 4.287825, 43.746453 ], [ 4.288723970005742, 43.746788547950565 ], [ 4.289469261119375, 43.747297801391291 ], [ 4.290271, 43.747024 ], [ 4.295164861858431, 43.744705922221769 ], [ 4.293401, 43.743935 ], [ 4.291303657761738, 43.742422327824052 ], [ 4.286985238021832, 43.742880749283316 ], [ 4.282843, 43.744127 ], [ 4.28228, 43.744547 ], [ 4.282113, 43.744658 ], [ 4.282101195210342, 43.744646864377223 ], [ 4.281716, 43.744862 ], [ 4.281225, 43.745002 ], [ 4.280909, 43.745048 ], [ 4.280216, 43.741945 ], [ 4.277454524506773, 43.737482272451921 ], [ 4.273607128621819, 43.736948974405017 ], [ 4.270979, 43.737504 ], [ 4.27045, 43.738098 ], [ 4.269993, 43.738368 ], [ 4.268475, 43.739058 ], [ 4.267893, 43.739292 ], [ 4.27316, 43.738337 ], [ 4.276919643670391, 43.739129443959044 ], [ 4.277207, 43.743173 ], [ 4.277028, 43.743426 ] ] ], [ [ [ 4.300043, 43.740942 ], [ 4.298118, 43.734548 ], [ 4.29851318339685, 43.734034109280365 ], [ 4.293876714192621, 43.736300958595152 ], [ 4.293886, 43.73633 ], [ 4.295442, 43.739029 ], [ 4.298607, 43.742301 ], [ 4.29853346579442, 43.743176691605555 ], [ 4.299462, 43.742838 ], [ 4.300115, 43.74329 ], [ 4.303490618143061, 43.745405278085542 ], [ 4.300043, 43.740942 ] ] ] ] } },
{ "type": "Feature", "properties": { "codgeo": "30341", "value": 660, "isochrone_group": 11.0, "nb_agences": 3 }, "geometry": { "type": "MultiPolygon", "coordinates": [ [ [ [ 4.301399, 43.738391 ], [ 4.301317240685967, 43.738322365569296 ], [ 4.298438121813613, 43.734571904075871 ], [ 4.298202893983563, 43.734829980327738 ], [ 4.299992021173485, 43.740772670848457 ], [ 4.304958316474573, 43.74251311437866 ], [ 4.301399, 43.738391 ] ] ], [ [ [ 4.27316, 43.738337 ], [ 4.271076323931416, 43.738714807223381 ], [ 4.27200738733719, 43.744845743648369 ], [ 4.277196913325739, 43.743031064610264 ], [ 4.276919643670391, 43.739129443959044 ], [ 4.27316, 43.738337 ] ] ], [ [ [ 4.32777575755304, 43.658384384809402 ], [ 4.327137473458269, 43.657119115270596 ], [ 4.324166, 43.656743 ], [ 4.318613, 43.659281 ], [ 4.316645, 43.665175 ], [ 4.323326, 43.669401 ], [ 4.326205, 43.671562 ], [ 4.32607, 43.676267 ], [ 4.326523658401606, 43.677041153391784 ], [ 4.328285, 43.677711 ], [ 4.332470734746788, 43.676489264472664 ], [ 4.331252, 43.671832 ], [ 4.330701, 43.671192 ], [ 4.329555, 43.669935 ], [ 4.328559, 43.669442 ], [ 4.323952, 43.66825 ], [ 4.321476, 43.664937 ], [ 4.320986387406159, 43.662592713613186 ], [ 4.322869284756187, 43.660164952842507 ], [ 4.32543292013082, 43.658662317822483 ], [ 4.32777575755304, 43.658384384809402 ] ] ], [ [ [ 4.315503, 43.625708 ], [ 4.317, 43.624459 ], [ 4.31699967845671, 43.624458614761316 ], [ 4.31874, 43.623007 ], [ 4.320814, 43.621267 ], [ 4.322888, 43.619526 ], [ 4.320574, 43.616769 ], [ 4.3185, 43.618509 ], [ 4.316426, 43.620249 ], [ 4.314693000833559, 43.621695000998685 ], [ 4.314693, 43.621695 ], [ 4.31468961730054, 43.62169782419226 ], [ 4.314065, 43.622219 ], [ 4.3117, 43.624193 ], [ 4.310614489546487, 43.625098586522114 ], [ 4.312921, 43.627862 ], [ 4.311098, 43.629383 ], [ 4.309276, 43.630904 ], [ 4.311978, 43.628649 ], [ 4.311977930094505, 43.628648916246739 ], [ 4.314006, 43.626957 ], [ 4.315503, 43.625708 ] ] ], [ [ [ 4.309671105023726, 43.625885125828162 ], [ 4.309671, 43.625885 ], [ 4.306969, 43.628139 ], [ 4.308792, 43.626619 ], [ 4.309671105023726, 43.625885125828162 ] ] ], [ [ [ 4.305386591239126, 43.629459656935758 ], [ 4.305386591241913, 43.629459656933435 ], [ 4.306969, 43.628139 ], [ 4.305386591239126, 43.629459656935758 ] ] ], [ [ [ 4.279726651864435, 43.635890296448402 ], [ 4.283380871555784, 43.637884013112291 ], [ 4.283523, 43.637141 ], [ 4.285163, 43.636878 ], [ 4.285296, 43.636905 ], [ 4.287713669586569, 43.637103948620407 ], [ 4.292222, 43.634781 ], [ 4.292222234883803, 43.634780955838636 ], [ 4.289118, 43.634057 ], [ 4.287251, 43.633271 ], [ 4.285385, 43.632484 ], [ 4.279726651864435, 43.635890296448402 ] ] ], [ [ [ 4.265038, 43.628865 ], [ 4.264262, 43.626399 ], [ 4.26106, 43.618396 ], [ 4.261119, 43.617871 ], [ 4.261045, 43.617803 ], [ 4.260777, 43.6176 ], [ 4.260629, 43.617508 ], [ 4.258761, 43.617679 ], [ 4.258751, 43.617687 ], [ 4.25527, 43.620183 ], [ 4.247432, 43.619913 ], [ 4.244389, 43.621836 ], [ 4.246031, 43.624435 ], [ 4.246760388793743, 43.625588792741894 ], [ 4.249325, 43.630746 ], [ 4.247674, 43.627034 ], [ 4.246423, 43.625054 ], [ 4.249466, 43.62313 ], [ 4.252564, 43.622154 ], [ 4.254227, 43.621978 ], [ 4.254387, 43.622061 ], [ 4.254623, 43.622208 ], [ 4.254955, 43.622452 ], [ 4.254906, 43.624857 ], [ 4.254602, 43.626206 ], [ 4.260243, 43.63232 ], [ 4.264024, 43.635137 ], [ 4.264828, 43.640266 ], [ 4.269239, 43.64665 ], [ 4.273995, 43.642559 ], [ 4.274404, 43.640925 ], [ 4.274541, 43.640246 ], [ 4.275215, 43.638774 ], [ 4.275594495933107, 43.638290281913363 ], [ 4.275582, 43.638272 ], [ 4.275692, 43.638166 ], [ 4.276286, 43.637777 ], [ 4.278813565670033, 43.636193237269353 ], [ 4.272714, 43.635631 ], [ 4.272635, 43.635618 ], [ 4.266985, 43.6325 ], [ 4.265038, 43.628865 ] ] ], [ [ [ 4.247523, 43.653922 ], [ 4.249996, 43.647309 ], [ 4.250031, 43.646852 ], [ 4.247537, 43.653193 ], [ 4.244123448792112, 43.655932552514052 ], [ 4.244323784674591, 43.656241870783177 ], [ 4.247523, 43.653922 ] ] ] ] } },
{ "type": "Feature", "properties": { "codgeo": "30341", "value": 720, "isochrone_group": 12.0, "nb_agences": 3 }, "geometry": { "type": "MultiPolygon", "coordinates": [ [ [ [ 4.35595224697617, 43.653941445998193 ], [ 4.356235, 43.654409 ], [ 4.356729, 43.655061 ], [ 4.362885, 43.659662 ], [ 4.363369, 43.659929 ], [ 4.364824, 43.660902 ], [ 4.367304354420689, 43.661325506141011 ], [ 4.364572, 43.657845 ], [ 4.363514, 43.657591 ], [ 4.362677, 43.657523 ], [ 4.359630145051876, 43.657063816062902 ], [ 4.356239, 43.654188 ], [ 4.35595224697617, 43.653941445998193 ] ] ], [ [ [ 4.316999916510336, 43.624458899971636 ], [ 4.318414, 43.623279 ], [ 4.318413960118662, 43.623278952218442 ], [ 4.31699967845671, 43.624458614761316 ], [ 4.316999916510336, 43.624458899971636 ] ] ], [ [ [ 4.326845, 43.611507 ], [ 4.324359, 43.613592 ], [ 4.321874, 43.615678 ], [ 4.321628174668011, 43.615884208107047 ], [ 4.321628, 43.615884 ], [ 4.319027, 43.618066 ], [ 4.316426, 43.620249 ], [ 4.3185, 43.618509 ], [ 4.320574, 43.616769 ], [ 4.322888, 43.619526 ], [ 4.322069154977021, 43.620213371834623 ], [ 4.324188, 43.618436 ], [ 4.326673, 43.61635 ], [ 4.329159, 43.614265 ], [ 4.326845, 43.611507 ] ] ], [ [ [ 4.3117, 43.624193 ], [ 4.314065, 43.622219 ], [ 4.31468961730054, 43.62169782419226 ], [ 4.314693, 43.621695 ], [ 4.314693000833559, 43.621695000998685 ], [ 4.316426, 43.620249 ], [ 4.316107084189523, 43.620515100866847 ], [ 4.316107, 43.620515 ], [ 4.313903, 43.622354 ], [ 4.3117, 43.624193 ] ] ], [ [ [ 4.289118, 43.634057 ], [ 4.287141, 43.633224 ], [ 4.285833103588252, 43.632672991170416 ], [ 4.287251, 43.633271 ], [ 4.289118, 43.634057 ] ] ], [ [ [ 4.272724027330009, 43.63210334779302 ], [ 4.272599196179219, 43.63210058274263 ], [ 4.271743, 43.630402 ], [ 4.269666, 43.628868 ], [ 4.266683, 43.627338 ], [ 4.266298, 43.62709 ], [ 4.265562, 43.626775 ], [ 4.263357, 43.618628 ], [ 4.264315, 43.61763 ], [ 4.26687, 43.615661 ], [ 4.267035, 43.615539 ], [ 4.264895, 43.612644 ], [ 4.257494, 43.615181 ], [ 4.255319, 43.618049 ], [ 4.246739, 43.618962 ], [ 4.244122, 43.616412 ], [ 4.240955, 43.618123 ], [ 4.24126, 43.618688 ], [ 4.241646, 43.619302 ], [ 4.24232, 43.620229 ], [ 4.242898, 43.620829 ], [ 4.245855440079737, 43.624157119224876 ], [ 4.244389, 43.621836 ], [ 4.247432, 43.619913 ], [ 4.25527, 43.620183 ], [ 4.258751, 43.617687 ], [ 4.258761, 43.617679 ], [ 4.260629, 43.617508 ], [ 4.260777, 43.6176 ], [ 4.261045, 43.617803 ], [ 4.261119, 43.617871 ], [ 4.26106, 43.618396 ], [ 4.264262, 43.626399 ], [ 4.265038, 43.628865 ], [ 4.266985, 43.6325 ], [ 4.272635, 43.635618 ], [ 4.272714, 43.635631 ], [ 4.279169, 43.636226 ], [ 4.285384796885164, 43.632484122274086 ], [ 4.285178, 43.632397 ], [ 4.283084, 43.631495 ], [ 4.28099, 43.630593 ], [ 4.272724027330009, 43.63210334779302 ] ] ], [ [ [ 4.245104, 43.646417 ], [ 4.24495, 43.647099 ], [ 4.244521, 43.647972 ], [ 4.2470080375777, 43.653617519875525 ], [ 4.247537, 43.653193 ], [ 4.250031, 43.646852 ], [ 4.250579, 43.643738 ], [ 4.251076, 43.64158 ], [ 4.250973, 43.63482 ], [ 4.251070210896852, 43.641200054977865 ], [ 4.244997479963874, 43.644025803264853 ], [ 4.245114, 43.645952 ], [ 4.245104, 43.646417 ] ] ], [ [ [ 4.328751, 43.664758 ], [ 4.327398, 43.661423 ], [ 4.323650435123046, 43.659707093698877 ], [ 4.322869284756187, 43.660164952842507 ], [ 4.320986387406159, 43.662592713613186 ], [ 4.321476, 43.664937 ], [ 4.323952, 43.66825 ], [ 4.328559, 43.669442 ], [ 4.329555, 43.669935 ], [ 4.330701, 43.671192 ], [ 4.331252, 43.671832 ], [ 4.331459566396546, 43.672625192782014 ], [ 4.332437, 43.67041 ], [ 4.332444963676837, 43.670393981736773 ], [ 4.329229, 43.668777 ], [ 4.328751, 43.664758 ] ] ], [ [ [ 4.3073876258457, 43.644512996012928 ], [ 4.30559, 43.642178 ], [ 4.3073876258457, 43.644512996012928 ], [ 4.3073876258457, 43.644512996012928 ] ] ] ] } },
{ "type": "Feature", "properties": { "codgeo": "30341", "value": 780, "isochrone_group": 13.0, "nb_agences": 3 }, "geometry": { "type": "MultiPolygon", "coordinates": [ [ [ [ 4.367304354420691, 43.661325506141011 ], [ 4.367915093130385, 43.661429786235786 ], [ 4.366552, 43.660258 ], [ 4.366424941830176, 43.660205299736369 ], [ 4.367304354420691, 43.661325506141011 ] ] ], [ [ [ 4.324188, 43.618436 ], [ 4.326383, 43.616594 ], [ 4.327992833147113, 43.61524306029294 ], [ 4.326673, 43.61635 ], [ 4.324188, 43.618436 ] ] ], [ [ [ 4.33275281542435, 43.611287776723003 ], [ 4.333084, 43.611014 ], [ 4.334093, 43.610133 ], [ 4.336375, 43.608238 ], [ 4.334075, 43.605469 ], [ 4.331793, 43.607364 ], [ 4.330718, 43.608301 ], [ 4.330459908421683, 43.60851409889721 ], [ 4.330459, 43.608513 ], [ 4.328895, 43.609806 ], [ 4.327331, 43.611098 ], [ 4.324597, 43.613392 ], [ 4.321874, 43.615678 ], [ 4.324359, 43.613592 ], [ 4.326845, 43.611507 ], [ 4.329158490905809, 43.614264393223074 ], [ 4.329625, 43.613873 ], [ 4.331189, 43.612581 ], [ 4.332753, 43.611288 ], [ 4.33275281542435, 43.611287776723003 ] ] ], [ [ [ 4.27690769777557, 43.628834982723362 ], [ 4.276562, 43.628686 ], [ 4.276018261525529, 43.628784138163702 ], [ 4.27173, 43.628539 ], [ 4.26719892464739, 43.627460771052412 ], [ 4.266292302911141, 43.627073608036063 ], [ 4.263357, 43.618628 ], [ 4.265562, 43.626775 ], [ 4.266298, 43.62709 ], [ 4.266683, 43.627338 ], [ 4.269666, 43.628868 ], [ 4.271743, 43.630402 ], [ 4.272599196179219, 43.63210058274263 ], [ 4.272724027330009, 43.63210334779302 ], [ 4.28099, 43.630593 ], [ 4.282009716618413, 43.63103224755961 ], [ 4.280865, 43.630539 ], [ 4.278887, 43.629687 ], [ 4.276908, 43.628835 ], [ 4.27690769777557, 43.628834982723362 ] ] ], [ [ [ 4.246739, 43.618962 ], [ 4.255319, 43.618049 ], [ 4.257478626748921, 43.615201271486946 ], [ 4.255176, 43.617938 ], [ 4.247311706708542, 43.618892490497863 ], [ 4.246539084610128, 43.618767202810794 ], [ 4.246739, 43.618962 ] ] ], [ [ [ 4.241343, 43.618827 ], [ 4.241646, 43.619302 ], [ 4.241346129410072, 43.618825003776628 ], [ 4.241343, 43.618827 ] ] ], [ [ [ 4.245857358751854, 43.624159278379203 ], [ 4.24585735875185, 43.624159278379203 ], [ 4.242898, 43.620829 ], [ 4.245857358751854, 43.624159278379203 ] ] ], [ [ [ 4.246047782235062, 43.624460349197996 ], [ 4.246042685227237, 43.624452282677908 ], [ 4.246042685225817, 43.624452282675669 ], [ 4.246047782235062, 43.624460349197996 ] ] ], [ [ [ 4.251070210896852, 43.641200054977865 ], [ 4.250973, 43.63482 ], [ 4.250097, 43.632413 ], [ 4.249933907634767, 43.632060830346049 ], [ 4.244570845273315, 43.638976461826111 ], [ 4.244682, 43.639389 ], [ 4.248104853697876, 43.642579887728211 ], [ 4.251070210896852, 43.641200054977865 ] ] ] ] } },
{ "type": "Feature", "properties": { "codgeo": "30341", "value": 840, "isochrone_group": 14.0, "nb_agences": 3 }, "geometry": { "type": "MultiPolygon", "coordinates": [ [ [ [ 4.367915093130385, 43.661429786235786 ], [ 4.372631, 43.662235 ], [ 4.372796873351882, 43.662164249871431 ], [ 4.369485, 43.661283 ], [ 4.368753, 43.661002 ], [ 4.368401922909982, 43.660882751976757 ], [ 4.368384, 43.660871 ], [ 4.36532, 43.659747 ], [ 4.366552, 43.660258 ], [ 4.367915093130385, 43.661429786235786 ] ] ], [ [ [ 4.352981161033074, 43.645361301307972 ], [ 4.352981161033075, 43.645361301307979 ], [ 4.353049, 43.645373 ], [ 4.352981161033074, 43.645361301307972 ] ] ], [ [ [ 4.342545916317054, 43.643494042960612 ], [ 4.342821126093781, 43.643544744989235 ], [ 4.342546, 43.643494 ], [ 4.342545916317054, 43.643494042960612 ] ] ], [ [ [ 4.342257334759157, 43.643441365779786 ], [ 4.341734, 43.643345 ], [ 4.341726098921983, 43.643349953435219 ], [ 4.341259, 43.643265 ], [ 4.342250220063166, 43.643445277764442 ], [ 4.342257334759157, 43.643441365779786 ] ] ], [ [ [ 4.33275281542435, 43.611287776723003 ], [ 4.332752815424351, 43.611287776723003 ], [ 4.333084, 43.611014 ], [ 4.33275281542435, 43.611287776723003 ] ] ], [ [ [ 4.337186, 43.600164 ], [ 4.331793, 43.607364 ], [ 4.334075, 43.605469 ], [ 4.336375, 43.608238 ], [ 4.334093, 43.610133 ], [ 4.341079, 43.606752 ], [ 4.34291, 43.606584 ], [ 4.34258, 43.602999 ], [ 4.340397, 43.601793 ], [ 4.337186, 43.600164 ] ] ], [ [ [ 4.270221, 43.624466 ], [ 4.266096460938664, 43.626510121204689 ], [ 4.266292302911141, 43.627073608036063 ], [ 4.26719892464739, 43.627460771052412 ], [ 4.27173, 43.628539 ], [ 4.276018261525529, 43.628784138163702 ], [ 4.276562, 43.628686 ], [ 4.27690769777557, 43.628834982723362 ], [ 4.276908, 43.628835 ], [ 4.278887, 43.629687 ], [ 4.280865, 43.630539 ], [ 4.278783, 43.629642 ], [ 4.278705906204586, 43.629608838194578 ], [ 4.272787105988902, 43.626324613691246 ], [ 4.272195632170641, 43.625896357338434 ], [ 4.270221, 43.624466 ] ] ], [ [ [ 4.255176, 43.617938 ], [ 4.257494, 43.615183 ], [ 4.258285419460685, 43.615413376463778 ], [ 4.25842388560184, 43.615358493918883 ], [ 4.257232, 43.614963 ], [ 4.254915, 43.617718 ], [ 4.24725561800591, 43.618883395205572 ], [ 4.247311706708542, 43.618892490497863 ], [ 4.255176, 43.617938 ] ] ], [ [ [ 4.24126, 43.618688 ], [ 4.241346129410072, 43.618825003776628 ], [ 4.244378, 43.616891 ], [ 4.246511900060506, 43.618762794589287 ], [ 4.24656129878648, 43.618770805041152 ], [ 4.244092, 43.616114 ], [ 4.240573, 43.616874 ], [ 4.240691, 43.617418 ], [ 4.240838, 43.617868 ], [ 4.24126, 43.618688 ] ] ], [ [ [ 4.249325, 43.630746 ], [ 4.249133, 43.630142 ], [ 4.243921073562579, 43.636583045065592 ], [ 4.244157872732931, 43.637456254048537 ], [ 4.245775038709556, 43.637423662795548 ], [ 4.249933907634767, 43.632060830346049 ], [ 4.249325, 43.630746 ] ] ], [ [ [ 4.35734, 43.646115 ], [ 4.355195, 43.645744 ], [ 4.353049, 43.645373 ], [ 4.355212, 43.645747 ], [ 4.356060235299535, 43.645894058824467 ], [ 4.357340245208619, 43.646115549472725 ], [ 4.35734, 43.646115 ] ] ] ] } },
{ "type": "Feature", "properties": { "codgeo": "30341", "value": 900, "isochrone_group": 15.0, "nb_agences": 3 }, "geometry": { "type": "MultiPolygon", "coordinates": [ [ [ [ 4.368630607722776, 43.660960427828158 ], [ 4.368609, 43.660946 ], [ 4.368361322517671, 43.660862680975782 ], [ 4.368384, 43.660871 ], [ 4.368401922909982, 43.660882751976757 ], [ 4.368753, 43.661002 ], [ 4.368630607722776, 43.660960427828158 ] ] ], [ [ [ 4.372796873351883, 43.662164249871431 ], [ 4.373086431423859, 43.66204074437411 ], [ 4.371354499449085, 43.661780451434304 ], [ 4.372796873351883, 43.662164249871431 ] ] ], [ [ [ 4.370119671752001, 43.661451878559184 ], [ 4.368753, 43.661002 ], [ 4.369485, 43.661283 ], [ 4.370119671752001, 43.661451878559184 ] ] ], [ [ [ 4.331614, 43.641621 ], [ 4.33436, 43.642097 ], [ 4.331667, 43.64163 ], [ 4.328973, 43.641163 ], [ 4.328972653698147, 43.641163140990635 ], [ 4.331614, 43.641621 ] ] ], [ [ [ 4.348415, 43.606339 ], [ 4.351739, 43.606407 ], [ 4.354385, 43.606582 ], [ 4.354622, 43.602989 ], [ 4.351976, 43.602815 ], [ 4.34933, 43.60264 ], [ 4.348896, 43.602645 ], [ 4.344997510614924, 43.59874125481528 ], [ 4.343402044482606, 43.595829081193251 ], [ 4.344531, 43.593587 ], [ 4.341315, 43.591968 ], [ 4.334724, 43.597944 ], [ 4.334809, 43.601543 ], [ 4.332168346208235, 43.606639566883914 ], [ 4.330718, 43.608301 ], [ 4.331793, 43.607364 ], [ 4.337186, 43.600164 ], [ 4.340397, 43.601793 ], [ 4.34258, 43.602999 ], [ 4.34291, 43.606584 ], [ 4.341079, 43.606752 ], [ 4.344043, 43.606583 ], [ 4.3449, 43.606557 ], [ 4.347436, 43.606412 ], [ 4.347435961714441, 43.606411328788802 ], [ 4.347668, 43.606398 ], [ 4.348415, 43.606339 ] ] ], [ [ [ 4.272787105988902, 43.626324613691246 ], [ 4.278705906204586, 43.629608838194578 ], [ 4.278706005452785, 43.629608880886053 ], [ 4.272561602889674, 43.626161338273384 ], [ 4.272787105988902, 43.626324613691246 ] ] ], [ [ [ 4.27225702083724, 43.625940805774945 ], [ 4.269887196208662, 43.624224169368361 ], [ 4.263357, 43.618628 ], [ 4.266096460938663, 43.626510121204689 ], [ 4.270221, 43.624466 ], [ 4.272195632170641, 43.625896357338434 ], [ 4.27225702083724, 43.625940805774945 ] ] ], [ [ [ 4.242037, 43.63541 ], [ 4.249133, 43.630142 ], [ 4.248141638821768, 43.628030176461998 ], [ 4.244753254754269, 43.633393479418615 ], [ 4.242037, 43.63541 ] ] ], [ [ [ 4.357704, 43.646178 ], [ 4.357703917171394, 43.646178478625231 ], [ 4.357797344131875, 43.646194645061037 ], [ 4.357797, 43.646194 ], [ 4.357340035847049, 43.646115080327426 ], [ 4.357340056728104, 43.646115127118463 ], [ 4.357704, 43.646178 ] ] ] ] } },
{ "type": "Feature", "properties": { "codgeo": "30341", "value": 960, "isochrone_group": 16.0, "nb_agences": 3 }, "geometry": { "type": "MultiPolygon", "coordinates": [ [ [ [ 4.370921225276643, 43.661715334437964 ], [ 4.368753, 43.661002 ], [ 4.370919, 43.661715 ], [ 4.370921225276643, 43.661715334437964 ] ] ], [ [ [ 4.373086431423859, 43.66204074437411 ], [ 4.374899071510882, 43.661267597164226 ], [ 4.372625819019014, 43.661971518700859 ], [ 4.373086431423859, 43.66204074437411 ] ] ], [ [ [ 4.356526924077309, 43.645974652431235 ], [ 4.355519, 43.6458 ], [ 4.353049, 43.645373 ], [ 4.355534, 43.645803 ], [ 4.356043614210893, 43.645891182740719 ], [ 4.356526924077309, 43.645974652431235 ] ] ], [ [ [ 4.334447, 43.642112 ], [ 4.334446810330682, 43.642112033899728 ], [ 4.334532810271837, 43.642126927455372 ], [ 4.334937461655541, 43.642197005385924 ], [ 4.334447, 43.642112 ] ] ], [ [ [ 4.328973, 43.641163 ], [ 4.329144625474685, 43.641192750963874 ], [ 4.328403, 43.641064 ], [ 4.328402248629025, 43.641064339047887 ], [ 4.32897240244953, 43.641163243282072 ], [ 4.328973, 43.641163 ] ] ], [ [ [ 4.352208490447453, 43.606438050955525 ], [ 4.351739, 43.606407 ], [ 4.348415, 43.606339 ], [ 4.347668, 43.606398 ], [ 4.349621799755535, 43.606369543666403 ], [ 4.352129, 43.606433 ], [ 4.352208490447453, 43.606438050955525 ] ] ], [ [ [ 4.352827764165889, 43.602870922316008 ], [ 4.351132, 43.602759 ], [ 4.34933, 43.60264 ], [ 4.350431130457051, 43.602712826088421 ], [ 4.352678610167296, 43.602861203389701 ], [ 4.352827230254255, 43.602870976592698 ], [ 4.352827764165889, 43.602870922316008 ] ] ], [ [ [ 4.348896, 43.602645 ], [ 4.344616191462984, 43.598045240306824 ], [ 4.344997510614924, 43.59874125481528 ], [ 4.348896, 43.602645 ] ] ], [ [ [ 4.341315139004696, 43.591968069977803 ], [ 4.344530939882851, 43.593586969735803 ], [ 4.344815, 43.593023 ], [ 4.346525, 43.589625 ], [ 4.348219, 43.586259 ], [ 4.348833, 43.585097 ], [ 4.34565, 43.583415 ], [ 4.345036, 43.584577 ], [ 4.343309, 43.588006 ], [ 4.341599, 43.591404 ], [ 4.341315139004696, 43.591968069977803 ] ] ], [ [ [ 4.333465, 43.601575 ], [ 4.330718, 43.608301 ], [ 4.332168346208235, 43.606639566883914 ], [ 4.334809, 43.601543 ], [ 4.334724, 43.597944 ], [ 4.336211568420643, 43.59659523518711 ], [ 4.33338, 43.597976 ], [ 4.333465, 43.601575 ] ] ], [ [ [ 4.355068718178617, 43.606626643530255 ], [ 4.358454, 43.60723 ], [ 4.357516, 43.607003 ], [ 4.355336, 43.606666 ], [ 4.355336915484792, 43.60666005603121 ], [ 4.355165, 43.606633 ], [ 4.355068718178617, 43.606626643530255 ] ] ], [ [ [ 4.358454, 43.60723 ], [ 4.365106441748057, 43.606717043045741 ], [ 4.364349, 43.606714 ], [ 4.358454, 43.60723 ] ] ] ] } },
{ "type": "Feature", "properties": { "codgeo": "30341", "value": 1020, "isochrone_group": 17.0, "nb_agences": 3 }, "geometry": { "type": "MultiPolygon", "coordinates": [ [ [ [ 4.36293, 43.647082 ], [ 4.362256580646387, 43.646965741935702 ], [ 4.362359855086197, 43.646983603867127 ], [ 4.362837, 43.647066 ], [ 4.362836954789821, 43.647066261247097 ], [ 4.362931831013395, 43.647082661009506 ], [ 4.36293, 43.647082 ] ] ], [ [ [ 4.328401997151461, 43.641064452524397 ], [ 4.327932, 43.640983 ], [ 4.327926377913844, 43.640985771484686 ], [ 4.328396807992283, 43.641066794075421 ], [ 4.328401997151461, 43.641064452524397 ] ] ], [ [ [ 4.330475860987384, 43.641423862031751 ], [ 4.331381, 43.641581 ], [ 4.33436, 43.642097 ], [ 4.331146, 43.64154 ], [ 4.330475860987384, 43.641423862031751 ] ] ], [ [ [ 4.32503, 43.640486 ], [ 4.323670492959053, 43.640247690141088 ], [ 4.324855, 43.640456 ], [ 4.326954, 43.64083 ], [ 4.32503, 43.640486 ] ] ], [ [ [ 4.349041023239428, 43.602643329225373 ], [ 4.349159, 43.602637 ], [ 4.34927185546674, 43.602588130907037 ], [ 4.346749377532857, 43.600337899713757 ], [ 4.348896, 43.602645 ], [ 4.349041023239428, 43.602643329225373 ] ] ], [ [ [ 4.343548603183571, 43.595537289880433 ], [ 4.343104067390029, 43.596420072428003 ], [ 4.343999531521477, 43.597382479924249 ], [ 4.344815, 43.593023 ], [ 4.343548603183571, 43.595537289880433 ] ] ], [ [ [ 4.3476, 43.581666 ], [ 4.346780759219285, 43.581742602238357 ], [ 4.346784, 43.581747 ], [ 4.346940352298153, 43.5840968638283 ], [ 4.348228612648503, 43.584777622203816 ], [ 4.348247, 43.581944 ], [ 4.34761, 43.581666 ], [ 4.3476, 43.581666 ] ] ], [ [ [ 4.341599, 43.591404 ], [ 4.343309, 43.588006 ], [ 4.344585064565282, 43.585472343141667 ], [ 4.343576, 43.585526 ], [ 4.340403, 43.585695 ], [ 4.339926072580007, 43.585683248194997 ], [ 4.341599, 43.591404 ] ] ], [ [ [ 4.337270007577738, 43.59599245110104 ], [ 4.332882, 43.597987 ], [ 4.331043, 43.59803 ], [ 4.329204, 43.598073 ], [ 4.329288, 43.601672 ], [ 4.329043, 43.609684 ], [ 4.330718, 43.608301 ], [ 4.333465, 43.601575 ], [ 4.33338, 43.597976 ], [ 4.337043635733853, 43.596189492115641 ], [ 4.337270007577738, 43.59599245110104 ] ] ], [ [ [ 4.372332, 43.606917 ], [ 4.374346, 43.607188 ], [ 4.372328, 43.606916 ], [ 4.372142540831905, 43.606909241232387 ], [ 4.372332, 43.606917 ] ] ], [ [ [ 4.376561, 43.607475 ], [ 4.376803899142899, 43.607477920630977 ], [ 4.37648413440834, 43.607465040440268 ], [ 4.376561, 43.607475 ] ] ], [ [ [ 4.37706, 43.607481 ], [ 4.378669, 43.6074 ], [ 4.37866893358234, 43.607398688068741 ], [ 4.376988885989594, 43.607480144921716 ], [ 4.37706, 43.607481 ] ] ] ] } },
{ "type": "Feature", "properties": { "codgeo": "30341", "value": 1080, "isochrone_group": 18.0, "nb_agences": 3 }, "geometry": { "type": "MultiPolygon", "coordinates": [ [ [ [ 4.370856970200432, 43.648491336464964 ], [ 4.370857361999149, 43.648491472340545 ], [ 4.371002987571542, 43.648517070740468 ], [ 4.371003, 43.648517 ], [ 4.370856970200432, 43.648491336464964 ] ] ], [ [ [ 4.363009, 43.647096 ], [ 4.364826109835538, 43.647431090684734 ], [ 4.364826, 43.647431 ], [ 4.363009, 43.647096 ] ] ], [ [ [ 4.360422, 43.646648 ], [ 4.358019, 43.646233 ], [ 4.360193, 43.646609 ], [ 4.361745857141859, 43.646877571428398 ], [ 4.362279704430091, 43.646969733989557 ], [ 4.360422, 43.646648 ] ] ], [ [ [ 4.318025, 43.639256 ], [ 4.317402, 43.642802 ], [ 4.316878129368462, 43.643359889616519 ], [ 4.317298002851492, 43.643359085389591 ], [ 4.3178, 43.642872 ], [ 4.318423, 43.639326 ], [ 4.320479, 43.639687 ], [ 4.322535, 43.640048 ], [ 4.32028, 43.639652 ], [ 4.318025, 43.639256 ] ] ], [ [ [ 4.37866893358234, 43.607398688068741 ], [ 4.37866894187436, 43.60739885185891 ], [ 4.378732770352102, 43.607395592952642 ], [ 4.37866893358234, 43.607398688068741 ] ] ], [ [ [ 4.386419, 43.609197 ], [ 4.379075, 43.607379 ], [ 4.379001209940151, 43.607382577699887 ], [ 4.38677661252219, 43.609415143638529 ], [ 4.386419, 43.609197 ] ] ], [ [ [ 4.341599, 43.591404 ], [ 4.341201836826047, 43.59004585862629 ], [ 4.340214358192918, 43.589645059935044 ], [ 4.341599, 43.591404 ] ] ], [ [ [ 4.327887, 43.598104 ], [ 4.326075, 43.599354 ], [ 4.326134, 43.600055 ], [ 4.32793, 43.601704 ], [ 4.329042926211573, 43.609683470950898 ], [ 4.329043018509957, 43.609683394686648 ], [ 4.329288, 43.601672 ], [ 4.329204014440569, 43.59807361870962 ], [ 4.327906, 43.598104 ], [ 4.327887, 43.598104 ] ] ], [ [ [ 4.34476, 43.59779 ], [ 4.344815, 43.593023 ], [ 4.343999531521477, 43.597382479924249 ], [ 4.346749377532857, 43.600337899713757 ], [ 4.34933, 43.60264 ], [ 4.34476, 43.59779 ] ] ], [ [ [ 4.346558, 43.581763 ], [ 4.346000927232613, 43.581720175473414 ], [ 4.346066875345343, 43.581787465339829 ], [ 4.346558, 43.581763 ] ] ] ] } },
{ "type": "Feature", "properties": { "codgeo": "30341", "value": 1140, "isochrone_group": 19.0, "nb_agences": 3 }, "geometry": { "type": "MultiPolygon", "coordinates": [ [ [ [ 4.344774325769119, 43.596548346520024 ], [ 4.346254631415768, 43.599376206207118 ], [ 4.349036651771806, 43.602328678576185 ], [ 4.352035064941518, 43.599420399239825 ], [ 4.350335, 43.597665 ], [ 4.346525, 43.589625 ], [ 4.344815, 43.593023 ], [ 4.344774325769119, 43.596548346520024 ] ] ], [ [ [ 4.325973, 43.59755 ], [ 4.326066, 43.599234 ], [ 4.326075888341476, 43.599353387181658 ], [ 4.327887, 43.598104 ], [ 4.327906, 43.598104 ], [ 4.329487830112432, 43.598066975727797 ], [ 4.329515007920089, 43.598066335345905 ], [ 4.329515, 43.598066 ], [ 4.332882, 43.597987 ], [ 4.329549, 43.597003 ], [ 4.325954, 43.597201 ], [ 4.325973226072531, 43.597549987548724 ], [ 4.325973, 43.59755 ] ] ], [ [ [ 4.332882, 43.597987 ], [ 4.337710542216427, 43.595792208083452 ], [ 4.337710542216432, 43.595792208083438 ], [ 4.332882, 43.597987 ] ] ] ] } },
{ "type": "Feature", "properties": { "codgeo": "30341", "value": 1200, "isochrone_group": 20.0, "nb_agences": 3 }, "geometry": { "type": "MultiPolygon", "coordinates": [ [ [ [ 4.36304, 43.595462 ], [ 4.363039, 43.595462 ], [ 4.361049, 43.595622 ], [ 4.361048530537466, 43.595631714744712 ], [ 4.36101, 43.595635 ], [ 4.360306812386908, 43.597098913045613 ], [ 4.361546, 43.596917 ], [ 4.362022876259388, 43.59679325201401 ], [ 4.363577181538059, 43.595418366863569 ], [ 4.36304, 43.595462 ] ] ], [ [ [ 4.332882, 43.597987 ], [ 4.334355172608467, 43.597317376087069 ], [ 4.33430831473594, 43.597338675120035 ], [ 4.32937, 43.594621 ], [ 4.325781, 43.594896 ], [ 4.325946, 43.597051 ], [ 4.325954244792543, 43.597200986517713 ], [ 4.329549, 43.597003 ], [ 4.332882, 43.597987 ] ] ], [ [ [ 4.350647569420492, 43.597658626119056 ], [ 4.350647, 43.597658 ], [ 4.350334688679993, 43.597664343041245 ], [ 4.350335, 43.597665 ], [ 4.352239034519438, 43.599631007689716 ], [ 4.353896130122949, 43.598013747684945 ], [ 4.351076, 43.59765 ], [ 4.350647569420492, 43.597658626119056 ] ] ], [ [ [ 4.269875934641738, 43.62421601179603 ], [ 4.269875934641742, 43.62421601179603 ], [ 4.269771, 43.62414 ], [ 4.269875934641738, 43.62421601179603 ] ] ] ] } }
]
}
