{
"type": "FeatureCollection",
"name": "Credit_Agricole",
"crs": { "type": "name", "properties": { "name": "urn:ogc:def:crs:OGC:1.3:CRS84" } },
"features": [
{ "type": "Feature", "properties": { "codgeo": "65138", "value": 60, "isochrone_group": 1.0, "nb_agences": 1 }, "geometry": { "type": "Polygon", "coordinates": [ [ [ -0.117017, 42.888917 ], [ -0.115835, 42.886575 ], [ -0.115764, 42.886459 ], [ -0.115708, 42.886443 ], [ -0.113879, 42.887305 ], [ -0.113554, 42.88746 ], [ -0.112508, 42.888666 ], [ -0.113838, 42.89064 ], [ -0.114016, 42.890716 ], [ -0.114073, 42.890716 ], [ -0.115304, 42.89071 ], [ -0.116152, 42.890686 ], [ -0.1164, 42.890426 ], [ -0.117017, 42.889697 ], [ -0.117017, 42.888917 ] ] ] } },
{ "type": "Feature", "properties": { "codgeo": "65138", "value": 120, "isochrone_group": 2.0, "nb_agences": 1 }, "geometry": { "type": "Polygon", "coordinates": [ [ [ -0.118358, 42.891757 ], [ -0.117223, 42.894781 ], [ -0.117156, 42.894825 ], [ -0.116426, 42.895214 ], [ -0.115806, 42.895504 ], [ -0.111956, 42.897239 ], [ -0.111667, 42.897024 ], [ -0.112118, 42.894131 ], [ -0.11205, 42.89058 ], [ -0.112246, 42.885206 ], [ -0.11147, 42.881451 ], [ -0.111591, 42.881112 ], [ -0.111951, 42.880731 ], [ -0.11231, 42.880709 ], [ -0.115674, 42.885585 ], [ -0.118471, 42.889482 ], [ -0.118358, 42.891757 ] ], [ [ -0.115835, 42.886575 ], [ -0.115764, 42.886459 ], [ -0.115708, 42.886443 ], [ -0.113879, 42.887305 ], [ -0.113554, 42.88746 ], [ -0.112508, 42.888666 ], [ -0.113838, 42.89064 ], [ -0.114016, 42.890716 ], [ -0.114073, 42.890716 ], [ -0.115304, 42.89071 ], [ -0.116152, 42.890686 ], [ -0.1164, 42.890426 ], [ -0.117017, 42.889697 ], [ -0.117017, 42.888917 ], [ -0.115835, 42.886575 ] ] ] } },
{ "type": "Feature", "properties": { "codgeo": "65138", "value": 180, "isochrone_group": 3.0, "nb_agences": 1 }, "geometry": { "type": "Polygon", "coordinates": [ [ [ -0.118791, 42.891017 ], [ -0.119014, 42.891803 ], [ -0.118202, 42.894984 ], [ -0.113487, 42.902009 ], [ -0.105827, 42.903359 ], [ -0.105478, 42.903271 ], [ -0.105508, 42.900745 ], [ -0.105508, 42.900689 ], [ -0.105617, 42.900582 ], [ -0.107805, 42.89928 ], [ -0.110656, 42.892285 ], [ -0.110854, 42.890655 ], [ -0.110878, 42.890459 ], [ -0.110969, 42.883813 ], [ -0.110523, 42.881714 ], [ -0.110493, 42.881498 ], [ -0.108588, 42.874284 ], [ -0.108542, 42.874141 ], [ -0.108596, 42.873901 ], [ -0.108742, 42.873778 ], [ -0.108943, 42.87371 ], [ -0.109594, 42.874491 ], [ -0.109638, 42.874576 ], [ -0.112306, 42.879582 ], [ -0.117192, 42.885734 ], [ -0.118220961348695, 42.889133626519772 ], [ -0.115674, 42.885585 ], [ -0.11231, 42.880709 ], [ -0.111951, 42.880731 ], [ -0.111591, 42.881112 ], [ -0.11147, 42.881451 ], [ -0.112246, 42.885206 ], [ -0.11205, 42.89058 ], [ -0.112118, 42.894131 ], [ -0.111667, 42.897024 ], [ -0.111956, 42.897239 ], [ -0.115806, 42.895504 ], [ -0.116426, 42.895214 ], [ -0.117156, 42.894825 ], [ -0.117223, 42.894781 ], [ -0.118358, 42.891757 ], [ -0.118450615750002, 42.889892390873818 ], [ -0.118791, 42.891017 ] ] ] } },
{ "type": "Feature", "properties": { "codgeo": "65138", "value": 240, "isochrone_group": 4.0, "nb_agences": 1 }, "geometry": { "type": "MultiPolygon", "coordinates": [ [ [ [ -0.109161, 42.877227 ], [ -0.108445, 42.874284 ], [ -0.108423, 42.874078 ], [ -0.108471, 42.873897 ], [ -0.109045, 42.871942 ], [ -0.109227, 42.87194 ], [ -0.109408, 42.871939 ], [ -0.109573, 42.87202 ], [ -0.109971, 42.87226 ], [ -0.113053, 42.880294 ], [ -0.117265, 42.885795 ], [ -0.120667, 42.888871 ], [ -0.120287, 42.894002 ], [ -0.119059, 42.894994 ], [ -0.118974, 42.895049 ], [ -0.11723611283677, 42.896423100174268 ], [ -0.118202, 42.894984 ], [ -0.119014, 42.891803 ], [ -0.118791, 42.891017 ], [ -0.117192, 42.885734 ], [ -0.112306, 42.879582 ], [ -0.109638, 42.874576 ], [ -0.109594, 42.874491 ], [ -0.108943, 42.87371 ], [ -0.108742, 42.873778 ], [ -0.108596, 42.873901 ], [ -0.108542, 42.874141 ], [ -0.108588, 42.874284 ], [ -0.110493, 42.881498 ], [ -0.110523, 42.881714 ], [ -0.109161, 42.877227 ] ] ], [ [ [ -0.110303, 42.888288 ], [ -0.110305, 42.887925 ], [ -0.110523, 42.881714 ], [ -0.110969, 42.883813 ], [ -0.110878, 42.890459 ], [ -0.110854, 42.890655 ], [ -0.110656, 42.892285 ], [ -0.110578953029621, 42.892474036674088 ], [ -0.110303, 42.888288 ] ] ], [ [ [ -0.114365, 42.903585 ], [ -0.114348, 42.904215 ], [ -0.114127, 42.904351 ], [ -0.113906, 42.904486 ], [ -0.113528, 42.904628 ], [ -0.112038, 42.90512 ], [ -0.103677, 42.907495 ], [ -0.103026, 42.908012 ], [ -0.100974, 42.909605 ], [ -0.10063, 42.909878 ], [ -0.100287, 42.910151 ], [ -0.100063, 42.90987 ], [ -0.103093, 42.901963 ], [ -0.105628, 42.899312 ], [ -0.106221, 42.898613 ], [ -0.110139187755783, 42.893553011802268 ], [ -0.107805, 42.89928 ], [ -0.105617, 42.900582 ], [ -0.105508, 42.900689 ], [ -0.105508, 42.900745 ], [ -0.105478, 42.903271 ], [ -0.105827, 42.903359 ], [ -0.113487, 42.902009 ], [ -0.115793925889764, 42.89857185167007 ], [ -0.114365, 42.903585 ] ] ] ] } },
{ "type": "Feature", "properties": { "codgeo": "65138", "value": 300, "isochrone_group": 5.0, "nb_agences": 1 }, "geometry": { "type": "MultiPolygon", "coordinates": [ [ [ [ -0.124261, 42.889549 ], [ -0.124474, 42.889614 ], [ -0.124642, 42.889686 ], [ -0.124758, 42.889753 ], [ -0.124853, 42.889866 ], [ -0.124938, 42.89033 ], [ -0.124917, 42.890372 ], [ -0.121048, 42.893623 ], [ -0.119086, 42.897271 ], [ -0.118998, 42.897508 ], [ -0.117158, 42.904487 ], [ -0.117074, 42.90461 ], [ -0.116835, 42.9048 ], [ -0.116607, 42.904911 ], [ -0.116346, 42.905034 ], [ -0.110228, 42.907489 ], [ -0.110136, 42.907513 ], [ -0.110001, 42.907499 ], [ -0.102542490517457, 42.908387356045672 ], [ -0.103026, 42.908012 ], [ -0.103677, 42.907495 ], [ -0.112038, 42.90512 ], [ -0.113528, 42.904628 ], [ -0.113906, 42.904486 ], [ -0.114127, 42.904351 ], [ -0.114348, 42.904215 ], [ -0.114365, 42.903585 ], [ -0.116165, 42.89727 ], [ -0.118974, 42.895049 ], [ -0.119059, 42.894994 ], [ -0.120287, 42.894002 ], [ -0.120667, 42.888871 ], [ -0.117265, 42.885795 ], [ -0.124261, 42.889549 ] ] ], [ [ [ -0.108576, 42.872109 ], [ -0.10862, 42.871924 ], [ -0.108721, 42.871717 ], [ -0.108964, 42.871244 ], [ -0.10949, 42.870699 ], [ -0.111513, 42.8707 ], [ -0.111655, 42.871031 ], [ -0.112824, 42.879631 ], [ -0.113053, 42.880141 ], [ -0.117265, 42.885795 ], [ -0.113053, 42.880294 ], [ -0.109971, 42.87226 ], [ -0.109573, 42.87202 ], [ -0.109408, 42.871939 ], [ -0.109227, 42.87194 ], [ -0.109045, 42.871942 ], [ -0.108471, 42.873897 ], [ -0.108423, 42.874078 ], [ -0.108576, 42.872109 ] ] ], [ [ [ -0.109247, 42.879358 ], [ -0.109046, 42.879105 ], [ -0.10864, 42.877634 ], [ -0.108563, 42.877285 ], [ -0.108423, 42.874078 ], [ -0.108445, 42.874284 ], [ -0.109161, 42.877227 ], [ -0.110523, 42.881714 ], [ -0.110446112995508, 42.883904574242671 ], [ -0.109247, 42.879358 ] ] ], [ [ [ -0.097722, 42.914468 ], [ -0.097672, 42.914615 ], [ -0.097417, 42.914987 ], [ -0.097162, 42.915359 ], [ -0.096337, 42.916625 ], [ -0.095701, 42.916927 ], [ -0.095408, 42.916718 ], [ -0.095406, 42.915759 ], [ -0.095849, 42.913572 ], [ -0.098386, 42.909748 ], [ -0.101313, 42.902936 ], [ -0.101355, 42.902844 ], [ -0.105581, 42.898155 ], [ -0.10694, 42.891809 ], [ -0.107025, 42.891496 ], [ -0.107128, 42.891305 ], [ -0.107966, 42.890523 ], [ -0.110363025805624, 42.886271796886604 ], [ -0.110305, 42.887925 ], [ -0.110303, 42.888288 ], [ -0.11061, 42.892945 ], [ -0.106221, 42.898613 ], [ -0.105628, 42.899312 ], [ -0.103093, 42.901963 ], [ -0.100063, 42.90987 ], [ -0.100287, 42.910151 ], [ -0.10063, 42.909878 ], [ -0.100974, 42.909605 ], [ -0.097722, 42.914468 ] ] ] ] } },
{ "type": "Feature", "properties": { "codgeo": "65138", "value": 360, "isochrone_group": 6.0, "nb_agences": 1 }, "geometry": { "type": "MultiPolygon", "coordinates": [ [ [ [ -0.121844, 42.887821 ], [ -0.122159, 42.887954 ], [ -0.122337, 42.888065 ], [ -0.124758, 42.889753 ], [ -0.124642, 42.889686 ], [ -0.124474, 42.889614 ], [ -0.124261, 42.889549 ], [ -0.117265, 42.885795 ], [ -0.116816641557305, 42.885193143723889 ], [ -0.121844, 42.887821 ] ] ], [ [ [ -0.107376, 42.870986 ], [ -0.107361, 42.87076 ], [ -0.107469, 42.870659 ], [ -0.108575, 42.870074 ], [ -0.113076, 42.868859 ], [ -0.113332, 42.869111 ], [ -0.11322, 42.869226 ], [ -0.112991, 42.869425 ], [ -0.111615, 42.870852 ], [ -0.111621252168574, 42.870952334280254 ], [ -0.111513, 42.8707 ], [ -0.10949, 42.870699 ], [ -0.108964, 42.871244 ], [ -0.108721, 42.871717 ], [ -0.10862, 42.871924 ], [ -0.108576, 42.872109 ], [ -0.108423, 42.874078 ], [ -0.108563, 42.877285 ], [ -0.107376, 42.870986 ] ] ], [ [ [ -0.10911, 42.879405 ], [ -0.10864, 42.877634 ], [ -0.109046, 42.879105 ], [ -0.109247, 42.879358 ], [ -0.110845, 42.885417 ], [ -0.10911, 42.879405 ] ] ], [ [ [ -0.105333, 42.89831 ], [ -0.105158, 42.894655 ], [ -0.105172, 42.893657 ], [ -0.105189, 42.893461 ], [ -0.105331, 42.893071 ], [ -0.107128, 42.891305 ], [ -0.107025, 42.891496 ], [ -0.10694, 42.891809 ], [ -0.105581, 42.898155 ], [ -0.104103439598056, 42.899794441723778 ], [ -0.105333, 42.89831 ] ] ], [ [ [ -0.099333534059789, 42.907542806281079 ], [ -0.098386, 42.909748 ], [ -0.098058056787409, 42.910242306206143 ], [ -0.099333534059789, 42.907542806281079 ] ] ], [ [ [ -0.095903, 42.917293 ], [ -0.095779, 42.917465 ], [ -0.092813, 42.921363 ], [ -0.092467, 42.921264 ], [ -0.091617, 42.920904 ], [ -0.091419, 42.920802 ], [ -0.091329, 42.920715 ], [ -0.091263, 42.920586 ], [ -0.091268, 42.920359 ], [ -0.091328, 42.920231 ], [ -0.092758, 42.91724 ], [ -0.095849, 42.913572 ], [ -0.095406, 42.915759 ], [ -0.095408, 42.916718 ], [ -0.095701, 42.916927 ], [ -0.096206693933779, 42.916686874893074 ], [ -0.095903, 42.917293 ] ] ], [ [ [ -0.11524, 42.905776 ], [ -0.114175, 42.906271 ], [ -0.114071, 42.9063 ], [ -0.110228, 42.907489 ], [ -0.116346, 42.905034 ], [ -0.116607, 42.904911 ], [ -0.116835, 42.9048 ], [ -0.11524, 42.905776 ] ] ], [ [ [ -0.119086, 42.897271 ], [ -0.121048, 42.893623 ], [ -0.124227566215788, 42.890951309700817 ], [ -0.119086, 42.897271 ] ] ] ] } },
{ "type": "Feature", "properties": { "codgeo": "65138", "value": 420, "isochrone_group": 7.0, "nb_agences": 1 }, "geometry": { "type": "MultiPolygon", "coordinates": [ [ [ [ -0.120901, 42.886843 ], [ -0.121117, 42.886907 ], [ -0.122762, 42.887476 ], [ -0.122881, 42.887536 ], [ -0.123462, 42.887813 ], [ -0.123649, 42.887915 ], [ -0.123836, 42.888017 ], [ -0.123974, 42.888129 ], [ -0.124853, 42.889866 ], [ -0.124758, 42.889753 ], [ -0.122337, 42.888065 ], [ -0.122159, 42.887954 ], [ -0.121844, 42.887821 ], [ -0.116208, 42.884875 ], [ -0.120901, 42.886843 ] ] ], [ [ [ -0.104549, 42.868765 ], [ -0.104416, 42.868608 ], [ -0.104333, 42.868463 ], [ -0.104296, 42.868272 ], [ -0.104312, 42.868035 ], [ -0.104328, 42.867798 ], [ -0.104688, 42.867822 ], [ -0.113546, 42.867264 ], [ -0.113716, 42.867108 ], [ -0.113887, 42.866994 ], [ -0.117167, 42.863878 ], [ -0.117354, 42.863723 ], [ -0.117931, 42.863296 ], [ -0.118197, 42.863277 ], [ -0.118463, 42.863258 ], [ -0.118608, 42.863296 ], [ -0.118724, 42.863406 ], [ -0.118762, 42.863541 ], [ -0.118664, 42.863735 ], [ -0.116839, 42.865205 ], [ -0.11574, 42.866318 ], [ -0.115334, 42.866796 ], [ -0.113377, 42.869035 ], [ -0.113322342844223, 42.869101493737269 ], [ -0.113076, 42.868859 ], [ -0.108575, 42.870074 ], [ -0.107469, 42.870659 ], [ -0.107361, 42.87076 ], [ -0.107376, 42.870986 ], [ -0.107834519464058, 42.873419204805479 ], [ -0.104549, 42.868765 ] ] ], [ [ [ -0.103737, 42.894385 ], [ -0.104019, 42.894124 ], [ -0.104302, 42.893862 ], [ -0.105331, 42.893071 ], [ -0.105189, 42.893461 ], [ -0.105172, 42.893657 ], [ -0.105158, 42.894655 ], [ -0.105333, 42.89831 ], [ -0.101522, 42.902911 ], [ -0.103737, 42.894385 ] ] ], [ [ [ -0.092781, 42.921427 ], [ -0.089019, 42.927399 ], [ -0.088719, 42.927597 ], [ -0.088551, 42.927342 ], [ -0.088383, 42.927088 ], [ -0.088324, 42.926858 ], [ -0.088391, 42.926583 ], [ -0.091268, 42.920359 ], [ -0.091263, 42.920586 ], [ -0.091329, 42.920715 ], [ -0.091419, 42.920802 ], [ -0.091617, 42.920904 ], [ -0.092467, 42.921264 ], [ -0.092813, 42.921363 ], [ -0.093066307453436, 42.921030096273263 ], [ -0.092781, 42.921427 ] ] ], [ [ [ -0.115162, 42.905854 ], [ -0.114751, 42.906094 ], [ -0.114175, 42.906271 ], [ -0.11524, 42.905776 ], [ -0.116835, 42.9048 ], [ -0.115162, 42.905854 ] ] ], [ [ [ -0.120159, 42.901986 ], [ -0.11993, 42.902264 ], [ -0.117074, 42.90461 ], [ -0.117158, 42.904487 ], [ -0.118299, 42.899857 ], [ -0.118998, 42.897508 ], [ -0.119086, 42.897271 ], [ -0.120411313397508, 42.895642008002234 ], [ -0.120159, 42.901986 ] ] ] ] } },
{ "type": "Feature", "properties": { "codgeo": "65138", "value": 480, "isochrone_group": 8.0, "nb_agences": 1 }, "geometry": { "type": "MultiPolygon", "coordinates": [ [ [ [ -0.120955, 42.886083 ], [ -0.121168, 42.886127 ], [ -0.122933, 42.886656 ], [ -0.123974, 42.888129 ], [ -0.123836, 42.888017 ], [ -0.123649, 42.887915 ], [ -0.123462, 42.887813 ], [ -0.122881, 42.887536 ], [ -0.122762, 42.887476 ], [ -0.121117, 42.886907 ], [ -0.120901, 42.886843 ], [ -0.116208, 42.884875 ], [ -0.116125730652236, 42.884751556864579 ], [ -0.120955, 42.886083 ] ] ], [ [ [ -0.116898, 42.863279 ], [ -0.116978, 42.863181 ], [ -0.119837, 42.861238 ], [ -0.119975, 42.861159 ], [ -0.120117, 42.861147 ], [ -0.120666, 42.861197 ], [ -0.122042, 42.861506 ], [ -0.122181, 42.861584 ], [ -0.122261, 42.861761 ], [ -0.122216, 42.861914 ], [ -0.122132, 42.861984 ], [ -0.118664, 42.863735 ], [ -0.118762, 42.863541 ], [ -0.118724, 42.863406 ], [ -0.118608, 42.863296 ], [ -0.118463, 42.863258 ], [ -0.118197, 42.863277 ], [ -0.117931, 42.863296 ], [ -0.117354, 42.863723 ], [ -0.117167, 42.863878 ], [ -0.113887, 42.866994 ], [ -0.116898, 42.863279 ] ] ], [ [ [ -0.103035, 42.866238 ], [ -0.102804, 42.86586 ], [ -0.10197, 42.864345 ], [ -0.101905, 42.864159 ], [ -0.101886, 42.864042 ], [ -0.102241, 42.863983 ], [ -0.102711, 42.864717 ], [ -0.103079, 42.865346 ], [ -0.10437, 42.867074 ], [ -0.104505, 42.867201 ], [ -0.112341299073936, 42.867339888814264 ], [ -0.104688, 42.867822 ], [ -0.104328, 42.867798 ], [ -0.104312, 42.868035 ], [ -0.104296, 42.868272 ], [ -0.104333, 42.868463 ], [ -0.103035, 42.866238 ] ] ], [ [ [ -0.1017, 42.896321 ], [ -0.101691, 42.896137 ], [ -0.101738, 42.895918 ], [ -0.101784, 42.895699 ], [ -0.104302, 42.893862 ], [ -0.104019, 42.894124 ], [ -0.103737, 42.894385 ], [ -0.101522, 42.902911 ], [ -0.1017, 42.896321 ] ] ], [ [ [ -0.089121, 42.927984 ], [ -0.088552, 42.934495 ], [ -0.088532, 42.934692 ], [ -0.088436, 42.934893 ], [ -0.088339, 42.935093 ], [ -0.088015, 42.934938 ], [ -0.086986, 42.933356 ], [ -0.086898, 42.933148 ], [ -0.08672, 42.932297 ], [ -0.086693, 42.932159 ], [ -0.086583, 42.931547 ], [ -0.086553, 42.931344 ], [ -0.08701, 42.929398 ], [ -0.087061, 42.929183 ], [ -0.088391, 42.926583 ], [ -0.088324, 42.926858 ], [ -0.088383, 42.927088 ], [ -0.088551, 42.927342 ], [ -0.088719, 42.927597 ], [ -0.089019, 42.927399 ], [ -0.092781, 42.921427 ], [ -0.089121, 42.927984 ] ] ], [ [ [ -0.121006, 42.901479 ], [ -0.120331, 42.902364 ], [ -0.116835, 42.9048 ], [ -0.117074, 42.90461 ], [ -0.11993, 42.902264 ], [ -0.120159, 42.901986 ], [ -0.12048, 42.893915 ], [ -0.121006, 42.901479 ] ] ] ] } },
{ "type": "Feature", "properties": { "codgeo": "65138", "value": 540, "isochrone_group": 9.0, "nb_agences": 1 }, "geometry": { "type": "MultiPolygon", "coordinates": [ [ [ [ -0.122219, 42.901941 ], [ -0.122353, 42.902081 ], [ -0.124345, 42.9036 ], [ -0.124538, 42.903744 ], [ -0.124681, 42.903923 ], [ -0.124433, 42.904184 ], [ -0.116835, 42.9048 ], [ -0.120331, 42.902364 ], [ -0.121006, 42.901479 ], [ -0.12048, 42.893915 ], [ -0.122219, 42.901941 ] ] ], [ [ [ -0.123385, 42.886655 ], [ -0.123693, 42.886714 ], [ -0.127992, 42.887319 ], [ -0.128006, 42.887678 ], [ -0.124742, 42.890319 ], [ -0.124777, 42.890249 ], [ -0.124853, 42.889866 ], [ -0.123974, 42.888129 ], [ -0.122933, 42.886656 ], [ -0.121168, 42.886127 ], [ -0.123385, 42.886655 ] ] ], [ [ [ -0.127452, 42.856287 ], [ -0.127734, 42.85651 ], [ -0.127479, 42.856833 ], [ -0.127224, 42.857156 ], [ -0.126737, 42.857727 ], [ -0.12619, 42.858305 ], [ -0.126067, 42.858436 ], [ -0.124941, 42.859394 ], [ -0.123622, 42.860694 ], [ -0.12339, 42.86092 ], [ -0.123165, 42.861139 ], [ -0.122216, 42.861914 ], [ -0.122261, 42.861761 ], [ -0.122181, 42.861584 ], [ -0.122042, 42.861506 ], [ -0.120666, 42.861197 ], [ -0.120117, 42.861147 ], [ -0.119975, 42.861159 ], [ -0.127452, 42.856287 ] ] ], [ [ [ -0.101741, 42.863921 ], [ -0.100805, 42.861841 ], [ -0.100749, 42.861686 ], [ -0.100718, 42.861451 ], [ -0.10095, 42.85984 ], [ -0.10131, 42.859834 ], [ -0.101906, 42.862838 ], [ -0.102711, 42.864717 ], [ -0.102241, 42.863983 ], [ -0.101886, 42.864042 ], [ -0.101905, 42.864159 ], [ -0.10197, 42.864345 ], [ -0.101741, 42.863921 ] ] ], [ [ [ -0.100567, 42.896221 ], [ -0.100635, 42.895995 ], [ -0.102274, 42.893978 ], [ -0.102427, 42.893914 ], [ -0.107128, 42.891305 ], [ -0.105331, 42.893071 ], [ -0.104302, 42.893862 ], [ -0.101784, 42.895699 ], [ -0.101738, 42.895918 ], [ -0.101691, 42.896137 ], [ -0.1017, 42.896321 ], [ -0.101522, 42.902911 ], [ -0.100567, 42.896221 ] ] ], [ [ [ -0.089068, 42.93758 ], [ -0.089134, 42.937924 ], [ -0.089115, 42.938073 ], [ -0.088288, 42.941613 ], [ -0.088234, 42.941766 ], [ -0.087571, 42.942666 ], [ -0.087276, 42.94246 ], [ -0.087668, 42.939632 ], [ -0.086898, 42.933148 ], [ -0.086986, 42.933356 ], [ -0.088015, 42.934938 ], [ -0.088339, 42.935093 ], [ -0.088436, 42.934893 ], [ -0.088532, 42.934692 ], [ -0.088552, 42.934495 ], [ -0.089068, 42.93758 ] ] ] ] } },
{ "type": "Feature", "properties": { "codgeo": "65138", "value": 600, "isochrone_group": 10.0, "nb_agences": 1 }, "geometry": { "type": "MultiPolygon", "coordinates": [ [ [ [ -0.131577, 42.886245 ], [ -0.133049, 42.885664 ], [ -0.133622, 42.885779 ], [ -0.133693, 42.886132 ], [ -0.133129, 42.886283 ], [ -0.132748, 42.886398 ], [ -0.132511, 42.886451 ], [ -0.130433, 42.887127 ], [ -0.130052, 42.887264 ], [ -0.129686, 42.887395 ], [ -0.129443, 42.887465 ], [ -0.124742, 42.890319 ], [ -0.128006, 42.887678 ], [ -0.127992, 42.887319 ], [ -0.123693, 42.886714 ], [ -0.131577, 42.886245 ] ] ], [ [ [ -0.12738, 42.855692 ], [ -0.127509, 42.855573 ], [ -0.129295, 42.854519 ], [ -0.12957, 42.854369 ], [ -0.129907, 42.85424 ], [ -0.130252, 42.854108 ], [ -0.130599, 42.853997 ], [ -0.133029, 42.853763 ], [ -0.133322, 42.853972 ], [ -0.133243, 42.854083 ], [ -0.132798, 42.854371 ], [ -0.132406, 42.854611 ], [ -0.132177, 42.854712 ], [ -0.126067, 42.858436 ], [ -0.12619, 42.858305 ], [ -0.126737, 42.857727 ], [ -0.127224, 42.857156 ], [ -0.127479, 42.856833 ], [ -0.127734, 42.85651 ], [ -0.127452, 42.856287 ], [ -0.126239054899423, 42.857077352886179 ], [ -0.12738, 42.855692 ] ] ], [ [ [ -0.098733, 42.856205 ], [ -0.098635, 42.855946 ], [ -0.098537, 42.855687 ], [ -0.098874, 42.85556 ], [ -0.100252, 42.857437 ], [ -0.100359, 42.857584 ], [ -0.100765, 42.858337 ], [ -0.100889, 42.858552 ], [ -0.100993, 42.85874 ], [ -0.101128, 42.859125 ], [ -0.101251, 42.85948 ], [ -0.101308, 42.859807 ], [ -0.101308707987777, 42.859834021533537 ], [ -0.10095, 42.85984 ], [ -0.100718, 42.861451 ], [ -0.100749, 42.861686 ], [ -0.098733, 42.856205 ] ] ], [ [ [ -0.097497, 42.899388 ], [ -0.097297, 42.899089 ], [ -0.100635, 42.895995 ], [ -0.100567, 42.896221 ], [ -0.101522, 42.902911 ], [ -0.099767989722062, 42.906896043124171 ], [ -0.097497, 42.899388 ] ] ], [ [ [ -0.086887, 42.944658 ], [ -0.086779, 42.944772 ], [ -0.084864, 42.946415 ], [ -0.084581, 42.946615 ], [ -0.084298, 42.946815 ], [ -0.08409, 42.946521 ], [ -0.087668, 42.939632 ], [ -0.087276, 42.94246 ], [ -0.087571, 42.942666 ], [ -0.088234, 42.941766 ], [ -0.086887, 42.944658 ] ] ] ] } },
{ "type": "Feature", "properties": { "codgeo": "65138", "value": 660, "isochrone_group": 11.0, "nb_agences": 1 }, "geometry": { "type": "MultiPolygon", "coordinates": [ [ [ [ -0.138434, 42.883619 ], [ -0.138869, 42.883341 ], [ -0.139304, 42.883063 ], [ -0.139498, 42.883366 ], [ -0.13817, 42.884454 ], [ -0.138007, 42.884582 ], [ -0.135294, 42.886296 ], [ -0.134814, 42.886535 ], [ -0.134322, 42.88678 ], [ -0.134051, 42.88689 ], [ -0.133768, 42.887005 ], [ -0.133476, 42.887101 ], [ -0.133185, 42.887197 ], [ -0.129887, 42.888218 ], [ -0.124742, 42.890319 ], [ -0.129443, 42.887465 ], [ -0.129686, 42.887395 ], [ -0.130052, 42.887264 ], [ -0.130433, 42.887127 ], [ -0.132511, 42.886451 ], [ -0.132748, 42.886398 ], [ -0.133129, 42.886283 ], [ -0.133693, 42.886132 ], [ -0.133622, 42.885779 ], [ -0.133116402634581, 42.885677527579361 ], [ -0.138434, 42.883619 ] ] ], [ [ [ -0.133629, 42.852332 ], [ -0.134809, 42.851896 ], [ -0.134989, 42.851843 ], [ -0.136252, 42.851529 ], [ -0.13673, 42.851715 ], [ -0.136648, 42.852417 ], [ -0.136463, 42.852814 ], [ -0.132406, 42.854611 ], [ -0.132798, 42.854371 ], [ -0.133243, 42.854083 ], [ -0.133322, 42.853972 ], [ -0.133029, 42.853763 ], [ -0.130599, 42.853997 ], [ -0.130252, 42.854108 ], [ -0.129907, 42.85424 ], [ -0.12957, 42.854369 ], [ -0.133629, 42.852332 ] ] ], [ [ [ -0.098126, 42.855007 ], [ -0.098051, 42.854834 ], [ -0.097938, 42.852561 ], [ -0.098093, 42.852236 ], [ -0.09817, 42.852273 ], [ -0.100359, 42.857584 ], [ -0.100252, 42.857437 ], [ -0.098874, 42.85556 ], [ -0.098537, 42.855687 ], [ -0.098635, 42.855946 ], [ -0.098733, 42.856205 ], [ -0.100749, 42.861686 ], [ -0.098126, 42.855007 ] ] ], [ [ [ -0.09714, 42.899457 ], [ -0.097043, 42.89923 ], [ -0.097087, 42.899135 ], [ -0.098514, 42.897171 ], [ -0.102274, 42.893978 ], [ -0.100635, 42.895995 ], [ -0.097297, 42.899089 ], [ -0.097497, 42.899388 ], [ -0.100052, 42.907835 ], [ -0.09714, 42.899457 ] ] ], [ [ [ -0.083771, 42.948621 ], [ -0.082376, 42.952757 ], [ -0.082083, 42.954071 ], [ -0.081957, 42.954375 ], [ -0.081831, 42.954603 ], [ -0.081517, 42.954428 ], [ -0.082019, 42.949771 ], [ -0.083063, 42.947093 ], [ -0.083203, 42.946929 ], [ -0.087668, 42.939632 ], [ -0.08409, 42.946521 ], [ -0.084298, 42.946815 ], [ -0.084581, 42.946615 ], [ -0.084864, 42.946415 ], [ -0.086779, 42.944772 ], [ -0.083771, 42.948621 ] ] ] ] } },
{ "type": "Feature", "properties": { "codgeo": "65138", "value": 720, "isochrone_group": 12.0, "nb_agences": 1 }, "geometry": { "type": "MultiPolygon", "coordinates": [ [ [ [ -0.096706, 42.897812 ], [ -0.097407, 42.897305 ], [ -0.098852, 42.89613 ], [ -0.102274, 42.893978 ], [ -0.098514, 42.897171 ], [ -0.097087, 42.899135 ], [ -0.097043, 42.89923 ], [ -0.096706, 42.897812 ] ] ], [ [ [ -0.097986, 42.852385 ], [ -0.098015231023493, 42.852399063982993 ], [ -0.09798789458974, 42.852456382311829 ], [ -0.097986, 42.852385 ] ] ], [ [ [ -0.1383, 42.882708 ], [ -0.138839, 42.882573 ], [ -0.141404, 42.882182 ], [ -0.141647, 42.882143 ], [ -0.142612, 42.881961 ], [ -0.142775, 42.882065 ], [ -0.142879, 42.882211 ], [ -0.142997, 42.882449 ], [ -0.143116, 42.882688 ], [ -0.142793, 42.882848 ], [ -0.135294, 42.886296 ], [ -0.138007, 42.884582 ], [ -0.13817, 42.884454 ], [ -0.139498, 42.883366 ], [ -0.139304, 42.883063 ], [ -0.138869, 42.883341 ], [ -0.138434, 42.883619 ], [ -0.131759, 42.886203 ], [ -0.1383, 42.882708 ] ] ], [ [ [ -0.133411, 42.887123 ], [ -0.133045, 42.887243 ], [ -0.132970079116735, 42.887263535543312 ], [ -0.133185, 42.887197 ], [ -0.133476, 42.887101 ], [ -0.133768, 42.887005 ], [ -0.133411, 42.887123 ] ] ], [ [ [ -0.128497, 42.889263 ], [ -0.124742, 42.890319 ], [ -0.129887, 42.888218 ], [ -0.132651345304017, 42.887362209655755 ], [ -0.128497, 42.889263 ] ] ], [ [ [ -0.083819, 42.948821 ], [ -0.082376, 42.952757 ], [ -0.083771, 42.948621 ], [ -0.086779, 42.944772 ], [ -0.083819, 42.948821 ] ] ], [ [ [ -0.080602, 42.953108 ], [ -0.080473060727823, 42.953098839987767 ], [ -0.082019, 42.949771 ], [ -0.081592842861546, 42.95372441393183 ], [ -0.080602, 42.953108 ] ] ] ] } },
{ "type": "Feature", "properties": { "codgeo": "65138", "value": 780, "isochrone_group": 13.0, "nb_agences": 1 }, "geometry": { "type": "MultiPolygon", "coordinates": [ [ [ [ -0.095149, 42.899196 ], [ -0.095071, 42.898996 ], [ -0.095127, 42.898851 ], [ -0.095949, 42.897568 ], [ -0.098852, 42.89613 ], [ -0.097407, 42.897305 ], [ -0.096706, 42.897812 ], [ -0.097043, 42.89923 ], [ -0.09714, 42.899457 ], [ -0.095149, 42.899196 ] ] ], [ [ [ -0.100359, 42.857584 ], [ -0.098261, 42.852957 ], [ -0.098180860102693, 42.852637787299805 ], [ -0.100359, 42.857584 ] ] ], [ [ [ -0.144366, 42.879901 ], [ -0.144475, 42.879864 ], [ -0.144602, 42.879867 ], [ -0.144766, 42.879935 ], [ -0.144914, 42.880071 ], [ -0.145168, 42.88034 ], [ -0.145421, 42.880608 ], [ -0.143779, 42.883196 ], [ -0.143458, 42.883539 ], [ -0.142854, 42.883688 ], [ -0.14225, 42.883836 ], [ -0.135294, 42.886296 ], [ -0.142793, 42.882848 ], [ -0.143116, 42.882688 ], [ -0.142997, 42.882449 ], [ -0.142879, 42.882211 ], [ -0.142775, 42.882065 ], [ -0.142612, 42.881961 ], [ -0.141647, 42.882143 ], [ -0.141404, 42.882182 ], [ -0.138839, 42.882573 ], [ -0.144366, 42.879901 ] ] ], [ [ [ -0.085097267545983, 42.947106992626011 ], [ -0.085083191087351, 42.947091706178142 ], [ -0.086779, 42.944772 ], [ -0.085097267545983, 42.947106992626011 ] ] ] ] } },
{ "type": "Feature", "properties": { "codgeo": "65138", "value": 840, "isochrone_group": 14.0, "nb_agences": 1 }, "geometry": { "type": "MultiPolygon", "coordinates": [ [ [ [ -0.085392, 42.933743 ], [ -0.085264, 42.933212 ], [ -0.085084, 42.932343 ], [ -0.084943, 42.931527 ], [ -0.085143, 42.930449 ], [ -0.085398, 42.929232 ], [ -0.085488, 42.928795 ], [ -0.086854, 42.926071 ], [ -0.089937, 42.919401 ], [ -0.090636, 42.918088 ], [ -0.091235, 42.917402 ], [ -0.091722, 42.917145 ], [ -0.092687, 42.916541 ], [ -0.09582, 42.913113 ], [ -0.097337318664464, 42.911424441086275 ], [ -0.095849, 42.913572 ], [ -0.093085, 42.916929 ], [ -0.092758, 42.91724 ], [ -0.091328, 42.920231 ], [ -0.091268, 42.920359 ], [ -0.088391, 42.926583 ], [ -0.087061, 42.929183 ], [ -0.08701, 42.929398 ], [ -0.086553, 42.931344 ], [ -0.086583, 42.931547 ], [ -0.086693, 42.932159 ], [ -0.08672, 42.932297 ], [ -0.086898, 42.933148 ], [ -0.087668, 42.939632 ], [ -0.086546643690183, 42.941464595071174 ], [ -0.08612, 42.941285 ], [ -0.085823, 42.941711 ], [ -0.085545, 42.942114 ], [ -0.08263103952722, 42.94529003779774 ], [ -0.086062, 42.939849 ], [ -0.085392, 42.933743 ] ] ], [ [ [ -0.099523, 42.90826 ], [ -0.096142, 42.900733 ], [ -0.094037, 42.900374 ], [ -0.0935, 42.898602 ], [ -0.09389, 42.897804 ], [ -0.094638, 42.896606 ], [ -0.095523, 42.895119 ], [ -0.101064, 42.892902 ], [ -0.102196, 42.89231 ], [ -0.105959, 42.890183 ], [ -0.106785, 42.889415 ], [ -0.108873, 42.881514 ], [ -0.107728, 42.879106 ], [ -0.107277, 42.878509 ], [ -0.106969, 42.877574 ], [ -0.103317, 42.869817 ], [ -0.103074, 42.869515 ], [ -0.101881, 42.867438 ], [ -0.101225, 42.866226 ], [ -0.100451, 42.864906 ], [ -0.100197, 42.864413 ], [ -0.099292, 42.86242 ], [ -0.099157, 42.861989 ], [ -0.096637, 42.855646 ], [ -0.097993142263474, 42.852654098511501 ], [ -0.098051, 42.854834 ], [ -0.098126, 42.855007 ], [ -0.100749, 42.861686 ], [ -0.100805, 42.861841 ], [ -0.101741, 42.863921 ], [ -0.10197, 42.864345 ], [ -0.102804, 42.86586 ], [ -0.103035, 42.866238 ], [ -0.103242, 42.86656 ], [ -0.104333, 42.868463 ], [ -0.104416, 42.868608 ], [ -0.104549, 42.868765 ], [ -0.108445, 42.874284 ], [ -0.10857, 42.877149 ], [ -0.108563, 42.877285 ], [ -0.10864, 42.877634 ], [ -0.10911, 42.879405 ], [ -0.110845, 42.885417 ], [ -0.107966, 42.890523 ], [ -0.107128, 42.891305 ], [ -0.102427, 42.893914 ], [ -0.102274, 42.893978 ], [ -0.098852, 42.89613 ], [ -0.095949, 42.897568 ], [ -0.095127, 42.898851 ], [ -0.095071, 42.898996 ], [ -0.095149, 42.899196 ], [ -0.09714, 42.899457 ], [ -0.100165, 42.90763 ], [ -0.100052, 42.907835 ], [ -0.098437, 42.90992 ], [ -0.099523, 42.90826 ] ] ], [ [ [ -0.099945, 42.854226 ], [ -0.10005, 42.854342 ], [ -0.101388, 42.856282 ], [ -0.101685, 42.856653 ], [ -0.101913, 42.857076 ], [ -0.102409, 42.857953 ], [ -0.102782, 42.858953 ], [ -0.102905, 42.859539 ], [ -0.102933, 42.860008 ], [ -0.103231, 42.861907 ], [ -0.103558, 42.862803 ], [ -0.104019, 42.863761 ], [ -0.104438, 42.864464 ], [ -0.112805, 42.865768 ], [ -0.115537, 42.8624 ], [ -0.116074, 42.861837 ], [ -0.11879, 42.860003 ], [ -0.119757, 42.859553 ], [ -0.126065, 42.854744 ], [ -0.127023, 42.854028 ], [ -0.128511, 42.853101 ], [ -0.128991, 42.852856 ], [ -0.12974, 42.852572 ], [ -0.132517, 42.851696 ], [ -0.135502725196657, 42.851715280513261 ], [ -0.134989, 42.851843 ], [ -0.134809, 42.851896 ], [ -0.133629, 42.852332 ], [ -0.12957, 42.854369 ], [ -0.129295, 42.854519 ], [ -0.127509, 42.855573 ], [ -0.12738, 42.855692 ], [ -0.124341, 42.859382 ], [ -0.119975, 42.861159 ], [ -0.119837, 42.861238 ], [ -0.116978, 42.863181 ], [ -0.116898, 42.863279 ], [ -0.113887, 42.866994 ], [ -0.113716, 42.867108 ], [ -0.113546, 42.867264 ], [ -0.113476, 42.86736 ], [ -0.104505, 42.867201 ], [ -0.10437, 42.867074 ], [ -0.103079, 42.865346 ], [ -0.102711, 42.864717 ], [ -0.101906, 42.862838 ], [ -0.101314, 42.860036 ], [ -0.101308, 42.859807 ], [ -0.101251, 42.85948 ], [ -0.101128, 42.859125 ], [ -0.100993, 42.85874 ], [ -0.100889, 42.858552 ], [ -0.100765, 42.858337 ], [ -0.100359, 42.857584 ], [ -0.098092, 42.852436 ], [ -0.099945, 42.854226 ] ] ], [ [ [ -0.13456, 42.855025 ], [ -0.133252, 42.855993 ], [ -0.132819, 42.856199 ], [ -0.127184, 42.859609 ], [ -0.126024, 42.860599 ], [ -0.124817, 42.861789 ], [ -0.124293, 42.862301 ], [ -0.123895, 42.862599 ], [ -0.12297, 42.86337 ], [ -0.119717, 42.864966 ], [ -0.118183, 42.866109 ], [ -0.11674, 42.867627 ], [ -0.116596, 42.867811 ], [ -0.114374, 42.870362 ], [ -0.113662, 42.878695 ], [ -0.113938, 42.879397 ], [ -0.121021, 42.884464 ], [ -0.123617, 42.885052 ], [ -0.131219, 42.884665 ], [ -0.137561, 42.882255 ], [ -0.138771, 42.881428 ], [ -0.139172, 42.881183 ], [ -0.139486, 42.881047 ], [ -0.143697, 42.878426 ], [ -0.144367, 42.878248 ], [ -0.145068, 42.878316 ], [ -0.145859, 42.878739 ], [ -0.146091, 42.878959 ], [ -0.146853, 42.879714 ], [ -0.147293, 42.880427 ], [ -0.148005, 42.883574 ], [ -0.147841, 42.884068 ], [ -0.145239, 42.885201 ], [ -0.140618, 42.887242 ], [ -0.135621, 42.887481 ], [ -0.131113, 42.888598 ], [ -0.130231, 42.88892 ], [ -0.129894, 42.889021 ], [ -0.124639, 42.891869 ], [ -0.121150894185006, 42.897011375347233 ], [ -0.12048, 42.893915 ], [ -0.123064, 42.891222 ], [ -0.124742, 42.890319 ], [ -0.128497, 42.889263 ], [ -0.132713, 42.887334 ], [ -0.133045, 42.887243 ], [ -0.133411, 42.887123 ], [ -0.133768, 42.887005 ], [ -0.134051, 42.88689 ], [ -0.134322, 42.88678 ], [ -0.134814, 42.886535 ], [ -0.135294, 42.886296 ], [ -0.14225, 42.883836 ], [ -0.142854, 42.883688 ], [ -0.143458, 42.883539 ], [ -0.143779, 42.883196 ], [ -0.145421, 42.880608 ], [ -0.145168, 42.88034 ], [ -0.144914, 42.880071 ], [ -0.144766, 42.879935 ], [ -0.144602, 42.879867 ], [ -0.144475, 42.879864 ], [ -0.144366, 42.879901 ], [ -0.138839, 42.882573 ], [ -0.1383, 42.882708 ], [ -0.131759, 42.886203 ], [ -0.131577, 42.886245 ], [ -0.123693, 42.886714 ], [ -0.123385, 42.886655 ], [ -0.121168, 42.886127 ], [ -0.120955, 42.886083 ], [ -0.115975, 42.88471 ], [ -0.113053, 42.880141 ], [ -0.112824, 42.879631 ], [ -0.112565, 42.879075 ], [ -0.112095, 42.878555 ], [ -0.111615, 42.870852 ], [ -0.112991, 42.869425 ], [ -0.11322, 42.869226 ], [ -0.113377, 42.869035 ], [ -0.115334, 42.866796 ], [ -0.11574, 42.866318 ], [ -0.116839, 42.865205 ], [ -0.118664, 42.863735 ], [ -0.122132, 42.861984 ], [ -0.122216, 42.861914 ], [ -0.123165, 42.861139 ], [ -0.12339, 42.86092 ], [ -0.123622, 42.860694 ], [ -0.124941, 42.859394 ], [ -0.125389, 42.858992 ], [ -0.126067, 42.858436 ], [ -0.132177, 42.854712 ], [ -0.132406, 42.854611 ], [ -0.132798, 42.854371 ], [ -0.135702346389181, 42.853137148068768 ], [ -0.13456, 42.855025 ] ] ], [ [ [ -0.118565, 42.905289 ], [ -0.118102, 42.905863 ], [ -0.117544, 42.906257 ], [ -0.116764, 42.9066 ], [ -0.1127473663421, 42.906709523918614 ], [ -0.114071, 42.9063 ], [ -0.114175, 42.906271 ], [ -0.114751, 42.906094 ], [ -0.115162, 42.905854 ], [ -0.116835, 42.9048 ], [ -0.118729400517152, 42.904646413435287 ], [ -0.118565, 42.905289 ] ] ], [ [ [ -0.101982, 42.910874 ], [ -0.098986, 42.914827 ], [ -0.098046, 42.91652 ], [ -0.096749, 42.918247 ], [ -0.094046, 42.922438 ], [ -0.090778, 42.927871 ], [ -0.090172, 42.934528 ], [ -0.090649, 42.937229 ], [ -0.090745, 42.9381 ], [ -0.090661, 42.938557 ], [ -0.089858, 42.942014 ], [ -0.089518, 42.942754 ], [ -0.089031242414423, 42.94342064625851 ], [ -0.089074, 42.943343 ], [ -0.088541, 42.942826 ], [ -0.087988201810953, 42.94227381399056 ], [ -0.088234, 42.941766 ], [ -0.088288, 42.941613 ], [ -0.089115, 42.938073 ], [ -0.089134, 42.937924 ], [ -0.089068, 42.93758 ], [ -0.088552, 42.934495 ], [ -0.089121, 42.927984 ], [ -0.092781, 42.921427 ], [ -0.095491, 42.917657 ], [ -0.096384, 42.916333 ], [ -0.096851, 42.915494 ], [ -0.097561, 42.914056 ], [ -0.100974, 42.909605 ], [ -0.102302, 42.908416 ], [ -0.107875271511028, 42.90775218781976 ], [ -0.101982, 42.910874 ] ] ], [ [ [ -0.08228304432503, 42.945623084067641 ], [ -0.082006309062135, 42.945849845778206 ], [ -0.082041, 42.9458 ], [ -0.08228304432503, 42.945623084067641 ] ] ], [ [ [ -0.08169098958746, 42.946302913512021 ], [ -0.081540003593866, 42.946545158853091 ], [ -0.081558, 42.946494 ], [ -0.08169098958746, 42.946302913512021 ] ] ], [ [ [ -0.080574176710099, 42.949158520358296 ], [ -0.080399, 42.949634 ], [ -0.080114556897169, 42.949632949454696 ], [ -0.080422, 42.9495 ], [ -0.080574176710099, 42.949158520358296 ] ] ], [ [ [ -0.083716, 42.954032 ], [ -0.084023, 42.952662 ], [ -0.084935, 42.950011 ], [ -0.085187602940216, 42.949570480709419 ], [ -0.083763262650586, 42.954106879306288 ], [ -0.083716, 42.954032 ] ] ] ] } },
{ "type": "Feature", "properties": { "codgeo": "65138", "value": 900, "isochrone_group": 15.0, "nb_agences": 1 }, "geometry": { "type": "MultiPolygon", "coordinates": [ [ [ [ -0.097285, 42.890796 ], [ -0.09733, 42.890801 ], [ -0.098306, 42.891221 ], [ -0.106785, 42.889415 ], [ -0.105959, 42.890183 ], [ -0.102196, 42.89231 ], [ -0.101064, 42.892902 ], [ -0.095523, 42.895119 ], [ -0.094638, 42.896606 ], [ -0.09389, 42.897804 ], [ -0.0935, 42.898602 ], [ -0.095622, 42.893589 ], [ -0.097285, 42.890796 ] ] ], [ [ [ -0.150142, 42.883727 ], [ -0.150096, 42.884445 ], [ -0.149912, 42.885207 ], [ -0.149213, 42.885997 ], [ -0.148448, 42.886285 ], [ -0.142482, 42.88742 ], [ -0.139784, 42.887636 ], [ -0.131113, 42.888598 ], [ -0.135621, 42.887481 ], [ -0.140618, 42.887242 ], [ -0.145239, 42.885201 ], [ -0.147841, 42.884068 ], [ -0.148005, 42.883574 ], [ -0.147293, 42.880427 ], [ -0.146853, 42.879714 ], [ -0.14982, 42.882861 ], [ -0.150142, 42.883727 ] ] ], [ [ [ -0.08046174315587, 42.948797802823805 ], [ -0.080750022383505, 42.948681193503958 ], [ -0.080714, 42.948779 ], [ -0.08046174315587, 42.948797802823805 ] ] ] ] } },
{ "type": "Feature", "properties": { "codgeo": "65138", "value": 960, "isochrone_group": 16.0, "nb_agences": 1 }, "geometry": { "type": "MultiPolygon", "coordinates": [ [ [ [ -0.095176, 42.890182 ], [ -0.095572, 42.890261 ], [ -0.09733, 42.890801 ], [ -0.097285, 42.890796 ], [ -0.095622, 42.893589 ], [ -0.0935, 42.898602 ], [ -0.094226, 42.89368 ], [ -0.09476, 42.890119 ], [ -0.095176, 42.890182 ] ] ], [ [ [ -0.150712, 42.88293 ], [ -0.150882, 42.883387 ], [ -0.150957, 42.884027 ], [ -0.150742, 42.884903 ], [ -0.150345, 42.885807 ], [ -0.149651, 42.886508 ], [ -0.148361, 42.886732 ], [ -0.145829894225397, 42.886783080800249 ], [ -0.148448, 42.886285 ], [ -0.149213, 42.885997 ], [ -0.149912, 42.885207 ], [ -0.150096, 42.884445 ], [ -0.150142, 42.883727 ], [ -0.14982, 42.882861 ], [ -0.146853, 42.879714 ], [ -0.146091, 42.878959 ], [ -0.145859, 42.878739 ], [ -0.150204, 42.881984 ], [ -0.150563, 42.882643 ], [ -0.150712, 42.88293 ] ] ], [ [ [ -0.079983599820563, 42.948833442867254 ], [ -0.080753513462562, 42.948671714669494 ], [ -0.080750022383505, 42.948681193503958 ], [ -0.080461743155871, 42.948797802823805 ], [ -0.079983599820563, 42.948833442867254 ] ] ] ] } },
{ "type": "Feature", "properties": { "codgeo": "65138", "value": 1020, "isochrone_group": 17.0, "nb_agences": 1 }, "geometry": { "type": "MultiPolygon", "coordinates": [ [ [ [ -0.093379, 42.890175 ], [ -0.094487, 42.890034 ], [ -0.095176, 42.890182 ], [ -0.09476, 42.890119 ], [ -0.094226, 42.89368 ], [ -0.0935, 42.898602 ], [ -0.091767, 42.89399 ], [ -0.092742, 42.890525 ], [ -0.093379, 42.890175 ] ] ], [ [ [ -0.15034, 42.881565 ], [ -0.151284, 42.882873 ], [ -0.151826, 42.883905 ], [ -0.152001, 42.88464 ], [ -0.151921, 42.885466 ], [ -0.151528, 42.886502 ], [ -0.1514, 42.886695 ], [ -0.149869, 42.887506 ], [ -0.141077, 42.886879 ], [ -0.148361, 42.886732 ], [ -0.149651, 42.886508 ], [ -0.150345, 42.885807 ], [ -0.150742, 42.884903 ], [ -0.150957, 42.884027 ], [ -0.150882, 42.883387 ], [ -0.150712, 42.88293 ], [ -0.150563, 42.882643 ], [ -0.150204, 42.881984 ], [ -0.145859, 42.878739 ], [ -0.149619, 42.880914 ], [ -0.149995, 42.881198 ], [ -0.15034, 42.881565 ] ] ], [ [ [ -0.074822763277199, 42.949218123411988 ], [ -0.07194, 42.949433 ], [ -0.071586318360102, 42.9490551944101 ], [ -0.074822763277199, 42.949218123411988 ] ] ], [ [ [ -0.070326, 42.947748 ], [ -0.070462, 42.947886 ], [ -0.069738, 42.947487 ], [ -0.06877001546691, 42.946795582476362 ], [ -0.069033, 42.946819 ], [ -0.069666, 42.947213 ], [ -0.070029, 42.947476 ], [ -0.070326, 42.947748 ] ] ] ] } },
{ "type": "Feature", "properties": { "codgeo": "65138", "value": 1080, "isochrone_group": 18.0, "nb_agences": 1 }, "geometry": { "type": "MultiPolygon", "coordinates": [ [ [ [ -0.089167, 42.891953 ], [ -0.088984, 42.891617 ], [ -0.08888, 42.89107 ], [ -0.08886, 42.890405 ], [ -0.089119, 42.889576 ], [ -0.089672, 42.888946 ], [ -0.090361, 42.888455 ], [ -0.094487, 42.890034 ], [ -0.093379, 42.890175 ], [ -0.092742, 42.890525 ], [ -0.091767, 42.89399 ], [ -0.0935, 42.898602 ], [ -0.094037, 42.900374 ], [ -0.090085, 42.893129 ], [ -0.089811, 42.892792 ], [ -0.089167, 42.891953 ] ] ], [ [ [ -0.152613, 42.882923 ], [ -0.153073, 42.884037 ], [ -0.152981, 42.88516 ], [ -0.152916, 42.885433 ], [ -0.152672, 42.886121 ], [ -0.152001, 42.886746 ], [ -0.149869, 42.887506 ], [ -0.1514, 42.886695 ], [ -0.151528, 42.886502 ], [ -0.151921, 42.885466 ], [ -0.152001, 42.88464 ], [ -0.151826, 42.883905 ], [ -0.151284, 42.882873 ], [ -0.15034, 42.881565 ], [ -0.149995, 42.881198 ], [ -0.149619, 42.880914 ], [ -0.152491, 42.882721 ], [ -0.152575, 42.882845 ], [ -0.152613, 42.882923 ] ] ], [ [ [ -0.074562028581584, 42.949204997514656 ], [ -0.080755456670778, 42.94866643855034 ], [ -0.080714, 42.948779 ], [ -0.074822763277199, 42.949218123411988 ], [ -0.074562028581584, 42.949204997514656 ] ] ] ] } },
{ "type": "Feature", "properties": { "codgeo": "65138", "value": 1140, "isochrone_group": 19.0, "nb_agences": 1 }, "geometry": { "type": "MultiPolygon", "coordinates": [ [ [ [ -0.097386, 42.857126 ], [ -0.099157, 42.861989 ], [ -0.096637, 42.855646 ], [ -0.097217, 42.856777 ], [ -0.097386, 42.857126 ] ] ], [ [ [ -0.154228, 42.883378 ], [ -0.154388, 42.884226 ], [ -0.153959, 42.885667 ], [ -0.153046, 42.88637 ], [ -0.152001, 42.886746 ], [ -0.152672, 42.886121 ], [ -0.152916, 42.885433 ], [ -0.152981, 42.88516 ], [ -0.153073, 42.884037 ], [ -0.152613, 42.882923 ], [ -0.152575, 42.882845 ], [ -0.152491, 42.882721 ], [ -0.149619, 42.880914 ], [ -0.15328, 42.882367 ], [ -0.153588, 42.882581 ], [ -0.154228, 42.883378 ] ] ] ] } },
{ "type": "Feature", "properties": { "codgeo": "65138", "value": 1200, "isochrone_group": 20.0, "nb_agences": 1 }, "geometry": { "type": "MultiPolygon", "coordinates": [ [ [ [ -0.154565, 42.886683 ], [ -0.153131, 42.886902 ], [ -0.149869, 42.887506 ], [ -0.152001, 42.886746 ], [ -0.153046, 42.88637 ], [ -0.153959, 42.885667 ], [ -0.154388, 42.884226 ], [ -0.154228, 42.883378 ], [ -0.153588, 42.882581 ], [ -0.15328, 42.882367 ], [ -0.149619, 42.880914 ], [ -0.15578, 42.882172 ], [ -0.156843, 42.885611 ], [ -0.154565, 42.886683 ] ] ], [ [ [ -0.04013441285805, 42.928123039530917 ], [ -0.040137325655342, 42.928132393844685 ], [ -0.040142, 42.92815 ], [ -0.04013441285805, 42.928123039530917 ] ] ], [ [ [ -0.039038, 42.924227 ], [ -0.039252164726431, 42.924971989170771 ], [ -0.03938001137428, 42.925442317591745 ], [ -0.039038, 42.924227 ] ] ], [ [ [ -0.09368131096196, 42.975384885174172 ], [ -0.089808, 42.971166 ], [ -0.089654642571166, 42.969995286831804 ], [ -0.09368131096196, 42.975384885174172 ] ] ] ] } }
]
}
