{
"type": "FeatureCollection",
"name": "Credit_Agricole",
"crs": { "type": "name", "properties": { "name": "urn:ogc:def:crs:OGC:1.3:CRS84" } },
"features": [
{ "type": "Feature", "properties": { "codgeo": "30010", "value": 60, "isochrone_group": 1.0, "nb_agences": 1 }, "geometry": { "type": "Polygon", "coordinates": [ [ [ 3.983146, 44.05356 ], [ 3.98508, 44.051998 ], [ 3.985439, 44.051978 ], [ 3.986587, 44.051945 ], [ 3.988394, 44.052211 ], [ 3.988707, 44.052755 ], [ 3.989289, 44.055557 ], [ 3.989153, 44.055681 ], [ 3.988909, 44.055892 ], [ 3.985589, 44.058962 ], [ 3.985325, 44.058719 ], [ 3.983115, 44.053919 ], [ 3.983146, 44.05356 ] ] ] } },
{ "type": "Feature", "properties": { "codgeo": "30010", "value": 120, "isochrone_group": 2.0, "nb_agences": 1 }, "geometry": { "type": "Polygon", "coordinates": [ [ [ 3.988012, 44.057352 ], [ 3.99195, 44.054044 ], [ 3.992072, 44.053811 ], [ 3.992365, 44.052342 ], [ 3.992356, 44.05228 ], [ 3.991665, 44.047708 ], [ 3.991307, 44.047673 ], [ 3.9873, 44.04767 ], [ 3.985346, 44.04674 ], [ 3.981049, 44.048777 ], [ 3.977377, 44.051342 ], [ 3.977383, 44.051702 ], [ 3.977863, 44.05184 ], [ 3.978847, 44.052243 ], [ 3.979003, 44.052311 ], [ 3.979176, 44.052341 ], [ 3.980093, 44.052572 ], [ 3.981211, 44.053143 ], [ 3.981329, 44.053204 ], [ 3.982868, 44.054442 ], [ 3.979762, 44.059096 ], [ 3.9778, 44.058965 ], [ 3.977748, 44.058953 ], [ 3.977667, 44.059303 ], [ 3.979547, 44.060485 ], [ 3.982914, 44.059891 ], [ 3.984168, 44.059666 ], [ 3.985221, 44.059066 ], [ 3.985513654076415, 44.058892647502141 ], [ 3.985325, 44.058719 ], [ 3.983115, 44.053919 ], [ 3.983146, 44.05356 ], [ 3.98508, 44.051998 ], [ 3.985439, 44.051978 ], [ 3.986587, 44.051945 ], [ 3.988394, 44.052211 ], [ 3.988707, 44.052755 ], [ 3.989289, 44.055557 ], [ 3.989153, 44.055681 ], [ 3.988909, 44.055892 ], [ 3.985941974669722, 44.058635604748176 ], [ 3.988012, 44.057352 ] ] ] } },
{ "type": "Feature", "properties": { "codgeo": "30010", "value": 180, "isochrone_group": 3.0, "nb_agences": 1 }, "geometry": { "type": "Polygon", "coordinates": [ [ [ 3.971246, 44.05836 ], [ 3.9728, 44.061559 ], [ 3.973081, 44.061785 ], [ 3.977138, 44.063544 ], [ 3.977467, 44.06369 ], [ 3.982979, 44.063223 ], [ 3.983206, 44.062976 ], [ 3.986155, 44.059747 ], [ 3.986872, 44.059114 ], [ 3.987011, 44.058983 ], [ 3.987535, 44.058226 ], [ 3.996144, 44.056551 ], [ 3.996443, 44.056751 ], [ 3.998583, 44.057101 ], [ 4.001587, 44.057431 ], [ 4.001674, 44.057082 ], [ 4.00143, 44.057021 ], [ 3.998121, 44.055513 ], [ 3.997818, 44.055319 ], [ 3.993971, 44.050456 ], [ 3.995898, 44.042454 ], [ 3.995762, 44.042121 ], [ 3.995572, 44.042199 ], [ 3.995381, 44.042277 ], [ 3.994095, 44.042765 ], [ 3.98604, 44.040462 ], [ 3.985687, 44.040617 ], [ 3.985333, 44.040773 ], [ 3.985022, 44.040969 ], [ 3.984203, 44.041639 ], [ 3.977951, 44.045389 ], [ 3.974643, 44.045471 ], [ 3.97443, 44.045761 ], [ 3.974088, 44.050195 ], [ 3.97127, 44.058001 ], [ 3.971246, 44.05836 ] ], [ [ 3.979762, 44.059096 ], [ 3.982868, 44.054442 ], [ 3.981329, 44.053204 ], [ 3.981211, 44.053143 ], [ 3.980093, 44.052572 ], [ 3.979176, 44.052341 ], [ 3.979003, 44.052311 ], [ 3.978847, 44.052243 ], [ 3.977863, 44.05184 ], [ 3.977383, 44.051702 ], [ 3.977377, 44.051342 ], [ 3.981049, 44.048777 ], [ 3.985346, 44.04674 ], [ 3.9873, 44.04767 ], [ 3.991307, 44.047673 ], [ 3.991665, 44.047708 ], [ 3.992356, 44.05228 ], [ 3.992365, 44.052342 ], [ 3.992072, 44.053811 ], [ 3.99195, 44.054044 ], [ 3.988012, 44.057352 ], [ 3.985822, 44.05871 ], [ 3.985221, 44.059066 ], [ 3.984168, 44.059666 ], [ 3.982914, 44.059891 ], [ 3.979547, 44.060485 ], [ 3.977667, 44.059303 ], [ 3.977748, 44.058953 ], [ 3.9778, 44.058965 ], [ 3.979762, 44.059096 ] ] ] } },
{ "type": "Feature", "properties": { "codgeo": "30010", "value": 240, "isochrone_group": 4.0, "nb_agences": 1 }, "geometry": { "type": "Polygon", "coordinates": [ [ [ 3.996395, 44.057195 ], [ 3.999172, 44.057783 ], [ 4.000508, 44.058347 ], [ 4.001015, 44.058341 ], [ 4.004586, 44.058455 ], [ 4.010729, 44.057659 ], [ 4.010717, 44.057299 ], [ 4.007263, 44.055803 ], [ 4.006916, 44.055899 ], [ 3.998197, 44.055061 ], [ 3.995726, 44.049166 ], [ 3.999197, 44.043757 ], [ 4.005214, 44.040471 ], [ 4.005255, 44.040114 ], [ 3.997335, 44.038343 ], [ 3.994668, 44.038205 ], [ 3.993849, 44.038176 ], [ 3.993458, 44.03817 ], [ 3.985167, 44.03799 ], [ 3.981952, 44.038291 ], [ 3.979672, 44.039524 ], [ 3.972003, 44.041963 ], [ 3.970604, 44.041325 ], [ 3.969906, 44.040947 ], [ 3.969623, 44.04117 ], [ 3.96958, 44.044731 ], [ 3.971709, 44.049343 ], [ 3.968685, 44.057462 ], [ 3.968432, 44.057799 ], [ 3.968062, 44.058297 ], [ 3.967692, 44.058794 ], [ 3.971171, 44.065965 ], [ 3.971317, 44.066046 ], [ 3.979633, 44.069105 ], [ 3.979993, 44.069119 ], [ 3.985656, 44.066759 ], [ 3.986038, 44.066516 ], [ 3.986084, 44.066159 ], [ 3.987011, 44.058983 ], [ 3.986872, 44.059114 ], [ 3.986155, 44.059747 ], [ 3.983206, 44.062976 ], [ 3.982979, 44.063223 ], [ 3.977467, 44.06369 ], [ 3.977138, 44.063544 ], [ 3.973081, 44.061785 ], [ 3.9728, 44.061559 ], [ 3.971246, 44.05836 ], [ 3.97127, 44.058001 ], [ 3.974088, 44.050195 ], [ 3.97443, 44.045761 ], [ 3.974643, 44.045471 ], [ 3.977951, 44.045389 ], [ 3.984203, 44.041639 ], [ 3.985022, 44.040969 ], [ 3.985333, 44.040773 ], [ 3.985687, 44.040617 ], [ 3.98604, 44.040462 ], [ 3.994095, 44.042765 ], [ 3.995381, 44.042277 ], [ 3.995572, 44.042199 ], [ 3.995762, 44.042121 ], [ 3.995898, 44.042454 ], [ 3.993971, 44.050456 ], [ 3.997818, 44.055319 ], [ 3.998121, 44.055513 ], [ 4.00143, 44.057021 ], [ 4.001674, 44.057082 ], [ 4.001587, 44.057431 ], [ 3.998583, 44.057101 ], [ 3.996443, 44.056751 ], [ 3.996144, 44.056551 ], [ 3.987535, 44.058226 ], [ 3.996395, 44.057195 ] ] ] } },
{ "type": "Feature", "properties": { "codgeo": "30010", "value": 300, "isochrone_group": 5.0, "nb_agences": 1 }, "geometry": { "type": "Polygon", "coordinates": [ [ [ 4.006848, 44.059828 ], [ 4.012794, 44.060002 ], [ 4.018228, 44.060666 ], [ 4.018336, 44.060585 ], [ 4.01838, 44.06034 ], [ 4.017326, 44.058134 ], [ 4.012003, 44.05116 ], [ 4.011964, 44.044163 ], [ 4.011848, 44.043822 ], [ 4.010892, 44.041868 ], [ 4.006876, 44.04074 ], [ 4.00333, 44.035896 ], [ 4.003007, 44.035738 ], [ 3.996502, 44.034791 ], [ 3.996145, 44.035575 ], [ 3.987453, 44.035351 ], [ 3.987147, 44.035161 ], [ 3.982343, 44.034423 ], [ 3.979383, 44.034961 ], [ 3.979075, 44.035147 ], [ 3.978282, 44.03765 ], [ 3.970733, 44.040257 ], [ 3.96918, 44.038621 ], [ 3.968861, 44.038453 ], [ 3.965435, 44.039267 ], [ 3.964428, 44.040376 ], [ 3.964096, 44.041026 ], [ 3.967423, 44.045491 ], [ 3.96865, 44.048919 ], [ 3.969162, 44.053036 ], [ 3.965053, 44.05792 ], [ 3.964966, 44.058269 ], [ 3.967367, 44.064484 ], [ 3.968467, 44.072342 ], [ 3.968818, 44.072424 ], [ 3.96968, 44.071298 ], [ 3.969757, 44.071147 ], [ 3.971978, 44.068518 ], [ 3.980108, 44.070053 ], [ 3.980572, 44.072185 ], [ 3.980902, 44.07233 ], [ 3.983144, 44.073317 ], [ 3.989031, 44.070026 ], [ 3.989207, 44.069712 ], [ 3.989217, 44.068979 ], [ 3.988178, 44.06725 ], [ 3.987011, 44.058983 ], [ 3.986084, 44.066159 ], [ 3.986038, 44.066516 ], [ 3.985656, 44.066759 ], [ 3.979993, 44.069119 ], [ 3.979633, 44.069105 ], [ 3.971317, 44.066046 ], [ 3.971171, 44.065965 ], [ 3.967692, 44.058794 ], [ 3.968062, 44.058297 ], [ 3.968432, 44.057799 ], [ 3.968685, 44.057462 ], [ 3.971709, 44.049343 ], [ 3.96958, 44.044731 ], [ 3.969623, 44.04117 ], [ 3.969906, 44.040947 ], [ 3.970604, 44.041325 ], [ 3.972003, 44.041963 ], [ 3.979672, 44.039524 ], [ 3.981952, 44.038291 ], [ 3.985167, 44.03799 ], [ 3.993458, 44.03817 ], [ 3.993849, 44.038176 ], [ 3.994668, 44.038205 ], [ 3.997335, 44.038343 ], [ 4.005255, 44.040114 ], [ 4.005214, 44.040471 ], [ 3.999197, 44.043757 ], [ 3.995726, 44.049166 ], [ 3.998197, 44.055061 ], [ 4.006916, 44.055899 ], [ 4.007263, 44.055803 ], [ 4.010717, 44.057299 ], [ 4.010729, 44.057659 ], [ 4.004586, 44.058455 ], [ 4.00170907598066, 44.058363157564209 ], [ 4.006848, 44.059828 ] ] ] } },
{ "type": "Feature", "properties": { "codgeo": "30010", "value": 360, "isochrone_group": 6.0, "nb_agences": 1 }, "geometry": { "type": "MultiPolygon", "coordinates": [ [ [ [ 3.962298, 44.038235 ], [ 3.959346, 44.036998 ], [ 3.957384, 44.036326 ], [ 3.956394, 44.036034 ], [ 3.955472, 44.038688 ], [ 3.955375, 44.039487 ], [ 3.957844, 44.041301 ], [ 3.963746, 44.047235 ], [ 3.96424, 44.047964 ], [ 3.963766, 44.056193 ], [ 3.962699, 44.057178 ], [ 3.961783, 44.057903 ], [ 3.961268, 44.058255 ], [ 3.960948, 44.058507 ], [ 3.959902, 44.060725 ], [ 3.960222, 44.061011 ], [ 3.960701, 44.061329 ], [ 3.961613, 44.061611 ], [ 3.96452, 44.067765 ], [ 3.959404, 44.070519 ], [ 3.957999, 44.070478 ], [ 3.956655, 44.070411 ], [ 3.956475, 44.074007 ], [ 3.961514, 44.077161 ], [ 3.962949, 44.077005 ], [ 3.964718, 44.076237 ], [ 3.96664, 44.075365 ], [ 3.967193, 44.075083 ], [ 3.971688, 44.073824 ], [ 3.979217, 44.07808 ], [ 3.979541, 44.078532 ], [ 3.979945, 44.078954 ], [ 3.98021, 44.079156 ], [ 3.982591, 44.079752 ], [ 3.982648, 44.079721 ], [ 3.983448, 44.077638 ], [ 3.990101, 44.072856 ], [ 3.991698, 44.073372 ], [ 3.992155, 44.073614 ], [ 3.992283, 44.073634 ], [ 3.994443, 44.072528 ], [ 3.995211, 44.071712 ], [ 3.994853, 44.071137 ], [ 3.994086, 44.070413 ], [ 3.992992, 44.069808 ], [ 3.992217, 44.069531 ], [ 3.990833, 44.068877 ], [ 3.990164, 44.068402 ], [ 3.988125, 44.060159 ], [ 3.988732, 44.059317 ], [ 3.993880112397484, 44.05748764662733 ], [ 3.987535, 44.058226 ], [ 3.987011, 44.058983 ], [ 3.988178, 44.06725 ], [ 3.989217, 44.068979 ], [ 3.989207, 44.069712 ], [ 3.989031, 44.070026 ], [ 3.983144, 44.073317 ], [ 3.980902, 44.07233 ], [ 3.980572, 44.072185 ], [ 3.980108, 44.070053 ], [ 3.971978, 44.068518 ], [ 3.969757, 44.071147 ], [ 3.96968, 44.071298 ], [ 3.968818, 44.072424 ], [ 3.968467, 44.072342 ], [ 3.967367, 44.064484 ], [ 3.964966, 44.058269 ], [ 3.965053, 44.05792 ], [ 3.969162, 44.053036 ], [ 3.96865, 44.048919 ], [ 3.967423, 44.045491 ], [ 3.964096, 44.041026 ], [ 3.964428, 44.040376 ], [ 3.965435, 44.039267 ], [ 3.967465623545417, 44.038784534277298 ], [ 3.962298, 44.038235 ] ] ], [ [ [ 3.969763, 44.038959 ], [ 3.969457933950661, 44.038913788115444 ], [ 3.970733, 44.040257 ], [ 3.97503357887548, 44.038771821946163 ], [ 3.969763, 44.038959 ] ] ], [ [ [ 3.977657769822241, 44.037865573993038 ], [ 3.978282, 44.03765 ], [ 3.978507106561923, 44.036939480801394 ], [ 3.977657769822241, 44.037865573993038 ] ] ], [ [ [ 3.999316, 44.059306 ], [ 4.00459, 44.062263 ], [ 4.005457, 44.062991 ], [ 4.005893, 44.063289 ], [ 4.006689, 44.063292 ], [ 4.015505, 44.063895 ], [ 4.015808, 44.064119 ], [ 4.018414, 44.065363 ], [ 4.021407, 44.065876 ], [ 4.023228, 44.065511 ], [ 4.024479, 44.065246 ], [ 4.02593, 44.061952 ], [ 4.024337, 44.060846 ], [ 4.019219, 44.053727 ], [ 4.018814, 44.048875 ], [ 4.017269, 44.041375 ], [ 4.016435, 44.038605 ], [ 4.012556, 44.032945 ], [ 4.011768, 44.03038 ], [ 4.011579, 44.030298 ], [ 4.01045, 44.030025 ], [ 4.003251, 44.028456 ], [ 4.00182, 44.029115 ], [ 3.999018, 44.031375 ], [ 3.99753, 44.032595 ], [ 3.989085, 44.033122 ], [ 3.9845, 44.032631 ], [ 3.983911, 44.032541 ], [ 3.983315, 44.032541 ], [ 3.982475, 44.032613 ], [ 3.980509363085182, 44.034756275898708 ], [ 3.982343, 44.034423 ], [ 3.987147, 44.035161 ], [ 3.987453, 44.035351 ], [ 3.996145, 44.035575 ], [ 3.996502, 44.034791 ], [ 4.003007, 44.035738 ], [ 4.00333, 44.035896 ], [ 4.006876, 44.04074 ], [ 4.010892, 44.041868 ], [ 4.011848, 44.043822 ], [ 4.011964, 44.044163 ], [ 4.012003, 44.05116 ], [ 4.017326, 44.058134 ], [ 4.01838, 44.06034 ], [ 4.018336, 44.060585 ], [ 4.018228, 44.060666 ], [ 4.012794, 44.060002 ], [ 4.006848, 44.059828 ], [ 4.001484, 44.058299 ], [ 4.000281, 44.058227 ], [ 3.999172, 44.057783 ], [ 3.996395, 44.057195 ], [ 3.995864699989637, 44.057256708725802 ], [ 3.999316, 44.059306 ] ] ] ] } },
{ "type": "Feature", "properties": { "codgeo": "30010", "value": 420, "isochrone_group": 7.0, "nb_agences": 1 }, "geometry": { "type": "MultiPolygon", "coordinates": [ [ [ [ 3.958864, 44.05424 ], [ 3.95698, 44.057309 ], [ 3.955544, 44.060014 ], [ 3.948951, 44.065239 ], [ 3.948292, 44.065352 ], [ 3.947794, 44.0655 ], [ 3.947313, 44.065692 ], [ 3.948644, 44.069037 ], [ 3.952062, 44.073057 ], [ 3.952601, 44.073518 ], [ 3.956672, 44.081315 ], [ 3.956915, 44.08138 ], [ 3.957311, 44.081456 ], [ 3.957929, 44.081478 ], [ 3.958403, 44.081428 ], [ 3.958925, 44.081282 ], [ 3.959324, 44.081074 ], [ 3.964622, 44.079127 ], [ 3.966121, 44.077958 ], [ 3.967324, 44.076747 ], [ 3.975837, 44.079441 ], [ 3.980201, 44.083462 ], [ 3.984086, 44.084816 ], [ 3.98432, 44.084841 ], [ 3.984741, 44.084837 ], [ 3.986429, 44.082723 ], [ 3.986715, 44.081025 ], [ 3.986519, 44.080612 ], [ 3.993745, 44.075387 ], [ 3.994804, 44.076805 ], [ 3.994897, 44.076882 ], [ 3.99558, 44.07741 ], [ 3.996197, 44.077757 ], [ 3.997906, 44.076724 ], [ 3.998481, 44.075279 ], [ 3.998308, 44.075044 ], [ 3.997688, 44.074303 ], [ 3.996953, 44.073532 ], [ 3.996341, 44.072892 ], [ 3.995213, 44.071858 ], [ 3.995140758202526, 44.071786631909816 ], [ 3.994443, 44.072528 ], [ 3.992283, 44.073634 ], [ 3.992155, 44.073614 ], [ 3.991698, 44.073372 ], [ 3.990101, 44.072856 ], [ 3.983448, 44.077638 ], [ 3.982648, 44.079721 ], [ 3.982591, 44.079752 ], [ 3.98021, 44.079156 ], [ 3.979945, 44.078954 ], [ 3.979541, 44.078532 ], [ 3.979217, 44.07808 ], [ 3.971688, 44.073824 ], [ 3.967193, 44.075083 ], [ 3.96664, 44.075365 ], [ 3.964718, 44.076237 ], [ 3.962949, 44.077005 ], [ 3.961514, 44.077161 ], [ 3.956475, 44.074007 ], [ 3.956655, 44.070411 ], [ 3.957999, 44.070478 ], [ 3.959404, 44.070519 ], [ 3.96452, 44.067765 ], [ 3.961613, 44.061611 ], [ 3.960701, 44.061329 ], [ 3.960222, 44.061011 ], [ 3.959902, 44.060725 ], [ 3.960948, 44.058507 ], [ 3.961268, 44.058255 ], [ 3.961783, 44.057903 ], [ 3.962699, 44.057178 ], [ 3.963766, 44.056193 ], [ 3.96424, 44.047964 ], [ 3.963746, 44.047235 ], [ 3.963500988075139, 44.046988659647219 ], [ 3.96377, 44.047371 ], [ 3.958864, 44.05424 ] ] ], [ [ [ 3.966274, 44.034798 ], [ 3.959133, 44.033325 ], [ 3.958379, 44.03309 ], [ 3.957537, 44.032831 ], [ 3.957105, 44.032758 ], [ 3.956813, 44.032727 ], [ 3.950594, 44.033244 ], [ 3.947592, 44.035236 ], [ 3.947864, 44.035667 ], [ 3.949459, 44.036906 ], [ 3.953521, 44.041489 ], [ 3.953987, 44.041543 ], [ 3.955127, 44.041503 ], [ 3.956712, 44.041438 ], [ 3.957945976054424, 44.04140352895746 ], [ 3.957844, 44.041301 ], [ 3.955375, 44.039487 ], [ 3.955472, 44.038688 ], [ 3.956394, 44.036034 ], [ 3.957384, 44.036326 ], [ 3.959346, 44.036998 ], [ 3.962298, 44.038235 ], [ 3.968495, 44.038894 ], [ 3.969095, 44.03886 ], [ 3.969763, 44.038959 ], [ 3.966549, 44.035437 ], [ 3.966274, 44.034798 ] ] ], [ [ [ 3.977959, 44.032691 ], [ 3.977955, 44.033052 ], [ 3.975319406815361, 44.038761671122366 ], [ 3.976887, 44.038706 ], [ 3.982475, 44.032613 ], [ 3.983315, 44.032541 ], [ 3.983911, 44.032541 ], [ 3.981652, 44.032311 ], [ 3.977959, 44.032691 ] ] ], [ [ [ 4.009451, 44.063481 ], [ 4.015138, 44.065121 ], [ 4.01758, 44.067413 ], [ 4.018722, 44.068179 ], [ 4.019446, 44.068603 ], [ 4.019849, 44.068743 ], [ 4.020745, 44.06895 ], [ 4.02299, 44.069462 ], [ 4.029729, 44.068633 ], [ 4.032368825749892, 44.069131537584248 ], [ 4.030585, 44.067948 ], [ 4.030191, 44.065838 ], [ 4.03024, 44.065738 ], [ 4.032021, 44.064647 ], [ 4.033247644476715, 44.064285815089121 ], [ 4.032585, 44.063741 ], [ 4.030922, 44.062415 ], [ 4.026242, 44.060651 ], [ 4.025315, 44.052111 ], [ 4.026905, 44.050968 ], [ 4.026946, 44.050853 ], [ 4.026644, 44.049676 ], [ 4.026248, 44.041113 ], [ 4.025501, 44.0404 ], [ 4.025224, 44.040161 ], [ 4.024826, 44.039843 ], [ 4.023719, 44.038975 ], [ 4.022295, 44.037599 ], [ 4.018772, 44.029883 ], [ 4.017081, 44.026705 ], [ 4.016819, 44.026844 ], [ 4.01644, 44.027086 ], [ 4.009126, 44.021998 ], [ 4.008989, 44.02076 ], [ 4.007341, 44.020622 ], [ 4.005593, 44.021308 ], [ 3.997956, 44.023094 ], [ 3.995552, 44.024577 ], [ 3.994365, 44.02814 ], [ 3.994141, 44.028991 ], [ 3.98686902075264, 44.032884694479733 ], [ 3.989085, 44.033122 ], [ 3.99753, 44.032595 ], [ 3.999018, 44.031375 ], [ 4.00182, 44.029115 ], [ 4.003251, 44.028456 ], [ 4.01045, 44.030025 ], [ 4.011579, 44.030298 ], [ 4.011768, 44.03038 ], [ 4.012556, 44.032945 ], [ 4.016435, 44.038605 ], [ 4.017269, 44.041375 ], [ 4.018814, 44.048875 ], [ 4.019219, 44.053727 ], [ 4.024337, 44.060846 ], [ 4.02593, 44.061952 ], [ 4.024479, 44.065246 ], [ 4.023228, 44.065511 ], [ 4.021407, 44.065876 ], [ 4.018414, 44.065363 ], [ 4.015808, 44.064119 ], [ 4.015505, 44.063895 ], [ 4.006689, 44.063292 ], [ 4.005893, 44.063289 ], [ 4.005457, 44.062991 ], [ 4.00459, 44.062263 ], [ 4.003770442819031, 44.061803494769791 ], [ 4.005972, 44.064407 ], [ 4.009451, 44.063481 ] ] ] ] } },
{ "type": "Feature", "properties": { "codgeo": "30010", "value": 480, "isochrone_group": 8.0, "nb_agences": 1 }, "geometry": { "type": "MultiPolygon", "coordinates": [ [ [ [ 3.942396, 44.065563 ], [ 3.942506, 44.070973 ], [ 3.943367, 44.073338 ], [ 3.943539, 44.073427 ], [ 3.950232, 44.078221 ], [ 3.950374, 44.079811 ], [ 3.952305, 44.082316 ], [ 3.953091, 44.082382 ], [ 3.957929, 44.081478 ], [ 3.957311, 44.081456 ], [ 3.956915, 44.08138 ], [ 3.956672, 44.081315 ], [ 3.952601, 44.073518 ], [ 3.952062, 44.073057 ], [ 3.948644, 44.069037 ], [ 3.947313, 44.065692 ], [ 3.947794, 44.0655 ], [ 3.948292, 44.065352 ], [ 3.948951, 44.065239 ], [ 3.949154450037414, 44.065077764379566 ], [ 3.945525, 44.063784 ], [ 3.942396, 44.065563 ] ] ], [ [ [ 3.95174, 44.032048 ], [ 3.950773, 44.03124 ], [ 3.946343, 44.031553 ], [ 3.944865, 44.031951 ], [ 3.941649, 44.033107 ], [ 3.941157, 44.033401 ], [ 3.940393, 44.034264 ], [ 3.940021, 44.036013 ], [ 3.940077, 44.036248 ], [ 3.942896, 44.036467 ], [ 3.950109, 44.040245 ], [ 3.950577, 44.040542 ], [ 3.951502, 44.040997 ], [ 3.952451, 44.041301 ], [ 3.954797, 44.049698 ], [ 3.952306, 44.052297 ], [ 3.953194, 44.053148 ], [ 3.954168, 44.054309 ], [ 3.955934, 44.056236 ], [ 3.956561654197216, 44.058097039969716 ], [ 3.95698, 44.057309 ], [ 3.958864, 44.05424 ], [ 3.96377, 44.047371 ], [ 3.95954, 44.041359 ], [ 3.956712, 44.041438 ], [ 3.955127, 44.041503 ], [ 3.953987, 44.041543 ], [ 3.953521, 44.041489 ], [ 3.949459, 44.036906 ], [ 3.947864, 44.035667 ], [ 3.947592, 44.035236 ], [ 3.950594, 44.033244 ], [ 3.952908746111899, 44.03305156974757 ], [ 3.952493, 44.032663 ], [ 3.95174, 44.032048 ] ] ], [ [ [ 3.967581, 44.033348 ], [ 3.966166, 44.030416 ], [ 3.965264, 44.030636 ], [ 3.964832, 44.0308 ], [ 3.964171, 44.031324 ], [ 3.963751, 44.032032 ], [ 3.960391005631192, 44.033584493389554 ], [ 3.966274, 44.034798 ], [ 3.966549, 44.035437 ], [ 3.969763, 44.038959 ], [ 3.970443094448, 44.03898264336528 ], [ 3.967889, 44.034142 ], [ 3.967581, 44.033348 ] ] ], [ [ [ 4.028678, 44.073157 ], [ 4.029523, 44.07342 ], [ 4.031202109014051, 44.073168051465245 ], [ 4.0282, 44.070625 ], [ 4.026565057633664, 44.069022213269299 ], [ 4.02299, 44.069462 ], [ 4.020745, 44.06895 ], [ 4.020690727786451, 44.068937461664952 ], [ 4.028146, 44.072891 ], [ 4.028678, 44.073157 ] ] ], [ [ [ 4.03348, 44.049536 ], [ 4.029849, 44.044404 ], [ 4.029298, 44.044008 ], [ 4.026506, 44.041374 ], [ 4.023597, 44.034027 ], [ 4.023506, 44.027801 ], [ 4.022922, 44.025669 ], [ 4.022559, 44.025437 ], [ 4.021362, 44.024909 ], [ 4.018206, 44.023701 ], [ 4.011834, 44.021066 ], [ 4.01049, 44.017679 ], [ 4.010141, 44.017209 ], [ 4.008678, 44.015347 ], [ 4.008044, 44.015197 ], [ 4.006759, 44.015975 ], [ 4.00581, 44.017182 ], [ 3.999144, 44.020618 ], [ 3.996793, 44.019693 ], [ 3.995713, 44.019905 ], [ 3.992307, 44.020566 ], [ 3.990286, 44.02254 ], [ 3.989758, 44.023041 ], [ 3.990497, 44.025455 ], [ 3.985665, 44.033 ], [ 3.986254, 44.033214 ], [ 3.994141, 44.028991 ], [ 3.994365, 44.02814 ], [ 3.995552, 44.024577 ], [ 3.997956, 44.023094 ], [ 4.005593, 44.021308 ], [ 4.007341, 44.020622 ], [ 4.008989, 44.02076 ], [ 4.009126, 44.021998 ], [ 4.01644, 44.027086 ], [ 4.016819, 44.026844 ], [ 4.017081, 44.026705 ], [ 4.018772, 44.029883 ], [ 4.022295, 44.037599 ], [ 4.023719, 44.038975 ], [ 4.024826, 44.039843 ], [ 4.025224, 44.040161 ], [ 4.025501, 44.0404 ], [ 4.026248, 44.041113 ], [ 4.026644, 44.049676 ], [ 4.026946, 44.050853 ], [ 4.026905, 44.050968 ], [ 4.025315, 44.052111 ], [ 4.026230874854695, 44.060548509448878 ], [ 4.029338, 44.059649 ], [ 4.034396420922464, 44.056804451399486 ], [ 4.03348, 44.049536 ] ] ], [ [ [ 3.999394, 44.061126 ], [ 3.999877, 44.061129 ], [ 4.003804261829339, 44.061843488266668 ], [ 4.003688, 44.061706 ], [ 3.999316, 44.059306 ], [ 3.995365, 44.05696 ], [ 3.994951317794829, 44.057106999692074 ], [ 3.998179, 44.060978 ], [ 3.999394, 44.061126 ] ] ], [ [ [ 3.974172, 44.080064 ], [ 3.974885, 44.080437 ], [ 3.981773, 44.085234 ], [ 3.982044, 44.086323 ], [ 3.982439, 44.087299 ], [ 3.982832, 44.088703 ], [ 3.982899, 44.089 ], [ 3.982955, 44.089077 ], [ 3.987449, 44.091878 ], [ 3.989847, 44.091998 ], [ 3.990273, 44.09132 ], [ 3.990745, 44.090431 ], [ 3.990563, 44.087673 ], [ 3.994373, 44.080096 ], [ 3.997447, 44.079537 ], [ 3.999231, 44.07984 ], [ 4.000883, 44.080435 ], [ 4.001672, 44.080303 ], [ 4.00193, 44.080251 ], [ 4.002689, 44.077234 ], [ 4.002552, 44.077123 ], [ 4.00108, 44.076641 ], [ 3.997688, 44.074303 ], [ 3.998308, 44.075044 ], [ 3.998481, 44.075279 ], [ 3.997906, 44.076724 ], [ 3.996197, 44.077757 ], [ 3.99558, 44.07741 ], [ 3.994897, 44.076882 ], [ 3.994804, 44.076805 ], [ 3.993745, 44.075387 ], [ 3.986519, 44.080612 ], [ 3.986715, 44.081025 ], [ 3.986429, 44.082723 ], [ 3.984741, 44.084837 ], [ 3.98432, 44.084841 ], [ 3.984086, 44.084816 ], [ 3.980201, 44.083462 ], [ 3.975837, 44.079441 ], [ 3.967324, 44.076747 ], [ 3.966121, 44.077958 ], [ 3.964622, 44.079127 ], [ 3.959324, 44.081074 ], [ 3.958925, 44.081282 ], [ 3.958403, 44.081428 ], [ 3.965745, 44.080745 ], [ 3.974172, 44.080064 ] ] ] ] } },
{ "type": "Feature", "properties": { "codgeo": "30010", "value": 540, "isochrone_group": 9.0, "nb_agences": 1 }, "geometry": { "type": "MultiPolygon", "coordinates": [ [ [ [ 3.943514, 44.061255 ], [ 3.942698, 44.060902 ], [ 3.94144, 44.060519 ], [ 3.940837, 44.06031 ], [ 3.940042, 44.06014 ], [ 3.93929, 44.063661 ], [ 3.937028, 44.072253 ], [ 3.936074972885319, 44.073262385048679 ], [ 3.938683, 44.072881 ], [ 3.940353, 44.072702 ], [ 3.941157256397513, 44.075241289748192 ], [ 3.941748, 44.075188 ], [ 3.947941, 44.081102 ], [ 3.949921, 44.083016 ], [ 3.950464, 44.083106 ], [ 3.951803, 44.08268 ], [ 3.957929, 44.081478 ], [ 3.953091, 44.082382 ], [ 3.952305, 44.082316 ], [ 3.950374, 44.079811 ], [ 3.950232, 44.078221 ], [ 3.943539, 44.073427 ], [ 3.943367, 44.073338 ], [ 3.942506, 44.070973 ], [ 3.942396, 44.065563 ], [ 3.945525, 44.063784 ], [ 3.949517, 44.065207 ], [ 3.944911, 44.062754 ], [ 3.944419, 44.062103 ], [ 3.943514, 44.061255 ] ] ], [ [ [ 3.957221523882555, 44.060053601185544 ], [ 3.950808, 44.065365 ], [ 3.957251, 44.060141 ], [ 3.957221523882555, 44.060053601185544 ] ] ], [ [ [ 3.94835, 44.029602 ], [ 3.947722, 44.029624 ], [ 3.947417, 44.029664 ], [ 3.939876, 44.032326 ], [ 3.937641, 44.031868 ], [ 3.934996, 44.031839 ], [ 3.934934, 44.032042 ], [ 3.934824, 44.032648 ], [ 3.934891, 44.033562 ], [ 3.935194, 44.034311 ], [ 3.935916, 44.035013 ], [ 3.936325, 44.035219 ], [ 3.94013, 44.037239 ], [ 3.941109, 44.037736 ], [ 3.947278, 44.039221 ], [ 3.948732, 44.046074 ], [ 3.94778, 44.048639 ], [ 3.949026, 44.049683 ], [ 3.950018, 44.050311 ], [ 3.951063, 44.051092 ], [ 3.95187, 44.051891 ], [ 3.952306579563469, 44.052296395308936 ], [ 3.954797, 44.049698 ], [ 3.952451, 44.041301 ], [ 3.951502, 44.040997 ], [ 3.950577, 44.040542 ], [ 3.950109, 44.040245 ], [ 3.942896, 44.036467 ], [ 3.940077, 44.036248 ], [ 3.940021, 44.036013 ], [ 3.940393, 44.034264 ], [ 3.941157, 44.033401 ], [ 3.941649, 44.033107 ], [ 3.944865, 44.031951 ], [ 3.946343, 44.031553 ], [ 3.950756795517643, 44.031241144921665 ], [ 3.949453, 44.029947 ], [ 3.948941, 44.029724 ], [ 3.94835, 44.029602 ] ] ], [ [ [ 3.967697, 44.030461 ], [ 3.966227, 44.029223 ], [ 3.965215, 44.028962 ], [ 3.964395, 44.029159 ], [ 3.964216, 44.029257 ], [ 3.963568, 44.029721 ], [ 3.962861, 44.030166 ], [ 3.956267, 44.03549 ], [ 3.963751, 44.032032 ], [ 3.964171, 44.031324 ], [ 3.964832, 44.0308 ], [ 3.965264, 44.030636 ], [ 3.966166, 44.030416 ], [ 3.967581, 44.033348 ], [ 3.967889, 44.034142 ], [ 3.970667, 44.039407 ], [ 3.968513, 44.032363 ], [ 3.968006, 44.030733 ], [ 3.967697, 44.030461 ] ] ], [ [ [ 4.027095, 44.025594 ], [ 4.027605, 44.024796 ], [ 4.02754, 44.024172 ], [ 4.027508, 44.02408 ], [ 4.026929, 44.022804 ], [ 4.026476, 44.022647 ], [ 4.018646, 44.019248 ], [ 4.014386, 44.015727 ], [ 4.011372, 44.01207 ], [ 4.01024, 44.007444 ], [ 4.006645, 44.007255 ], [ 4.006616, 44.007797 ], [ 4.005985, 44.011275 ], [ 4.002287, 44.016245 ], [ 3.993931, 44.014303 ], [ 3.993229, 44.014023 ], [ 3.992846, 44.013909 ], [ 3.992245, 44.013853 ], [ 3.991563, 44.013979 ], [ 3.991035, 44.014242 ], [ 3.990477, 44.014812 ], [ 3.98552, 44.01974 ], [ 3.985456, 44.022374 ], [ 3.98561, 44.023435 ], [ 3.986152, 44.024721 ], [ 3.981652, 44.032311 ], [ 3.983315, 44.032541 ], [ 3.983911, 44.032541 ], [ 3.9845, 44.032631 ], [ 3.984782, 44.032728 ], [ 3.985045, 44.032823 ], [ 3.985665, 44.033 ], [ 3.990497, 44.025455 ], [ 3.989758, 44.023041 ], [ 3.990286, 44.02254 ], [ 3.992307, 44.020566 ], [ 3.995713, 44.019905 ], [ 3.996793, 44.019693 ], [ 3.999144, 44.020618 ], [ 4.00581, 44.017182 ], [ 4.006759, 44.015975 ], [ 4.008044, 44.015197 ], [ 4.008678, 44.015347 ], [ 4.010141, 44.017209 ], [ 4.01049, 44.017679 ], [ 4.011834, 44.021066 ], [ 4.018206, 44.023701 ], [ 4.021362, 44.024909 ], [ 4.022559, 44.025437 ], [ 4.022922, 44.025669 ], [ 4.023506, 44.027801 ], [ 4.023540526825025, 44.030163241896702 ], [ 4.024642, 44.02949 ], [ 4.02705, 44.02567 ], [ 4.027095, 44.025594 ] ] ], [ [ [ 4.034329587527485, 44.076053255228096 ], [ 4.034077, 44.075748 ], [ 4.033859, 44.075635 ], [ 4.028086, 44.073229 ], [ 4.027671440013737, 44.073163959063727 ], [ 4.034325, 44.076056 ], [ 4.034329587527485, 44.076053255228096 ] ] ], [ [ [ 4.037589, 44.042712 ], [ 4.032756, 44.042416 ], [ 4.02883, 44.042196 ], [ 4.02628858938465, 44.040824905537647 ], [ 4.026506, 44.041374 ], [ 4.029298, 44.044008 ], [ 4.029849, 44.044404 ], [ 4.033130557694848, 44.049042103577534 ], [ 4.034904, 44.049851 ], [ 4.034996, 44.049905 ], [ 4.036690978992365, 44.050310146224177 ], [ 4.040934143614263, 44.050300603874938 ], [ 4.038517, 44.044191 ], [ 4.037589, 44.042712 ] ] ], [ [ [ 4.019849, 44.068743 ], [ 4.02465738656614, 44.071623564753708 ], [ 4.021680107615533, 44.069462130780998 ], [ 4.020671, 44.068927 ], [ 4.019849, 44.068743 ] ] ], [ [ [ 3.997773, 44.060909 ], [ 3.998165250249714, 44.060961509749674 ], [ 3.994687, 44.05679 ], [ 3.989066, 44.058834 ], [ 3.988732, 44.059317 ], [ 3.988125, 44.060159 ], [ 3.988035, 44.066319 ], [ 3.989662, 44.068065 ], [ 3.990164, 44.068402 ], [ 3.990833, 44.068877 ], [ 3.995019, 44.060922 ], [ 3.995438, 44.060876 ], [ 3.997773, 44.060909 ] ] ], [ [ [ 3.96767, 44.084578 ], [ 3.973641, 44.083204 ], [ 3.978175, 44.086398 ], [ 3.979474, 44.089673 ], [ 3.980801, 44.092335 ], [ 3.981032, 44.092896 ], [ 3.982537, 44.093956 ], [ 3.98838, 44.097267 ], [ 3.992187, 44.09976 ], [ 3.992455, 44.099943 ], [ 3.99326, 44.099419 ], [ 3.994489, 44.096973 ], [ 3.993343, 44.094185 ], [ 3.992107, 44.091997 ], [ 3.996476, 44.085152 ], [ 3.996745, 44.08502 ], [ 3.997187, 44.084717 ], [ 4.005406, 44.08191 ], [ 4.006945, 44.080631 ], [ 4.006574, 44.078868 ], [ 4.006493, 44.078777 ], [ 4.005267, 44.078168 ], [ 4.004722, 44.07795 ], [ 4.003872, 44.077569 ], [ 4.002905, 44.077216 ], [ 4.002186, 44.076946 ], [ 4.00108, 44.076641 ], [ 4.002552, 44.077123 ], [ 4.002689, 44.077234 ], [ 4.00193, 44.080251 ], [ 4.001672, 44.080303 ], [ 4.000883, 44.080435 ], [ 3.999231, 44.07984 ], [ 3.997447, 44.079537 ], [ 3.994373, 44.080096 ], [ 3.990563, 44.087673 ], [ 3.990745, 44.090431 ], [ 3.990273, 44.09132 ], [ 3.989847, 44.091998 ], [ 3.987449, 44.091878 ], [ 3.982955, 44.089077 ], [ 3.982899, 44.089 ], [ 3.982832, 44.088703 ], [ 3.982439, 44.087299 ], [ 3.982044, 44.086323 ], [ 3.981773, 44.085234 ], [ 3.974885, 44.080437 ], [ 3.974172, 44.080064 ], [ 3.965745, 44.080745 ], [ 3.958403, 44.081428 ], [ 3.957929, 44.081478 ], [ 3.96172, 44.082247 ], [ 3.966983, 44.085142 ], [ 3.96767, 44.084578 ] ] ] ] } },
{ "type": "Feature", "properties": { "codgeo": "30010", "value": 600, "isochrone_group": 10.0, "nb_agences": 1 }, "geometry": { "type": "MultiPolygon", "coordinates": [ [ [ [ 4.033366, 44.040691 ], [ 4.029017, 44.040202 ], [ 4.023719, 44.038975 ], [ 4.024826, 44.039843 ], [ 4.025224, 44.040161 ], [ 4.025501, 44.0404 ], [ 4.02883, 44.042196 ], [ 4.032756, 44.042416 ], [ 4.035710044508585, 44.042596922237649 ], [ 4.038138, 44.039873 ], [ 4.03844828545208, 44.03928120783717 ], [ 4.037024, 44.039359 ], [ 4.033366, 44.040691 ] ] ], [ [ [ 4.032683, 44.026392 ], [ 4.033659, 44.026287 ], [ 4.034392, 44.026169 ], [ 4.034814, 44.026066 ], [ 4.035659, 44.025824 ], [ 4.036739, 44.025486 ], [ 4.035663, 44.022051 ], [ 4.033838, 44.019506 ], [ 4.032817, 44.019009 ], [ 4.03182, 44.019563 ], [ 4.030546, 44.020007 ], [ 4.023278, 44.016641 ], [ 4.020272, 44.014303 ], [ 4.018043, 44.014602 ], [ 4.013515, 44.012666 ], [ 4.012024, 44.00646 ], [ 4.012076, 44.005501 ], [ 4.011974, 44.004483 ], [ 4.010532, 44.001609 ], [ 4.003968, 43.996917 ], [ 4.002539, 43.9972 ], [ 4.002369, 43.997277 ], [ 4.001315, 43.999351 ], [ 4.001961, 44.000054 ], [ 4.002505, 44.007821 ], [ 3.994593, 44.011108 ], [ 3.993653, 44.01027 ], [ 3.993143, 44.009932 ], [ 3.99278, 44.009762 ], [ 3.99218, 44.009545 ], [ 3.991688, 44.009446 ], [ 3.988989, 44.008676 ], [ 3.988803, 44.008616 ], [ 3.987704, 44.012044 ], [ 3.982686, 44.016615 ], [ 3.980868, 44.019249 ], [ 3.980438, 44.022823 ], [ 3.983399, 44.027239 ], [ 3.981652, 44.032311 ], [ 3.986152, 44.024721 ], [ 3.98561, 44.023435 ], [ 3.985456, 44.022374 ], [ 3.98552, 44.01974 ], [ 3.990477, 44.014812 ], [ 3.991035, 44.014242 ], [ 3.991563, 44.013979 ], [ 3.992245, 44.013853 ], [ 3.992846, 44.013909 ], [ 3.993229, 44.014023 ], [ 3.993931, 44.014303 ], [ 4.002287, 44.016245 ], [ 4.005985, 44.011275 ], [ 4.006616, 44.007797 ], [ 4.006645, 44.007255 ], [ 4.01024, 44.007444 ], [ 4.011372, 44.01207 ], [ 4.014386, 44.015727 ], [ 4.018646, 44.019248 ], [ 4.026476, 44.022647 ], [ 4.026929, 44.022804 ], [ 4.027508, 44.02408 ], [ 4.02754, 44.024172 ], [ 4.027605, 44.024796 ], [ 4.027095, 44.025594 ], [ 4.02705, 44.02567 ], [ 4.024642, 44.02949 ], [ 4.022592, 44.030743 ], [ 4.023719, 44.038975 ], [ 4.024032, 44.03003 ], [ 4.026892, 44.028609 ], [ 4.032683, 44.026392 ] ] ], [ [ [ 3.966092, 44.028008 ], [ 3.965298, 44.027931 ], [ 3.96436, 44.028089 ], [ 3.963801, 44.028314 ], [ 3.96336, 44.028659 ], [ 3.961456, 44.029803 ], [ 3.960989, 44.030259 ], [ 3.960707, 44.030752 ], [ 3.952493, 44.032663 ], [ 3.954084, 44.03415 ], [ 3.954224, 44.034246 ], [ 3.956267, 44.03549 ], [ 3.962861, 44.030166 ], [ 3.963568, 44.029721 ], [ 3.964216, 44.029257 ], [ 3.964395, 44.029159 ], [ 3.965215, 44.028962 ], [ 3.966227, 44.029223 ], [ 3.967697, 44.030461 ], [ 3.968006, 44.030733 ], [ 3.966854, 44.028367 ], [ 3.966595, 44.028216 ], [ 3.966092, 44.028008 ] ] ], [ [ [ 3.947106, 44.028186 ], [ 3.946475, 44.028425 ], [ 3.938918, 44.031429 ], [ 3.936743, 44.026458 ], [ 3.936879, 44.025022 ], [ 3.936788, 44.024853 ], [ 3.936267, 44.0241 ], [ 3.936062, 44.024063 ], [ 3.93427, 44.024216 ], [ 3.934241, 44.024236 ], [ 3.932744, 44.028675 ], [ 3.932431, 44.031288 ], [ 3.934131, 44.03583 ], [ 3.934224, 44.036012 ], [ 3.934859, 44.036783 ], [ 3.935317, 44.037391 ], [ 3.936419, 44.037415 ], [ 3.941109, 44.037736 ], [ 3.94013, 44.037239 ], [ 3.936325, 44.035219 ], [ 3.935916, 44.035013 ], [ 3.935194, 44.034311 ], [ 3.934891, 44.033562 ], [ 3.934824, 44.032648 ], [ 3.934934, 44.032042 ], [ 3.934996, 44.031839 ], [ 3.937641, 44.031868 ], [ 3.939876, 44.032326 ], [ 3.947417, 44.029664 ], [ 3.947722, 44.029624 ], [ 3.94835, 44.029602 ], [ 3.948941, 44.029724 ], [ 3.949453, 44.029947 ], [ 3.950804, 44.031288 ], [ 3.95174, 44.032048 ], [ 3.952493, 44.032663 ], [ 3.950643, 44.028485 ], [ 3.947859, 44.028174 ], [ 3.947106, 44.028186 ] ] ], [ [ [ 3.946741, 44.047369 ], [ 3.947115, 44.047901 ], [ 3.94778, 44.048639 ], [ 3.948732, 44.046074 ], [ 3.947278, 44.039221 ], [ 3.941109, 44.037736 ], [ 3.945745, 44.039715 ], [ 3.946051, 44.046157 ], [ 3.946741, 44.047369 ] ] ], [ [ [ 3.935471, 44.059963 ], [ 3.935523, 44.060339 ], [ 3.935935, 44.061255 ], [ 3.934568, 44.069983 ], [ 3.935951, 44.069468 ], [ 3.93766992181459, 44.069814718730811 ], [ 3.93929, 44.063661 ], [ 3.940042, 44.06014 ], [ 3.940837, 44.06031 ], [ 3.94144, 44.060519 ], [ 3.942698, 44.060902 ], [ 3.938963, 44.058144 ], [ 3.93537, 44.05837 ], [ 3.935471, 44.059963 ] ] ], [ [ [ 3.934168, 44.079311 ], [ 3.934259294447055, 44.079294172421839 ], [ 3.933972941176505, 44.079327254901969 ], [ 3.934168, 44.079311 ] ] ], [ [ [ 3.93464, 44.079224 ], [ 3.934713373572395, 44.079203135477044 ], [ 3.934525905948332, 44.079245030047659 ], [ 3.93464, 44.079224 ] ] ], [ [ [ 3.935062, 44.079104 ], [ 3.935134378595361, 44.079075683946471 ], [ 3.93493403671062, 44.079140387665241 ], [ 3.935062, 44.079104 ] ] ], [ [ [ 3.935586, 44.078899 ], [ 3.935685461959379, 44.07884657816571 ], [ 3.935354956772276, 44.078989389048992 ], [ 3.935586, 44.078899 ] ] ], [ [ [ 3.94631, 44.08437 ], [ 3.945739, 44.085479 ], [ 3.945587, 44.086388 ], [ 3.949137, 44.086984 ], [ 3.950473, 44.085106 ], [ 3.958335, 44.087815 ], [ 3.958602, 44.088768 ], [ 3.958844, 44.089164 ], [ 3.95933, 44.089854 ], [ 3.959563, 44.090135 ], [ 3.962467, 44.089148 ], [ 3.970287, 44.085037 ], [ 3.974805, 44.088901 ], [ 3.978505, 44.096416 ], [ 3.982095, 44.096686 ], [ 3.986913, 44.097855 ], [ 3.990597, 44.100835 ], [ 3.993055, 44.103464 ], [ 3.996376, 44.105275 ], [ 3.996384, 44.105276 ], [ 3.997835, 44.105237 ], [ 4.003427, 44.099376 ], [ 4.004177, 44.098777 ], [ 4.002688, 44.096707 ], [ 4.00193, 44.095965 ], [ 3.998272, 44.088064 ], [ 4.000152, 44.086483 ], [ 4.006139, 44.081924 ], [ 4.006945, 44.080631 ], [ 4.005406, 44.08191 ], [ 3.997187, 44.084717 ], [ 3.996745, 44.08502 ], [ 3.996476, 44.085152 ], [ 3.992107, 44.091997 ], [ 3.993343, 44.094185 ], [ 3.994489, 44.096973 ], [ 3.99326, 44.099419 ], [ 3.992455, 44.099943 ], [ 3.992187, 44.09976 ], [ 3.98838, 44.097267 ], [ 3.982537, 44.093956 ], [ 3.981032, 44.092896 ], [ 3.980801, 44.092335 ], [ 3.979474, 44.089673 ], [ 3.978175, 44.086398 ], [ 3.973641, 44.083204 ], [ 3.96767, 44.084578 ], [ 3.966983, 44.085142 ], [ 3.96172, 44.082247 ], [ 3.957929, 44.081478 ], [ 3.951803, 44.08268 ], [ 3.950464, 44.083106 ], [ 3.949921, 44.083016 ], [ 3.948039524743398, 44.081197240585297 ], [ 3.947585, 44.082555 ], [ 3.946561, 44.083949 ], [ 3.94631, 44.08437 ] ] ], [ [ [ 4.006739, 44.078064 ], [ 4.006167, 44.077912 ], [ 4.005384, 44.077803 ], [ 4.004956, 44.077732 ], [ 4.002905, 44.077216 ], [ 4.003872, 44.077569 ], [ 4.004722, 44.07795 ], [ 4.005267, 44.078168 ], [ 4.006493, 44.078777 ], [ 4.006574, 44.078868 ], [ 4.006945, 44.080631 ], [ 4.007856, 44.07876 ], [ 4.007388, 44.078423 ], [ 4.006739, 44.078064 ] ] ] ] } },
{ "type": "Feature", "properties": { "codgeo": "30010", "value": 660, "isochrone_group": 11.0, "nb_agences": 1 }, "geometry": { "type": "MultiPolygon", "coordinates": [ [ [ [ 4.029468, 44.030282 ], [ 4.033621, 44.027469 ], [ 4.036962, 44.026128 ], [ 4.038358406824188, 44.025066700959897 ], [ 4.037531, 44.02521 ], [ 4.036766, 44.025478 ], [ 4.035794, 44.02578175 ], [ 4.035659, 44.025824 ], [ 4.035656606232301, 44.025824685552422 ], [ 4.035614, 44.025838 ], [ 4.035307707865416, 44.025924606741512 ], [ 4.034814, 44.026066 ], [ 4.034767645965277, 44.026077313899485 ], [ 4.034744, 44.026084 ], [ 4.03468806599735, 44.026096737446146 ], [ 4.034392, 44.026169 ], [ 4.034319456587661, 44.026180678202806 ], [ 4.034239, 44.026199 ], [ 4.033809334105539, 44.026262798875251 ], [ 4.033659, 44.026287 ], [ 4.03361306710177, 44.026291941551563 ], [ 4.033579, 44.026297 ], [ 4.033362152074315, 44.026318935483808 ], [ 4.032683, 44.026392 ], [ 4.026892, 44.028609 ], [ 4.024032, 44.03003 ], [ 4.023722233363165, 44.03888259605904 ], [ 4.025634732623987, 44.039418677600899 ], [ 4.025738506946224, 44.039442711404881 ], [ 4.033205, 44.038622 ], [ 4.035865, 44.03894 ], [ 4.032389, 44.03852 ], [ 4.029468, 44.030282 ] ] ], [ [ [ 4.025244, 44.014176 ], [ 4.022935, 44.013293 ], [ 4.017485, 44.013378 ], [ 4.014944, 44.005613 ], [ 4.014249, 44.002023 ], [ 4.014128, 44.001331 ], [ 4.013888, 44.000704 ], [ 4.010249, 43.998464 ], [ 4.009772, 43.998107 ], [ 4.007575, 43.996555 ], [ 4.003708, 43.990196 ], [ 4.00348, 43.989589 ], [ 4.002804, 43.988185 ], [ 4.002495, 43.987994 ], [ 4.000855, 43.988321 ], [ 3.999449, 43.989914 ], [ 3.99841, 43.994461 ], [ 3.999634, 44.001824 ], [ 3.998019, 44.005042 ], [ 3.991688, 44.009446 ], [ 3.99218, 44.009545 ], [ 3.99278, 44.009762 ], [ 3.993143, 44.009932 ], [ 3.993653, 44.01027 ], [ 3.994593, 44.011108 ], [ 4.002505, 44.007821 ], [ 4.001961, 44.000054 ], [ 4.001315, 43.999351 ], [ 4.002369, 43.997277 ], [ 4.002539, 43.9972 ], [ 4.003968, 43.996917 ], [ 4.010532, 44.001609 ], [ 4.011974, 44.004483 ], [ 4.012076, 44.005501 ], [ 4.012024, 44.00646 ], [ 4.013515, 44.012666 ], [ 4.018043, 44.014602 ], [ 4.020272, 44.014303 ], [ 4.023278, 44.016641 ], [ 4.030546, 44.020007 ], [ 4.03182, 44.019563 ], [ 4.032817, 44.019009 ], [ 4.033779120998471, 44.019477339016888 ], [ 4.035824, 44.016977 ], [ 4.035831918724639, 44.016955419497471 ], [ 4.035784, 44.016992 ], [ 4.027664, 44.016323 ], [ 4.025244, 44.014176 ] ] ], [ [ [ 3.98159, 44.002084 ], [ 3.981395, 44.001809 ], [ 3.978459, 44.003893 ], [ 3.978954, 44.004704 ], [ 3.978944, 44.013565 ], [ 3.974106, 44.020695 ], [ 3.973924, 44.020894 ], [ 3.96951, 44.028703 ], [ 3.96772, 44.02798 ], [ 3.966907, 44.02782 ], [ 3.965298, 44.027931 ], [ 3.966092, 44.028008 ], [ 3.966595, 44.028216 ], [ 3.966854, 44.028367 ], [ 3.968006, 44.030733 ], [ 3.968513, 44.032363 ], [ 3.970667, 44.039407 ], [ 3.973527, 44.040654 ], [ 3.979785, 44.035389 ], [ 3.981652, 44.032311 ], [ 3.983399, 44.027239 ], [ 3.980438, 44.022823 ], [ 3.980868, 44.019249 ], [ 3.982686, 44.016615 ], [ 3.987704, 44.012044 ], [ 3.988803, 44.008616 ], [ 3.988989, 44.008676 ], [ 3.984234, 44.004936 ], [ 3.983684, 44.004254 ], [ 3.983392, 44.003998 ], [ 3.98159, 44.002084 ] ] ], [ [ [ 3.938915, 44.023402 ], [ 3.938039, 44.022593 ], [ 3.937886, 44.022445 ], [ 3.930183, 44.020104 ], [ 3.928459, 44.023264 ], [ 3.92901, 44.030314 ], [ 3.928365, 44.033789 ], [ 3.92843, 44.033867 ], [ 3.929288, 44.034609 ], [ 3.935837, 44.040229 ], [ 3.944117, 44.040491 ], [ 3.946021925713525, 44.045544919759898 ], [ 3.945745, 44.039715 ], [ 3.941109, 44.037736 ], [ 3.936419, 44.037415 ], [ 3.935317, 44.037391 ], [ 3.934859, 44.036783 ], [ 3.934224, 44.036012 ], [ 3.934131, 44.03583 ], [ 3.932431, 44.031288 ], [ 3.932744, 44.028675 ], [ 3.934241, 44.024236 ], [ 3.93427, 44.024216 ], [ 3.936062, 44.024063 ], [ 3.936267, 44.0241 ], [ 3.936788, 44.024853 ], [ 3.936879, 44.025022 ], [ 3.936743, 44.026458 ], [ 3.938918, 44.031429 ], [ 3.946475, 44.028425 ], [ 3.947106, 44.028186 ], [ 3.947859, 44.028174 ], [ 3.950643, 44.028485 ], [ 3.952493, 44.032663 ], [ 3.960707, 44.030752 ], [ 3.960989, 44.030259 ], [ 3.961456, 44.029803 ], [ 3.954527, 44.029276 ], [ 3.952198, 44.026531 ], [ 3.944987, 44.027107 ], [ 3.938915, 44.023402 ] ] ], [ [ [ 3.936868, 44.054223 ], [ 3.935719, 44.054569 ], [ 3.934151, 44.056585 ], [ 3.9304893033399, 44.062893477397211 ], [ 3.930934, 44.062477 ], [ 3.932509, 44.061895 ], [ 3.932734, 44.062011 ], [ 3.933199, 44.062317 ], [ 3.934121, 44.062999 ], [ 3.934463, 44.063315 ], [ 3.934776, 44.063719 ], [ 3.93543432631112, 44.06445169345762 ], [ 3.935935, 44.061255 ], [ 3.935523, 44.060339 ], [ 3.935471, 44.059963 ], [ 3.93537, 44.05837 ], [ 3.938963, 44.058144 ], [ 3.942698, 44.060902 ], [ 3.943514, 44.061255 ], [ 3.940714, 44.056082 ], [ 3.940196, 44.055298 ], [ 3.939315, 44.054846 ], [ 3.936868, 44.054223 ] ] ], [ [ [ 3.929226, 44.073651 ], [ 3.9283597014706, 44.074533942113057 ], [ 3.928479, 44.074527 ], [ 3.929053, 44.074288 ], [ 3.932747, 44.069881 ], [ 3.930884888384805, 44.06515963967059 ], [ 3.929226, 44.073651 ] ] ], [ [ [ 3.96086, 44.094508 ], [ 3.96168, 44.094286 ], [ 3.963336, 44.091871 ], [ 3.96945, 44.087351 ], [ 3.972915, 44.089505 ], [ 3.973526, 44.090086 ], [ 3.975581, 44.090982 ], [ 3.977236, 44.099442 ], [ 3.97772, 44.100135 ], [ 3.978216, 44.10053 ], [ 3.978701, 44.100808 ], [ 3.985137, 44.102715 ], [ 3.985795, 44.102963 ], [ 3.992332, 44.108518 ], [ 3.992531, 44.108985 ], [ 3.99266, 44.109211 ], [ 3.994256, 44.108774 ], [ 3.995375, 44.108465 ], [ 3.999515, 44.10633 ], [ 3.999794970420254, 44.103182746310239 ], [ 3.997835, 44.105237 ], [ 3.996384, 44.105276 ], [ 3.996376, 44.105275 ], [ 3.993055, 44.103464 ], [ 3.990597, 44.100835 ], [ 3.986913, 44.097855 ], [ 3.982095, 44.096686 ], [ 3.978505, 44.096416 ], [ 3.974805, 44.088901 ], [ 3.970287, 44.085037 ], [ 3.962467, 44.089148 ], [ 3.959563, 44.090135 ], [ 3.95933, 44.089854 ], [ 3.958844, 44.089164 ], [ 3.958602, 44.088768 ], [ 3.959606, 44.093663 ], [ 3.960255, 44.094492 ], [ 3.960393, 44.094508 ], [ 3.96086, 44.094508 ] ] ], [ [ [ 4.010752, 44.10272 ], [ 4.011405, 44.102916 ], [ 4.012001, 44.103057 ], [ 4.012832, 44.099554 ], [ 4.010026, 44.097327 ], [ 4.00907, 44.09644 ], [ 4.008588, 44.096045 ], [ 4.003881, 44.088477 ], [ 4.003778, 44.085902 ], [ 4.003802806022466, 44.083702972497662 ], [ 4.000152, 44.086483 ], [ 3.998272, 44.088064 ], [ 4.00193, 44.095965 ], [ 4.002688, 44.096707 ], [ 4.004177, 44.098777 ], [ 4.003427, 44.099376 ], [ 4.00028115138354, 44.102673177886452 ], [ 4.008206, 44.101418 ], [ 4.008616, 44.101727 ], [ 4.009732, 44.102369 ], [ 4.010752, 44.10272 ] ] ] ] } },
{ "type": "Feature", "properties": { "codgeo": "30010", "value": 720, "isochrone_group": 12.0, "nb_agences": 1 }, "geometry": { "type": "MultiPolygon", "coordinates": [ [ [ [ 4.041735555270492, 44.03489285938894 ], [ 4.042022793275354, 44.034667211396524 ], [ 4.042960478182113, 44.033473303466096 ], [ 4.036076, 44.028514 ], [ 4.035497, 44.02878 ], [ 4.032036489501825, 44.028542255003934 ], [ 4.029468, 44.030282 ], [ 4.032277772312489, 44.038206308219884 ], [ 4.033872543680627, 44.038699254414809 ], [ 4.034426250489942, 44.038766157999355 ], [ 4.041735555270492, 44.03489285938894 ] ] ], [ [ [ 4.024647, 44.011767 ], [ 4.024362, 44.011606 ], [ 4.024102, 44.011457 ], [ 4.023796, 44.011334 ], [ 4.017643, 44.007549 ], [ 4.015537, 44.001345 ], [ 4.01702, 43.998314 ], [ 4.013786, 43.996732 ], [ 4.009484, 43.990894 ], [ 4.008559, 43.987415 ], [ 4.006451, 43.987205 ], [ 3.999852, 43.981759 ], [ 3.998115893351299, 43.980949221970427 ], [ 3.998032, 43.982125 ], [ 3.996147, 43.985191 ], [ 3.995934, 43.985061 ], [ 3.995537, 43.984747 ], [ 3.995224, 43.98444 ], [ 3.993723113275913, 43.982778204902544 ], [ 3.994165, 43.988315 ], [ 3.994977, 43.991684 ], [ 3.993867, 44.000253 ], [ 3.993875, 44.003165 ], [ 3.988477907524951, 44.008274005077475 ], [ 3.988989, 44.008676 ], [ 3.991688, 44.009446 ], [ 3.998019, 44.005042 ], [ 3.999634, 44.001824 ], [ 3.99841, 43.994461 ], [ 3.999449, 43.989914 ], [ 4.000855, 43.988321 ], [ 4.002495, 43.987994 ], [ 4.002804, 43.988185 ], [ 4.00348, 43.989589 ], [ 4.003708, 43.990196 ], [ 4.007575, 43.996555 ], [ 4.009772, 43.998107 ], [ 4.010249, 43.998464 ], [ 4.013888, 44.000704 ], [ 4.014128, 44.001331 ], [ 4.014249, 44.002023 ], [ 4.014944, 44.005613 ], [ 4.017485, 44.013378 ], [ 4.022935, 44.013293 ], [ 4.025244, 44.014176 ], [ 4.027664, 44.016323 ], [ 4.0301455597322, 44.016527453628193 ], [ 4.030507771978475, 44.015358141037893 ], [ 4.030252, 44.015241 ], [ 4.025182, 44.012183 ], [ 4.024984, 44.012013 ], [ 4.024647, 44.011767 ] ] ], [ [ [ 3.975853, 43.995531 ], [ 3.97568, 43.99537 ], [ 3.971213, 43.993374 ], [ 3.969293, 43.99642 ], [ 3.971315, 43.998137 ], [ 3.973587, 44.000459 ], [ 3.975838, 44.001627 ], [ 3.978245, 44.003712 ], [ 3.978954, 44.004704 ], [ 3.978459, 44.003893 ], [ 3.981387755988579, 44.001814141866426 ], [ 3.981252, 44.001633 ], [ 3.981067, 44.001436 ], [ 3.980599, 44.000989 ], [ 3.978044, 43.998783 ], [ 3.975853, 43.995531 ] ] ], [ [ [ 3.970586, 44.021268 ], [ 3.965298, 44.027931 ], [ 3.966907, 44.02782 ], [ 3.96772, 44.02798 ], [ 3.96951, 44.028703 ], [ 3.973924, 44.020894 ], [ 3.974106, 44.020695 ], [ 3.978944, 44.013565 ], [ 3.978952286819309, 44.006222049410368 ], [ 3.975272, 44.013316 ], [ 3.9746, 44.01329 ], [ 3.973752, 44.013569 ], [ 3.973327, 44.013781 ], [ 3.970586, 44.021268 ] ] ], [ [ [ 3.950269, 44.023857 ], [ 3.943853494944714, 44.026415360304711 ], [ 3.944987, 44.027107 ], [ 3.952198, 44.026531 ], [ 3.954527, 44.029276 ], [ 3.961456, 44.029803 ], [ 3.96336, 44.028659 ], [ 3.963801, 44.028314 ], [ 3.955846, 44.024486 ], [ 3.955335, 44.024467 ], [ 3.951467, 44.024036 ], [ 3.950553, 44.023844 ], [ 3.950269, 44.023857 ] ] ], [ [ [ 3.937138, 44.02131 ], [ 3.929836, 44.019958 ], [ 3.925976, 44.017195 ], [ 3.923745, 44.017031 ], [ 3.921104, 44.017021 ], [ 3.919833, 44.018759 ], [ 3.919741, 44.01988 ], [ 3.920178, 44.020233 ], [ 3.922102, 44.021554 ], [ 3.925296, 44.02234 ], [ 3.926147, 44.031139 ], [ 3.925701, 44.031656 ], [ 3.925083, 44.032992 ], [ 3.925109, 44.033674 ], [ 3.926212, 44.035043 ], [ 3.926665, 44.035203 ], [ 3.927024, 44.035338 ], [ 3.928492, 44.035909 ], [ 3.933061728428545, 44.037847411019783 ], [ 3.929288, 44.034609 ], [ 3.92843, 44.033867 ], [ 3.928365, 44.033789 ], [ 3.92901, 44.030314 ], [ 3.928459, 44.023264 ], [ 3.930183, 44.020104 ], [ 3.937886, 44.022445 ], [ 3.938039, 44.022593 ], [ 3.938915, 44.023402 ], [ 3.940548360588807, 44.024398640477855 ], [ 3.939589, 44.021343 ], [ 3.939259, 44.021265 ], [ 3.9387, 44.021198 ], [ 3.93765, 44.021277 ], [ 3.937138, 44.02131 ] ] ], [ [ [ 3.93765, 44.052833 ], [ 3.935903, 44.05319 ], [ 3.935247, 44.05447 ], [ 3.935349493165468, 44.055044080215829 ], [ 3.935719, 44.054569 ], [ 3.936868, 44.054223 ], [ 3.939315, 44.054846 ], [ 3.940196, 44.055298 ], [ 3.940714, 44.056082 ], [ 3.943514, 44.061255 ], [ 3.944419, 44.062103 ], [ 3.944911, 44.062754 ], [ 3.9471317511059, 44.063936697017553 ], [ 3.950901728677703, 44.065287378025445 ], [ 3.957343, 44.059953 ], [ 3.955934, 44.056236 ], [ 3.954168, 44.054309 ], [ 3.953194, 44.053148 ], [ 3.95236, 44.052346 ], [ 3.95187, 44.051891 ], [ 3.951063, 44.051092 ], [ 3.950018, 44.050311 ], [ 3.949026, 44.049683 ], [ 3.94778, 44.048639 ], [ 3.947115, 44.047901 ], [ 3.946741, 44.047369 ], [ 3.946339, 44.046402 ], [ 3.946325, 44.046349 ], [ 3.944117, 44.040491 ], [ 3.935837, 44.040229 ], [ 3.93491917137749, 44.039441368780217 ], [ 3.935158, 44.04207 ], [ 3.935118, 44.042385 ], [ 3.935218, 44.042715 ], [ 3.937071, 44.043873 ], [ 3.93765, 44.052833 ] ] ], [ [ [ 3.933984354555109, 44.05687210161436 ], [ 3.929212, 44.061636 ], [ 3.929756, 44.061781 ], [ 3.93094280904801, 44.062112164586601 ], [ 3.933984354555109, 44.05687210161436 ] ] ], [ [ [ 3.954558, 44.096553 ], [ 3.963287, 44.096813 ], [ 3.963934, 44.096378 ], [ 3.964565, 44.095832 ], [ 3.970444, 44.090169 ], [ 3.97199386414732, 44.088932380482923 ], [ 3.96945, 44.087351 ], [ 3.963336, 44.091871 ], [ 3.96168, 44.094286 ], [ 3.96086, 44.094508 ], [ 3.960393, 44.094508 ], [ 3.960255, 44.094492 ], [ 3.959606, 44.093663 ], [ 3.958602, 44.088768 ], [ 3.958335, 44.087815 ], [ 3.953196, 44.093017 ], [ 3.95308, 44.096615 ], [ 3.953418, 44.096626 ], [ 3.954064, 44.096601 ], [ 3.954558, 44.096553 ] ] ], [ [ [ 3.98261, 44.104541 ], [ 3.987374, 44.105129 ], [ 3.991819, 44.110394 ], [ 3.993897, 44.112842 ], [ 3.99559, 44.115486 ], [ 3.996346, 44.116588 ], [ 3.999315, 44.114552 ], [ 4.002645, 44.106451 ], [ 4.010496803989592, 44.102837446196489 ], [ 4.009785825183851, 44.102387522195642 ], [ 4.009732, 44.102369 ], [ 4.008616, 44.101727 ], [ 4.008206, 44.101418 ], [ 3.999834, 44.102744 ], [ 3.999515, 44.10633 ], [ 3.995375, 44.108465 ], [ 3.994256, 44.108774 ], [ 3.99266, 44.109211 ], [ 3.992531, 44.108985 ], [ 3.992332, 44.108518 ], [ 3.985795, 44.102963 ], [ 3.985137, 44.102715 ], [ 3.979100208830626, 44.100926286395286 ], [ 3.979633, 44.102755 ], [ 3.979984, 44.103396 ], [ 3.980758, 44.103984 ], [ 3.981703, 44.104632 ], [ 3.98261, 44.104541 ] ] ], [ [ [ 4.015393, 44.098637 ], [ 4.014487, 44.098418 ], [ 4.014006, 44.098407 ], [ 4.010026, 44.097327 ], [ 4.012305446481184, 44.099136097403282 ], [ 4.014348, 44.099367 ], [ 4.016047, 44.099548 ], [ 4.017126769929917, 44.099785201367119 ], [ 4.015822, 44.098729 ], [ 4.015393, 44.098637 ] ] ], [ [ [ 4.005994, 44.08661 ], [ 4.003807757556644, 44.083264024260529 ], [ 4.003778, 44.085902 ], [ 4.003881, 44.088477 ], [ 4.008588, 44.096045 ], [ 4.00907, 44.09644 ], [ 4.010026, 44.097327 ], [ 4.00867, 44.091055 ], [ 4.008547, 44.090763 ], [ 4.008041, 44.089961 ], [ 4.006371, 44.086893 ], [ 4.005994, 44.08661 ] ] ], [ [ [ 4.032324646383607, 44.078097971684791 ], [ 4.033386, 44.075018 ], [ 4.031932117653697, 44.078728065775813 ], [ 4.032324646383607, 44.078097971684791 ] ] ], [ [ [ 4.016256029243378, 44.10543768722183 ], [ 4.015724, 44.105202 ], [ 4.013203, 44.104473 ], [ 4.015925, 44.105301 ], [ 4.016256029243378, 44.10543768722183 ] ] ], [ [ [ 4.013165303916889, 44.104454499708297 ], [ 4.013166, 44.104455 ], [ 4.013203, 44.104473 ], [ 4.013165303916889, 44.104454499708297 ] ] ] ] } },
{ "type": "Feature", "properties": { "codgeo": "30010", "value": 780, "isochrone_group": 13.0, "nb_agences": 1 }, "geometry": { "type": "MultiPolygon", "coordinates": [ [ [ [ 4.020862, 44.003322 ], [ 4.017559, 43.997212 ], [ 4.015289, 43.990167 ], [ 4.015046, 43.986575 ], [ 4.013048, 43.986711 ], [ 4.008860190105787, 43.982690331077173 ], [ 4.005853, 43.984709 ], [ 4.005355705954486, 43.986301079501139 ], [ 4.006451, 43.987205 ], [ 4.008559, 43.987415 ], [ 4.009484, 43.990894 ], [ 4.013786, 43.996732 ], [ 4.01702, 43.998314 ], [ 4.015537, 44.001345 ], [ 4.017643, 44.007549 ], [ 4.023796, 44.011334 ], [ 4.024102, 44.011457 ], [ 4.024362, 44.011606 ], [ 4.024647, 44.011767 ], [ 4.024984, 44.012013 ], [ 4.025182, 44.012183 ], [ 4.028914484897301, 44.014434269983433 ], [ 4.03012, 44.013048 ], [ 4.02952640310738, 44.011327378002058 ], [ 4.027326, 44.010104 ], [ 4.026334, 44.009447 ], [ 4.021505, 44.004559 ], [ 4.020862, 44.003322 ] ] ], [ [ [ 3.985444, 43.984846 ], [ 3.985809, 43.98521 ], [ 3.986679, 43.985699 ], [ 3.987142, 43.985862 ], [ 3.988298, 43.986044 ], [ 3.988334584772622, 43.986050844367263 ], [ 3.98899, 43.982514 ], [ 3.990218, 43.977328 ], [ 3.989916554481897, 43.976741226907968 ], [ 3.988008, 43.982292 ], [ 3.985214, 43.984562 ], [ 3.985444, 43.984846 ] ] ], [ [ [ 3.994105086217525, 43.987564286482261 ], [ 3.992227, 43.98635 ], [ 3.990133, 43.986357 ], [ 3.994355892205061, 43.989107014579872 ], [ 3.994165, 43.988315 ], [ 3.994105086217525, 43.987564286482261 ] ] ], [ [ [ 3.993023, 44.001006 ], [ 3.988236, 44.008503 ], [ 3.993875, 44.003165 ], [ 3.993868403474877, 44.000763864855415 ], [ 3.993023, 44.001006 ] ] ], [ [ [ 3.961638, 43.995408 ], [ 3.961937, 43.995611 ], [ 3.967193, 43.99903 ], [ 3.967938, 44.002552 ], [ 3.969854, 44.005038 ], [ 3.973328, 44.004094 ], [ 3.979413, 44.005334 ], [ 3.978954, 44.004704 ], [ 3.978245, 44.003712 ], [ 3.975838, 44.001627 ], [ 3.973587, 44.000459 ], [ 3.971315, 43.998137 ], [ 3.969293, 43.99642 ], [ 3.971213, 43.993374 ], [ 3.972404196513738, 43.99390626510889 ], [ 3.970437, 43.991476 ], [ 3.969886, 43.990642 ], [ 3.960991, 43.990521 ], [ 3.960374, 43.994068 ], [ 3.961638, 43.995408 ] ] ], [ [ [ 3.960537, 44.02358 ], [ 3.957007, 44.024398 ], [ 3.950064, 44.022454 ], [ 3.949198, 44.021905 ], [ 3.948052, 44.021411 ], [ 3.947626, 44.021308 ], [ 3.946941, 44.021301 ], [ 3.941044, 44.021173 ], [ 3.934712, 44.017145 ], [ 3.933206, 44.014286 ], [ 3.9327, 44.013707 ], [ 3.93196, 44.013144 ], [ 3.930089, 44.014716 ], [ 3.92195, 44.015775 ], [ 3.921009, 44.01524 ], [ 3.916237, 44.01343 ], [ 3.915441, 44.013344 ], [ 3.914299, 44.013796 ], [ 3.913355, 44.01501 ], [ 3.913324, 44.015063 ], [ 3.913327, 44.015152 ], [ 3.914459, 44.023061 ], [ 3.9148, 44.023504 ], [ 3.915261, 44.023946 ], [ 3.916732, 44.024343 ], [ 3.917214, 44.024234 ], [ 3.918127, 44.023623 ], [ 3.9216, 44.022836 ], [ 3.925296, 44.02234 ], [ 3.922102, 44.021554 ], [ 3.920178, 44.020233 ], [ 3.919741, 44.01988 ], [ 3.919833, 44.018759 ], [ 3.921104, 44.017021 ], [ 3.923745, 44.017031 ], [ 3.925976, 44.017195 ], [ 3.929836, 44.019958 ], [ 3.937138, 44.02131 ], [ 3.93765, 44.021277 ], [ 3.9387, 44.021198 ], [ 3.939259, 44.021265 ], [ 3.939589, 44.021343 ], [ 3.940648, 44.024716 ], [ 3.942415, 44.026989 ], [ 3.950269, 44.023857 ], [ 3.950553, 44.023844 ], [ 3.951467, 44.024036 ], [ 3.955335, 44.024467 ], [ 3.955846, 44.024486 ], [ 3.963801, 44.028314 ], [ 3.96436, 44.028089 ], [ 3.965298, 44.027931 ], [ 3.970586, 44.021268 ], [ 3.973327, 44.013781 ], [ 3.973752, 44.013569 ], [ 3.971024, 44.014801 ], [ 3.97016, 44.015471 ], [ 3.966498, 44.021035 ], [ 3.961148, 44.023468 ], [ 3.960537, 44.02358 ] ] ], [ [ [ 3.926422, 44.038186 ], [ 3.926463, 44.038151 ], [ 3.928377, 44.036941 ], [ 3.934513, 44.042418 ], [ 3.934268, 44.043223 ], [ 3.934313, 44.043952 ], [ 3.934456, 44.044392 ], [ 3.934818, 44.044995 ], [ 3.935241, 44.045653 ], [ 3.935908, 44.046711 ], [ 3.935903, 44.05319 ], [ 3.93765, 44.052833 ], [ 3.937071, 44.043873 ], [ 3.935218, 44.042715 ], [ 3.935118, 44.042385 ], [ 3.935158, 44.04207 ], [ 3.934843, 44.038603 ], [ 3.928492, 44.035909 ], [ 3.927024, 44.035338 ], [ 3.926665, 44.035203 ], [ 3.926212, 44.035043 ], [ 3.925109, 44.033674 ], [ 3.925083, 44.032992 ], [ 3.924058, 44.035258 ], [ 3.924635, 44.038057 ], [ 3.925109, 44.038701 ], [ 3.925478, 44.038588 ], [ 3.926422, 44.038186 ] ] ], [ [ [ 3.908207, 44.058046 ], [ 3.908206885192911, 44.058046222656188 ], [ 3.910041, 44.058992 ], [ 3.908207, 44.058046 ] ] ], [ [ [ 3.919932, 44.097205 ], [ 3.919989756529165, 44.097118491312216 ], [ 3.919888728234574, 44.097252920798063 ], [ 3.919932, 44.097205 ] ] ], [ [ [ 3.920161, 44.096862 ], [ 3.920219319314771, 44.09673469851068 ], [ 3.920085341866316, 44.096975322008113 ], [ 3.920161, 44.096862 ] ] ], [ [ [ 3.920429, 44.096277 ], [ 3.92048043932788, 44.096082882244417 ], [ 3.920350984034111, 44.096447296044964 ], [ 3.920429, 44.096277 ] ] ], [ [ [ 3.920566, 44.09576 ], [ 3.920572963282937, 44.095670869978399 ], [ 3.920546904932775, 44.095832059487265 ], [ 3.920566, 44.09576 ] ] ], [ [ [ 3.947291, 44.094406 ], [ 3.946691, 44.095095 ], [ 3.945829, 44.096567 ], [ 3.945258, 44.098154 ], [ 3.94531, 44.098518 ], [ 3.946041, 44.09991 ], [ 3.948468, 44.100357 ], [ 3.953527, 44.097793 ], [ 3.958017, 44.097991 ], [ 3.965569, 44.097611 ], [ 3.965769, 44.097316 ], [ 3.965936, 44.09553 ], [ 3.970444, 44.090169 ], [ 3.964565, 44.095832 ], [ 3.963934, 44.096378 ], [ 3.963287, 44.096813 ], [ 3.954558, 44.096553 ], [ 3.954064, 44.096601 ], [ 3.953418, 44.096626 ], [ 3.95308, 44.096615 ], [ 3.953196, 44.093017 ], [ 3.953196324416675, 44.09301667160625 ], [ 3.95042, 44.092787 ], [ 3.949596, 44.093006 ], [ 3.949352, 44.093126 ], [ 3.948821, 44.093418 ], [ 3.947291, 44.094406 ] ] ], [ [ [ 3.975042, 44.109053 ], [ 3.975361, 44.109063 ], [ 3.975734, 44.108762 ], [ 3.977571, 44.107667 ], [ 3.978076, 44.107427 ], [ 3.978865, 44.107007 ], [ 3.98714, 44.108046 ], [ 3.988944, 44.111161 ], [ 3.99559, 44.115486 ], [ 3.993897, 44.112842 ], [ 3.991819, 44.110394 ], [ 3.987374, 44.105129 ], [ 3.98261, 44.104541 ], [ 3.981703, 44.104632 ], [ 3.980758, 44.103984 ], [ 3.979984, 44.103396 ], [ 3.979633, 44.102755 ], [ 3.978606, 44.09923 ], [ 3.974724, 44.105046 ], [ 3.973707, 44.105683 ], [ 3.973313, 44.106029 ], [ 3.972843, 44.10649 ], [ 3.975042, 44.109053 ] ] ], [ [ [ 4.001212, 44.121615 ], [ 4.001905, 44.121676 ], [ 4.00242, 44.121582 ], [ 4.0033, 44.120111 ], [ 4.003449, 44.119092 ], [ 4.002841, 44.117895 ], [ 3.999988, 44.113031 ], [ 4.002848529399232, 44.106357331788764 ], [ 4.002645, 44.106451 ], [ 3.999315, 44.114552 ], [ 3.996346, 44.116588 ], [ 3.99559, 44.115486 ], [ 3.996965, 44.118995 ], [ 3.997356, 44.119664 ], [ 3.998911, 44.121341 ], [ 3.999048, 44.121373 ], [ 4.001212, 44.121615 ] ] ], [ [ [ 4.010977430299647, 44.105063189372544 ], [ 4.0109, 44.105022 ], [ 4.00947460601073, 44.103307881703962 ], [ 4.004688319593105, 44.105510624349101 ], [ 4.010977430299647, 44.105063189372544 ] ] ], [ [ [ 4.009225, 44.091682 ], [ 4.007746, 44.086327 ], [ 4.007701, 44.085779 ], [ 4.007268, 44.085054 ], [ 4.003872, 44.077569 ], [ 4.002154, 44.080733 ], [ 4.005994, 44.08661 ], [ 4.006371, 44.086893 ], [ 4.008041, 44.089961 ], [ 4.008547, 44.090763 ], [ 4.00867, 44.091055 ], [ 4.009823470567926, 44.096390226697658 ], [ 4.011348, 44.096885 ], [ 4.013282738974045, 44.097122302716663 ], [ 4.01075, 44.093937 ], [ 4.01038, 44.093376 ], [ 4.009225, 44.091682 ] ] ], [ [ [ 4.030187206155943, 44.081529028712595 ], [ 4.030816530133114, 44.080518826683694 ], [ 4.033386, 44.075018 ], [ 4.032934881406059, 44.074507191962304 ], [ 4.030187206155943, 44.081529028712595 ] ] ], [ [ [ 4.029456666922062, 44.082701703269798 ], [ 4.029797877203388, 44.082153986464185 ], [ 4.029350378715292, 44.082728858577333 ], [ 4.029456666922062, 44.082701703269798 ] ] ], [ [ [ 4.013509, 44.106509 ], [ 4.013878505196863, 44.106548789870303 ], [ 4.013734, 44.106459 ], [ 4.013607, 44.106462 ], [ 4.013179871287596, 44.106234787090564 ], [ 4.013509, 44.106509 ] ] ] ] } },
{ "type": "Feature", "properties": { "codgeo": "30010", "value": 840, "isochrone_group": 14.0, "nb_agences": 1 }, "geometry": { "type": "MultiPolygon", "coordinates": [ [ [ [ 4.015206275444183, 43.988944174467079 ], [ 4.015289, 43.990167 ], [ 4.017559, 43.997212 ], [ 4.020862, 44.003322 ], [ 4.021505, 44.004559 ], [ 4.026015354394181, 44.009124461229824 ], [ 4.026706, 44.007755 ], [ 4.030294, 44.007452 ], [ 4.030380236043154, 44.007407581037207 ], [ 4.025908, 44.004171 ], [ 4.025085, 44.000666 ], [ 4.019552, 43.994375 ], [ 4.021188801801268, 43.991327285802669 ], [ 4.018556, 43.990412 ], [ 4.015206275444183, 43.988944174467079 ] ] ], [ [ [ 3.983824, 43.981731 ], [ 3.984731, 43.981617 ], [ 3.985881, 43.981534 ], [ 3.986838226301846, 43.977559710855736 ], [ 3.983824, 43.981731 ] ] ], [ [ [ 3.958099, 43.988238 ], [ 3.957247, 43.988461 ], [ 3.956378, 43.988835 ], [ 3.95571, 43.991716 ], [ 3.959246, 43.997428 ], [ 3.961373, 44.002515 ], [ 3.961478, 44.002723 ], [ 3.961965, 44.003562 ], [ 3.966609, 44.007699 ], [ 3.967436, 44.009222 ], [ 3.968142, 44.009562 ], [ 3.968927, 44.009909 ], [ 3.972090870114233, 44.01431918769034 ], [ 3.973752, 44.013569 ], [ 3.9746, 44.01329 ], [ 3.975272, 44.013316 ], [ 3.979413, 44.005334 ], [ 3.973328, 44.004094 ], [ 3.969854, 44.005038 ], [ 3.967938, 44.002552 ], [ 3.967193, 43.99903 ], [ 3.961937, 43.995611 ], [ 3.961638, 43.995408 ], [ 3.960374, 43.994068 ], [ 3.960991, 43.990521 ], [ 3.969886, 43.990642 ], [ 3.970437, 43.991476 ], [ 3.972765, 43.994352 ], [ 3.974562, 43.995437 ], [ 3.974802, 43.995592 ], [ 3.975152, 43.995884 ], [ 3.977451, 43.998338 ], [ 3.978044, 43.998783 ], [ 3.980599, 44.000989 ], [ 3.981067, 44.001436 ], [ 3.981252, 44.001633 ], [ 3.98159, 44.002084 ], [ 3.983392, 44.003998 ], [ 3.983684, 44.004254 ], [ 3.984234, 44.004936 ], [ 3.984548, 44.005467 ], [ 3.988236, 44.008503 ], [ 3.993023, 44.001006 ], [ 3.996291, 44.00007 ], [ 3.997290712221819, 43.993172374662556 ], [ 3.996019, 43.991383 ], [ 3.989645, 43.986296 ], [ 3.988298, 43.986044 ], [ 3.987142, 43.985862 ], [ 3.980601, 43.986394 ], [ 3.97957, 43.982945 ], [ 3.981848, 43.982265 ], [ 3.978053, 43.983153 ], [ 3.976703, 43.984166 ], [ 3.970969, 43.986554 ], [ 3.966534, 43.985997 ], [ 3.958099, 43.988238 ] ] ], [ [ [ 3.937552, 44.010729 ], [ 3.936005, 44.008644 ], [ 3.934307, 44.007268 ], [ 3.930976, 44.008635 ], [ 3.929304, 44.012127 ], [ 3.92327, 44.014155 ], [ 3.919384, 44.012873 ], [ 3.916741, 44.010428 ], [ 3.915566, 44.01095 ], [ 3.907541, 44.012119 ], [ 3.904874, 44.014536 ], [ 3.904875, 44.014537 ], [ 3.90987, 44.020605 ], [ 3.908512, 44.024011 ], [ 3.90792, 44.024726 ], [ 3.907651, 44.025576 ], [ 3.907731254237634, 44.025943732103784 ], [ 3.909113, 44.026342 ], [ 3.909217, 44.026686 ], [ 3.908317458849494, 44.027257574472685 ], [ 3.909242, 44.02831 ], [ 3.909646, 44.028296 ], [ 3.910564, 44.028012 ], [ 3.913859, 44.025554 ], [ 3.914502, 44.0252 ], [ 3.916732, 44.024343 ], [ 3.915261, 44.023946 ], [ 3.9148, 44.023504 ], [ 3.914459, 44.023061 ], [ 3.913327, 44.015152 ], [ 3.913324, 44.015063 ], [ 3.913355, 44.01501 ], [ 3.914299, 44.013796 ], [ 3.915441, 44.013344 ], [ 3.916237, 44.01343 ], [ 3.921009, 44.01524 ], [ 3.92195, 44.015775 ], [ 3.930089, 44.014716 ], [ 3.93196, 44.013144 ], [ 3.9327, 44.013707 ], [ 3.933206, 44.014286 ], [ 3.934712, 44.017145 ], [ 3.941044, 44.021173 ], [ 3.946941, 44.021301 ], [ 3.947626, 44.021308 ], [ 3.94401, 44.020087 ], [ 3.942946, 44.019597 ], [ 3.942344, 44.01938 ], [ 3.942091, 44.019306 ], [ 3.9355, 44.016367 ], [ 3.937099, 44.011811 ], [ 3.937156, 44.011642 ], [ 3.937552, 44.010729 ] ] ], [ [ [ 3.9216, 44.022836 ], [ 3.918127, 44.023623 ], [ 3.925296, 44.02234 ], [ 3.9216, 44.022836 ] ] ], [ [ [ 3.920505, 44.039137 ], [ 3.922085, 44.040873 ], [ 3.92305, 44.049668 ], [ 3.923568, 44.049328 ], [ 3.923862, 44.049242 ], [ 3.925344, 44.049131 ], [ 3.925409, 44.049153 ], [ 3.925897, 44.049874 ], [ 3.926065, 44.050297 ], [ 3.926029, 44.051531 ], [ 3.925316, 44.054474 ], [ 3.925666, 44.056763 ], [ 3.926005499987655, 44.05784550405901 ], [ 3.926752755864348, 44.058728856735307 ], [ 3.935219661423505, 44.058169178327475 ], [ 3.935303628263576, 44.058120723855701 ], [ 3.935379529594619, 44.057537112780849 ], [ 3.93542, 44.055439 ], [ 3.935247, 44.05447 ], [ 3.935903, 44.05319 ], [ 3.935908, 44.046711 ], [ 3.935241, 44.045653 ], [ 3.934818, 44.044995 ], [ 3.934456, 44.044392 ], [ 3.934313, 44.043952 ], [ 3.934268, 44.043223 ], [ 3.934513, 44.042418 ], [ 3.928377, 44.036941 ], [ 3.926463, 44.038151 ], [ 3.926422, 44.038186 ], [ 3.925478, 44.038588 ], [ 3.925109, 44.038701 ], [ 3.924635, 44.038057 ], [ 3.924058, 44.035258 ], [ 3.925083, 44.032992 ], [ 3.925701, 44.031656 ], [ 3.923489, 44.033206 ], [ 3.920605, 44.035144 ], [ 3.919984, 44.035358 ], [ 3.919295, 44.035838 ], [ 3.918865, 44.036299 ], [ 3.919407, 44.037505 ], [ 3.9197, 44.038278 ], [ 3.920505, 44.039137 ] ] ], [ [ [ 3.900576987655028, 44.054647414095996 ], [ 3.900576987655028, 44.054647414095996 ], [ 3.900658, 44.054801 ], [ 3.900576987655028, 44.054647414095996 ] ] ], [ [ [ 3.901372, 44.055352 ], [ 3.900658, 44.054801 ], [ 3.903146668261546, 44.057862908636359 ], [ 3.903382, 44.057586 ], [ 3.901372, 44.055352 ] ] ], [ [ [ 3.950724, 44.10505 ], [ 3.954924, 44.099491 ], [ 3.959206411518006, 44.097931151433151 ], [ 3.958017, 44.097991 ], [ 3.953527, 44.097793 ], [ 3.948468, 44.100357 ], [ 3.946041, 44.09991 ], [ 3.94531, 44.098518 ], [ 3.945258, 44.098154 ], [ 3.945829, 44.096567 ], [ 3.946691, 44.095095 ], [ 3.947291, 44.094406 ], [ 3.948821, 44.093418 ], [ 3.944914, 44.095237 ], [ 3.943229, 44.09841 ], [ 3.942643, 44.099432 ], [ 3.942304, 44.100482 ], [ 3.943984, 44.102334 ], [ 3.946817, 44.104894 ], [ 3.947124, 44.105095 ], [ 3.950724, 44.10505 ] ] ], [ [ [ 3.96815, 44.112311 ], [ 3.968125, 44.112528 ], [ 3.971281, 44.113525 ], [ 3.972616, 44.113848 ], [ 3.973302, 44.113885 ], [ 3.97389, 44.113745 ], [ 3.974829, 44.112975 ], [ 3.983807, 44.112742 ], [ 3.991775, 44.113662 ], [ 3.996965, 44.118995 ], [ 3.99559, 44.115486 ], [ 3.988944, 44.111161 ], [ 3.98714, 44.108046 ], [ 3.978865, 44.107007 ], [ 3.978076, 44.107427 ], [ 3.977571, 44.107667 ], [ 3.975734, 44.108762 ], [ 3.975361, 44.109063 ], [ 3.975042, 44.109053 ], [ 3.972856324887, 44.10650553055271 ], [ 3.972623, 44.106749 ], [ 3.972237, 44.107305 ], [ 3.971799, 44.107986 ], [ 3.969251, 44.110487 ], [ 3.968846, 44.11082 ], [ 3.96838, 44.111491 ], [ 3.968236, 44.111901 ], [ 3.96815, 44.112311 ] ] ], [ [ [ 3.999904, 44.122564 ], [ 4.000751788689022, 44.122550352056685 ], [ 4.000286, 44.122293 ], [ 4.000069437667382, 44.121487227317722 ], [ 3.999048, 44.121373 ], [ 3.998911, 44.121341 ], [ 3.997356, 44.119664 ], [ 3.999904, 44.122564 ] ] ], [ [ [ 3.999988, 44.113031 ], [ 4.002138836938092, 44.116697901811037 ], [ 4.004156, 44.116288 ], [ 4.004712087630713, 44.116058028533388 ], [ 4.002029, 44.111381 ], [ 4.00824557770418, 44.109146008913676 ], [ 4.008853, 44.107305 ], [ 4.008180467473801, 44.105262177600757 ], [ 4.003165, 44.105619 ], [ 3.999988, 44.113031 ] ] ], [ [ [ 4.026597461151807, 44.094293624438322 ], [ 4.023614567151533, 44.093937276378831 ], [ 4.023674, 44.094067 ], [ 4.023938, 44.094782 ], [ 4.026006078563974, 44.095214455351886 ], [ 4.026597461151807, 44.094293624438322 ] ] ], [ [ [ 4.029797877203388, 44.082153986464185 ], [ 4.030187206155943, 44.081529028712595 ], [ 4.032873309240205, 44.074664543052805 ], [ 4.030221, 44.072836 ], [ 4.030006718223778, 44.072669593935814 ], [ 4.02545, 44.070562 ], [ 4.023915, 44.070184 ], [ 4.023403, 44.070094 ], [ 4.022746, 44.069867 ], [ 4.02137, 44.069237 ], [ 4.01958, 44.068658 ], [ 4.019515589785184, 44.068627175111487 ], [ 4.019446, 44.068603 ], [ 4.019360737191283, 44.068553067084387 ], [ 4.01916, 44.068457 ], [ 4.01879248401943, 44.068220277934024 ], [ 4.018722, 44.068179 ], [ 4.018567274797594, 44.068075217596295 ], [ 4.017682, 44.067505 ], [ 4.017658118103268, 44.067465397957193 ], [ 4.01758, 44.067413 ], [ 4.015505, 44.063895 ], [ 4.009496, 44.06365 ], [ 4.009117678611029, 44.063750697213628 ], [ 4.006564, 44.065594 ], [ 4.006321, 44.065258 ], [ 4.003009875839855, 44.061639606204309 ], [ 4.000343, 44.060982 ], [ 3.998565048062635, 44.058889557733998 ], [ 3.995439, 44.057156 ], [ 3.988125, 44.060159 ], [ 3.990164, 44.068402 ], [ 3.990833, 44.068877 ], [ 3.992217, 44.069531 ], [ 3.992992, 44.069808 ], [ 3.993348, 44.070046 ], [ 3.993642, 44.070306 ], [ 3.995213, 44.071858 ], [ 3.996341, 44.072892 ], [ 3.996953, 44.073532 ], [ 3.997688, 44.074303 ], [ 4.00108, 44.076641 ], [ 4.002186, 44.076946 ], [ 4.002905, 44.077216 ], [ 4.003872, 44.077569 ], [ 4.007268, 44.085054 ], [ 4.007701, 44.085779 ], [ 4.007746, 44.086327 ], [ 4.009225, 44.091682 ], [ 4.01038, 44.093376 ], [ 4.010448544655276, 44.093479928517866 ], [ 4.018867, 44.094075 ], [ 4.019573494182001, 44.093883058249489 ], [ 4.019547, 44.093871 ], [ 4.018823, 44.093138 ], [ 4.017782, 44.090672 ], [ 4.017585, 44.08979 ], [ 4.0176, 44.089056 ], [ 4.017796, 44.088371 ], [ 4.018287, 44.087594 ], [ 4.019197, 44.086305 ], [ 4.022473, 44.086429 ], [ 4.025487988300231, 44.085564599209263 ], [ 4.024967, 44.084525 ], [ 4.027865, 44.082388 ], [ 4.029665836750313, 44.082323610220001 ], [ 4.029797877203388, 44.082153986464185 ] ] ] ] } },
{ "type": "Feature", "properties": { "codgeo": "30010", "value": 900, "isochrone_group": 15.0, "nb_agences": 1 }, "geometry": { "type": "MultiPolygon", "coordinates": [ [ [ [ 4.02765326073329, 43.999343913066966 ], [ 4.02756, 43.99936 ], [ 4.027092, 43.999501 ], [ 4.023819915821947, 43.999227604091068 ], [ 4.025085, 44.000666 ], [ 4.025732363493148, 44.003422997622707 ], [ 4.028135, 44.002556 ], [ 4.02765326073329, 43.999343913066966 ] ] ], [ [ [ 4.020736, 43.994682 ], [ 4.020170200843834, 43.995077892013107 ], [ 4.022750042077174, 43.998011161703872 ], [ 4.022167205000303, 43.99448609897091 ], [ 4.020736, 43.994682 ] ] ], [ [ [ 3.975836, 43.982624 ], [ 3.96982055024749, 43.986409764033318 ], [ 3.970969, 43.986554 ], [ 3.973680302763059, 43.98542484216982 ], [ 3.976398, 43.982807 ], [ 3.977011, 43.982815 ], [ 3.975836, 43.982624 ] ] ], [ [ [ 3.944382, 44.008257 ], [ 3.943808, 44.008118 ], [ 3.943186, 44.008065 ], [ 3.94279, 44.008075 ], [ 3.941167, 44.008316 ], [ 3.940288, 44.008417 ], [ 3.933665, 44.003336 ], [ 3.933657, 44.003536 ], [ 3.931484, 44.005024 ], [ 3.931389, 44.005003 ], [ 3.930325, 44.004178 ], [ 3.929712, 44.003425 ], [ 3.929298105259014, 44.002813819926452 ], [ 3.928961, 44.004052 ], [ 3.929282, 44.005409 ], [ 3.928614614102608, 44.012358699469658 ], [ 3.929304, 44.012127 ], [ 3.930976, 44.008635 ], [ 3.934307, 44.007268 ], [ 3.936005, 44.008644 ], [ 3.937552, 44.010729 ], [ 3.937156, 44.011642 ], [ 3.937099, 44.011811 ], [ 3.9355, 44.016367 ], [ 3.942091, 44.019306 ], [ 3.942344, 44.01938 ], [ 3.942946, 44.019597 ], [ 3.94401, 44.020087 ], [ 3.947626, 44.021308 ], [ 3.948052, 44.021411 ], [ 3.949198, 44.021905 ], [ 3.950064, 44.022454 ], [ 3.957007, 44.024398 ], [ 3.960537, 44.02358 ], [ 3.961148, 44.023468 ], [ 3.966498, 44.021035 ], [ 3.967059, 44.020796 ], [ 3.968355, 44.020552 ], [ 3.972382, 44.014725 ], [ 3.968927, 44.009909 ], [ 3.968142, 44.009562 ], [ 3.967436, 44.009222 ], [ 3.966609, 44.007699 ], [ 3.961965, 44.003562 ], [ 3.961478, 44.002723 ], [ 3.961373, 44.002515 ], [ 3.959246, 43.997428 ], [ 3.956826699238394, 43.993519898769705 ], [ 3.954071661815009, 43.994084912221652 ], [ 3.954645, 44.001508 ], [ 3.953074, 44.004848 ], [ 3.946733, 44.008619 ], [ 3.944382, 44.008257 ] ] ], [ [ [ 3.958063041111288, 43.98555495049505 ], [ 3.959394833934307, 43.987893724499493 ], [ 3.966534, 43.985997 ], [ 3.966664994939591, 43.986013451901123 ], [ 3.96375, 43.983627 ], [ 3.958063041111288, 43.98555495049505 ] ] ], [ [ [ 3.904432, 44.016444 ], [ 3.901388, 44.024032 ], [ 3.899169, 44.023986 ], [ 3.899156060422215, 44.024598757111129 ], [ 3.902483, 44.024431 ], [ 3.908193280678825, 44.024395939720677 ], [ 3.908512, 44.024011 ], [ 3.90987, 44.020605 ], [ 3.904875, 44.014537 ], [ 3.904874, 44.014536 ], [ 3.907541, 44.012119 ], [ 3.909716474789246, 44.011802099061853 ], [ 3.905473, 44.009058 ], [ 3.905044, 44.008749 ], [ 3.904259, 44.008306 ], [ 3.903462, 44.007806 ], [ 3.901549, 44.010856 ], [ 3.902159, 44.013828 ], [ 3.9026, 44.014412 ], [ 3.903305, 44.015201 ], [ 3.904432, 44.016444 ] ] ], [ [ [ 3.907903350291673, 44.028924338258506 ], [ 3.908241, 44.02899 ], [ 3.90914, 44.028655 ], [ 3.910564, 44.028012 ], [ 3.909646, 44.028296 ], [ 3.909242, 44.02831 ], [ 3.90871101861077, 44.027705572205463 ], [ 3.907955, 44.028532 ], [ 3.907903350291673, 44.028924338258506 ] ] ], [ [ [ 3.9197, 44.038278 ], [ 3.919407, 44.037505 ], [ 3.918865, 44.036299 ], [ 3.919295, 44.035838 ], [ 3.919984, 44.035358 ], [ 3.920605, 44.035144 ], [ 3.923489, 44.033206 ], [ 3.925701, 44.031656 ], [ 3.926147, 44.031139 ], [ 3.925296, 44.02234 ], [ 3.918127, 44.023623 ], [ 3.917214, 44.024234 ], [ 3.916732, 44.024343 ], [ 3.914502, 44.0252 ], [ 3.913859, 44.025554 ], [ 3.910564, 44.028012 ], [ 3.915924, 44.034882 ], [ 3.913774, 44.03777 ], [ 3.914551, 44.038349 ], [ 3.915128, 44.038662 ], [ 3.915949, 44.038858 ], [ 3.920005969198466, 44.046868939178935 ], [ 3.920005, 44.046861 ], [ 3.921948, 44.045516 ], [ 3.922550017775909, 44.045111167190797 ], [ 3.922085, 44.040873 ], [ 3.920505, 44.039137 ], [ 3.9197, 44.038278 ] ] ], [ [ [ 3.96206, 44.111336 ], [ 3.962013, 44.111631 ], [ 3.968656, 44.114524 ], [ 3.969303, 44.114725 ], [ 3.969829, 44.114739 ], [ 3.978585, 44.116041 ], [ 3.978968, 44.11604 ], [ 3.979448, 44.116004 ], [ 3.980409, 44.115767 ], [ 3.980715, 44.115661 ], [ 3.981548, 44.11527 ], [ 3.982002, 44.115065 ], [ 3.982418, 44.114785 ], [ 3.982823, 44.114364 ], [ 3.991548, 44.114552 ], [ 3.991956, 44.115988 ], [ 3.993396, 44.119797 ], [ 3.993953, 44.120162 ], [ 3.995902, 44.121416 ], [ 3.995062, 44.120797 ], [ 3.994898, 44.120594 ], [ 3.994770228879728, 44.11673975638066 ], [ 3.991775, 44.113662 ], [ 3.983807, 44.112742 ], [ 3.974829, 44.112975 ], [ 3.97389, 44.113745 ], [ 3.973302, 44.113885 ], [ 3.972616, 44.113848 ], [ 3.971281, 44.113525 ], [ 3.968125, 44.112528 ], [ 3.96815, 44.112311 ], [ 3.968236, 44.111901 ], [ 3.96838, 44.111491 ], [ 3.968846, 44.11082 ], [ 3.969251, 44.110487 ], [ 3.971799, 44.107986 ], [ 3.972237, 44.107305 ], [ 3.972623, 44.106749 ], [ 3.973313, 44.106029 ], [ 3.973707, 44.105683 ], [ 3.974724, 44.105046 ], [ 3.978606, 44.09923 ], [ 3.978692, 44.098547 ], [ 3.978543, 44.095919 ], [ 3.978909, 44.094631 ], [ 3.978931, 44.094465 ], [ 3.973002, 44.088128 ], [ 3.970444, 44.090169 ], [ 3.965936, 44.09553 ], [ 3.965769, 44.097316 ], [ 3.965569, 44.097611 ], [ 3.962537, 44.096718 ], [ 3.954924, 44.099491 ], [ 3.950724, 44.10505 ], [ 3.947124, 44.105095 ], [ 3.946817, 44.104894 ], [ 3.943984, 44.102334 ], [ 3.943486307190608, 44.101785352926782 ], [ 3.943315, 44.104098 ], [ 3.943301, 44.104875 ], [ 3.943521, 44.105552 ], [ 3.943689312136373, 44.106887499422989 ], [ 3.947056, 44.105422 ], [ 3.950546, 44.106306 ], [ 3.950585086381684, 44.107220301325945 ], [ 3.957157, 44.103483 ], [ 3.962543, 44.110326 ], [ 3.96206, 44.111336 ] ] ] ] } },
{ "type": "Feature", "properties": { "codgeo": "30010", "value": 960, "isochrone_group": 16.0, "nb_agences": 1 }, "geometry": { "type": "MultiPolygon", "coordinates": [ [ [ [ 3.980841808233821, 43.96978186116781 ], [ 3.980654, 43.971175 ], [ 3.980909, 43.971209 ], [ 3.987955, 43.972923 ], [ 3.987178, 43.972048 ], [ 3.983651, 43.970497 ], [ 3.980841808233821, 43.96978186116781 ] ] ], [ [ [ 3.959482, 43.980063 ], [ 3.959134, 43.980062 ], [ 3.959056, 43.980071 ], [ 3.958952001456688, 43.980088874749626 ], [ 3.960598, 43.982627 ], [ 3.962078968939331, 43.984193500518764 ], [ 3.96375, 43.983627 ], [ 3.966844, 43.98616 ], [ 3.967317610839086, 43.986291817296376 ], [ 3.968972, 43.984962 ], [ 3.971859546150873, 43.983347543582163 ], [ 3.964093, 43.983809 ], [ 3.962772, 43.982188 ], [ 3.962464, 43.981886 ], [ 3.961041, 43.980528 ], [ 3.960654, 43.980107 ], [ 3.959482, 43.980063 ] ] ], [ [ [ 3.974327, 43.981328 ], [ 3.973504990084805, 43.982427559145378 ], [ 3.973692, 43.982323 ], [ 3.975801946157393, 43.982645431450337 ], [ 3.975836, 43.982624 ], [ 3.977011, 43.982815 ], [ 3.977574, 43.982893 ], [ 3.981848, 43.982265 ], [ 3.974543, 43.981197 ], [ 3.974327, 43.981328 ] ] ], [ [ [ 3.946733, 44.008619 ], [ 3.953074, 44.004848 ], [ 3.954645, 44.001508 ], [ 3.954484095074505, 43.999424741955828 ], [ 3.95439, 43.999473 ], [ 3.952757517234078, 43.999111806077934 ], [ 3.952758, 43.999774 ], [ 3.952427, 44.00008 ], [ 3.952261, 44.000399 ], [ 3.951959, 44.001093 ], [ 3.948726, 44.005614 ], [ 3.943186, 44.008065 ], [ 3.943808, 44.008118 ], [ 3.944382, 44.008257 ], [ 3.946733, 44.008619 ] ] ], [ [ [ 3.936187, 44.004257 ], [ 3.935982, 44.000662 ], [ 3.933288152242396, 43.995257121898092 ], [ 3.933162, 43.996904 ], [ 3.933567, 43.999534 ], [ 3.933872, 44.001104 ], [ 3.934017199748511, 44.00360619884075 ], [ 3.940288, 44.008417 ], [ 3.941167, 44.008316 ], [ 3.94279, 44.008075 ], [ 3.936187, 44.004257 ] ] ], [ [ [ 3.899772, 44.011102 ], [ 3.902010751023995, 44.013105711546416 ], [ 3.901675457151439, 44.011472115826344 ], [ 3.900492, 44.011243 ], [ 3.899772, 44.011102 ] ] ], [ [ [ 3.889858985910396, 44.02567163007064 ], [ 3.890707, 44.025572 ], [ 3.891802, 44.025443 ], [ 3.892091, 44.025407 ], [ 3.895222, 44.024798 ], [ 3.895423, 44.024734 ], [ 3.895641, 44.024776 ], [ 3.899156060422215, 44.024598757111129 ], [ 3.899169, 44.023986 ], [ 3.901388, 44.024032 ], [ 3.902823136706868, 44.020454530442933 ], [ 3.899021, 44.023994 ], [ 3.897996, 44.023864 ], [ 3.896762, 44.023596 ], [ 3.895589, 44.023118 ], [ 3.894749, 44.023242 ], [ 3.891858, 44.023802 ], [ 3.891616, 44.023834 ], [ 3.88967, 44.024063 ], [ 3.889858985910396, 44.02567163007064 ] ] ], [ [ [ 3.915999, 44.056848 ], [ 3.915697844883609, 44.057166441965983 ], [ 3.915698660047044, 44.057165953875014 ], [ 3.915999, 44.056848 ] ] ], [ [ [ 3.915040518239657, 44.038614544556353 ], [ 3.916464098738496, 44.04122760924367 ], [ 3.917165560850162, 44.041260235388371 ], [ 3.915949, 44.038858 ], [ 3.915128, 44.038662 ], [ 3.915040518239657, 44.038614544556353 ] ] ], [ [ [ 3.91454528408139, 44.044541371598271 ], [ 3.915107379938466, 44.043050268493957 ], [ 3.915019, 44.043017 ], [ 3.913408515793342, 44.042810714749493 ], [ 3.91454528408139, 44.044541371598271 ] ] ], [ [ [ 3.914569846463042, 44.04457876624982 ], [ 3.91457, 44.044579 ], [ 3.916026, 44.045128 ], [ 3.914569846463042, 44.04457876624982 ] ] ], [ [ [ 3.911082, 44.028783 ], [ 3.914174, 44.037024 ], [ 3.914239652687252, 44.037144509320562 ], [ 3.915924, 44.034882 ], [ 3.911118204497792, 44.028722333003707 ], [ 3.911082, 44.028783 ] ] ], [ [ [ 3.914820694313979, 44.05769164862798 ], [ 3.914829505675091, 44.057686372697354 ], [ 3.910937291301321, 44.058747618459385 ], [ 3.910937800643166, 44.0587480187179 ], [ 3.914820694313979, 44.05769164862798 ] ] ], [ [ [ 3.929207, 44.08807 ], [ 3.928931, 44.085447 ], [ 3.933904130354064, 44.080026122404384 ], [ 3.928454, 44.085155 ], [ 3.927999, 44.086922 ], [ 3.926703, 44.088553 ], [ 3.925401, 44.089765 ], [ 3.924397005990178, 44.091039101981664 ], [ 3.927536, 44.088578 ], [ 3.928312, 44.088534 ], [ 3.929207, 44.08807 ] ] ], [ [ [ 3.960242, 44.116783 ], [ 3.960874, 44.11791 ], [ 3.961427, 44.118495 ], [ 3.964425, 44.116502 ], [ 3.969303, 44.114725 ], [ 3.968656, 44.114524 ], [ 3.962013, 44.111631 ], [ 3.96206, 44.111336 ], [ 3.962543, 44.110326 ], [ 3.957157, 44.103483 ], [ 3.950939450368014, 44.107018782396622 ], [ 3.951459, 44.111346 ], [ 3.952504792010609, 44.112819715255036 ], [ 3.959785, 44.115872 ], [ 3.960095, 44.116556 ], [ 3.960242, 44.116783 ] ] ], [ [ [ 3.943535, 44.101128 ], [ 3.943445, 44.100021 ], [ 3.943234, 44.102948 ], [ 3.940384591155055, 44.107357167770466 ], [ 3.94312, 44.105518 ], [ 3.943352836465656, 44.105034514942062 ], [ 3.943301, 44.104875 ], [ 3.943315, 44.104098 ], [ 3.943535, 44.101128 ] ] ], [ [ [ 3.969829, 44.114739 ], [ 3.969303, 44.114725 ], [ 3.974646, 44.117022 ], [ 3.978968, 44.11604 ], [ 3.978585, 44.116041 ], [ 3.969829, 44.114739 ] ] ], [ [ [ 3.991423, 44.120482 ], [ 3.990648, 44.119896 ], [ 3.990548, 44.119766 ], [ 3.991954816018946, 44.115983832851001 ], [ 3.991548, 44.114552 ], [ 3.987981001461521, 44.114475140891074 ], [ 3.990407, 44.119742 ], [ 3.991423, 44.120482 ] ] ], [ [ [ 4.014080793884714, 44.12596794992303 ], [ 4.008879169949125, 44.125990096653155 ], [ 4.006568, 44.128464 ], [ 4.014080793884714, 44.12596794992303 ] ] ] ] } },
{ "type": "Feature", "properties": { "codgeo": "30010", "value": 1020, "isochrone_group": 17.0, "nb_agences": 1 }, "geometry": { "type": "MultiPolygon", "coordinates": [ [ [ [ 3.943186, 44.008065 ], [ 3.948726, 44.005614 ], [ 3.950377710751539, 44.003304261581285 ], [ 3.947933, 44.001221 ], [ 3.942262, 43.994695 ], [ 3.942098, 43.994486 ], [ 3.93329, 43.995233 ], [ 3.933288152242396, 43.995257121898092 ], [ 3.935982, 44.000662 ], [ 3.936187, 44.004257 ], [ 3.94279, 44.008075 ], [ 3.943186, 44.008065 ] ] ], [ [ [ 3.896478, 44.008473 ], [ 3.894161, 44.00611 ], [ 3.893365373156798, 44.006459148062888 ], [ 3.896478, 44.008473 ] ] ], [ [ [ 3.898457039671765, 44.023922473324212 ], [ 3.898922100353183, 44.023981456630153 ], [ 3.899030674500291, 44.023984993853745 ], [ 3.905419, 44.018038 ], [ 3.90412902372194, 44.015216455480271 ], [ 3.903457, 44.015078 ], [ 3.9026, 44.014412 ], [ 3.902159, 44.013828 ], [ 3.898718, 44.010877 ], [ 3.903355, 44.017533 ], [ 3.896817354290773, 44.023545095546048 ], [ 3.898176, 44.023879 ], [ 3.898457039671765, 44.023922473324212 ] ] ], [ [ [ 3.909813770679523, 44.011924158441445 ], [ 3.911272, 44.012808 ], [ 3.915441, 44.013344 ], [ 3.909818106735534, 44.009471189612 ], [ 3.909813770679523, 44.011924158441445 ] ] ], [ [ [ 3.884988399709757, 44.04717439625572 ], [ 3.884945700479961, 44.047230977060316 ], [ 3.88512339664907, 44.047209074368553 ], [ 3.884988399709757, 44.04717439625572 ] ] ], [ [ [ 3.892174, 44.049912 ], [ 3.894753772809443, 44.052430970083286 ], [ 3.892719985636581, 44.05004795259876 ], [ 3.892174, 44.049912 ] ] ], [ [ [ 3.891632980915309, 44.049577349019778 ], [ 3.885134523886613, 44.047213034902924 ], [ 3.892174, 44.049912 ], [ 3.891632980915309, 44.049577349019778 ] ] ], [ [ [ 3.935134378595361, 44.079075683946471 ], [ 3.935062, 44.079104 ], [ 3.93493403671062, 44.079140387665241 ], [ 3.934799, 44.079184 ], [ 3.933904130354064, 44.080026122404384 ], [ 3.928931, 44.085447 ], [ 3.929207, 44.08807 ], [ 3.928312, 44.088534 ], [ 3.929248, 44.088072 ], [ 3.929756, 44.087717 ], [ 3.930603, 44.086618 ], [ 3.931599, 44.085626 ], [ 3.936085, 44.078636 ], [ 3.935956344382995, 44.078703808471481 ], [ 3.935784, 44.078804 ], [ 3.935685461959379, 44.07884657816571 ], [ 3.935586, 44.078899 ], [ 3.935354956772276, 44.078989389048992 ], [ 3.935217, 44.079049 ], [ 3.935134378595361, 44.079075683946471 ] ] ], [ [ [ 3.940074449334923, 44.118639476911433 ], [ 3.939754380837764, 44.118810996871638 ], [ 3.9398, 44.118863 ], [ 3.939864, 44.118819 ], [ 3.940074449334923, 44.118639476911433 ] ] ], [ [ [ 3.941217617135459, 44.117372467666435 ], [ 3.940684, 44.117967 ], [ 3.940117052080038, 44.11860313478477 ], [ 3.940143, 44.118581 ], [ 3.941055, 44.117601 ], [ 3.941217617135459, 44.117372467666435 ] ] ], [ [ [ 3.961838, 44.12385 ], [ 3.965967, 44.120639 ], [ 3.971724, 44.119364 ], [ 3.974013, 44.118218 ], [ 3.974168, 44.118105 ], [ 3.979448, 44.116004 ], [ 3.978968, 44.11604 ], [ 3.974646, 44.117022 ], [ 3.969303, 44.114725 ], [ 3.964425, 44.116502 ], [ 3.961427, 44.118495 ], [ 3.960874, 44.11791 ], [ 3.960242, 44.116783 ], [ 3.960095, 44.116556 ], [ 3.959785, 44.115872 ], [ 3.952504792010609, 44.112819715255036 ], [ 3.953375, 44.114046 ], [ 3.956311, 44.116826 ], [ 3.956931, 44.117385 ], [ 3.957246, 44.117843 ], [ 3.957366, 44.118028 ], [ 3.95479189090313, 44.11979932726458 ], [ 3.960368, 44.122857 ], [ 3.961416, 44.123696 ], [ 3.961838, 44.12385 ] ] ], [ [ [ 3.943120520618756, 44.100196308058301 ], [ 3.941097347262158, 44.105223767494046 ], [ 3.941863, 44.104361 ], [ 3.943120520618756, 44.100196308058301 ] ] ], [ [ [ 3.981548, 44.11527 ], [ 3.980715, 44.115661 ], [ 3.980409, 44.115767 ], [ 3.988471, 44.119386 ], [ 3.988645927779863, 44.119434792279648 ], [ 3.986682, 44.111656 ], [ 3.986681884228752, 44.111655066512654 ], [ 3.98326, 44.113621 ], [ 3.982823, 44.114364 ], [ 3.982418, 44.114785 ], [ 3.982002, 44.115065 ], [ 3.981548, 44.11527 ] ] ] ] } },
{ "type": "Feature", "properties": { "codgeo": "30010", "value": 1080, "isochrone_group": 18.0, "nb_agences": 1 }, "geometry": { "type": "MultiPolygon", "coordinates": [ [ [ [ 3.930971724113332, 44.119777747045333 ], [ 3.93148, 44.119784 ], [ 3.933163726376278, 44.119754690165855 ], [ 3.932737, 44.119704 ], [ 3.931611, 44.11978 ], [ 3.930971724113332, 44.119777747045333 ] ] ], [ [ [ 3.929438319952993, 44.119724261592708 ], [ 3.930342, 44.11977 ], [ 3.930403459230515, 44.119770756088954 ], [ 3.929895, 44.119734 ], [ 3.929438319952993, 44.119724261592708 ] ] ], [ [ [ 3.980409, 44.115767 ], [ 3.979448, 44.116004 ], [ 3.974168, 44.118105 ], [ 3.974013, 44.118218 ], [ 3.971724, 44.119364 ], [ 3.965967, 44.120639 ], [ 3.961838, 44.12385 ], [ 3.961416, 44.123696 ], [ 3.960368, 44.122857 ], [ 3.952933, 44.11878 ], [ 3.952308, 44.118389 ], [ 3.951988, 44.118185 ], [ 3.951386, 44.117664 ], [ 3.953734, 44.121057 ], [ 3.959361, 44.124231 ], [ 3.961093, 44.126571 ], [ 3.965134, 44.125971 ], [ 3.965432, 44.125875 ], [ 3.965758, 44.125749 ], [ 3.966443, 44.125276 ], [ 3.972861, 44.120908 ], [ 3.975251, 44.122022 ], [ 3.975642, 44.121688 ], [ 3.976064, 44.121165 ], [ 3.976319, 44.120334 ], [ 3.980409, 44.115767 ] ] ], [ [ [ 3.98623, 44.119363 ], [ 3.985690753848175, 44.118137958468921 ], [ 3.980409, 44.115767 ], [ 3.98623, 44.119363 ] ] ], [ [ [ 4.000920676259242, 44.133623632764191 ], [ 3.99872, 44.1337 ], [ 3.998133, 44.134021 ], [ 3.997372979050553, 44.13437555071588 ], [ 3.996691859160305, 44.134753746665723 ], [ 3.996692, 44.134754 ], [ 4.000920676259242, 44.133623632764191 ] ] ], [ [ [ 3.987086, 44.120968 ], [ 3.990906607157007, 44.124061186582303 ], [ 3.986380484011241, 44.119743320636488 ], [ 3.986651, 44.120427 ], [ 3.987086, 44.120968 ] ] ] ] } },
{ "type": "Feature", "properties": { "codgeo": "30010", "value": 1140, "isochrone_group": 19.0, "nb_agences": 1 }, "geometry": { "type": "MultiPolygon", "coordinates": [ [ [ [ 3.936239, 44.120229 ], [ 3.93504, 44.119999 ], [ 3.93485, 44.119955 ], [ 3.933163726376278, 44.119754690165855 ], [ 3.93148, 44.119784 ], [ 3.930971724113332, 44.119777747045333 ], [ 3.930476, 44.119776 ], [ 3.930403459230515, 44.119770756088954 ], [ 3.930342, 44.11977 ], [ 3.929438319952993, 44.119724261592708 ], [ 3.929004, 44.119715 ], [ 3.928111396567371, 44.121574139199183 ], [ 3.932502, 44.120324 ], [ 3.93652, 44.120263 ], [ 3.936545598769149, 44.120250899912101 ], [ 3.936239, 44.120229 ] ] ], [ [ [ 3.975251, 44.122022 ], [ 3.972861, 44.120908 ], [ 3.966443, 44.125276 ], [ 3.965758, 44.125749 ], [ 3.965432, 44.125875 ], [ 3.965134, 44.125971 ], [ 3.961093, 44.126571 ], [ 3.959361, 44.124231 ], [ 3.960776, 44.129594 ], [ 3.961162, 44.130574 ], [ 3.961825, 44.131146 ], [ 3.962347, 44.131366 ], [ 3.96298, 44.131488 ], [ 3.963564, 44.131578 ], [ 3.964407, 44.129122 ], [ 3.968537, 44.124978 ], [ 3.972893, 44.124157 ], [ 3.975163, 44.123458 ], [ 3.976064, 44.121165 ], [ 3.975642, 44.121688 ], [ 3.975251, 44.122022 ] ] ], [ [ [ 3.984150475559785, 44.11972698497631 ], [ 3.979512354482344, 44.116768217623267 ], [ 3.976319, 44.120334 ], [ 3.976064, 44.121165 ], [ 3.984150475559785, 44.11972698497631 ] ] ] ] } },
{ "type": "Feature", "properties": { "codgeo": "30010", "value": 1200, "isochrone_group": 20.0, "nb_agences": 1 }, "geometry": { "type": "MultiPolygon", "coordinates": [ [ [ [ 3.939521, 44.120273 ], [ 3.941055, 44.117601 ], [ 3.940143, 44.118581 ], [ 3.940132857969179, 44.118585400041361 ], [ 3.940094, 44.118629 ], [ 3.939467, 44.118965 ], [ 3.937091, 44.120198 ], [ 3.936855, 44.120273 ], [ 3.936545598769149, 44.120250899912101 ], [ 3.93652, 44.120263 ], [ 3.932502, 44.120324 ], [ 3.928111396567371, 44.121574139199183 ], [ 3.927879128178118, 44.122057914245737 ], [ 3.930264, 44.121076 ], [ 3.937676, 44.121797 ], [ 3.937744, 44.121799 ], [ 3.939521, 44.120273 ] ] ], [ [ [ 3.961825, 44.131146 ], [ 3.961162, 44.130574 ], [ 3.960776, 44.129594 ], [ 3.961412, 44.132801 ], [ 3.961546, 44.133364 ], [ 3.965048, 44.132529 ], [ 3.966329, 44.131315 ], [ 3.966651, 44.130735 ], [ 3.96659, 44.129314 ], [ 3.972893, 44.124157 ], [ 3.968537, 44.124978 ], [ 3.964407, 44.129122 ], [ 3.963564, 44.131578 ], [ 3.96298, 44.131488 ], [ 3.962347, 44.131366 ], [ 3.961825, 44.131146 ] ] ], [ [ [ 3.984157526057089, 44.119725731188908 ], [ 3.976064, 44.121165 ], [ 3.975163, 44.123458 ], [ 3.972893, 44.124157 ], [ 3.976148, 44.123727 ], [ 3.978001, 44.122722 ], [ 3.985097681095175, 44.121019595958472 ], [ 3.985101, 44.120227 ], [ 3.984157526057089, 44.119725731188908 ] ] ] ] } }
]
}
