{
"type": "FeatureCollection",
"name": "BPCE",
"crs": { "type": "name", "properties": { "name": "urn:ogc:def:crs:OGC:1.3:CRS84" } },
"features": [
{ "type": "Feature", "properties": { "codgeo": "81220", "value": 60, "isochrone_group": 1.0, "nb_agences": 1 }, "geometry": { "type": "Polygon", "coordinates": [ [ [ 1.720439, 43.82372 ], [ 1.720561, 43.821502 ], [ 1.720767, 43.821207 ], [ 1.722246, 43.819763 ], [ 1.722504, 43.819512 ], [ 1.723602, 43.819752 ], [ 1.725232, 43.82047 ], [ 1.728265, 43.823293 ], [ 1.72836, 43.82364 ], [ 1.728323, 43.824031 ], [ 1.727196, 43.826462 ], [ 1.72662, 43.826543 ], [ 1.723154, 43.826777 ], [ 1.720438, 43.827166 ], [ 1.720176, 43.826919 ], [ 1.720439, 43.82372 ] ] ] } },
{ "type": "Feature", "properties": { "codgeo": "81220", "value": 120, "isochrone_group": 2.0, "nb_agences": 1 }, "geometry": { "type": "Polygon", "coordinates": [ [ [ 1.72576, 43.820413 ], [ 1.723513, 43.817764 ], [ 1.723379, 43.817622 ], [ 1.723246, 43.817481 ], [ 1.723113, 43.817383 ], [ 1.722933, 43.817318 ], [ 1.722752, 43.817309 ], [ 1.722537, 43.817368 ], [ 1.720033, 43.818105 ], [ 1.716202, 43.816475 ], [ 1.715939, 43.816721 ], [ 1.71182, 43.82088 ], [ 1.711708, 43.821222 ], [ 1.712085, 43.821346 ], [ 1.712462, 43.82147 ], [ 1.712791, 43.821542 ], [ 1.713949, 43.821952 ], [ 1.717919, 43.824737 ], [ 1.716165, 43.829432 ], [ 1.716262, 43.829779 ], [ 1.716794, 43.831738 ], [ 1.716981, 43.832046 ], [ 1.720431, 43.834294 ], [ 1.720765, 43.834159 ], [ 1.720628, 43.833819 ], [ 1.723173, 43.829153 ], [ 1.725309, 43.829549 ], [ 1.728756, 43.832114 ], [ 1.728826, 43.832283 ], [ 1.728905, 43.832471 ], [ 1.729018, 43.832675 ], [ 1.729132, 43.832878 ], [ 1.729446, 43.832702 ], [ 1.731169, 43.827321 ], [ 1.731337, 43.827003 ], [ 1.728391, 43.823445 ], [ 1.728267718120966, 43.823302928294474 ], [ 1.72836, 43.82364 ], [ 1.728323, 43.824031 ], [ 1.727196, 43.826462 ], [ 1.72662, 43.826543 ], [ 1.723154, 43.826777 ], [ 1.720438, 43.827166 ], [ 1.720176, 43.826919 ], [ 1.720439, 43.82372 ], [ 1.720561, 43.821502 ], [ 1.720767, 43.821207 ], [ 1.722246, 43.819763 ], [ 1.722504, 43.819512 ], [ 1.723602, 43.819752 ], [ 1.725232, 43.82047 ], [ 1.728234339785373, 43.823264462648915 ], [ 1.72576, 43.820413 ] ] ] } },
{ "type": "Feature", "properties": { "codgeo": "81220", "value": 180, "isochrone_group": 3.0, "nb_agences": 1 }, "geometry": { "type": "MultiPolygon", "coordinates": [ [ [ [ 1.720761, 43.816259 ], [ 1.714336, 43.812647 ], [ 1.709774, 43.810037 ], [ 1.709586, 43.809948 ], [ 1.709397, 43.80986 ], [ 1.709245, 43.810186 ], [ 1.707944, 43.819032 ], [ 1.704456, 43.819833 ], [ 1.702693, 43.820052 ], [ 1.702578, 43.820393 ], [ 1.702839, 43.824448 ], [ 1.703117, 43.824677 ], [ 1.708879, 43.822488 ], [ 1.711094, 43.822786 ], [ 1.713838, 43.83063 ], [ 1.712478, 43.833743 ], [ 1.712587, 43.834086 ], [ 1.715635, 43.83981 ], [ 1.715976, 43.839925 ], [ 1.722622, 43.837084 ], [ 1.730171, 43.839634 ], [ 1.730528, 43.839588 ], [ 1.730488, 43.839284 ], [ 1.730426, 43.838667 ], [ 1.730401, 43.838345 ], [ 1.731495, 43.833717 ], [ 1.735899, 43.83062 ], [ 1.739214, 43.829765 ], [ 1.739292, 43.829413 ], [ 1.738596, 43.82926 ], [ 1.737901, 43.829106 ], [ 1.737172, 43.82896 ], [ 1.736663, 43.828856 ], [ 1.736077, 43.828761 ], [ 1.728912498325098, 43.824074834026028 ], [ 1.731337, 43.827003 ], [ 1.731169, 43.827321 ], [ 1.729446, 43.832702 ], [ 1.729132, 43.832878 ], [ 1.729018, 43.832675 ], [ 1.728905, 43.832471 ], [ 1.728826, 43.832283 ], [ 1.728756, 43.832114 ], [ 1.725309, 43.829549 ], [ 1.723173, 43.829153 ], [ 1.720628, 43.833819 ], [ 1.720765, 43.834159 ], [ 1.720431, 43.834294 ], [ 1.716981, 43.832046 ], [ 1.716794, 43.831738 ], [ 1.716262, 43.829779 ], [ 1.716165, 43.829432 ], [ 1.717919, 43.824737 ], [ 1.713949, 43.821952 ], [ 1.712791, 43.821542 ], [ 1.712462, 43.82147 ], [ 1.712085, 43.821346 ], [ 1.711708, 43.821222 ], [ 1.71182, 43.82088 ], [ 1.715939, 43.816721 ], [ 1.716202, 43.816475 ], [ 1.720033, 43.818105 ], [ 1.722537, 43.817368 ], [ 1.722752, 43.817309 ], [ 1.722933, 43.817318 ], [ 1.723113, 43.817383 ], [ 1.720761, 43.816259 ] ] ], [ [ [ 1.725864, 43.819687 ], [ 1.723246, 43.817481 ], [ 1.723379, 43.817622 ], [ 1.723513, 43.817764 ], [ 1.72576, 43.820413 ], [ 1.728391, 43.823445 ], [ 1.725864, 43.819687 ] ] ] ] } },
{ "type": "Feature", "properties": { "codgeo": "81220", "value": 240, "isochrone_group": 4.0, "nb_agences": 1 }, "geometry": { "type": "MultiPolygon", "coordinates": [ [ [ [ 1.709379, 43.809853 ], [ 1.708209, 43.809456 ], [ 1.707044, 43.809061 ], [ 1.700003, 43.804446 ], [ 1.699826, 43.804278 ], [ 1.699635, 43.804097 ], [ 1.699476, 43.803974 ], [ 1.699318, 43.803852 ], [ 1.699098, 43.804137 ], [ 1.699578, 43.804538 ], [ 1.699754, 43.804707 ], [ 1.700237, 43.805228 ], [ 1.700728, 43.805758 ], [ 1.70123, 43.806427 ], [ 1.701743, 43.807111 ], [ 1.701883, 43.807263 ], [ 1.702011, 43.807399 ], [ 1.702283, 43.807632 ], [ 1.703672, 43.815722 ], [ 1.695614, 43.817005 ], [ 1.695322, 43.81679 ], [ 1.695029, 43.816618 ], [ 1.694863, 43.816529 ], [ 1.693994, 43.816146 ], [ 1.693126, 43.815762 ], [ 1.69298, 43.816091 ], [ 1.693849, 43.816475 ], [ 1.696269, 43.818052 ], [ 1.698788, 43.826486 ], [ 1.698164, 43.830128 ], [ 1.698442, 43.830358 ], [ 1.699819, 43.82869 ], [ 1.705337, 43.826259 ], [ 1.70577, 43.826278 ], [ 1.706206, 43.826298 ], [ 1.711626, 43.830238 ], [ 1.711368, 43.834496 ], [ 1.711341, 43.834706 ], [ 1.711491, 43.839486 ], [ 1.711599, 43.83983 ], [ 1.712291, 43.843667 ], [ 1.712311, 43.843817 ], [ 1.712378, 43.843952 ], [ 1.712653, 43.844329 ], [ 1.712939, 43.844719 ], [ 1.713457, 43.84542 ], [ 1.713764, 43.845607 ], [ 1.713813, 43.845569 ], [ 1.714059, 43.845306 ], [ 1.718515, 43.840379 ], [ 1.724912, 43.844769 ], [ 1.725149, 43.84504 ], [ 1.730913, 43.843624 ], [ 1.734179, 43.845387 ], [ 1.734785, 43.846024 ], [ 1.735046, 43.845775 ], [ 1.73444, 43.845139 ], [ 1.733834, 43.844502 ], [ 1.733463, 43.844242 ], [ 1.733121, 43.844007 ], [ 1.730774, 43.840431 ], [ 1.730491, 43.839301 ], [ 1.730485432135728, 43.839258445608785 ], [ 1.730488, 43.839284 ], [ 1.730528, 43.839588 ], [ 1.730171, 43.839634 ], [ 1.722622, 43.837084 ], [ 1.715976, 43.839925 ], [ 1.715635, 43.83981 ], [ 1.712587, 43.834086 ], [ 1.712478, 43.833743 ], [ 1.713838, 43.83063 ], [ 1.711094, 43.822786 ], [ 1.708879, 43.822488 ], [ 1.703117, 43.824677 ], [ 1.702839, 43.824448 ], [ 1.702578, 43.820393 ], [ 1.702693, 43.820052 ], [ 1.704456, 43.819833 ], [ 1.707944, 43.819032 ], [ 1.709245, 43.810186 ], [ 1.709396515734481, 43.80986103862211 ], [ 1.709379, 43.809853 ] ] ], [ [ [ 1.719577, 43.815073 ], [ 1.714128, 43.812521 ], [ 1.712587235236371, 43.811646501088759 ], [ 1.714336, 43.812647 ], [ 1.720761, 43.816259 ], [ 1.723113, 43.817383 ], [ 1.719577, 43.815073 ] ] ], [ [ [ 1.735752, 43.832431 ], [ 1.739208, 43.833752 ], [ 1.739563, 43.833696 ], [ 1.743959, 43.833163 ], [ 1.748728, 43.834602 ], [ 1.748793, 43.83464 ], [ 1.749025, 43.834756 ], [ 1.749186, 43.834434 ], [ 1.74609, 43.828517 ], [ 1.744536, 43.827995 ], [ 1.742586, 43.827341 ], [ 1.735428398471972, 43.828336761923268 ], [ 1.736077, 43.828761 ], [ 1.736663, 43.828856 ], [ 1.737172, 43.82896 ], [ 1.737901, 43.829106 ], [ 1.738596, 43.82926 ], [ 1.739292, 43.829413 ], [ 1.739214, 43.829765 ], [ 1.735899, 43.83062 ], [ 1.731495, 43.833717 ], [ 1.730401, 43.838345 ], [ 1.735752, 43.832431 ] ] ] ] } },
{ "type": "Feature", "properties": { "codgeo": "81220", "value": 300, "isochrone_group": 5.0, "nb_agences": 1 }, "geometry": { "type": "MultiPolygon", "coordinates": [ [ [ [ 1.6983, 43.82636 ], [ 1.69323, 43.832493 ], [ 1.692902, 43.83264 ], [ 1.691473, 43.83528 ], [ 1.691648, 43.835594 ], [ 1.692244, 43.835306 ], [ 1.692542, 43.835111 ], [ 1.692704, 43.834972 ], [ 1.700091, 43.83271 ], [ 1.701686, 43.83309 ], [ 1.701975, 43.832874 ], [ 1.709294, 43.831942 ], [ 1.708674, 43.839783 ], [ 1.708371, 43.839977 ], [ 1.707582, 43.843279 ], [ 1.704828, 43.847927 ], [ 1.705039, 43.848219 ], [ 1.711394, 43.848456 ], [ 1.712814, 43.847475 ], [ 1.720745, 43.851571 ], [ 1.721102, 43.851621 ], [ 1.723476, 43.849998 ], [ 1.727966, 43.848756 ], [ 1.734495, 43.850921 ], [ 1.738707, 43.852943 ], [ 1.739038, 43.852803 ], [ 1.738903, 43.852481 ], [ 1.738767, 43.852158 ], [ 1.738651, 43.851965 ], [ 1.738548, 43.851796 ], [ 1.738382, 43.851619 ], [ 1.738241, 43.851474 ], [ 1.736776, 43.849579 ], [ 1.735824, 43.847104 ], [ 1.735735, 43.846839 ], [ 1.735656, 43.846611 ], [ 1.735541, 43.846409 ], [ 1.735441, 43.846239 ], [ 1.735273, 43.846035 ], [ 1.735122, 43.845856 ], [ 1.735045436579349, 43.845775537516268 ], [ 1.734785, 43.846024 ], [ 1.734179, 43.845387 ], [ 1.730913, 43.843624 ], [ 1.725149, 43.84504 ], [ 1.724912, 43.844769 ], [ 1.718515, 43.840379 ], [ 1.714059, 43.845306 ], [ 1.713813, 43.845569 ], [ 1.713764, 43.845607 ], [ 1.713457, 43.84542 ], [ 1.712939, 43.844719 ], [ 1.712653, 43.844329 ], [ 1.712378, 43.843952 ], [ 1.712311, 43.843817 ], [ 1.712291, 43.843667 ], [ 1.711599, 43.83983 ], [ 1.711491, 43.839486 ], [ 1.711341, 43.834706 ], [ 1.711368, 43.834496 ], [ 1.711626, 43.830238 ], [ 1.706206, 43.826298 ], [ 1.70577, 43.826278 ], [ 1.705337, 43.826259 ], [ 1.699819, 43.82869 ], [ 1.698442, 43.830358 ], [ 1.698164, 43.830128 ], [ 1.698788, 43.826486 ], [ 1.698130646310448, 43.824285078595587 ], [ 1.6983, 43.82636 ] ] ], [ [ [ 1.692629, 43.814324 ], [ 1.692572, 43.814259 ], [ 1.688441, 43.813446 ], [ 1.686855, 43.814373 ], [ 1.686612, 43.814509 ], [ 1.684994, 43.815522 ], [ 1.685148, 43.815848 ], [ 1.690916, 43.817536 ], [ 1.691274, 43.817581 ], [ 1.697763301276764, 43.823055150840894 ], [ 1.696269, 43.818052 ], [ 1.693849, 43.816475 ], [ 1.69298, 43.816091 ], [ 1.693126, 43.815762 ], [ 1.693994, 43.816146 ], [ 1.694863, 43.816529 ], [ 1.692629, 43.814324 ] ] ], [ [ [ 1.69950687660048, 43.816385173656194 ], [ 1.703672, 43.815722 ], [ 1.703012535592556, 43.811881058994821 ], [ 1.69950687660048, 43.816385173656194 ] ] ], [ [ [ 1.702766757888409, 43.810449567542982 ], [ 1.702283, 43.807632 ], [ 1.702011, 43.807399 ], [ 1.701883, 43.807263 ], [ 1.701743, 43.807111 ], [ 1.702766757888409, 43.810449567542982 ] ] ], [ [ [ 1.696271, 43.800732 ], [ 1.692774, 43.795589 ], [ 1.692444, 43.795734 ], [ 1.692446, 43.796265 ], [ 1.692563, 43.796606 ], [ 1.694216, 43.799926 ], [ 1.697441, 43.80269 ], [ 1.697838, 43.803081 ], [ 1.698222, 43.803459 ], [ 1.698569, 43.80374 ], [ 1.698902, 43.804009 ], [ 1.699754, 43.804707 ], [ 1.699578, 43.804538 ], [ 1.699098, 43.804137 ], [ 1.699318, 43.803852 ], [ 1.699476, 43.803974 ], [ 1.699635, 43.804097 ], [ 1.696271, 43.800732 ] ] ], [ [ [ 1.719347, 43.814383 ], [ 1.71907, 43.814185 ], [ 1.717804, 43.813397 ], [ 1.709774, 43.810037 ], [ 1.710041, 43.810192 ], [ 1.710273, 43.810333 ], [ 1.714128, 43.812521 ], [ 1.719577, 43.815073 ], [ 1.723113, 43.817383 ], [ 1.719347, 43.814383 ] ] ], [ [ [ 1.739778, 43.835513 ], [ 1.74029, 43.836479 ], [ 1.740797, 43.837436 ], [ 1.740889, 43.83764 ], [ 1.740982, 43.837845 ], [ 1.74131, 43.837697 ], [ 1.750133, 43.837551 ], [ 1.752478, 43.837594 ], [ 1.755197, 43.838121 ], [ 1.756102, 43.838404 ], [ 1.756272, 43.838087 ], [ 1.754995, 43.83624 ], [ 1.751908, 43.829757 ], [ 1.751836, 43.829659 ], [ 1.751539, 43.829355 ], [ 1.74525, 43.82681 ], [ 1.742175, 43.827319 ], [ 1.741312, 43.827447 ], [ 1.740448, 43.827575 ], [ 1.734636, 43.828447 ], [ 1.742586, 43.827341 ], [ 1.744536, 43.827995 ], [ 1.74609, 43.828517 ], [ 1.749186, 43.834434 ], [ 1.749025, 43.834756 ], [ 1.748793, 43.83464 ], [ 1.748728, 43.834602 ], [ 1.743959, 43.833163 ], [ 1.739563, 43.833696 ], [ 1.739208, 43.833752 ], [ 1.735752, 43.832431 ], [ 1.735664033501222, 43.832528221804097 ], [ 1.739778, 43.835513 ] ] ] ] } },
{ "type": "Feature", "properties": { "codgeo": "81220", "value": 360, "isochrone_group": 6.0, "nb_agences": 1 }, "geometry": { "type": "MultiPolygon", "coordinates": [ [ [ [ 1.690056, 43.829071 ], [ 1.689872, 43.828962 ], [ 1.689689, 43.829273 ], [ 1.689372, 43.831186 ], [ 1.683113, 43.836791 ], [ 1.682526, 43.836884 ], [ 1.681775, 43.837049 ], [ 1.681023, 43.837213 ], [ 1.6811, 43.837565 ], [ 1.681851, 43.8374 ], [ 1.682603, 43.837236 ], [ 1.690874, 43.839557 ], [ 1.691673, 43.83912 ], [ 1.691943, 43.838882 ], [ 1.699131, 43.833865 ], [ 1.705999, 43.839203 ], [ 1.703634, 43.84597 ], [ 1.700698, 43.850276 ], [ 1.699021, 43.851899 ], [ 1.697343, 43.853522 ], [ 1.697593, 43.85378 ], [ 1.699271, 43.852158 ], [ 1.707171, 43.851892 ], [ 1.714381, 43.856946 ], [ 1.714591, 43.857238 ], [ 1.721044, 43.854886 ], [ 1.72118, 43.854552 ], [ 1.723726, 43.849934 ], [ 1.729822077180374, 43.849371470530805 ], [ 1.727966, 43.848756 ], [ 1.723476, 43.849998 ], [ 1.721102, 43.851621 ], [ 1.720745, 43.851571 ], [ 1.712814, 43.847475 ], [ 1.711394, 43.848456 ], [ 1.705039, 43.848219 ], [ 1.704828, 43.847927 ], [ 1.707582, 43.843279 ], [ 1.708371, 43.839977 ], [ 1.708674, 43.839783 ], [ 1.709294, 43.831942 ], [ 1.701975, 43.832874 ], [ 1.701686, 43.83309 ], [ 1.700091, 43.83271 ], [ 1.692704, 43.834972 ], [ 1.692542, 43.835111 ], [ 1.692244, 43.835306 ], [ 1.691648, 43.835594 ], [ 1.691473, 43.83528 ], [ 1.692902, 43.83264 ], [ 1.69323, 43.832493 ], [ 1.6983, 43.82636 ], [ 1.698274962328906, 43.826053238453767 ], [ 1.690056, 43.829071 ] ] ], [ [ [ 1.688138, 43.813194 ], [ 1.683456, 43.811688 ], [ 1.683199, 43.811551 ], [ 1.682892, 43.811474 ], [ 1.682718, 43.81147 ], [ 1.68243, 43.811523 ], [ 1.681028, 43.811951 ], [ 1.680732, 43.812043 ], [ 1.680557, 43.81216 ], [ 1.681262, 43.817078 ], [ 1.6814, 43.817411 ], [ 1.688924, 43.818363 ], [ 1.688983, 43.818355 ], [ 1.691135, 43.818384 ], [ 1.692889370219758, 43.818943670628116 ], [ 1.691274, 43.817581 ], [ 1.690916, 43.817536 ], [ 1.685148, 43.815848 ], [ 1.684994, 43.815522 ], [ 1.686612, 43.814509 ], [ 1.686855, 43.814373 ], [ 1.688441, 43.813446 ], [ 1.692572, 43.814259 ], [ 1.688138, 43.813194 ] ] ], [ [ [ 1.692068, 43.794037 ], [ 1.691591, 43.793015 ], [ 1.69143, 43.792794 ], [ 1.691247, 43.792549 ], [ 1.690949, 43.792269 ], [ 1.690648, 43.791985 ], [ 1.689569, 43.79102 ], [ 1.688489, 43.790053 ], [ 1.687978, 43.789607 ], [ 1.687463, 43.789158 ], [ 1.687209, 43.78895 ], [ 1.686955, 43.788742 ], [ 1.686727, 43.789021 ], [ 1.688198, 43.795881 ], [ 1.688253, 43.795986 ], [ 1.688828, 43.796662 ], [ 1.694033, 43.801886 ], [ 1.694167, 43.802038 ], [ 1.694413, 43.80234 ], [ 1.694533, 43.802501 ], [ 1.699342, 43.80858 ], [ 1.692572, 43.814259 ], [ 1.692629, 43.814324 ], [ 1.694863, 43.816529 ], [ 1.695029, 43.816618 ], [ 1.695322, 43.81679 ], [ 1.695614, 43.817005 ], [ 1.696066, 43.817397 ], [ 1.697906, 43.818442 ], [ 1.703134, 43.811725 ], [ 1.703118, 43.811595 ], [ 1.701743, 43.807111 ], [ 1.70123, 43.806427 ], [ 1.700728, 43.805758 ], [ 1.700237, 43.805228 ], [ 1.699754, 43.804707 ], [ 1.698902, 43.804009 ], [ 1.698569, 43.80374 ], [ 1.698222, 43.803459 ], [ 1.697838, 43.803081 ], [ 1.697441, 43.80269 ], [ 1.694216, 43.799926 ], [ 1.692563, 43.796606 ], [ 1.692446, 43.796265 ], [ 1.692444, 43.795734 ], [ 1.692774, 43.795589 ], [ 1.696271, 43.800732 ], [ 1.692068, 43.794037 ] ] ], [ [ [ 1.717213, 43.812995 ], [ 1.709774, 43.810037 ], [ 1.717804, 43.813397 ], [ 1.71907, 43.814185 ], [ 1.717213, 43.812995 ] ] ], [ [ [ 1.753954, 43.839774 ], [ 1.757158, 43.841031 ], [ 1.761828, 43.841774 ], [ 1.763987, 43.842473 ], [ 1.764137, 43.842146 ], [ 1.763807, 43.841996 ], [ 1.763478, 43.841845 ], [ 1.756981, 43.835979 ], [ 1.752773, 43.82812 ], [ 1.752755, 43.828008 ], [ 1.752602, 43.827665 ], [ 1.752449, 43.827321 ], [ 1.750488, 43.827061 ], [ 1.74525, 43.82681 ], [ 1.751539, 43.829355 ], [ 1.751836, 43.829659 ], [ 1.751908, 43.829757 ], [ 1.754995, 43.83624 ], [ 1.756272, 43.838087 ], [ 1.756102, 43.838404 ], [ 1.755197, 43.838121 ], [ 1.752478, 43.837594 ], [ 1.750133, 43.837551 ], [ 1.753954, 43.839774 ] ] ], [ [ [ 1.741066, 43.83809 ], [ 1.741184, 43.838329 ], [ 1.741311, 43.838585 ], [ 1.74143, 43.838774 ], [ 1.741736, 43.839162 ], [ 1.742143, 43.839719 ], [ 1.742265, 43.83992 ], [ 1.742471, 43.840199 ], [ 1.742668, 43.840464 ], [ 1.743074, 43.841129 ], [ 1.743492, 43.841811 ], [ 1.743736, 43.84212 ], [ 1.74398, 43.842429 ], [ 1.744262, 43.842206 ], [ 1.750133, 43.837551 ], [ 1.74131, 43.837697 ], [ 1.740982, 43.837845 ], [ 1.740893472256482, 43.837649858199782 ], [ 1.741066, 43.83809 ] ] ], [ [ [ 1.731697, 43.854373 ], [ 1.731976, 43.8546 ], [ 1.737342, 43.855707 ], [ 1.740655, 43.858874 ], [ 1.740916, 43.859123 ], [ 1.744896, 43.858319 ], [ 1.745165, 43.858081 ], [ 1.744773, 43.856625 ], [ 1.744697, 43.856273 ], [ 1.742064, 43.85163 ], [ 1.74173, 43.851496 ], [ 1.735824, 43.847104 ], [ 1.736776, 43.849579 ], [ 1.738241, 43.851474 ], [ 1.738382, 43.851619 ], [ 1.738548, 43.851796 ], [ 1.738651, 43.851965 ], [ 1.738767, 43.852158 ], [ 1.738903, 43.852481 ], [ 1.739038, 43.852803 ], [ 1.738707, 43.852943 ], [ 1.734495, 43.850921 ], [ 1.730366074545375, 43.849551858690582 ], [ 1.731697, 43.854373 ] ] ] ] } },
{ "type": "Feature", "properties": { "codgeo": "81220", "value": 420, "isochrone_group": 7.0, "nb_agences": 1 }, "geometry": { "type": "MultiPolygon", "coordinates": [ [ [ [ 1.680269, 43.80832 ], [ 1.680074, 43.807994 ], [ 1.67988, 43.807668 ], [ 1.67957, 43.807852 ], [ 1.678746, 43.810284 ], [ 1.674489, 43.816997 ], [ 1.674534, 43.817354 ], [ 1.674806, 43.81732 ], [ 1.681833, 43.819243 ], [ 1.682005, 43.819342 ], [ 1.682182, 43.819416 ], [ 1.682362, 43.819492 ], [ 1.683422, 43.819906 ], [ 1.687719, 43.824913 ], [ 1.684111, 43.831415 ], [ 1.679544, 43.837425 ], [ 1.67517, 43.836977 ], [ 1.674845, 43.837131 ], [ 1.674703, 43.83726 ], [ 1.673776, 43.838664 ], [ 1.675988, 43.841402 ], [ 1.676281, 43.841194 ], [ 1.680383, 43.837666 ], [ 1.686334, 43.841424 ], [ 1.686919, 43.841891 ], [ 1.69455, 43.842985 ], [ 1.699936, 43.849724 ], [ 1.698964, 43.851954 ], [ 1.697228, 43.853633 ], [ 1.69213, 43.854817 ], [ 1.691808, 43.854977 ], [ 1.691383, 43.856675 ], [ 1.691601, 43.856962 ], [ 1.695226, 43.857631 ], [ 1.69543, 43.857335 ], [ 1.696817, 43.854545 ], [ 1.697481, 43.853889 ], [ 1.705895, 43.856021 ], [ 1.709913, 43.863115 ], [ 1.710125, 43.863406 ], [ 1.7111, 43.863334 ], [ 1.711256, 43.86301 ], [ 1.713473, 43.857924 ], [ 1.721019, 43.858752 ], [ 1.721803, 43.858483 ], [ 1.728741, 43.858257 ], [ 1.730209, 43.858369 ], [ 1.735297, 43.864568 ], [ 1.735499, 43.864866 ], [ 1.73592, 43.86458 ], [ 1.736342, 43.864294 ], [ 1.744624, 43.861888 ], [ 1.752316, 43.862238 ], [ 1.752689, 43.862276 ], [ 1.753089, 43.862272 ], [ 1.753489, 43.862268 ], [ 1.753485, 43.861908 ], [ 1.750536, 43.855526 ], [ 1.750352, 43.855217 ], [ 1.749156, 43.855341 ], [ 1.743829, 43.8502 ], [ 1.747454, 43.845268 ], [ 1.747734, 43.845041 ], [ 1.75616, 43.842248 ], [ 1.756592, 43.842525 ], [ 1.762642, 43.844969 ], [ 1.764299, 43.845304 ], [ 1.77283, 43.844713 ], [ 1.775469, 43.844916 ], [ 1.775546, 43.844564 ], [ 1.774317, 43.844297 ], [ 1.767693, 43.839573 ], [ 1.767479, 43.839283 ], [ 1.767442, 43.839311 ], [ 1.767283, 43.839452 ], [ 1.761675578988058, 43.840217633268281 ], [ 1.763478, 43.841845 ], [ 1.763807, 43.841996 ], [ 1.764137, 43.842146 ], [ 1.763987, 43.842473 ], [ 1.761828, 43.841774 ], [ 1.757158, 43.841031 ], [ 1.753954, 43.839774 ], [ 1.750133, 43.837551 ], [ 1.744262, 43.842206 ], [ 1.74398, 43.842429 ], [ 1.743736, 43.84212 ], [ 1.743492, 43.841811 ], [ 1.743074, 43.841129 ], [ 1.742668, 43.840464 ], [ 1.742471, 43.840199 ], [ 1.742265, 43.83992 ], [ 1.742143, 43.839719 ], [ 1.741736, 43.839162 ], [ 1.74143, 43.838774 ], [ 1.741311, 43.838585 ], [ 1.741184, 43.838329 ], [ 1.741066, 43.83809 ], [ 1.74089, 43.837641 ], [ 1.740797, 43.837436 ], [ 1.74029, 43.836479 ], [ 1.739778, 43.835513 ], [ 1.735621, 43.832497 ], [ 1.730401, 43.838345 ], [ 1.730426, 43.838667 ], [ 1.730449, 43.83898 ], [ 1.730491, 43.839301 ], [ 1.730774, 43.840431 ], [ 1.733121, 43.844007 ], [ 1.733463, 43.844242 ], [ 1.733834, 43.844502 ], [ 1.734474, 43.845175 ], [ 1.735122, 43.845856 ], [ 1.735273, 43.846035 ], [ 1.735441, 43.846239 ], [ 1.735541, 43.846409 ], [ 1.735656, 43.846611 ], [ 1.735735, 43.846839 ], [ 1.735824, 43.847104 ], [ 1.74173, 43.851496 ], [ 1.742064, 43.85163 ], [ 1.744697, 43.856273 ], [ 1.744773, 43.856625 ], [ 1.745165, 43.858081 ], [ 1.744896, 43.858319 ], [ 1.740916, 43.859123 ], [ 1.740655, 43.858874 ], [ 1.737342, 43.855707 ], [ 1.731976, 43.8546 ], [ 1.731697, 43.854373 ], [ 1.730304, 43.849327 ], [ 1.723726, 43.849934 ], [ 1.72118, 43.854552 ], [ 1.721044, 43.854886 ], [ 1.714591, 43.857238 ], [ 1.714381, 43.856946 ], [ 1.707171, 43.851892 ], [ 1.699271, 43.852158 ], [ 1.697593, 43.85378 ], [ 1.697343, 43.853522 ], [ 1.699021, 43.851899 ], [ 1.700698, 43.850276 ], [ 1.703634, 43.84597 ], [ 1.705999, 43.839203 ], [ 1.699131, 43.833865 ], [ 1.691943, 43.838882 ], [ 1.691673, 43.83912 ], [ 1.690874, 43.839557 ], [ 1.682603, 43.837236 ], [ 1.681851, 43.8374 ], [ 1.6811, 43.837565 ], [ 1.681023, 43.837213 ], [ 1.681775, 43.837049 ], [ 1.682526, 43.836884 ], [ 1.683113, 43.836791 ], [ 1.689372, 43.831186 ], [ 1.689689, 43.829273 ], [ 1.689872, 43.828962 ], [ 1.690056, 43.829071 ], [ 1.69839, 43.826011 ], [ 1.698608, 43.820768 ], [ 1.691135, 43.818384 ], [ 1.688983, 43.818355 ], [ 1.688924, 43.818363 ], [ 1.6814, 43.817411 ], [ 1.681262, 43.817078 ], [ 1.680557, 43.81216 ], [ 1.680732, 43.812043 ], [ 1.681028, 43.811951 ], [ 1.68243, 43.811523 ], [ 1.682718, 43.81147 ], [ 1.682892, 43.811474 ], [ 1.683199, 43.811551 ], [ 1.680529, 43.808824 ], [ 1.680269, 43.80832 ] ] ], [ [ [ 1.685708, 43.79638 ], [ 1.685049, 43.796885 ], [ 1.685213, 43.797206 ], [ 1.690008, 43.800611 ], [ 1.693347, 43.807814 ], [ 1.688138, 43.813194 ], [ 1.692572, 43.814259 ], [ 1.699342, 43.80858 ], [ 1.694533, 43.802501 ], [ 1.694413, 43.80234 ], [ 1.694167, 43.802038 ], [ 1.694033, 43.801886 ], [ 1.688828, 43.796662 ], [ 1.688253, 43.795986 ], [ 1.688198, 43.795881 ], [ 1.687149157470757, 43.79098972892551 ], [ 1.685522, 43.790201 ], [ 1.683954326955398, 43.78970821353299 ], [ 1.685708, 43.79638 ] ] ], [ [ [ 1.752377, 43.827159 ], [ 1.749319, 43.826217 ], [ 1.749032, 43.826171 ], [ 1.748835, 43.826166 ], [ 1.748507, 43.82618 ], [ 1.748179, 43.826195 ], [ 1.74525, 43.82681 ], [ 1.750488, 43.827061 ], [ 1.752449, 43.827321 ], [ 1.752602, 43.827665 ], [ 1.752755, 43.828008 ], [ 1.752566, 43.827584 ], [ 1.752377, 43.827159 ] ] ] ] } },
{ "type": "Feature", "properties": { "codgeo": "81220", "value": 480, "isochrone_group": 8.0, "nb_agences": 1 }, "geometry": { "type": "MultiPolygon", "coordinates": [ [ [ [ 1.676918, 43.803101 ], [ 1.676632, 43.803319 ], [ 1.676635, 43.808621 ], [ 1.669919, 43.811934 ], [ 1.669583, 43.812062 ], [ 1.667674, 43.82031 ], [ 1.67051, 43.82867 ], [ 1.67051, 43.828884 ], [ 1.67006, 43.832298 ], [ 1.66634, 43.839508 ], [ 1.665193, 43.840019 ], [ 1.664047, 43.84053 ], [ 1.664193, 43.840859 ], [ 1.66534, 43.840348 ], [ 1.666487, 43.839836 ], [ 1.668144, 43.839518 ], [ 1.674299, 43.845245 ], [ 1.674402, 43.84559 ], [ 1.674724, 43.848018 ], [ 1.674959, 43.848291 ], [ 1.680439, 43.848575 ], [ 1.685168, 43.850514 ], [ 1.689676, 43.85234 ], [ 1.689563, 43.858991 ], [ 1.685947, 43.86152 ], [ 1.685996, 43.861877 ], [ 1.690583, 43.863713 ], [ 1.690938, 43.86365 ], [ 1.690906, 43.863472 ], [ 1.690875, 43.863294 ], [ 1.693172321187325, 43.857251990034285 ], [ 1.691601, 43.856962 ], [ 1.691383, 43.856675 ], [ 1.691808, 43.854977 ], [ 1.69213, 43.854817 ], [ 1.697228, 43.853633 ], [ 1.698964, 43.851954 ], [ 1.699936, 43.849724 ], [ 1.69455, 43.842985 ], [ 1.686919, 43.841891 ], [ 1.686334, 43.841424 ], [ 1.680383, 43.837666 ], [ 1.676281, 43.841194 ], [ 1.675988, 43.841402 ], [ 1.673776, 43.838664 ], [ 1.674703, 43.83726 ], [ 1.674845, 43.837131 ], [ 1.67517, 43.836977 ], [ 1.679544, 43.837425 ], [ 1.684111, 43.831415 ], [ 1.687719, 43.824913 ], [ 1.683422, 43.819906 ], [ 1.682362, 43.819492 ], [ 1.682182, 43.819416 ], [ 1.682005, 43.819342 ], [ 1.681833, 43.819243 ], [ 1.674806, 43.81732 ], [ 1.674534, 43.817354 ], [ 1.674489, 43.816997 ], [ 1.678746, 43.810284 ], [ 1.67957, 43.807852 ], [ 1.67988, 43.807668 ], [ 1.680074, 43.807994 ], [ 1.680269, 43.80832 ], [ 1.680529, 43.808824 ], [ 1.683199, 43.811551 ], [ 1.683456, 43.811688 ], [ 1.688138, 43.813194 ], [ 1.693347, 43.807814 ], [ 1.690008, 43.800611 ], [ 1.685213, 43.797206 ], [ 1.685049, 43.796885 ], [ 1.685708, 43.79638 ], [ 1.684260775399964, 43.790874085695762 ], [ 1.683158869992371, 43.790357175598039 ], [ 1.682368, 43.796751 ], [ 1.676918, 43.803101 ] ] ], [ [ [ 1.746051, 43.826341 ], [ 1.74588, 43.826386 ], [ 1.745575, 43.826498 ], [ 1.742175, 43.827319 ], [ 1.74525, 43.82681 ], [ 1.748179, 43.826195 ], [ 1.748156, 43.826196 ], [ 1.746051, 43.826341 ] ] ], [ [ [ 1.776857, 43.8477 ], [ 1.782425, 43.846474 ], [ 1.786708, 43.847428 ], [ 1.787016, 43.847496 ], [ 1.787324, 43.847563 ], [ 1.787401, 43.847211 ], [ 1.787093, 43.847144 ], [ 1.786785, 43.847077 ], [ 1.782503, 43.846123 ], [ 1.778989, 43.842076 ], [ 1.778648, 43.84196 ], [ 1.770845, 43.837949 ], [ 1.77065, 43.837646 ], [ 1.770311, 43.837864 ], [ 1.769972, 43.838083 ], [ 1.767638, 43.839198 ], [ 1.767513, 43.839261 ], [ 1.767481852696747, 43.839286865804013 ], [ 1.767693, 43.839573 ], [ 1.774317, 43.844297 ], [ 1.775546, 43.844564 ], [ 1.775469, 43.844916 ], [ 1.77283, 43.844713 ], [ 1.771825661141258, 43.844782577337412 ], [ 1.772317, 43.845009 ], [ 1.776857, 43.8477 ] ] ], [ [ [ 1.707151, 43.86218 ], [ 1.701036, 43.866967 ], [ 1.700841, 43.86727 ], [ 1.70126, 43.867539 ], [ 1.701679, 43.867808 ], [ 1.701966, 43.867851 ], [ 1.708984, 43.868158 ], [ 1.711617, 43.86518 ], [ 1.719569, 43.860989 ], [ 1.727418, 43.862647 ], [ 1.73237, 43.868023 ], [ 1.734517, 43.871605 ], [ 1.734868, 43.871685 ], [ 1.73658, 43.869082 ], [ 1.741259, 43.864165 ], [ 1.74158, 43.864002 ], [ 1.744011, 43.862585 ], [ 1.751237, 43.865082 ], [ 1.75296, 43.865442 ], [ 1.760995, 43.866489 ], [ 1.761213, 43.866202 ], [ 1.758961, 43.859829 ], [ 1.755834, 43.85436 ], [ 1.762315, 43.849128 ], [ 1.762646, 43.848987 ], [ 1.767603290563331, 43.845075089470988 ], [ 1.764299, 43.845304 ], [ 1.762642, 43.844969 ], [ 1.756592, 43.842525 ], [ 1.75616, 43.842248 ], [ 1.747734, 43.845041 ], [ 1.747454, 43.845268 ], [ 1.743829, 43.8502 ], [ 1.749156, 43.855341 ], [ 1.750352, 43.855217 ], [ 1.750536, 43.855526 ], [ 1.753485, 43.861908 ], [ 1.753489, 43.862268 ], [ 1.753089, 43.862272 ], [ 1.752689, 43.862276 ], [ 1.752316, 43.862238 ], [ 1.744624, 43.861888 ], [ 1.736342, 43.864294 ], [ 1.73592, 43.86458 ], [ 1.735499, 43.864866 ], [ 1.735297, 43.864568 ], [ 1.730209, 43.858369 ], [ 1.728741, 43.858257 ], [ 1.721803, 43.858483 ], [ 1.721019, 43.858752 ], [ 1.713473, 43.857924 ], [ 1.711256, 43.86301 ], [ 1.7111, 43.863334 ], [ 1.710125, 43.863406 ], [ 1.709913, 43.863115 ], [ 1.705895, 43.856021 ], [ 1.697481, 43.853889 ], [ 1.705889, 43.856069 ], [ 1.707151, 43.86218 ] ] ] ] } },
{ "type": "Feature", "properties": { "codgeo": "81220", "value": 540, "isochrone_group": 9.0, "nb_agences": 1 }, "geometry": { "type": "MultiPolygon", "coordinates": [ [ [ [ 1.675558, 43.798519 ], [ 1.67533, 43.798464 ], [ 1.6737, 43.800164 ], [ 1.667836, 43.803571 ], [ 1.667367, 43.80358 ], [ 1.666262, 43.804534 ], [ 1.665975, 43.804827 ], [ 1.664346, 43.80707 ], [ 1.665044, 43.810601 ], [ 1.662568, 43.818969 ], [ 1.661619, 43.819056 ], [ 1.660962, 43.819097 ], [ 1.660088, 43.819058 ], [ 1.658288, 43.818591 ], [ 1.657025, 43.821962 ], [ 1.657885, 43.822284 ], [ 1.658736, 43.822499 ], [ 1.659602, 43.822625 ], [ 1.660282, 43.822691 ], [ 1.660984, 43.822696 ], [ 1.661826, 43.822651 ], [ 1.667599, 43.826416 ], [ 1.667147, 43.830333 ], [ 1.66568, 43.838028 ], [ 1.659235, 43.838387 ], [ 1.658668, 43.838769 ], [ 1.658046, 43.839347 ], [ 1.65613, 43.841392 ], [ 1.655916, 43.842489 ], [ 1.656015, 43.843031 ], [ 1.657352, 43.844778 ], [ 1.658396, 43.844401 ], [ 1.661324, 43.843094 ], [ 1.661965, 43.842952 ], [ 1.662671, 43.842856 ], [ 1.663215, 43.84283 ], [ 1.670121, 43.846404 ], [ 1.670582, 43.850964 ], [ 1.673847, 43.852482 ], [ 1.68153, 43.855157 ], [ 1.681263, 43.861766 ], [ 1.681681, 43.865342 ], [ 1.682289, 43.866984 ], [ 1.684258, 43.869997 ], [ 1.68942, 43.87032 ], [ 1.697038, 43.870129 ], [ 1.698591, 43.873377 ], [ 1.70041, 43.875063 ], [ 1.700758, 43.875437 ], [ 1.700928, 43.875573 ], [ 1.701943, 43.87632 ], [ 1.709339, 43.872288 ], [ 1.712663, 43.870907 ], [ 1.712509, 43.870536 ], [ 1.711621, 43.86898 ], [ 1.712151091457591, 43.86489851392119 ], [ 1.711617, 43.86518 ], [ 1.708984, 43.868158 ], [ 1.701966, 43.867851 ], [ 1.701679, 43.867808 ], [ 1.70126, 43.867539 ], [ 1.700841, 43.86727 ], [ 1.701036, 43.866967 ], [ 1.707151, 43.86218 ], [ 1.705889, 43.856069 ], [ 1.697481, 43.853889 ], [ 1.696817, 43.854545 ], [ 1.693786, 43.855638 ], [ 1.690875, 43.863294 ], [ 1.690906, 43.863472 ], [ 1.690938, 43.86365 ], [ 1.690583, 43.863713 ], [ 1.685996, 43.861877 ], [ 1.685947, 43.86152 ], [ 1.689563, 43.858991 ], [ 1.689676, 43.85234 ], [ 1.685168, 43.850514 ], [ 1.680439, 43.848575 ], [ 1.674959, 43.848291 ], [ 1.674724, 43.848018 ], [ 1.674402, 43.84559 ], [ 1.674299, 43.845245 ], [ 1.668144, 43.839518 ], [ 1.666487, 43.839836 ], [ 1.66534, 43.840348 ], [ 1.664193, 43.840859 ], [ 1.664047, 43.84053 ], [ 1.665193, 43.840019 ], [ 1.66634, 43.839508 ], [ 1.67006, 43.832298 ], [ 1.67051, 43.828884 ], [ 1.67051, 43.82867 ], [ 1.667674, 43.82031 ], [ 1.669583, 43.812062 ], [ 1.669919, 43.811934 ], [ 1.676635, 43.808621 ], [ 1.676632, 43.803319 ], [ 1.676918, 43.803101 ], [ 1.682368, 43.796751 ], [ 1.682502528563685, 43.795663397711976 ], [ 1.675972, 43.798668 ], [ 1.675558, 43.798519 ] ] ], [ [ [ 1.682878161545116, 43.792626575799375 ], [ 1.68320066440288, 43.790019286786553 ], [ 1.681273020013714, 43.78892700882588 ], [ 1.682878161545116, 43.792626575799375 ] ] ], [ [ [ 1.707044, 43.809061 ], [ 1.708209, 43.809456 ], [ 1.709379, 43.809853 ], [ 1.709586, 43.809948 ], [ 1.709774, 43.810037 ], [ 1.715296811565259, 43.812233058154312 ], [ 1.712843013264111, 43.810283991318691 ], [ 1.71165, 43.809772 ], [ 1.708738, 43.808701 ], [ 1.708295, 43.808513 ], [ 1.704997, 43.806922 ], [ 1.702793994435315, 43.806275348007233 ], [ 1.707044, 43.809061 ] ] ], [ [ [ 1.719452506463685, 43.814467046572254 ], [ 1.723113, 43.817383 ], [ 1.723246, 43.817481 ], [ 1.725864, 43.819687 ], [ 1.726999942105807, 43.821376303693569 ], [ 1.725931540531828, 43.81844218593816 ], [ 1.723943, 43.817845 ], [ 1.723014, 43.817025 ], [ 1.722571, 43.816472 ], [ 1.720557366491023, 43.814830454889574 ], [ 1.719452506463685, 43.814467046572254 ] ] ], [ [ [ 1.73509, 43.826892 ], [ 1.728363892891434, 43.823404687964377 ], [ 1.728391, 43.823445 ], [ 1.728714, 43.823945 ], [ 1.734636, 43.828447 ], [ 1.740448, 43.827575 ], [ 1.741312, 43.827447 ], [ 1.742175, 43.827319 ], [ 1.743874134571014, 43.826908708975658 ], [ 1.736986, 43.827269 ], [ 1.73509, 43.826892 ] ] ], [ [ [ 1.756151, 43.834239 ], [ 1.755854484301053, 43.833875082015687 ], [ 1.756981, 43.835979 ], [ 1.757737830309469, 43.83698970521268 ], [ 1.756285, 43.834592 ], [ 1.756151, 43.834239 ] ] ], [ [ [ 1.787515, 43.851733 ], [ 1.792016, 43.851422 ], [ 1.795751, 43.851059 ], [ 1.79652, 43.847542 ], [ 1.796472, 43.847532 ], [ 1.792473, 43.846663 ], [ 1.79059, 43.846263 ], [ 1.790165, 43.846161 ], [ 1.787132, 43.845494 ], [ 1.780774, 43.839583 ], [ 1.780661, 43.839099 ], [ 1.777155, 43.839918 ], [ 1.772414, 43.835332 ], [ 1.771394, 43.835516 ], [ 1.770872, 43.835657 ], [ 1.769096, 43.83672 ], [ 1.767168, 43.837647 ], [ 1.766746, 43.837833 ], [ 1.766058, 43.838373 ], [ 1.757788753584768, 43.837057710443368 ], [ 1.760296, 43.840406 ], [ 1.767283, 43.839452 ], [ 1.767513, 43.839261 ], [ 1.767638, 43.839198 ], [ 1.769972, 43.838083 ], [ 1.770311, 43.837864 ], [ 1.77065, 43.837646 ], [ 1.770845, 43.837949 ], [ 1.778648, 43.84196 ], [ 1.778989, 43.842076 ], [ 1.782503, 43.846123 ], [ 1.786785, 43.847077 ], [ 1.787093, 43.847144 ], [ 1.787401, 43.847211 ], [ 1.787324, 43.847563 ], [ 1.787016, 43.847496 ], [ 1.786708, 43.847428 ], [ 1.782425, 43.846474 ], [ 1.778676297242128, 43.847299414795444 ], [ 1.782073, 43.848056 ], [ 1.787515, 43.851733 ] ] ], [ [ [ 1.726165, 43.867108 ], [ 1.727875, 43.873108 ], [ 1.728031, 43.873543 ], [ 1.728298, 43.874053 ], [ 1.728589, 43.87444 ], [ 1.728879, 43.874739 ], [ 1.731203, 43.87719 ], [ 1.739302, 43.875281 ], [ 1.739368, 43.875103 ], [ 1.739475, 43.874599 ], [ 1.739475, 43.874141 ], [ 1.746386, 43.868565 ], [ 1.74729, 43.868365 ], [ 1.751594, 43.868192 ], [ 1.754898, 43.867228 ], [ 1.761713, 43.869099 ], [ 1.764748, 43.871724 ], [ 1.764996, 43.871962 ], [ 1.76538, 43.872244 ], [ 1.76568, 43.872403 ], [ 1.766321, 43.872669 ], [ 1.766887, 43.872893 ], [ 1.767934, 43.872475 ], [ 1.768589, 43.872039 ], [ 1.768294, 43.869579 ], [ 1.766388, 43.868006 ], [ 1.765112, 43.866635 ], [ 1.764042, 43.859311 ], [ 1.764299, 43.858361 ], [ 1.767316, 43.851504 ], [ 1.772668, 43.845964 ], [ 1.774659721856735, 43.846397604519055 ], [ 1.772317, 43.845009 ], [ 1.769394, 43.843662 ], [ 1.762646, 43.848987 ], [ 1.762315, 43.849128 ], [ 1.755834, 43.85436 ], [ 1.758961, 43.859829 ], [ 1.761213, 43.866202 ], [ 1.760995, 43.866489 ], [ 1.75296, 43.865442 ], [ 1.751237, 43.865082 ], [ 1.744011, 43.862585 ], [ 1.74158, 43.864002 ], [ 1.741259, 43.864165 ], [ 1.73658, 43.869082 ], [ 1.734868, 43.871685 ], [ 1.734517, 43.871605 ], [ 1.73237, 43.868023 ], [ 1.727418, 43.862647 ], [ 1.720299993867692, 43.861143413024919 ], [ 1.724553, 43.863889 ], [ 1.726165, 43.867108 ] ] ] ] } },
{ "type": "Feature", "properties": { "codgeo": "81220", "value": 600, "isochrone_group": 10.0, "nb_agences": 1 }, "geometry": { "type": "MultiPolygon", "coordinates": [ [ [ [ 1.808516, 43.850654 ], [ 1.807113, 43.848833 ], [ 1.803907, 43.848152 ], [ 1.795994, 43.844767 ], [ 1.794153, 43.844142 ], [ 1.787132, 43.845494 ], [ 1.790165, 43.846161 ], [ 1.79059, 43.846263 ], [ 1.792473, 43.846663 ], [ 1.796472, 43.847532 ], [ 1.79652, 43.847542 ], [ 1.795751, 43.851059 ], [ 1.792016, 43.851422 ], [ 1.787515, 43.851733 ], [ 1.782073, 43.848056 ], [ 1.787761, 43.854228 ], [ 1.788269, 43.854026 ], [ 1.790706, 43.853104 ], [ 1.79346, 43.852415 ], [ 1.797696, 43.851494 ], [ 1.804063, 43.855016 ], [ 1.804115, 43.855069 ], [ 1.804303971247646, 43.855007270719931 ], [ 1.804828, 43.853477 ], [ 1.805036, 43.853378 ], [ 1.805886, 43.85299 ], [ 1.806047, 43.852929 ], [ 1.806841, 43.852709 ], [ 1.807483582111989, 43.852648231099828 ], [ 1.808556, 43.851314 ], [ 1.808579, 43.851254 ], [ 1.808516, 43.850654 ] ] ], [ [ [ 1.77745, 43.834738 ], [ 1.777395, 43.834716 ], [ 1.773483, 43.833613 ], [ 1.770872, 43.835657 ], [ 1.771394, 43.835516 ], [ 1.772414, 43.835332 ], [ 1.777155, 43.839918 ], [ 1.780373809371282, 43.8391660875998 ], [ 1.779611, 43.837514 ], [ 1.77745, 43.834738 ] ] ], [ [ [ 1.665129, 43.80139 ], [ 1.659711, 43.805809 ], [ 1.658677, 43.808734 ], [ 1.658931, 43.809031 ], [ 1.65941, 43.809484 ], [ 1.659945, 43.809721 ], [ 1.66147, 43.810435 ], [ 1.659173284507453, 43.818820682147212 ], [ 1.660088, 43.819058 ], [ 1.660962, 43.819097 ], [ 1.661619, 43.819056 ], [ 1.662568, 43.818969 ], [ 1.665044, 43.810601 ], [ 1.664346, 43.80707 ], [ 1.665975, 43.804827 ], [ 1.666262, 43.804534 ], [ 1.667367, 43.80358 ], [ 1.667836, 43.803571 ], [ 1.6737, 43.800164 ], [ 1.67533, 43.798464 ], [ 1.675558, 43.798519 ], [ 1.675972, 43.798668 ], [ 1.683914, 43.795014 ], [ 1.681338008137909, 43.789076794943334 ], [ 1.681183, 43.788876 ], [ 1.675797, 43.795954 ], [ 1.675165, 43.796437 ], [ 1.671269, 43.800251 ], [ 1.667973, 43.798884 ], [ 1.664908441663898, 43.797976177068257 ], [ 1.665129, 43.80139 ] ] ], [ [ [ 1.652342, 43.817568 ], [ 1.652146, 43.817497 ], [ 1.64834, 43.819082 ], [ 1.64751, 43.819365 ], [ 1.64667, 43.819726 ], [ 1.64809, 43.823034 ], [ 1.64948, 43.822496 ], [ 1.650204, 43.822313 ], [ 1.651808, 43.822014 ], [ 1.652712, 43.821799 ], [ 1.657885, 43.822284 ], [ 1.657025, 43.821962 ], [ 1.658195785163219, 43.81883712526902 ], [ 1.655496, 43.818622 ], [ 1.652342, 43.817568 ] ] ], [ [ [ 1.664242, 43.831376 ], [ 1.661301, 43.835666 ], [ 1.660894, 43.836048 ], [ 1.660632, 43.836392 ], [ 1.654849, 43.839806 ], [ 1.651264, 43.840311 ], [ 1.648632, 43.845622 ], [ 1.650186, 43.848869 ], [ 1.652205, 43.847903 ], [ 1.654224, 43.846936 ], [ 1.654842, 43.846549 ], [ 1.655402, 43.846179 ], [ 1.655986, 43.845657 ], [ 1.656639, 43.844957 ], [ 1.65729066960298, 43.84469786222617 ], [ 1.656015, 43.843031 ], [ 1.655916, 43.842489 ], [ 1.65613, 43.841392 ], [ 1.658046, 43.839347 ], [ 1.658668, 43.838769 ], [ 1.659235, 43.838387 ], [ 1.66568, 43.838028 ], [ 1.667147, 43.830333 ], [ 1.667599, 43.826416 ], [ 1.661826, 43.822651 ], [ 1.660984, 43.822696 ], [ 1.660282, 43.822691 ], [ 1.665223, 43.826248 ], [ 1.664242, 43.831376 ] ] ], [ [ [ 1.666729, 43.850403 ], [ 1.667815, 43.854275 ], [ 1.668622, 43.857783 ], [ 1.670855, 43.857269 ], [ 1.67716, 43.863352 ], [ 1.676343, 43.8649 ], [ 1.677889, 43.873663 ], [ 1.678031, 43.874351 ], [ 1.679962, 43.876055 ], [ 1.68019, 43.875971 ], [ 1.680814, 43.875598 ], [ 1.681349, 43.874956 ], [ 1.681941, 43.874201 ], [ 1.683407, 43.87235 ], [ 1.68997, 43.871813 ], [ 1.692289, 43.874567 ], [ 1.6931, 43.875239 ], [ 1.693777, 43.87534 ], [ 1.70066, 43.879778 ], [ 1.700184, 43.881886 ], [ 1.700067, 43.882606 ], [ 1.700266, 43.883529 ], [ 1.700365, 43.883724 ], [ 1.701538, 43.883894 ], [ 1.701909, 43.883929 ], [ 1.703565, 43.883156 ], [ 1.703795, 43.882949 ], [ 1.704182, 43.882374 ], [ 1.70439, 43.881811 ], [ 1.709112, 43.876298 ], [ 1.712645, 43.876459 ], [ 1.712668, 43.876352 ], [ 1.7128, 43.875505 ], [ 1.713106, 43.874414 ], [ 1.713199, 43.873744 ], [ 1.712762, 43.871224 ], [ 1.712647757516298, 43.870913332692524 ], [ 1.709339, 43.872288 ], [ 1.701943, 43.87632 ], [ 1.700928, 43.875573 ], [ 1.700758, 43.875437 ], [ 1.70041, 43.875063 ], [ 1.698591, 43.873377 ], [ 1.697038, 43.870129 ], [ 1.68942, 43.87032 ], [ 1.684258, 43.869997 ], [ 1.682289, 43.866984 ], [ 1.681681, 43.865342 ], [ 1.681263, 43.861766 ], [ 1.68153, 43.855157 ], [ 1.673847, 43.852482 ], [ 1.670582, 43.850964 ], [ 1.670121, 43.846404 ], [ 1.663215, 43.84283 ], [ 1.662671, 43.842856 ], [ 1.661965, 43.842952 ], [ 1.661324, 43.843094 ], [ 1.667295, 43.846848 ], [ 1.666729, 43.850403 ] ] ], [ [ [ 1.724778, 43.873564 ], [ 1.72544, 43.877668 ], [ 1.727364, 43.880711 ], [ 1.728324, 43.880104 ], [ 1.728769, 43.879755 ], [ 1.729376, 43.878987 ], [ 1.738347, 43.879353 ], [ 1.741852, 43.879716 ], [ 1.741934, 43.879661 ], [ 1.742138, 43.879423 ], [ 1.742448, 43.87894 ], [ 1.74268, 43.878034 ], [ 1.742765, 43.877137 ], [ 1.742796, 43.876639 ], [ 1.742647, 43.875968 ], [ 1.74729, 43.868365 ], [ 1.746386, 43.868565 ], [ 1.739475, 43.874141 ], [ 1.739475, 43.874599 ], [ 1.739368, 43.875103 ], [ 1.739302, 43.875281 ], [ 1.731203, 43.87719 ], [ 1.728879, 43.874739 ], [ 1.728589, 43.87444 ], [ 1.728298, 43.874053 ], [ 1.728031, 43.873543 ], [ 1.727875, 43.873108 ], [ 1.726254508848824, 43.867422066136228 ], [ 1.726335, 43.86888 ], [ 1.724778, 43.873564 ] ] ], [ [ [ 1.762574, 43.875201 ], [ 1.77038, 43.874648 ], [ 1.775249, 43.875849 ], [ 1.777097, 43.872759 ], [ 1.776046, 43.87213 ], [ 1.775494, 43.871816 ], [ 1.77279, 43.870438 ], [ 1.77013, 43.868321 ], [ 1.767562, 43.862121 ], [ 1.771518, 43.856131 ], [ 1.771573, 43.855658 ], [ 1.771513, 43.854928 ], [ 1.770638, 43.853711 ], [ 1.774758, 43.846419 ], [ 1.772668, 43.845964 ], [ 1.767316, 43.851504 ], [ 1.764299, 43.858361 ], [ 1.764042, 43.859311 ], [ 1.765112, 43.866635 ], [ 1.766388, 43.868006 ], [ 1.768294, 43.869579 ], [ 1.768589, 43.872039 ], [ 1.767934, 43.872475 ], [ 1.766887, 43.872893 ], [ 1.766321, 43.872669 ], [ 1.76568, 43.872403 ], [ 1.76538, 43.872244 ], [ 1.764996, 43.871962 ], [ 1.764748, 43.871724 ], [ 1.761713, 43.869099 ], [ 1.75559226236361, 43.867418603797837 ], [ 1.760767, 43.872087 ], [ 1.762574, 43.875201 ] ] ] ] } },
{ "type": "Feature", "properties": { "codgeo": "81220", "value": 660, "isochrone_group": 11.0, "nb_agences": 1 }, "geometry": { "type": "MultiPolygon", "coordinates": [ [ [ [ 1.649654, 43.785223 ], [ 1.651527891982198, 43.785846933009225 ], [ 1.649548, 43.784808 ], [ 1.647243, 43.783212 ], [ 1.645568614156057, 43.783413165784367 ], [ 1.649654, 43.785223 ] ] ], [ [ [ 1.656077, 43.804472 ], [ 1.657053, 43.807197 ], [ 1.654023, 43.815378 ], [ 1.650674, 43.81677 ], [ 1.643015, 43.818816 ], [ 1.641757, 43.818318 ], [ 1.639919, 43.817575 ], [ 1.638147, 43.820709 ], [ 1.638785, 43.825852 ], [ 1.641152, 43.828565 ], [ 1.643892, 43.826941 ], [ 1.647643, 43.823258 ], [ 1.648088135688599, 43.823029656942175 ], [ 1.64667, 43.819726 ], [ 1.64751, 43.819365 ], [ 1.64834, 43.819082 ], [ 1.652146, 43.817497 ], [ 1.652342, 43.817568 ], [ 1.655496, 43.818622 ], [ 1.659148, 43.818913 ], [ 1.66147, 43.810435 ], [ 1.659945, 43.809721 ], [ 1.65941, 43.809484 ], [ 1.658931, 43.809031 ], [ 1.658677, 43.808734 ], [ 1.659711, 43.805809 ], [ 1.66477035705917, 43.80168251442516 ], [ 1.663199378898098, 43.80059096662108 ], [ 1.658591774185792, 43.798478040390904 ], [ 1.656077, 43.804472 ] ] ], [ [ [ 1.65999, 43.832576 ], [ 1.651905, 43.835202 ], [ 1.651159, 43.834628 ], [ 1.648965, 43.837483 ], [ 1.647319, 43.840849 ], [ 1.646262, 43.844291 ], [ 1.641909, 43.85017 ], [ 1.64357, 43.853364 ], [ 1.650913, 43.85154 ], [ 1.654224, 43.846936 ], [ 1.652205, 43.847903 ], [ 1.650186, 43.848869 ], [ 1.648632, 43.845622 ], [ 1.651264, 43.840311 ], [ 1.654849, 43.839806 ], [ 1.660632, 43.836392 ], [ 1.660894, 43.836048 ], [ 1.661301, 43.835666 ], [ 1.664242, 43.831376 ], [ 1.665223, 43.826248 ], [ 1.660282, 43.822691 ], [ 1.659602, 43.822625 ], [ 1.658736, 43.822499 ], [ 1.662782, 43.82697 ], [ 1.65999, 43.832576 ] ] ], [ [ [ 1.664965, 43.848789 ], [ 1.662798, 43.8547 ], [ 1.662679, 43.858298 ], [ 1.667408, 43.859827 ], [ 1.670328, 43.861931 ], [ 1.675158, 43.864056 ], [ 1.674525, 43.872199 ], [ 1.674394, 43.876186 ], [ 1.674886, 43.879752 ], [ 1.675321, 43.880455 ], [ 1.67817, 43.882656 ], [ 1.67944, 43.881013 ], [ 1.679707, 43.880582 ], [ 1.687871, 43.877778 ], [ 1.690713, 43.877003 ], [ 1.694757, 43.877054 ], [ 1.6991, 43.884852 ], [ 1.698878, 43.885231 ], [ 1.698724, 43.885607 ], [ 1.697252, 43.887724 ], [ 1.696794, 43.888207 ], [ 1.696535, 43.888678 ], [ 1.696398, 43.889199 ], [ 1.696377, 43.889766 ], [ 1.696389, 43.889883 ], [ 1.699701, 43.890406 ], [ 1.702928, 43.889266 ], [ 1.704986, 43.884852 ], [ 1.709309, 43.88158 ], [ 1.709504, 43.881443 ], [ 1.709967, 43.880982 ], [ 1.710377, 43.880224 ], [ 1.714164, 43.876759 ], [ 1.71445, 43.876653 ], [ 1.721913, 43.880655 ], [ 1.721824, 43.883383 ], [ 1.721862, 43.883448 ], [ 1.72212, 43.883838 ], [ 1.723272, 43.884135 ], [ 1.723615, 43.884057 ], [ 1.724368, 43.883714 ], [ 1.727248, 43.880778 ], [ 1.727361435813789, 43.880706944480977 ], [ 1.72544, 43.877668 ], [ 1.724778, 43.873564 ], [ 1.726335, 43.86888 ], [ 1.726096, 43.864551 ], [ 1.726069, 43.864261 ], [ 1.719847, 43.859019 ], [ 1.717982, 43.859647 ], [ 1.712593, 43.861496 ], [ 1.711621, 43.86898 ], [ 1.712509, 43.870536 ], [ 1.712762, 43.871224 ], [ 1.713199, 43.873744 ], [ 1.713106, 43.874414 ], [ 1.7128, 43.875505 ], [ 1.712668, 43.876352 ], [ 1.712645, 43.876459 ], [ 1.709112, 43.876298 ], [ 1.70439, 43.881811 ], [ 1.704182, 43.882374 ], [ 1.703795, 43.882949 ], [ 1.703565, 43.883156 ], [ 1.701909, 43.883929 ], [ 1.701538, 43.883894 ], [ 1.700365, 43.883724 ], [ 1.700266, 43.883529 ], [ 1.700067, 43.882606 ], [ 1.700184, 43.881886 ], [ 1.70066, 43.879778 ], [ 1.693777, 43.87534 ], [ 1.6931, 43.875239 ], [ 1.692289, 43.874567 ], [ 1.68997, 43.871813 ], [ 1.683407, 43.87235 ], [ 1.681941, 43.874201 ], [ 1.681349, 43.874956 ], [ 1.680814, 43.875598 ], [ 1.68019, 43.875971 ], [ 1.679962, 43.876055 ], [ 1.678031, 43.874351 ], [ 1.677889, 43.873663 ], [ 1.676343, 43.8649 ], [ 1.67716, 43.863352 ], [ 1.670855, 43.857269 ], [ 1.668622, 43.857783 ], [ 1.667815, 43.854275 ], [ 1.666729, 43.850403 ], [ 1.667295, 43.846848 ], [ 1.661324, 43.843094 ], [ 1.656639, 43.844957 ], [ 1.655986, 43.845657 ], [ 1.664631, 43.846995 ], [ 1.664965, 43.848789 ] ] ], [ [ [ 1.737736, 43.883337 ], [ 1.739076, 43.886018 ], [ 1.739377, 43.886908 ], [ 1.74095, 43.888039 ], [ 1.742364, 43.887989 ], [ 1.742977, 43.88683 ], [ 1.742964, 43.886276 ], [ 1.743219, 43.881981 ], [ 1.74268, 43.878034 ], [ 1.742448, 43.87894 ], [ 1.742138, 43.879423 ], [ 1.741934, 43.879661 ], [ 1.741852, 43.879716 ], [ 1.738347, 43.879353 ], [ 1.729376, 43.878987 ], [ 1.728769, 43.879755 ], [ 1.735968, 43.8802 ], [ 1.737736, 43.883337 ] ] ], [ [ [ 1.756639, 43.876193 ], [ 1.756696, 43.877008 ], [ 1.757474, 43.878131 ], [ 1.758498, 43.877938 ], [ 1.758862, 43.87784 ], [ 1.759315, 43.877637 ], [ 1.768123, 43.877434 ], [ 1.775614, 43.878865 ], [ 1.775953, 43.878961 ], [ 1.776673, 43.879 ], [ 1.783671, 43.878394 ], [ 1.784737, 43.874955 ], [ 1.784104, 43.874759 ], [ 1.782687, 43.874432 ], [ 1.782273, 43.874343 ], [ 1.776884, 43.871052 ], [ 1.774128, 43.868736 ], [ 1.771229375128797, 43.869195953814909 ], [ 1.77279, 43.870438 ], [ 1.775494, 43.871816 ], [ 1.776046, 43.87213 ], [ 1.777097, 43.872759 ], [ 1.775249, 43.875849 ], [ 1.77038, 43.874648 ], [ 1.762574, 43.875201 ], [ 1.760767, 43.872087 ], [ 1.755003, 43.866887 ], [ 1.756808, 43.874593 ], [ 1.756639, 43.876193 ] ] ], [ [ [ 1.773069, 43.859042 ], [ 1.774101, 43.859168 ], [ 1.774383, 43.859212 ], [ 1.775267, 43.859386 ], [ 1.775659, 43.858661 ], [ 1.775963, 43.855854 ], [ 1.784087, 43.855351 ], [ 1.786618, 43.854519 ], [ 1.787209, 43.8544 ], [ 1.787584, 43.854292 ], [ 1.787757787833393, 43.854224514505574 ], [ 1.782073, 43.848056 ], [ 1.77779, 43.847102 ], [ 1.774758, 43.846419 ], [ 1.770638, 43.853711 ], [ 1.771513, 43.854928 ], [ 1.771573, 43.855658 ], [ 1.771518, 43.856131 ], [ 1.76835998046738, 43.860912733316589 ], [ 1.772606, 43.858948 ], [ 1.773069, 43.859042 ] ] ], [ [ [ 1.797022367175545, 43.854650008647596 ], [ 1.796300960589694, 43.851797312393039 ], [ 1.79346, 43.852415 ], [ 1.790706, 43.853104 ], [ 1.788269, 43.854026 ], [ 1.795186, 43.853516 ], [ 1.797022367175545, 43.854650008647596 ] ] ], [ [ [ 1.807849, 43.848686 ], [ 1.811609, 43.849159 ], [ 1.811613, 43.849159 ], [ 1.813308, 43.850701 ], [ 1.813415, 43.851974 ], [ 1.813436, 43.852111 ], [ 1.814389774400159, 43.854618273100741 ], [ 1.815709, 43.851857 ], [ 1.815787, 43.850367 ], [ 1.814961, 43.849366 ], [ 1.813962, 43.8493 ], [ 1.807958, 43.847633 ], [ 1.805578, 43.845767 ], [ 1.799129, 43.845101 ], [ 1.796135, 43.843103 ], [ 1.79147, 43.843215 ], [ 1.790555, 43.842992 ], [ 1.78925, 43.842521 ], [ 1.783671, 43.837389 ], [ 1.783014, 43.833849 ], [ 1.781545, 43.834122 ], [ 1.773419, 43.831642 ], [ 1.772884, 43.831832 ], [ 1.772347, 43.832124 ], [ 1.771782, 43.832686 ], [ 1.771435, 43.833197 ], [ 1.770967, 43.834017 ], [ 1.766746, 43.837833 ], [ 1.767168, 43.837647 ], [ 1.769096, 43.83672 ], [ 1.770872, 43.835657 ], [ 1.773483, 43.833613 ], [ 1.777395, 43.834716 ], [ 1.77745, 43.834738 ], [ 1.779611, 43.837514 ], [ 1.782856, 43.844542 ], [ 1.787132, 43.845494 ], [ 1.794153, 43.844142 ], [ 1.795994, 43.844767 ], [ 1.803907, 43.848152 ], [ 1.806493803018957, 43.848701473754197 ], [ 1.807702, 43.848656 ], [ 1.807849, 43.848686 ] ] ] ] } },
{ "type": "Feature", "properties": { "codgeo": "81220", "value": 720, "isochrone_group": 12.0, "nb_agences": 1 }, "geometry": { "type": "MultiPolygon", "coordinates": [ [ [ [ 1.652109, 43.806193 ], [ 1.653922, 43.813279 ], [ 1.648716, 43.815161 ], [ 1.647291, 43.814677 ], [ 1.638401, 43.813523 ], [ 1.637317, 43.813672 ], [ 1.633894, 43.814003 ], [ 1.631175, 43.814167 ], [ 1.631391, 43.81776 ], [ 1.63725, 43.819919 ], [ 1.634321, 43.827132 ], [ 1.631583, 43.829002 ], [ 1.632992, 43.832315 ], [ 1.635758, 43.831138 ], [ 1.637646, 43.830455 ], [ 1.64191, 43.830056 ], [ 1.642403, 43.830117 ], [ 1.644111, 43.830134 ], [ 1.645926, 43.830329 ], [ 1.64631, 43.826749 ], [ 1.651808, 43.822014 ], [ 1.650204, 43.822313 ], [ 1.64948, 43.822496 ], [ 1.64893, 43.822673 ], [ 1.648144, 43.823001 ], [ 1.647643, 43.823258 ], [ 1.643892, 43.826941 ], [ 1.641152, 43.828565 ], [ 1.638785, 43.825852 ], [ 1.638147, 43.820709 ], [ 1.639919, 43.817575 ], [ 1.641757, 43.818318 ], [ 1.643015, 43.818816 ], [ 1.650674, 43.81677 ], [ 1.654023, 43.815378 ], [ 1.657053, 43.807197 ], [ 1.656077, 43.804472 ], [ 1.657006882998672, 43.802255625596807 ], [ 1.655207, 43.801555 ], [ 1.651868624428196, 43.804952521684186 ], [ 1.652109, 43.806193 ] ] ], [ [ [ 1.660375573588911, 43.831801814634886 ], [ 1.662782, 43.82697 ], [ 1.658736, 43.822499 ], [ 1.657885, 43.822284 ], [ 1.652712, 43.821799 ], [ 1.660541, 43.825812 ], [ 1.660375573588911, 43.831801814634886 ] ] ], [ [ [ 1.645572, 43.840084 ], [ 1.645132, 43.840084 ], [ 1.644365, 43.843097 ], [ 1.639353, 43.849716 ], [ 1.635796, 43.851952 ], [ 1.635796, 43.855552 ], [ 1.638509, 43.857316 ], [ 1.639929, 43.858169 ], [ 1.640301, 43.857896 ], [ 1.644644156647819, 43.853097179664204 ], [ 1.64357, 43.853364 ], [ 1.641909, 43.85017 ], [ 1.646262, 43.844291 ], [ 1.647319, 43.840849 ], [ 1.647386418900464, 43.840711131215691 ], [ 1.646461, 43.840303 ], [ 1.645572, 43.840084 ] ] ], [ [ [ 1.659709, 43.854901 ], [ 1.659316, 43.855025 ], [ 1.658801, 43.855275 ], [ 1.658711, 43.855335 ], [ 1.657795, 43.85597 ], [ 1.657098, 43.856615 ], [ 1.659542, 43.859258 ], [ 1.664846, 43.86289 ], [ 1.667791, 43.86496 ], [ 1.670212, 43.871159 ], [ 1.670096, 43.874757 ], [ 1.671259, 43.883218 ], [ 1.670142, 43.884051 ], [ 1.669779, 43.884263 ], [ 1.671595, 43.887372 ], [ 1.671957, 43.88716 ], [ 1.673391, 43.886118 ], [ 1.674175, 43.885573 ], [ 1.676491, 43.884206 ], [ 1.676877, 43.883942 ], [ 1.677319, 43.883597 ], [ 1.677826, 43.883087 ], [ 1.678164633380193, 43.882651854008337 ], [ 1.675321, 43.880455 ], [ 1.674886, 43.879752 ], [ 1.674394, 43.876186 ], [ 1.674525, 43.872199 ], [ 1.675158, 43.864056 ], [ 1.670328, 43.861931 ], [ 1.667408, 43.859827 ], [ 1.662679, 43.858298 ], [ 1.662798, 43.8547 ], [ 1.664965, 43.848789 ], [ 1.66014, 43.854809 ], [ 1.659709, 43.854901 ] ] ], [ [ [ 1.688471, 43.881248 ], [ 1.690702, 43.88165 ], [ 1.696794, 43.888207 ], [ 1.697252, 43.887724 ], [ 1.698724, 43.885607 ], [ 1.698878, 43.885231 ], [ 1.6991, 43.884852 ], [ 1.694757, 43.877054 ], [ 1.690713, 43.877003 ], [ 1.687871, 43.877778 ], [ 1.679707, 43.880582 ], [ 1.67944, 43.881013 ], [ 1.688391, 43.881116 ], [ 1.688471, 43.881248 ] ] ], [ [ [ 1.696944, 43.892458 ], [ 1.699017, 43.895321 ], [ 1.699732, 43.895955 ], [ 1.700162, 43.896141 ], [ 1.703044, 43.895138 ], [ 1.704421, 43.892234 ], [ 1.708071, 43.885123 ], [ 1.708972, 43.884337 ], [ 1.711247, 43.881829 ], [ 1.719581, 43.883837 ], [ 1.720125, 43.88453 ], [ 1.720505, 43.884792 ], [ 1.721586, 43.88504 ], [ 1.725106, 43.886163 ], [ 1.730603, 43.890224 ], [ 1.738395, 43.89311 ], [ 1.741721, 43.894488 ], [ 1.742148, 43.893459 ], [ 1.74762, 43.887203 ], [ 1.748485, 43.886761 ], [ 1.752679, 43.881548 ], [ 1.758962, 43.881328 ], [ 1.760128, 43.880286 ], [ 1.767387, 43.878571 ], [ 1.770404, 43.880081 ], [ 1.775969, 43.88271 ], [ 1.77651, 43.882857 ], [ 1.776907, 43.882938 ], [ 1.78261, 43.883443 ], [ 1.78395, 43.883233 ], [ 1.790612219948381, 43.881673209994553 ], [ 1.788156, 43.879295 ], [ 1.787961, 43.876487 ], [ 1.788512, 43.875713 ], [ 1.791414, 43.870099 ], [ 1.793093, 43.868111 ], [ 1.7934, 43.867781 ], [ 1.793761, 43.867449 ], [ 1.795852, 43.8588 ], [ 1.794684389215869, 43.853552984458567 ], [ 1.788269, 43.854026 ], [ 1.787584, 43.854292 ], [ 1.787209, 43.8544 ], [ 1.786618, 43.854519 ], [ 1.784087, 43.855351 ], [ 1.775963, 43.855854 ], [ 1.775659, 43.858661 ], [ 1.775267, 43.859386 ], [ 1.774383, 43.859212 ], [ 1.774101, 43.859168 ], [ 1.773069, 43.859042 ], [ 1.772606, 43.858948 ], [ 1.766959, 43.861561 ], [ 1.768431, 43.86964 ], [ 1.774128, 43.868736 ], [ 1.776884, 43.871052 ], [ 1.782273, 43.874343 ], [ 1.782687, 43.874432 ], [ 1.784104, 43.874759 ], [ 1.784737, 43.874955 ], [ 1.783671, 43.878394 ], [ 1.776673, 43.879 ], [ 1.775953, 43.878961 ], [ 1.775614, 43.878865 ], [ 1.768123, 43.877434 ], [ 1.759315, 43.877637 ], [ 1.758862, 43.87784 ], [ 1.758498, 43.877938 ], [ 1.757474, 43.878131 ], [ 1.756696, 43.877008 ], [ 1.756639, 43.876193 ], [ 1.756808, 43.874593 ], [ 1.755003, 43.866887 ], [ 1.752163, 43.866838 ], [ 1.748989, 43.867781 ], [ 1.747865, 43.868164 ], [ 1.74729, 43.868365 ], [ 1.742647, 43.875968 ], [ 1.742796, 43.876639 ], [ 1.742765, 43.877137 ], [ 1.74268, 43.878034 ], [ 1.743219, 43.881981 ], [ 1.742964, 43.886276 ], [ 1.742977, 43.88683 ], [ 1.742364, 43.887989 ], [ 1.74095, 43.888039 ], [ 1.739377, 43.886908 ], [ 1.739076, 43.886018 ], [ 1.737736, 43.883337 ], [ 1.735968, 43.8802 ], [ 1.728769, 43.879755 ], [ 1.728324, 43.880104 ], [ 1.727248, 43.880778 ], [ 1.724368, 43.883714 ], [ 1.723615, 43.884057 ], [ 1.723272, 43.884135 ], [ 1.72212, 43.883838 ], [ 1.721862, 43.883448 ], [ 1.721824, 43.883383 ], [ 1.721913, 43.880655 ], [ 1.71445, 43.876653 ], [ 1.714164, 43.876759 ], [ 1.710377, 43.880224 ], [ 1.709967, 43.880982 ], [ 1.709504, 43.881443 ], [ 1.709309, 43.88158 ], [ 1.704986, 43.884852 ], [ 1.702928, 43.889266 ], [ 1.699701, 43.890406 ], [ 1.696398986136715, 43.889884576917126 ], [ 1.696466, 43.890246 ], [ 1.696944, 43.892458 ] ] ], [ [ [ 1.788096, 43.834605 ], [ 1.784532, 43.83376 ], [ 1.77696, 43.831509 ], [ 1.774765, 43.831347 ], [ 1.774329, 43.831336 ], [ 1.773428807853745, 43.831644993290332 ], [ 1.781545, 43.834122 ], [ 1.783014, 43.833849 ], [ 1.783671, 43.837389 ], [ 1.788778945829018, 43.842087687577433 ], [ 1.787437, 43.838144 ], [ 1.788096, 43.834605 ] ] ], [ [ [ 1.81583, 43.845522 ], [ 1.815415, 43.845591 ], [ 1.810262, 43.845531 ], [ 1.803436, 43.841967 ], [ 1.796572, 43.841051 ], [ 1.796317, 43.841554 ], [ 1.796057, 43.842191 ], [ 1.794650579880481, 43.843138638811006 ], [ 1.796135, 43.843103 ], [ 1.799129, 43.845101 ], [ 1.805578, 43.845767 ], [ 1.806526889007868, 43.846510960877623 ], [ 1.808741, 43.846624 ], [ 1.814684, 43.846367 ], [ 1.819422, 43.849661 ], [ 1.820858222158656, 43.848732859768226 ], [ 1.81748, 43.84619 ], [ 1.816551, 43.845595 ], [ 1.81583, 43.845522 ] ] ] ] } },
{ "type": "Feature", "properties": { "codgeo": "81220", "value": 780, "isochrone_group": 13.0, "nb_agences": 1 }, "geometry": { "type": "MultiPolygon", "coordinates": [ [ [ [ 1.640118, 43.81017 ], [ 1.635227484024408, 43.813874053692068 ], [ 1.637317, 43.813672 ], [ 1.638401, 43.813523 ], [ 1.647291, 43.814677 ], [ 1.648716, 43.815161 ], [ 1.653922, 43.813279 ], [ 1.652603845950463, 43.808127075237159 ], [ 1.651422, 43.809305 ], [ 1.647453, 43.811729 ], [ 1.646931, 43.811912 ], [ 1.644602, 43.812464 ], [ 1.643772, 43.808961 ], [ 1.643848172759729, 43.806848780918202 ], [ 1.640118, 43.81017 ] ] ], [ [ [ 1.627215, 43.809166 ], [ 1.627032, 43.809197 ], [ 1.626356, 43.809454 ], [ 1.624591, 43.810446 ], [ 1.624435, 43.81066 ], [ 1.624367, 43.810833 ], [ 1.624833, 43.812777 ], [ 1.626011, 43.814783 ], [ 1.627362, 43.817199 ], [ 1.630434, 43.819076 ], [ 1.629941, 43.827294 ], [ 1.625333, 43.829558 ], [ 1.623278, 43.829431 ], [ 1.623056, 43.833024 ], [ 1.624796, 43.8355 ], [ 1.627583, 43.837779 ], [ 1.632772, 43.835422 ], [ 1.635758, 43.831138 ], [ 1.632992, 43.832315 ], [ 1.631583, 43.829002 ], [ 1.634321, 43.827132 ], [ 1.63725, 43.819919 ], [ 1.631391, 43.81776 ], [ 1.631175, 43.814167 ], [ 1.633894, 43.814003 ], [ 1.634904560007949, 43.813905280057668 ], [ 1.629902, 43.811645 ], [ 1.627215, 43.809166 ] ] ], [ [ [ 1.642897, 43.83925 ], [ 1.642681, 43.839365 ], [ 1.641788, 43.839815 ], [ 1.641705, 43.840099 ], [ 1.638951, 43.847566 ], [ 1.635222, 43.849301 ], [ 1.635044, 43.852896 ], [ 1.629816, 43.859825 ], [ 1.631234, 43.863134 ], [ 1.638236, 43.865467 ], [ 1.640466, 43.864191 ], [ 1.640556, 43.863857 ], [ 1.640847, 43.862989 ], [ 1.646719, 43.857234 ], [ 1.652982, 43.859101 ], [ 1.654991, 43.862088 ], [ 1.660662, 43.866457 ], [ 1.667062, 43.872508 ], [ 1.667556, 43.875137 ], [ 1.668108, 43.875402 ], [ 1.668756, 43.875591 ], [ 1.669193, 43.884431 ], [ 1.668647, 43.884613 ], [ 1.666352, 43.884748 ], [ 1.665731, 43.884795 ], [ 1.66505, 43.884974 ], [ 1.664421, 43.885274 ], [ 1.661278, 43.886018 ], [ 1.66057, 43.887604 ], [ 1.660482, 43.888303 ], [ 1.661188, 43.889617 ], [ 1.661778, 43.889632 ], [ 1.662377, 43.889626 ], [ 1.663477, 43.889544 ], [ 1.66394, 43.889413 ], [ 1.668485, 43.888372 ], [ 1.673729, 43.888951 ], [ 1.675571, 43.889382 ], [ 1.676792, 43.885995 ], [ 1.677826, 43.883087 ], [ 1.677319, 43.883597 ], [ 1.676877, 43.883942 ], [ 1.676491, 43.884206 ], [ 1.674175, 43.885573 ], [ 1.673391, 43.886118 ], [ 1.671957, 43.88716 ], [ 1.671595, 43.887372 ], [ 1.669779, 43.884263 ], [ 1.670142, 43.884051 ], [ 1.671259, 43.883218 ], [ 1.670096, 43.874757 ], [ 1.670212, 43.871159 ], [ 1.667791, 43.86496 ], [ 1.664846, 43.86289 ], [ 1.659542, 43.859258 ], [ 1.657098, 43.856615 ], [ 1.657795, 43.85597 ], [ 1.658711, 43.855335 ], [ 1.658801, 43.855275 ], [ 1.659316, 43.855025 ], [ 1.659709, 43.854901 ], [ 1.66014, 43.854809 ], [ 1.664965, 43.848789 ], [ 1.664631, 43.846995 ], [ 1.655986, 43.845657 ], [ 1.655402, 43.846179 ], [ 1.654842, 43.846549 ], [ 1.654224, 43.846936 ], [ 1.6521, 43.847953 ], [ 1.650252, 43.848805 ], [ 1.648251, 43.850801 ], [ 1.647651, 43.851231 ], [ 1.647124, 43.851516 ], [ 1.645143, 43.852546 ], [ 1.640301, 43.857896 ], [ 1.639929, 43.858169 ], [ 1.638509, 43.857316 ], [ 1.635796, 43.855552 ], [ 1.635796, 43.851952 ], [ 1.639353, 43.849716 ], [ 1.644365, 43.843097 ], [ 1.645132, 43.840084 ], [ 1.645572, 43.840084 ], [ 1.646461, 43.840303 ], [ 1.648572, 43.841234 ], [ 1.648967, 43.841348 ], [ 1.650014, 43.841623 ], [ 1.650895, 43.841806 ], [ 1.658046, 43.839347 ], [ 1.659992, 43.834508 ], [ 1.660325, 43.833633 ], [ 1.660541, 43.825812 ], [ 1.652712, 43.821799 ], [ 1.651808, 43.822014 ], [ 1.64631, 43.826749 ], [ 1.645926, 43.830329 ], [ 1.644111, 43.830134 ], [ 1.64373, 43.839019 ], [ 1.642897, 43.83925 ] ] ], [ [ [ 1.688899, 43.88389 ], [ 1.689026, 43.88546 ], [ 1.69185, 43.891777 ], [ 1.692892, 43.900211 ], [ 1.696008, 43.902014 ], [ 1.697314, 43.900706 ], [ 1.70033, 43.898501 ], [ 1.706417, 43.897177 ], [ 1.70716, 43.897211 ], [ 1.707541, 43.897194 ], [ 1.707382, 43.893598 ], [ 1.710241, 43.886827 ], [ 1.716323, 43.886706 ], [ 1.720357, 43.890119 ], [ 1.722028, 43.893307 ], [ 1.7224, 43.893112 ], [ 1.725434, 43.892236 ], [ 1.726352, 43.892038 ], [ 1.726796, 43.891898 ], [ 1.733286, 43.894646 ], [ 1.733416, 43.899649 ], [ 1.736087, 43.902062 ], [ 1.73918, 43.899314 ], [ 1.739813, 43.898698 ], [ 1.740717, 43.897469 ], [ 1.741064, 43.896907 ], [ 1.741333, 43.896251 ], [ 1.741750035740966, 43.894418028624244 ], [ 1.741721, 43.894488 ], [ 1.738395, 43.89311 ], [ 1.730603, 43.890224 ], [ 1.725106, 43.886163 ], [ 1.721586, 43.88504 ], [ 1.720505, 43.884792 ], [ 1.720125, 43.88453 ], [ 1.719581, 43.883837 ], [ 1.711247, 43.881829 ], [ 1.708972, 43.884337 ], [ 1.708071, 43.885123 ], [ 1.704421, 43.892234 ], [ 1.703044, 43.895138 ], [ 1.700162, 43.896141 ], [ 1.699732, 43.895955 ], [ 1.699017, 43.895321 ], [ 1.696944, 43.892458 ], [ 1.696466, 43.890246 ], [ 1.696377, 43.889766 ], [ 1.696398, 43.889199 ], [ 1.696535, 43.888678 ], [ 1.696794, 43.888207 ], [ 1.690702, 43.88165 ], [ 1.688471, 43.881248 ], [ 1.688391, 43.881116 ], [ 1.688893, 43.883649 ], [ 1.688899, 43.88389 ] ] ], [ [ [ 1.754069, 43.887568 ], [ 1.753728, 43.883984 ], [ 1.754806320791947, 43.881473511606842 ], [ 1.752679, 43.881548 ], [ 1.748485, 43.886761 ], [ 1.74762, 43.887203 ], [ 1.744186209146187, 43.891128766736394 ], [ 1.750829, 43.889227 ], [ 1.754069, 43.887568 ] ] ], [ [ [ 1.765669, 43.883008 ], [ 1.772006, 43.883988 ], [ 1.775355, 43.887987 ], [ 1.778606, 43.88797 ], [ 1.781708, 43.886143 ], [ 1.783028, 43.885383 ], [ 1.784783839064625, 43.884877309619277 ], [ 1.783194, 43.88377 ], [ 1.782541582300289, 43.883436941620474 ], [ 1.776907, 43.882938 ], [ 1.77651, 43.882857 ], [ 1.775969, 43.88271 ], [ 1.770404, 43.880081 ], [ 1.767387, 43.878571 ], [ 1.762867584271934, 43.87963875009968 ], [ 1.763525, 43.880116 ], [ 1.765669, 43.883008 ] ] ], [ [ [ 1.788176016835654, 43.84031581010683 ], [ 1.789693488538297, 43.844775330136201 ], [ 1.789956090525891, 43.844701274105105 ], [ 1.788176016835654, 43.84031581010683 ] ] ], [ [ [ 1.788093513993746, 43.834618350494893 ], [ 1.787593179120357, 43.837305277834702 ], [ 1.788702, 43.834765 ], [ 1.788093513993746, 43.834618350494893 ] ] ], [ [ [ 1.811851, 43.843885 ], [ 1.80433, 43.840208 ], [ 1.801487, 43.838001 ], [ 1.800559, 43.837811 ], [ 1.798231, 43.838304 ], [ 1.798126, 43.838485 ], [ 1.798479, 43.84087 ], [ 1.798082374554556, 43.841252559308273 ], [ 1.803436, 43.841967 ], [ 1.810262, 43.845531 ], [ 1.813319944326889, 43.845566605794623 ], [ 1.813704429631132, 43.84527091728414 ], [ 1.813156, 43.8442 ], [ 1.81257, 43.843991 ], [ 1.811851, 43.843885 ] ] ] ] } },
{ "type": "Feature", "properties": { "codgeo": "81220", "value": 840, "isochrone_group": 14.0, "nb_agences": 1 }, "geometry": { "type": "MultiPolygon", "coordinates": [ [ [ [ 1.623060737768646, 43.805624506222415 ], [ 1.622263, 43.806312 ], [ 1.62135, 43.806475 ], [ 1.620875, 43.806426 ], [ 1.620219, 43.806284 ], [ 1.619736, 43.806148 ], [ 1.618870638814146, 43.804614021883403 ], [ 1.617971, 43.80764 ], [ 1.618377, 43.811951 ], [ 1.619543, 43.815804 ], [ 1.62212, 43.816574 ], [ 1.621518, 43.825204 ], [ 1.615002, 43.826694 ], [ 1.613957, 43.82635 ], [ 1.613431, 43.826902 ], [ 1.612831, 43.829769 ], [ 1.617335, 43.833152 ], [ 1.619704, 43.840823 ], [ 1.622759, 43.844481 ], [ 1.626307, 43.845093 ], [ 1.632007, 43.850577 ], [ 1.63194, 43.85272 ], [ 1.626689, 43.859506 ], [ 1.625284, 43.859067 ], [ 1.623803, 43.858257 ], [ 1.621825, 43.858784 ], [ 1.620753, 43.859086 ], [ 1.621729, 43.862551 ], [ 1.628417, 43.866336 ], [ 1.628675, 43.866044 ], [ 1.6346993687177, 43.864288627994625 ], [ 1.631234, 43.863134 ], [ 1.629816, 43.859825 ], [ 1.635044, 43.852896 ], [ 1.635222, 43.849301 ], [ 1.638951, 43.847566 ], [ 1.641705, 43.840099 ], [ 1.641788, 43.839815 ], [ 1.642681, 43.839365 ], [ 1.642897, 43.83925 ], [ 1.64373, 43.839019 ], [ 1.644111, 43.830134 ], [ 1.642403, 43.830117 ], [ 1.64191, 43.830056 ], [ 1.637646, 43.830455 ], [ 1.635758, 43.831138 ], [ 1.632772, 43.835422 ], [ 1.627583, 43.837779 ], [ 1.624796, 43.8355 ], [ 1.623056, 43.833024 ], [ 1.623278, 43.829431 ], [ 1.625333, 43.829558 ], [ 1.629941, 43.827294 ], [ 1.630434, 43.819076 ], [ 1.627362, 43.817199 ], [ 1.626011, 43.814783 ], [ 1.624833, 43.812777 ], [ 1.624367, 43.810833 ], [ 1.624435, 43.81066 ], [ 1.624591, 43.810446 ], [ 1.626356, 43.809454 ], [ 1.627032, 43.809197 ], [ 1.627215, 43.809166 ], [ 1.629902, 43.811645 ], [ 1.635081, 43.813985 ], [ 1.63776803498696, 43.81194985239722 ], [ 1.63829, 43.80922 ], [ 1.637833, 43.805649 ], [ 1.638813, 43.805523 ], [ 1.639613, 43.805437 ], [ 1.63976404790995, 43.80542458669251 ], [ 1.639764, 43.805424 ], [ 1.642997, 43.800107 ], [ 1.64404974413891, 43.799103951109345 ], [ 1.644884, 43.797447 ], [ 1.645482, 43.793897 ], [ 1.642113, 43.788526 ], [ 1.636888, 43.791006 ], [ 1.630375, 43.794588 ], [ 1.628606, 43.800376 ], [ 1.628422, 43.801607 ], [ 1.625347396551864, 43.8038944761241 ], [ 1.625263, 43.805833 ], [ 1.623060737768646, 43.805624506222415 ] ] ], [ [ [ 1.642771, 43.871593 ], [ 1.646337, 43.871103 ], [ 1.65171, 43.864011 ], [ 1.659515, 43.868068 ], [ 1.659834, 43.86947 ], [ 1.660128, 43.871616 ], [ 1.663441, 43.872139 ], [ 1.667062, 43.872508 ], [ 1.660662, 43.866457 ], [ 1.654991, 43.862088 ], [ 1.652982, 43.859101 ], [ 1.646719, 43.857234 ], [ 1.640847, 43.862989 ], [ 1.640556, 43.863857 ], [ 1.640466, 43.864191 ], [ 1.638236, 43.865467 ], [ 1.636379016370901, 43.864848270664581 ], [ 1.637846, 43.866915 ], [ 1.642771, 43.871593 ] ] ], [ [ [ 1.658331, 43.886576 ], [ 1.658024, 43.886641 ], [ 1.656972, 43.886818 ], [ 1.656371, 43.886966 ], [ 1.65589, 43.887153 ], [ 1.655343, 43.887431 ], [ 1.652845, 43.888541 ], [ 1.652212, 43.888845 ], [ 1.653771, 43.89209 ], [ 1.65636, 43.891436 ], [ 1.663477, 43.889544 ], [ 1.662377, 43.889626 ], [ 1.661778, 43.889632 ], [ 1.661188, 43.889617 ], [ 1.660482, 43.888303 ], [ 1.66057, 43.887604 ], [ 1.661278, 43.886018 ], [ 1.664421, 43.885274 ], [ 1.660006, 43.88612 ], [ 1.658331, 43.886576 ] ] ], [ [ [ 1.680734, 43.890096 ], [ 1.686735, 43.892339 ], [ 1.691692, 43.89902 ], [ 1.688576, 43.901962 ], [ 1.688063, 43.90222 ], [ 1.686788, 43.903796 ], [ 1.689044, 43.906602 ], [ 1.695322, 43.90581 ], [ 1.697678, 43.903189 ], [ 1.698026, 43.902867 ], [ 1.702914208709911, 43.897938901703313 ], [ 1.70033, 43.898501 ], [ 1.697314, 43.900706 ], [ 1.696008, 43.902014 ], [ 1.692892, 43.900211 ], [ 1.69185, 43.891777 ], [ 1.689026, 43.88546 ], [ 1.688899, 43.88389 ], [ 1.688893, 43.883649 ], [ 1.688391, 43.881116 ], [ 1.679707, 43.880582 ], [ 1.67944, 43.881013 ], [ 1.677826, 43.883087 ], [ 1.676792, 43.885995 ], [ 1.675571, 43.889382 ], [ 1.673729, 43.888951 ], [ 1.673081337378459, 43.888879490339846 ], [ 1.67763, 43.891919 ], [ 1.680734, 43.890096 ] ] ], [ [ [ 1.710333, 43.898209 ], [ 1.710864, 43.897945 ], [ 1.711423, 43.897509 ], [ 1.718832, 43.895121 ], [ 1.720604, 43.894066 ], [ 1.721065, 43.89386 ], [ 1.722005, 43.89342 ], [ 1.725434, 43.892236 ], [ 1.7224, 43.893112 ], [ 1.722028, 43.893307 ], [ 1.720357, 43.890119 ], [ 1.716323, 43.886706 ], [ 1.710241, 43.886827 ], [ 1.707382, 43.893598 ], [ 1.707541, 43.897194 ], [ 1.70716, 43.897211 ], [ 1.706417, 43.897177 ], [ 1.706178145450493, 43.897228953905632 ], [ 1.709578, 43.898472 ], [ 1.710333, 43.898209 ] ] ], [ [ [ 1.733286, 43.894646 ], [ 1.732919402437033, 43.894490775022639 ], [ 1.733296705422708, 43.895057994075486 ], [ 1.733286, 43.894646 ] ] ], [ [ [ 1.732755, 43.900585 ], [ 1.731962, 43.90222 ], [ 1.731792, 43.902727 ], [ 1.73047, 43.905397 ], [ 1.730091, 43.906388 ], [ 1.730106, 43.907039 ], [ 1.730363, 43.908352 ], [ 1.733896, 43.907661 ], [ 1.735299, 43.905334 ], [ 1.73918, 43.899314 ], [ 1.736087, 43.902062 ], [ 1.733426705565279, 43.899658671482207 ], [ 1.733163, 43.899954 ], [ 1.732755, 43.900585 ] ] ], [ [ [ 1.750372, 43.893833 ], [ 1.751058, 43.894118 ], [ 1.752442, 43.890795 ], [ 1.751899467001795, 43.888678881248154 ], [ 1.750829, 43.889227 ], [ 1.742893, 43.891499 ], [ 1.742148, 43.893459 ], [ 1.741753, 43.894405 ], [ 1.741333, 43.896251 ], [ 1.749656, 43.893383 ], [ 1.750372, 43.893833 ] ] ], [ [ [ 1.764655, 43.889231 ], [ 1.765923, 43.8926 ], [ 1.768162, 43.891757 ], [ 1.774764373062411, 43.892196782321847 ], [ 1.774781, 43.888733 ], [ 1.772019, 43.886425 ], [ 1.772747, 43.885554 ], [ 1.77286090569201, 43.885008832446225 ], [ 1.772006, 43.883988 ], [ 1.765669, 43.883008 ], [ 1.763525, 43.880116 ], [ 1.76023, 43.877724 ], [ 1.756684, 43.877102 ], [ 1.760933, 43.883478 ], [ 1.764655, 43.889231 ] ] ], [ [ [ 1.805221, 43.836834 ], [ 1.800559, 43.837811 ], [ 1.801487, 43.838001 ], [ 1.802971712594421, 43.839153571472337 ], [ 1.803262, 43.839314 ], [ 1.807341295094095, 43.836857986045295 ], [ 1.807325, 43.836845 ], [ 1.807001, 43.836818 ], [ 1.806173, 43.836812 ], [ 1.805221, 43.836834 ] ] ] ] } },
{ "type": "Feature", "properties": { "codgeo": "81220", "value": 900, "isochrone_group": 15.0, "nb_agences": 1 }, "geometry": { "type": "MultiPolygon", "coordinates": [ [ [ [ 1.611861, 43.813164 ], [ 1.613137, 43.814781 ], [ 1.611659, 43.823608 ], [ 1.610788, 43.823591 ], [ 1.606901, 43.822798 ], [ 1.605587, 43.823878 ], [ 1.605502, 43.823951 ], [ 1.60475, 43.825685 ], [ 1.610198, 43.831468 ], [ 1.613687, 43.838386 ], [ 1.615041, 43.841721 ], [ 1.619118, 43.848527 ], [ 1.621032, 43.855068 ], [ 1.617223, 43.858564 ], [ 1.61294, 43.863653 ], [ 1.614653, 43.86682 ], [ 1.623251, 43.869185 ], [ 1.625735, 43.86805 ], [ 1.627619, 43.866939 ], [ 1.633804, 43.866676 ], [ 1.636791, 43.868685 ], [ 1.643251, 43.874433 ], [ 1.643662, 43.874853 ], [ 1.644226, 43.875227 ], [ 1.647217, 43.877811 ], [ 1.647046, 43.885188 ], [ 1.644585, 43.891022 ], [ 1.644694, 43.89462 ], [ 1.646445, 43.89462 ], [ 1.647012, 43.894587 ], [ 1.647741, 43.894463 ], [ 1.649963, 43.893962 ], [ 1.657691, 43.893344 ], [ 1.66394, 43.889413 ], [ 1.663477, 43.889544 ], [ 1.65636, 43.891436 ], [ 1.653771, 43.89209 ], [ 1.652212, 43.888845 ], [ 1.652845, 43.888541 ], [ 1.655343, 43.887431 ], [ 1.65589, 43.887153 ], [ 1.656371, 43.886966 ], [ 1.656972, 43.886818 ], [ 1.658024, 43.886641 ], [ 1.658331, 43.886576 ], [ 1.660006, 43.88612 ], [ 1.664421, 43.885274 ], [ 1.66505, 43.884974 ], [ 1.665731, 43.884795 ], [ 1.666352, 43.884748 ], [ 1.668647, 43.884613 ], [ 1.669193, 43.884431 ], [ 1.671259, 43.883218 ], [ 1.66997, 43.874691 ], [ 1.667062, 43.872508 ], [ 1.663441, 43.872139 ], [ 1.660128, 43.871616 ], [ 1.659834, 43.86947 ], [ 1.659515, 43.868068 ], [ 1.65171, 43.864011 ], [ 1.646337, 43.871103 ], [ 1.642771, 43.871593 ], [ 1.637846, 43.866915 ], [ 1.635762, 43.863979 ], [ 1.628675, 43.866044 ], [ 1.628417, 43.866336 ], [ 1.621729, 43.862551 ], [ 1.620753, 43.859086 ], [ 1.621825, 43.858784 ], [ 1.623803, 43.858257 ], [ 1.625284, 43.859067 ], [ 1.626689, 43.859506 ], [ 1.63194, 43.85272 ], [ 1.632007, 43.850577 ], [ 1.626307, 43.845093 ], [ 1.622759, 43.844481 ], [ 1.619704, 43.840823 ], [ 1.617335, 43.833152 ], [ 1.612831, 43.829769 ], [ 1.613431, 43.826902 ], [ 1.613957, 43.82635 ], [ 1.615002, 43.826694 ], [ 1.621518, 43.825204 ], [ 1.62212, 43.816574 ], [ 1.619543, 43.815804 ], [ 1.618377, 43.811951 ], [ 1.617971, 43.80764 ], [ 1.618087378360665, 43.807248555825858 ], [ 1.617107, 43.807481 ], [ 1.616257, 43.807603 ], [ 1.615706, 43.807625 ], [ 1.615217, 43.807577 ], [ 1.614577, 43.807375 ], [ 1.613036994808093, 43.806896265509316 ], [ 1.611861, 43.813164 ] ] ], [ [ [ 1.68147, 43.894281 ], [ 1.682931, 43.902062 ], [ 1.679705, 43.907552 ], [ 1.681641, 43.910588 ], [ 1.689016, 43.911072 ], [ 1.691415, 43.910897 ], [ 1.698638, 43.910223 ], [ 1.699582, 43.908444 ], [ 1.699994, 43.906888 ], [ 1.705903, 43.900208 ], [ 1.710061, 43.901829 ], [ 1.713516, 43.900819 ], [ 1.720904, 43.898196 ], [ 1.722309, 43.905941 ], [ 1.719671, 43.908078 ], [ 1.720999, 43.911424 ], [ 1.726295, 43.910281 ], [ 1.724434, 43.910381 ], [ 1.723586, 43.910484 ], [ 1.723151, 43.90691 ], [ 1.723999, 43.906807 ], [ 1.731555304352031, 43.903205046429711 ], [ 1.731792, 43.902727 ], [ 1.731962, 43.90222 ], [ 1.732755, 43.900585 ], [ 1.733163, 43.899954 ], [ 1.735106, 43.897778 ], [ 1.730183, 43.890377 ], [ 1.726796, 43.891898 ], [ 1.726352, 43.892038 ], [ 1.725434, 43.892236 ], [ 1.722005, 43.89342 ], [ 1.721065, 43.89386 ], [ 1.720604, 43.894066 ], [ 1.718832, 43.895121 ], [ 1.711423, 43.897509 ], [ 1.710864, 43.897945 ], [ 1.710333, 43.898209 ], [ 1.709578, 43.898472 ], [ 1.705861, 43.897113 ], [ 1.703663, 43.897184 ], [ 1.698026, 43.902867 ], [ 1.697678, 43.903189 ], [ 1.695322, 43.90581 ], [ 1.689044, 43.906602 ], [ 1.686788, 43.903796 ], [ 1.688063, 43.90222 ], [ 1.688576, 43.901962 ], [ 1.691692, 43.89902 ], [ 1.686735, 43.892339 ], [ 1.680734, 43.890096 ], [ 1.680423429759789, 43.890278399983224 ], [ 1.681131, 43.890697 ], [ 1.68147, 43.894281 ] ] ], [ [ [ 1.741747638510482, 43.905721303575589 ], [ 1.739813, 43.898698 ], [ 1.73918, 43.899314 ], [ 1.735877752126387, 43.904436270600137 ], [ 1.741668, 43.905748 ], [ 1.741747638510482, 43.905721303575589 ] ] ], [ [ [ 1.753967, 43.896607 ], [ 1.754657, 43.896901 ], [ 1.757082, 43.89672 ], [ 1.761676, 43.897631 ], [ 1.762622, 43.897645 ], [ 1.762748, 43.897523 ], [ 1.763308, 43.896857 ], [ 1.763394, 43.896741 ], [ 1.766515073450823, 43.895169967959603 ], [ 1.765717, 43.892678 ], [ 1.764449, 43.889308 ], [ 1.764637218060669, 43.889203514912154 ], [ 1.760933, 43.883478 ], [ 1.756684, 43.877102 ], [ 1.756639, 43.876193 ], [ 1.757066, 43.87489 ], [ 1.75714, 43.874678 ], [ 1.75743, 43.874235 ], [ 1.755003, 43.866887 ], [ 1.752163, 43.866838 ], [ 1.748989, 43.867781 ], [ 1.747865, 43.868164 ], [ 1.74729, 43.868365 ], [ 1.742647, 43.875968 ], [ 1.742796, 43.876639 ], [ 1.742765, 43.877137 ], [ 1.748735, 43.883619 ], [ 1.749767, 43.884307 ], [ 1.75007, 43.884533 ], [ 1.750757, 43.885133 ], [ 1.751049, 43.885519 ], [ 1.751392, 43.886239 ], [ 1.751538, 43.887269 ], [ 1.752442, 43.890795 ], [ 1.751058, 43.894118 ], [ 1.750372, 43.893833 ], [ 1.751641, 43.894542 ], [ 1.753967, 43.896607 ] ] ], [ [ [ 1.811417, 43.835078 ], [ 1.811415709169824, 43.835078550628161 ], [ 1.812431, 43.835432 ], [ 1.814531, 43.836165 ], [ 1.811417, 43.835078 ] ] ], [ [ [ 1.763227113768538, 43.837922724979848 ], [ 1.763227113768548, 43.837922724979848 ], [ 1.759968321765986, 43.837404388135965 ], [ 1.763227113768538, 43.837922724979848 ] ] ] ] } },
{ "type": "Feature", "properties": { "codgeo": "81220", "value": 960, "isochrone_group": 16.0, "nb_agences": 1 }, "geometry": { "type": "MultiPolygon", "coordinates": [ [ [ [ 1.599198, 43.821432 ], [ 1.601067, 43.823377 ], [ 1.605554, 43.829292 ], [ 1.606914, 43.832625 ], [ 1.608447, 43.838978 ], [ 1.608686, 43.84257 ], [ 1.611731, 43.845028 ], [ 1.613798, 43.852132 ], [ 1.615065, 43.855501 ], [ 1.610614, 43.863239 ], [ 1.608112, 43.863012 ], [ 1.607305, 43.863035 ], [ 1.606812, 43.863107 ], [ 1.605061, 43.863238 ], [ 1.604378444497252, 43.863799250995903 ], [ 1.610096, 43.865832 ], [ 1.611249, 43.864841 ], [ 1.61165, 43.864637 ], [ 1.611821, 43.864575 ], [ 1.613129, 43.867911 ], [ 1.61422498663086, 43.872412749309113 ], [ 1.617909, 43.872086 ], [ 1.62348, 43.871987 ], [ 1.623741, 43.871448 ], [ 1.625735, 43.86805 ], [ 1.623251, 43.869185 ], [ 1.614653, 43.86682 ], [ 1.61294, 43.863653 ], [ 1.617223, 43.858564 ], [ 1.621032, 43.855068 ], [ 1.619118, 43.848527 ], [ 1.615041, 43.841721 ], [ 1.613687, 43.838386 ], [ 1.610198, 43.831468 ], [ 1.60475, 43.825685 ], [ 1.605502, 43.823951 ], [ 1.605587, 43.823878 ], [ 1.606901, 43.822798 ], [ 1.610788, 43.823591 ], [ 1.611659, 43.823608 ], [ 1.613137, 43.814781 ], [ 1.611861, 43.813164 ], [ 1.613009687969973, 43.807041803576254 ], [ 1.609718080884363, 43.806342037551183 ], [ 1.607769, 43.810131 ], [ 1.606861, 43.812401 ], [ 1.600034, 43.81765 ], [ 1.599532, 43.817726 ], [ 1.598601, 43.817882 ], [ 1.598074, 43.819944 ], [ 1.598146, 43.820135 ], [ 1.599198, 43.821432 ] ] ], [ [ [ 1.63515, 43.871074 ], [ 1.635847, 43.870625 ], [ 1.63821548705516, 43.869952484766721 ], [ 1.636791, 43.868685 ], [ 1.633804, 43.866676 ], [ 1.627619, 43.866939 ], [ 1.625735, 43.86805 ], [ 1.633201, 43.868047 ], [ 1.63515, 43.871074 ] ] ], [ [ [ 1.644123, 43.881356 ], [ 1.643314, 43.884864 ], [ 1.636615, 43.889986 ], [ 1.636068, 43.891314 ], [ 1.635979, 43.891651 ], [ 1.635754, 43.893481 ], [ 1.63809, 43.896242 ], [ 1.640789, 43.898625 ], [ 1.645153, 43.89756 ], [ 1.653566, 43.895199 ], [ 1.654246, 43.894371 ], [ 1.654739447596483, 43.893580032529172 ], [ 1.649963, 43.893962 ], [ 1.647741, 43.894463 ], [ 1.647012, 43.894587 ], [ 1.646445, 43.89462 ], [ 1.644694, 43.89462 ], [ 1.644585, 43.891022 ], [ 1.647046, 43.885188 ], [ 1.647145524512534, 43.880894477608372 ], [ 1.645707, 43.881169 ], [ 1.644123, 43.881356 ] ] ], [ [ [ 1.678593, 43.895932 ], [ 1.677348, 43.904085 ], [ 1.67387, 43.911153 ], [ 1.672575, 43.911867 ], [ 1.672964, 43.913235 ], [ 1.67316, 43.913593 ], [ 1.674314, 43.915019 ], [ 1.683075, 43.914261 ], [ 1.691415, 43.917145 ], [ 1.693189, 43.916836 ], [ 1.694965, 43.916548 ], [ 1.699925, 43.913334 ], [ 1.706761, 43.914007 ], [ 1.706982, 43.913974 ], [ 1.709919779728304, 43.913523251274718 ], [ 1.709361, 43.909975 ], [ 1.714244, 43.908977 ], [ 1.717733, 43.90809 ], [ 1.722188156439924, 43.905274855250681 ], [ 1.720904, 43.898196 ], [ 1.713516, 43.900819 ], [ 1.710061, 43.901829 ], [ 1.705903, 43.900208 ], [ 1.699994, 43.906888 ], [ 1.699582, 43.908444 ], [ 1.698638, 43.910223 ], [ 1.691415, 43.910897 ], [ 1.689016, 43.911072 ], [ 1.681641, 43.910588 ], [ 1.679705, 43.907552 ], [ 1.682931, 43.902062 ], [ 1.68147, 43.894281 ], [ 1.681131, 43.890697 ], [ 1.673391, 43.886118 ], [ 1.671957, 43.88716 ], [ 1.671453, 43.887447 ], [ 1.671098, 43.887607 ], [ 1.670317, 43.887851 ], [ 1.669928, 43.887977 ], [ 1.669243, 43.888226 ], [ 1.677041, 43.892684 ], [ 1.678593, 43.895932 ] ] ], [ [ [ 1.749962, 43.902647 ], [ 1.749968219683692, 43.90265054598796 ], [ 1.750116, 43.902576 ], [ 1.754745, 43.897049 ], [ 1.7548347954162, 43.896887729496768 ], [ 1.754657, 43.896901 ], [ 1.753967, 43.896607 ], [ 1.751641, 43.894542 ], [ 1.750372, 43.893833 ], [ 1.749656, 43.893383 ], [ 1.741333, 43.896251 ], [ 1.741064, 43.896907 ], [ 1.740717, 43.897469 ], [ 1.739813, 43.898698 ], [ 1.740225940526007, 43.900197094873334 ], [ 1.745178108614923, 43.904378244893309 ], [ 1.749962, 43.902647 ] ] ], [ [ [ 1.751787, 43.828883 ], [ 1.755304041441252, 43.833199515572709 ], [ 1.755304041441252, 43.833199515572709 ], [ 1.751787, 43.828883 ] ] ], [ [ [ 1.732675, 43.912132 ], [ 1.729766697939886, 43.910836117168841 ], [ 1.726295, 43.910281 ], [ 1.722613, 43.911768 ], [ 1.718799, 43.913241 ], [ 1.715199, 43.913264 ], [ 1.712785089347069, 43.913386113327817 ], [ 1.718476, 43.914689 ], [ 1.722626, 43.911849 ], [ 1.726048, 43.910732 ], [ 1.732529208582655, 43.913496371703367 ], [ 1.732675, 43.912132 ] ] ], [ [ [ 1.80365, 43.834078 ], [ 1.803649406601225, 43.834078716647582 ], [ 1.804658, 43.834131 ], [ 1.806713, 43.834239 ], [ 1.80365, 43.834078 ] ] ], [ [ [ 1.788702, 43.834765 ], [ 1.788666479685201, 43.834846376054521 ], [ 1.788666479685201, 43.834846376054521 ], [ 1.788702, 43.834765 ] ] ] ] } },
{ "type": "Feature", "properties": { "codgeo": "81220", "value": 1020, "isochrone_group": 17.0, "nb_agences": 1 }, "geometry": { "type": "MultiPolygon", "coordinates": [ [ [ [ 1.590453, 43.820154 ], [ 1.590976, 43.820385 ], [ 1.591811, 43.82062 ], [ 1.593085, 43.820849 ], [ 1.594472, 43.82091 ], [ 1.596168, 43.821039 ], [ 1.597881, 43.821418 ], [ 1.600820065652277, 43.823120024448201 ], [ 1.599198, 43.821432 ], [ 1.598146, 43.820135 ], [ 1.598074, 43.819944 ], [ 1.598601, 43.817882 ], [ 1.599532, 43.817726 ], [ 1.600034, 43.81765 ], [ 1.606861, 43.812401 ], [ 1.607769, 43.810131 ], [ 1.610589679862298, 43.804647671850752 ], [ 1.608045, 43.805432 ], [ 1.608030160720641, 43.805427186716038 ], [ 1.607545, 43.805667 ], [ 1.607159, 43.805798 ], [ 1.602917, 43.80885 ], [ 1.602388, 43.808944 ], [ 1.600898859803126, 43.809206549905184 ], [ 1.601033, 43.809697 ], [ 1.601469, 43.81327 ], [ 1.596438, 43.817449 ], [ 1.594585, 43.817312 ], [ 1.592425086136857, 43.816765468397506 ], [ 1.592267, 43.817045 ], [ 1.590448288654152, 43.820151506955227 ], [ 1.590453, 43.820154 ] ] ], [ [ [ 1.608571, 43.842592 ], [ 1.60458279181189, 43.84497154227909 ], [ 1.6086, 43.851229 ], [ 1.609928, 43.854236 ], [ 1.608112, 43.863012 ], [ 1.610147008459531, 43.863196631063289 ], [ 1.610649961425876, 43.863176481574179 ], [ 1.615065, 43.855501 ], [ 1.613798, 43.852132 ], [ 1.611731, 43.845028 ], [ 1.608686, 43.84257 ], [ 1.608447478345438, 43.838985189191675 ], [ 1.608198, 43.839004 ], [ 1.607971140052498, 43.839042828643933 ], [ 1.608571, 43.842592 ] ] ], [ [ [ 1.605059960585507, 43.863238854688632 ], [ 1.605061, 43.863238 ], [ 1.606812, 43.863107 ], [ 1.604970317548054, 43.863075919801652 ], [ 1.605054, 43.863237 ], [ 1.605059960585507, 43.863238854688632 ] ] ], [ [ [ 1.624064, 43.871273 ], [ 1.630717, 43.870179 ], [ 1.633397, 43.872582 ], [ 1.634342, 43.871707 ], [ 1.635199659815813, 43.871042009673893 ], [ 1.63515, 43.871074 ], [ 1.633201, 43.868047 ], [ 1.625735, 43.86805 ], [ 1.623741, 43.871448 ], [ 1.62348, 43.871987 ], [ 1.617909, 43.872086 ], [ 1.61584593660861, 43.872268981023737 ], [ 1.618495953298742, 43.874648 ], [ 1.622811, 43.874648 ], [ 1.624064, 43.871273 ] ] ], [ [ [ 1.653199, 43.878856 ], [ 1.652699, 43.879 ], [ 1.651673, 43.879607 ], [ 1.652101, 43.879452 ], [ 1.653321, 43.882839 ], [ 1.660006, 43.88612 ], [ 1.664421, 43.885274 ], [ 1.66505, 43.884974 ], [ 1.665731, 43.884795 ], [ 1.666352, 43.884748 ], [ 1.668647, 43.884613 ], [ 1.669193, 43.884431 ], [ 1.671259, 43.883218 ], [ 1.66997, 43.874691 ], [ 1.667062, 43.872508 ], [ 1.662598, 43.870549 ], [ 1.659834, 43.86947 ], [ 1.657555, 43.877496 ], [ 1.6563, 43.877793 ], [ 1.653199, 43.878856 ] ] ], [ [ [ 1.637783, 43.88144 ], [ 1.638697, 43.886205 ], [ 1.631603152292123, 43.887526320958564 ], [ 1.636753140849616, 43.889880378648797 ], [ 1.643314, 43.884864 ], [ 1.644123, 43.881356 ], [ 1.645707, 43.881169 ], [ 1.64105, 43.879533 ], [ 1.640184, 43.878758 ], [ 1.637783, 43.88144 ] ] ], [ [ [ 1.6275964939432, 43.893599232456744 ], [ 1.631329, 43.89775 ], [ 1.631841, 43.901313 ], [ 1.636006, 43.903366 ], [ 1.64349, 43.906409 ], [ 1.645173, 43.903464 ], [ 1.645178, 43.903229 ], [ 1.645061, 43.900924 ], [ 1.65292, 43.896817 ], [ 1.654246, 43.894371 ], [ 1.653566, 43.895199 ], [ 1.645153, 43.89756 ], [ 1.640789, 43.898625 ], [ 1.63809, 43.896242 ], [ 1.635890190742099, 43.893641968595446 ], [ 1.633154, 43.893493 ], [ 1.631701, 43.892466 ], [ 1.6275964939432, 43.893599232456744 ] ] ], [ [ [ 1.671747, 43.904715 ], [ 1.667112, 43.912266 ], [ 1.666615, 43.912355 ], [ 1.663549, 43.914052 ], [ 1.662577, 43.915054 ], [ 1.662828, 43.915699 ], [ 1.663086, 43.916017 ], [ 1.665159, 43.917562 ], [ 1.672395, 43.915918 ], [ 1.680897, 43.917104 ], [ 1.688852, 43.919664 ], [ 1.691356, 43.923434 ], [ 1.693934, 43.925594 ], [ 1.695785, 43.924057 ], [ 1.696845, 43.920754 ], [ 1.70005, 43.916068 ], [ 1.70745, 43.917285 ], [ 1.709880937861521, 43.916334519971244 ], [ 1.709652, 43.916284 ], [ 1.707195, 43.91657 ], [ 1.698401, 43.915246 ], [ 1.697915, 43.915348 ], [ 1.697572, 43.915397 ], [ 1.697132, 43.915446 ], [ 1.696803, 43.915464 ], [ 1.696790252861522, 43.915365265585301 ], [ 1.694965, 43.916548 ], [ 1.693189, 43.916836 ], [ 1.691415, 43.917145 ], [ 1.683075, 43.914261 ], [ 1.674314, 43.915019 ], [ 1.67316, 43.913593 ], [ 1.672964, 43.913235 ], [ 1.672575, 43.911867 ], [ 1.67387, 43.911153 ], [ 1.677348, 43.904085 ], [ 1.678593, 43.895932 ], [ 1.677041, 43.892684 ], [ 1.669243, 43.888226 ], [ 1.668745, 43.888341 ], [ 1.668485, 43.888372 ], [ 1.668159, 43.888386 ], [ 1.6739, 43.893916 ], [ 1.675143, 43.897294 ], [ 1.671747, 43.904715 ] ] ], [ [ [ 1.715075763675644, 43.917480867932028 ], [ 1.717699, 43.918406 ], [ 1.720773, 43.916532 ], [ 1.721838296211021, 43.915326066168944 ], [ 1.720305, 43.915801 ], [ 1.71746, 43.918007 ], [ 1.715075763675644, 43.917480867932028 ] ] ], [ [ [ 1.606156784542636, 43.839367273681084 ], [ 1.606368029088853, 43.83931721213694 ], [ 1.606305, 43.839328 ], [ 1.606156784542636, 43.839367273681084 ] ] ], [ [ [ 1.630361, 43.887763 ], [ 1.628152, 43.888035 ], [ 1.627107478451057, 43.888121739751789 ], [ 1.628405, 43.888032 ], [ 1.630361, 43.887763 ] ] ], [ [ [ 1.626762423325617, 43.888150394015533 ], [ 1.626719, 43.888154 ], [ 1.625545, 43.888322 ], [ 1.625545024314997, 43.888322169871252 ], [ 1.626762423325617, 43.888150394015533 ] ] ] ] } },
{ "type": "Feature", "properties": { "codgeo": "81220", "value": 1080, "isochrone_group": 18.0, "nb_agences": 1 }, "geometry": { "type": "MultiPolygon", "coordinates": [ [ [ [ 1.591811, 43.82062 ], [ 1.591620801380109, 43.820566471047101 ], [ 1.591185, 43.820455 ], [ 1.591033559849491, 43.820616238468588 ], [ 1.591811, 43.82062 ] ] ], [ [ [ 1.604136430241607, 43.854102097142899 ], [ 1.607143, 43.856951 ], [ 1.603725715177396, 43.861104431502937 ], [ 1.605283025276288, 43.863081197051372 ], [ 1.606812, 43.863107 ], [ 1.607305, 43.863035 ], [ 1.608112, 43.863012 ], [ 1.609928, 43.854236 ], [ 1.6086, 43.851229 ], [ 1.605715386208543, 43.846735742992649 ], [ 1.60376, 43.849076 ], [ 1.60474, 43.85254 ], [ 1.604136430241607, 43.854102097142899 ] ] ], [ [ [ 1.623593128109585, 43.876171773897276 ], [ 1.6238, 43.876211 ], [ 1.6247, 43.875685 ], [ 1.625636, 43.874292 ], [ 1.62558, 43.872905 ], [ 1.625577, 43.872834 ], [ 1.629494291198412, 43.870380058684653 ], [ 1.624064, 43.871273 ], [ 1.622811, 43.874648 ], [ 1.622121290145697, 43.874648 ], [ 1.622209, 43.874782 ], [ 1.623785, 43.875439 ], [ 1.623593128109585, 43.876171773897276 ] ] ], [ [ [ 1.628152, 43.888035 ], [ 1.630361, 43.887763 ], [ 1.631068, 43.887626 ], [ 1.638697, 43.886205 ], [ 1.637783, 43.88144 ], [ 1.640184, 43.878758 ], [ 1.64105, 43.879533 ], [ 1.645707, 43.881169 ], [ 1.649941, 43.880361 ], [ 1.650683, 43.880034 ], [ 1.651673, 43.879607 ], [ 1.652699, 43.879 ], [ 1.653199, 43.878856 ], [ 1.6563, 43.877793 ], [ 1.657555, 43.877496 ], [ 1.659834, 43.86947 ], [ 1.659848, 43.868757 ], [ 1.653907, 43.862884 ], [ 1.65171, 43.864011 ], [ 1.645837, 43.868126 ], [ 1.642299, 43.868793 ], [ 1.636445, 43.870004 ], [ 1.635847, 43.870625 ], [ 1.635259, 43.870996 ], [ 1.634902, 43.879054 ], [ 1.634893, 43.882654 ], [ 1.628152, 43.888035 ] ] ], [ [ [ 1.622696, 43.900169 ], [ 1.62443, 43.903324 ], [ 1.630412, 43.906104 ], [ 1.634007, 43.905915 ], [ 1.641961, 43.908567 ], [ 1.649985, 43.909499 ], [ 1.655049, 43.913185 ], [ 1.654446, 43.919823 ], [ 1.654388, 43.919926 ], [ 1.654132, 43.920375 ], [ 1.656055, 43.922306 ], [ 1.657263, 43.922152 ], [ 1.65925, 43.921691 ], [ 1.659716, 43.921566 ], [ 1.664495, 43.920256 ], [ 1.664778, 43.919877 ], [ 1.669187191195462, 43.916646805648796 ], [ 1.665159, 43.917562 ], [ 1.663086, 43.916017 ], [ 1.662828, 43.915699 ], [ 1.662577, 43.915054 ], [ 1.663549, 43.914052 ], [ 1.666615, 43.912355 ], [ 1.667112, 43.912266 ], [ 1.671747, 43.904715 ], [ 1.675143, 43.897294 ], [ 1.6739, 43.893916 ], [ 1.668159, 43.888386 ], [ 1.665315, 43.88888 ], [ 1.66394, 43.889413 ], [ 1.663477, 43.889544 ], [ 1.655364, 43.892742 ], [ 1.654858, 43.89339 ], [ 1.654246, 43.894371 ], [ 1.65292, 43.896817 ], [ 1.645061, 43.900924 ], [ 1.645178, 43.903229 ], [ 1.645173, 43.903464 ], [ 1.64349, 43.906409 ], [ 1.636006, 43.903366 ], [ 1.631841, 43.901313 ], [ 1.631329, 43.89775 ], [ 1.629234998881013, 43.895421346878493 ], [ 1.622534, 43.898487 ], [ 1.622272003138079, 43.89868964288177 ], [ 1.622696, 43.900169 ] ] ], [ [ [ 1.6798, 43.921116 ], [ 1.687881, 43.924962 ], [ 1.689654, 43.92802 ], [ 1.692181, 43.928808 ], [ 1.700017, 43.92856 ], [ 1.702314, 43.929407 ], [ 1.703621, 43.929878 ], [ 1.704469, 43.928593 ], [ 1.704959, 43.926536 ], [ 1.710263, 43.919908 ], [ 1.711094, 43.919735 ], [ 1.716561, 43.920756 ], [ 1.719025, 43.923027 ], [ 1.719330187881685, 43.922826314617701 ], [ 1.717979, 43.921578 ], [ 1.717888, 43.921374 ], [ 1.717695, 43.920646 ], [ 1.711375, 43.917121 ], [ 1.708384, 43.919124 ], [ 1.705322, 43.91981 ], [ 1.704907, 43.91996 ], [ 1.703905, 43.920267 ], [ 1.698965873176778, 43.917653091511269 ], [ 1.696845, 43.920754 ], [ 1.695785, 43.924057 ], [ 1.693934, 43.925594 ], [ 1.691356, 43.923434 ], [ 1.688852, 43.919664 ], [ 1.680897, 43.917104 ], [ 1.672395, 43.915918 ], [ 1.670901912377162, 43.916257225546161 ], [ 1.676457, 43.919782 ], [ 1.677064, 43.920081 ], [ 1.6798, 43.921116 ] ] ], [ [ [ 1.601469, 43.81327 ], [ 1.601042775182322, 43.809777107170724 ], [ 1.598506, 43.813685 ], [ 1.599441405906318, 43.814954220973476 ], [ 1.601469, 43.81327 ] ] ], [ [ [ 1.601362, 43.840013 ], [ 1.601546285127293, 43.839992202639998 ], [ 1.601108735616711, 43.839869527715877 ], [ 1.601362, 43.840013 ] ] ], [ [ [ 1.624652943026037, 43.888540725945447 ], [ 1.624566, 43.888557 ], [ 1.624205953220242, 43.888575040560511 ], [ 1.624487, 43.888597 ], [ 1.624652943026037, 43.888540725945447 ] ] ] ] } },
{ "type": "Feature", "properties": { "codgeo": "81220", "value": 1140, "isochrone_group": 19.0, "nb_agences": 1 }, "geometry": { "type": "MultiPolygon", "coordinates": [ [ [ [ 1.591033559849491, 43.820616238468588 ], [ 1.590965413333889, 43.820688794126909 ], [ 1.591811, 43.82062 ], [ 1.591033559849491, 43.820616238468588 ] ] ], [ [ [ 1.625368, 43.878347 ], [ 1.62522, 43.879374 ], [ 1.624959, 43.879849 ], [ 1.628342294602072, 43.88788309742565 ], [ 1.634893, 43.882654 ], [ 1.634902, 43.879054 ], [ 1.635259, 43.870996 ], [ 1.633051, 43.868152 ], [ 1.625577, 43.872834 ], [ 1.62558, 43.872905 ], [ 1.625636, 43.874292 ], [ 1.6247, 43.875685 ], [ 1.624497547818155, 43.875803322052953 ], [ 1.625276, 43.876834 ], [ 1.625335, 43.877738 ], [ 1.625368, 43.878347 ] ] ], [ [ [ 1.617329, 43.906105 ], [ 1.617316418105308, 43.906113180868651 ], [ 1.618593, 43.905782 ], [ 1.620871, 43.904634 ], [ 1.621986, 43.904358 ], [ 1.622993, 43.904039 ], [ 1.630175, 43.90783 ], [ 1.630268, 43.909472 ], [ 1.630871, 43.910493 ], [ 1.63091, 43.910569 ], [ 1.634228, 43.910611 ], [ 1.634268, 43.910437 ], [ 1.63427, 43.909492 ], [ 1.63841781617746, 43.907385641752896 ], [ 1.634007, 43.905915 ], [ 1.630412, 43.906104 ], [ 1.62443, 43.903324 ], [ 1.622696, 43.900169 ], [ 1.622272003138079, 43.89868964288177 ], [ 1.622097, 43.898825 ], [ 1.617919, 43.905891 ], [ 1.617329, 43.906105 ] ] ], [ [ [ 1.646401, 43.920665 ], [ 1.645059, 43.92074 ], [ 1.644211, 43.920754 ], [ 1.641794, 43.920439 ], [ 1.64133, 43.924009 ], [ 1.646676, 43.930449 ], [ 1.648862, 43.929991 ], [ 1.650323, 43.929455 ], [ 1.652433, 43.928164 ], [ 1.655445, 43.926192 ], [ 1.657126, 43.922377 ], [ 1.657688008642225, 43.922053394572679 ], [ 1.657263, 43.922152 ], [ 1.656055, 43.922306 ], [ 1.654132, 43.920375 ], [ 1.654388, 43.919926 ], [ 1.654446, 43.919823 ], [ 1.655049, 43.913185 ], [ 1.649985, 43.909499 ], [ 1.645206171044106, 43.908943931631747 ], [ 1.646326, 43.911577 ], [ 1.649372, 43.91921 ], [ 1.646401, 43.920665 ] ] ], [ [ [ 1.677262, 43.924894 ], [ 1.680884, 43.924881 ], [ 1.68812, 43.929826 ], [ 1.687855, 43.930583 ], [ 1.687571, 43.931271 ], [ 1.688669, 43.93283 ], [ 1.689221, 43.933194 ], [ 1.690899, 43.932643 ], [ 1.695605, 43.928893 ], [ 1.700017, 43.92856 ], [ 1.692181, 43.928808 ], [ 1.689654, 43.92802 ], [ 1.687881, 43.924962 ], [ 1.6798, 43.921116 ], [ 1.677064, 43.920081 ], [ 1.676457, 43.919782 ], [ 1.670268, 43.915855 ], [ 1.66612983980587, 43.91888663575606 ], [ 1.672576, 43.919996 ], [ 1.674693, 43.922373 ], [ 1.677262, 43.924894 ] ] ], [ [ [ 1.707612, 43.936497 ], [ 1.708946, 43.934567 ], [ 1.709303, 43.933741 ], [ 1.710364, 43.9315 ], [ 1.709155, 43.930276 ], [ 1.708842, 43.929786 ], [ 1.709838, 43.923222 ], [ 1.715781, 43.922684 ], [ 1.718224, 43.925328 ], [ 1.719788963797744, 43.926091020332322 ], [ 1.718861, 43.924678 ], [ 1.715997, 43.922496 ], [ 1.70983, 43.921402 ], [ 1.709232386921628, 43.921195877730646 ], [ 1.704959, 43.926536 ], [ 1.704469, 43.928593 ], [ 1.703621, 43.929878 ], [ 1.702314, 43.929407 ], [ 1.700017, 43.92856 ], [ 1.70433, 43.934771 ], [ 1.707023, 43.937161 ], [ 1.707612, 43.936497 ] ] ] ] } },
{ "type": "Feature", "properties": { "codgeo": "81220", "value": 1200, "isochrone_group": 20.0, "nb_agences": 1 }, "geometry": { "type": "MultiPolygon", "coordinates": [ [ [ [ 1.647609169056027, 43.920073318419227 ], [ 1.649372, 43.91921 ], [ 1.646326, 43.911577 ], [ 1.645085747912328, 43.908660779157948 ], [ 1.642223, 43.908456 ], [ 1.638457952511183, 43.907365259582157 ], [ 1.63427, 43.909492 ], [ 1.634268, 43.910437 ], [ 1.634228, 43.910611 ], [ 1.63091, 43.910569 ], [ 1.630871, 43.910493 ], [ 1.630268, 43.909472 ], [ 1.630175, 43.90783 ], [ 1.623234250069188, 43.904166343220894 ], [ 1.623660772140142, 43.906408630679607 ], [ 1.627222, 43.908674 ], [ 1.627012, 43.912141 ], [ 1.626906324563747, 43.913143849215722 ], [ 1.632197, 43.915891 ], [ 1.632261, 43.916365 ], [ 1.633507, 43.919352 ], [ 1.641607, 43.920415 ], [ 1.644417, 43.919708 ], [ 1.647609169056027, 43.920073318419227 ] ] ], [ [ [ 1.641886, 43.931193 ], [ 1.644487, 43.935222 ], [ 1.646193, 43.938007 ], [ 1.647074, 43.939473 ], [ 1.64987, 43.940105 ], [ 1.651945, 43.937163 ], [ 1.654414, 43.931167 ], [ 1.657823, 43.93001 ], [ 1.657748, 43.929541 ], [ 1.657519, 43.928909 ], [ 1.657078, 43.927137 ], [ 1.659696994532691, 43.920896617454503 ], [ 1.657126, 43.922377 ], [ 1.655445, 43.926192 ], [ 1.652433, 43.928164 ], [ 1.650323, 43.929455 ], [ 1.648862, 43.929991 ], [ 1.646676, 43.930449 ], [ 1.643375148761554, 43.926472665922986 ], [ 1.638003, 43.925433 ], [ 1.637984681222815, 43.925441900788783 ], [ 1.641886, 43.931193 ] ] ], [ [ [ 1.675824, 43.929486 ], [ 1.676517, 43.928744 ], [ 1.676844, 43.928263 ], [ 1.681369, 43.925513 ], [ 1.681802583035268, 43.92550874918593 ], [ 1.680884, 43.924881 ], [ 1.677262, 43.924894 ], [ 1.674693, 43.922373 ], [ 1.672655001157819, 43.92008470370908 ], [ 1.67425, 43.922911 ], [ 1.67339, 43.924325 ], [ 1.673196, 43.925057 ], [ 1.673166, 43.925647 ], [ 1.673195, 43.927026 ], [ 1.675197, 43.928773 ], [ 1.675824, 43.929486 ] ] ], [ [ [ 1.68677, 43.933959 ], [ 1.686746, 43.934117 ], [ 1.68638, 43.935599 ], [ 1.686444, 43.936363 ], [ 1.690031, 43.936066 ], [ 1.695851, 43.941158 ], [ 1.70451, 43.941608 ], [ 1.706667, 43.941863 ], [ 1.711736992107096, 43.941649711313644 ], [ 1.711637, 43.941498 ], [ 1.708999, 43.941378 ], [ 1.707245, 43.940735 ], [ 1.707077, 43.940398 ], [ 1.707988, 43.937922 ], [ 1.708182, 43.937866 ], [ 1.709138, 43.937515 ], [ 1.709728, 43.937376 ], [ 1.710253, 43.93733 ], [ 1.710647, 43.937346 ], [ 1.711289, 43.93749 ], [ 1.712659527892098, 43.937557664823856 ], [ 1.709761398723654, 43.932772789312239 ], [ 1.709303, 43.933741 ], [ 1.708946, 43.934567 ], [ 1.707612, 43.936497 ], [ 1.707023, 43.937161 ], [ 1.70433, 43.934771 ], [ 1.700017, 43.92856 ], [ 1.695605, 43.928893 ], [ 1.690899, 43.932643 ], [ 1.689221, 43.933194 ], [ 1.688669, 43.93283 ], [ 1.687571, 43.931271 ], [ 1.687855, 43.930583 ], [ 1.68812, 43.929826 ], [ 1.684114001168993, 43.927088346017221 ], [ 1.687002, 43.932794 ], [ 1.686886, 43.933288 ], [ 1.68677, 43.933959 ] ] ], [ [ [ 1.714822, 43.927722 ], [ 1.715210335017457, 43.927515623175317 ], [ 1.71519, 43.927492 ], [ 1.711184, 43.924807 ], [ 1.709449525250438, 43.925782189012203 ], [ 1.708842, 43.929786 ], [ 1.709155, 43.930276 ], [ 1.710364, 43.9315 ], [ 1.710292499901518, 43.931651019529419 ], [ 1.713832, 43.928156 ], [ 1.714482, 43.927894 ], [ 1.714822, 43.927722 ] ] ] ] } }
]
}
