{
"type": "FeatureCollection",
"name": "BPCE",
"crs": { "type": "name", "properties": { "name": "urn:ogc:def:crs:OGC:1.3:CRS84" } },
"features": [
{ "type": "Feature", "properties": { "codgeo": "34146", "value": 60, "isochrone_group": 1.0, "nb_agences": 1 }, "geometry": { "type": "Polygon", "coordinates": [ [ [ 4.083845, 43.676337 ], [ 4.084663, 43.676194 ], [ 4.087264, 43.676328 ], [ 4.087645, 43.676368 ], [ 4.091409, 43.677087 ], [ 4.092058, 43.677208 ], [ 4.092387, 43.677354 ], [ 4.097344, 43.680262 ], [ 4.098443, 43.680339 ], [ 4.09844, 43.680699 ], [ 4.093814, 43.68138 ], [ 4.091097, 43.680696 ], [ 4.087415, 43.683507 ], [ 4.087111, 43.683701 ], [ 4.082596, 43.682417 ], [ 4.082469, 43.682081 ], [ 4.083845, 43.676337 ] ] ] } },
{ "type": "Feature", "properties": { "codgeo": "34146", "value": 120, "isochrone_group": 2.0, "nb_agences": 1 }, "geometry": { "type": "Polygon", "coordinates": [ [ [ 4.075388, 43.686335 ], [ 4.07552, 43.68667 ], [ 4.075951, 43.686499 ], [ 4.076382, 43.686329 ], [ 4.076736, 43.686188 ], [ 4.07709, 43.686047 ], [ 4.077258, 43.685948 ], [ 4.077756, 43.685405 ], [ 4.078215, 43.684895 ], [ 4.084016, 43.686337 ], [ 4.083412, 43.689944 ], [ 4.083678, 43.690187 ], [ 4.087253, 43.687906 ], [ 4.087365, 43.687563 ], [ 4.089049, 43.685248 ], [ 4.089187, 43.684916 ], [ 4.095117, 43.684098 ], [ 4.095176, 43.685738 ], [ 4.095048, 43.68648 ], [ 4.095403, 43.686541 ], [ 4.099147, 43.683846 ], [ 4.1031, 43.68008 ], [ 4.103046, 43.679724 ], [ 4.100444, 43.678136 ], [ 4.096555, 43.679031 ], [ 4.093883, 43.675486 ], [ 4.093286, 43.674641 ], [ 4.092959, 43.674491 ], [ 4.092254, 43.674424 ], [ 4.086738, 43.674183 ], [ 4.084982, 43.674847 ], [ 4.080894, 43.675927 ], [ 4.078117, 43.675107 ], [ 4.075564, 43.675089 ], [ 4.075511, 43.675445 ], [ 4.077479, 43.677124 ], [ 4.077489, 43.677135 ], [ 4.079415, 43.680468 ], [ 4.077947, 43.684654 ], [ 4.075819, 43.686164 ], [ 4.075388, 43.686335 ] ], [ [ 4.084663, 43.676194 ], [ 4.087264, 43.676328 ], [ 4.087645, 43.676368 ], [ 4.091409, 43.677087 ], [ 4.092058, 43.677208 ], [ 4.092387, 43.677354 ], [ 4.097344, 43.680262 ], [ 4.098443, 43.680339 ], [ 4.09844, 43.680699 ], [ 4.093814, 43.68138 ], [ 4.091097, 43.680696 ], [ 4.087415, 43.683507 ], [ 4.087111, 43.683701 ], [ 4.082596, 43.682417 ], [ 4.082469, 43.682081 ], [ 4.083845, 43.676337 ], [ 4.084663, 43.676194 ] ] ] } },
{ "type": "Feature", "properties": { "codgeo": "34146", "value": 180, "isochrone_group": 3.0, "nb_agences": 1 }, "geometry": { "type": "Polygon", "coordinates": [ [ [ 4.101055, 43.674789 ], [ 4.093902, 43.672355 ], [ 4.090191, 43.671025 ], [ 4.083906, 43.672809 ], [ 4.079007, 43.67272 ], [ 4.073281, 43.672861 ], [ 4.069172, 43.673332 ], [ 4.066277, 43.674614 ], [ 4.066324, 43.67497 ], [ 4.068337, 43.675459 ], [ 4.07163, 43.674876 ], [ 4.073036, 43.675081 ], [ 4.0757, 43.67674 ], [ 4.076726, 43.677925 ], [ 4.071712, 43.685045 ], [ 4.071472, 43.685104 ], [ 4.070515, 43.685238 ], [ 4.067592, 43.688796 ], [ 4.067649, 43.689152 ], [ 4.067864, 43.689117 ], [ 4.068079, 43.689082 ], [ 4.068271, 43.689037 ], [ 4.06845, 43.688994 ], [ 4.073597, 43.689096 ], [ 4.078198, 43.692616 ], [ 4.079644, 43.69357 ], [ 4.081522, 43.693615 ], [ 4.08162, 43.693268 ], [ 4.083117, 43.690779 ], [ 4.083261, 43.69064 ], [ 4.083675802274847, 43.69018499230372 ], [ 4.083412, 43.689944 ], [ 4.084016, 43.686337 ], [ 4.078215, 43.684895 ], [ 4.077756, 43.685405 ], [ 4.077258, 43.685948 ], [ 4.07709, 43.686047 ], [ 4.076736, 43.686188 ], [ 4.076382, 43.686329 ], [ 4.075951, 43.686499 ], [ 4.07552, 43.68667 ], [ 4.075388, 43.686335 ], [ 4.075819, 43.686164 ], [ 4.077947, 43.684654 ], [ 4.079415, 43.680468 ], [ 4.077489, 43.677135 ], [ 4.077479, 43.677124 ], [ 4.075511, 43.675445 ], [ 4.075564, 43.675089 ], [ 4.078117, 43.675107 ], [ 4.080894, 43.675927 ], [ 4.084982, 43.674847 ], [ 4.086738, 43.674183 ], [ 4.092254, 43.674424 ], [ 4.092959, 43.674491 ], [ 4.093286, 43.674641 ], [ 4.093883, 43.675486 ], [ 4.096555, 43.679031 ], [ 4.100444, 43.678136 ], [ 4.103046, 43.679724 ], [ 4.1031, 43.68008 ], [ 4.099147, 43.683846 ], [ 4.095403, 43.686541 ], [ 4.095048, 43.68648 ], [ 4.095176, 43.685738 ], [ 4.095117, 43.684098 ], [ 4.089187, 43.684916 ], [ 4.089049, 43.685248 ], [ 4.087365, 43.687563 ], [ 4.087253, 43.687906 ], [ 4.086641906871003, 43.688295903056556 ], [ 4.087908, 43.68793 ], [ 4.092826, 43.693481 ], [ 4.093149, 43.693639 ], [ 4.098686, 43.689257 ], [ 4.104382, 43.684021 ], [ 4.110347200450789, 43.680915080310768 ], [ 4.108435, 43.680704 ], [ 4.107714, 43.679446 ], [ 4.107666, 43.679089 ], [ 4.109054347304927, 43.676865299819596 ], [ 4.108125, 43.676428 ], [ 4.101055, 43.674789 ] ] ] } },
{ "type": "Feature", "properties": { "codgeo": "34146", "value": 240, "isochrone_group": 4.0, "nb_agences": 1 }, "geometry": { "type": "MultiPolygon", "coordinates": [ [ [ [ 4.102678, 43.670191 ], [ 4.095867, 43.6671 ], [ 4.087808, 43.665793 ], [ 4.087479, 43.665937 ], [ 4.082176, 43.668958 ], [ 4.077242, 43.671403 ], [ 4.069951, 43.669731 ], [ 4.067863, 43.670322 ], [ 4.06083, 43.672644 ], [ 4.060807, 43.672678 ], [ 4.058957, 43.675444 ], [ 4.059045, 43.675793 ], [ 4.060963, 43.675776 ], [ 4.061194, 43.675754 ], [ 4.061199, 43.675754 ], [ 4.061502, 43.675733 ], [ 4.06181, 43.675712 ], [ 4.062769, 43.675394 ], [ 4.064369, 43.675207 ], [ 4.068104, 43.675469 ], [ 4.069186, 43.68332 ], [ 4.067171, 43.685021 ], [ 4.062153, 43.687579 ], [ 4.061986, 43.687899 ], [ 4.06084, 43.691264 ], [ 4.060876, 43.691622 ], [ 4.061192, 43.69159 ], [ 4.061508, 43.691558 ], [ 4.063461, 43.691388 ], [ 4.063817, 43.691334 ], [ 4.071222, 43.691057 ], [ 4.072672, 43.699182 ], [ 4.072857, 43.699491 ], [ 4.074923, 43.69907 ], [ 4.075095, 43.698753 ], [ 4.077464, 43.695755 ], [ 4.077638, 43.695604 ], [ 4.07792, 43.695224 ], [ 4.078944, 43.694135 ], [ 4.079647042546084, 43.693570072904464 ], [ 4.079644, 43.69357 ], [ 4.078198, 43.692616 ], [ 4.073597, 43.689096 ], [ 4.06845, 43.688994 ], [ 4.068271, 43.689037 ], [ 4.068079, 43.689082 ], [ 4.067864, 43.689117 ], [ 4.067649, 43.689152 ], [ 4.067592, 43.688796 ], [ 4.070515, 43.685238 ], [ 4.071472, 43.685104 ], [ 4.071712, 43.685045 ], [ 4.076726, 43.677925 ], [ 4.0757, 43.67674 ], [ 4.073036, 43.675081 ], [ 4.07163, 43.674876 ], [ 4.068337, 43.675459 ], [ 4.066324, 43.67497 ], [ 4.066277, 43.674614 ], [ 4.069172, 43.673332 ], [ 4.073281, 43.672861 ], [ 4.079007, 43.67272 ], [ 4.083906, 43.672809 ], [ 4.090191, 43.671025 ], [ 4.093902, 43.672355 ], [ 4.101055, 43.674789 ], [ 4.105083900348934, 43.675722998256283 ], [ 4.104645873836259, 43.671619174026354 ], [ 4.102904, 43.670472 ], [ 4.102678, 43.670191 ] ] ], [ [ [ 4.088267, 43.696472 ], [ 4.088384, 43.696812 ], [ 4.090868, 43.698236 ], [ 4.094989, 43.698765 ], [ 4.095344, 43.698704 ], [ 4.096419, 43.698086 ], [ 4.101062, 43.692271 ], [ 4.10128, 43.691984 ], [ 4.105755, 43.687329 ], [ 4.109498, 43.68499 ], [ 4.112184, 43.683445 ], [ 4.113427532967869, 43.682581859530863 ], [ 4.109738149903265, 43.681232196575841 ], [ 4.104382, 43.684021 ], [ 4.098686, 43.689257 ], [ 4.093149, 43.693639 ], [ 4.092826, 43.693481 ], [ 4.087908, 43.68793 ], [ 4.084953, 43.688784 ], [ 4.083261, 43.69064 ], [ 4.083117, 43.690779 ], [ 4.08162, 43.693268 ], [ 4.081547333360338, 43.69352529922412 ], [ 4.088267, 43.696472 ] ] ] ] } },
{ "type": "Feature", "properties": { "codgeo": "34146", "value": 300, "isochrone_group": 5.0, "nb_agences": 1 }, "geometry": { "type": "Polygon", "coordinates": [ [ [ 4.10774, 43.664562 ], [ 4.107559, 43.66425 ], [ 4.099947, 43.663617 ], [ 4.092738, 43.662191 ], [ 4.084319, 43.659147 ], [ 4.084087, 43.658871 ], [ 4.083717, 43.658624 ], [ 4.083409, 43.658438 ], [ 4.083159, 43.658596 ], [ 4.082914, 43.65886 ], [ 4.082099, 43.663651 ], [ 4.082132, 43.664009 ], [ 4.078866, 43.669034 ], [ 4.072801, 43.66627 ], [ 4.072443, 43.666232 ], [ 4.064688, 43.668598 ], [ 4.063215, 43.668527 ], [ 4.062854, 43.668606 ], [ 4.058012, 43.671581 ], [ 4.053818, 43.673334 ], [ 4.053601, 43.673621 ], [ 4.055419, 43.678496 ], [ 4.056563, 43.686117 ], [ 4.050992, 43.692683 ], [ 4.051089, 43.693029 ], [ 4.055954, 43.693498 ], [ 4.063948, 43.693423 ], [ 4.067963, 43.701401 ], [ 4.066015, 43.703502 ], [ 4.065623, 43.703727 ], [ 4.065802, 43.704039 ], [ 4.069956, 43.702978 ], [ 4.072779, 43.699537 ], [ 4.078859, 43.700162 ], [ 4.086474, 43.701239 ], [ 4.088802, 43.70019 ], [ 4.089168, 43.700096 ], [ 4.096421, 43.701724 ], [ 4.098301, 43.705089 ], [ 4.098659, 43.70513 ], [ 4.099134, 43.704098 ], [ 4.10127, 43.699484 ], [ 4.101386, 43.699143 ], [ 4.102707, 43.693396 ], [ 4.106863, 43.689108 ], [ 4.113472, 43.687927 ], [ 4.115321, 43.688093 ], [ 4.11567683853897, 43.688101169762383 ], [ 4.115231, 43.688057 ], [ 4.113531, 43.687893 ], [ 4.107227, 43.687287 ], [ 4.106869, 43.687247 ], [ 4.106859, 43.687228 ], [ 4.106509291331522, 43.686857643487997 ], [ 4.105755, 43.687329 ], [ 4.10128, 43.691984 ], [ 4.101062, 43.692271 ], [ 4.096419, 43.698086 ], [ 4.095344, 43.698704 ], [ 4.094989, 43.698765 ], [ 4.090868, 43.698236 ], [ 4.088384, 43.696812 ], [ 4.088267, 43.696472 ], [ 4.080354, 43.693002 ], [ 4.078944, 43.694135 ], [ 4.07792, 43.695224 ], [ 4.077638, 43.695604 ], [ 4.077464, 43.695755 ], [ 4.075095, 43.698753 ], [ 4.074923, 43.69907 ], [ 4.072857, 43.699491 ], [ 4.072672, 43.699182 ], [ 4.071222, 43.691057 ], [ 4.063817, 43.691334 ], [ 4.063461, 43.691388 ], [ 4.061508, 43.691558 ], [ 4.061192, 43.69159 ], [ 4.060876, 43.691622 ], [ 4.06084, 43.691264 ], [ 4.061986, 43.687899 ], [ 4.062153, 43.687579 ], [ 4.067171, 43.685021 ], [ 4.069186, 43.68332 ], [ 4.068104, 43.675469 ], [ 4.064369, 43.675207 ], [ 4.062769, 43.675394 ], [ 4.06181, 43.675712 ], [ 4.061502, 43.675733 ], [ 4.061199, 43.675754 ], [ 4.061194, 43.675754 ], [ 4.060963, 43.675776 ], [ 4.059045, 43.675793 ], [ 4.058957, 43.675444 ], [ 4.060807, 43.672678 ], [ 4.06083, 43.672644 ], [ 4.067863, 43.670322 ], [ 4.069951, 43.669731 ], [ 4.077242, 43.671403 ], [ 4.082176, 43.668958 ], [ 4.087479, 43.665937 ], [ 4.087808, 43.665793 ], [ 4.095867, 43.6671 ], [ 4.102055232909871, 43.669908372915074 ], [ 4.105386, 43.66665 ], [ 4.105655, 43.666889 ], [ 4.11008, 43.67213 ], [ 4.110292, 43.672228 ], [ 4.112811456357251, 43.672055036106705 ], [ 4.108518, 43.669258 ], [ 4.10774, 43.664562 ] ] ] } },
{ "type": "Feature", "properties": { "codgeo": "34146", "value": 360, "isochrone_group": 6.0, "nb_agences": 1 }, "geometry": { "type": "Polygon", "coordinates": [ [ [ 4.112983, 43.657907 ], [ 4.112807, 43.657842 ], [ 4.112795, 43.657837 ], [ 4.11249, 43.657727 ], [ 4.110754, 43.658324 ], [ 4.102082, 43.660524 ], [ 4.095093, 43.658932 ], [ 4.093146, 43.660143 ], [ 4.086114, 43.654598 ], [ 4.08562, 43.654523 ], [ 4.082176, 43.654065 ], [ 4.078282, 43.654075 ], [ 4.078155, 43.654102 ], [ 4.077583, 43.654431 ], [ 4.07754, 43.65446 ], [ 4.077104, 43.657043 ], [ 4.071292, 43.662982 ], [ 4.065309, 43.663785 ], [ 4.061609, 43.665594 ], [ 4.060299, 43.666307 ], [ 4.059599, 43.666648 ], [ 4.056303, 43.668989 ], [ 4.049877, 43.668056 ], [ 4.049052, 43.66759 ], [ 4.0481, 43.666985 ], [ 4.046168, 43.670022 ], [ 4.047119, 43.670627 ], [ 4.048101, 43.671187 ], [ 4.049275, 43.679801 ], [ 4.048185, 43.68198 ], [ 4.048065, 43.682293 ], [ 4.047283, 43.687772 ], [ 4.04149, 43.693403 ], [ 4.041346, 43.696924 ], [ 4.044361, 43.697552 ], [ 4.04469, 43.697456 ], [ 4.049377, 43.696136 ], [ 4.056898, 43.696487 ], [ 4.05769, 43.697019 ], [ 4.05827, 43.697274 ], [ 4.061828, 43.70349 ], [ 4.059197, 43.706528 ], [ 4.058534, 43.707031 ], [ 4.060709, 43.7099 ], [ 4.068092, 43.707271 ], [ 4.073999, 43.704475 ], [ 4.074553, 43.704301 ], [ 4.074945, 43.704131 ], [ 4.081795, 43.70326 ], [ 4.084556, 43.705571 ], [ 4.0882, 43.704686 ], [ 4.096681, 43.707245 ], [ 4.097996, 43.710569 ], [ 4.09908, 43.712857 ], [ 4.101069, 43.713952 ], [ 4.10122, 43.713926 ], [ 4.102545, 43.711879 ], [ 4.102491, 43.71169 ], [ 4.101979, 43.70923 ], [ 4.106575, 43.702827 ], [ 4.107409, 43.702482 ], [ 4.10797, 43.702162 ], [ 4.107673, 43.699398 ], [ 4.105744, 43.694118 ], [ 4.110855, 43.69009 ], [ 4.115388, 43.691271 ], [ 4.117495, 43.69241 ], [ 4.119866, 43.692984 ], [ 4.119964, 43.692921 ], [ 4.124732224209904, 43.689695736439646 ], [ 4.120887, 43.691839 ], [ 4.120486, 43.692031 ], [ 4.117303, 43.692024 ], [ 4.115434, 43.691236 ], [ 4.110857, 43.690069 ], [ 4.107273, 43.68973 ], [ 4.105689860626748, 43.690318399815332 ], [ 4.102707, 43.693396 ], [ 4.101386, 43.699143 ], [ 4.10127, 43.699484 ], [ 4.099134, 43.704098 ], [ 4.098659, 43.70513 ], [ 4.098301, 43.705089 ], [ 4.096421, 43.701724 ], [ 4.089168, 43.700096 ], [ 4.088802, 43.70019 ], [ 4.086474, 43.701239 ], [ 4.078859, 43.700162 ], [ 4.072779, 43.699537 ], [ 4.069956, 43.702978 ], [ 4.065802, 43.704039 ], [ 4.065623, 43.703727 ], [ 4.066015, 43.703502 ], [ 4.067963, 43.701401 ], [ 4.063948, 43.693423 ], [ 4.055954, 43.693498 ], [ 4.051089, 43.693029 ], [ 4.050992, 43.692683 ], [ 4.056563, 43.686117 ], [ 4.055419, 43.678496 ], [ 4.053601, 43.673621 ], [ 4.053818, 43.673334 ], [ 4.058012, 43.671581 ], [ 4.062854, 43.668606 ], [ 4.063215, 43.668527 ], [ 4.064688, 43.668598 ], [ 4.072443, 43.666232 ], [ 4.072801, 43.66627 ], [ 4.078866, 43.669034 ], [ 4.082132, 43.664009 ], [ 4.082099, 43.663651 ], [ 4.082914, 43.65886 ], [ 4.083159, 43.658596 ], [ 4.083409, 43.658438 ], [ 4.083717, 43.658624 ], [ 4.084087, 43.658871 ], [ 4.084319, 43.659147 ], [ 4.092738, 43.662191 ], [ 4.099947, 43.663617 ], [ 4.10442490332032, 43.663989374251436 ], [ 4.105664, 43.661786 ], [ 4.109421, 43.660718 ], [ 4.113960015082764, 43.660432352536155 ], [ 4.113956, 43.659969 ], [ 4.112983, 43.657907 ] ] ] } },
{ "type": "Feature", "properties": { "codgeo": "34146", "value": 420, "isochrone_group": 7.0, "nb_agences": 1 }, "geometry": { "type": "MultiPolygon", "coordinates": [ [ [ [ 4.04497, 43.669291 ], [ 4.0461, 43.669978 ], [ 4.047665, 43.67795 ], [ 4.047331, 43.678545 ], [ 4.047238, 43.67872 ], [ 4.04557, 43.681421 ], [ 4.043984, 43.684653 ], [ 4.043644942721099, 43.691308319788966 ], [ 4.047283, 43.687772 ], [ 4.048065, 43.682293 ], [ 4.048185, 43.68198 ], [ 4.049275, 43.679801 ], [ 4.048101, 43.671187 ], [ 4.047119, 43.670627 ], [ 4.046168, 43.670022 ], [ 4.048099974624031, 43.666985039889667 ], [ 4.047963, 43.666898 ], [ 4.046654, 43.666109 ], [ 4.04607, 43.665807 ], [ 4.045508, 43.66557 ], [ 4.043395, 43.664793 ], [ 4.042443611092069, 43.664445058067557 ], [ 4.041202596172038, 43.667821378047257 ], [ 4.042153, 43.668172 ], [ 4.044266, 43.668949 ], [ 4.04497, 43.669291 ] ] ], [ [ [ 4.03805, 43.692241 ], [ 4.036898, 43.691739 ], [ 4.035738, 43.69233 ], [ 4.033847, 43.694393 ], [ 4.03431, 43.697963 ], [ 4.039993, 43.69976 ], [ 4.043019, 43.698601 ], [ 4.047419, 43.698816 ], [ 4.048084, 43.698955 ], [ 4.05443, 43.699893 ], [ 4.052754, 43.707116 ], [ 4.051107, 43.709112 ], [ 4.053885, 43.711402 ], [ 4.062075, 43.715131 ], [ 4.064573, 43.712539 ], [ 4.068279, 43.708356 ], [ 4.070501263815523, 43.70613060697 ], [ 4.068092, 43.707271 ], [ 4.060709, 43.7099 ], [ 4.058534, 43.707031 ], [ 4.059197, 43.706528 ], [ 4.061828, 43.70349 ], [ 4.05827, 43.697274 ], [ 4.05769, 43.697019 ], [ 4.056898, 43.696487 ], [ 4.049377, 43.696136 ], [ 4.04469, 43.697456 ], [ 4.044361, 43.697552 ], [ 4.041346, 43.696924 ], [ 4.04149, 43.693403 ], [ 4.043326385488534, 43.691617968636983 ], [ 4.03805, 43.692241 ] ] ], [ [ [ 4.077423, 43.706115 ], [ 4.079342, 43.709161 ], [ 4.081996, 43.70994 ], [ 4.08936, 43.709393 ], [ 4.094051, 43.710504 ], [ 4.099154, 43.716528 ], [ 4.099486, 43.71702 ], [ 4.099903, 43.717678 ], [ 4.100543, 43.718172 ], [ 4.100731, 43.718261 ], [ 4.101983, 43.71766 ], [ 4.102208, 43.71755 ], [ 4.105141, 43.713502 ], [ 4.104233, 43.707793 ], [ 4.111808, 43.70432 ], [ 4.112217, 43.704439 ], [ 4.113024, 43.704262 ], [ 4.113228, 43.704141 ], [ 4.113254, 43.704125 ], [ 4.113549, 43.703933 ], [ 4.113886, 43.703675 ], [ 4.11974, 43.69723 ], [ 4.123592657058095, 43.694271585125925 ], [ 4.123577031780139, 43.694226454862275 ], [ 4.119903, 43.697081 ], [ 4.112001, 43.692781 ], [ 4.110109, 43.69253 ], [ 4.108519485575659, 43.691930628468278 ], [ 4.105744, 43.694118 ], [ 4.107673, 43.699398 ], [ 4.10797, 43.702162 ], [ 4.107409, 43.702482 ], [ 4.106575, 43.702827 ], [ 4.101979, 43.70923 ], [ 4.102491, 43.71169 ], [ 4.102545, 43.711879 ], [ 4.10122, 43.713926 ], [ 4.101069, 43.713952 ], [ 4.09908, 43.712857 ], [ 4.097996, 43.710569 ], [ 4.096681, 43.707245 ], [ 4.0882, 43.704686 ], [ 4.084556, 43.705571 ], [ 4.081795, 43.70326 ], [ 4.074945, 43.704131 ], [ 4.074553, 43.704301 ], [ 4.073999, 43.704475 ], [ 4.073752050236354, 43.704591890390915 ], [ 4.077423, 43.706115 ] ] ], [ [ [ 4.100877, 43.660021 ], [ 4.103394, 43.659843 ], [ 4.109956, 43.657812 ], [ 4.111615054081859, 43.656495411210265 ], [ 4.111631, 43.656446 ], [ 4.112242, 43.655299 ], [ 4.112964, 43.654533 ], [ 4.113036, 43.654506 ], [ 4.113482, 43.654417 ], [ 4.115033, 43.655267 ], [ 4.115626031106614, 43.655690825330545 ], [ 4.116250341256959, 43.655793575419047 ], [ 4.114328, 43.652956 ], [ 4.113956, 43.652969 ], [ 4.111116, 43.653437 ], [ 4.106829, 43.656557 ], [ 4.098331, 43.654823 ], [ 4.090655, 43.653494 ], [ 4.087559, 43.651656 ], [ 4.084509, 43.650749 ], [ 4.076511, 43.652542 ], [ 4.075391, 43.654089 ], [ 4.069862, 43.659459 ], [ 4.065958, 43.662338 ], [ 4.060974, 43.663817 ], [ 4.059543, 43.66424 ], [ 4.05848, 43.664542 ], [ 4.058278, 43.664745 ], [ 4.057838, 43.665466 ], [ 4.049877, 43.668056 ], [ 4.056303, 43.668989 ], [ 4.059599, 43.666648 ], [ 4.060299, 43.666307 ], [ 4.061609, 43.665594 ], [ 4.065309, 43.663785 ], [ 4.071292, 43.662982 ], [ 4.077104, 43.657043 ], [ 4.07754, 43.65446 ], [ 4.077583, 43.654431 ], [ 4.078155, 43.654102 ], [ 4.078282, 43.654075 ], [ 4.082176, 43.654065 ], [ 4.08562, 43.654523 ], [ 4.086114, 43.654598 ], [ 4.093146, 43.660143 ], [ 4.095093, 43.658932 ], [ 4.100678665618575, 43.660204339342499 ], [ 4.100877, 43.660021 ] ] ], [ [ [ 4.039991650784551, 43.667374637384029 ], [ 4.039653, 43.667229 ], [ 4.039383622697578, 43.667134706500761 ], [ 4.03939, 43.667152 ], [ 4.039933, 43.667353 ], [ 4.039991650784551, 43.667374637384029 ] ] ] ] } },
{ "type": "Feature", "properties": { "codgeo": "34146", "value": 480, "isochrone_group": 8.0, "nb_agences": 1 }, "geometry": { "type": "MultiPolygon", "coordinates": [ [ [ [ 4.040742, 43.683404 ], [ 4.036263, 43.688683 ], [ 4.035638, 43.688951 ], [ 4.029971, 43.694477 ], [ 4.026909, 43.696539 ], [ 4.027354, 43.700111 ], [ 4.029832, 43.70248 ], [ 4.030568, 43.702365 ], [ 4.03112, 43.702215 ], [ 4.031541, 43.702039 ], [ 4.039551, 43.70196 ], [ 4.045299, 43.704573 ], [ 4.046552, 43.713281 ], [ 4.048109, 43.716527 ], [ 4.04902, 43.71609 ], [ 4.050488, 43.715205 ], [ 4.051236, 43.714538 ], [ 4.051966, 43.713726 ], [ 4.05744456831944, 43.713022711875844 ], [ 4.053885, 43.711402 ], [ 4.051107, 43.709112 ], [ 4.052754, 43.707116 ], [ 4.05443, 43.699893 ], [ 4.048084, 43.698955 ], [ 4.047419, 43.698816 ], [ 4.043019, 43.698601 ], [ 4.039993, 43.69976 ], [ 4.03431, 43.697963 ], [ 4.033847, 43.694393 ], [ 4.035738, 43.69233 ], [ 4.036898, 43.691739 ], [ 4.03805, 43.692241 ], [ 4.043631, 43.691582 ], [ 4.043984, 43.684653 ], [ 4.04557, 43.681421 ], [ 4.047238, 43.67872 ], [ 4.047331, 43.678545 ], [ 4.047665, 43.67795 ], [ 4.046191681902424, 43.670445021166849 ], [ 4.041226, 43.669314 ], [ 4.037531341380299, 43.671490721635422 ], [ 4.044139, 43.673335 ], [ 4.043575, 43.677627 ], [ 4.04101, 43.680183 ], [ 4.040742, 43.683404 ] ] ], [ [ [ 4.064293, 43.719853 ], [ 4.068991, 43.718176 ], [ 4.070818, 43.715075 ], [ 4.069087, 43.711316 ], [ 4.072900391842937, 43.704238529771423 ], [ 4.07254, 43.704089 ], [ 4.068279, 43.708356 ], [ 4.064573, 43.712539 ], [ 4.062075, 43.715131 ], [ 4.05967445115268, 43.71403800285082 ], [ 4.061423, 43.717681 ], [ 4.064293, 43.719853 ] ] ], [ [ [ 4.081209, 43.713245 ], [ 4.081812, 43.713336 ], [ 4.082744, 43.713425 ], [ 4.084136, 43.713605 ], [ 4.084372, 43.713439 ], [ 4.08493, 43.712851 ], [ 4.085274, 43.711176 ], [ 4.093861, 43.711508 ], [ 4.094172, 43.712434 ], [ 4.095238, 43.714858 ], [ 4.096418, 43.718258 ], [ 4.097486, 43.720021 ], [ 4.097847, 43.72019 ], [ 4.098141, 43.720257 ], [ 4.106092, 43.720629 ], [ 4.107501, 43.720717 ], [ 4.107571, 43.720704 ], [ 4.108348, 43.717579 ], [ 4.106506, 43.715044 ], [ 4.104965160460957, 43.713744686141851 ], [ 4.102208, 43.71755 ], [ 4.101983, 43.71766 ], [ 4.100731, 43.718261 ], [ 4.100543, 43.718172 ], [ 4.099903, 43.717678 ], [ 4.099486, 43.71702 ], [ 4.099154, 43.716528 ], [ 4.094051, 43.710504 ], [ 4.08936, 43.709393 ], [ 4.081996, 43.70994 ], [ 4.080884740316582, 43.709613823928642 ], [ 4.081111, 43.711522 ], [ 4.081209, 43.713245 ] ] ], [ [ [ 4.11437, 43.705899 ], [ 4.114457565793937, 43.705897496274311 ], [ 4.115192, 43.703028 ], [ 4.11529894410403, 43.702119409847882 ], [ 4.113886, 43.703675 ], [ 4.113549, 43.703933 ], [ 4.113254, 43.704125 ], [ 4.113228, 43.704141 ], [ 4.113024, 43.704262 ], [ 4.112217, 43.704439 ], [ 4.111808, 43.70432 ], [ 4.109994309437587, 43.705151544201087 ], [ 4.11222, 43.706491 ], [ 4.11437, 43.705899 ] ] ], [ [ [ 4.092623, 43.650891 ], [ 4.092529, 43.647292 ], [ 4.089332, 43.647318 ], [ 4.08354, 43.647505 ], [ 4.079952, 43.647798 ], [ 4.078889, 43.648024 ], [ 4.072348, 43.652795 ], [ 4.072278, 43.653009 ], [ 4.066925, 43.65906 ], [ 4.062035, 43.659042 ], [ 4.059795, 43.657915 ], [ 4.05914, 43.658607 ], [ 4.058689, 43.659522 ], [ 4.055514, 43.663597 ], [ 4.047963176713664, 43.666897922747744 ], [ 4.047998, 43.666919 ], [ 4.048316189189329, 43.667122432432514 ], [ 4.049013973962219, 43.667565836530642 ], [ 4.049431041406241, 43.667804100963998 ], [ 4.049877, 43.668056 ], [ 4.057838, 43.665466 ], [ 4.058278, 43.664745 ], [ 4.05848, 43.664542 ], [ 4.059543, 43.66424 ], [ 4.060974, 43.663817 ], [ 4.065958, 43.662338 ], [ 4.069862, 43.659459 ], [ 4.075391, 43.654089 ], [ 4.076511, 43.652542 ], [ 4.084509, 43.650749 ], [ 4.087559, 43.651656 ], [ 4.090655, 43.653494 ], [ 4.09213993536842, 43.653751097329945 ], [ 4.091897, 43.653139 ], [ 4.092623, 43.650891 ] ] ], [ [ [ 4.115841, 43.648183 ], [ 4.109315, 43.650076 ], [ 4.105102, 43.649522 ], [ 4.104702, 43.649399 ], [ 4.103349, 43.652577 ], [ 4.103505636988315, 43.655878874386651 ], [ 4.104014188866948, 43.655982643386125 ], [ 4.108179963037576, 43.651789184812131 ], [ 4.108464, 43.650369 ], [ 4.109385, 43.650553 ], [ 4.109405071891406, 43.650555934276504 ], [ 4.109406, 43.650555 ], [ 4.1105, 43.650716 ], [ 4.11405, 43.650785 ], [ 4.118300478109157, 43.65129843453758 ], [ 4.118199, 43.65105 ], [ 4.116196, 43.648023 ], [ 4.115841, 43.648183 ] ] ], [ [ [ 4.045508, 43.66557 ], [ 4.04555801096032, 43.665591090031313 ], [ 4.045558010960324, 43.665591090031313 ], [ 4.045508, 43.66557 ] ] ], [ [ [ 4.04607, 43.665807 ], [ 4.045712152952227, 43.665656092970956 ], [ 4.045712152952453, 43.665656092971055 ], [ 4.04607, 43.665807 ] ] ], [ [ [ 4.046654, 43.666109 ], [ 4.046695841692971, 43.666134220088423 ], [ 4.046695841692975, 43.666134220088423 ], [ 4.046654, 43.666109 ] ] ] ] } },
{ "type": "Feature", "properties": { "codgeo": "34146", "value": 540, "isochrone_group": 9.0, "nb_agences": 1 }, "geometry": { "type": "MultiPolygon", "coordinates": [ [ [ [ 4.102371, 43.646067 ], [ 4.094439, 43.64408 ], [ 4.093299, 43.643601 ], [ 4.092734, 43.643412 ], [ 4.090459, 43.644264 ], [ 4.083327, 43.642194 ], [ 4.082283, 43.642232 ], [ 4.081939, 43.642983 ], [ 4.075054, 43.647782 ], [ 4.074554, 43.647935 ], [ 4.074501, 43.647953 ], [ 4.074169, 43.648088 ], [ 4.073974, 43.648187 ], [ 4.070934, 43.650849 ], [ 4.063526, 43.654223 ], [ 4.058972, 43.654053 ], [ 4.051514, 43.654203 ], [ 4.050296, 43.657591 ], [ 4.05265, 43.663682 ], [ 4.04750777054528, 43.665342674405963 ], [ 4.048413079064506, 43.666701243147678 ], [ 4.055514, 43.663597 ], [ 4.058689, 43.659522 ], [ 4.05914, 43.658607 ], [ 4.059795, 43.657915 ], [ 4.062035, 43.659042 ], [ 4.066925, 43.65906 ], [ 4.072278, 43.653009 ], [ 4.072348, 43.652795 ], [ 4.078889, 43.648024 ], [ 4.079952, 43.647798 ], [ 4.08354, 43.647505 ], [ 4.089332, 43.647318 ], [ 4.092529, 43.647292 ], [ 4.092623, 43.650891 ], [ 4.091897, 43.653139 ], [ 4.092739148200522, 43.655260867508673 ], [ 4.097590051831299, 43.652047039845883 ], [ 4.096443, 43.651266 ], [ 4.096528, 43.64864 ], [ 4.097381, 43.647791 ], [ 4.099580246951684, 43.648074996038666 ], [ 4.100468, 43.648011 ], [ 4.106024108759827, 43.648061215752847 ], [ 4.109556, 43.647624 ], [ 4.116155, 43.645496 ], [ 4.116614, 43.645226 ], [ 4.117125, 43.644972 ], [ 4.117251, 43.644994 ], [ 4.120137861661173, 43.644813633427461 ], [ 4.118396, 43.64397 ], [ 4.117254, 43.644071 ], [ 4.108978, 43.645886 ], [ 4.102371, 43.646067 ] ] ], [ [ [ 4.037569, 43.674714 ], [ 4.03699, 43.674756 ], [ 4.032341, 43.674565 ], [ 4.031883, 43.674632 ], [ 4.031403811543879, 43.674915610470777 ], [ 4.033485046299496, 43.676125878698343 ], [ 4.035872, 43.676865 ], [ 4.037747, 43.677495 ], [ 4.038737, 43.677851 ], [ 4.040201, 43.678417 ], [ 4.041486, 43.678974 ], [ 4.041990252011266, 43.679206187469447 ], [ 4.043575, 43.677627 ], [ 4.044139, 43.673335 ], [ 4.043365566915828, 43.67311912536335 ], [ 4.040754, 43.673749 ], [ 4.039199, 43.674173 ], [ 4.037569, 43.674714 ] ] ], [ [ [ 4.033794, 43.68617 ], [ 4.032552, 43.686649 ], [ 4.029612, 43.692682 ], [ 4.022755544292297, 43.694977152427583 ], [ 4.025113, 43.696763 ], [ 4.025369, 43.696994 ], [ 4.025833, 43.699371 ], [ 4.025558, 43.700335 ], [ 4.025048, 43.702121 ], [ 4.022785, 43.704921 ], [ 4.02197, 43.704262 ], [ 4.021793944302113, 43.704142569237796 ], [ 4.023881, 43.706422 ], [ 4.025701, 43.706527 ], [ 4.032346, 43.70499 ], [ 4.036024, 43.702433 ], [ 4.042337, 43.707495 ], [ 4.041746, 43.713458 ], [ 4.040474, 43.719547 ], [ 4.041346, 43.72224 ], [ 4.041375, 43.722251 ], [ 4.043364, 43.721693 ], [ 4.043415, 43.721625 ], [ 4.051323, 43.718227 ], [ 4.051812, 43.718298 ], [ 4.052462, 43.718417 ], [ 4.05943, 43.723447 ], [ 4.06104, 43.724374 ], [ 4.063127, 43.723773 ], [ 4.068145, 43.720492 ], [ 4.072199, 43.723021 ], [ 4.073075, 43.724199 ], [ 4.075964, 43.722051 ], [ 4.074939, 43.719643 ], [ 4.080184, 43.714084 ], [ 4.083481, 43.714557 ], [ 4.089882, 43.718283 ], [ 4.090398, 43.720671 ], [ 4.091908, 43.723939 ], [ 4.097946763843159, 43.72608052205161 ], [ 4.099651873265422, 43.72464810646624 ], [ 4.100099, 43.723995 ], [ 4.101168, 43.722435 ], [ 4.10171, 43.721676 ], [ 4.101936523365517, 43.721410905863877 ], [ 4.101932, 43.721407 ], [ 4.10273841359258, 43.720472097202403 ], [ 4.098141, 43.720257 ], [ 4.097847, 43.72019 ], [ 4.097486, 43.720021 ], [ 4.096418, 43.718258 ], [ 4.095238, 43.714858 ], [ 4.094172, 43.712434 ], [ 4.093861, 43.711508 ], [ 4.085274, 43.711176 ], [ 4.08493, 43.712851 ], [ 4.084372, 43.713439 ], [ 4.084136, 43.713605 ], [ 4.082744, 43.713425 ], [ 4.081812, 43.713336 ], [ 4.081209, 43.713245 ], [ 4.081111, 43.711522 ], [ 4.080682, 43.707904 ], [ 4.08038, 43.707283 ], [ 4.073044, 43.703972 ], [ 4.069087, 43.711316 ], [ 4.070818, 43.715075 ], [ 4.068991, 43.718176 ], [ 4.064293, 43.719853 ], [ 4.061423, 43.717681 ], [ 4.059086, 43.712812 ], [ 4.051966, 43.713726 ], [ 4.051236, 43.714538 ], [ 4.050488, 43.715205 ], [ 4.04902, 43.71609 ], [ 4.048109, 43.716527 ], [ 4.046552, 43.713281 ], [ 4.045299, 43.704573 ], [ 4.039551, 43.70196 ], [ 4.031541, 43.702039 ], [ 4.03112, 43.702215 ], [ 4.030568, 43.702365 ], [ 4.029832, 43.70248 ], [ 4.027354, 43.700111 ], [ 4.026909, 43.696539 ], [ 4.029971, 43.694477 ], [ 4.035638, 43.688951 ], [ 4.036263, 43.688683 ], [ 4.040742, 43.683404 ], [ 4.040799836177086, 43.682708886841823 ], [ 4.035455446268591, 43.680569940922418 ], [ 4.033794, 43.68617 ] ] ], [ [ [ 4.112576702123034, 43.706392782485182 ], [ 4.11222, 43.706491 ], [ 4.109136, 43.704635 ], [ 4.102163369385413, 43.709117901950478 ], [ 4.102129244435077, 43.709182548100529 ], [ 4.103565, 43.712564 ], [ 4.106506, 43.715044 ], [ 4.10689218255362, 43.715575472732596 ], [ 4.11281, 43.711532 ], [ 4.113244, 43.710639 ], [ 4.112576702123034, 43.706392782485182 ] ] ], [ [ [ 4.105934131320653, 43.724504479438224 ], [ 4.103069, 43.72603 ], [ 4.102621963347231, 43.726682974886074 ], [ 4.102622, 43.726683 ], [ 4.102621696988065, 43.726683883031058 ], [ 4.102819, 43.726396 ], [ 4.105934131320653, 43.724504479438224 ] ] ] ] } },
{ "type": "Feature", "properties": { "codgeo": "34146", "value": 600, "isochrone_group": 10.0, "nb_agences": 1 }, "geometry": { "type": "MultiPolygon", "coordinates": [ [ [ [ 4.114030486929169, 43.72461278090541 ], [ 4.114058, 43.724621 ], [ 4.114162, 43.72462 ], [ 4.114030486929169, 43.72461278090541 ] ] ], [ [ [ 4.117263, 43.640375 ], [ 4.115372972712492, 43.641940850289636 ], [ 4.119045, 43.641917 ], [ 4.120292, 43.641689 ], [ 4.12073, 43.641883 ], [ 4.121538, 43.642484 ], [ 4.124766, 43.643853 ], [ 4.127205, 43.646552 ], [ 4.127325, 43.646433 ], [ 4.127908, 43.645877 ], [ 4.125425, 43.64327 ], [ 4.117401, 43.640382 ], [ 4.117263, 43.640375 ] ] ], [ [ [ 4.089036, 43.6402 ], [ 4.085212, 43.6383 ], [ 4.082565, 43.638435 ], [ 4.07607, 43.642501 ], [ 4.07141, 43.646906 ], [ 4.071403517171775, 43.646912365875174 ], [ 4.069559, 43.649424 ], [ 4.068524349623711, 43.649739591986929 ], [ 4.068195, 43.650063 ], [ 4.061325, 43.650055 ], [ 4.060009, 43.649842 ], [ 4.054940232499833, 43.651254623610015 ], [ 4.0546, 43.652162 ], [ 4.052537690164185, 43.654182410897739 ], [ 4.058972, 43.654053 ], [ 4.063526, 43.654223 ], [ 4.070934, 43.650849 ], [ 4.073974, 43.648187 ], [ 4.074169, 43.648088 ], [ 4.074501, 43.647953 ], [ 4.074554, 43.647935 ], [ 4.075054, 43.647782 ], [ 4.081939, 43.642983 ], [ 4.082283, 43.642232 ], [ 4.083327, 43.642194 ], [ 4.090459, 43.644264 ], [ 4.092734, 43.643412 ], [ 4.093299, 43.643601 ], [ 4.094439, 43.64408 ], [ 4.100740178727624, 43.645658472280857 ], [ 4.107405, 43.644159 ], [ 4.11353666166229, 43.642351265737204 ], [ 4.108038, 43.641897 ], [ 4.100757, 43.644117 ], [ 4.094562, 43.643187 ], [ 4.091537, 43.641234 ], [ 4.089036, 43.6402 ] ] ], [ [ [ 4.049035750926302, 43.664849215696293 ], [ 4.05265, 43.663682 ], [ 4.050296, 43.657591 ], [ 4.050968859183271, 43.655719368708624 ], [ 4.049924, 43.656743 ], [ 4.049433, 43.657461 ], [ 4.048034, 43.663063 ], [ 4.049035750926302, 43.664849215696293 ] ] ], [ [ [ 4.035016332120454, 43.682050015973807 ], [ 4.03545544626859, 43.680569940922418 ], [ 4.034726, 43.680278 ], [ 4.034049904015283, 43.68006880794826 ], [ 4.035016332120454, 43.682050015973807 ] ] ], [ [ [ 4.025958744438018, 43.69253799565373 ], [ 4.026736819203491, 43.693644447431495 ], [ 4.029612, 43.692682 ], [ 4.032552, 43.686649 ], [ 4.033794, 43.68617 ], [ 4.034585840322886, 43.683501028591174 ], [ 4.03058, 43.685639 ], [ 4.030209, 43.685625 ], [ 4.029325, 43.687017 ], [ 4.025958744438018, 43.69253799565373 ] ] ], [ [ [ 4.02023305178885, 43.706400354316429 ], [ 4.021465, 43.710842 ], [ 4.0282, 43.714609 ], [ 4.031177, 43.712585 ], [ 4.036931, 43.711994 ], [ 4.038722, 43.719084 ], [ 4.036346, 43.721759 ], [ 4.036189, 43.722438 ], [ 4.035892, 43.723753 ], [ 4.035878, 43.723826 ], [ 4.03563, 43.725328 ], [ 4.035641, 43.725341 ], [ 4.037109, 43.725918 ], [ 4.038748, 43.726318 ], [ 4.040366, 43.726586 ], [ 4.040547, 43.726512 ], [ 4.043938, 43.724385 ], [ 4.050161, 43.722307 ], [ 4.056551, 43.726476 ], [ 4.058634, 43.728567 ], [ 4.06668, 43.726812 ], [ 4.074633, 43.728256 ], [ 4.074741, 43.728277 ], [ 4.076776, 43.726356 ], [ 4.084843, 43.727837 ], [ 4.085264516362172, 43.728031668253976 ], [ 4.085552, 43.727845 ], [ 4.085561, 43.727847 ], [ 4.086262188143805, 43.728002553138161 ], [ 4.086456, 43.727802 ], [ 4.089455, 43.725468 ], [ 4.09258772138067, 43.728902116964143 ], [ 4.094782025212114, 43.727722146898863 ], [ 4.097643804466064, 43.725973083807034 ], [ 4.091908, 43.723939 ], [ 4.090398, 43.720671 ], [ 4.089882, 43.718283 ], [ 4.083481, 43.714557 ], [ 4.080184, 43.714084 ], [ 4.074939, 43.719643 ], [ 4.075964, 43.722051 ], [ 4.073075, 43.724199 ], [ 4.072199, 43.723021 ], [ 4.068145, 43.720492 ], [ 4.063127, 43.723773 ], [ 4.06104, 43.724374 ], [ 4.05943, 43.723447 ], [ 4.052462, 43.718417 ], [ 4.051812, 43.718298 ], [ 4.051323, 43.718227 ], [ 4.043415, 43.721625 ], [ 4.043364, 43.721693 ], [ 4.041375, 43.722251 ], [ 4.041346, 43.72224 ], [ 4.040474, 43.719547 ], [ 4.041746, 43.713458 ], [ 4.042337, 43.707495 ], [ 4.036024, 43.702433 ], [ 4.032346, 43.70499 ], [ 4.029268706758853, 43.705701783252316 ], [ 4.028731, 43.70795 ], [ 4.025542, 43.709621 ], [ 4.024742, 43.708961 ], [ 4.02023305178885, 43.706400354316429 ] ] ] ] } },
{ "type": "Feature", "properties": { "codgeo": "34146", "value": 660, "isochrone_group": 11.0, "nb_agences": 1 }, "geometry": { "type": "MultiPolygon", "coordinates": [ [ [ [ 4.110261, 43.637391 ], [ 4.105782, 43.640174 ], [ 4.097318, 43.640184 ], [ 4.092022, 43.637316 ], [ 4.089769, 43.634508 ], [ 4.085849, 43.634216 ], [ 4.078246, 43.634572 ], [ 4.077084, 43.635425 ], [ 4.076533, 43.638983 ], [ 4.076405720054566, 43.640611823075304 ], [ 4.076932366210212, 43.641961141491805 ], [ 4.082565, 43.638435 ], [ 4.085212, 43.6383 ], [ 4.089036, 43.6402 ], [ 4.091537, 43.641234 ], [ 4.094562, 43.643187 ], [ 4.099292830531325, 43.643897197319482 ], [ 4.107302, 43.640343 ], [ 4.109254, 43.639321 ], [ 4.114032, 43.638893 ], [ 4.115712, 43.638992 ], [ 4.117508, 43.639573 ], [ 4.120631, 43.639732 ], [ 4.121251802435449, 43.639992744041564 ], [ 4.11938, 43.638926 ], [ 4.119303, 43.638896 ], [ 4.118723, 43.638742 ], [ 4.111563, 43.637412 ], [ 4.110261, 43.637391 ] ] ], [ [ [ 4.029325, 43.687017 ], [ 4.030209, 43.685625 ], [ 4.03058, 43.685639 ], [ 4.035489, 43.683019 ], [ 4.03452321698696, 43.681039114433624 ], [ 4.033587, 43.680984 ], [ 4.028738, 43.687363 ], [ 4.028787744983858, 43.687898151937056 ], [ 4.029325, 43.687017 ] ] ], [ [ [ 4.031069, 43.717007 ], [ 4.030431, 43.717448 ], [ 4.025577, 43.715588 ], [ 4.022444, 43.713815 ], [ 4.018041, 43.709612 ], [ 4.017947504527531, 43.709587230732311 ], [ 4.018334, 43.710838 ], [ 4.020635, 43.718558 ], [ 4.024235, 43.718578 ], [ 4.030017, 43.72546 ], [ 4.031061, 43.728905 ], [ 4.03318, 43.728515 ], [ 4.03327669499665, 43.728500863304582 ], [ 4.033611, 43.72794 ], [ 4.03631860970943, 43.725607335696417 ], [ 4.035641, 43.725341 ], [ 4.03563, 43.725328 ], [ 4.035878, 43.723826 ], [ 4.035892, 43.723753 ], [ 4.036189, 43.722438 ], [ 4.036346, 43.721759 ], [ 4.038722, 43.719084 ], [ 4.036931, 43.711994 ], [ 4.032827540822407, 43.712415471041709 ], [ 4.032597, 43.71438 ], [ 4.033058, 43.714915 ], [ 4.031562, 43.71655 ], [ 4.031069, 43.717007 ] ] ], [ [ [ 4.056118, 43.727589 ], [ 4.055945691775708, 43.728438626191057 ], [ 4.056755, 43.728252 ], [ 4.057359, 43.728122 ], [ 4.057999705701057, 43.727930269621204 ], [ 4.056551, 43.726476 ], [ 4.050161, 43.722307 ], [ 4.043938, 43.724385 ], [ 4.04302677680066, 43.724956563475374 ], [ 4.046206872385383, 43.727290551649169 ], [ 4.046603, 43.726199 ], [ 4.049727, 43.722538 ], [ 4.056118, 43.727589 ] ] ], [ [ [ 4.062761, 43.730741 ], [ 4.062230241114317, 43.731365060710843 ], [ 4.069756, 43.730763 ], [ 4.074372663249673, 43.733679614841442 ], [ 4.074155, 43.733056 ], [ 4.073691, 43.732095 ], [ 4.073552, 43.731464 ], [ 4.073655, 43.730618 ], [ 4.073885, 43.730134 ], [ 4.074133, 43.729763 ], [ 4.078197, 43.727537 ], [ 4.07823, 43.727513 ], [ 4.079343768236441, 43.72682741003571 ], [ 4.076776, 43.726356 ], [ 4.074741, 43.728277 ], [ 4.074633, 43.728256 ], [ 4.06668, 43.726812 ], [ 4.06141803438303, 43.7279597441782 ], [ 4.062531, 43.728331 ], [ 4.062966, 43.730348 ], [ 4.06297, 43.73043 ], [ 4.062761, 43.730741 ] ] ], [ [ [ 4.088396286297924, 43.726291953911527 ], [ 4.091002416127875, 43.728250387390794 ], [ 4.091879865641425, 43.728126159224232 ], [ 4.089455, 43.725468 ], [ 4.088396286297924, 43.726291953911527 ] ] ], [ [ [ 4.114100013944658, 43.728473071502322 ], [ 4.110649421387641, 43.729467928692188 ], [ 4.110619925770408, 43.729612651208711 ], [ 4.114100013944658, 43.728473071502322 ] ] ], [ [ [ 4.11899, 43.72792 ], [ 4.118863390228142, 43.727958423861104 ], [ 4.118906, 43.727964 ], [ 4.11899, 43.72792 ] ] ] ] } },
{ "type": "Feature", "properties": { "codgeo": "34146", "value": 720, "isochrone_group": 12.0, "nb_agences": 1 }, "geometry": { "type": "MultiPolygon", "coordinates": [ [ [ [ 4.099201, 43.639948 ], [ 4.096883, 43.635416 ], [ 4.09689, 43.634734 ], [ 4.091715, 43.630651 ], [ 4.088951, 43.628344 ], [ 4.083448, 43.632456 ], [ 4.079935, 43.632923 ], [ 4.075609, 43.631826 ], [ 4.074697680805602, 43.632416130051659 ], [ 4.074844, 43.632948 ], [ 4.075437, 43.633237 ], [ 4.076066, 43.633985 ], [ 4.077569141581565, 43.635068867668615 ], [ 4.078246, 43.634572 ], [ 4.085849, 43.634216 ], [ 4.089769, 43.634508 ], [ 4.092022, 43.637316 ], [ 4.097318, 43.640184 ], [ 4.105782, 43.640174 ], [ 4.107626623402654, 43.639027854224253 ], [ 4.107617, 43.638883 ], [ 4.10918, 43.636604 ], [ 4.112272, 43.635095 ], [ 4.117272, 43.637979 ], [ 4.121674, 43.638314 ], [ 4.122979, 43.637804 ], [ 4.122985978732379, 43.637795217557517 ], [ 4.117844, 43.636894 ], [ 4.112768, 43.634535 ], [ 4.108252, 43.636222 ], [ 4.107724, 43.637381 ], [ 4.099201, 43.639948 ] ] ], [ [ [ 4.021058, 43.722393 ], [ 4.02076, 43.721363 ], [ 4.020761, 43.72134 ], [ 4.020632, 43.71908 ], [ 4.020611, 43.723043 ], [ 4.020611, 43.723433 ], [ 4.021531, 43.724679 ], [ 4.025958, 43.728868 ], [ 4.026245781508244, 43.729002659720948 ], [ 4.028138, 43.727141 ], [ 4.029358, 43.726055 ], [ 4.030062277119387, 43.725609405820208 ], [ 4.030017, 43.72546 ], [ 4.025713593996366, 43.72033788998322 ], [ 4.024358, 43.721481 ], [ 4.022504, 43.723127 ], [ 4.021887, 43.723034 ], [ 4.021058, 43.722393 ] ] ], [ [ [ 4.047828112551433, 43.724763296718699 ], [ 4.049533, 43.726478 ], [ 4.052938199985564, 43.725075908171981 ], [ 4.049727, 43.722538 ], [ 4.047828112551433, 43.724763296718699 ] ] ], [ [ [ 4.130221, 43.727858 ], [ 4.124545252804656, 43.728736523531687 ], [ 4.130410245813584, 43.727857799102104 ], [ 4.130221, 43.727858 ] ] ], [ [ [ 4.017665244896565, 43.713041251785569 ], [ 4.020632, 43.71908 ], [ 4.020335967128853, 43.717554725873434 ], [ 4.019010108667818, 43.713106387186244 ], [ 4.017665244896565, 43.713041251785569 ] ] ] ] } },
{ "type": "Feature", "properties": { "codgeo": "34146", "value": 780, "isochrone_group": 13.0, "nb_agences": 1 }, "geometry": { "type": "MultiPolygon", "coordinates": [ [ [ [ 4.114235304430402, 43.633805752605284 ], [ 4.11887305977737, 43.63514338946441 ], [ 4.118891, 43.635143 ], [ 4.120249, 43.635579 ], [ 4.124821, 43.634028 ], [ 4.124555111623168, 43.63219677779459 ], [ 4.120743, 43.634232 ], [ 4.117136, 43.633844 ], [ 4.113647, 43.632956 ], [ 4.109632846807135, 43.635706169937187 ], [ 4.110022367846837, 43.635560660195402 ], [ 4.113579, 43.633441 ], [ 4.114235304430402, 43.633805752605284 ] ] ], [ [ [ 4.089311, 43.624353 ], [ 4.089192, 43.62544 ], [ 4.087383654288297, 43.629515165830739 ], [ 4.088951, 43.628344 ], [ 4.091715, 43.630651 ], [ 4.09689, 43.634734 ], [ 4.096883, 43.635416 ], [ 4.098781669226583, 43.639128152258372 ], [ 4.102372128096166, 43.6389929036932 ], [ 4.106247089420549, 43.6378258233553 ], [ 4.108003176357863, 43.636768186744781 ], [ 4.108181792547272, 43.636376110677489 ], [ 4.101783, 43.636431 ], [ 4.09847, 43.632401 ], [ 4.097781, 43.631276 ], [ 4.096546, 43.629358 ], [ 4.093202, 43.624818 ], [ 4.093024, 43.624533 ], [ 4.089311, 43.624353 ] ] ], [ [ [ 4.084111519841094, 43.631960198875781 ], [ 4.085283149386518, 43.631084723554892 ], [ 4.08221784155826, 43.631219002230388 ], [ 4.083115, 43.632149 ], [ 4.084111519841094, 43.631960198875781 ] ] ], [ [ [ 4.020606, 43.725094 ], [ 4.02028204275062, 43.724379126927403 ], [ 4.020189, 43.725788 ], [ 4.020180760796783, 43.725847734223336 ], [ 4.021080242157347, 43.725732803491589 ], [ 4.020606, 43.725094 ] ] ], [ [ [ 4.134308, 43.732498 ], [ 4.134308622832428, 43.732498161898341 ], [ 4.133925, 43.73215 ], [ 4.133229, 43.731604 ], [ 4.129707, 43.729403 ], [ 4.133911, 43.732325 ], [ 4.133938, 43.732341 ], [ 4.134308, 43.732498 ] ] ], [ [ [ 4.127371189163952, 43.729180959415018 ], [ 4.12141955521092, 43.731030003288218 ], [ 4.120385, 43.73155 ], [ 4.120204657302271, 43.73188917945194 ], [ 4.120714, 43.731452 ], [ 4.127371189163952, 43.729180959415018 ] ] ] ] } },
{ "type": "Feature", "properties": { "codgeo": "34146", "value": 840, "isochrone_group": 14.0, "nb_agences": 1 }, "geometry": { "type": "MultiPolygon", "coordinates": [ [ [ [ 4.089805, 43.622163 ], [ 4.089385, 43.623836 ], [ 4.089322724006542, 43.624353568360114 ], [ 4.093024, 43.624533 ], [ 4.093202, 43.624818 ], [ 4.096546, 43.629358 ], [ 4.097781, 43.631276 ], [ 4.09847, 43.632401 ], [ 4.101783, 43.636431 ], [ 4.108661, 43.636372 ], [ 4.10312, 43.635448 ], [ 4.10105, 43.630122 ], [ 4.101713, 43.627835 ], [ 4.10181, 43.627288 ], [ 4.098266, 43.626658 ], [ 4.093178, 43.622202 ], [ 4.089805, 43.622163 ] ] ], [ [ [ 4.020189, 43.725788 ], [ 4.020632, 43.71908 ], [ 4.018186, 43.727142 ], [ 4.018136344199672, 43.727488919577972 ], [ 4.020038, 43.726378 ], [ 4.020154389359248, 43.72619878098665 ], [ 4.020145, 43.726107 ], [ 4.020189, 43.725788 ] ] ] ] } },
{ "type": "Feature", "properties": { "codgeo": "34146", "value": 900, "isochrone_group": 15.0, "nb_agences": 1 }, "geometry": { "type": "MultiPolygon", "coordinates": [ [ [ [ 4.094118, 43.622148 ], [ 4.093601, 43.622139 ], [ 4.093214736142267, 43.622234173005097 ], [ 4.098266, 43.626658 ], [ 4.10181, 43.627288 ], [ 4.101713, 43.627835 ], [ 4.10105, 43.630122 ], [ 4.10312, 43.635448 ], [ 4.107594970644338, 43.636194232246048 ], [ 4.107848, 43.63596 ], [ 4.108135589670847, 43.635841262835761 ], [ 4.103532, 43.631191 ], [ 4.102994, 43.625576 ], [ 4.099275, 43.623784 ], [ 4.095991, 43.622427 ], [ 4.094118, 43.622148 ] ] ], [ [ [ 4.113311, 43.628855 ], [ 4.109282143257993, 43.635367885189183 ], [ 4.109365881217189, 43.635333312293042 ], [ 4.113484, 43.629265 ], [ 4.116194516737281, 43.62279527221051 ], [ 4.114478993328896, 43.620855312569446 ], [ 4.113311, 43.628855 ] ] ], [ [ [ 4.125092579603172, 43.732548503056982 ], [ 4.128049007399256, 43.733175577358615 ], [ 4.128046, 43.73317 ], [ 4.125095909210092, 43.732546171899287 ], [ 4.125092579603172, 43.732548503056982 ] ] ] ] } },
{ "type": "Feature", "properties": { "codgeo": "34146", "value": 960, "isochrone_group": 16.0, "nb_agences": 1 }, "geometry": { "type": "Polygon", "coordinates": [ [ [ 4.095903, 43.616763 ], [ 4.091036, 43.622771 ], [ 4.093601, 43.622139 ], [ 4.094118, 43.622148 ], [ 4.095585, 43.622344 ], [ 4.095582047769738, 43.622366082929922 ], [ 4.095991, 43.622427 ], [ 4.099275, 43.623784 ], [ 4.102994, 43.625576 ], [ 4.103532, 43.631191 ], [ 4.108661, 43.636372 ], [ 4.11318862416816, 43.629052827769449 ], [ 4.113052, 43.628247 ], [ 4.114474849825974, 43.620734390411606 ], [ 4.111616, 43.617478 ], [ 4.111117284554899, 43.61672481005283 ], [ 4.108560572254688, 43.613556567316998 ], [ 4.109143, 43.615547 ], [ 4.101997, 43.620235 ], [ 4.099494, 43.617014 ], [ 4.095903, 43.616763 ] ] ] } },
{ "type": "Feature", "properties": { "codgeo": "34146", "value": 1020, "isochrone_group": 17.0, "nb_agences": 1 }, "geometry": { "type": "MultiPolygon", "coordinates": [ [ [ [ 4.063856, 43.610652 ], [ 4.063844673850009, 43.610654558618215 ], [ 4.067127, 43.612054 ], [ 4.071082610888957, 43.612524156605595 ], [ 4.066537, 43.610132 ], [ 4.063856, 43.610652 ] ] ], [ [ [ 4.095976, 43.615395 ], [ 4.091469088722514, 43.622124347688803 ], [ 4.091559341846875, 43.622124967985222 ], [ 4.095903, 43.616763 ], [ 4.099494, 43.617014 ], [ 4.101997, 43.620235 ], [ 4.109088831366941, 43.615582536321277 ], [ 4.107897705991332, 43.612762066444368 ], [ 4.107874, 43.612732 ], [ 4.106456, 43.610709 ], [ 4.106224269904221, 43.610384169857745 ], [ 4.103534195508383, 43.608496726028491 ], [ 4.099777, 43.612875 ], [ 4.096181, 43.612712 ], [ 4.096112, 43.614214 ], [ 4.095976, 43.615395 ] ] ] ] } },
{ "type": "Feature", "properties": { "codgeo": "34146", "value": 1080, "isochrone_group": 18.0, "nb_agences": 1 }, "geometry": { "type": "MultiPolygon", "coordinates": [ [ [ [ 4.059549953436399, 43.609579224443415 ], [ 4.064239, 43.608971 ], [ 4.067056, 43.608278 ], [ 4.06822, 43.608571 ], [ 4.06861, 43.608721 ], [ 4.069156, 43.609113 ], [ 4.069627, 43.609877 ], [ 4.071943668689676, 43.612081063039298 ], [ 4.074368130782868, 43.612094685174682 ], [ 4.068117, 43.607371 ], [ 4.067354, 43.60706 ], [ 4.066833, 43.606931 ], [ 4.066213, 43.606943 ], [ 4.058707420597975, 43.609240896974924 ], [ 4.059549953436399, 43.609579224443415 ] ] ], [ [ [ 4.094887165980611, 43.617020757029771 ], [ 4.095976, 43.615395 ], [ 4.096112, 43.614214 ], [ 4.096181, 43.612712 ], [ 4.099777, 43.612875 ], [ 4.103624335130239, 43.608391685990171 ], [ 4.102319, 43.607507 ], [ 4.102753, 43.600369 ], [ 4.102715722577798, 43.599842998234408 ], [ 4.102731, 43.600141 ], [ 4.10076, 43.608692 ], [ 4.098917, 43.609816 ], [ 4.094069, 43.610501 ], [ 4.093823, 43.614093 ], [ 4.094887165980611, 43.617020757029771 ] ] ] ] } },
{ "type": "Feature", "properties": { "codgeo": "34146", "value": 1140, "isochrone_group": 19.0, "nb_agences": 1 }, "geometry": { "type": "MultiPolygon", "coordinates": [ [ [ [ 4.10018306622397, 43.609043857604028 ], [ 4.10076, 43.608692 ], [ 4.101084923702775, 43.607282348765892 ], [ 4.101021387195004, 43.607241285008129 ], [ 4.10018306622397, 43.609043857604028 ] ] ], [ [ [ 4.100182638762392, 43.609044118302272 ], [ 4.096997542237262, 43.610087210513079 ], [ 4.098917, 43.609816 ], [ 4.100182638762392, 43.609044118302272 ] ] ], [ [ [ 4.091476200015794, 43.622187389248751 ], [ 4.091476200015796, 43.622187389248751 ], [ 4.095045228813604, 43.61745562299884 ], [ 4.095045228813604, 43.61745562299884 ], [ 4.091476200015794, 43.622187389248751 ] ] ], [ [ [ 4.077062, 43.611149 ], [ 4.077331434207371, 43.610993949210417 ], [ 4.077165, 43.610906 ], [ 4.075848, 43.612103 ], [ 4.077062, 43.611149 ] ] ] ] } },
{ "type": "Feature", "properties": { "codgeo": "34146", "value": 1200, "isochrone_group": 20.0, "nb_agences": 1 }, "geometry": { "type": "Polygon", "coordinates": [ [ [ 4.102581, 43.597942 ], [ 4.102442, 43.596478 ], [ 4.102303, 43.59523 ], [ 4.102232851384732, 43.594235655642329 ], [ 4.100002, 43.602571 ], [ 4.098496, 43.605841 ], [ 4.095447, 43.610595 ], [ 4.100437662367331, 43.608496420468491 ], [ 4.102939, 43.603118 ], [ 4.102753, 43.600369 ], [ 4.102581, 43.597942 ] ] ] } }
]
}
