{
"type": "FeatureCollection",
"name": "Credit_Agricole",
"crs": { "type": "name", "properties": { "name": "urn:ogc:def:crs:OGC:1.3:CRS84" } },
"features": [
{ "type": "Feature", "properties": { "codgeo": "34058", "value": 60, "isochrone_group": 1.0, "nb_agences": 1 }, "geometry": { "type": "Polygon", "coordinates": [ [ [ 3.97774, 43.674783 ], [ 3.980323, 43.674711 ], [ 3.980882, 43.675191 ], [ 3.981158, 43.675423 ], [ 3.981251, 43.675649 ], [ 3.980988, 43.676625 ], [ 3.980866, 43.676963 ], [ 3.976713, 43.677794 ], [ 3.976472, 43.677527 ], [ 3.97774, 43.674783 ] ] ] } },
{ "type": "Feature", "properties": { "codgeo": "34058", "value": 120, "isochrone_group": 2.0, "nb_agences": 1 }, "geometry": { "type": "Polygon", "coordinates": [ [ [ 3.975209, 43.679385 ], [ 3.975567, 43.679428 ], [ 3.981104, 43.678032 ], [ 3.983162, 43.677924 ], [ 3.983336, 43.677609 ], [ 3.982884, 43.675615 ], [ 3.982791, 43.675425 ], [ 3.982697, 43.675234 ], [ 3.978503, 43.673037 ], [ 3.978255, 43.673071 ], [ 3.978115, 43.673403 ], [ 3.975971, 43.678033 ], [ 3.975295, 43.678879 ], [ 3.975219, 43.679111 ], [ 3.975209, 43.679385 ] ], [ [ 3.980323, 43.674711 ], [ 3.980882, 43.675191 ], [ 3.981158, 43.675423 ], [ 3.981251, 43.675649 ], [ 3.980988, 43.676625 ], [ 3.980866, 43.676963 ], [ 3.976713, 43.677794 ], [ 3.976472, 43.677527 ], [ 3.97774, 43.674783 ], [ 3.980323, 43.674711 ] ] ] } },
{ "type": "Feature", "properties": { "codgeo": "34058", "value": 180, "isochrone_group": 3.0, "nb_agences": 1 }, "geometry": { "type": "Polygon", "coordinates": [ [ [ 3.970626, 43.680042 ], [ 3.97487, 43.681076 ], [ 3.975588, 43.680964 ], [ 3.976874, 43.680639 ], [ 3.981096, 43.679708 ], [ 3.985914, 43.679786 ], [ 3.98662, 43.679555 ], [ 3.986735, 43.679214 ], [ 3.985756, 43.676388 ], [ 3.982255, 43.673191 ], [ 3.981355, 43.672505 ], [ 3.978546, 43.67209 ], [ 3.975965, 43.671662 ], [ 3.975818, 43.671715 ], [ 3.975763, 43.671806 ], [ 3.975635, 43.672025 ], [ 3.971831, 43.678358 ], [ 3.970538, 43.679693 ], [ 3.970626, 43.680042 ] ], [ [ 3.975295, 43.678879 ], [ 3.975971, 43.678033 ], [ 3.978115, 43.673403 ], [ 3.978255, 43.673071 ], [ 3.978503, 43.673037 ], [ 3.982697, 43.675234 ], [ 3.982791, 43.675425 ], [ 3.982884, 43.675615 ], [ 3.983336, 43.677609 ], [ 3.983162, 43.677924 ], [ 3.981104, 43.678032 ], [ 3.975567, 43.679428 ], [ 3.975209, 43.679385 ], [ 3.975219, 43.679111 ], [ 3.975295, 43.678879 ] ] ] } },
{ "type": "Feature", "properties": { "codgeo": "34058", "value": 240, "isochrone_group": 4.0, "nb_agences": 1 }, "geometry": { "type": "Polygon", "coordinates": [ [ [ 3.965478, 43.681918 ], [ 3.966282, 43.681667 ], [ 3.967085, 43.681416 ], [ 3.975884, 43.683044 ], [ 3.976145, 43.683292 ], [ 3.983534, 43.683265 ], [ 3.990826, 43.681594 ], [ 3.991005, 43.681282 ], [ 3.989594, 43.675967 ], [ 3.98942, 43.675819 ], [ 3.983846, 43.671483 ], [ 3.979983, 43.670273 ], [ 3.975733, 43.669262 ], [ 3.974902, 43.669876 ], [ 3.973495, 43.671017 ], [ 3.973314, 43.671328 ], [ 3.970181, 43.676439 ], [ 3.965371, 43.681575 ], [ 3.965478, 43.681918 ] ], [ [ 3.971831, 43.678358 ], [ 3.975635, 43.672025 ], [ 3.975763, 43.671806 ], [ 3.975818, 43.671715 ], [ 3.975965, 43.671662 ], [ 3.978546, 43.67209 ], [ 3.981355, 43.672505 ], [ 3.982255, 43.673191 ], [ 3.985756, 43.676388 ], [ 3.986735, 43.679214 ], [ 3.98662, 43.679555 ], [ 3.985914, 43.679786 ], [ 3.981096, 43.679708 ], [ 3.976874, 43.680639 ], [ 3.975588, 43.680964 ], [ 3.97487, 43.681076 ], [ 3.970626, 43.680042 ], [ 3.970538, 43.679693 ], [ 3.971831, 43.678358 ] ] ] } },
{ "type": "Feature", "properties": { "codgeo": "34058", "value": 300, "isochrone_group": 5.0, "nb_agences": 1 }, "geometry": { "type": "Polygon", "coordinates": [ [ [ 3.976153, 43.685108 ], [ 3.982567, 43.686284 ], [ 3.98483, 43.685164 ], [ 3.985164, 43.685031 ], [ 3.991153, 43.684174 ], [ 3.996275, 43.687352 ], [ 3.996402, 43.687489 ], [ 3.996529, 43.687626 ], [ 3.996793, 43.687381 ], [ 3.996363, 43.683097 ], [ 3.993915, 43.674591 ], [ 3.991379, 43.672145 ], [ 3.991057, 43.671984 ], [ 3.984756, 43.66946 ], [ 3.976979, 43.666634 ], [ 3.975977005792789, 43.666487570428032 ], [ 3.975306, 43.667971 ], [ 3.974863, 43.667964 ], [ 3.973106, 43.667317 ], [ 3.972538, 43.667156 ], [ 3.967754952205517, 43.668068816432196 ], [ 3.966913, 43.668646 ], [ 3.966846, 43.668999 ], [ 3.967363, 43.677095 ], [ 3.965, 43.679614 ], [ 3.963587, 43.680373 ], [ 3.963272, 43.680549 ], [ 3.959595, 43.684749 ], [ 3.959817, 43.685032 ], [ 3.960584, 43.684428 ], [ 3.961351, 43.683825 ], [ 3.966231, 43.681683 ], [ 3.967085, 43.681416 ], [ 3.975079, 43.684926 ], [ 3.976153, 43.685108 ] ], [ [ 3.966282, 43.681667 ], [ 3.965478, 43.681918 ], [ 3.965371, 43.681575 ], [ 3.970181, 43.676439 ], [ 3.973314, 43.671328 ], [ 3.973495, 43.671017 ], [ 3.974902, 43.669876 ], [ 3.975733, 43.669262 ], [ 3.979983, 43.670273 ], [ 3.983846, 43.671483 ], [ 3.98942, 43.675819 ], [ 3.989594, 43.675967 ], [ 3.991005, 43.681282 ], [ 3.990826, 43.681594 ], [ 3.983534, 43.683265 ], [ 3.976145, 43.683292 ], [ 3.975884, 43.683044 ], [ 3.967085, 43.681416 ], [ 3.966282, 43.681667 ] ] ] } },
{ "type": "Feature", "properties": { "codgeo": "34058", "value": 360, "isochrone_group": 6.0, "nb_agences": 1 }, "geometry": { "type": "MultiPolygon", "coordinates": [ [ [ [ 3.956154, 43.686201 ], [ 3.95598, 43.686305 ], [ 3.955806, 43.686409 ], [ 3.955991, 43.686718 ], [ 3.958634, 43.685962 ], [ 3.96748, 43.687058 ], [ 3.967659, 43.687371 ], [ 3.972996, 43.687252 ], [ 3.976211, 43.687397 ], [ 3.977261, 43.687335 ], [ 3.985717, 43.689467 ], [ 3.986044, 43.689316 ], [ 3.991774, 43.685449 ], [ 3.996193, 43.688154 ], [ 3.99642, 43.688461 ], [ 3.996692, 43.688696 ], [ 3.998951, 43.691002 ], [ 3.999309, 43.691035 ], [ 4.003449, 43.690549 ], [ 4.003531, 43.690198 ], [ 4.003954, 43.684427 ], [ 4.003715, 43.684158 ], [ 3.999266, 43.683708 ], [ 3.996947, 43.678002 ], [ 3.996979, 43.677643 ], [ 3.996096, 43.673698 ], [ 3.996006, 43.673349 ], [ 3.991885, 43.668141 ], [ 3.991822, 43.668067 ], [ 3.986477, 43.667187 ], [ 3.983725157795877, 43.665144211785993 ], [ 3.982287827470022, 43.668563117452784 ], [ 3.984756, 43.66946 ], [ 3.991057, 43.671984 ], [ 3.991379, 43.672145 ], [ 3.993915, 43.674591 ], [ 3.996363, 43.683097 ], [ 3.996793, 43.687381 ], [ 3.996529, 43.687626 ], [ 3.996402, 43.687489 ], [ 3.996275, 43.687352 ], [ 3.991153, 43.684174 ], [ 3.985164, 43.685031 ], [ 3.98483, 43.685164 ], [ 3.982567, 43.686284 ], [ 3.976153, 43.685108 ], [ 3.975079, 43.684926 ], [ 3.967085, 43.681416 ], [ 3.966231, 43.681683 ], [ 3.961351, 43.683825 ], [ 3.960584, 43.684428 ], [ 3.959817, 43.685032 ], [ 3.959595, 43.684749 ], [ 3.959686788419826, 43.684644156006712 ], [ 3.956411, 43.686066 ], [ 3.956154, 43.686201 ] ] ], [ [ [ 3.95484, 43.674195 ], [ 3.954969, 43.674531 ], [ 3.962198, 43.6787 ], [ 3.959826263518642, 43.684484842594969 ], [ 3.963272, 43.680549 ], [ 3.963587, 43.680373 ], [ 3.965, 43.679614 ], [ 3.967363, 43.677095 ], [ 3.966989996424863, 43.671253922738288 ], [ 3.960351, 43.673134 ], [ 3.958396, 43.674422 ], [ 3.955743251898185, 43.673540889979606 ], [ 3.95484, 43.674195 ] ] ] ] } },
{ "type": "Feature", "properties": { "codgeo": "34058", "value": 420, "isochrone_group": 7.0, "nb_agences": 1 }, "geometry": { "type": "MultiPolygon", "coordinates": [ [ [ [ 3.995042549935623, 43.672131419816743 ], [ 3.995766, 43.669727 ], [ 3.998652204610863, 43.667617586082308 ], [ 3.99711, 43.668363 ], [ 3.996729, 43.668602 ], [ 3.99637, 43.668772 ], [ 3.995962, 43.66892 ], [ 3.994665, 43.669133 ], [ 3.994462, 43.669142 ], [ 3.993467, 43.668009 ], [ 3.993454, 43.66796 ], [ 3.993772, 43.666361 ], [ 3.993623740985206, 43.664141555716313 ], [ 3.99067175416818, 43.664088584320744 ], [ 3.991717, 43.665856 ], [ 3.991876, 43.665874 ], [ 3.992454, 43.666036 ], [ 3.992489, 43.666051 ], [ 3.992536, 43.666071 ], [ 3.993085, 43.666306 ], [ 3.99315, 43.666345 ], [ 3.993251, 43.669239 ], [ 3.993108, 43.669329 ], [ 3.99289613703515, 43.669418845590634 ], [ 3.995042549935623, 43.672131419816743 ] ] ], [ [ [ 3.943927, 43.681 ], [ 3.943774, 43.681448 ], [ 3.943592, 43.682092 ], [ 3.942936, 43.684865 ], [ 3.946439, 43.685694 ], [ 3.954812, 43.688847 ], [ 3.958329, 43.688394 ], [ 3.959495, 43.687335 ], [ 3.968114, 43.688968 ], [ 3.969223, 43.690073 ], [ 3.969692, 43.690545 ], [ 3.971025, 43.691567 ], [ 3.977315, 43.690465 ], [ 3.981679, 43.690933 ], [ 3.987918, 43.692861 ], [ 3.989299, 43.692014 ], [ 3.996869, 43.694329 ], [ 4.000329, 43.695322 ], [ 4.00629, 43.693678 ], [ 4.009972, 43.695562 ], [ 4.010776, 43.69602 ], [ 4.012073, 43.695191 ], [ 4.012142, 43.695017 ], [ 4.012561, 43.692894 ], [ 4.010677, 43.691232 ], [ 4.00738, 43.689556 ], [ 4.006859, 43.689298 ], [ 4.004919, 43.688368 ], [ 4.003823111962693, 43.68621270889669 ], [ 4.003531, 43.690198 ], [ 4.003449, 43.690549 ], [ 3.999309, 43.691035 ], [ 3.998951, 43.691002 ], [ 3.996692, 43.688696 ], [ 3.99642, 43.688461 ], [ 3.996193, 43.688154 ], [ 3.991774, 43.685449 ], [ 3.986044, 43.689316 ], [ 3.985717, 43.689467 ], [ 3.977261, 43.687335 ], [ 3.976211, 43.687397 ], [ 3.972996, 43.687252 ], [ 3.967659, 43.687371 ], [ 3.96748, 43.687058 ], [ 3.958634, 43.685962 ], [ 3.955991, 43.686718 ], [ 3.955806, 43.686409 ], [ 3.95598, 43.686305 ], [ 3.956154, 43.686201 ], [ 3.956411, 43.686066 ], [ 3.959777, 43.684605 ], [ 3.962198, 43.6787 ], [ 3.957854162616218, 43.676194887528986 ], [ 3.956759, 43.676511 ], [ 3.949216, 43.679839 ], [ 3.947286, 43.68229 ], [ 3.943999149200281, 43.680833838205416 ], [ 3.943927, 43.681 ] ] ], [ [ [ 3.999266, 43.683708 ], [ 4.002727584292428, 43.684058126529905 ], [ 4.001645, 43.681929 ], [ 3.997453842493686, 43.679249107921081 ], [ 3.999266, 43.683708 ] ] ] ] } },
{ "type": "Feature", "properties": { "codgeo": "34058", "value": 480, "isochrone_group": 8.0, "nb_agences": 1 }, "geometry": { "type": "MultiPolygon", "coordinates": [ [ [ [ 3.94136, 43.693411 ], [ 3.941301, 43.694521 ], [ 3.941272, 43.695856 ], [ 3.944871, 43.695933 ], [ 3.9449, 43.694598 ], [ 3.953139, 43.691246 ], [ 3.954838, 43.691589 ], [ 3.962648, 43.69598 ], [ 3.966905, 43.694392 ], [ 3.969281, 43.693781 ], [ 3.978216, 43.69291 ], [ 3.982567, 43.693687 ], [ 3.988468, 43.694969 ], [ 3.994636, 43.700722 ], [ 3.995126, 43.700682 ], [ 3.995659, 43.700571 ], [ 3.997311, 43.70005 ], [ 3.997826, 43.699856 ], [ 3.998455, 43.6994 ], [ 4.007417, 43.699287 ], [ 4.010764, 43.700611 ], [ 4.017073, 43.700981 ], [ 4.018464, 43.700488 ], [ 4.01867, 43.697754 ], [ 4.017026293093275, 43.692630149826776 ], [ 4.016757, 43.692815 ], [ 4.01322, 43.692147 ], [ 4.013423367070367, 43.691070724640461 ], [ 4.010852, 43.690252 ], [ 4.006384, 43.686368 ], [ 4.003264, 43.684574 ], [ 4.002373248242687, 43.683361251201795 ], [ 4.004919, 43.688368 ], [ 4.006859, 43.689298 ], [ 4.00738, 43.689556 ], [ 4.010677, 43.691232 ], [ 4.012561, 43.692894 ], [ 4.012142, 43.695017 ], [ 4.012073, 43.695191 ], [ 4.010776, 43.69602 ], [ 4.009972, 43.695562 ], [ 4.00629, 43.693678 ], [ 4.000329, 43.695322 ], [ 3.996869, 43.694329 ], [ 3.989299, 43.692014 ], [ 3.987918, 43.692861 ], [ 3.981679, 43.690933 ], [ 3.977315, 43.690465 ], [ 3.971025, 43.691567 ], [ 3.969692, 43.690545 ], [ 3.969223, 43.690073 ], [ 3.968114, 43.688968 ], [ 3.959495, 43.687335 ], [ 3.958329, 43.688394 ], [ 3.954812, 43.688847 ], [ 3.947636771499438, 43.686145041865259 ], [ 3.947024, 43.687768 ], [ 3.944959, 43.693575 ], [ 3.94137616528338, 43.693237109895577 ], [ 3.94136, 43.693411 ] ] ], [ [ [ 3.995319, 43.674972 ], [ 3.994415610936565, 43.674215080635093 ], [ 3.994029, 43.6755 ], [ 3.997058, 43.678996 ], [ 4.001034606102273, 43.681538704534105 ], [ 3.999369, 43.679271 ], [ 3.998740336245578, 43.675745148858525 ], [ 3.998035, 43.677055 ], [ 3.997306, 43.676662 ], [ 3.996512, 43.676129 ], [ 3.995762, 43.675465 ], [ 3.995324839415312, 43.674966933732726 ], [ 3.995319, 43.674972 ] ] ] ] } },
{ "type": "Feature", "properties": { "codgeo": "34058", "value": 540, "isochrone_group": 9.0, "nb_agences": 1 }, "geometry": { "type": "MultiPolygon", "coordinates": [ [ [ [ 3.942794, 43.705423 ], [ 3.943546, 43.703534 ], [ 3.943013, 43.70445 ], [ 3.941213, 43.705918 ], [ 3.938907, 43.703154 ], [ 3.941268, 43.696115 ], [ 3.937619, 43.704044 ], [ 3.937122, 43.704338 ], [ 3.936205, 43.704942 ], [ 3.938187, 43.707948 ], [ 3.942794, 43.705423 ] ] ], [ [ [ 3.950224, 43.69291 ], [ 3.955886, 43.697697 ], [ 3.959417, 43.700074 ], [ 3.961957, 43.701132 ], [ 3.962477, 43.701139 ], [ 3.962665, 43.701121 ], [ 3.963906, 43.70026 ], [ 3.968059, 43.696015 ], [ 3.976085, 43.696354 ], [ 3.978771, 43.696805 ], [ 3.981069, 43.697265 ], [ 3.986912, 43.701163 ], [ 3.989767, 43.703985 ], [ 3.990292, 43.704426 ], [ 3.990834, 43.704734 ], [ 3.991543, 43.705092 ], [ 3.995659, 43.700571 ], [ 3.995126, 43.700682 ], [ 3.994636, 43.700722 ], [ 3.988468, 43.694969 ], [ 3.982567, 43.693687 ], [ 3.978216, 43.69291 ], [ 3.969281, 43.693781 ], [ 3.966905, 43.694392 ], [ 3.962648, 43.69598 ], [ 3.954838, 43.691589 ], [ 3.953139, 43.691246 ], [ 3.9449, 43.694598 ], [ 3.944871, 43.695933 ], [ 3.944869257662346, 43.695932962722978 ], [ 3.944867, 43.696031 ], [ 3.944935, 43.699129 ], [ 3.950224, 43.69291 ] ] ], [ [ [ 4.010819, 43.703002 ], [ 4.01747, 43.701348 ], [ 4.020431, 43.703128 ], [ 4.021087, 43.703663 ], [ 4.02197, 43.704262 ], [ 4.022886, 43.705014 ], [ 4.025323, 43.702364 ], [ 4.026341, 43.700238 ], [ 4.026275, 43.698983 ], [ 4.025895, 43.696665 ], [ 4.022927, 43.695103 ], [ 4.022301597506679, 43.691636373474523 ], [ 4.018526689113464, 43.697307263718862 ], [ 4.01867, 43.697754 ], [ 4.018464, 43.700488 ], [ 4.017073, 43.700981 ], [ 4.010764, 43.700611 ], [ 4.007417, 43.699287 ], [ 3.998455, 43.6994 ], [ 3.997826, 43.699856 ], [ 3.997311, 43.70005 ], [ 4.00443, 43.704836 ], [ 4.005238, 43.70741 ], [ 4.005268, 43.707422 ], [ 4.007204, 43.707131 ], [ 4.008589, 43.706085 ], [ 4.010819, 43.703002 ] ] ], [ [ [ 4.006833, 43.681708 ], [ 4.00626336509188, 43.680742545495015 ], [ 4.006264, 43.680769 ], [ 4.00624, 43.682956 ], [ 4.006024, 43.684097 ], [ 4.005785, 43.684624 ], [ 4.005607, 43.684921 ], [ 4.002522, 43.683065 ], [ 3.999256384465316, 43.678639397480033 ], [ 3.999369, 43.679271 ], [ 4.003264, 43.684574 ], [ 4.006384, 43.686368 ], [ 4.010852, 43.690252 ], [ 4.013150015253782, 43.690983689276912 ], [ 4.013764, 43.689268 ], [ 4.014168, 43.685952 ], [ 4.01431, 43.685421 ], [ 4.014331997474322, 43.68484906566762 ], [ 4.009397, 43.684234 ], [ 4.006833, 43.681708 ] ] ] ] } },
{ "type": "Feature", "properties": { "codgeo": "34058", "value": 600, "isochrone_group": 10.0, "nb_agences": 1 }, "geometry": { "type": "MultiPolygon", "coordinates": [ [ [ [ 3.922958, 43.708428 ], [ 3.922091, 43.708787 ], [ 3.923471, 43.712112 ], [ 3.930876, 43.710686 ], [ 3.925984, 43.711254 ], [ 3.925234, 43.707733 ], [ 3.926127, 43.707543 ], [ 3.927157, 43.707371 ], [ 3.928142, 43.70726 ], [ 3.929911, 43.707156 ], [ 3.933849633692567, 43.704639691052911 ], [ 3.932934318085429, 43.703696771223733 ], [ 3.925144, 43.707754 ], [ 3.9241, 43.708028 ], [ 3.923547, 43.708207 ], [ 3.922958, 43.708428 ] ] ], [ [ [ 3.93716, 43.710572 ], [ 3.941149, 43.710904 ], [ 3.943799, 43.708467 ], [ 3.943955, 43.706309 ], [ 3.94348, 43.70703 ], [ 3.942949, 43.707543 ], [ 3.940299, 43.70998 ], [ 3.938985, 43.710059 ], [ 3.930876, 43.710686 ], [ 3.93716, 43.710572 ] ] ], [ [ [ 3.951073, 43.701332 ], [ 3.952701, 43.701733 ], [ 3.957827, 43.706064 ], [ 3.960528, 43.708444 ], [ 3.966276, 43.707695 ], [ 3.968336, 43.706002 ], [ 3.968333, 43.705755 ], [ 3.968307, 43.705605 ], [ 3.967901, 43.704483 ], [ 3.968777, 43.698496 ], [ 3.97474, 43.697833 ], [ 3.980133, 43.699409 ], [ 3.983484, 43.700727 ], [ 3.98958, 43.704283 ], [ 3.992069, 43.706684 ], [ 3.995579, 43.708664 ], [ 3.997028, 43.709638 ], [ 3.997564, 43.710027 ], [ 4.005893, 43.710982 ], [ 4.006088, 43.710921 ], [ 4.0117, 43.705885 ], [ 4.018104, 43.705228 ], [ 4.024754, 43.709037 ], [ 4.025867, 43.710241 ], [ 4.029056, 43.70857 ], [ 4.030285, 43.704318 ], [ 4.034606, 43.699307 ], [ 4.034808, 43.698749 ], [ 4.035022, 43.698145 ], [ 4.035041118760011, 43.697645044425705 ], [ 4.028142, 43.69461 ], [ 4.02616805841429, 43.698330656327173 ], [ 4.026275, 43.698983 ], [ 4.026341, 43.700238 ], [ 4.025323, 43.702364 ], [ 4.022886, 43.705014 ], [ 4.02260437798764, 43.704782799395993 ], [ 4.017461, 43.701611 ], [ 4.017067067156616, 43.701448203115774 ], [ 4.010819, 43.703002 ], [ 4.008589, 43.706085 ], [ 4.007204, 43.707131 ], [ 4.005268, 43.707422 ], [ 4.005238, 43.70741 ], [ 4.00443, 43.704836 ], [ 3.997311, 43.70005 ], [ 3.996686, 43.700218 ], [ 3.995659, 43.700571 ], [ 3.991543, 43.705092 ], [ 3.990834, 43.704734 ], [ 3.990292, 43.704426 ], [ 3.989767, 43.703985 ], [ 3.986912, 43.701163 ], [ 3.981069, 43.697265 ], [ 3.978771, 43.696805 ], [ 3.976085, 43.696354 ], [ 3.968059, 43.696015 ], [ 3.963906, 43.70026 ], [ 3.962665, 43.701121 ], [ 3.962477, 43.701139 ], [ 3.961957, 43.701132 ], [ 3.959417, 43.700074 ], [ 3.955886, 43.697697 ], [ 3.950224, 43.69291 ], [ 3.944935, 43.699129 ], [ 3.944904, 43.699671 ], [ 3.944773, 43.700524 ], [ 3.944341, 43.705264 ], [ 3.943955, 43.706309 ], [ 3.951073, 43.701332 ] ] ], [ [ [ 4.006810503989869, 43.680047100184495 ], [ 4.006272415134538, 43.680757884099314 ], [ 4.006833, 43.681708 ], [ 4.009397, 43.684234 ], [ 4.010909040457214, 43.684422450790123 ], [ 4.010431575021775, 43.68094553675968 ], [ 4.008949, 43.680059 ], [ 4.006810503989869, 43.680047100184495 ] ] ], [ [ [ 3.941301, 43.694521 ], [ 3.936974551700431, 43.699553117042548 ], [ 3.937484883042723, 43.701879959367972 ], [ 3.941268, 43.696115 ], [ 3.941301, 43.694521 ] ] ] ] } },
{ "type": "Feature", "properties": { "codgeo": "34058", "value": 660, "isochrone_group": 11.0, "nb_agences": 1 }, "geometry": { "type": "MultiPolygon", "coordinates": [ [ [ [ 3.91809479049324, 43.711243383998337 ], [ 3.918094790493827, 43.711243383997925 ], [ 3.919693, 43.710096 ], [ 3.91809479049324, 43.711243383998337 ] ] ], [ [ [ 3.919796, 43.710027 ], [ 3.920180913385961, 43.709790803149531 ], [ 3.920422, 43.70964 ], [ 3.925413, 43.704262 ], [ 3.926535576147599, 43.700016102858271 ], [ 3.924055, 43.703205 ], [ 3.922096833303601, 43.70629847242202 ], [ 3.922133, 43.706337 ], [ 3.92201095436803, 43.706434142239793 ], [ 3.919693, 43.710096 ], [ 3.919744914238226, 43.710063526896256 ], [ 3.919796, 43.710027 ] ] ], [ [ [ 3.917832545451771, 43.711435818183887 ], [ 3.917832545453814, 43.711435818182366 ], [ 3.918002, 43.71131 ], [ 3.917832545451771, 43.711435818183887 ] ] ], [ [ [ 3.916406787169501, 43.712483050566256 ], [ 3.916565602291419, 43.712374294598959 ], [ 3.916589312754323, 43.712356731293085 ], [ 3.913763276007632, 43.71403675732973 ], [ 3.91377, 43.714033 ], [ 3.915735127473088, 43.712935439915015 ], [ 3.916406787169501, 43.712483050566256 ] ] ], [ [ [ 3.931537, 43.716594 ], [ 3.932827, 43.715586 ], [ 3.933389, 43.714944 ], [ 3.933525403342239, 43.714714467845248 ], [ 3.930416, 43.712922 ], [ 3.924218170543284, 43.712993148552428 ], [ 3.924197050801732, 43.71325645728492 ], [ 3.92932, 43.713758 ], [ 3.931537, 43.716594 ] ] ], [ [ [ 3.947229, 43.718169 ], [ 3.953754, 43.715669 ], [ 3.955649, 43.714113 ], [ 3.957544, 43.712557 ], [ 3.96588, 43.710059 ], [ 3.969387, 43.710876 ], [ 3.973698, 43.711496 ], [ 3.975533, 43.710767 ], [ 3.97612, 43.710167 ], [ 3.976223, 43.708931 ], [ 3.975508, 43.708227 ], [ 3.974984, 43.707818 ], [ 3.974469, 43.70055 ], [ 3.981797, 43.700414 ], [ 3.987778, 43.706346 ], [ 3.990702, 43.708447 ], [ 3.997779, 43.711819 ], [ 3.998121, 43.711992 ], [ 3.998608, 43.712157 ], [ 4.000867, 43.712816 ], [ 4.006419, 43.71374 ], [ 4.00718, 43.713221 ], [ 4.0083, 43.712536 ], [ 4.008445, 43.71239 ], [ 4.008619, 43.712115 ], [ 4.011652, 43.707952 ], [ 4.018993, 43.711817 ], [ 4.021959, 43.715255 ], [ 4.025243, 43.716178 ], [ 4.029841, 43.717813 ], [ 4.032313, 43.717884 ], [ 4.03267, 43.717665 ], [ 4.032993, 43.717413 ], [ 4.033553, 43.716567 ], [ 4.033678, 43.716173 ], [ 4.033404, 43.715336 ], [ 4.033124, 43.714992 ], [ 4.03405, 43.706108 ], [ 4.040172, 43.702199 ], [ 4.041108, 43.700909 ], [ 4.04120864713671, 43.700729938228442 ], [ 4.037336, 43.700052 ], [ 4.03539, 43.700048 ], [ 4.033801861226051, 43.700239547881566 ], [ 4.033043268884497, 43.701119276236923 ], [ 4.029842075832675, 43.705850395084994 ], [ 4.029056, 43.70857 ], [ 4.025867, 43.710241 ], [ 4.024754, 43.709037 ], [ 4.018104, 43.705228 ], [ 4.0117, 43.705885 ], [ 4.006088, 43.710921 ], [ 4.005893, 43.710982 ], [ 3.997564, 43.710027 ], [ 3.997028, 43.709638 ], [ 3.995579, 43.708664 ], [ 3.992069, 43.706684 ], [ 3.98958, 43.704283 ], [ 3.983484, 43.700727 ], [ 3.980133, 43.699409 ], [ 3.97474, 43.697833 ], [ 3.968777, 43.698496 ], [ 3.967901, 43.704483 ], [ 3.968307, 43.705605 ], [ 3.968333, 43.705755 ], [ 3.968336, 43.706002 ], [ 3.966276, 43.707695 ], [ 3.960528, 43.708444 ], [ 3.957827, 43.706064 ], [ 3.952701, 43.701733 ], [ 3.951073, 43.701332 ], [ 3.946212461618368, 43.704730552897644 ], [ 3.94563, 43.711025 ], [ 3.947182, 43.71296 ], [ 3.949128, 43.714959 ], [ 3.946548335758907, 43.717469673220698 ], [ 3.947229, 43.718169 ] ] ] ] } },
{ "type": "Feature", "properties": { "codgeo": "34058", "value": 720, "isochrone_group": 12.0, "nb_agences": 1 }, "geometry": { "type": "MultiPolygon", "coordinates": [ [ [ [ 3.912578843057643, 43.711672465762703 ], [ 3.912078548574473, 43.713512947456742 ], [ 3.912637746281013, 43.713685465088176 ], [ 3.914344182437079, 43.711102750906051 ], [ 3.912578843057643, 43.711672465762703 ] ] ], [ [ [ 3.929759034847145, 43.718367065062708 ], [ 3.931393, 43.716706 ], [ 3.929759034847149, 43.718367065062708 ], [ 3.929759034847145, 43.718367065062708 ] ] ], [ [ [ 3.954809, 43.724579 ], [ 3.954896, 43.724541 ], [ 3.955947, 43.722483 ], [ 3.955822, 43.72219 ], [ 3.955207, 43.721272 ], [ 3.954930015356307, 43.714703364171818 ], [ 3.953754, 43.715669 ], [ 3.951930198719308, 43.716367774437039 ], [ 3.952304, 43.716713 ], [ 3.955003, 43.721048 ], [ 3.952384, 43.723517 ], [ 3.951655, 43.722744 ], [ 3.952635, 43.723895 ], [ 3.953006, 43.724143 ], [ 3.953352, 43.724342 ], [ 3.953677, 43.724475 ], [ 3.953828, 43.724523 ], [ 3.954809, 43.724579 ] ] ], [ [ [ 3.983821, 43.712671 ], [ 3.984911, 43.712758 ], [ 3.990833, 43.709535 ], [ 3.996091, 43.711422 ], [ 3.996926, 43.712244 ], [ 3.999406, 43.714245 ], [ 3.999494, 43.714334 ], [ 4.001284, 43.715439 ], [ 4.001635, 43.715629 ], [ 4.001837, 43.715716 ], [ 4.008291, 43.715883 ], [ 4.010569, 43.713228 ], [ 4.019477, 43.713129 ], [ 4.020632, 43.71908 ], [ 4.020644, 43.721405 ], [ 4.022601, 43.723226 ], [ 4.022806, 43.723231 ], [ 4.024202, 43.721957 ], [ 4.030228, 43.719473 ], [ 4.033663, 43.720806 ], [ 4.036492, 43.719936 ], [ 4.03663, 43.719822 ], [ 4.036822, 43.718981 ], [ 4.036888, 43.718189 ], [ 4.036883, 43.718108 ], [ 4.036626, 43.717213 ], [ 4.037015, 43.708889 ], [ 4.040293, 43.7074 ], [ 4.047949, 43.706175 ], [ 4.048465965893723, 43.70534524801932 ], [ 4.04664, 43.705362 ], [ 4.043579, 43.705023 ], [ 4.04043, 43.702281 ], [ 4.038474827826419, 43.703282672987015 ], [ 4.03405, 43.706108 ], [ 4.033124, 43.714992 ], [ 4.033404, 43.715336 ], [ 4.033678, 43.716173 ], [ 4.033553, 43.716567 ], [ 4.032993, 43.717413 ], [ 4.03267, 43.717665 ], [ 4.032313, 43.717884 ], [ 4.029841, 43.717813 ], [ 4.025243, 43.716178 ], [ 4.021959, 43.715255 ], [ 4.018993, 43.711817 ], [ 4.011652, 43.707952 ], [ 4.008619, 43.712115 ], [ 4.008445, 43.71239 ], [ 4.0083, 43.712536 ], [ 4.00718, 43.713221 ], [ 4.006419, 43.71374 ], [ 4.000867, 43.712816 ], [ 3.998608, 43.712157 ], [ 3.998121, 43.711992 ], [ 3.997779, 43.711819 ], [ 3.990702, 43.708447 ], [ 3.987778, 43.706346 ], [ 3.981797, 43.700414 ], [ 3.974469, 43.70055 ], [ 3.974984, 43.707818 ], [ 3.975508, 43.708227 ], [ 3.976223, 43.708931 ], [ 3.97612, 43.710167 ], [ 3.975533, 43.710767 ], [ 3.973698, 43.711496 ], [ 3.969387, 43.710876 ], [ 3.96588, 43.710059 ], [ 3.957544, 43.712557 ], [ 3.962245, 43.712409 ], [ 3.966328, 43.713491 ], [ 3.969068, 43.714221 ], [ 3.971862, 43.71417 ], [ 3.972535, 43.714216 ], [ 3.973067, 43.714195 ], [ 3.974035, 43.713901 ], [ 3.974733, 43.713651 ], [ 3.981857, 43.712238 ], [ 3.983821, 43.712671 ] ] ] ] } },
{ "type": "Feature", "properties": { "codgeo": "34058", "value": 780, "isochrone_group": 13.0, "nb_agences": 1 }, "geometry": { "type": "MultiPolygon", "coordinates": [ [ [ [ 3.961693, 43.712535 ], [ 3.96513, 43.7147 ], [ 3.966798, 43.716251 ], [ 3.966925, 43.716252 ], [ 3.970544, 43.714967 ], [ 3.974035, 43.713901 ], [ 3.973067, 43.714195 ], [ 3.972535, 43.714216 ], [ 3.971862, 43.71417 ], [ 3.969068, 43.714221 ], [ 3.966328, 43.713491 ], [ 3.962245, 43.712409 ], [ 3.957544, 43.712557 ], [ 3.95493, 43.714703 ], [ 3.957996, 43.721638 ], [ 3.959088, 43.712769 ], [ 3.961693, 43.712535 ] ] ], [ [ [ 3.954163, 43.730139 ], [ 3.954313, 43.730656 ], [ 3.955, 43.732379 ], [ 3.958466, 43.731406 ], [ 3.960354, 43.729044 ], [ 3.961523, 43.725639 ], [ 3.960763, 43.723748 ], [ 3.959684, 43.722638 ], [ 3.960533, 43.725322 ], [ 3.957868, 43.729279 ], [ 3.954402, 43.730252 ], [ 3.953488, 43.727662 ], [ 3.953343452608145, 43.727397117573794 ], [ 3.954163, 43.730139 ] ] ], [ [ [ 4.019106427619896, 43.713133118395312 ], [ 4.010569, 43.713228 ], [ 4.008291, 43.715883 ], [ 4.001837, 43.715716 ], [ 4.001635, 43.715629 ], [ 4.001284, 43.715439 ], [ 3.999494, 43.714334 ], [ 3.999406, 43.714245 ], [ 3.996926, 43.712244 ], [ 3.996091, 43.711422 ], [ 3.990833, 43.709535 ], [ 3.984911, 43.712758 ], [ 3.983821, 43.712671 ], [ 3.988052, 43.713501 ], [ 3.988748, 43.713676 ], [ 3.997001, 43.716635 ], [ 3.997059, 43.71666 ], [ 3.999368, 43.717406 ], [ 3.99997, 43.717629 ], [ 4.000364, 43.71769 ], [ 4.004236, 43.718376 ], [ 4.006579, 43.718487 ], [ 4.008121, 43.717097 ], [ 4.010554, 43.714494 ], [ 4.012341, 43.713463 ], [ 4.019109780327989, 43.713146187692054 ], [ 4.019106427619896, 43.713133118395312 ] ] ], [ [ [ 4.022601, 43.723226 ], [ 4.020644, 43.721405 ], [ 4.020632, 43.71908 ], [ 4.019407, 43.722544 ], [ 4.020603, 43.725413 ], [ 4.021476, 43.72549 ], [ 4.023244402663498, 43.725456279083787 ], [ 4.024084, 43.725349 ], [ 4.024338537066441, 43.725289278394015 ], [ 4.026773, 43.722618 ], [ 4.029553254195545, 43.722823140994393 ], [ 4.03259504653074, 43.720391565655163 ], [ 4.031803030836179, 43.720084212839765 ], [ 4.029571273984288, 43.719743711487403 ], [ 4.024202, 43.721957 ], [ 4.022806, 43.723231 ], [ 4.022601, 43.723226 ] ] ], [ [ [ 4.05009, 43.710378 ], [ 4.05378, 43.71153 ], [ 4.055531, 43.709406 ], [ 4.055735, 43.707076 ], [ 4.055726893459541, 43.706956816607288 ], [ 4.05305, 43.709708 ], [ 4.050476, 43.709849 ], [ 4.047559, 43.708896 ], [ 4.042757, 43.70723 ], [ 4.042176, 43.707177 ], [ 4.038088095974846, 43.708401556465347 ], [ 4.037015, 43.708889 ], [ 4.03665169060809, 43.716663260612521 ], [ 4.040698373883232, 43.715851234812312 ], [ 4.043428, 43.711289 ], [ 4.05009, 43.710378 ] ] ] ] } },
{ "type": "Feature", "properties": { "codgeo": "34058", "value": 840, "isochrone_group": 14.0, "nb_agences": 1 }, "geometry": { "type": "MultiPolygon", "coordinates": [ [ [ [ 3.931003036834382, 43.71834689257291 ], [ 3.930141643091229, 43.719650765168907 ], [ 3.92929, 43.72305 ], [ 3.929455147765953, 43.724239149929346 ], [ 3.929627, 43.724137 ], [ 3.931003036834382, 43.71834689257291 ] ] ], [ [ [ 3.952845214652623, 43.728428003192953 ], [ 3.952079, 43.725666 ], [ 3.949709, 43.720737 ], [ 3.952845214652623, 43.728428003192953 ] ] ], [ [ [ 3.954517, 43.735319 ], [ 3.956937, 43.740188 ], [ 3.960527, 43.739915 ], [ 3.960397188430532, 43.738214468439971 ], [ 3.958196, 43.739485 ], [ 3.957712, 43.739386 ], [ 3.956808, 43.738482 ], [ 3.95488, 43.734037 ], [ 3.953061, 43.729278 ], [ 3.954517, 43.735319 ] ] ], [ [ [ 3.965438, 43.730123 ], [ 3.965914, 43.729354 ], [ 3.966063, 43.728344 ], [ 3.965024, 43.729455 ], [ 3.964503, 43.729896 ], [ 3.960283, 43.736605 ], [ 3.965438, 43.730123 ] ] ], [ [ [ 3.966179, 43.727741 ], [ 3.966289, 43.726625 ], [ 3.965512, 43.725776 ], [ 3.962955, 43.724987 ], [ 3.964396, 43.725911 ], [ 3.965354, 43.726397 ], [ 3.965947, 43.727343 ], [ 3.966012, 43.727467 ], [ 3.966063, 43.728344 ], [ 3.966179, 43.727741 ] ] ], [ [ [ 3.959088, 43.712769 ], [ 3.958601345683151, 43.716721506534924 ], [ 3.959987, 43.715413 ], [ 3.965601, 43.715825 ], [ 3.966248, 43.716161 ], [ 3.966777796201232, 43.716232213374177 ], [ 3.96513, 43.7147 ], [ 3.961693, 43.712535 ], [ 3.959088, 43.712769 ] ] ], [ [ [ 3.970544, 43.714967 ], [ 3.966925, 43.716252 ], [ 3.969674, 43.716745 ], [ 3.974035, 43.713901 ], [ 3.970544, 43.714967 ] ] ], [ [ [ 3.997059, 43.71666 ], [ 3.997001, 43.716635 ], [ 3.988748, 43.713676 ], [ 3.988052, 43.713501 ], [ 3.985410921198473, 43.712982896618939 ], [ 3.991537, 43.71799 ], [ 3.991785, 43.718224 ], [ 3.992965, 43.719167 ], [ 3.99703, 43.718711 ], [ 4.004947, 43.722037 ], [ 4.004974065507472, 43.722134533360268 ], [ 4.004928, 43.721957 ], [ 4.004851, 43.721539 ], [ 4.004443, 43.718635 ], [ 4.004982368662967, 43.718411359334866 ], [ 4.004236, 43.718376 ], [ 4.000364, 43.71769 ], [ 3.99997, 43.717629 ], [ 3.999368, 43.717406 ], [ 3.997059, 43.71666 ] ] ], [ [ [ 4.010554, 43.714494 ], [ 4.009530151127168, 43.715589387840517 ], [ 4.013751511237805, 43.713396981116404 ], [ 4.012341, 43.713463 ], [ 4.010554, 43.714494 ] ] ], [ [ [ 4.014999194651485, 43.713338583378139 ], [ 4.020632, 43.71908 ], [ 4.019109780327989, 43.713146187692054 ], [ 4.014999194651485, 43.713338583378139 ] ] ], [ [ [ 4.020209624757617, 43.724469359890968 ], [ 4.020063065591579, 43.726339403425357 ], [ 4.020603, 43.725508 ], [ 4.020690895659917, 43.725420752538156 ], [ 4.020603, 43.725413 ], [ 4.020209624757617, 43.724469359890968 ] ] ], [ [ [ 4.025884520486748, 43.723592907481468 ], [ 4.02621, 43.723516 ], [ 4.0264414167455, 43.722981838434904 ], [ 4.025884520486748, 43.723592907481468 ] ] ], [ [ [ 4.057726674058213, 43.713110878544654 ], [ 4.057726674058206, 43.713110878544654 ], [ 4.056139718031246, 43.713459806710603 ], [ 4.057726674058213, 43.713110878544654 ] ] ] ] } },
{ "type": "Feature", "properties": { "codgeo": "34058", "value": 900, "isochrone_group": 15.0, "nb_agences": 1 }, "geometry": { "type": "MultiPolygon", "coordinates": [ [ [ [ 3.9308733323993, 43.719708752324458 ], [ 3.930484265602571, 43.7205297855647 ], [ 3.93048426560257, 43.720529785564722 ], [ 3.930873332399301, 43.719708752324458 ], [ 3.9308733323993, 43.719708752324458 ] ] ], [ [ [ 3.970144, 43.727472 ], [ 3.968133, 43.725619 ], [ 3.96752083116814, 43.725657673223573 ], [ 3.967551, 43.725657 ], [ 3.970369, 43.72792 ], [ 3.969414, 43.730406 ], [ 3.969022, 43.731258 ], [ 3.967958, 43.731099 ], [ 3.965350633448251, 43.730232856447799 ], [ 3.962427283730396, 43.733908734793339 ], [ 3.961294, 43.737175 ], [ 3.962753, 43.740466 ], [ 3.961728, 43.746401 ], [ 3.961638, 43.74689 ], [ 3.961586, 43.747092 ], [ 3.960692, 43.747395 ], [ 3.959217, 43.74758 ], [ 3.958102, 43.746185 ], [ 3.957583, 43.74508 ], [ 3.957336, 43.744311 ], [ 3.957274, 43.744096 ], [ 3.956394963258872, 43.741213596666938 ], [ 3.95644, 43.744599 ], [ 3.957457, 43.748053 ], [ 3.961967, 43.747882 ], [ 3.963365, 43.744564 ], [ 3.962966, 43.740367 ], [ 3.962953, 43.740327 ], [ 3.962616, 43.736745 ], [ 3.9696, 43.731606 ], [ 3.970904, 43.731161 ], [ 3.971214, 43.730783 ], [ 3.971565, 43.729871 ], [ 3.971572, 43.729851 ], [ 3.971514, 43.728556 ], [ 3.970144, 43.727472 ] ] ], [ [ [ 3.965515196487497, 43.725779492687124 ], [ 3.966427, 43.725681 ], [ 3.965515196487494, 43.725779492687124 ], [ 3.965515196487497, 43.725779492687124 ] ] ], [ [ [ 3.95600542821099, 43.740191698487415 ], [ 3.954514, 43.737044 ], [ 3.952292173230461, 43.733935109934848 ], [ 3.952574, 43.736385 ], [ 3.95600542821099, 43.740191698487415 ] ] ], [ [ [ 3.959987, 43.715413 ], [ 3.958083825936605, 43.717210212817641 ], [ 3.958101346255572, 43.717802550163981 ], [ 3.959073220211077, 43.721112728943893 ], [ 3.960349, 43.721613 ], [ 3.960632, 43.722269 ], [ 3.960882437385546, 43.722811898629587 ], [ 3.962628, 43.716478 ], [ 3.964857, 43.716367 ], [ 3.966925, 43.716252 ], [ 3.966248, 43.716161 ], [ 3.965601, 43.715825 ], [ 3.959987, 43.715413 ] ] ], [ [ [ 3.98677, 43.723635 ], [ 3.987755, 43.724258 ], [ 3.992201, 43.721252 ], [ 4.000255, 43.721264 ], [ 4.003107578487062, 43.723166185556387 ], [ 4.00294017878442, 43.72119391709446 ], [ 3.99703, 43.718711 ], [ 3.992965, 43.719167 ], [ 3.991785, 43.718224 ], [ 3.991537, 43.71799 ], [ 3.985148, 43.712768 ], [ 3.983821, 43.712671 ], [ 3.98527, 43.720772 ], [ 3.984644, 43.722447 ], [ 3.98677, 43.723635 ] ] ], [ [ [ 4.012493, 43.720055 ], [ 4.020426176119499, 43.721706240496289 ], [ 4.020632, 43.71908 ], [ 4.014999194651485, 43.713338583378139 ], [ 4.013751511237805, 43.713396981116404 ], [ 4.008664735311517, 43.71603885043163 ], [ 4.012493, 43.720055 ] ] ] ] } },
{ "type": "Feature", "properties": { "codgeo": "34058", "value": 960, "isochrone_group": 16.0, "nb_agences": 1 }, "geometry": { "type": "MultiPolygon", "coordinates": [ [ [ [ 3.909325451852883, 43.753224580773839 ], [ 3.909593653275965, 43.753633906186288 ], [ 3.910439536055062, 43.75072018740876 ], [ 3.909538645901484, 43.751789842446769 ], [ 3.909325451852883, 43.753224580773839 ] ] ], [ [ [ 3.930561566281513, 43.727103617351837 ], [ 3.931604, 43.728573 ], [ 3.931918521390826, 43.729016339721241 ], [ 3.931919, 43.729016 ], [ 3.930561565205637, 43.727103613922047 ], [ 3.930561566281513, 43.727103617351837 ] ] ], [ [ [ 3.950914, 43.732442 ], [ 3.949821, 43.735454 ], [ 3.950494, 43.733994 ], [ 3.951102, 43.732508 ], [ 3.952465827803306, 43.726512100189765 ], [ 3.95244443480923, 43.726412682107764 ], [ 3.950914, 43.732442 ] ] ], [ [ [ 3.951118, 43.736662 ], [ 3.950296, 43.736087 ], [ 3.949821, 43.735454 ], [ 3.950004, 43.735925 ], [ 3.951118, 43.736662 ] ] ], [ [ [ 3.952935, 43.744846 ], [ 3.952883894947524, 43.744615816318394 ], [ 3.952119591140455, 43.745693724602361 ], [ 3.952935, 43.744846 ] ] ], [ [ [ 3.950987, 43.747166 ], [ 3.954945868855044, 43.750463000289656 ], [ 3.955547567845668, 43.74966145213088 ], [ 3.954119, 43.748768 ], [ 3.951866176782001, 43.745993919757112 ], [ 3.951452, 43.746422 ], [ 3.950987, 43.747166 ] ] ], [ [ [ 3.98527, 43.720772 ], [ 3.983821, 43.712671 ], [ 3.983509671031135, 43.712602361790466 ], [ 3.983488, 43.712615 ], [ 3.981857, 43.712238 ], [ 3.98154, 43.712192 ], [ 3.974733, 43.713651 ], [ 3.974035, 43.713901 ], [ 3.966925, 43.716252 ], [ 3.964857, 43.716367 ], [ 3.962628, 43.716478 ], [ 3.96122938501702, 43.721552974366809 ], [ 3.962349, 43.725785 ], [ 3.964594, 43.725879 ], [ 3.965871, 43.725736 ], [ 3.96587718306141, 43.725740391027735 ], [ 3.966427, 43.725681 ], [ 3.966834, 43.725673 ], [ 3.967484, 43.72566 ], [ 3.968102452844984, 43.72562092978945 ], [ 3.968387, 43.725588 ], [ 3.969251, 43.725459 ], [ 3.969898, 43.725436 ], [ 3.970639, 43.725397 ], [ 3.971018, 43.72545 ], [ 3.971223, 43.725701 ], [ 3.971459, 43.726061 ], [ 3.974873, 43.729558 ], [ 3.975666, 43.73173 ], [ 3.975646, 43.731808 ], [ 3.975529, 43.732104 ], [ 3.97368, 43.732954 ], [ 3.967583, 43.738776 ], [ 3.967559, 43.745649 ], [ 3.967762132112352, 43.746635519246048 ], [ 3.969634430074358, 43.746295036543849 ], [ 3.968425, 43.739914 ], [ 3.973993, 43.733492 ], [ 3.974477, 43.733266 ], [ 3.975747, 43.73236 ], [ 3.983451, 43.72893 ], [ 3.98501, 43.728961 ], [ 3.987542, 43.727798 ], [ 3.991229, 43.72438 ], [ 3.998927, 43.723708 ], [ 4.000516615441411, 43.725319436712802 ], [ 4.000669456987846, 43.721540372446768 ], [ 4.000255, 43.721264 ], [ 3.992201, 43.721252 ], [ 3.987755, 43.724258 ], [ 3.98677, 43.723635 ], [ 3.984644, 43.722447 ], [ 3.98527, 43.720772 ] ] ] ] } },
{ "type": "Feature", "properties": { "codgeo": "34058", "value": 1020, "isochrone_group": 17.0, "nb_agences": 1 }, "geometry": { "type": "Polygon", "coordinates": [ [ [ 3.977662651263163, 43.731507107498366 ], [ 3.977698, 43.732986 ], [ 3.977754, 43.734785 ], [ 3.977279157515519, 43.736592992106452 ], [ 3.978770266099188, 43.735326128436448 ], [ 3.979011, 43.734409 ], [ 3.980325873683183, 43.733681050907364 ], [ 3.980595, 43.733239 ], [ 3.982701, 43.731676 ], [ 3.983640778213207, 43.73174081229056 ], [ 3.983914, 43.731522 ], [ 3.984504057973532, 43.731687425927433 ], [ 3.987981, 43.731343 ], [ 3.992269, 43.732124 ], [ 3.99731, 43.727172 ], [ 3.997757, 43.726876 ], [ 3.997910352209099, 43.723796748676975 ], [ 3.991229, 43.72438 ], [ 3.987542, 43.727798 ], [ 3.98501, 43.728961 ], [ 3.983451, 43.72893 ], [ 3.977662651263163, 43.731507107498366 ] ] ] } },
{ "type": "Feature", "properties": { "codgeo": "34058", "value": 1140, "isochrone_group": 19.0, "nb_agences": 1 }, "geometry": { "type": "Polygon", "coordinates": [ [ [ 3.847002571681258, 43.757666937965006 ], [ 3.847042537326255, 43.757684423978503 ], [ 3.847042494498918, 43.757684230776455 ], [ 3.847003418731578, 43.757667261547205 ], [ 3.847002571681258, 43.757666937965006 ] ] ] } }
]
}
