{
"type": "FeatureCollection",
"name": "Others",
"crs": { "type": "name", "properties": { "name": "urn:ogc:def:crs:OGC:1.3:CRS84" } },
"features": [
{ "type": "Feature", "properties": { "codgeo": "66172", "value": 60, "isochrone_group": 1.0, "nb_agences": 1 }, "geometry": { "type": "Polygon", "coordinates": [ [ [ 2.839544, 42.707254 ], [ 2.839659, 42.706967 ], [ 2.843185, 42.706675 ], [ 2.847313, 42.707719 ], [ 2.847381, 42.707747 ], [ 2.851007, 42.709481 ], [ 2.850956, 42.709838 ], [ 2.850345, 42.709921 ], [ 2.845212, 42.710628 ], [ 2.844119, 42.710781 ], [ 2.843328, 42.710854 ], [ 2.840879, 42.708713 ], [ 2.839531, 42.707304 ], [ 2.839544, 42.707254 ] ] ] } },
{ "type": "Feature", "properties": { "codgeo": "66172", "value": 120, "isochrone_group": 2.0, "nb_agences": 1 }, "geometry": { "type": "Polygon", "coordinates": [ [ [ 2.836886, 42.706317 ], [ 2.837919, 42.708757 ], [ 2.839236, 42.71024 ], [ 2.84087, 42.711801 ], [ 2.843027, 42.712862 ], [ 2.844186, 42.712691 ], [ 2.844868, 42.712527 ], [ 2.850314, 42.712606 ], [ 2.85358, 42.712729 ], [ 2.857697, 42.710812 ], [ 2.857787, 42.710463 ], [ 2.85434, 42.709217 ], [ 2.852031, 42.708936 ], [ 2.849133, 42.705943 ], [ 2.846099, 42.705106 ], [ 2.842193, 42.705666 ], [ 2.839155, 42.704859 ], [ 2.836814, 42.705964 ], [ 2.836886, 42.706317 ] ], [ [ 2.839659, 42.706967 ], [ 2.843185, 42.706675 ], [ 2.847313, 42.707719 ], [ 2.847381, 42.707747 ], [ 2.851007, 42.709481 ], [ 2.850956, 42.709838 ], [ 2.850345, 42.709921 ], [ 2.845212, 42.710628 ], [ 2.844119, 42.710781 ], [ 2.843328, 42.710854 ], [ 2.840879, 42.708713 ], [ 2.839531, 42.707304 ], [ 2.839544, 42.707254 ], [ 2.839659, 42.706967 ] ] ] } },
{ "type": "Feature", "properties": { "codgeo": "66172", "value": 180, "isochrone_group": 3.0, "nb_agences": 1 }, "geometry": { "type": "Polygon", "coordinates": [ [ [ 2.831147, 42.705026 ], [ 2.831396, 42.705287 ], [ 2.83477, 42.708305 ], [ 2.838371, 42.712916 ], [ 2.842604, 42.714893 ], [ 2.842949, 42.714996 ], [ 2.851237, 42.714862 ], [ 2.853357, 42.71469 ], [ 2.856045, 42.714486 ], [ 2.856775, 42.714432 ], [ 2.859873, 42.71407 ], [ 2.864937, 42.709461 ], [ 2.865033, 42.709114 ], [ 2.864326, 42.708608 ], [ 2.864274, 42.708596 ], [ 2.855926, 42.707317 ], [ 2.850671, 42.704422 ], [ 2.849613, 42.703588 ], [ 2.849269, 42.703483 ], [ 2.842185, 42.701904 ], [ 2.837279, 42.703035 ], [ 2.831704, 42.703886 ], [ 2.831147, 42.705026 ] ], [ [ 2.839155, 42.704859 ], [ 2.842193, 42.705666 ], [ 2.846099, 42.705106 ], [ 2.849133, 42.705943 ], [ 2.852031, 42.708936 ], [ 2.85434, 42.709217 ], [ 2.857787, 42.710463 ], [ 2.857697, 42.710812 ], [ 2.85358, 42.712729 ], [ 2.850314, 42.712606 ], [ 2.844868, 42.712527 ], [ 2.844186, 42.712691 ], [ 2.843027, 42.712862 ], [ 2.84087, 42.711801 ], [ 2.839236, 42.71024 ], [ 2.837919, 42.708757 ], [ 2.836886, 42.706317 ], [ 2.836814, 42.705964 ], [ 2.839155, 42.704859 ] ] ] } },
{ "type": "Feature", "properties": { "codgeo": "66172", "value": 240, "isochrone_group": 4.0, "nb_agences": 1 }, "geometry": { "type": "Polygon", "coordinates": [ [ [ 2.822676, 42.708526 ], [ 2.82429, 42.711744 ], [ 2.824482, 42.711737 ], [ 2.825262, 42.711547 ], [ 2.832744, 42.712406 ], [ 2.835256, 42.714197 ], [ 2.837422, 42.716359 ], [ 2.840448, 42.718159 ], [ 2.840719, 42.718304 ], [ 2.847998, 42.721429 ], [ 2.850129, 42.719824 ], [ 2.856854, 42.717774 ], [ 2.85982, 42.718498 ], [ 2.864547, 42.717275 ], [ 2.871356, 42.711797 ], [ 2.872174, 42.711786 ], [ 2.873131, 42.709998 ], [ 2.873131, 42.709687 ], [ 2.872124, 42.708186 ], [ 2.868039, 42.704397 ], [ 2.862413, 42.704059 ], [ 2.862329, 42.704059 ], [ 2.854613, 42.702553 ], [ 2.853489, 42.701197 ], [ 2.850943, 42.698802 ], [ 2.850845, 42.698692 ], [ 2.849545, 42.698337 ], [ 2.842827, 42.698116 ], [ 2.838668, 42.698647 ], [ 2.837533, 42.699048 ], [ 2.832, 42.700213 ], [ 2.825688, 42.699771 ], [ 2.823486, 42.700585 ], [ 2.823475, 42.700605 ], [ 2.822676, 42.708526 ] ], [ [ 2.837279, 42.703035 ], [ 2.842185, 42.701904 ], [ 2.849269, 42.703483 ], [ 2.849613, 42.703588 ], [ 2.850671, 42.704422 ], [ 2.855926, 42.707317 ], [ 2.864274, 42.708596 ], [ 2.864326, 42.708608 ], [ 2.865033, 42.709114 ], [ 2.864937, 42.709461 ], [ 2.859873, 42.71407 ], [ 2.856775, 42.714432 ], [ 2.856045, 42.714486 ], [ 2.853357, 42.71469 ], [ 2.851237, 42.714862 ], [ 2.842949, 42.714996 ], [ 2.842604, 42.714893 ], [ 2.838371, 42.712916 ], [ 2.83477, 42.708305 ], [ 2.831396, 42.705287 ], [ 2.831147, 42.705026 ], [ 2.831704, 42.703886 ], [ 2.837279, 42.703035 ] ] ] } },
{ "type": "Feature", "properties": { "codgeo": "66172", "value": 300, "isochrone_group": 5.0, "nb_agences": 1 }, "geometry": { "type": "Polygon", "coordinates": [ [ [ 2.814981, 42.713179 ], [ 2.820525, 42.715669 ], [ 2.822092, 42.71554 ], [ 2.829058, 42.712844 ], [ 2.831666, 42.715032 ], [ 2.833878, 42.716794 ], [ 2.839787, 42.72218 ], [ 2.841864, 42.72512 ], [ 2.848413, 42.723622 ], [ 2.856915, 42.724003 ], [ 2.857584, 42.723455 ], [ 2.857973, 42.72295 ], [ 2.858844, 42.72167 ], [ 2.866928, 42.718251 ], [ 2.867533, 42.718398 ], [ 2.87342, 42.722178 ], [ 2.87482, 42.72447 ], [ 2.875191, 42.725036 ], [ 2.878201, 42.723062 ], [ 2.87783, 42.722496 ], [ 2.876492, 42.720302 ], [ 2.876231, 42.719769 ], [ 2.875953, 42.719133 ], [ 2.875725, 42.718538 ], [ 2.878227, 42.710797 ], [ 2.880252, 42.709794 ], [ 2.881252, 42.709448 ], [ 2.88256, 42.708828 ], [ 2.88285, 42.70865 ], [ 2.880969, 42.705581 ], [ 2.879598, 42.706133 ], [ 2.874636, 42.706297 ], [ 2.868262, 42.70051 ], [ 2.867904, 42.699451 ], [ 2.867666, 42.698518 ], [ 2.864165, 42.692126 ], [ 2.860592, 42.692563 ], [ 2.860785, 42.694142 ], [ 2.856519, 42.699041 ], [ 2.85178, 42.696651 ], [ 2.849858, 42.696426 ], [ 2.847308, 42.696559 ], [ 2.841023, 42.696476 ], [ 2.835027, 42.693448 ], [ 2.834604, 42.693169 ], [ 2.834302, 42.693019 ], [ 2.833165, 42.692508 ], [ 2.83148, 42.695545 ], [ 2.825367, 42.697786 ], [ 2.824132, 42.697728 ], [ 2.822297, 42.697934 ], [ 2.821761, 42.698214 ], [ 2.817993, 42.700219 ], [ 2.818546, 42.701936 ], [ 2.815285, 42.709592 ], [ 2.814981, 42.713179 ] ], [ [ 2.823486, 42.700585 ], [ 2.825688, 42.699771 ], [ 2.832, 42.700213 ], [ 2.837533, 42.699048 ], [ 2.838668, 42.698647 ], [ 2.842827, 42.698116 ], [ 2.849545, 42.698337 ], [ 2.850845, 42.698692 ], [ 2.850943, 42.698802 ], [ 2.853489, 42.701197 ], [ 2.854613, 42.702553 ], [ 2.862329, 42.704059 ], [ 2.862413, 42.704059 ], [ 2.868039, 42.704397 ], [ 2.872124, 42.708186 ], [ 2.873131, 42.709687 ], [ 2.873131, 42.709998 ], [ 2.872174, 42.711786 ], [ 2.871356, 42.711797 ], [ 2.864547, 42.717275 ], [ 2.85982, 42.718498 ], [ 2.856854, 42.717774 ], [ 2.850129, 42.719824 ], [ 2.847998, 42.721429 ], [ 2.840719, 42.718304 ], [ 2.840448, 42.718159 ], [ 2.837422, 42.716359 ], [ 2.835256, 42.714197 ], [ 2.832744, 42.712406 ], [ 2.825262, 42.711547 ], [ 2.824482, 42.711737 ], [ 2.82429, 42.711744 ], [ 2.822676, 42.708526 ], [ 2.823475, 42.700605 ], [ 2.823486, 42.700585 ] ] ] } },
{ "type": "Feature", "properties": { "codgeo": "66172", "value": 360, "isochrone_group": 6.0, "nb_agences": 1 }, "geometry": { "type": "MultiPolygon", "coordinates": [ [ [ [ 2.860501, 42.686171 ], [ 2.860402, 42.688608 ], [ 2.860442, 42.690603 ], [ 2.852824, 42.694126 ], [ 2.851507, 42.693046 ], [ 2.851481, 42.693028 ], [ 2.848999, 42.695604 ], [ 2.841023, 42.696476 ], [ 2.847308, 42.696559 ], [ 2.849858, 42.696426 ], [ 2.85178, 42.696651 ], [ 2.856519, 42.699041 ], [ 2.860785, 42.694142 ], [ 2.860592, 42.692563 ], [ 2.864165, 42.692126 ], [ 2.867666, 42.698518 ], [ 2.867904, 42.699451 ], [ 2.868037300693357, 42.69984531685548 ], [ 2.868507, 42.696537 ], [ 2.869242, 42.696643 ], [ 2.869314, 42.696651 ], [ 2.871682, 42.696944 ], [ 2.872868180286564, 42.697090789810467 ], [ 2.872849, 42.697002 ], [ 2.869591, 42.69582 ], [ 2.868003, 42.695165 ], [ 2.864, 42.688723 ], [ 2.864036889992026, 42.687820906586744 ], [ 2.860998, 42.687728 ], [ 2.860652, 42.685909 ], [ 2.860705, 42.685625 ], [ 2.860852, 42.685092 ], [ 2.860925140077448, 42.683864070812426 ], [ 2.860810235800092, 42.683767804041267 ], [ 2.86065, 42.684568 ], [ 2.860554, 42.685202 ], [ 2.860501, 42.686171 ] ] ], [ [ [ 2.834991, 42.691641 ], [ 2.832011, 42.689623 ], [ 2.828054, 42.68988 ], [ 2.821767, 42.695339 ], [ 2.82028, 42.696204 ], [ 2.817369, 42.699248 ], [ 2.810335, 42.702457 ], [ 2.806289, 42.70882 ], [ 2.803697, 42.709032 ], [ 2.802972, 42.70906 ], [ 2.803113, 42.712657 ], [ 2.80862, 42.713632 ], [ 2.813488, 42.713042 ], [ 2.818757, 42.717953 ], [ 2.819131, 42.719839 ], [ 2.820726, 42.719975 ], [ 2.825044, 42.718208 ], [ 2.832445, 42.717788 ], [ 2.832969, 42.725627 ], [ 2.832207, 42.727046 ], [ 2.832038, 42.727713 ], [ 2.833442, 42.729196 ], [ 2.83418, 42.729098 ], [ 2.836619, 42.7284 ], [ 2.837508, 42.728001 ], [ 2.838524, 42.727463 ], [ 2.841027, 42.725712 ], [ 2.848836, 42.727858 ], [ 2.850228, 42.728588 ], [ 2.850589, 42.728675 ], [ 2.851187, 42.728776 ], [ 2.85356, 42.728454 ], [ 2.856246, 42.725404 ], [ 2.860874, 42.723111 ], [ 2.861665, 42.722291 ], [ 2.867820078773374, 42.718582331198135 ], [ 2.867533, 42.718398 ], [ 2.866928, 42.718251 ], [ 2.858844, 42.72167 ], [ 2.857973, 42.72295 ], [ 2.857584, 42.723455 ], [ 2.856915, 42.724003 ], [ 2.848413, 42.723622 ], [ 2.841864, 42.72512 ], [ 2.839787, 42.72218 ], [ 2.833878, 42.716794 ], [ 2.831666, 42.715032 ], [ 2.829058, 42.712844 ], [ 2.822092, 42.71554 ], [ 2.820525, 42.715669 ], [ 2.814981, 42.713179 ], [ 2.815285, 42.709592 ], [ 2.818546, 42.701936 ], [ 2.817993, 42.700219 ], [ 2.821761, 42.698214 ], [ 2.822297, 42.697934 ], [ 2.824132, 42.697728 ], [ 2.825367, 42.697786 ], [ 2.83148, 42.695545 ], [ 2.833165, 42.692508 ], [ 2.834302, 42.693019 ], [ 2.834604, 42.693169 ], [ 2.835027, 42.693448 ], [ 2.841023, 42.696476 ], [ 2.834991, 42.691641 ] ] ], [ [ [ 2.875264, 42.725143 ], [ 2.876091, 42.726271 ], [ 2.878226, 42.728914 ], [ 2.878985, 42.729941 ], [ 2.879671, 42.730917 ], [ 2.881355, 42.733599 ], [ 2.881408, 42.733683 ], [ 2.882256, 42.735128 ], [ 2.883177, 42.736591 ], [ 2.884359, 42.738383 ], [ 2.887364, 42.736401 ], [ 2.886182, 42.734608 ], [ 2.885327, 42.733102 ], [ 2.883275, 42.725297 ], [ 2.882898, 42.724546 ], [ 2.882264, 42.722978 ], [ 2.882151, 42.722956 ], [ 2.876231, 42.719769 ], [ 2.876492, 42.720302 ], [ 2.87783, 42.722496 ], [ 2.878201, 42.723062 ], [ 2.875192681218917, 42.725034897433169 ], [ 2.875264, 42.725143 ] ] ], [ [ [ 2.878152, 42.71323 ], [ 2.882423873994517, 42.71079482545241 ], [ 2.880172, 42.709966 ], [ 2.87935382028533, 42.710238876174699 ], [ 2.878227, 42.710797 ], [ 2.875725, 42.718538 ], [ 2.875953, 42.719133 ], [ 2.876231, 42.719769 ], [ 2.878152, 42.71323 ] ] ], [ [ [ 2.871239, 42.700517 ], [ 2.868879, 42.700224 ], [ 2.868808, 42.700216 ], [ 2.868472, 42.700183 ], [ 2.868131410872264, 42.700123704228282 ], [ 2.868262, 42.70051 ], [ 2.872192703338132, 42.704078713557848 ], [ 2.871239, 42.700517 ] ] ] ] } },
{ "type": "Feature", "properties": { "codgeo": "66172", "value": 420, "isochrone_group": 7.0, "nb_agences": 1 }, "geometry": { "type": "MultiPolygon", "coordinates": [ [ [ [ 2.836827, 42.687931 ], [ 2.82909, 42.686613 ], [ 2.826732, 42.686623 ], [ 2.824646, 42.689227 ], [ 2.818229, 42.692599 ], [ 2.813626, 42.693541 ], [ 2.812814, 42.697048 ], [ 2.806156, 42.702545 ], [ 2.805358, 42.702407 ], [ 2.803067, 42.702018 ], [ 2.800869, 42.705243 ], [ 2.79456, 42.706214 ], [ 2.793657, 42.706008 ], [ 2.793073, 42.705907 ], [ 2.792541, 42.707165 ], [ 2.792434, 42.708662 ], [ 2.792461, 42.709455 ], [ 2.794774, 42.713342 ], [ 2.802122, 42.717042 ], [ 2.805204, 42.718903 ], [ 2.80613, 42.71737 ], [ 2.807207, 42.715638 ], [ 2.815583, 42.716956 ], [ 2.81591, 42.718271 ], [ 2.815942, 42.718396 ], [ 2.81646, 42.719159 ], [ 2.817334, 42.719619 ], [ 2.818828, 42.719827 ], [ 2.822307, 42.721143 ], [ 2.823823, 42.7296 ], [ 2.82469, 42.733094 ], [ 2.825357, 42.732929 ], [ 2.833856, 42.734022 ], [ 2.836006, 42.733329 ], [ 2.836329, 42.733047 ], [ 2.836796, 42.732381 ], [ 2.836878, 42.731065 ], [ 2.838524, 42.727463 ], [ 2.837508, 42.728001 ], [ 2.836619, 42.7284 ], [ 2.83418, 42.729098 ], [ 2.833442, 42.729196 ], [ 2.832038, 42.727713 ], [ 2.832207, 42.727046 ], [ 2.832969, 42.725627 ], [ 2.832445, 42.717788 ], [ 2.825044, 42.718208 ], [ 2.820726, 42.719975 ], [ 2.819131, 42.719839 ], [ 2.818757, 42.717953 ], [ 2.813488, 42.713042 ], [ 2.80862, 42.713632 ], [ 2.803113, 42.712657 ], [ 2.802972, 42.70906 ], [ 2.803697, 42.709032 ], [ 2.806289, 42.70882 ], [ 2.810335, 42.702457 ], [ 2.817369, 42.699248 ], [ 2.82028, 42.696204 ], [ 2.821767, 42.695339 ], [ 2.828054, 42.68988 ], [ 2.832011, 42.689623 ], [ 2.834991, 42.691641 ], [ 2.841023, 42.696476 ], [ 2.848999, 42.695604 ], [ 2.851481, 42.693028 ], [ 2.851507, 42.693046 ], [ 2.852416249854489, 42.69379162630436 ], [ 2.853119149489865, 42.693989505952651 ], [ 2.8568328072224, 42.692272097683833 ], [ 2.853916, 42.690908 ], [ 2.851904, 42.692534 ], [ 2.851801, 42.692501 ], [ 2.850886, 42.691873 ], [ 2.850486, 42.691214 ], [ 2.850366, 42.690403 ], [ 2.850499, 42.689775 ], [ 2.850319209480741, 42.687394446239701 ], [ 2.84543, 42.69046 ], [ 2.837096, 42.688078 ], [ 2.836827, 42.687931 ] ] ], [ [ [ 2.843848256484949, 42.726487312641382 ], [ 2.841027, 42.725712 ], [ 2.838524, 42.727463 ], [ 2.843848256484949, 42.726487312641382 ] ] ], [ [ [ 2.84941, 42.729582 ], [ 2.849768, 42.730377 ], [ 2.850021, 42.730812 ], [ 2.851246, 42.733368 ], [ 2.851465, 42.73383 ], [ 2.851658, 42.734131 ], [ 2.852413, 42.73518 ], [ 2.853006, 42.735974 ], [ 2.85589, 42.733819 ], [ 2.862097, 42.729323 ], [ 2.864832, 42.729593 ], [ 2.865185, 42.72601 ], [ 2.868358542174528, 42.718660795595213 ], [ 2.868048, 42.718445 ], [ 2.861665, 42.722291 ], [ 2.860874, 42.723111 ], [ 2.856246, 42.725404 ], [ 2.85356, 42.728454 ], [ 2.851187, 42.728776 ], [ 2.850589, 42.728675 ], [ 2.850228, 42.728588 ], [ 2.848836, 42.727858 ], [ 2.847121376103972, 42.727386802294667 ], [ 2.84941, 42.729582 ] ] ], [ [ [ 2.874916, 42.728691 ], [ 2.874328, 42.730168 ], [ 2.874337, 42.730243 ], [ 2.878493, 42.734872 ], [ 2.884485, 42.738569 ], [ 2.886417, 42.741191 ], [ 2.888367, 42.743739 ], [ 2.893159, 42.750785 ], [ 2.896618, 42.749787 ], [ 2.896063, 42.747693 ], [ 2.896058, 42.747678 ], [ 2.895451, 42.745807 ], [ 2.894278, 42.742405 ], [ 2.892095, 42.734509 ], [ 2.891392, 42.732342 ], [ 2.891182, 42.731688 ], [ 2.891073, 42.731575 ], [ 2.890551, 42.731257 ], [ 2.889325, 42.730473 ], [ 2.886452, 42.723108 ], [ 2.886236, 42.720481 ], [ 2.88617340271262, 42.718123663291379 ], [ 2.885646, 42.717255 ], [ 2.883507, 42.71395 ], [ 2.877236988886804, 42.716344657818432 ], [ 2.876231, 42.719769 ], [ 2.882151, 42.722956 ], [ 2.882264, 42.722978 ], [ 2.882898, 42.724546 ], [ 2.883275, 42.725297 ], [ 2.885327, 42.733102 ], [ 2.886182, 42.734608 ], [ 2.887364, 42.736401 ], [ 2.884359, 42.738383 ], [ 2.883177, 42.736591 ], [ 2.882256, 42.735128 ], [ 2.881408, 42.733683 ], [ 2.881355, 42.733599 ], [ 2.879671, 42.730917 ], [ 2.878985, 42.729941 ], [ 2.878226, 42.728914 ], [ 2.876091, 42.726271 ], [ 2.875264, 42.725143 ], [ 2.87482, 42.72447 ], [ 2.874916, 42.728691 ] ] ] ] } },
{ "type": "Feature", "properties": { "codgeo": "66172", "value": 480, "isochrone_group": 8.0, "nb_agences": 1 }, "geometry": { "type": "MultiPolygon", "coordinates": [ [ [ [ 2.838348, 42.687147 ], [ 2.837525, 42.686536 ], [ 2.836181, 42.685935 ], [ 2.833202, 42.683913 ], [ 2.824417, 42.684957 ], [ 2.821755, 42.684734 ], [ 2.818502, 42.68484 ], [ 2.811983, 42.685793 ], [ 2.811408, 42.685871 ], [ 2.805685, 42.691741 ], [ 2.804736, 42.692129 ], [ 2.804752, 42.694703 ], [ 2.799628, 42.701182 ], [ 2.797463, 42.70192 ], [ 2.789039, 42.70443 ], [ 2.788558, 42.704301 ], [ 2.783631, 42.701912 ], [ 2.783581, 42.701878 ], [ 2.782528, 42.702782 ], [ 2.781571, 42.704349 ], [ 2.781527, 42.704826 ], [ 2.782538, 42.706382 ], [ 2.784505, 42.706921 ], [ 2.785123, 42.707169 ], [ 2.789903, 42.714201 ], [ 2.79294, 42.716133 ], [ 2.79739, 42.717314 ], [ 2.801238, 42.723955 ], [ 2.804831, 42.723729 ], [ 2.813416, 42.721681 ], [ 2.813849, 42.721693 ], [ 2.818828, 42.719827 ], [ 2.817334, 42.719619 ], [ 2.81646, 42.719159 ], [ 2.815942, 42.718396 ], [ 2.81591, 42.718271 ], [ 2.815583, 42.716956 ], [ 2.807207, 42.715638 ], [ 2.80613, 42.71737 ], [ 2.805204, 42.718903 ], [ 2.802122, 42.717042 ], [ 2.794774, 42.713342 ], [ 2.792461, 42.709455 ], [ 2.792434, 42.708662 ], [ 2.792541, 42.707165 ], [ 2.793073, 42.705907 ], [ 2.793657, 42.706008 ], [ 2.79456, 42.706214 ], [ 2.800869, 42.705243 ], [ 2.803067, 42.702018 ], [ 2.805358, 42.702407 ], [ 2.806156, 42.702545 ], [ 2.812814, 42.697048 ], [ 2.813626, 42.693541 ], [ 2.818229, 42.692599 ], [ 2.824646, 42.689227 ], [ 2.826732, 42.686623 ], [ 2.82909, 42.686613 ], [ 2.836827, 42.687931 ], [ 2.837096, 42.688078 ], [ 2.839153288749761, 42.68866600837557 ], [ 2.838348, 42.687147 ] ] ], [ [ [ 2.822902913925904, 42.724467303477169 ], [ 2.822307, 42.721143 ], [ 2.818828, 42.719827 ], [ 2.822902913925904, 42.724467303477169 ] ] ], [ [ [ 2.821569, 42.730552 ], [ 2.821114, 42.730845 ], [ 2.819619, 42.731917 ], [ 2.81929, 42.732262 ], [ 2.818939, 42.732712 ], [ 2.818686, 42.733166 ], [ 2.81839, 42.733879 ], [ 2.81724, 42.735805 ], [ 2.819187, 42.737455 ], [ 2.820069, 42.738031 ], [ 2.821416, 42.738022 ], [ 2.825721536456459, 42.732975880615015 ], [ 2.825357, 42.732929 ], [ 2.82469, 42.733094 ], [ 2.823823, 42.7296 ], [ 2.823409618147029, 42.727293950969269 ], [ 2.821569, 42.730552 ] ] ], [ [ [ 2.846336, 42.727878 ], [ 2.851246, 42.733368 ], [ 2.850021, 42.730812 ], [ 2.849768, 42.730377 ], [ 2.84941, 42.729582 ], [ 2.845809, 42.726128 ], [ 2.838524, 42.727463 ], [ 2.838283085931833, 42.727990200773718 ], [ 2.846336, 42.727878 ] ] ], [ [ [ 2.853441, 42.737785 ], [ 2.854461, 42.741237 ], [ 2.855847, 42.742048 ], [ 2.859226, 42.740807 ], [ 2.858915, 42.739878 ], [ 2.858261, 42.737993 ], [ 2.858264, 42.733451 ], [ 2.858532, 42.732725 ], [ 2.858684066527227, 42.731795136119494 ], [ 2.85589, 42.733819 ], [ 2.853006, 42.735974 ], [ 2.852413, 42.73518 ], [ 2.851658, 42.734131 ], [ 2.853441, 42.737785 ] ] ], [ [ [ 2.873137, 42.725228 ], [ 2.872395, 42.728325 ], [ 2.871202, 42.731313 ], [ 2.872004, 42.73321 ], [ 2.872166, 42.733345 ], [ 2.873273, 42.734258 ], [ 2.876689, 42.741225 ], [ 2.875711, 42.743136 ], [ 2.874083, 42.746314 ], [ 2.877287, 42.747956 ], [ 2.878915, 42.744778 ], [ 2.879892, 42.742869 ], [ 2.888367, 42.743739 ], [ 2.886417, 42.741191 ], [ 2.884485, 42.738569 ], [ 2.878493, 42.734872 ], [ 2.874337, 42.730243 ], [ 2.874328, 42.730168 ], [ 2.874916, 42.728691 ], [ 2.87482, 42.72447 ], [ 2.87342, 42.722178 ], [ 2.873014, 42.721385 ], [ 2.86845, 42.718449 ], [ 2.868304243091035, 42.718786539965912 ], [ 2.873137, 42.725228 ] ] ], [ [ [ 2.896499, 42.749856 ], [ 2.897267, 42.752576 ], [ 2.89761, 42.754131 ], [ 2.898114, 42.755727 ], [ 2.898135, 42.755799 ], [ 2.898702, 42.757806 ], [ 2.89936, 42.760014 ], [ 2.900024, 42.762247 ], [ 2.900231465694211, 42.76260017939336 ], [ 2.899807, 42.761165 ], [ 2.89881, 42.757795 ], [ 2.898246, 42.755594 ], [ 2.897673, 42.753278 ], [ 2.896582087478528, 42.749651503027081 ], [ 2.896618, 42.749787 ], [ 2.896489922170884, 42.749823953360348 ], [ 2.896499, 42.749856 ] ] ], [ [ [ 2.895632, 42.741562 ], [ 2.895598, 42.741474 ], [ 2.896167, 42.733396 ], [ 2.897919, 42.731575 ], [ 2.898519, 42.731105 ], [ 2.899059, 42.730252 ], [ 2.898653, 42.728297 ], [ 2.898388, 42.728044 ], [ 2.898294, 42.72797 ], [ 2.891545, 42.722563 ], [ 2.891133523749656, 42.720735223704416 ], [ 2.88922, 42.723501 ], [ 2.889116, 42.723588 ], [ 2.887223418220298, 42.725085547926362 ], [ 2.889325, 42.730473 ], [ 2.890551, 42.731257 ], [ 2.891073, 42.731575 ], [ 2.891182, 42.731688 ], [ 2.891392, 42.732342 ], [ 2.892095, 42.734509 ], [ 2.894278, 42.742405 ], [ 2.895451, 42.745807 ], [ 2.896058, 42.747678 ], [ 2.896063, 42.747693 ], [ 2.896487578593809, 42.749294923559361 ], [ 2.895632, 42.741562 ] ] ], [ [ [ 2.847733156180519, 42.688623374274762 ], [ 2.848166, 42.685302 ], [ 2.848091464487773, 42.68497854243747 ], [ 2.847578, 42.686916 ], [ 2.847574, 42.686927 ], [ 2.840735612990723, 42.689118263756178 ], [ 2.844312501994062, 42.690140599921975 ], [ 2.847733156180519, 42.688623374274762 ] ] ] ] } },
{ "type": "Feature", "properties": { "codgeo": "66172", "value": 540, "isochrone_group": 9.0, "nb_agences": 1 }, "geometry": { "type": "MultiPolygon", "coordinates": [ [ [ [ 2.820679, 42.681975 ], [ 2.818043, 42.682546 ], [ 2.817862, 42.68258 ], [ 2.809519, 42.682892 ], [ 2.808427, 42.682655 ], [ 2.80006, 42.684232 ], [ 2.799244, 42.684125 ], [ 2.798343, 42.683958 ], [ 2.797773, 42.683825 ], [ 2.795852, 42.683309 ], [ 2.793839, 42.682771 ], [ 2.793152, 42.682627 ], [ 2.792199, 42.682477 ], [ 2.791639, 42.686033 ], [ 2.792592, 42.686183 ], [ 2.79309, 42.686292 ], [ 2.794918, 42.686786 ], [ 2.798584, 42.694698 ], [ 2.798442, 42.695112 ], [ 2.794982, 42.699175 ], [ 2.788313988231818, 42.704182683760067 ], [ 2.788558, 42.704301 ], [ 2.789039, 42.70443 ], [ 2.797463, 42.70192 ], [ 2.799628, 42.701182 ], [ 2.804752, 42.694703 ], [ 2.804736, 42.692129 ], [ 2.805685, 42.691741 ], [ 2.811408, 42.685871 ], [ 2.811983, 42.685793 ], [ 2.818502, 42.68484 ], [ 2.821755, 42.684734 ], [ 2.823585287070014, 42.684887326076854 ], [ 2.823039958134578, 42.682266770362176 ], [ 2.820679, 42.681975 ] ] ], [ [ [ 2.781594, 42.700438 ], [ 2.778955, 42.698495 ], [ 2.778876, 42.698437 ], [ 2.778185, 42.698202 ], [ 2.778128, 42.6982 ], [ 2.777219, 42.698401 ], [ 2.77687, 42.698487 ], [ 2.776194, 42.699536 ], [ 2.776114, 42.699766 ], [ 2.775988, 42.70023 ], [ 2.775706, 42.703209 ], [ 2.776112, 42.706786 ], [ 2.777265, 42.706655 ], [ 2.778343, 42.706601 ], [ 2.779404, 42.706649 ], [ 2.780303, 42.706647 ], [ 2.780903, 42.706603 ], [ 2.781275, 42.706555 ], [ 2.784505, 42.706921 ], [ 2.782538, 42.706382 ], [ 2.781527, 42.704826 ], [ 2.781571, 42.704349 ], [ 2.782528, 42.702782 ], [ 2.783581, 42.701878 ], [ 2.783631, 42.701912 ], [ 2.783633421364445, 42.701913174069347 ], [ 2.783527, 42.70184 ], [ 2.781594, 42.700438 ] ] ], [ [ [ 2.787687, 42.716504 ], [ 2.787739, 42.716983 ], [ 2.789453, 42.720169 ], [ 2.790726, 42.723028 ], [ 2.798047, 42.725998 ], [ 2.801381, 42.728672 ], [ 2.806895, 42.732668 ], [ 2.808639, 42.733339 ], [ 2.808694, 42.733328 ], [ 2.816291, 42.737768 ], [ 2.81423, 42.740762 ], [ 2.813108, 42.741842 ], [ 2.813036, 42.742036 ], [ 2.815274, 42.744207 ], [ 2.816191, 42.743946 ], [ 2.816702, 42.743677 ], [ 2.817614, 42.742961 ], [ 2.817971, 42.742627 ], [ 2.818273, 42.742259 ], [ 2.824821, 42.738127 ], [ 2.826498, 42.737994 ], [ 2.827231, 42.737545 ], [ 2.827722, 42.736764 ], [ 2.827821, 42.736139 ], [ 2.833269716950355, 42.729477541196758 ], [ 2.828563, 42.73144 ], [ 2.828049, 42.731711 ], [ 2.82591, 42.732755 ], [ 2.821416, 42.738022 ], [ 2.820069, 42.738031 ], [ 2.819187, 42.737455 ], [ 2.81724, 42.735805 ], [ 2.81839, 42.733879 ], [ 2.818686, 42.733166 ], [ 2.818939, 42.732712 ], [ 2.81929, 42.732262 ], [ 2.819619, 42.731917 ], [ 2.821114, 42.730845 ], [ 2.821569, 42.730552 ], [ 2.824183, 42.725925 ], [ 2.818828, 42.719827 ], [ 2.813849, 42.721693 ], [ 2.813416, 42.721681 ], [ 2.804831, 42.723729 ], [ 2.801238, 42.723955 ], [ 2.79739, 42.717314 ], [ 2.79294, 42.716133 ], [ 2.789903, 42.714201 ], [ 2.785123, 42.707169 ], [ 2.787938, 42.715374 ], [ 2.787687, 42.716504 ] ] ], [ [ [ 2.846336, 42.727878 ], [ 2.845751723603611, 42.727886140688348 ], [ 2.846375965408193, 42.727922686372892 ], [ 2.846336, 42.727878 ] ] ], [ [ [ 2.84898, 42.740438 ], [ 2.848519, 42.741137 ], [ 2.848432, 42.741347 ], [ 2.85176, 42.74272 ], [ 2.858774, 42.747913 ], [ 2.859447, 42.749408 ], [ 2.864328, 42.754064 ], [ 2.865913, 42.757297 ], [ 2.866433, 42.757075 ], [ 2.867047, 42.756739 ], [ 2.870135, 42.755218 ], [ 2.872318, 42.754093 ], [ 2.872677, 42.753885 ], [ 2.873015, 42.753675 ], [ 2.873491, 42.753348 ], [ 2.873904, 42.75303 ], [ 2.874575, 42.752412 ], [ 2.874963, 42.75199 ], [ 2.87534, 42.751507 ], [ 2.875605, 42.75112 ], [ 2.875858, 42.750693 ], [ 2.877036, 42.748445 ], [ 2.877286693105344, 42.747955842721275 ], [ 2.874083, 42.746314 ], [ 2.875711, 42.743136 ], [ 2.876689, 42.741225 ], [ 2.873273, 42.734258 ], [ 2.872166, 42.733345 ], [ 2.872004, 42.73321 ], [ 2.871202, 42.731313 ], [ 2.872395, 42.728325 ], [ 2.873137, 42.725228 ], [ 2.868048, 42.718445 ], [ 2.861665, 42.722291 ], [ 2.860874, 42.723111 ], [ 2.859394, 42.727454 ], [ 2.858532, 42.732725 ], [ 2.858264, 42.733451 ], [ 2.858261, 42.737993 ], [ 2.858915, 42.739878 ], [ 2.859226, 42.740807 ], [ 2.855847, 42.742048 ], [ 2.854461, 42.741237 ], [ 2.853441, 42.737785 ], [ 2.851658, 42.734131 ], [ 2.851465, 42.73383 ], [ 2.851246, 42.733368 ], [ 2.84931, 42.740066 ], [ 2.84898, 42.740438 ] ] ], [ [ [ 2.903351, 42.753618 ], [ 2.899432233813997, 42.75989823766615 ], [ 2.899807, 42.761165 ], [ 2.900227147620906, 42.762585579368171 ], [ 2.90069, 42.763357 ], [ 2.901187, 42.764481 ], [ 2.902130187097645, 42.765751904648518 ], [ 2.899832, 42.761248 ], [ 2.903419, 42.753586 ], [ 2.901885, 42.750329 ], [ 2.899258, 42.743118 ], [ 2.899578, 42.740817 ], [ 2.903801, 42.734922 ], [ 2.903267, 42.733201 ], [ 2.903608, 42.725695 ], [ 2.900483, 42.723906 ], [ 2.896533339049606, 42.722731664520779 ], [ 2.893625182613235, 42.724229550213323 ], [ 2.898294, 42.72797 ], [ 2.898388, 42.728044 ], [ 2.898653, 42.728297 ], [ 2.899059, 42.730252 ], [ 2.898519, 42.731105 ], [ 2.897919, 42.731575 ], [ 2.896167, 42.733396 ], [ 2.895598, 42.741474 ], [ 2.895632, 42.741562 ], [ 2.896021951980548, 42.745086479082588 ], [ 2.901816, 42.750361 ], [ 2.903351, 42.753618 ] ] ] ] } },
{ "type": "Feature", "properties": { "codgeo": "66172", "value": 600, "isochrone_group": 10.0, "nb_agences": 1 }, "geometry": { "type": "MultiPolygon", "coordinates": [ [ [ [ 2.790934, 42.682331 ], [ 2.790187, 42.682273 ], [ 2.782564, 42.680981 ], [ 2.780432, 42.680215 ], [ 2.779963, 42.68006 ], [ 2.779433, 42.679919 ], [ 2.778528, 42.679756 ], [ 2.777987, 42.67971 ], [ 2.777534, 42.679698 ], [ 2.776935, 42.679717 ], [ 2.77571, 42.679888 ], [ 2.77532, 42.67998 ], [ 2.774829, 42.680128 ], [ 2.772207, 42.68103 ], [ 2.773281, 42.684466 ], [ 2.774299, 42.684148 ], [ 2.776056, 42.683512 ], [ 2.779278, 42.683626 ], [ 2.781346, 42.684369 ], [ 2.784672, 42.685519 ], [ 2.785136, 42.685659 ], [ 2.785807, 42.685813 ], [ 2.791394, 42.692716 ], [ 2.7928, 42.698225 ], [ 2.786174064397998, 42.703660090118497 ], [ 2.786363, 42.70379 ], [ 2.788239, 42.704239 ], [ 2.794982, 42.699175 ], [ 2.798442, 42.695112 ], [ 2.798584, 42.694698 ], [ 2.794918, 42.686786 ], [ 2.792520562804684, 42.686171755950376 ], [ 2.791639, 42.686033 ], [ 2.792199, 42.682477 ], [ 2.793152, 42.682627 ], [ 2.793250643401512, 42.682647676346164 ], [ 2.793251, 42.682646 ], [ 2.793839, 42.682771 ], [ 2.795852, 42.683309 ], [ 2.797773, 42.683825 ], [ 2.800224850242971, 42.684200929265799 ], [ 2.808427, 42.682655 ], [ 2.808989995059594, 42.682777188488238 ], [ 2.808991, 42.682777 ], [ 2.809666971254317, 42.682886466375258 ], [ 2.81749424142724, 42.682593752927566 ], [ 2.817636, 42.682531 ], [ 2.816457354009894, 42.679721924085399 ], [ 2.811887, 42.680702 ], [ 2.806611, 42.680904 ], [ 2.799885, 42.680828 ], [ 2.79212, 42.682466 ], [ 2.790934, 42.682331 ] ] ], [ [ [ 2.777576, 42.697139 ], [ 2.776921, 42.696026 ], [ 2.776652, 42.695721 ], [ 2.774045, 42.694982 ], [ 2.773743, 42.694834 ], [ 2.772824, 42.695179 ], [ 2.772167, 42.698072 ], [ 2.771482, 42.706531 ], [ 2.773826, 42.709264 ], [ 2.77709, 42.708346 ], [ 2.780903, 42.706603 ], [ 2.780303, 42.706647 ], [ 2.779404, 42.706649 ], [ 2.778343, 42.706601 ], [ 2.777265, 42.706655 ], [ 2.776112, 42.706786 ], [ 2.775706, 42.703209 ], [ 2.775988, 42.70023 ], [ 2.776114, 42.699766 ], [ 2.776194, 42.699536 ], [ 2.77687, 42.698487 ], [ 2.777219, 42.698401 ], [ 2.778128, 42.6982 ], [ 2.778185, 42.698202 ], [ 2.778868339153483, 42.698434394647009 ], [ 2.77814, 42.697899 ], [ 2.777576, 42.697139 ] ] ], [ [ [ 2.784814, 42.719173 ], [ 2.784748, 42.719283 ], [ 2.781618, 42.723572 ], [ 2.78104, 42.723946 ], [ 2.782994, 42.72697 ], [ 2.790687, 42.726413 ], [ 2.797989, 42.731663 ], [ 2.798382, 42.732278 ], [ 2.8, 42.732538 ], [ 2.803714, 42.732584 ], [ 2.808201, 42.734774 ], [ 2.807029, 42.743634 ], [ 2.806677, 42.746131 ], [ 2.806928, 42.746385 ], [ 2.807079, 42.746487 ], [ 2.808228, 42.747029 ], [ 2.813788, 42.748041 ], [ 2.814056, 42.74792 ], [ 2.817354, 42.745521 ], [ 2.817652, 42.74534 ], [ 2.817878, 42.74518 ], [ 2.818475640645475, 42.742131127191961 ], [ 2.818273, 42.742259 ], [ 2.817971, 42.742627 ], [ 2.817614, 42.742961 ], [ 2.816702, 42.743677 ], [ 2.816191, 42.743946 ], [ 2.815274, 42.744207 ], [ 2.813036, 42.742036 ], [ 2.813108, 42.741842 ], [ 2.81423, 42.740762 ], [ 2.816291, 42.737768 ], [ 2.808694, 42.733328 ], [ 2.808639, 42.733339 ], [ 2.806895, 42.732668 ], [ 2.801381, 42.728672 ], [ 2.798047, 42.725998 ], [ 2.790726, 42.723028 ], [ 2.789453, 42.720169 ], [ 2.787739, 42.716983 ], [ 2.787687, 42.716504 ], [ 2.787938, 42.715374 ], [ 2.786653, 42.71633 ], [ 2.784814, 42.719173 ] ] ], [ [ [ 2.829303, 42.73993 ], [ 2.829543, 42.7396 ], [ 2.830441, 42.738081 ], [ 2.830564, 42.737835 ], [ 2.830681, 42.736648 ], [ 2.83418, 42.729098 ], [ 2.833509, 42.729185 ], [ 2.827821, 42.736139 ], [ 2.827722, 42.736764 ], [ 2.827231, 42.737545 ], [ 2.826498, 42.737994 ], [ 2.824821, 42.738127 ], [ 2.828961, 42.740337 ], [ 2.829303, 42.73993 ] ] ], [ [ [ 2.846894, 42.74223 ], [ 2.846625, 42.742546 ], [ 2.846529, 42.742689 ], [ 2.845865, 42.74358 ], [ 2.845613, 42.744326 ], [ 2.845607, 42.744834 ], [ 2.845863, 42.746149 ], [ 2.845889, 42.746211 ], [ 2.846652, 42.747022 ], [ 2.846817, 42.747092 ], [ 2.847889, 42.746825 ], [ 2.855085, 42.751521 ], [ 2.855097, 42.754285 ], [ 2.850932, 42.759334 ], [ 2.848853, 42.760429 ], [ 2.850531, 42.763614 ], [ 2.85261, 42.762519 ], [ 2.854689, 42.761424 ], [ 2.855259, 42.761046 ], [ 2.857545, 42.758922 ], [ 2.864681, 42.760274 ], [ 2.8681, 42.759147 ], [ 2.872677, 42.753885 ], [ 2.872318, 42.754093 ], [ 2.870135, 42.755218 ], [ 2.867047, 42.756739 ], [ 2.866433, 42.757075 ], [ 2.865913, 42.757297 ], [ 2.864328, 42.754064 ], [ 2.859447, 42.749408 ], [ 2.858774, 42.747913 ], [ 2.85176, 42.74272 ], [ 2.848432, 42.741347 ], [ 2.848519, 42.741137 ], [ 2.84898, 42.740438 ], [ 2.847426, 42.741833 ], [ 2.846894, 42.74223 ] ] ], [ [ [ 2.879892, 42.742869 ], [ 2.878915, 42.744778 ], [ 2.882619748306214, 42.743149016640274 ], [ 2.879892, 42.742869 ] ] ], [ [ [ 2.910705, 42.74743 ], [ 2.908184, 42.747827 ], [ 2.906805, 42.739042 ], [ 2.909127, 42.735355 ], [ 2.911073, 42.730424 ], [ 2.911597, 42.726862 ], [ 2.905752, 42.723864 ], [ 2.9056779761174, 42.723425864768366 ], [ 2.903594018112695, 42.726002765531128 ], [ 2.903267, 42.733201 ], [ 2.903801, 42.734922 ], [ 2.899578, 42.740817 ], [ 2.899258, 42.743118 ], [ 2.899896732055675, 42.744871291531581 ], [ 2.902932, 42.748394 ], [ 2.908208, 42.74783 ], [ 2.910671, 42.747445 ], [ 2.912178, 42.750715 ], [ 2.91177, 42.750903 ], [ 2.911199, 42.75113 ], [ 2.91038, 42.751414 ], [ 2.907161, 42.754912 ], [ 2.905437379941204, 42.75830564047218 ], [ 2.906385, 42.757035 ], [ 2.907014, 42.756407 ], [ 2.912212, 42.750699 ], [ 2.910705, 42.74743 ] ] ] ] } },
{ "type": "Feature", "properties": { "codgeo": "66172", "value": 660, "isochrone_group": 11.0, "nb_agences": 1 }, "geometry": { "type": "MultiPolygon", "coordinates": [ [ [ [ 2.792201, 42.679744 ], [ 2.786913488036621, 42.681718182020639 ], [ 2.790187, 42.682273 ], [ 2.790934, 42.682331 ], [ 2.79212, 42.682466 ], [ 2.799885, 42.680828 ], [ 2.806611, 42.680904 ], [ 2.809088817578537, 42.680809132837211 ], [ 2.809114304846163, 42.680516130399475 ], [ 2.80668, 42.679329 ], [ 2.806225, 42.679275 ], [ 2.800368, 42.679093 ], [ 2.800289, 42.679094 ], [ 2.792201, 42.679744 ] ] ], [ [ [ 2.761229, 42.681756 ], [ 2.758984, 42.681457 ], [ 2.756739, 42.681158 ], [ 2.754444, 42.680854 ], [ 2.753592, 42.680766 ], [ 2.752794, 42.680723 ], [ 2.752313, 42.680758 ], [ 2.752296, 42.684358 ], [ 2.754069, 42.684434 ], [ 2.756264, 42.684727 ], [ 2.758509, 42.685026 ], [ 2.760754, 42.685325 ], [ 2.762999, 42.685624 ], [ 2.763679, 42.685705 ], [ 2.764943, 42.68578 ], [ 2.76748, 42.694125 ], [ 2.766601, 42.695791 ], [ 2.766607, 42.695887 ], [ 2.767247, 42.69699 ], [ 2.767598, 42.697411 ], [ 2.770125, 42.701212 ], [ 2.768737, 42.709303 ], [ 2.768279, 42.710535 ], [ 2.768334, 42.711718 ], [ 2.771391, 42.713618 ], [ 2.776159, 42.713097 ], [ 2.783863, 42.717055 ], [ 2.780991, 42.720842 ], [ 2.780968, 42.720948 ], [ 2.77751, 42.726077 ], [ 2.776931, 42.726421 ], [ 2.776028, 42.72693 ], [ 2.775421, 42.727406 ], [ 2.774825, 42.728146 ], [ 2.77395, 42.729132 ], [ 2.775665, 42.732297 ], [ 2.78252, 42.730794 ], [ 2.783074, 42.730724 ], [ 2.783827, 42.730545 ], [ 2.791015, 42.728153 ], [ 2.793273, 42.729688 ], [ 2.794376, 42.730728 ], [ 2.796095, 42.733653 ], [ 2.798431, 42.736392 ], [ 2.800782, 42.744437 ], [ 2.799022, 42.746693 ], [ 2.798395, 42.750238 ], [ 2.800948, 42.751047 ], [ 2.809664, 42.751397 ], [ 2.811007, 42.751873 ], [ 2.811879, 42.751691 ], [ 2.813212, 42.750788 ], [ 2.816487, 42.74909 ], [ 2.818308, 42.747822 ], [ 2.819332, 42.746883 ], [ 2.825086, 42.743591 ], [ 2.82584, 42.743363 ], [ 2.826331, 42.743116 ], [ 2.82725, 42.742445 ], [ 2.831197, 42.740485 ], [ 2.831891, 42.740206 ], [ 2.830681, 42.736648 ], [ 2.830564, 42.737835 ], [ 2.830441, 42.738081 ], [ 2.829543, 42.7396 ], [ 2.829303, 42.73993 ], [ 2.828961, 42.740337 ], [ 2.824821, 42.738127 ], [ 2.818538, 42.741813 ], [ 2.817878, 42.74518 ], [ 2.817652, 42.74534 ], [ 2.817354, 42.745521 ], [ 2.814056, 42.74792 ], [ 2.813788, 42.748041 ], [ 2.808228, 42.747029 ], [ 2.807079, 42.746487 ], [ 2.806928, 42.746385 ], [ 2.806677, 42.746131 ], [ 2.807029, 42.743634 ], [ 2.808201, 42.734774 ], [ 2.803714, 42.732584 ], [ 2.8, 42.732538 ], [ 2.798382, 42.732278 ], [ 2.797989, 42.731663 ], [ 2.790687, 42.726413 ], [ 2.782994, 42.72697 ], [ 2.78104, 42.723946 ], [ 2.781618, 42.723572 ], [ 2.784748, 42.719283 ], [ 2.784814, 42.719173 ], [ 2.786653, 42.71633 ], [ 2.787938, 42.715374 ], [ 2.785123, 42.707169 ], [ 2.784505, 42.706921 ], [ 2.781275, 42.706555 ], [ 2.780903, 42.706603 ], [ 2.77709, 42.708346 ], [ 2.773826, 42.709264 ], [ 2.771482, 42.706531 ], [ 2.772167, 42.698072 ], [ 2.772824, 42.695179 ], [ 2.773743, 42.694834 ], [ 2.774045, 42.694982 ], [ 2.776652, 42.695721 ], [ 2.776921, 42.696026 ], [ 2.777576, 42.697139 ], [ 2.77814, 42.697899 ], [ 2.781594, 42.700438 ], [ 2.783527, 42.70184 ], [ 2.786112, 42.703711 ], [ 2.7928, 42.698225 ], [ 2.791394, 42.692716 ], [ 2.785807, 42.685813 ], [ 2.785136, 42.685659 ], [ 2.784748, 42.685543 ], [ 2.784748293106572, 42.685542019471811 ], [ 2.784672, 42.685519 ], [ 2.781346, 42.684369 ], [ 2.773579, 42.684373 ], [ 2.773578974830734, 42.684372919453651 ], [ 2.773281, 42.684466 ], [ 2.772207, 42.68103 ], [ 2.772802010242977, 42.680825309214669 ], [ 2.770446, 42.681462 ], [ 2.768677, 42.681796 ], [ 2.761229, 42.681756 ] ] ], [ [ [ 2.841374, 42.744133 ], [ 2.841761, 42.744442 ], [ 2.842314, 42.744806 ], [ 2.846044, 42.748984 ], [ 2.851033, 42.754941 ], [ 2.849346, 42.760169 ], [ 2.849205162474594, 42.760243517599967 ], [ 2.850932, 42.759334 ], [ 2.855097, 42.754285 ], [ 2.855085, 42.751521 ], [ 2.847889, 42.746825 ], [ 2.846817, 42.747092 ], [ 2.846652, 42.747022 ], [ 2.845889, 42.746211 ], [ 2.845863, 42.746149 ], [ 2.845607, 42.744834 ], [ 2.845613, 42.744326 ], [ 2.845865, 42.74358 ], [ 2.846529, 42.742689 ], [ 2.846625, 42.742546 ], [ 2.846894, 42.74223 ], [ 2.847426, 42.741833 ], [ 2.84898, 42.740438 ], [ 2.84931, 42.740066 ], [ 2.843619, 42.741319 ], [ 2.841374, 42.744133 ] ] ], [ [ [ 2.844637, 42.762774 ], [ 2.843177, 42.763794 ], [ 2.84137, 42.764886 ], [ 2.84068, 42.765239 ], [ 2.842319, 42.768444 ], [ 2.843406, 42.76791 ], [ 2.843948, 42.767622 ], [ 2.844589, 42.767216 ], [ 2.8453, 42.766701 ], [ 2.846697, 42.765727 ], [ 2.847505, 42.765198 ], [ 2.850530482893654, 42.763613018484087 ], [ 2.848853349344916, 42.760429663089141 ], [ 2.845532, 42.762187 ], [ 2.844637, 42.762774 ] ] ], [ [ [ 2.854689, 42.761424 ], [ 2.85261, 42.762519 ], [ 2.85097538335028, 42.763379945277265 ], [ 2.851023, 42.763355 ], [ 2.854689, 42.761424 ] ] ], [ [ [ 2.864284, 42.76216 ], [ 2.864557, 42.762658 ], [ 2.865626, 42.765188 ], [ 2.867735991185678, 42.766155939110547 ], [ 2.867745, 42.766133 ], [ 2.868425, 42.765045 ], [ 2.87188, 42.758341 ], [ 2.872545, 42.757979 ], [ 2.877745, 42.754093 ], [ 2.878624, 42.752495 ], [ 2.879052745902838, 42.74471743292095 ], [ 2.878915, 42.744778 ], [ 2.877979, 42.746605 ], [ 2.877036, 42.748445 ], [ 2.875858, 42.750693 ], [ 2.875605, 42.75112 ], [ 2.87534, 42.751507 ], [ 2.87506, 42.751873 ], [ 2.875056448724305, 42.751870276568077 ], [ 2.874963, 42.75199 ], [ 2.874575, 42.752412 ], [ 2.873904, 42.75303 ], [ 2.873491, 42.753348 ], [ 2.873015, 42.753675 ], [ 2.872677, 42.753885 ], [ 2.8681, 42.759147 ], [ 2.864681, 42.760274 ], [ 2.857545, 42.758922 ], [ 2.855259, 42.761046 ], [ 2.864063, 42.761724 ], [ 2.864284, 42.76216 ] ] ], [ [ [ 2.916714, 42.742649 ], [ 2.916257, 42.741641 ], [ 2.912861, 42.735217 ], [ 2.91709, 42.73176 ], [ 2.919462, 42.731654 ], [ 2.919764, 42.731698 ], [ 2.920263, 42.731645 ], [ 2.920291, 42.731635 ], [ 2.921468, 42.729567 ], [ 2.921429, 42.729432 ], [ 2.920282, 42.728135 ], [ 2.917342, 42.726832 ], [ 2.913729, 42.724757 ], [ 2.912564129468396, 42.723881868839193 ], [ 2.910837937510982, 42.726472663927787 ], [ 2.911597, 42.726862 ], [ 2.911073, 42.730424 ], [ 2.909127, 42.735355 ], [ 2.906805, 42.739042 ], [ 2.908075215137549, 42.747133979683369 ], [ 2.909723, 42.746327 ], [ 2.912555, 42.744312 ], [ 2.914001, 42.742194 ], [ 2.915646, 42.741762 ], [ 2.91668, 42.742638 ], [ 2.91677, 42.745182 ], [ 2.9167, 42.746647 ], [ 2.916769, 42.748247 ], [ 2.915414, 42.753107 ], [ 2.915414763240691, 42.753140516727015 ], [ 2.915471, 42.753081 ], [ 2.916788, 42.748238 ], [ 2.916773, 42.745204 ], [ 2.916714, 42.742649 ] ] ] ] } },
{ "type": "Feature", "properties": { "codgeo": "66172", "value": 720, "isochrone_group": 12.0, "nb_agences": 1 }, "geometry": { "type": "MultiPolygon", "coordinates": [ [ [ [ 2.777987, 42.67971 ], [ 2.778528, 42.679756 ], [ 2.779433, 42.679919 ], [ 2.779963, 42.68006 ], [ 2.780432, 42.680215 ], [ 2.782564, 42.680981 ], [ 2.782850931764557, 42.681080167951507 ], [ 2.786743215652288, 42.681781756095184 ], [ 2.792201, 42.679744 ], [ 2.800289, 42.679094 ], [ 2.800368, 42.679093 ], [ 2.801408153947597, 42.679125321669531 ], [ 2.802382395789444, 42.677885588227667 ], [ 2.797422, 42.67737 ], [ 2.790901, 42.674012 ], [ 2.79035, 42.673566 ], [ 2.790137, 42.673391 ], [ 2.787332, 42.674481 ], [ 2.786550913858957, 42.675379761869266 ], [ 2.786922, 42.676534 ], [ 2.787005, 42.67662 ], [ 2.785017, 42.67956 ], [ 2.782899, 42.67914 ], [ 2.782486, 42.679046 ], [ 2.780016546391723, 42.678794160124077 ], [ 2.777987, 42.67971 ] ] ], [ [ [ 2.734913, 42.68484 ], [ 2.733699, 42.685229 ], [ 2.73292, 42.685505 ], [ 2.732185, 42.685783 ], [ 2.733456, 42.689151 ], [ 2.734191, 42.688873 ], [ 2.7349, 42.688623 ], [ 2.73601, 42.688268 ], [ 2.738263, 42.687661 ], [ 2.740595, 42.687031 ], [ 2.742926, 42.686401 ], [ 2.745258, 42.68577 ], [ 2.751935, 42.687038 ], [ 2.758509, 42.685026 ], [ 2.756264, 42.684727 ], [ 2.753881648123568, 42.684425969124327 ], [ 2.752296, 42.684358 ], [ 2.752313, 42.680758 ], [ 2.752794, 42.680723 ], [ 2.753592, 42.680766 ], [ 2.753694830206671, 42.680776620960316 ], [ 2.753695, 42.680775 ], [ 2.754444, 42.680854 ], [ 2.756739, 42.681158 ], [ 2.758984, 42.681457 ], [ 2.761229, 42.681756 ], [ 2.758675, 42.68132 ], [ 2.75646, 42.681025 ], [ 2.750609994235176, 42.679515719695559 ], [ 2.750611, 42.679568 ], [ 2.750618, 42.679648 ], [ 2.749669, 42.681413 ], [ 2.749393, 42.681505 ], [ 2.742962, 42.683511 ], [ 2.738643, 42.684966 ], [ 2.736836, 42.68493 ], [ 2.735191777614629, 42.684764348315355 ], [ 2.734913, 42.68484 ] ] ], [ [ [ 2.766944, 42.705588 ], [ 2.766643, 42.705921 ], [ 2.764332, 42.713621 ], [ 2.764792, 42.71638 ], [ 2.767771, 42.718401 ], [ 2.77197, 42.726163 ], [ 2.771378, 42.726752 ], [ 2.770518, 42.727331 ], [ 2.769908, 42.730921 ], [ 2.770027, 42.731462 ], [ 2.770533, 42.732241 ], [ 2.771846, 42.733068 ], [ 2.773583, 42.733672 ], [ 2.777372, 42.735371 ], [ 2.778022, 42.735448 ], [ 2.782022, 42.735053 ], [ 2.78456, 42.735545 ], [ 2.791914, 42.736241 ], [ 2.793855, 42.739273 ], [ 2.793249, 42.745679 ], [ 2.790323, 42.747775 ], [ 2.789042, 42.748376 ], [ 2.789182, 42.750483 ], [ 2.789354, 42.750806 ], [ 2.789572, 42.751138 ], [ 2.790069, 42.751826 ], [ 2.795502, 42.753396 ], [ 2.798499, 42.753573 ], [ 2.807459, 42.753432 ], [ 2.808307, 42.753995 ], [ 2.811412, 42.754407 ], [ 2.81558, 42.75392 ], [ 2.81759, 42.753154 ], [ 2.820827, 42.751489 ], [ 2.822293, 42.751009 ], [ 2.823137, 42.750626 ], [ 2.826331, 42.743116 ], [ 2.82584, 42.743363 ], [ 2.825086, 42.743591 ], [ 2.819332, 42.746883 ], [ 2.818308, 42.747822 ], [ 2.816487, 42.74909 ], [ 2.813212, 42.750788 ], [ 2.811879, 42.751691 ], [ 2.811007, 42.751873 ], [ 2.809664, 42.751397 ], [ 2.800948, 42.751047 ], [ 2.798395, 42.750238 ], [ 2.799022, 42.746693 ], [ 2.800782, 42.744437 ], [ 2.798431, 42.736392 ], [ 2.796095, 42.733653 ], [ 2.794376, 42.730728 ], [ 2.793273, 42.729688 ], [ 2.791015, 42.728153 ], [ 2.783827, 42.730545 ], [ 2.783074, 42.730724 ], [ 2.78252, 42.730794 ], [ 2.775665, 42.732297 ], [ 2.77395, 42.729132 ], [ 2.774825, 42.728146 ], [ 2.775421, 42.727406 ], [ 2.776028, 42.72693 ], [ 2.776931, 42.726421 ], [ 2.77751, 42.726077 ], [ 2.780968, 42.720948 ], [ 2.780991, 42.720842 ], [ 2.783863, 42.717055 ], [ 2.776159, 42.713097 ], [ 2.771391, 42.713618 ], [ 2.768334, 42.711718 ], [ 2.768279, 42.710535 ], [ 2.768737, 42.709303 ], [ 2.770125, 42.701212 ], [ 2.767598, 42.697411 ], [ 2.767247, 42.69699 ], [ 2.766607, 42.695887 ], [ 2.766601, 42.695791 ], [ 2.76748, 42.694125 ], [ 2.764943, 42.68578 ], [ 2.763679, 42.685705 ], [ 2.762999, 42.685624 ], [ 2.760754, 42.685325 ], [ 2.763037, 42.69387 ], [ 2.763062, 42.695494 ], [ 2.76336, 42.697456 ], [ 2.766944, 42.705588 ] ] ], [ [ [ 2.843772, 42.750534 ], [ 2.844092, 42.750861 ], [ 2.844438, 42.751238 ], [ 2.845667, 42.7519 ], [ 2.848051, 42.754185 ], [ 2.845532, 42.762187 ], [ 2.849346, 42.760169 ], [ 2.851033, 42.754941 ], [ 2.846044, 42.748984 ], [ 2.842314, 42.744806 ], [ 2.841761, 42.744442 ], [ 2.841374, 42.744133 ], [ 2.843619, 42.741319 ], [ 2.84931, 42.740066 ], [ 2.851246, 42.733368 ], [ 2.850021, 42.730812 ], [ 2.846945, 42.727956 ], [ 2.838524, 42.727463 ], [ 2.837508, 42.728001 ], [ 2.836619, 42.7284 ], [ 2.83418, 42.729098 ], [ 2.830681, 42.736648 ], [ 2.831858034400223, 42.740109064790069 ], [ 2.832667, 42.739649 ], [ 2.839713, 42.744136 ], [ 2.843772, 42.750534 ] ] ], [ [ [ 2.833249, 42.768586 ], [ 2.832619, 42.769051 ], [ 2.832359, 42.769298 ], [ 2.833143, 42.770379 ], [ 2.834838, 42.771908 ], [ 2.841818, 42.772623 ], [ 2.841924, 42.772585 ], [ 2.843061, 42.770372 ], [ 2.847505, 42.765198 ], [ 2.846697, 42.765727 ], [ 2.8453, 42.766701 ], [ 2.844589, 42.767216 ], [ 2.843948, 42.767622 ], [ 2.843406, 42.76791 ], [ 2.842319, 42.768444 ], [ 2.84068, 42.765239 ], [ 2.84137, 42.764886 ], [ 2.843177, 42.763794 ], [ 2.844637, 42.762774 ], [ 2.838716, 42.7638 ], [ 2.837724, 42.764285 ], [ 2.833249, 42.768586 ] ] ], [ [ [ 2.864643251371522, 42.76286213093541 ], [ 2.864557, 42.762658 ], [ 2.864284, 42.76216 ], [ 2.864063, 42.761724 ], [ 2.855259, 42.761046 ], [ 2.854689, 42.761424 ], [ 2.860651, 42.764119 ], [ 2.86159309936221, 42.764927595142872 ], [ 2.864643251371522, 42.76286213093541 ] ] ], [ [ [ 2.926400551343866, 42.728094987752222 ], [ 2.923311, 42.727596 ], [ 2.920978543993431, 42.728922635187011 ], [ 2.921429, 42.729432 ], [ 2.921468, 42.729567 ], [ 2.920291, 42.731635 ], [ 2.920263, 42.731645 ], [ 2.919764, 42.731698 ], [ 2.919462, 42.731654 ], [ 2.91709, 42.73176 ], [ 2.912861, 42.735217 ], [ 2.914868964889742, 42.739015341122418 ], [ 2.918661, 42.73915 ], [ 2.918947, 42.739085 ], [ 2.920376, 42.739295 ], [ 2.921113, 42.739459 ], [ 2.924587, 42.740138 ], [ 2.926745760668071, 42.740972907437595 ], [ 2.926728, 42.740937 ], [ 2.925437, 42.732524 ], [ 2.926333, 42.730674 ], [ 2.92663, 42.730223 ], [ 2.926846, 42.728313 ], [ 2.926400551343866, 42.728094987752222 ] ] ], [ [ [ 2.850959, 42.610673 ], [ 2.851176, 42.612111 ], [ 2.850960525100765, 42.61067276994968 ], [ 2.850959, 42.610673 ] ] ] ] } },
{ "type": "Feature", "properties": { "codgeo": "66172", "value": 780, "isochrone_group": 13.0, "nb_agences": 1 }, "geometry": { "type": "MultiPolygon", "coordinates": [ [ [ [ 2.768677, 42.681796 ], [ 2.770446, 42.681462 ], [ 2.773225, 42.680711 ], [ 2.773554455113886, 42.680591254157477 ], [ 2.773554, 42.68059 ], [ 2.774829, 42.680128 ], [ 2.77532, 42.67998 ], [ 2.77571, 42.679888 ], [ 2.776935, 42.679717 ], [ 2.777534, 42.679698 ], [ 2.777987, 42.67971 ], [ 2.779624605040429, 42.678971025023543 ], [ 2.775749, 42.677906 ], [ 2.775029222452222, 42.67786063803473 ], [ 2.770362, 42.681388 ], [ 2.768142371986979, 42.681793128743202 ], [ 2.768677, 42.681796 ] ] ], [ [ [ 2.761229, 42.681756 ], [ 2.761983161323189, 42.681760050275621 ], [ 2.76149, 42.681694 ], [ 2.761118193097415, 42.681480394869439 ], [ 2.760921620545198, 42.681703526451713 ], [ 2.761229, 42.681756 ] ] ], [ [ [ 2.722918, 42.68821 ], [ 2.720424, 42.688616 ], [ 2.71793, 42.689021 ], [ 2.715649, 42.689391 ], [ 2.713367, 42.689762 ], [ 2.713945, 42.693315 ], [ 2.716226, 42.692945 ], [ 2.718507, 42.692574 ], [ 2.721001, 42.692169 ], [ 2.723495, 42.691764 ], [ 2.725994, 42.691359 ], [ 2.726866, 42.6912 ], [ 2.728171, 42.690916 ], [ 2.729492, 42.690573 ], [ 2.730306, 42.69033 ], [ 2.731332, 42.689989 ], [ 2.732333, 42.689619 ], [ 2.733455974286259, 42.689150931861619 ], [ 2.73218513955061, 42.685783369792631 ], [ 2.732099, 42.685816 ], [ 2.72541, 42.687806 ], [ 2.722918, 42.68821 ] ] ], [ [ [ 2.755542, 42.697935 ], [ 2.757258, 42.69851 ], [ 2.761197, 42.70132 ], [ 2.76359, 42.708073 ], [ 2.762002, 42.713964 ], [ 2.760161, 42.716909 ], [ 2.760097, 42.717039 ], [ 2.759607, 42.72011 ], [ 2.761834, 42.722624 ], [ 2.765517, 42.729553 ], [ 2.769677, 42.735758 ], [ 2.775937, 42.738393 ], [ 2.7781, 42.739443 ], [ 2.779021, 42.748256 ], [ 2.781368, 42.750923 ], [ 2.781382, 42.750937 ], [ 2.781398, 42.750951 ], [ 2.784393, 42.752928 ], [ 2.785325, 42.752744 ], [ 2.793629, 42.756055 ], [ 2.795015, 42.758156 ], [ 2.795513, 42.758062 ], [ 2.796369, 42.757681 ], [ 2.79644, 42.757636 ], [ 2.796944, 42.757308 ], [ 2.804938, 42.755291 ], [ 2.806594, 42.756284 ], [ 2.807968, 42.756244 ], [ 2.813391, 42.756842 ], [ 2.813579, 42.756857 ], [ 2.815078, 42.756173 ], [ 2.819166, 42.755559 ], [ 2.820047, 42.754204 ], [ 2.825348, 42.750668 ], [ 2.827322, 42.750407 ], [ 2.828707, 42.750163 ], [ 2.828181, 42.747301 ], [ 2.828082, 42.746618 ], [ 2.828255434526856, 42.741758958642642 ], [ 2.827862, 42.741978 ], [ 2.82725, 42.742445 ], [ 2.826331, 42.743116 ], [ 2.823137, 42.750626 ], [ 2.822293, 42.751009 ], [ 2.820827, 42.751489 ], [ 2.81759, 42.753154 ], [ 2.81558, 42.75392 ], [ 2.811412, 42.754407 ], [ 2.808307, 42.753995 ], [ 2.807459, 42.753432 ], [ 2.798499, 42.753573 ], [ 2.795502, 42.753396 ], [ 2.790069, 42.751826 ], [ 2.789572, 42.751138 ], [ 2.789354, 42.750806 ], [ 2.789182, 42.750483 ], [ 2.789042, 42.748376 ], [ 2.790323, 42.747775 ], [ 2.793249, 42.745679 ], [ 2.793855, 42.739273 ], [ 2.791914, 42.736241 ], [ 2.78456, 42.735545 ], [ 2.782022, 42.735053 ], [ 2.778022, 42.735448 ], [ 2.777372, 42.735371 ], [ 2.773583, 42.733672 ], [ 2.771846, 42.733068 ], [ 2.770533, 42.732241 ], [ 2.770027, 42.731462 ], [ 2.769908, 42.730921 ], [ 2.770518, 42.727331 ], [ 2.771378, 42.726752 ], [ 2.77197, 42.726163 ], [ 2.767771, 42.718401 ], [ 2.764792, 42.71638 ], [ 2.764332, 42.713621 ], [ 2.766643, 42.705921 ], [ 2.766944, 42.705588 ], [ 2.76336, 42.697456 ], [ 2.763062, 42.695494 ], [ 2.763037, 42.69387 ], [ 2.760754, 42.685325 ], [ 2.758509, 42.685026 ], [ 2.751935, 42.687038 ], [ 2.751403241482659, 42.686937016055118 ], [ 2.742926, 42.686401 ], [ 2.750062, 42.690443 ], [ 2.750752, 42.692123 ], [ 2.75156, 42.69328 ], [ 2.755542, 42.697935 ] ] ], [ [ [ 2.831197, 42.740485 ], [ 2.829642, 42.740987 ], [ 2.828670573858992, 42.741527833317839 ], [ 2.835139643560155, 42.741223617038663 ], [ 2.832667, 42.739649 ], [ 2.831197, 42.740485 ] ] ], [ [ [ 2.839179, 42.749295 ], [ 2.843039, 42.754293 ], [ 2.840178, 42.760501 ], [ 2.8396, 42.760932 ], [ 2.835244, 42.762215 ], [ 2.829957, 42.768343 ], [ 2.82747, 42.770946 ], [ 2.828159, 42.774006 ], [ 2.830763, 42.776492 ], [ 2.832707, 42.774998 ], [ 2.84087, 42.775246 ], [ 2.840884, 42.77525 ], [ 2.841531, 42.775001 ], [ 2.845452237975417, 42.773854259159322 ], [ 2.844851, 42.773826 ], [ 2.844105, 42.773826 ], [ 2.843822, 42.771919 ], [ 2.844108, 42.770226 ], [ 2.844996708603033, 42.768118319461728 ], [ 2.843061, 42.770372 ], [ 2.841924, 42.772585 ], [ 2.841818, 42.772623 ], [ 2.834838, 42.771908 ], [ 2.833143, 42.770379 ], [ 2.832359, 42.769298 ], [ 2.832619, 42.769051 ], [ 2.833249, 42.768586 ], [ 2.837724, 42.764285 ], [ 2.838716, 42.7638 ], [ 2.844637, 42.762774 ], [ 2.845532, 42.762187 ], [ 2.848051, 42.754185 ], [ 2.845667, 42.7519 ], [ 2.844438, 42.751238 ], [ 2.844092, 42.750861 ], [ 2.843772, 42.750534 ], [ 2.839713, 42.744136 ], [ 2.83743913023455, 42.742687965138018 ], [ 2.838406, 42.748449 ], [ 2.838742, 42.748884 ], [ 2.839179, 42.749295 ] ] ], [ [ [ 2.84788828677575, 42.773676379238459 ], [ 2.848533083202461, 42.773638894519713 ], [ 2.848239, 42.773636 ], [ 2.84788828677575, 42.773676379238459 ] ] ], [ [ [ 2.854311, 42.773303 ], [ 2.855712285714946, 42.773260015775612 ], [ 2.855698, 42.773231 ], [ 2.854306, 42.773302 ], [ 2.85427447178736, 42.773305123538087 ], [ 2.854311, 42.773303 ] ] ], [ [ [ 2.925656, 42.733033 ], [ 2.925516948687606, 42.733044997915449 ], [ 2.926159278374348, 42.737230838081608 ], [ 2.928827340841939, 42.738112906714868 ], [ 2.929308, 42.735702 ], [ 2.929544, 42.734032 ], [ 2.929598, 42.733544 ], [ 2.929739, 42.732778 ], [ 2.930528316477765, 42.732240349645579 ], [ 2.926608, 42.732701 ], [ 2.925656, 42.733033 ] ] ] ] } },
{ "type": "Feature", "properties": { "codgeo": "66172", "value": 840, "isochrone_group": 14.0, "nb_agences": 1 }, "geometry": { "type": "MultiPolygon", "coordinates": [ [ [ [ 2.695936, 42.693999 ], [ 2.694857, 42.694267 ], [ 2.693004, 42.694775 ], [ 2.693955, 42.698247 ], [ 2.695809, 42.69774 ], [ 2.696804, 42.697493 ], [ 2.696847869580334, 42.697483403529297 ], [ 2.696079131563885, 42.693967601703761 ], [ 2.695936, 42.693999 ] ] ], [ [ [ 2.762071, 42.707738 ], [ 2.760277, 42.713929 ], [ 2.758108, 42.716797 ], [ 2.755986, 42.718976 ], [ 2.754398, 42.722777 ], [ 2.754017, 42.723543 ], [ 2.753888, 42.72437 ], [ 2.753894, 42.724479 ], [ 2.756656, 42.72537 ], [ 2.760513, 42.730743 ], [ 2.760896, 42.730815 ], [ 2.761123, 42.730846 ], [ 2.761683, 42.73083 ], [ 2.767847402839113, 42.733028997504022 ], [ 2.765517, 42.729553 ], [ 2.761834, 42.722624 ], [ 2.759607, 42.72011 ], [ 2.760097, 42.717039 ], [ 2.760161, 42.716909 ], [ 2.762002, 42.713964 ], [ 2.76359, 42.708073 ], [ 2.761197, 42.70132 ], [ 2.757258, 42.69851 ], [ 2.755542, 42.697935 ], [ 2.75156, 42.69328 ], [ 2.751060636115038, 42.692564945526115 ], [ 2.750999, 42.692496 ], [ 2.750752, 42.692123 ], [ 2.750304642164436, 42.691033780922105 ], [ 2.742926, 42.686401 ], [ 2.740595, 42.687031 ], [ 2.738263, 42.687661 ], [ 2.743551, 42.693926 ], [ 2.743931, 42.697506 ], [ 2.747165, 42.697564 ], [ 2.748194, 42.697676 ], [ 2.750704, 42.698226 ], [ 2.757442, 42.702319 ], [ 2.762071, 42.707738 ] ] ], [ [ [ 2.777177, 42.74917 ], [ 2.773977, 42.752315 ], [ 2.772834, 42.752776 ], [ 2.773265, 42.754798 ], [ 2.774179, 42.756115 ], [ 2.775486, 42.755965 ], [ 2.775874, 42.755872 ], [ 2.777118, 42.755241 ], [ 2.778176, 42.754546 ], [ 2.784459, 42.753725 ], [ 2.789192, 42.757154 ], [ 2.790485, 42.760514 ], [ 2.794308, 42.759876 ], [ 2.794502, 42.759838 ], [ 2.794858, 42.759737 ], [ 2.800639, 42.758003 ], [ 2.800938, 42.757942 ], [ 2.8021, 42.757624 ], [ 2.802749, 42.757383 ], [ 2.804465, 42.756769 ], [ 2.808789423580594, 42.75633457925526 ], [ 2.807968, 42.756244 ], [ 2.806594, 42.756284 ], [ 2.804938, 42.755291 ], [ 2.796944, 42.757308 ], [ 2.79644, 42.757636 ], [ 2.796369, 42.757681 ], [ 2.795513, 42.758062 ], [ 2.795015, 42.758156 ], [ 2.793629, 42.756055 ], [ 2.785325, 42.752744 ], [ 2.784393, 42.752928 ], [ 2.781398, 42.750951 ], [ 2.781382, 42.750937 ], [ 2.781368, 42.750923 ], [ 2.779021, 42.748256 ], [ 2.7781, 42.739443 ], [ 2.775937, 42.738393 ], [ 2.769677, 42.735758 ], [ 2.769654806375586, 42.735724896288566 ], [ 2.769903, 42.736458 ], [ 2.773351, 42.741129 ], [ 2.777177, 42.74917 ] ] ], [ [ [ 2.815129, 42.760306 ], [ 2.818278, 42.76082 ], [ 2.821632, 42.75951 ], [ 2.823686, 42.76817 ], [ 2.82319, 42.769142 ], [ 2.823533, 42.770908 ], [ 2.823239, 42.77642 ], [ 2.823719, 42.779988 ], [ 2.827989, 42.780727 ], [ 2.83545, 42.777285 ], [ 2.838827, 42.776879 ], [ 2.840829, 42.77684 ], [ 2.844994884512365, 42.775156915312571 ], [ 2.842648, 42.774966 ], [ 2.840872, 42.775303 ], [ 2.839968, 42.775301 ], [ 2.83981566351673, 42.775213968216612 ], [ 2.832707, 42.774998 ], [ 2.830763, 42.776492 ], [ 2.828159, 42.774006 ], [ 2.82747, 42.770946 ], [ 2.829957, 42.768343 ], [ 2.835244, 42.762215 ], [ 2.8396, 42.760932 ], [ 2.840178, 42.760501 ], [ 2.843039, 42.754293 ], [ 2.839179, 42.749295 ], [ 2.838742, 42.748884 ], [ 2.838406, 42.748449 ], [ 2.837227, 42.741424 ], [ 2.836939, 42.741139 ], [ 2.828263, 42.741547 ], [ 2.828082, 42.746618 ], [ 2.828181, 42.747301 ], [ 2.828707, 42.750163 ], [ 2.827322, 42.750407 ], [ 2.825348, 42.750668 ], [ 2.820047, 42.754204 ], [ 2.819166, 42.755559 ], [ 2.815078, 42.756173 ], [ 2.813579, 42.756857 ], [ 2.813391, 42.756842 ], [ 2.809887136862065, 42.75645562527081 ], [ 2.813014, 42.760248 ], [ 2.813199, 42.760376 ], [ 2.815129, 42.760306 ] ] ], [ [ [ 2.849162, 42.595747 ], [ 2.849970193400268, 42.599429083918004 ], [ 2.849970193400268, 42.599429083918004 ], [ 2.849162, 42.595747 ] ] ], [ [ [ 2.84828150269735, 42.593253587432045 ], [ 2.848478, 42.593748 ], [ 2.84828150269735, 42.593253587432045 ], [ 2.84828150269735, 42.593253587432045 ] ] ], [ [ [ 2.848927430865457, 42.595007576308397 ], [ 2.848478, 42.593748 ], [ 2.849162, 42.595747 ], [ 2.848927430865457, 42.595007576308397 ] ] ] ] } },
{ "type": "Feature", "properties": { "codgeo": "66172", "value": 900, "isochrone_group": 15.0, "nb_agences": 1 }, "geometry": { "type": "MultiPolygon", "coordinates": [ [ [ [ 2.68807, 42.696199 ], [ 2.688893, 42.696008 ], [ 2.688893831155407, 42.695989156215148 ], [ 2.68807, 42.696199 ] ] ], [ [ [ 2.686131, 42.696512 ], [ 2.687073, 42.696394 ], [ 2.68807, 42.696199 ], [ 2.686131, 42.696512 ] ] ], [ [ [ 2.674851, 42.697268 ], [ 2.67449, 42.70085 ], [ 2.6753, 42.700932 ], [ 2.676309, 42.700989 ], [ 2.677328, 42.701003 ], [ 2.677445954572961, 42.700999527099846 ], [ 2.677335, 42.697402 ], [ 2.678167, 42.697377 ], [ 2.678792, 42.69733 ], [ 2.679423, 42.697272 ], [ 2.681421, 42.697039 ], [ 2.674851, 42.697268 ] ] ], [ [ [ 2.735477, 42.698662 ], [ 2.73892, 42.698141 ], [ 2.7469, 42.701725 ], [ 2.74805, 42.701932 ], [ 2.753272, 42.7021 ], [ 2.757217, 42.708339 ], [ 2.757217, 42.708773 ], [ 2.757348, 42.710455 ], [ 2.756139, 42.715751 ], [ 2.752419, 42.719643 ], [ 2.750815, 42.721277 ], [ 2.752122, 42.724631 ], [ 2.752901, 42.726831 ], [ 2.754774, 42.726963 ], [ 2.755589, 42.726929 ], [ 2.756174, 42.72678 ], [ 2.756841, 42.726361 ], [ 2.757103, 42.726103 ], [ 2.757159215857225, 42.726071005652294 ], [ 2.756656, 42.72537 ], [ 2.753894, 42.724479 ], [ 2.753888, 42.72437 ], [ 2.754017, 42.723543 ], [ 2.754398, 42.722777 ], [ 2.755986, 42.718976 ], [ 2.758108, 42.716797 ], [ 2.760277, 42.713929 ], [ 2.762071, 42.707738 ], [ 2.757442, 42.702319 ], [ 2.750704, 42.698226 ], [ 2.748194, 42.697676 ], [ 2.747165, 42.697564 ], [ 2.743931, 42.697506 ], [ 2.743551, 42.693926 ], [ 2.738263, 42.687661 ], [ 2.734905, 42.688622 ], [ 2.734904826127216, 42.688621456508869 ], [ 2.7349, 42.688623 ], [ 2.734191, 42.688873 ], [ 2.732333, 42.689619 ], [ 2.731332, 42.689989 ], [ 2.730306, 42.69033 ], [ 2.729492, 42.690573 ], [ 2.728171, 42.690916 ], [ 2.726866, 42.6912 ], [ 2.733119, 42.697503 ], [ 2.733176, 42.697604 ], [ 2.733843, 42.698279 ], [ 2.734636, 42.69869 ], [ 2.734787, 42.698758 ], [ 2.734909, 42.698746 ], [ 2.735477, 42.698662 ] ] ], [ [ [ 2.767841, 42.748699 ], [ 2.764395, 42.754944 ], [ 2.763648, 42.758465 ], [ 2.763923, 42.758524 ], [ 2.764436, 42.75857 ], [ 2.764954, 42.758533 ], [ 2.772391, 42.758568 ], [ 2.778671, 42.75594 ], [ 2.784218, 42.761247 ], [ 2.784886, 42.762425 ], [ 2.785347, 42.762317 ], [ 2.786236, 42.762077 ], [ 2.786784, 42.761941 ], [ 2.792643, 42.761046 ], [ 2.793234, 42.761054 ], [ 2.793973, 42.760828 ], [ 2.794618, 42.760401 ], [ 2.796472, 42.759481 ], [ 2.798408717531119, 42.758671969002094 ], [ 2.794858, 42.759737 ], [ 2.794502, 42.759838 ], [ 2.794308, 42.759876 ], [ 2.790485, 42.760514 ], [ 2.789192, 42.757154 ], [ 2.784459, 42.753725 ], [ 2.778176, 42.754546 ], [ 2.777118, 42.755241 ], [ 2.775874, 42.755872 ], [ 2.775486, 42.755965 ], [ 2.774179, 42.756115 ], [ 2.773265, 42.754798 ], [ 2.772834, 42.752776 ], [ 2.773977, 42.752315 ], [ 2.777177, 42.74917 ], [ 2.773351, 42.741129 ], [ 2.769903, 42.736458 ], [ 2.768865, 42.733392 ], [ 2.770361, 42.740099 ], [ 2.76895, 42.743578 ], [ 2.767841, 42.748699 ] ] ], [ [ [ 2.810623, 42.763942 ], [ 2.817662, 42.768352 ], [ 2.815501, 42.77617 ], [ 2.812958, 42.777365 ], [ 2.811131, 42.777606 ], [ 2.811603, 42.781175 ], [ 2.814823, 42.781335 ], [ 2.816924, 42.781346 ], [ 2.817544, 42.781216 ], [ 2.818172, 42.781006 ], [ 2.826615, 42.784062 ], [ 2.826663, 42.784164 ], [ 2.82992, 42.783382 ], [ 2.836247, 42.778933 ], [ 2.836830667570558, 42.778852872226587 ], [ 2.836529226572433, 42.777155249929393 ], [ 2.83545, 42.777285 ], [ 2.827989, 42.780727 ], [ 2.823719, 42.779988 ], [ 2.823239, 42.77642 ], [ 2.823533, 42.770908 ], [ 2.82319, 42.769142 ], [ 2.823686, 42.76817 ], [ 2.821632, 42.75951 ], [ 2.818278, 42.76082 ], [ 2.815129, 42.760306 ], [ 2.813199, 42.760376 ], [ 2.813014, 42.760248 ], [ 2.809711, 42.756242 ], [ 2.804465, 42.756769 ], [ 2.802749, 42.757383 ], [ 2.8021, 42.757624 ], [ 2.809135, 42.762704 ], [ 2.81028, 42.763898 ], [ 2.810623, 42.763942 ] ] ], [ [ [ 2.908655, 42.838485 ], [ 2.908838, 42.839067 ], [ 2.908842004411518, 42.839065739438304 ], [ 2.908655, 42.838485 ] ] ], [ [ [ 2.842090956536988, 42.578811595654123 ], [ 2.842693, 42.577811 ], [ 2.842376, 42.576093 ], [ 2.842155744560325, 42.575868532605796 ], [ 2.842090956536988, 42.578811595654123 ] ] ] ] } },
{ "type": "Feature", "properties": { "codgeo": "66172", "value": 960, "isochrone_group": 16.0, "nb_agences": 1 }, "geometry": { "type": "MultiPolygon", "coordinates": [ [ [ [ 2.659258, 42.691696 ], [ 2.658357, 42.691604 ], [ 2.657548, 42.691571 ], [ 2.656864, 42.69158 ], [ 2.656217, 42.691613 ], [ 2.6564, 42.695208 ], [ 2.664438, 42.697377 ], [ 2.658795, 42.695265 ], [ 2.659359551403707, 42.69171182337773 ], [ 2.659258, 42.691696 ] ] ], [ [ [ 2.674490079803206, 42.700849208157663 ], [ 2.674490079803207, 42.700849208157663 ], [ 2.6744, 42.70084 ], [ 2.674490079803206, 42.700849208157663 ] ] ], [ [ [ 2.674851, 42.697268 ], [ 2.675578338785381, 42.697242648313264 ], [ 2.674414, 42.697211 ], [ 2.674850930465352, 42.697268689953198 ], [ 2.674851, 42.697268 ] ] ], [ [ [ 2.669455, 42.695794 ], [ 2.670204, 42.696115 ], [ 2.670773, 42.696327 ], [ 2.671377, 42.696529 ], [ 2.672022, 42.696724 ], [ 2.672638, 42.696883 ], [ 2.673345, 42.697042 ], [ 2.674414, 42.697211 ], [ 2.669455, 42.695794 ] ] ], [ [ [ 2.750889, 42.704693 ], [ 2.75276, 42.707768 ], [ 2.751216, 42.71423 ], [ 2.748732, 42.716523 ], [ 2.748302, 42.716806 ], [ 2.746152, 42.724151 ], [ 2.745549, 42.725609 ], [ 2.745873, 42.726014 ], [ 2.746245, 42.726394 ], [ 2.746914, 42.726811 ], [ 2.750482, 42.728593 ], [ 2.75091, 42.728441 ], [ 2.755589, 42.726929 ], [ 2.754774, 42.726963 ], [ 2.752901, 42.726831 ], [ 2.752122, 42.724631 ], [ 2.750815, 42.721277 ], [ 2.752419, 42.719643 ], [ 2.756139, 42.715751 ], [ 2.757348, 42.710455 ], [ 2.757217, 42.708773 ], [ 2.757217, 42.708339 ], [ 2.753272, 42.7021 ], [ 2.74805, 42.701932 ], [ 2.7469, 42.701725 ], [ 2.73892, 42.698141 ], [ 2.735477, 42.698662 ], [ 2.734909, 42.698746 ], [ 2.734787, 42.698758 ], [ 2.734636, 42.69869 ], [ 2.733843, 42.698279 ], [ 2.733176, 42.697604 ], [ 2.733119, 42.697503 ], [ 2.726910331548261, 42.691244686030508 ], [ 2.72549, 42.691615 ], [ 2.724393, 42.691778 ], [ 2.723589049218803, 42.691870672392518 ], [ 2.729217, 42.698254 ], [ 2.729228, 42.698282 ], [ 2.731073, 42.699364 ], [ 2.733727, 42.699957 ], [ 2.734104, 42.699879 ], [ 2.742801, 42.701968 ], [ 2.744283, 42.702053 ], [ 2.750889, 42.704693 ] ] ], [ [ [ 2.76227, 42.749205 ], [ 2.762268, 42.749363 ], [ 2.762476, 42.750088 ], [ 2.755852, 42.755709 ], [ 2.755269, 42.756729 ], [ 2.754154, 42.758883 ], [ 2.756292, 42.760181 ], [ 2.75722, 42.759998 ], [ 2.75813, 42.759836 ], [ 2.759181, 42.759641 ], [ 2.759619, 42.759547 ], [ 2.761527, 42.758987 ], [ 2.764436, 42.75857 ], [ 2.763923, 42.758524 ], [ 2.763648, 42.758465 ], [ 2.764395, 42.754944 ], [ 2.767841, 42.748699 ], [ 2.76895, 42.743578 ], [ 2.770361, 42.740099 ], [ 2.768865, 42.733392 ], [ 2.763835, 42.740638 ], [ 2.763305, 42.740964 ], [ 2.76227, 42.749205 ] ] ], [ [ [ 2.778345, 42.763 ], [ 2.779777, 42.76334 ], [ 2.781271, 42.763167 ], [ 2.781337, 42.763158 ], [ 2.781785, 42.763062 ], [ 2.782943, 42.762846 ], [ 2.783388, 42.762783 ], [ 2.783702, 42.762709 ], [ 2.785347, 42.762317 ], [ 2.784886, 42.762425 ], [ 2.784218, 42.761247 ], [ 2.778671, 42.75594 ], [ 2.772391, 42.758568 ], [ 2.764954, 42.758533 ], [ 2.764436, 42.75857 ], [ 2.772059, 42.760584 ], [ 2.772717, 42.760858 ], [ 2.778345, 42.763 ] ] ], [ [ [ 2.797314, 42.761454 ], [ 2.804558, 42.761408 ], [ 2.807232, 42.764127 ], [ 2.81265, 42.768729 ], [ 2.810405, 42.776649 ], [ 2.80771, 42.778448 ], [ 2.802303, 42.77998 ], [ 2.801718, 42.779967 ], [ 2.801384, 42.780002 ], [ 2.800058, 42.780094 ], [ 2.799574, 42.780204 ], [ 2.799503, 42.780219 ], [ 2.798445, 42.780411 ], [ 2.799092, 42.783952 ], [ 2.799943, 42.783909 ], [ 2.802125, 42.783575 ], [ 2.809912, 42.783715 ], [ 2.811122, 42.783298 ], [ 2.812469, 42.782638 ], [ 2.813225, 42.782217 ], [ 2.813861, 42.781885 ], [ 2.814709, 42.781388 ], [ 2.814825297222203, 42.781335012027341 ], [ 2.814823, 42.781335 ], [ 2.811603, 42.781175 ], [ 2.811131, 42.777606 ], [ 2.812958, 42.777365 ], [ 2.815501, 42.77617 ], [ 2.817662, 42.768352 ], [ 2.810623, 42.763942 ], [ 2.81028, 42.763898 ], [ 2.809135, 42.762704 ], [ 2.8021, 42.757624 ], [ 2.800938, 42.757942 ], [ 2.799754, 42.75811 ], [ 2.796472, 42.759481 ], [ 2.794618, 42.760401 ], [ 2.793973, 42.760828 ], [ 2.793234, 42.761054 ], [ 2.792643, 42.761046 ], [ 2.786784, 42.761941 ], [ 2.786236, 42.762077 ], [ 2.785347, 42.762317 ], [ 2.790229, 42.762372 ], [ 2.794041, 42.762954 ], [ 2.797314, 42.761454 ] ] ], [ [ [ 2.828697, 42.787861 ], [ 2.827231, 42.784864 ], [ 2.826696410974895, 42.78415597808339 ], [ 2.826663, 42.784164 ], [ 2.826615, 42.784062 ], [ 2.820485064153535, 42.781843228953342 ], [ 2.823746, 42.786515 ], [ 2.830484744590292, 42.78949728924615 ], [ 2.828697, 42.787861 ] ] ] ] } },
{ "type": "Feature", "properties": { "codgeo": "66172", "value": 1020, "isochrone_group": 17.0, "nb_agences": 1 }, "geometry": { "type": "MultiPolygon", "coordinates": [ [ [ [ 2.645393391806504, 42.690989830803318 ], [ 2.648155, 42.692162 ], [ 2.649967, 42.692146 ], [ 2.645393391806504, 42.690989830803318 ] ] ], [ [ [ 2.638772, 42.687463 ], [ 2.636552, 42.690297 ], [ 2.637481513008995, 42.691024861360212 ], [ 2.637054, 42.69069 ], [ 2.639273844866527, 42.687856198039746 ], [ 2.638772, 42.687463 ] ] ], [ [ [ 2.656401968007235, 42.695208531053467 ], [ 2.656401968007231, 42.695208531053467 ], [ 2.65333, 42.695471 ], [ 2.656401968007235, 42.695208531053467 ] ] ], [ [ [ 2.66797647584352, 42.699073892600659 ], [ 2.667976475843522, 42.699073892600659 ], [ 2.667891, 42.699037 ], [ 2.66797647584352, 42.699073892600659 ] ] ], [ [ [ 2.734104, 42.699879 ], [ 2.733727, 42.699957 ], [ 2.731073, 42.699364 ], [ 2.729228, 42.698282 ], [ 2.729217, 42.698254 ], [ 2.723642023865864, 42.691930757233393 ], [ 2.721271976966976, 42.692412852190635 ], [ 2.727005, 42.697572 ], [ 2.726423, 42.699531 ], [ 2.726454, 42.699586 ], [ 2.72829, 42.70049 ], [ 2.733007, 42.701649 ], [ 2.738944, 42.702143 ], [ 2.742801, 42.701968 ], [ 2.734104, 42.699879 ] ] ], [ [ [ 2.746649, 42.717637 ], [ 2.745055, 42.718405 ], [ 2.743166, 42.71868 ], [ 2.742693, 42.718806 ], [ 2.742187, 42.719045 ], [ 2.739967, 42.720555 ], [ 2.739699, 42.720849 ], [ 2.738884, 42.721656 ], [ 2.738288, 42.722339 ], [ 2.738064, 42.723291 ], [ 2.73828, 42.724125 ], [ 2.738514, 42.72449 ], [ 2.739189, 42.725309 ], [ 2.73966, 42.725844 ], [ 2.746393, 42.729297 ], [ 2.749864, 42.730159 ], [ 2.755589, 42.726929 ], [ 2.75091, 42.728441 ], [ 2.750482, 42.728593 ], [ 2.746914, 42.726811 ], [ 2.746245, 42.726394 ], [ 2.745873, 42.726014 ], [ 2.745549, 42.725609 ], [ 2.746152, 42.724151 ], [ 2.748302, 42.716806 ], [ 2.748732, 42.716523 ], [ 2.751216, 42.71423 ], [ 2.75276, 42.707768 ], [ 2.750889, 42.704693 ], [ 2.744283, 42.702053 ], [ 2.742801, 42.701968 ], [ 2.746339, 42.70822 ], [ 2.7473, 42.709661 ], [ 2.746649, 42.717637 ] ] ], [ [ [ 2.760473, 42.739903 ], [ 2.75969, 42.73988 ], [ 2.75893, 42.739878 ], [ 2.758866, 42.739965 ], [ 2.758017, 42.743361 ], [ 2.760043, 42.74969 ], [ 2.754843, 42.755403 ], [ 2.752506, 42.75529 ], [ 2.751441, 42.756384 ], [ 2.750479, 42.759853 ], [ 2.752539, 42.760732 ], [ 2.752684, 42.760785 ], [ 2.753054, 42.760794 ], [ 2.753175, 42.760776 ], [ 2.75813, 42.759836 ], [ 2.75722, 42.759998 ], [ 2.756292, 42.760181 ], [ 2.754154, 42.758883 ], [ 2.755269, 42.756729 ], [ 2.755852, 42.755709 ], [ 2.762476, 42.750088 ], [ 2.762268, 42.749363 ], [ 2.76227, 42.749205 ], [ 2.763305, 42.740964 ], [ 2.763835, 42.740638 ], [ 2.764183151564783, 42.740136467944616 ], [ 2.761639, 42.740202 ], [ 2.760938, 42.739972 ], [ 2.760473, 42.739903 ] ] ], [ [ [ 2.770312, 42.762389 ], [ 2.771591, 42.76219 ], [ 2.779544, 42.764921 ], [ 2.780137, 42.765068 ], [ 2.781672, 42.763993 ], [ 2.786778, 42.762384 ], [ 2.789766, 42.762894 ], [ 2.794405, 42.765201 ], [ 2.796113, 42.765779 ], [ 2.79639, 42.765819 ], [ 2.80308, 42.764855 ], [ 2.806432, 42.767821 ], [ 2.807864, 42.771124 ], [ 2.808355, 42.777072 ], [ 2.801958, 42.778177 ], [ 2.801387, 42.777749 ], [ 2.79988, 42.777359 ], [ 2.799234, 42.7775 ], [ 2.79869, 42.777755 ], [ 2.79831, 42.777915 ], [ 2.792285, 42.778523 ], [ 2.79145, 42.778532 ], [ 2.79116, 42.778516 ], [ 2.789772, 42.778607 ], [ 2.789723, 42.778662 ], [ 2.789264, 42.779803 ], [ 2.78924, 42.77989 ], [ 2.789688, 42.781016 ], [ 2.790276, 42.781934 ], [ 2.792772, 42.783285 ], [ 2.794909, 42.784249 ], [ 2.795403, 42.784257 ], [ 2.797694, 42.784219 ], [ 2.806442, 42.78488 ], [ 2.808204, 42.784215 ], [ 2.80927, 42.783894 ], [ 2.809755, 42.783765 ], [ 2.809901891712947, 42.783714818266319 ], [ 2.802125, 42.783575 ], [ 2.799943, 42.783909 ], [ 2.799092, 42.783952 ], [ 2.798445, 42.780411 ], [ 2.799503, 42.780219 ], [ 2.799574, 42.780204 ], [ 2.800058, 42.780094 ], [ 2.801384, 42.780002 ], [ 2.801718, 42.779967 ], [ 2.802303, 42.77998 ], [ 2.80771, 42.778448 ], [ 2.810405, 42.776649 ], [ 2.81265, 42.768729 ], [ 2.807232, 42.764127 ], [ 2.804558, 42.761408 ], [ 2.797314, 42.761454 ], [ 2.794041, 42.762954 ], [ 2.790229, 42.762372 ], [ 2.785347, 42.762317 ], [ 2.783702, 42.762709 ], [ 2.783388, 42.762783 ], [ 2.782943, 42.762846 ], [ 2.781785, 42.763062 ], [ 2.781337, 42.763158 ], [ 2.781271, 42.763167 ], [ 2.779777, 42.76334 ], [ 2.778345, 42.763 ], [ 2.772717, 42.760858 ], [ 2.772059, 42.760584 ], [ 2.764436, 42.75857 ], [ 2.761527, 42.758987 ], [ 2.768086, 42.762699 ], [ 2.769464, 42.762473 ], [ 2.770312, 42.762389 ] ] ], [ [ [ 2.819538, 42.787625 ], [ 2.822686712629124, 42.787767956685137 ], [ 2.822193, 42.786838 ], [ 2.821253, 42.783363 ], [ 2.821392646939198, 42.783143475011599 ], [ 2.81947, 42.780389 ], [ 2.81614, 42.780736 ], [ 2.814709, 42.781388 ], [ 2.813861, 42.781885 ], [ 2.813225, 42.782217 ], [ 2.812469, 42.782638 ], [ 2.811122, 42.783298 ], [ 2.817398, 42.784577 ], [ 2.819119, 42.787739 ], [ 2.819538, 42.787625 ] ] ] ] } },
{ "type": "Feature", "properties": { "codgeo": "66172", "value": 1080, "isochrone_group": 18.0, "nb_agences": 1 }, "geometry": { "type": "MultiPolygon", "coordinates": [ [ [ [ 2.625361, 42.678801 ], [ 2.629775, 42.685493 ], [ 2.629537, 42.685112 ], [ 2.629251, 42.684541 ], [ 2.627198, 42.680249 ], [ 2.629856, 42.677822 ], [ 2.630378, 42.67822 ], [ 2.631806, 42.679893 ], [ 2.636445, 42.685867 ], [ 2.63732, 42.686404 ], [ 2.638102, 42.686947 ], [ 2.633871, 42.679427 ], [ 2.630838, 42.677488 ], [ 2.627481, 42.675892 ], [ 2.625361, 42.678801 ] ] ], [ [ [ 2.649883366729815, 42.692124858221625 ], [ 2.649883366729817, 42.692124858221625 ], [ 2.645506356487886, 42.691018387312624 ], [ 2.645506356487907, 42.691018387312624 ], [ 2.649883366729815, 42.692124858221625 ] ] ], [ [ [ 2.640615015641181, 42.688906438526395 ], [ 2.6404, 42.688738 ], [ 2.64061501564118, 42.688906438526395 ], [ 2.640615015641181, 42.688906438526395 ] ] ], [ [ [ 2.639147333340207, 42.687756666672037 ], [ 2.639147333348123, 42.687756666678254 ], [ 2.6404, 42.688738 ], [ 2.639147333340207, 42.687756666672037 ] ] ], [ [ [ 2.727612, 42.702317 ], [ 2.732784, 42.703443 ], [ 2.735796, 42.705415 ], [ 2.738011, 42.705725 ], [ 2.743151, 42.710413 ], [ 2.744098, 42.712303 ], [ 2.739051, 42.718787 ], [ 2.737705, 42.718982 ], [ 2.737511, 42.719051 ], [ 2.737344, 42.719158 ], [ 2.736627, 42.721182 ], [ 2.735608, 42.729852 ], [ 2.734249, 42.730413 ], [ 2.733663, 42.730678 ], [ 2.733291, 42.730913 ], [ 2.732895, 42.73122 ], [ 2.733682, 42.733998 ], [ 2.733807, 42.734041 ], [ 2.735095, 42.734069 ], [ 2.736113, 42.733591 ], [ 2.736673, 42.733377 ], [ 2.73802, 42.732738 ], [ 2.745297, 42.732408 ], [ 2.746563, 42.732493 ], [ 2.748278, 42.732249 ], [ 2.75388, 42.738877 ], [ 2.752136, 42.741892 ], [ 2.751809, 42.742297 ], [ 2.754611, 42.744557 ], [ 2.755623, 42.744319 ], [ 2.756205, 42.744256 ], [ 2.758788504935702, 42.745771096119476 ], [ 2.758017, 42.743361 ], [ 2.758866, 42.739965 ], [ 2.75893, 42.739878 ], [ 2.75969, 42.73988 ], [ 2.760473, 42.739903 ], [ 2.760938, 42.739972 ], [ 2.761639, 42.740202 ], [ 2.766026, 42.740089 ], [ 2.768865, 42.733392 ], [ 2.769742, 42.731362 ], [ 2.769679, 42.726378 ], [ 2.761676, 42.723674 ], [ 2.761225, 42.723883 ], [ 2.760691, 42.724163 ], [ 2.760278, 42.724296 ], [ 2.757103, 42.726103 ], [ 2.756841, 42.726361 ], [ 2.756174, 42.72678 ], [ 2.755589, 42.726929 ], [ 2.749864, 42.730159 ], [ 2.746393, 42.729297 ], [ 2.73966, 42.725844 ], [ 2.739189, 42.725309 ], [ 2.738514, 42.72449 ], [ 2.73828, 42.724125 ], [ 2.738064, 42.723291 ], [ 2.738288, 42.722339 ], [ 2.738884, 42.721656 ], [ 2.739699, 42.720849 ], [ 2.739967, 42.720555 ], [ 2.742187, 42.719045 ], [ 2.742693, 42.718806 ], [ 2.743166, 42.71868 ], [ 2.745055, 42.718405 ], [ 2.746649, 42.717637 ], [ 2.7473, 42.709661 ], [ 2.746339, 42.70822 ], [ 2.742801, 42.701968 ], [ 2.738944, 42.702143 ], [ 2.733007, 42.701649 ], [ 2.72829, 42.70049 ], [ 2.726454, 42.699586 ], [ 2.726423, 42.699531 ], [ 2.727005, 42.697572 ], [ 2.721001, 42.692169 ], [ 2.717370336909378, 42.697450848281981 ], [ 2.719638, 42.698796 ], [ 2.720446, 42.702305 ], [ 2.727612, 42.702317 ] ] ], [ [ [ 2.747034, 42.753204 ], [ 2.746491, 42.753442 ], [ 2.742404, 42.755235 ], [ 2.74217, 42.755295 ], [ 2.741129, 42.756482 ], [ 2.741068, 42.756683 ], [ 2.741069, 42.758209 ], [ 2.741454, 42.758708 ], [ 2.743885, 42.760804 ], [ 2.750952, 42.763767 ], [ 2.75124, 42.763797 ], [ 2.75185, 42.763807 ], [ 2.754992, 42.7637 ], [ 2.763494, 42.763859 ], [ 2.764673, 42.763839 ], [ 2.766334, 42.763517 ], [ 2.767031, 42.763355 ], [ 2.767478, 42.763169 ], [ 2.770312, 42.762389 ], [ 2.769464, 42.762473 ], [ 2.768086, 42.762699 ], [ 2.761527, 42.758987 ], [ 2.759619, 42.759547 ], [ 2.759181, 42.759641 ], [ 2.75813, 42.759836 ], [ 2.753175, 42.760776 ], [ 2.753054, 42.760794 ], [ 2.752684, 42.760785 ], [ 2.752539, 42.760732 ], [ 2.750479, 42.759853 ], [ 2.751441, 42.756384 ], [ 2.752506, 42.75529 ], [ 2.752745691138198, 42.755301589687065 ], [ 2.74812, 42.753595 ], [ 2.747419, 42.753081 ], [ 2.747034, 42.753204 ] ] ], [ [ [ 2.786724, 42.764404 ], [ 2.790309, 42.76473 ], [ 2.796113, 42.765779 ], [ 2.794405, 42.765201 ], [ 2.789766, 42.762894 ], [ 2.786778, 42.762384 ], [ 2.781672, 42.763993 ], [ 2.780137, 42.765068 ], [ 2.779544, 42.764921 ], [ 2.771591, 42.76219 ], [ 2.770312, 42.762389 ], [ 2.778327, 42.765315 ], [ 2.781825, 42.766167 ], [ 2.786724, 42.764404 ] ] ], [ [ [ 2.794116, 42.777813 ], [ 2.793763, 42.777728 ], [ 2.790401, 42.77557 ], [ 2.789918, 42.774925 ], [ 2.78967, 42.774535 ], [ 2.787781, 42.774347 ], [ 2.787638, 42.774424 ], [ 2.787425, 42.774644 ], [ 2.7866, 42.776415 ], [ 2.785884, 42.78005 ], [ 2.788623, 42.782315 ], [ 2.789199, 42.782685 ], [ 2.789367, 42.782782 ], [ 2.789912, 42.782984 ], [ 2.79355769147317, 42.783639425166186 ], [ 2.792772, 42.783285 ], [ 2.790276, 42.781934 ], [ 2.789688, 42.781016 ], [ 2.78924, 42.77989 ], [ 2.789264, 42.779803 ], [ 2.789723, 42.778662 ], [ 2.789772, 42.778607 ], [ 2.79116, 42.778516 ], [ 2.79145, 42.778532 ], [ 2.792285, 42.778523 ], [ 2.79831, 42.777915 ], [ 2.79869, 42.777755 ], [ 2.799234, 42.7775 ], [ 2.79988, 42.777359 ], [ 2.801387, 42.777749 ], [ 2.801958, 42.778177 ], [ 2.808355, 42.777072 ], [ 2.807864, 42.771124 ], [ 2.806432, 42.767821 ], [ 2.80308, 42.764855 ], [ 2.79639, 42.765819 ], [ 2.796113, 42.765779 ], [ 2.800688, 42.769604 ], [ 2.801116, 42.773178 ], [ 2.794116, 42.777813 ] ] ], [ [ [ 2.805425, 42.785202 ], [ 2.806266, 42.784944 ], [ 2.813054, 42.786663 ], [ 2.813632, 42.790217 ], [ 2.814294, 42.790142 ], [ 2.81496, 42.789975 ], [ 2.815567, 42.789791 ], [ 2.823928, 42.79254 ], [ 2.824145003460882, 42.793729488010811 ], [ 2.824768, 42.792413 ], [ 2.818331, 42.78803 ], [ 2.817484, 42.788191 ], [ 2.816995, 42.788308 ], [ 2.816152, 42.784808 ], [ 2.81598540685017, 42.7842891244999 ], [ 2.811122, 42.783298 ], [ 2.809755, 42.783765 ], [ 2.80927, 42.783894 ], [ 2.808204, 42.784215 ], [ 2.806442, 42.78488 ], [ 2.798179431154449, 42.784255679240189 ], [ 2.803659, 42.785593 ], [ 2.804693, 42.785359 ], [ 2.805425, 42.785202 ] ] ], [ [ [ 2.969087, 42.86339 ], [ 2.970786, 42.864239 ], [ 2.970786183773112, 42.864238632225337 ], [ 2.969136, 42.863414 ], [ 2.967388, 42.862541 ], [ 2.969087, 42.86339 ] ] ] ] } },
{ "type": "Feature", "properties": { "codgeo": "66172", "value": 1140, "isochrone_group": 19.0, "nb_agences": 1 }, "geometry": { "type": "MultiPolygon", "coordinates": [ [ [ [ 2.608354, 42.671155 ], [ 2.606989, 42.674486 ], [ 2.607732, 42.674791 ], [ 2.608287, 42.674994 ], [ 2.608854, 42.675178 ], [ 2.609633, 42.675389 ], [ 2.609713215425332, 42.675407030723925 ], [ 2.610494, 42.671894 ], [ 2.610979, 42.672002 ], [ 2.611408, 42.672078 ], [ 2.612366, 42.672205 ], [ 2.616478, 42.672659 ], [ 2.608354, 42.671155 ] ] ], [ [ [ 2.627532407615012, 42.682093038912477 ], [ 2.627532407615, 42.682093038912463 ], [ 2.624515, 42.678219 ], [ 2.627532407615012, 42.682093038912477 ] ] ], [ [ [ 2.631942220156679, 42.687499211095258 ], [ 2.63194222015668, 42.687499211095258 ], [ 2.631798, 42.687413 ], [ 2.631942220156679, 42.687499211095258 ] ] ], [ [ [ 2.676309, 42.700989 ], [ 2.678215524738, 42.702237762013297 ], [ 2.677328, 42.701003 ], [ 2.676309, 42.700989 ] ] ], [ [ [ 2.702361871710934, 42.703888951495315 ], [ 2.699899237866885, 42.702333948236067 ], [ 2.697511474346875, 42.702480569996894 ], [ 2.697112297386113, 42.702928418714841 ], [ 2.698592, 42.703068 ], [ 2.69874, 42.70309 ], [ 2.699299, 42.703165 ], [ 2.702361871710934, 42.703888951495315 ] ] ], [ [ [ 2.717545254037058, 42.702924643733894 ], [ 2.715913, 42.702839 ], [ 2.715266253453328, 42.703629599014675 ], [ 2.717545254037058, 42.702924643733894 ] ] ], [ [ [ 2.72461, 42.703878 ], [ 2.726795, 42.705968 ], [ 2.733768, 42.709886 ], [ 2.740711, 42.714194 ], [ 2.738793999908672, 42.718824232554091 ], [ 2.739051, 42.718787 ], [ 2.744098, 42.712303 ], [ 2.743151, 42.710413 ], [ 2.738011, 42.705725 ], [ 2.735796, 42.705415 ], [ 2.732784, 42.703443 ], [ 2.727612, 42.702317 ], [ 2.724629370813127, 42.702312005365584 ], [ 2.723946, 42.702735 ], [ 2.723242, 42.702947 ], [ 2.722863, 42.703055 ], [ 2.722412, 42.70318 ], [ 2.719412602435797, 42.703022622777425 ], [ 2.72461, 42.703878 ] ] ], [ [ [ 2.729892, 42.732617 ], [ 2.728049, 42.735338 ], [ 2.727912, 42.738652 ], [ 2.730798, 42.740803 ], [ 2.731777, 42.73949 ], [ 2.732075, 42.739065 ], [ 2.733542, 42.737505 ], [ 2.736673, 42.733377 ], [ 2.736113, 42.733591 ], [ 2.735095, 42.734069 ], [ 2.733807, 42.734041 ], [ 2.733682, 42.733998 ], [ 2.732895, 42.73122 ], [ 2.733291, 42.730913 ], [ 2.733663, 42.730678 ], [ 2.734249, 42.730413 ], [ 2.735608, 42.729852 ], [ 2.736627, 42.721182 ], [ 2.735626, 42.724907 ], [ 2.731794, 42.731092 ], [ 2.729892, 42.732617 ] ] ], [ [ [ 2.749094, 42.741223 ], [ 2.750457, 42.745945 ], [ 2.745052, 42.752749 ], [ 2.743848, 42.752801 ], [ 2.73628, 42.752817 ], [ 2.736247, 42.752911 ], [ 2.735286, 42.75538 ], [ 2.735086, 42.756258 ], [ 2.735407, 42.757327 ], [ 2.739811, 42.763132 ], [ 2.744511, 42.764478 ], [ 2.752399, 42.765958 ], [ 2.753341, 42.765999 ], [ 2.753837, 42.76536 ], [ 2.75429, 42.764625 ], [ 2.76119887302336, 42.763816077724151 ], [ 2.754992, 42.7637 ], [ 2.75185, 42.763807 ], [ 2.75124, 42.763797 ], [ 2.750952, 42.763767 ], [ 2.743885, 42.760804 ], [ 2.741454, 42.758708 ], [ 2.741069, 42.758209 ], [ 2.741068, 42.756683 ], [ 2.741129, 42.756482 ], [ 2.74217, 42.755295 ], [ 2.742404, 42.755235 ], [ 2.746491, 42.753442 ], [ 2.747034, 42.753204 ], [ 2.747419, 42.753081 ], [ 2.74812, 42.753595 ], [ 2.753728, 42.755664 ], [ 2.754843, 42.755403 ], [ 2.755454, 42.755526 ], [ 2.760079, 42.755602 ], [ 2.763585, 42.748584 ], [ 2.756205, 42.744256 ], [ 2.755623, 42.744319 ], [ 2.754611, 42.744557 ], [ 2.751809, 42.742297 ], [ 2.752136, 42.741892 ], [ 2.75388, 42.738877 ], [ 2.748278, 42.732249 ], [ 2.746563, 42.732493 ], [ 2.745297, 42.732408 ], [ 2.73802, 42.732738 ], [ 2.736673, 42.733377 ], [ 2.743471, 42.734514 ], [ 2.747679, 42.739579 ], [ 2.749094, 42.741223 ] ] ], [ [ [ 2.778483, 42.772696 ], [ 2.780425, 42.775728 ], [ 2.783909, 42.779836 ], [ 2.785882, 42.78164 ], [ 2.786093, 42.781722 ], [ 2.789912, 42.782984 ], [ 2.789367, 42.782782 ], [ 2.789199, 42.782685 ], [ 2.788623, 42.782315 ], [ 2.785884, 42.78005 ], [ 2.7866, 42.776415 ], [ 2.787425, 42.774644 ], [ 2.787638, 42.774424 ], [ 2.787781, 42.774347 ], [ 2.78967, 42.774535 ], [ 2.789918, 42.774925 ], [ 2.790401, 42.77557 ], [ 2.793763, 42.777728 ], [ 2.794116, 42.777813 ], [ 2.801116, 42.773178 ], [ 2.800688, 42.769604 ], [ 2.796113, 42.765779 ], [ 2.790309, 42.76473 ], [ 2.786724, 42.764404 ], [ 2.781825, 42.766167 ], [ 2.778327, 42.765315 ], [ 2.770312, 42.762389 ], [ 2.777598, 42.767058 ], [ 2.777769, 42.767701 ], [ 2.778483, 42.772696 ] ] ], [ [ [ 2.813449, 42.792667 ], [ 2.818314638779192, 42.796945347037152 ], [ 2.818928, 42.795874 ], [ 2.815349, 42.791236 ], [ 2.812781, 42.790283 ], [ 2.810873, 42.787267 ], [ 2.806567721103493, 42.785020408158054 ], [ 2.806266, 42.784944 ], [ 2.805425, 42.785202 ], [ 2.804693, 42.785359 ], [ 2.803659, 42.785593 ], [ 2.797485882613329, 42.784086414670625 ], [ 2.794449, 42.783789 ], [ 2.794017, 42.783722 ], [ 2.801093, 42.786375 ], [ 2.807099, 42.790168 ], [ 2.808069, 42.790413 ], [ 2.813449, 42.792667 ] ] ], [ [ [ 2.98564, 42.873561 ], [ 2.986467, 42.874796 ], [ 2.986467811876027, 42.874795456306344 ], [ 2.98564, 42.873561 ] ] ], [ [ [ 2.942595, 42.833473 ], [ 2.947128, 42.833581 ], [ 2.946754, 42.833451 ], [ 2.942595, 42.833473 ] ] ], [ [ [ 2.950359, 42.834251 ], [ 2.955855, 42.835738 ], [ 2.951007, 42.834255 ], [ 2.950359, 42.834251 ] ] ], [ [ [ 2.955855, 42.835738 ], [ 2.95625, 42.835952 ], [ 2.956270821821555, 42.83591585150198 ], [ 2.955855, 42.835738 ] ] ], [ [ [ 3.035546474455962, 42.820010980638116 ], [ 3.036230740404755, 42.816622120455904 ], [ 3.035098, 42.819824 ], [ 3.035546474455962, 42.820010980638116 ] ] ], [ [ [ 3.037873, 42.81198 ], [ 3.037608920717056, 42.812726464106454 ], [ 3.037726, 42.812668 ], [ 3.039768, 42.812041 ], [ 3.039783, 42.811961 ], [ 3.039594, 42.810759 ], [ 3.039561669809865, 42.810725559569818 ], [ 3.037873, 42.81198 ] ] ], [ [ [ 3.039617, 42.793341 ], [ 3.039233598390261, 42.792342355102626 ], [ 3.03904584210232, 42.797630507791567 ], [ 3.039579, 42.797177 ], [ 3.039617, 42.793341 ] ] ], [ [ [ 3.002214, 42.686984 ], [ 3.00221389292412, 42.686983901965199 ], [ 3.002401, 42.68725 ], [ 3.002214, 42.686984 ] ] ] ] } },
{ "type": "Feature", "properties": { "codgeo": "66172", "value": 1200, "isochrone_group": 20.0, "nb_agences": 1 }, "geometry": { "type": "MultiPolygon", "coordinates": [ [ [ [ 2.602382, 42.660061 ], [ 2.60174, 42.659613 ], [ 2.601212, 42.659319 ], [ 2.600804, 42.659128 ], [ 2.60025, 42.658914 ], [ 2.598956, 42.662274 ], [ 2.60015, 42.668393 ], [ 2.600097, 42.667758 ], [ 2.600169, 42.666841 ], [ 2.600464, 42.663175 ], [ 2.603058628223118, 42.660874230524769 ], [ 2.602382, 42.660061 ] ] ], [ [ [ 2.607732, 42.674791 ], [ 2.607807502911445, 42.674818616380243 ], [ 2.607807502911445, 42.674818616380243 ], [ 2.607732, 42.674791 ] ] ], [ [ [ 2.72726, 42.713433 ], [ 2.729111, 42.713204 ], [ 2.729509, 42.713123 ], [ 2.73232, 42.713169 ], [ 2.734754, 42.713052 ], [ 2.736627, 42.721182 ], [ 2.737972, 42.719462 ], [ 2.738744, 42.718945 ], [ 2.740711, 42.714194 ], [ 2.733768, 42.709886 ], [ 2.726795, 42.705968 ], [ 2.72461, 42.703878 ], [ 2.717987, 42.702788 ], [ 2.716622601472195, 42.703210044625209 ], [ 2.720478, 42.705226 ], [ 2.722717, 42.708045 ], [ 2.72726, 42.713433 ] ] ], [ [ [ 2.729752, 42.730021 ], [ 2.724105, 42.73658 ], [ 2.723319, 42.736794 ], [ 2.722909, 42.73696 ], [ 2.7219, 42.739738 ], [ 2.722974, 42.745889 ], [ 2.726398, 42.746501 ], [ 2.734223, 42.750133 ], [ 2.733457, 42.753495 ], [ 2.733064, 42.75633 ], [ 2.733409, 42.756562 ], [ 2.733868, 42.756787 ], [ 2.735790305124708, 42.757832242109203 ], [ 2.735407, 42.757327 ], [ 2.735086, 42.756258 ], [ 2.735286, 42.75538 ], [ 2.736247, 42.752911 ], [ 2.73628, 42.752817 ], [ 2.743848, 42.752801 ], [ 2.745052, 42.752749 ], [ 2.750457, 42.745945 ], [ 2.749094, 42.741223 ], [ 2.747679, 42.739579 ], [ 2.743471, 42.734514 ], [ 2.736673, 42.733377 ], [ 2.733542, 42.737505 ], [ 2.732075, 42.739065 ], [ 2.731777, 42.73949 ], [ 2.730798, 42.740803 ], [ 2.727912, 42.738652 ], [ 2.728049, 42.735338 ], [ 2.729892, 42.732617 ], [ 2.731794, 42.731092 ], [ 2.735626, 42.724907 ], [ 2.736627, 42.721182 ], [ 2.733666, 42.725104 ], [ 2.733362, 42.725304 ], [ 2.729752, 42.730021 ] ] ], [ [ [ 2.742522, 42.766849 ], [ 2.742878, 42.766343 ], [ 2.747439786443899, 42.765027518754721 ], [ 2.744511, 42.764478 ], [ 2.739811, 42.763132 ], [ 2.736227250113692, 42.758408187990462 ], [ 2.739549, 42.765033 ], [ 2.742152, 42.767226 ], [ 2.742522, 42.766849 ] ] ], [ [ [ 2.75545, 42.765826 ], [ 2.763155, 42.763771 ], [ 2.762865, 42.763621 ], [ 2.75429, 42.764625 ], [ 2.753837, 42.76536 ], [ 2.753347136906453, 42.765991093783825 ], [ 2.753545, 42.765998 ], [ 2.754847, 42.76588 ], [ 2.75545, 42.765826 ] ] ], [ [ [ 2.769757, 42.774857 ], [ 2.7672, 42.777391 ], [ 2.767765, 42.777961 ], [ 2.768259, 42.778426 ], [ 2.768968, 42.778932 ], [ 2.769662, 42.779283 ], [ 2.770379, 42.77953 ], [ 2.777718, 42.783752 ], [ 2.779386, 42.784368 ], [ 2.785248, 42.783677 ], [ 2.789912, 42.782984 ], [ 2.786093, 42.781722 ], [ 2.785882, 42.78164 ], [ 2.783909, 42.779836 ], [ 2.780425, 42.775728 ], [ 2.778483, 42.772696 ], [ 2.777769, 42.767701 ], [ 2.777598, 42.767058 ], [ 2.770312, 42.762389 ], [ 2.767478, 42.763169 ], [ 2.775385, 42.765751 ], [ 2.776294, 42.76888 ], [ 2.769757, 42.774857 ] ] ], [ [ [ 2.808918, 42.793887 ], [ 2.810514, 42.797114 ], [ 2.814278981393423, 42.799701314748845 ], [ 2.81513, 42.798806 ], [ 2.814625, 42.795663 ], [ 2.808814308594515, 42.790725253823808 ], [ 2.808268356377487, 42.790496522170059 ], [ 2.806216, 42.790402 ], [ 2.805870237229508, 42.789391993142097 ], [ 2.801093, 42.786375 ], [ 2.794361548724699, 42.783851181425469 ], [ 2.793822581831143, 42.783687047354789 ], [ 2.789912, 42.782984 ], [ 2.797155, 42.786583 ], [ 2.80202, 42.791448 ], [ 2.808918, 42.793887 ] ] ], [ [ [ 2.994072323628823, 42.890594393806296 ], [ 2.99451, 42.888876 ], [ 2.994073, 42.890583 ], [ 2.994072323628823, 42.890594393806296 ] ] ], [ [ [ 2.961579, 42.832647 ], [ 2.96121, 42.832548 ], [ 2.960518446215539, 42.832470108752354 ], [ 2.96074, 42.834285 ], [ 2.96, 42.835154 ], [ 2.95751, 42.836505 ], [ 2.959895, 42.836776 ], [ 2.960731, 42.83689 ], [ 2.960911, 42.836878 ], [ 2.961815, 42.835734 ], [ 2.961904, 42.835135 ], [ 2.961579, 42.832647 ] ] ], [ [ [ 2.986720954892764, 42.799751543345735 ], [ 2.991039178883952, 42.799631456834867 ], [ 2.989644, 42.799384 ], [ 2.986720954892764, 42.799751543345735 ] ] ], [ [ [ 2.995953, 42.800503 ], [ 2.994007904953265, 42.800158006917542 ], [ 2.996704, 42.802606 ], [ 2.997631, 42.802726 ], [ 2.997860965713198, 42.800940766169937 ], [ 2.996934, 42.800821 ], [ 2.996865, 42.800812 ], [ 2.995953, 42.800503 ] ] ], [ [ [ 3.030949, 42.826227 ], [ 3.032957990302332, 42.829890227000504 ], [ 3.033022, 42.829592 ], [ 3.031661, 42.826739 ], [ 3.030897000989364, 42.826071002968106 ], [ 3.030949, 42.826227 ] ] ], [ [ [ 3.039588, 42.810706 ], [ 3.040482, 42.808896 ], [ 3.040487, 42.808851 ], [ 3.039232062916704, 42.803815152409797 ], [ 3.039471, 42.808176 ], [ 3.039558, 42.809331 ], [ 3.039588, 42.810706 ] ] ], [ [ [ 3.038989813459088, 42.788507240615935 ], [ 3.039307, 42.790275 ], [ 3.039233598390261, 42.792342355102626 ], [ 3.039617, 42.793341 ], [ 3.039579, 42.797177 ], [ 3.03904584210232, 42.797630507791567 ], [ 3.03901, 42.79864 ], [ 3.038985, 42.799306 ], [ 3.039109830256728, 42.801584280611486 ], [ 3.039551, 42.799132 ], [ 3.040101, 42.791717 ], [ 3.040144, 42.791288 ], [ 3.040094, 42.790631 ], [ 3.039843, 42.789992 ], [ 3.038989813459088, 42.788507240615935 ] ] ] ] } }
]
}
