{
"type": "FeatureCollection",
"name": "Others",
"crs": { "type": "name", "properties": { "name": "urn:ogc:def:crs:OGC:1.3:CRS84" } },
"features": [
{ "type": "Feature", "properties": { "codgeo": "30011", "value": 60, "isochrone_group": 1.0, "nb_agences": 1 }, "geometry": { "type": "Polygon", "coordinates": [ [ [ 4.758033, 43.956831 ], [ 4.759616, 43.954592 ], [ 4.759668, 43.954517 ], [ 4.759839, 43.954266 ], [ 4.761288, 43.953748 ], [ 4.763672, 43.953078 ], [ 4.764346, 43.953039 ], [ 4.765013, 43.95312 ], [ 4.765134, 43.95346 ], [ 4.764983, 43.954712 ], [ 4.764912, 43.955065 ], [ 4.761087, 43.95692 ], [ 4.759266, 43.957939 ], [ 4.758906, 43.957926 ], [ 4.758497, 43.957801 ], [ 4.758091, 43.957186 ], [ 4.758033, 43.956831 ] ] ] } },
{ "type": "Feature", "properties": { "codgeo": "30011", "value": 120, "isochrone_group": 2.0, "nb_agences": 1 }, "geometry": { "type": "Polygon", "coordinates": [ [ [ 4.754496, 43.956597 ], [ 4.755535, 43.959282 ], [ 4.755719, 43.959591 ], [ 4.756304, 43.959977 ], [ 4.759284, 43.959772 ], [ 4.760125, 43.959503 ], [ 4.765735, 43.958205 ], [ 4.767626, 43.956086 ], [ 4.767762, 43.955752 ], [ 4.767638, 43.952242 ], [ 4.767153, 43.951969 ], [ 4.766457, 43.951781 ], [ 4.766294, 43.951785 ], [ 4.761926, 43.952725 ], [ 4.758582, 43.954058 ], [ 4.754723, 43.956443 ], [ 4.754496, 43.956597 ] ], [ [ 4.759616, 43.954592 ], [ 4.759668, 43.954517 ], [ 4.759839, 43.954266 ], [ 4.761288, 43.953748 ], [ 4.763672, 43.953078 ], [ 4.764346, 43.953039 ], [ 4.765013, 43.95312 ], [ 4.765134, 43.95346 ], [ 4.764983, 43.954712 ], [ 4.764912, 43.955065 ], [ 4.761087, 43.95692 ], [ 4.759266, 43.957939 ], [ 4.758906, 43.957926 ], [ 4.758497, 43.957801 ], [ 4.758091, 43.957186 ], [ 4.758033, 43.956831 ], [ 4.759616, 43.954592 ] ] ] } },
{ "type": "Feature", "properties": { "codgeo": "30011", "value": 180, "isochrone_group": 3.0, "nb_agences": 1 }, "geometry": { "type": "Polygon", "coordinates": [ [ [ 4.750307, 43.957801 ], [ 4.747815, 43.95814 ], [ 4.747631, 43.958159 ], [ 4.747298, 43.958248 ], [ 4.747187, 43.958299 ], [ 4.746306, 43.958764 ], [ 4.746179, 43.95901 ], [ 4.746215, 43.959112 ], [ 4.746397, 43.959296 ], [ 4.752827, 43.961979 ], [ 4.755533, 43.96238 ], [ 4.756744, 43.962344 ], [ 4.758673, 43.961779 ], [ 4.765902, 43.960122 ], [ 4.769921, 43.958913 ], [ 4.76997, 43.958682 ], [ 4.770338, 43.956141 ], [ 4.770616, 43.953286 ], [ 4.770652, 43.952928 ], [ 4.770002, 43.951119 ], [ 4.766836, 43.951273 ], [ 4.763917, 43.951617 ], [ 4.760667319116735, 43.953226740914303 ], [ 4.761926, 43.952725 ], [ 4.766294, 43.951785 ], [ 4.766457, 43.951781 ], [ 4.767153, 43.951969 ], [ 4.767638, 43.952242 ], [ 4.767762, 43.955752 ], [ 4.767626, 43.956086 ], [ 4.765735, 43.958205 ], [ 4.760125, 43.959503 ], [ 4.759284, 43.959772 ], [ 4.756304, 43.959977 ], [ 4.755719, 43.959591 ], [ 4.755535, 43.959282 ], [ 4.754496, 43.956597 ], [ 4.754723, 43.956443 ], [ 4.757234851708036, 43.954890585819221 ], [ 4.750307, 43.957801 ] ] ] } },
{ "type": "Feature", "properties": { "codgeo": "30011", "value": 240, "isochrone_group": 4.0, "nb_agences": 1 }, "geometry": { "type": "MultiPolygon", "coordinates": [ [ [ [ 4.74842, 43.956193 ], [ 4.748056, 43.956163 ], [ 4.739394, 43.957847 ], [ 4.739008, 43.957898 ], [ 4.73862, 43.957949 ], [ 4.737329, 43.958136 ], [ 4.736032, 43.958324 ], [ 4.733842, 43.9587 ], [ 4.733735, 43.959043 ], [ 4.734219, 43.95942 ], [ 4.734527, 43.959606 ], [ 4.737381, 43.958492 ], [ 4.743731, 43.964603 ], [ 4.743978, 43.964865 ], [ 4.752219, 43.964007 ], [ 4.755403, 43.9642 ], [ 4.761068, 43.965143 ], [ 4.762431, 43.964409 ], [ 4.770251, 43.961894 ], [ 4.772479517870243, 43.960346620088586 ], [ 4.770576, 43.959633 ], [ 4.769490083832842, 43.959042628675327 ], [ 4.765902, 43.960122 ], [ 4.758673, 43.961779 ], [ 4.756744, 43.962344 ], [ 4.755533, 43.96238 ], [ 4.752827, 43.961979 ], [ 4.746397, 43.959296 ], [ 4.746215, 43.959112 ], [ 4.746179, 43.95901 ], [ 4.746306, 43.958764 ], [ 4.747187, 43.958299 ], [ 4.747298, 43.958248 ], [ 4.747631, 43.958159 ], [ 4.747815, 43.95814 ], [ 4.750307, 43.957801 ], [ 4.754715688678688, 43.955948894817922 ], [ 4.748796, 43.956261 ], [ 4.74842, 43.956193 ] ] ], [ [ [ 4.773906, 43.949352 ], [ 4.773878, 43.949334 ], [ 4.7736, 43.949162 ], [ 4.769308, 43.950232 ], [ 4.761399, 43.950953 ], [ 4.75550422041496, 43.955617629940441 ], [ 4.758236, 43.95447 ], [ 4.758967, 43.954069 ], [ 4.763917, 43.951617 ], [ 4.766836, 43.951273 ], [ 4.770002, 43.951119 ], [ 4.770652, 43.952928 ], [ 4.770616, 43.953286 ], [ 4.770338, 43.956141 ], [ 4.770077459114026, 43.957940006497992 ], [ 4.774486, 43.955062 ], [ 4.774718464851872, 43.954901216878106 ], [ 4.773906, 43.949352 ] ] ] ] } },
{ "type": "Feature", "properties": { "codgeo": "30011", "value": 300, "isochrone_group": 5.0, "nb_agences": 1 }, "geometry": { "type": "MultiPolygon", "coordinates": [ [ [ [ 4.725161, 43.960255 ], [ 4.725633, 43.960461 ], [ 4.726068, 43.960624 ], [ 4.726831, 43.96082 ], [ 4.728305, 43.96109 ], [ 4.73203, 43.962061 ], [ 4.733829, 43.962667 ], [ 4.740772, 43.968352 ], [ 4.741008, 43.968806 ], [ 4.742187, 43.970339 ], [ 4.745026, 43.973696 ], [ 4.748145, 43.971899 ], [ 4.755597, 43.966868 ], [ 4.755621, 43.966883 ], [ 4.757518, 43.967743 ], [ 4.759197, 43.969199 ], [ 4.760846, 43.969199 ], [ 4.761095, 43.969203 ], [ 4.765038, 43.967796 ], [ 4.773209, 43.96703 ], [ 4.774527, 43.96529 ], [ 4.775058835094954, 43.96476458988726 ], [ 4.77013, 43.962664 ], [ 4.769779, 43.962587 ], [ 4.769145219630261, 43.962249631410472 ], [ 4.762431, 43.964409 ], [ 4.761068, 43.965143 ], [ 4.755403, 43.9642 ], [ 4.752219, 43.964007 ], [ 4.743978, 43.964865 ], [ 4.743731, 43.964603 ], [ 4.737381, 43.958492 ], [ 4.734527, 43.959606 ], [ 4.734219, 43.95942 ], [ 4.733735, 43.959043 ], [ 4.733842, 43.9587 ], [ 4.736032, 43.958324 ], [ 4.737329, 43.958136 ], [ 4.73862, 43.957949 ], [ 4.739008, 43.957898 ], [ 4.739394, 43.957847 ], [ 4.748056, 43.956163 ], [ 4.74842, 43.956193 ], [ 4.748796, 43.956261 ], [ 4.755112, 43.955928 ], [ 4.761399, 43.950953 ], [ 4.762082155409924, 43.950890722208797 ], [ 4.761684, 43.948247 ], [ 4.762422, 43.948135 ], [ 4.763233, 43.948073 ], [ 4.763809, 43.948061 ], [ 4.764686, 43.94806 ], [ 4.767777989609315, 43.947583120488673 ], [ 4.763495, 43.94797 ], [ 4.76287, 43.947999 ], [ 4.762288, 43.948052 ], [ 4.758876, 43.948619 ], [ 4.757363, 43.950219 ], [ 4.749672, 43.953335 ], [ 4.744726, 43.954063 ], [ 4.743771, 43.954353 ], [ 4.743601, 43.95446 ], [ 4.736786, 43.95625 ], [ 4.733286, 43.955406 ], [ 4.725445, 43.955903 ], [ 4.722308, 43.95492 ], [ 4.720766, 43.958173 ], [ 4.722251, 43.958876 ], [ 4.725161, 43.960255 ] ] ], [ [ [ 4.774334660346716, 43.952279793399931 ], [ 4.775213575635827, 43.951620866703699 ], [ 4.774243554751564, 43.951657532996705 ], [ 4.774334660346716, 43.952279793399931 ] ] ] ] } },
{ "type": "Feature", "properties": { "codgeo": "30011", "value": 360, "isochrone_group": 6.0, "nb_agences": 1 }, "geometry": { "type": "MultiPolygon", "coordinates": [ [ [ [ 4.72147, 43.953068 ], [ 4.713332, 43.950679 ], [ 4.7117, 43.953857 ], [ 4.711751, 43.95389 ], [ 4.711889, 43.953977 ], [ 4.714031, 43.955432 ], [ 4.71943, 43.96141 ], [ 4.720553, 43.962477 ], [ 4.724344, 43.964556 ], [ 4.726163, 43.965169 ], [ 4.730493, 43.962993 ], [ 4.730955, 43.962906 ], [ 4.733819305148733, 43.962663734252423 ], [ 4.73203, 43.962061 ], [ 4.728305, 43.96109 ], [ 4.726831, 43.96082 ], [ 4.726068, 43.960624 ], [ 4.725633, 43.960461 ], [ 4.725161, 43.960255 ], [ 4.722251, 43.958876 ], [ 4.720766, 43.958173 ], [ 4.722308, 43.95492 ], [ 4.725445, 43.955903 ], [ 4.729056779931177, 43.955674068151282 ], [ 4.723171, 43.954637 ], [ 4.721638, 43.95315 ], [ 4.72147, 43.953068 ] ] ], [ [ [ 4.746589, 43.978351 ], [ 4.74713, 43.978662 ], [ 4.749246, 43.97867 ], [ 4.750315, 43.978673 ], [ 4.75105, 43.97681 ], [ 4.75067, 43.975668 ], [ 4.750325, 43.975073 ], [ 4.755027, 43.967956 ], [ 4.75797, 43.970298 ], [ 4.759456, 43.970894 ], [ 4.762595, 43.970341 ], [ 4.769899, 43.968915 ], [ 4.770628538210765, 43.968862072718032 ], [ 4.770838363239162, 43.968275893748888 ], [ 4.769877575087636, 43.967342308344513 ], [ 4.765038, 43.967796 ], [ 4.761095, 43.969203 ], [ 4.760846, 43.969199 ], [ 4.759197, 43.969199 ], [ 4.757518, 43.967743 ], [ 4.755621, 43.966883 ], [ 4.755597, 43.966868 ], [ 4.748145, 43.971899 ], [ 4.745026, 43.973696 ], [ 4.742187, 43.970339 ], [ 4.746379, 43.978041 ], [ 4.746548, 43.978317 ], [ 4.746589, 43.978351 ] ] ], [ [ [ 4.773759, 43.942614 ], [ 4.773307, 43.942681 ], [ 4.771312, 43.943952 ], [ 4.767756, 43.946058 ], [ 4.759379, 43.946357 ], [ 4.758526, 43.945609 ], [ 4.758124, 43.945344 ], [ 4.758053, 43.945297 ], [ 4.755787, 43.945653 ], [ 4.755778, 43.945664 ], [ 4.751135, 43.952245 ], [ 4.74869, 43.952373 ], [ 4.746483, 43.952839 ], [ 4.741911, 43.953967 ], [ 4.735641, 43.954074 ], [ 4.734912, 43.954227 ], [ 4.734129, 43.954806 ], [ 4.732944637407921, 43.955427637190198 ], [ 4.733286, 43.955406 ], [ 4.736786, 43.95625 ], [ 4.743601, 43.95446 ], [ 4.743771, 43.954353 ], [ 4.744726, 43.954063 ], [ 4.749672, 43.953335 ], [ 4.757363, 43.950219 ], [ 4.758876, 43.948619 ], [ 4.762288, 43.948052 ], [ 4.762789240772835, 43.948006354362612 ], [ 4.767863, 43.946229 ], [ 4.773813513541079, 43.942636036161581 ], [ 4.773759, 43.942614 ] ] ] ] } },
{ "type": "Feature", "properties": { "codgeo": "30011", "value": 420, "isochrone_group": 7.0, "nb_agences": 1 }, "geometry": { "type": "Polygon", "coordinates": [ [ [ 4.713204, 43.964152 ], [ 4.722055, 43.965604 ], [ 4.725364, 43.967024 ], [ 4.730583, 43.965073 ], [ 4.730601, 43.965072 ], [ 4.737577, 43.966475 ], [ 4.739017, 43.975259 ], [ 4.739315, 43.978847 ], [ 4.742468, 43.980253 ], [ 4.745725, 43.987105 ], [ 4.749245, 43.987871 ], [ 4.749511, 43.987508 ], [ 4.751234, 43.985191 ], [ 4.753858, 43.982726 ], [ 4.759439, 43.981313 ], [ 4.760481, 43.977867 ], [ 4.764819, 43.971469 ], [ 4.766650723900312, 43.971173586486358 ], [ 4.766427526321681, 43.969592754855618 ], [ 4.762595, 43.970341 ], [ 4.759456, 43.970894 ], [ 4.75797, 43.970298 ], [ 4.755027, 43.967956 ], [ 4.750325, 43.975073 ], [ 4.75067, 43.975668 ], [ 4.75105, 43.97681 ], [ 4.750315, 43.978673 ], [ 4.749246, 43.97867 ], [ 4.74713, 43.978662 ], [ 4.746589, 43.978351 ], [ 4.746548, 43.978317 ], [ 4.746379, 43.978041 ], [ 4.742187, 43.970339 ], [ 4.741008, 43.968806 ], [ 4.740772, 43.968352 ], [ 4.740589, 43.967752 ], [ 4.736098, 43.962471 ], [ 4.730955, 43.962906 ], [ 4.730493, 43.962993 ], [ 4.726163, 43.965169 ], [ 4.724344, 43.964556 ], [ 4.720553, 43.962477 ], [ 4.71943, 43.96141 ], [ 4.714031, 43.955432 ], [ 4.711889, 43.953977 ], [ 4.711751, 43.95389 ], [ 4.7117, 43.953857 ], [ 4.713332, 43.950679 ], [ 4.72147, 43.953068 ], [ 4.721638, 43.95315 ], [ 4.723171, 43.954637 ], [ 4.731616, 43.956125 ], [ 4.734129, 43.954806 ], [ 4.734912, 43.954227 ], [ 4.735641, 43.954074 ], [ 4.741911, 43.953967 ], [ 4.746483, 43.952839 ], [ 4.74869, 43.952373 ], [ 4.751135, 43.952245 ], [ 4.755778, 43.945664 ], [ 4.755787, 43.945653 ], [ 4.758053, 43.945297 ], [ 4.758124, 43.945344 ], [ 4.758526, 43.945609 ], [ 4.759379, 43.946357 ], [ 4.760592131013877, 43.946313699752501 ], [ 4.761351, 43.945241 ], [ 4.760611230472257, 43.94191170892217 ], [ 4.756457, 43.942305 ], [ 4.754327, 43.942837 ], [ 4.754038, 43.943447 ], [ 4.7496, 43.95045 ], [ 4.742471, 43.95165 ], [ 4.742087, 43.951752 ], [ 4.734465, 43.952645 ], [ 4.730894, 43.953099 ], [ 4.723193, 43.950588 ], [ 4.718724, 43.951846 ], [ 4.712053, 43.947777 ], [ 4.708501, 43.948362 ], [ 4.708094, 43.948605 ], [ 4.707576, 43.952167 ], [ 4.707722, 43.954169 ], [ 4.709131, 43.957482 ], [ 4.713204, 43.964152 ] ] ] } },
{ "type": "Feature", "properties": { "codgeo": "30011", "value": 480, "isochrone_group": 8.0, "nb_agences": 1 }, "geometry": { "type": "MultiPolygon", "coordinates": [ [ [ [ 4.741712, 43.950747 ], [ 4.733569, 43.950098 ], [ 4.730387, 43.951578 ], [ 4.722981, 43.949771 ], [ 4.719382, 43.949826 ], [ 4.715142, 43.944759 ], [ 4.714974, 43.944233 ], [ 4.712024, 43.940385 ], [ 4.708549, 43.940879 ], [ 4.705315, 43.94463 ], [ 4.697906, 43.947133 ], [ 4.697398, 43.950697 ], [ 4.701069, 43.957217 ], [ 4.70546, 43.96371 ], [ 4.707479, 43.966691 ], [ 4.71274, 43.967615 ], [ 4.71537, 43.965157 ], [ 4.721887, 43.96713 ], [ 4.722491, 43.968098 ], [ 4.724229, 43.969543 ], [ 4.727464, 43.976974 ], [ 4.728235, 43.98049 ], [ 4.730802, 43.979927 ], [ 4.737668, 43.980688 ], [ 4.740653, 43.981457 ], [ 4.742892, 43.988133 ], [ 4.741732, 43.990745 ], [ 4.740012, 43.992459 ], [ 4.742553, 43.995009 ], [ 4.744273, 43.993295 ], [ 4.745992, 43.991582 ], [ 4.749413, 43.989704 ], [ 4.755276, 43.989572 ], [ 4.758633, 43.988177 ], [ 4.763677116889553, 43.98628054267288 ], [ 4.763605, 43.986159 ], [ 4.759719, 43.981396 ], [ 4.760894, 43.977993 ], [ 4.761031585459915, 43.977054956253447 ], [ 4.760481, 43.977867 ], [ 4.759439, 43.981313 ], [ 4.753858, 43.982726 ], [ 4.751234, 43.985191 ], [ 4.749511, 43.987508 ], [ 4.749245, 43.987871 ], [ 4.745725, 43.987105 ], [ 4.742468, 43.980253 ], [ 4.739315, 43.978847 ], [ 4.739017, 43.975259 ], [ 4.737577, 43.966475 ], [ 4.730601, 43.965072 ], [ 4.730583, 43.965073 ], [ 4.725364, 43.967024 ], [ 4.722055, 43.965604 ], [ 4.713204, 43.964152 ], [ 4.709131, 43.957482 ], [ 4.707722, 43.954169 ], [ 4.707576, 43.952167 ], [ 4.708094, 43.948605 ], [ 4.708501, 43.948362 ], [ 4.712053, 43.947777 ], [ 4.718724, 43.951846 ], [ 4.723193, 43.950588 ], [ 4.730894, 43.953099 ], [ 4.734465, 43.952645 ], [ 4.742087, 43.951752 ], [ 4.742471, 43.95165 ], [ 4.74555112488549, 43.951131533193632 ], [ 4.74529, 43.951139 ], [ 4.742952, 43.950583 ], [ 4.741712, 43.950747 ] ] ], [ [ [ 4.761926954113645, 43.936605527984028 ], [ 4.761940225898168, 43.936594922438026 ], [ 4.761384238887883, 43.936559226118781 ], [ 4.761926954113645, 43.936605527984028 ] ] ], [ [ [ 4.751329, 43.941054 ], [ 4.751519, 43.941736 ], [ 4.751898, 43.94248 ], [ 4.752578, 43.9435 ], [ 4.750883051792812, 43.94842539168431 ], [ 4.754038, 43.943447 ], [ 4.754327, 43.942837 ], [ 4.756340065799845, 43.942334206100703 ], [ 4.751931, 43.939721 ], [ 4.751571, 43.939542 ], [ 4.751569548592206, 43.939541071916707 ], [ 4.751127, 43.939723 ], [ 4.751329, 43.941054 ] ] ] ] } },
{ "type": "Feature", "properties": { "codgeo": "30011", "value": 540, "isochrone_group": 9.0, "nb_agences": 1 }, "geometry": { "type": "MultiPolygon", "coordinates": [ [ [ [ 4.74286, 43.948098 ], [ 4.742226, 43.948406 ], [ 4.735091, 43.948664 ], [ 4.734864, 43.948662 ], [ 4.733362, 43.948545 ], [ 4.730034, 43.948463 ], [ 4.722531, 43.94719 ], [ 4.716857, 43.941527 ], [ 4.71304, 43.933978 ], [ 4.713019, 43.933917 ], [ 4.711526, 43.933103 ], [ 4.710881, 43.932849 ], [ 4.71076, 43.932823 ], [ 4.709616, 43.935092 ], [ 4.708659, 43.939832 ], [ 4.70299, 43.944952 ], [ 4.699895, 43.945174 ], [ 4.69291, 43.945343 ], [ 4.689316, 43.945537 ], [ 4.686834, 43.945572 ], [ 4.686324, 43.949136 ], [ 4.687924, 43.949572 ], [ 4.692046, 43.951396 ], [ 4.696079, 43.955899 ], [ 4.698372, 43.956711 ], [ 4.700287, 43.965318 ], [ 4.70144, 43.968729 ], [ 4.708621, 43.969579 ], [ 4.715871, 43.970924 ], [ 4.724414109722932, 43.969968208763852 ], [ 4.724229, 43.969543 ], [ 4.722491, 43.968098 ], [ 4.721887, 43.96713 ], [ 4.71537, 43.965157 ], [ 4.71274, 43.967615 ], [ 4.707479, 43.966691 ], [ 4.70546, 43.96371 ], [ 4.701069, 43.957217 ], [ 4.697398, 43.950697 ], [ 4.697906, 43.947133 ], [ 4.705315, 43.94463 ], [ 4.708549, 43.940879 ], [ 4.712024, 43.940385 ], [ 4.714974, 43.944233 ], [ 4.715142, 43.944759 ], [ 4.719382, 43.949826 ], [ 4.722981, 43.949771 ], [ 4.730387, 43.951578 ], [ 4.733569, 43.950098 ], [ 4.741712, 43.950747 ], [ 4.742952, 43.950583 ], [ 4.74529, 43.951139 ], [ 4.746514, 43.951104 ], [ 4.749793, 43.951593 ], [ 4.751854781401804, 43.94560161871285 ], [ 4.746514, 43.948048 ], [ 4.744123, 43.947797 ], [ 4.74286, 43.948098 ] ] ], [ [ [ 4.754146, 43.935351 ], [ 4.75545, 43.935707 ], [ 4.755534889315063, 43.935664488521553 ], [ 4.753485, 43.935142 ], [ 4.754146, 43.935351 ] ] ], [ [ [ 4.75248, 43.934798 ], [ 4.753485, 43.935142 ], [ 4.751908780395125, 43.934453803571422 ], [ 4.75248, 43.934798 ] ] ], [ [ [ 4.735497, 43.992665 ], [ 4.735181, 43.99283 ], [ 4.735036, 43.992918 ], [ 4.734367, 43.994433 ], [ 4.733994, 43.9977 ], [ 4.733867, 43.998314 ], [ 4.733979, 43.999082 ], [ 4.734019, 43.999276 ], [ 4.734072, 43.999388 ], [ 4.735982, 44.000543 ], [ 4.737844, 44.001394 ], [ 4.739249, 44.001389 ], [ 4.74113, 44.000113 ], [ 4.742218, 43.999179 ], [ 4.744832, 43.99681 ], [ 4.747029, 43.993179 ], [ 4.753011, 43.992992 ], [ 4.759752, 43.994443 ], [ 4.761878, 43.996738 ], [ 4.763036334208024, 43.995665192172332 ], [ 4.762447, 43.990097 ], [ 4.76131, 43.989504 ], [ 4.760415, 43.989075 ], [ 4.759924, 43.988843 ], [ 4.759224, 43.988474 ], [ 4.758632663819462, 43.98817713969968 ], [ 4.755276, 43.989572 ], [ 4.749413, 43.989704 ], [ 4.745992, 43.991582 ], [ 4.744273, 43.993295 ], [ 4.742553, 43.995009 ], [ 4.740012, 43.992459 ], [ 4.741732, 43.990745 ], [ 4.742892, 43.988133 ], [ 4.740653, 43.981457 ], [ 4.737668, 43.980688 ], [ 4.730802, 43.979927 ], [ 4.736788, 43.981426 ], [ 4.7394, 43.987496 ], [ 4.735497, 43.992665 ] ] ], [ [ [ 4.728748732560319, 43.980377327062143 ], [ 4.728807, 43.980365 ], [ 4.730802, 43.979927 ], [ 4.728748732560319, 43.980377327062143 ] ] ], [ [ [ 4.721241, 43.979297 ], [ 4.720929, 43.980748 ], [ 4.720998, 43.980924 ], [ 4.721284, 43.981414 ], [ 4.722146, 43.98206 ], [ 4.723025, 43.982424 ], [ 4.723735, 43.982018 ], [ 4.725227, 43.981373 ], [ 4.727025, 43.980742 ], [ 4.728234164341607, 43.980486189137601 ], [ 4.727464, 43.976974 ], [ 4.724643257035359, 43.970494574661444 ], [ 4.723849, 43.978047 ], [ 4.721951, 43.978892 ], [ 4.721241, 43.979297 ] ] ] ] } },
{ "type": "Feature", "properties": { "codgeo": "30011", "value": 600, "isochrone_group": 10.0, "nb_agences": 1 }, "geometry": { "type": "MultiPolygon", "coordinates": [ [ [ [ 4.7325, 43.945621 ], [ 4.732169, 43.945414 ], [ 4.731486, 43.945392 ], [ 4.723113, 43.94509 ], [ 4.722064, 43.943558 ], [ 4.721732, 43.943637 ], [ 4.721012, 43.943969 ], [ 4.715176, 43.937277 ], [ 4.716219, 43.935624 ], [ 4.716395, 43.935352 ], [ 4.716365, 43.934175 ], [ 4.716176, 43.933704 ], [ 4.714894, 43.932277 ], [ 4.712423, 43.929216 ], [ 4.709819, 43.92673 ], [ 4.708093, 43.928465 ], [ 4.704167, 43.934157 ], [ 4.704226, 43.937757 ], [ 4.699393, 43.943401 ], [ 4.691204, 43.940075 ], [ 4.690758, 43.940054 ], [ 4.690313, 43.940077 ], [ 4.682667, 43.943906 ], [ 4.678908, 43.944652 ], [ 4.6784, 43.944733 ], [ 4.677774, 43.944889 ], [ 4.677277, 43.945057 ], [ 4.678431, 43.948467 ], [ 4.682694, 43.950379 ], [ 4.683677, 43.950988 ], [ 4.688787, 43.952684 ], [ 4.690393, 43.953436 ], [ 4.69323329074422, 43.95272165589418 ], [ 4.692046, 43.951396 ], [ 4.687924, 43.949572 ], [ 4.686324, 43.949136 ], [ 4.686834, 43.945572 ], [ 4.689316, 43.945537 ], [ 4.69291, 43.945343 ], [ 4.699895, 43.945174 ], [ 4.70299, 43.944952 ], [ 4.708659, 43.939832 ], [ 4.709616, 43.935092 ], [ 4.71076, 43.932823 ], [ 4.710881, 43.932849 ], [ 4.711526, 43.933103 ], [ 4.713019, 43.933917 ], [ 4.71304, 43.933978 ], [ 4.716857, 43.941527 ], [ 4.722531, 43.94719 ], [ 4.730034, 43.948463 ], [ 4.733362, 43.948545 ], [ 4.734864, 43.948662 ], [ 4.735091, 43.948664 ], [ 4.742226, 43.948406 ], [ 4.74286, 43.948098 ], [ 4.744123, 43.947797 ], [ 4.746514, 43.948048 ], [ 4.752149569178979, 43.945466589164226 ], [ 4.752858, 43.943824 ], [ 4.751961, 43.94258 ], [ 4.751682, 43.942107 ], [ 4.751389, 43.941316 ], [ 4.750498270306585, 43.940752076125882 ], [ 4.748929, 43.946788 ], [ 4.74545, 43.945863 ], [ 4.739403, 43.947636 ], [ 4.7325, 43.945621 ] ] ], [ [ [ 4.746091584816162, 43.930864536406894 ], [ 4.746091584816162, 43.930864536406894 ], [ 4.744478, 43.929585 ], [ 4.746091584816162, 43.930864536406894 ] ] ], [ [ [ 4.730021, 43.992449 ], [ 4.729301, 43.994571 ], [ 4.726928, 43.998641 ], [ 4.727036, 43.999761 ], [ 4.727576, 44.002182 ], [ 4.7334, 44.006785 ], [ 4.73688, 44.007706 ], [ 4.743932, 44.003815 ], [ 4.746985, 43.999912 ], [ 4.749654, 43.997496 ], [ 4.750002920393447, 43.99308603391615 ], [ 4.747029, 43.993179 ], [ 4.744832, 43.99681 ], [ 4.742218, 43.999179 ], [ 4.74113, 44.000113 ], [ 4.739249, 44.001389 ], [ 4.737844, 44.001394 ], [ 4.735982, 44.000543 ], [ 4.734072, 43.999388 ], [ 4.734019, 43.999276 ], [ 4.733979, 43.999082 ], [ 4.733867, 43.998314 ], [ 4.733994, 43.9977 ], [ 4.734367, 43.994433 ], [ 4.735036, 43.992918 ], [ 4.735181, 43.99283 ], [ 4.735497, 43.992665 ], [ 4.7394, 43.987496 ], [ 4.736788, 43.981426 ], [ 4.730802, 43.979927 ], [ 4.728807, 43.980365 ], [ 4.734949, 43.986701 ], [ 4.731303, 43.991579 ], [ 4.730504, 43.992182 ], [ 4.730021, 43.992449 ] ] ], [ [ [ 4.697279, 43.966974 ], [ 4.696112, 43.967579 ], [ 4.69403, 43.968128 ], [ 4.692408, 43.968408 ], [ 4.69302, 43.971956 ], [ 4.697338, 43.975529 ], [ 4.697636, 43.975456 ], [ 4.700098, 43.975031 ], [ 4.702385, 43.970757 ], [ 4.709986, 43.970441 ], [ 4.711408, 43.971638 ], [ 4.711762, 43.971989 ], [ 4.71647, 43.978971 ], [ 4.715379, 43.982195 ], [ 4.715369, 43.982422 ], [ 4.718838, 43.986773 ], [ 4.722434, 43.986941 ], [ 4.727025, 43.980742 ], [ 4.725227, 43.981373 ], [ 4.723735, 43.982018 ], [ 4.723025, 43.982424 ], [ 4.722146, 43.98206 ], [ 4.721284, 43.981414 ], [ 4.720998, 43.980924 ], [ 4.720929, 43.980748 ], [ 4.721241, 43.979297 ], [ 4.721951, 43.978892 ], [ 4.723849, 43.978047 ], [ 4.724702, 43.969936 ], [ 4.715871, 43.970924 ], [ 4.708621, 43.969579 ], [ 4.70144, 43.968729 ], [ 4.700291075637657, 43.965330057242014 ], [ 4.700033, 43.965422 ], [ 4.698579, 43.966148 ], [ 4.698278, 43.966321 ], [ 4.697279, 43.966974 ] ] ] ] } },
{ "type": "Feature", "properties": { "codgeo": "30011", "value": 660, "isochrone_group": 11.0, "nb_agences": 1 }, "geometry": { "type": "MultiPolygon", "coordinates": [ [ [ [ 4.739459, 43.946199 ], [ 4.73709, 43.944759 ], [ 4.736391, 43.944377 ], [ 4.735491, 43.944166 ], [ 4.734293, 43.944062 ], [ 4.731268, 43.943148 ], [ 4.723631, 43.943138 ], [ 4.721762, 43.934346 ], [ 4.721883, 43.934282 ], [ 4.722427, 43.931531 ], [ 4.722346, 43.931445 ], [ 4.721018, 43.930824 ], [ 4.715459, 43.925465 ], [ 4.715212, 43.924078 ], [ 4.714087, 43.922311 ], [ 4.713833, 43.922207 ], [ 4.707817, 43.920759 ], [ 4.707593, 43.920643 ], [ 4.706541, 43.920615 ], [ 4.70653, 43.920618 ], [ 4.706177, 43.920751 ], [ 4.706112, 43.920788 ], [ 4.705942, 43.923842 ], [ 4.705825, 43.930695 ], [ 4.699745, 43.934054 ], [ 4.69912, 43.934089 ], [ 4.698385, 43.93427 ], [ 4.697528, 43.934736 ], [ 4.690403, 43.937287 ], [ 4.689167, 43.937774 ], [ 4.686227, 43.938821 ], [ 4.686066, 43.938878 ], [ 4.682191, 43.940205 ], [ 4.681136, 43.940925 ], [ 4.679901, 43.942296 ], [ 4.67645, 43.945449 ], [ 4.669371, 43.947469 ], [ 4.668274, 43.947604 ], [ 4.666394, 43.950042 ], [ 4.66757, 43.953444 ], [ 4.667746, 43.953429 ], [ 4.668791, 43.95307 ], [ 4.67306, 43.952361 ], [ 4.673523, 43.952304 ], [ 4.673845, 43.952236 ], [ 4.674027, 43.95219 ], [ 4.674488, 43.952032 ], [ 4.675124, 43.95172 ], [ 4.683036, 43.955389 ], [ 4.683163, 43.956024 ], [ 4.683362, 43.956603 ], [ 4.683563, 43.957035 ], [ 4.683775, 43.957561 ], [ 4.687113, 43.956212 ], [ 4.691989, 43.957735 ], [ 4.693007, 43.965951 ], [ 4.69256, 43.966567 ], [ 4.687109, 43.968969 ], [ 4.686602, 43.969623 ], [ 4.686499, 43.969747 ], [ 4.686365, 43.970022 ], [ 4.686182, 43.970987 ], [ 4.686077, 43.97196 ], [ 4.686348, 43.972476 ], [ 4.690787, 43.975992 ], [ 4.692429, 43.977044 ], [ 4.697952, 43.977912 ], [ 4.69890037801385, 43.975237738157645 ], [ 4.697636, 43.975456 ], [ 4.697338, 43.975529 ], [ 4.69302, 43.971956 ], [ 4.692408, 43.968408 ], [ 4.69403, 43.968128 ], [ 4.696112, 43.967579 ], [ 4.697279, 43.966974 ], [ 4.698278, 43.966321 ], [ 4.698579, 43.966148 ], [ 4.700033, 43.965422 ], [ 4.701007, 43.965075 ], [ 4.702103, 43.964835 ], [ 4.707938, 43.959806 ], [ 4.707907864324618, 43.95973045838452 ], [ 4.706281, 43.957543 ], [ 4.706053982693483, 43.955083301433149 ], [ 4.705035, 43.952529 ], [ 4.702448, 43.951424 ], [ 4.699364, 43.950977 ], [ 4.693884, 43.952558 ], [ 4.690393, 43.953436 ], [ 4.688787, 43.952684 ], [ 4.683677, 43.950988 ], [ 4.682694, 43.950379 ], [ 4.678431, 43.948467 ], [ 4.677277, 43.945057 ], [ 4.677774, 43.944889 ], [ 4.6784, 43.944733 ], [ 4.678908, 43.944652 ], [ 4.682667, 43.943906 ], [ 4.690313, 43.940077 ], [ 4.690758, 43.940054 ], [ 4.691204, 43.940075 ], [ 4.699393, 43.943401 ], [ 4.704226, 43.937757 ], [ 4.704167, 43.934157 ], [ 4.708093, 43.928465 ], [ 4.709819, 43.92673 ], [ 4.712423, 43.929216 ], [ 4.714894, 43.932277 ], [ 4.716176, 43.933704 ], [ 4.716365, 43.934175 ], [ 4.716395, 43.935352 ], [ 4.716219, 43.935624 ], [ 4.715176, 43.937277 ], [ 4.721012, 43.943969 ], [ 4.721732, 43.943637 ], [ 4.722064, 43.943558 ], [ 4.723113, 43.94509 ], [ 4.731486, 43.945392 ], [ 4.732169, 43.945414 ], [ 4.7325, 43.945621 ], [ 4.739403, 43.947636 ], [ 4.74545, 43.945863 ], [ 4.748929, 43.946788 ], [ 4.750498270306585, 43.940752076125882 ], [ 4.744, 43.936638 ], [ 4.743126, 43.936728 ], [ 4.746344, 43.943908 ], [ 4.742364, 43.94619 ], [ 4.739459, 43.946199 ] ] ], [ [ [ 4.728307066221962, 43.914177158935672 ], [ 4.727697, 43.913277 ], [ 4.727696756750644, 43.913277164968783 ], [ 4.728307066221962, 43.914177158935672 ] ] ], [ [ [ 4.710163, 43.982719 ], [ 4.710855, 43.984022 ], [ 4.714953, 43.990785 ], [ 4.719072, 43.998649 ], [ 4.718674, 43.999409 ], [ 4.718355, 44.00048 ], [ 4.718617, 44.003008 ], [ 4.723714, 44.004802 ], [ 4.730504, 44.010258 ], [ 4.734524, 44.0138 ], [ 4.742158, 44.009158 ], [ 4.742237, 44.009128 ], [ 4.744289, 44.007692 ], [ 4.744627, 44.007234 ], [ 4.750032, 44.003299 ], [ 4.75461200562015, 44.002816147987247 ], [ 4.753488, 44.000204 ], [ 4.75415, 43.992551 ], [ 4.753981612127056, 43.992509838519965 ], [ 4.750014, 43.992946 ], [ 4.749654, 43.997496 ], [ 4.746985, 43.999912 ], [ 4.743932, 44.003815 ], [ 4.73688, 44.007706 ], [ 4.7334, 44.006785 ], [ 4.727576, 44.002182 ], [ 4.727036, 43.999761 ], [ 4.726928, 43.998641 ], [ 4.729301, 43.994571 ], [ 4.730021, 43.992449 ], [ 4.730504, 43.992182 ], [ 4.731303, 43.991579 ], [ 4.734949, 43.986701 ], [ 4.728807, 43.980365 ], [ 4.727025, 43.980742 ], [ 4.722434, 43.986941 ], [ 4.718838, 43.986773 ], [ 4.715369, 43.982422 ], [ 4.715379, 43.982195 ], [ 4.71647, 43.978971 ], [ 4.711762, 43.971989 ], [ 4.711408, 43.971638 ], [ 4.709986, 43.970441 ], [ 4.702385, 43.970757 ], [ 4.700585719230247, 43.974119538701324 ], [ 4.706989, 43.97314 ], [ 4.710287, 43.980467 ], [ 4.710216, 43.982043 ], [ 4.710163, 43.982719 ] ] ] ] } },
{ "type": "Feature", "properties": { "codgeo": "30011", "value": 720, "isochrone_group": 12.0, "nb_agences": 1 }, "geometry": { "type": "MultiPolygon", "coordinates": [ [ [ [ 4.682233, 43.938736 ], [ 4.681445, 43.938947 ], [ 4.680543, 43.939632 ], [ 4.679451, 43.940439 ], [ 4.676285, 43.942333 ], [ 4.669853, 43.944122 ], [ 4.666595, 43.945654 ], [ 4.661323, 43.951841 ], [ 4.659195, 43.952582 ], [ 4.658376058232781, 43.952867167222522 ], [ 4.65956, 43.956267 ], [ 4.658288496636795, 43.957247605914787 ], [ 4.664775, 43.956597 ], [ 4.666095, 43.956736 ], [ 4.666658, 43.956166 ], [ 4.667502, 43.955191 ], [ 4.672141623196998, 43.952513524983225 ], [ 4.668791, 43.95307 ], [ 4.667746, 43.953429 ], [ 4.66757, 43.953444 ], [ 4.666394, 43.950042 ], [ 4.668274, 43.947604 ], [ 4.669371, 43.947469 ], [ 4.67645, 43.945449 ], [ 4.679901, 43.942296 ], [ 4.681136, 43.940925 ], [ 4.682191, 43.940205 ], [ 4.686066, 43.938878 ], [ 4.686227, 43.938821 ], [ 4.689167, 43.937774 ], [ 4.690403, 43.937287 ], [ 4.697528, 43.934736 ], [ 4.698385, 43.93427 ], [ 4.695763, 43.934714 ], [ 4.692004, 43.936451 ], [ 4.691233, 43.936695 ], [ 4.691126, 43.936731 ], [ 4.685077, 43.938263 ], [ 4.682233, 43.938736 ] ] ], [ [ [ 4.722241, 43.907541 ], [ 4.722240178313977, 43.907542388752475 ], [ 4.722698, 43.907811 ], [ 4.722241, 43.907541 ] ] ], [ [ [ 4.708487, 43.916177 ], [ 4.705612, 43.916083 ], [ 4.70489, 43.916334 ], [ 4.703655, 43.92093 ], [ 4.703206, 43.922684 ], [ 4.703746, 43.930521 ], [ 4.69912, 43.934089 ], [ 4.699745, 43.934054 ], [ 4.705825, 43.930695 ], [ 4.705942, 43.923842 ], [ 4.706112, 43.920788 ], [ 4.706177, 43.920751 ], [ 4.70653, 43.920618 ], [ 4.706541, 43.920615 ], [ 4.707593, 43.920643 ], [ 4.707817, 43.920759 ], [ 4.713833, 43.922207 ], [ 4.714087, 43.922311 ], [ 4.715212, 43.924078 ], [ 4.715459, 43.925465 ], [ 4.721018, 43.930824 ], [ 4.722346, 43.931445 ], [ 4.722427, 43.931531 ], [ 4.721883, 43.934282 ], [ 4.721762, 43.934346 ], [ 4.723631, 43.943138 ], [ 4.731268, 43.943148 ], [ 4.734293, 43.944062 ], [ 4.735491, 43.944166 ], [ 4.736391, 43.944377 ], [ 4.73709, 43.944759 ], [ 4.739459, 43.946199 ], [ 4.742364, 43.94619 ], [ 4.746344, 43.943908 ], [ 4.74417915538208, 43.939077799764867 ], [ 4.743875, 43.938955 ], [ 4.74292, 43.938927 ], [ 4.741632, 43.938428 ], [ 4.741365, 43.938363 ], [ 4.740182, 43.938186 ], [ 4.739783, 43.937999 ], [ 4.739492, 43.937826 ], [ 4.738696, 43.935319 ], [ 4.735687, 43.927774 ], [ 4.73428, 43.926929 ], [ 4.733245, 43.926332 ], [ 4.732018, 43.925556 ], [ 4.731466, 43.925161 ], [ 4.727094, 43.922904 ], [ 4.72366, 43.922027 ], [ 4.722679, 43.921959 ], [ 4.721418, 43.921205 ], [ 4.719558683836074, 43.919414710581492 ], [ 4.71438, 43.920447 ], [ 4.710176, 43.918253 ], [ 4.709612, 43.917716 ], [ 4.708487, 43.916177 ] ] ], [ [ [ 4.682094, 43.9703 ], [ 4.681637, 43.975645 ], [ 4.685725, 43.978715 ], [ 4.68615, 43.978756 ], [ 4.690422, 43.979083 ], [ 4.696747, 43.982081 ], [ 4.697762, 43.9826 ], [ 4.70395, 43.983254 ], [ 4.707995, 43.987348 ], [ 4.708297, 43.987886 ], [ 4.708669, 43.988459 ], [ 4.709601, 43.990069 ], [ 4.710256, 43.990241 ], [ 4.712908, 43.991544 ], [ 4.712362, 43.999452 ], [ 4.711541, 44.00035 ], [ 4.71105, 44.000966 ], [ 4.710972, 44.001122 ], [ 4.71215, 44.003651 ], [ 4.712279, 44.003806 ], [ 4.712569, 44.00411 ], [ 4.716556, 44.008169 ], [ 4.716782, 44.00836 ], [ 4.72146, 44.0122 ], [ 4.723885, 44.012444 ], [ 4.73141, 44.014757 ], [ 4.736665, 44.015486 ], [ 4.739598, 44.019379 ], [ 4.742989, 44.020589 ], [ 4.74307, 44.020362 ], [ 4.747757380434, 44.015473710253168 ], [ 4.742821, 44.010873 ], [ 4.740505857364119, 44.010162616991856 ], [ 4.734524, 44.0138 ], [ 4.730504, 44.010258 ], [ 4.723714, 44.004802 ], [ 4.718617, 44.003008 ], [ 4.718355, 44.00048 ], [ 4.718674, 43.999409 ], [ 4.719072, 43.998649 ], [ 4.714953, 43.990785 ], [ 4.710855, 43.984022 ], [ 4.710163, 43.982719 ], [ 4.710216, 43.982043 ], [ 4.710287, 43.980467 ], [ 4.706989, 43.97314 ], [ 4.699223, 43.974328 ], [ 4.697952, 43.977912 ], [ 4.692429, 43.977044 ], [ 4.690787, 43.975992 ], [ 4.686348, 43.972476 ], [ 4.686077, 43.97196 ], [ 4.686182, 43.970987 ], [ 4.686365, 43.970022 ], [ 4.686499, 43.969747 ], [ 4.686602, 43.969623 ], [ 4.687109, 43.968969 ], [ 4.69256, 43.966567 ], [ 4.693007, 43.965951 ], [ 4.691989, 43.957735 ], [ 4.687113, 43.956212 ], [ 4.683775, 43.957561 ], [ 4.683563, 43.957035 ], [ 4.683362, 43.956603 ], [ 4.683163, 43.956024 ], [ 4.683036, 43.955389 ], [ 4.675124, 43.95172 ], [ 4.674488, 43.952032 ], [ 4.674027, 43.95219 ], [ 4.673845, 43.952236 ], [ 4.673523, 43.952304 ], [ 4.67306, 43.952361 ], [ 4.672470416485933, 43.952458918648738 ], [ 4.678324, 43.957201 ], [ 4.67841, 43.957488 ], [ 4.679894, 43.958881 ], [ 4.68309, 43.96684 ], [ 4.68204, 43.969629 ], [ 4.682094, 43.9703 ] ] ] ] } },
{ "type": "Feature", "properties": { "codgeo": "30011", "value": 780, "isochrone_group": 13.0, "nb_agences": 1 }, "geometry": { "type": "MultiPolygon", "coordinates": [ [ [ [ 4.700636, 43.922224 ], [ 4.701931, 43.927223 ], [ 4.695988, 43.932057 ], [ 4.695833, 43.932295 ], [ 4.687212, 43.934699 ], [ 4.686446, 43.934659 ], [ 4.680175, 43.937487 ], [ 4.676401, 43.939488 ], [ 4.66859, 43.940068 ], [ 4.665102, 43.940956 ], [ 4.662257442409356, 43.949168835461116 ], [ 4.663515687073893, 43.949267753617953 ], [ 4.666595, 43.945654 ], [ 4.669853, 43.944122 ], [ 4.676285, 43.942333 ], [ 4.679451, 43.940439 ], [ 4.680543, 43.939632 ], [ 4.681445, 43.938947 ], [ 4.682233, 43.938736 ], [ 4.685077, 43.938263 ], [ 4.691126, 43.936731 ], [ 4.691233, 43.936695 ], [ 4.692004, 43.936451 ], [ 4.695763, 43.934714 ], [ 4.698385, 43.93427 ], [ 4.69912, 43.934089 ], [ 4.703746, 43.930521 ], [ 4.703206, 43.922684 ], [ 4.703655, 43.92093 ], [ 4.70489, 43.916334 ], [ 4.705612, 43.916083 ], [ 4.708487, 43.916177 ], [ 4.709612, 43.917716 ], [ 4.710176, 43.918253 ], [ 4.71438, 43.920447 ], [ 4.716754004753722, 43.91997377937787 ], [ 4.715294, 43.918446 ], [ 4.710894, 43.913674 ], [ 4.710474, 43.913415 ], [ 4.70989, 43.913019 ], [ 4.709884253615646, 43.913009653189341 ], [ 4.709764, 43.912927 ], [ 4.70939, 43.912619 ], [ 4.707895, 43.911396 ], [ 4.707588, 43.911103 ], [ 4.706665, 43.910103 ], [ 4.704916726198335, 43.908092923088674 ], [ 4.703555, 43.910623 ], [ 4.703494, 43.910751 ], [ 4.701213, 43.91867 ], [ 4.700636, 43.922224 ] ] ], [ [ [ 4.722240178313977, 43.907542388752475 ], [ 4.722156, 43.907493 ], [ 4.722240178313976, 43.907542388752475 ], [ 4.722240178313977, 43.907542388752475 ] ] ], [ [ [ 4.67408, 43.970238 ], [ 4.67886, 43.97662 ], [ 4.680035, 43.977881 ], [ 4.681513, 43.979522 ], [ 4.683772, 43.980923 ], [ 4.685529, 43.981617 ], [ 4.689787, 43.980731 ], [ 4.694693, 43.983214 ], [ 4.696959, 43.984226 ], [ 4.697344, 43.984414 ], [ 4.697953, 43.984605 ], [ 4.702628, 43.986226 ], [ 4.705483, 43.987642 ], [ 4.709457, 43.994752 ], [ 4.709799, 43.995344 ], [ 4.70987, 44.004137 ], [ 4.708438, 44.006658 ], [ 4.708332, 44.006818 ], [ 4.708237, 44.00748 ], [ 4.708196, 44.008287 ], [ 4.708457, 44.008667 ], [ 4.712119, 44.011987 ], [ 4.712837, 44.012394 ], [ 4.720211, 44.016894 ], [ 4.723184, 44.019442 ], [ 4.726065, 44.018567 ], [ 4.7349, 44.019629 ], [ 4.7363, 44.023908 ], [ 4.739229, 44.026001 ], [ 4.745602, 44.025299 ], [ 4.747088, 44.02202 ], [ 4.752706732425745, 44.016335933476292 ], [ 4.749877, 44.017459 ], [ 4.746757, 44.016614 ], [ 4.746726678311305, 44.016548590069156 ], [ 4.74307, 44.020362 ], [ 4.742989, 44.020589 ], [ 4.739598, 44.019379 ], [ 4.736665, 44.015486 ], [ 4.73141, 44.014757 ], [ 4.723885, 44.012444 ], [ 4.72146, 44.0122 ], [ 4.716782, 44.00836 ], [ 4.716556, 44.008169 ], [ 4.712569, 44.00411 ], [ 4.712279, 44.003806 ], [ 4.71215, 44.003651 ], [ 4.710972, 44.001122 ], [ 4.71105, 44.000966 ], [ 4.711541, 44.00035 ], [ 4.712362, 43.999452 ], [ 4.712908, 43.991544 ], [ 4.710256, 43.990241 ], [ 4.709601, 43.990069 ], [ 4.708669, 43.988459 ], [ 4.708297, 43.987886 ], [ 4.707995, 43.987348 ], [ 4.70395, 43.983254 ], [ 4.697762, 43.9826 ], [ 4.696747, 43.982081 ], [ 4.690422, 43.979083 ], [ 4.68615, 43.978756 ], [ 4.685725, 43.978715 ], [ 4.681637, 43.975645 ], [ 4.682094, 43.9703 ], [ 4.68204, 43.969629 ], [ 4.68309, 43.96684 ], [ 4.679894, 43.958881 ], [ 4.67841, 43.957488 ], [ 4.678324, 43.957201 ], [ 4.672373, 43.95238 ], [ 4.668662807086245, 43.954521111123086 ], [ 4.66834662460412, 43.958100216264725 ], [ 4.668594, 43.957781 ], [ 4.677033, 43.959371 ], [ 4.676088, 43.96725 ], [ 4.675535, 43.968291 ], [ 4.67408, 43.970238 ] ] ] ] } },
{ "type": "Feature", "properties": { "codgeo": "30011", "value": 840, "isochrone_group": 14.0, "nb_agences": 1 }, "geometry": { "type": "MultiPolygon", "coordinates": [ [ [ [ 4.698932, 43.929421 ], [ 4.695013, 43.930185 ], [ 4.694297, 43.930202 ], [ 4.688599, 43.933046 ], [ 4.679954, 43.932865 ], [ 4.679085, 43.932963 ], [ 4.67287, 43.937414 ], [ 4.664463, 43.936847 ], [ 4.663591, 43.936787 ], [ 4.663135, 43.936796 ], [ 4.662922, 43.936856 ], [ 4.660746, 43.94081 ], [ 4.658051994175061, 43.943141721036206 ], [ 4.660547, 43.948143 ], [ 4.662729498316766, 43.947805910868297 ], [ 4.665102, 43.940956 ], [ 4.66859, 43.940068 ], [ 4.676401, 43.939488 ], [ 4.680175, 43.937487 ], [ 4.686446, 43.934659 ], [ 4.687212, 43.934699 ], [ 4.695833, 43.932295 ], [ 4.695988, 43.932057 ], [ 4.701931, 43.927223 ], [ 4.700636, 43.922224 ], [ 4.701213, 43.91867 ], [ 4.703317038509143, 43.91136536126529 ], [ 4.703179, 43.909927 ], [ 4.69852, 43.902771 ], [ 4.702017, 43.908483 ], [ 4.700151, 43.917165 ], [ 4.700489, 43.922198 ], [ 4.698932, 43.929421 ] ] ], [ [ [ 4.677942, 43.978853 ], [ 4.67879, 43.979465 ], [ 4.681608, 43.98128 ], [ 4.68485, 43.983028 ], [ 4.685053, 43.983109 ], [ 4.685556, 43.983232 ], [ 4.686034, 43.983244 ], [ 4.694315, 43.984903 ], [ 4.69714, 43.986181 ], [ 4.697245, 43.986201 ], [ 4.698373, 43.986091 ], [ 4.70427, 43.988545 ], [ 4.704671, 43.992811 ], [ 4.70445, 43.994011 ], [ 4.705116, 43.99538 ], [ 4.704503138901469, 43.999659787738217 ], [ 4.707943, 44.002802 ], [ 4.709251, 44.003859 ], [ 4.709769628264216, 44.004313701917539 ], [ 4.70987, 44.004137 ], [ 4.709799, 43.995344 ], [ 4.709457, 43.994752 ], [ 4.705483, 43.987642 ], [ 4.702628, 43.986226 ], [ 4.697953, 43.984605 ], [ 4.697344, 43.984414 ], [ 4.696959, 43.984226 ], [ 4.694693, 43.983214 ], [ 4.689787, 43.980731 ], [ 4.685529, 43.981617 ], [ 4.683772, 43.980923 ], [ 4.681513, 43.979522 ], [ 4.680035, 43.977881 ], [ 4.67886, 43.97662 ], [ 4.67408, 43.970238 ], [ 4.675535, 43.968291 ], [ 4.676088, 43.96725 ], [ 4.677033, 43.959371 ], [ 4.668594, 43.957781 ], [ 4.666926399203636, 43.959932892654251 ], [ 4.671047, 43.963518 ], [ 4.673466, 43.964213 ], [ 4.674863, 43.966492 ], [ 4.673301, 43.969735 ], [ 4.673082, 43.96963 ], [ 4.668621954540073, 43.968265383494987 ], [ 4.669835, 43.970837 ], [ 4.670047, 43.971561 ], [ 4.677, 43.975736 ], [ 4.677879, 43.978713 ], [ 4.677942, 43.978853 ] ] ], [ [ [ 4.709232, 44.013734 ], [ 4.715567, 44.017849 ], [ 4.716111, 44.021996 ], [ 4.719213, 44.023824 ], [ 4.720326, 44.022505 ], [ 4.721234, 44.021401 ], [ 4.72152, 44.021115 ], [ 4.722349, 44.020413 ], [ 4.723181, 44.019442 ], [ 4.731441, 44.020821 ], [ 4.733448, 44.026863 ], [ 4.733476, 44.027178 ], [ 4.733629, 44.027805 ], [ 4.733983, 44.029574 ], [ 4.734568, 44.032425 ], [ 4.734759, 44.032512 ], [ 4.736553, 44.032095 ], [ 4.7366, 44.032047 ], [ 4.736913, 44.03168 ], [ 4.744031, 44.0273 ], [ 4.746495, 44.027133 ], [ 4.751539, 44.028488 ], [ 4.752129, 44.028761 ], [ 4.752643, 44.028964 ], [ 4.753395, 44.029213 ], [ 4.754982, 44.029669 ], [ 4.756108, 44.02625 ], [ 4.756312295566506, 44.021045935256758 ], [ 4.752874, 44.019543 ], [ 4.752049, 44.019581 ], [ 4.749496097510894, 44.019583901355269 ], [ 4.747088, 44.02202 ], [ 4.745602, 44.025299 ], [ 4.739229, 44.026001 ], [ 4.7363, 44.023908 ], [ 4.7349, 44.019629 ], [ 4.726065, 44.018567 ], [ 4.723184, 44.019442 ], [ 4.720211, 44.016894 ], [ 4.712837, 44.012394 ], [ 4.712119, 44.011987 ], [ 4.708457, 44.008667 ], [ 4.708196, 44.008287 ], [ 4.708222387791348, 44.007767611033714 ], [ 4.707799, 44.007371 ], [ 4.704083300541076, 44.004767166452169 ], [ 4.70478, 44.009127 ], [ 4.70513, 44.012709 ], [ 4.706524, 44.013788 ], [ 4.706691, 44.013821 ], [ 4.709232, 44.013734 ] ] ] ] } },
{ "type": "Feature", "properties": { "codgeo": "30011", "value": 900, "isochrone_group": 15.0, "nb_agences": 1 }, "geometry": { "type": "MultiPolygon", "coordinates": [ [ [ [ 4.67289, 43.933402 ], [ 4.669377, 43.934187 ], [ 4.661256, 43.933272 ], [ 4.660467, 43.93278 ], [ 4.658561, 43.935834 ], [ 4.657865747907596, 43.936099301816881 ], [ 4.660793, 43.940697 ], [ 4.660806790859679, 43.940699537197091 ], [ 4.662922, 43.936856 ], [ 4.663135, 43.936796 ], [ 4.663591, 43.936787 ], [ 4.664463, 43.936847 ], [ 4.67287, 43.937414 ], [ 4.679085, 43.932963 ], [ 4.679954, 43.932865 ], [ 4.688599, 43.933046 ], [ 4.694297, 43.930202 ], [ 4.695013, 43.930185 ], [ 4.698932, 43.929421 ], [ 4.700489, 43.922198 ], [ 4.695598, 43.925883 ], [ 4.691223, 43.929815 ], [ 4.686488, 43.931471 ], [ 4.680556, 43.930522 ], [ 4.680324, 43.930507 ], [ 4.679437, 43.930649 ], [ 4.67289, 43.933402 ] ] ], [ [ [ 4.67879, 43.979465 ], [ 4.677942, 43.978853 ], [ 4.677879, 43.978713 ], [ 4.677, 43.975736 ], [ 4.670068550171876, 43.971573940021244 ], [ 4.669505056234727, 43.976850458303105 ], [ 4.67553, 43.978907 ], [ 4.675807, 43.979381 ], [ 4.677812, 43.979686 ], [ 4.679076, 43.979799 ], [ 4.679503680042163, 43.979924662624732 ], [ 4.67879, 43.979465 ] ] ], [ [ [ 4.700489, 43.922198 ], [ 4.700151, 43.917165 ], [ 4.701629379434182, 43.910286495044161 ], [ 4.701556944129873, 43.910198597588348 ], [ 4.701459, 43.910655 ], [ 4.699752, 43.913756 ], [ 4.697728, 43.915733 ], [ 4.697696, 43.915859 ], [ 4.697653, 43.916503 ], [ 4.700489, 43.922198 ] ] ], [ [ [ 4.730236, 44.039609 ], [ 4.735414, 44.035624 ], [ 4.740046, 44.031629 ], [ 4.748724, 44.031389 ], [ 4.750612, 44.032733 ], [ 4.751996, 44.032673 ], [ 4.753041548739778, 44.032822628251154 ], [ 4.752848, 44.032749 ], [ 4.750251, 44.031757 ], [ 4.749422, 44.03143 ], [ 4.747914, 44.030793 ], [ 4.746712, 44.030265 ], [ 4.744374, 44.029139 ], [ 4.743034, 44.028441 ], [ 4.742582565168044, 44.028191281899964 ], [ 4.736913, 44.03168 ], [ 4.7366, 44.032047 ], [ 4.736553, 44.032095 ], [ 4.734759, 44.032512 ], [ 4.734568, 44.032425 ], [ 4.733983, 44.029574 ], [ 4.733629, 44.027805 ], [ 4.733476, 44.027178 ], [ 4.733448, 44.026863 ], [ 4.731441, 44.020821 ], [ 4.73058, 44.025521 ], [ 4.73015, 44.026201 ], [ 4.729488, 44.034178 ], [ 4.729102, 44.034652 ], [ 4.728589, 44.03539 ], [ 4.727161, 44.037738 ], [ 4.730236, 44.039609 ] ] ], [ [ [ 4.761486, 44.028042 ], [ 4.762710557251717, 44.024399704486221 ], [ 4.762244, 44.024156 ], [ 4.761646, 44.023742 ], [ 4.760531, 44.02289 ], [ 4.756259035857314, 44.022402631241839 ], [ 4.756108, 44.02625 ], [ 4.754982, 44.029669 ], [ 4.75455244015179, 44.029545572595588 ], [ 4.756508, 44.03029 ], [ 4.757463, 44.030694 ], [ 4.759096, 44.031451 ], [ 4.76024, 44.032105 ], [ 4.761478, 44.032909 ], [ 4.762405, 44.03365 ], [ 4.762959418158138, 44.034146653860226 ], [ 4.764009, 44.033224 ], [ 4.762643, 44.030221 ], [ 4.761486, 44.028042 ] ] ], [ [ [ 4.700165, 43.996734 ], [ 4.700158074175044, 43.996865162272641 ], [ 4.703827, 43.997685 ], [ 4.704012, 43.99779 ], [ 4.704408, 43.998091 ], [ 4.704683012926054, 43.998403674980032 ], [ 4.705116, 43.99538 ], [ 4.70445, 43.994011 ], [ 4.704671, 43.992811 ], [ 4.70427, 43.988545 ], [ 4.698373, 43.986091 ], [ 4.697245, 43.986201 ], [ 4.69714, 43.986181 ], [ 4.694315, 43.984903 ], [ 4.688116592551141, 43.983661222683537 ], [ 4.690474, 43.986341 ], [ 4.691389, 43.986602 ], [ 4.692003, 43.986676 ], [ 4.693125, 43.986457 ], [ 4.693888, 43.986083 ], [ 4.69906, 43.993307 ], [ 4.700165, 43.996734 ] ] ], [ [ [ 4.700076, 44.014519 ], [ 4.702757, 44.014361 ], [ 4.707447, 44.015025 ], [ 4.709908, 44.023588 ], [ 4.712864, 44.025643 ], [ 4.717052, 44.026285 ], [ 4.717872, 44.026344 ], [ 4.718687, 44.024688 ], [ 4.719211456116784, 44.023823090193922 ], [ 4.716111, 44.021996 ], [ 4.715567, 44.017849 ], [ 4.709232, 44.013734 ], [ 4.706691, 44.013821 ], [ 4.706524, 44.013788 ], [ 4.70513, 44.012709 ], [ 4.70478, 44.009127 ], [ 4.704083300541076, 44.004767166452169 ], [ 4.701005, 44.00261 ], [ 4.699885230779747, 44.002032309872241 ], [ 4.699777, 44.004082 ], [ 4.697626, 44.010093 ], [ 4.696664, 44.012359 ], [ 4.696669, 44.012522 ], [ 4.698267, 44.014143 ], [ 4.700076, 44.014519 ] ] ] ] } },
{ "type": "Feature", "properties": { "codgeo": "30011", "value": 960, "isochrone_group": 16.0, "nb_agences": 1 }, "geometry": { "type": "MultiPolygon", "coordinates": [ [ [ [ 4.672056, 43.929699 ], [ 4.667008, 43.930476 ], [ 4.662496799552783, 43.931898742847245 ], [ 4.662472, 43.932301 ], [ 4.663344460819422, 43.933507308662691 ], [ 4.669377, 43.934187 ], [ 4.67289, 43.933402 ], [ 4.676342736584145, 43.931950131385953 ], [ 4.672056, 43.929699 ] ] ], [ [ [ 4.694563, 43.925817 ], [ 4.69409, 43.925752 ], [ 4.689092, 43.930142 ], [ 4.684580064049922, 43.931165768844131 ], [ 4.686488, 43.931471 ], [ 4.691223, 43.929815 ], [ 4.695598, 43.925883 ], [ 4.700489, 43.922198 ], [ 4.694563, 43.925817 ] ] ], [ [ [ 4.697696, 43.915859 ], [ 4.697728, 43.915733 ], [ 4.699752, 43.913756 ], [ 4.700538015438694, 43.912328094976345 ], [ 4.697444028641613, 43.910216341540476 ], [ 4.697868, 43.911949 ], [ 4.697504, 43.913446 ], [ 4.697331, 43.914218 ], [ 4.697418, 43.915514 ], [ 4.697676927998291, 43.916144636490699 ], [ 4.697696, 43.915859 ] ] ], [ [ [ 4.721653, 44.046514 ], [ 4.724398, 44.045438 ], [ 4.731354, 44.043759 ], [ 4.735871, 44.040075 ], [ 4.736737, 44.03903 ], [ 4.738114, 44.037258 ], [ 4.744087, 44.034408 ], [ 4.747198, 44.035918 ], [ 4.748448, 44.036898 ], [ 4.748959, 44.036786 ], [ 4.755935, 44.035116 ], [ 4.76047528562354, 44.036751285632349 ], [ 4.760135, 44.036444 ], [ 4.758437, 44.035221 ], [ 4.75758, 44.034717 ], [ 4.756054, 44.034007 ], [ 4.755227, 44.033654 ], [ 4.753041548739778, 44.032822628251154 ], [ 4.751996, 44.032673 ], [ 4.750612, 44.032733 ], [ 4.748724, 44.031389 ], [ 4.740046, 44.031629 ], [ 4.735414, 44.035624 ], [ 4.730236, 44.039609 ], [ 4.72716822678519, 44.037742397175634 ], [ 4.727067, 44.03791 ], [ 4.726473, 44.038711 ], [ 4.726092, 44.039135 ], [ 4.72579, 44.039443 ], [ 4.724648, 44.040425 ], [ 4.722256, 44.041943 ], [ 4.721587, 44.042368 ], [ 4.719817, 44.043417 ], [ 4.721653, 44.046514 ] ] ], [ [ [ 4.770093, 44.04143 ], [ 4.769862, 44.039405 ], [ 4.769578, 44.034168 ], [ 4.768168, 44.031255 ], [ 4.766095, 44.030912 ], [ 4.765651, 44.030778 ], [ 4.764275, 44.030533 ], [ 4.762993, 44.030314 ], [ 4.762576784954274, 44.030096295951054 ], [ 4.762643, 44.030221 ], [ 4.764009, 44.033224 ], [ 4.762959418158138, 44.034146653860226 ], [ 4.763336, 44.034484 ], [ 4.764323, 44.035548 ], [ 4.765226, 44.036744 ], [ 4.765844, 44.037768 ], [ 4.766268, 44.038655 ], [ 4.766528, 44.039302 ], [ 4.766734, 44.040007 ], [ 4.766938, 44.040924 ], [ 4.767035, 44.041773 ], [ 4.767042759161504, 44.042000731390154 ], [ 4.768041, 44.042511 ], [ 4.770035, 44.041557 ], [ 4.770093, 44.04143 ] ] ], [ [ [ 4.728589, 44.03539 ], [ 4.729102, 44.034652 ], [ 4.729488, 44.034178 ], [ 4.729733375083663, 44.031221267307593 ], [ 4.728589, 44.03539 ] ] ], [ [ [ 4.72152, 44.021115 ], [ 4.721234, 44.021401 ], [ 4.720326, 44.022505 ], [ 4.720095342467379, 44.022776950653295 ], [ 4.728362, 44.026086 ], [ 4.729209, 44.028273 ], [ 4.729810051982358, 44.030297322260928 ], [ 4.73015, 44.026201 ], [ 4.73058, 44.025521 ], [ 4.731080648796014, 44.022788073935821 ], [ 4.729711197503271, 44.020532210939095 ], [ 4.723181, 44.019442 ], [ 4.722349, 44.020413 ], [ 4.72152, 44.021115 ] ] ], [ [ [ 4.694782, 44.015503 ], [ 4.698212, 44.016595 ], [ 4.703759, 44.022744 ], [ 4.7039, 44.025056 ], [ 4.70456, 44.025133 ], [ 4.708376, 44.025569 ], [ 4.71366, 44.029251 ], [ 4.717196, 44.029925 ], [ 4.71741, 44.028802 ], [ 4.717547, 44.02787 ], [ 4.717831, 44.026563 ], [ 4.718687, 44.024688 ], [ 4.717872, 44.026344 ], [ 4.717052, 44.026285 ], [ 4.712864, 44.025643 ], [ 4.709908, 44.023588 ], [ 4.707447, 44.015025 ], [ 4.702757, 44.014361 ], [ 4.700076, 44.014519 ], [ 4.698267, 44.014143 ], [ 4.696669, 44.012522 ], [ 4.696664, 44.012359 ], [ 4.697626, 44.010093 ], [ 4.699777, 44.004082 ], [ 4.699885230779747, 44.002032309872241 ], [ 4.69959, 44.00188 ], [ 4.696617, 44.0004 ], [ 4.69589438365955, 44.00001532647493 ], [ 4.696397, 44.005186 ], [ 4.69399, 44.007536 ], [ 4.692583, 44.009214 ], [ 4.691331, 44.011315 ], [ 4.691235, 44.011806 ], [ 4.692187, 44.013375 ], [ 4.694782, 44.015503 ] ] ], [ [ [ 4.695269615806789, 43.994732772079608 ], [ 4.699931729515152, 43.996010544840196 ], [ 4.69906, 43.993307 ], [ 4.693888, 43.986083 ], [ 4.693125, 43.986457 ], [ 4.692003, 43.986676 ], [ 4.691389, 43.986602 ], [ 4.695291, 43.994695 ], [ 4.695269615806789, 43.994732772079608 ] ] ], [ [ [ 4.688687, 43.985753 ], [ 4.689396, 43.985937 ], [ 4.690073, 43.986127 ], [ 4.690384722250317, 43.986239513730155 ], [ 4.686686, 43.982035 ], [ 4.686581515281239, 43.982004299890789 ], [ 4.687979, 43.985524 ], [ 4.688687, 43.985753 ] ] ], [ [ [ 4.658227, 43.978641 ], [ 4.657621482356195, 43.97831164280948 ], [ 4.65911, 43.98026 ], [ 4.660548864336675, 43.979969687848829 ], [ 4.658227, 43.978641 ] ] ], [ [ [ 4.686346109278893, 43.981935131977366 ], [ 4.684516862351652, 43.981397655482034 ], [ 4.684266825796114, 43.981936451989725 ], [ 4.686346109278893, 43.981935131977366 ] ] ] ] } },
{ "type": "Feature", "properties": { "codgeo": "30011", "value": 1020, "isochrone_group": 17.0, "nb_agences": 1 }, "geometry": { "type": "MultiPolygon", "coordinates": [ [ [ [ 4.67162, 43.928058 ], [ 4.66684, 43.928191 ], [ 4.66627334613784, 43.928348676175617 ], [ 4.667139, 43.929476 ], [ 4.667176, 43.929658 ], [ 4.66746329524609, 43.930405919887839 ], [ 4.672056, 43.929699 ], [ 4.678003, 43.932822 ], [ 4.67162, 43.928058 ] ] ], [ [ [ 4.694563, 43.925817 ], [ 4.700489, 43.922198 ], [ 4.693611, 43.925224 ], [ 4.690343, 43.925355 ], [ 4.687698, 43.926202 ], [ 4.685906, 43.92722 ], [ 4.685539, 43.927987 ], [ 4.681115, 43.931952 ], [ 4.689092, 43.930142 ], [ 4.69409, 43.925752 ], [ 4.694563, 43.925817 ] ] ], [ [ [ 4.710594132648, 43.890459568755226 ], [ 4.71048540911522, 43.890377440908125 ], [ 4.710503960827039, 43.890414012383062 ], [ 4.710594132648, 43.890459568755226 ] ] ], [ [ [ 4.697418, 43.915514 ], [ 4.697331, 43.914218 ], [ 4.697486183483365, 43.913525504918155 ], [ 4.695656158090851, 43.911139377168638 ], [ 4.696295, 43.914235 ], [ 4.696385, 43.914335 ], [ 4.697008, 43.91479 ], [ 4.700489, 43.922198 ], [ 4.697806, 43.916459 ], [ 4.697418, 43.915514 ] ] ], [ [ [ 4.715594, 44.052267 ], [ 4.721993, 44.048935 ], [ 4.727097, 44.046017 ], [ 4.731488, 44.046859 ], [ 4.73672, 44.045998 ], [ 4.742495, 44.042066 ], [ 4.747343, 44.039251 ], [ 4.750814, 44.038525 ], [ 4.758882, 44.040534 ], [ 4.761988885902785, 44.041498585637207 ], [ 4.761474513524289, 44.039393515426084 ], [ 4.759319907897225, 44.036335150447826 ], [ 4.755935, 44.035116 ], [ 4.748959, 44.036786 ], [ 4.748448, 44.036898 ], [ 4.747198, 44.035918 ], [ 4.744087, 44.034408 ], [ 4.738114, 44.037258 ], [ 4.736737, 44.03903 ], [ 4.735871, 44.040075 ], [ 4.731354, 44.043759 ], [ 4.724398, 44.045438 ], [ 4.721653, 44.046514 ], [ 4.719817966296898, 44.043418629968144 ], [ 4.719718, 44.043478 ], [ 4.717781, 44.044906 ], [ 4.717248, 44.045401 ], [ 4.715408, 44.047271 ], [ 4.712898, 44.049882 ], [ 4.712681, 44.050133 ], [ 4.711504, 44.051655 ], [ 4.714352, 44.053857 ], [ 4.715594, 44.052267 ] ] ], [ [ [ 4.775, 44.046256 ], [ 4.774786, 44.045856 ], [ 4.773649, 44.042785 ], [ 4.77498, 44.036527 ], [ 4.774837, 44.033913 ], [ 4.773739, 44.031692 ], [ 4.772602, 44.031021 ], [ 4.770771, 44.029458 ], [ 4.768094, 44.02851 ], [ 4.768620970170019, 44.025511485776619 ], [ 4.763682517570485, 44.030431788102902 ], [ 4.764275, 44.030533 ], [ 4.765651, 44.030778 ], [ 4.766095, 44.030912 ], [ 4.768168, 44.031255 ], [ 4.769578, 44.034168 ], [ 4.769862, 44.039405 ], [ 4.770093, 44.04143 ], [ 4.770035, 44.041557 ], [ 4.768041, 44.042511 ], [ 4.767202298572573, 44.042082282805772 ], [ 4.76721, 44.042302 ], [ 4.767053212460956, 44.04230753572908 ], [ 4.767055, 44.04236 ], [ 4.767062, 44.042886 ], [ 4.767036451609109, 44.043237781689982 ], [ 4.769441, 44.045617 ], [ 4.771826, 44.047955 ], [ 4.771974, 44.04801 ], [ 4.773479, 44.048499 ], [ 4.773709, 44.048431 ], [ 4.775, 44.046256 ] ] ], [ [ [ 4.71922, 44.023809 ], [ 4.718687, 44.024688 ], [ 4.717831, 44.026563 ], [ 4.726449, 44.026474 ], [ 4.726798, 44.026924 ], [ 4.727139, 44.027255 ], [ 4.728589, 44.03539 ], [ 4.729902, 44.030607 ], [ 4.729209, 44.028273 ], [ 4.728362, 44.026086 ], [ 4.720095342467379, 44.022776950653295 ], [ 4.71922, 44.023809 ] ] ], [ [ [ 4.71366, 44.029251 ], [ 4.708376, 44.025569 ], [ 4.711591, 44.031334 ], [ 4.713075, 44.031563 ], [ 4.71415, 44.031756 ], [ 4.715079, 44.031888 ], [ 4.716777, 44.032191 ], [ 4.7171, 44.03043 ], [ 4.71741, 44.028802 ], [ 4.717196, 44.029925 ], [ 4.71366, 44.029251 ] ] ], [ [ [ 4.682141, 44.01322 ], [ 4.684634, 44.013862 ], [ 4.692771, 44.016065 ], [ 4.694134, 44.018555 ], [ 4.694263, 44.019015 ], [ 4.695476, 44.021823 ], [ 4.696028, 44.025417 ], [ 4.697521, 44.026251 ], [ 4.697898, 44.02623 ], [ 4.697947, 44.026221 ], [ 4.699628, 44.025446 ], [ 4.708376, 44.025569 ], [ 4.70456, 44.025133 ], [ 4.7039, 44.025056 ], [ 4.703759, 44.022744 ], [ 4.698212, 44.016595 ], [ 4.694782, 44.015503 ], [ 4.692187, 44.013375 ], [ 4.691235, 44.011806 ], [ 4.691331, 44.011315 ], [ 4.692583, 44.009214 ], [ 4.69399, 44.007536 ], [ 4.696397, 44.005186 ], [ 4.69589438365955, 44.00001532647493 ], [ 4.695349, 43.999725 ], [ 4.694174, 43.999045 ], [ 4.692732, 43.998135 ], [ 4.691353, 43.99718 ], [ 4.690730444479279, 43.996707040716679 ], [ 4.691347, 43.99788 ], [ 4.686119, 44.004397 ], [ 4.684675, 44.004133 ], [ 4.680657, 44.009419 ], [ 4.680105, 44.012356 ], [ 4.680884, 44.013012 ], [ 4.682141, 44.01322 ] ] ], [ [ [ 4.693406, 43.994222 ], [ 4.694674, 43.995103 ], [ 4.694958083044817, 43.99528304957505 ], [ 4.695291, 43.994695 ], [ 4.691389, 43.986602 ], [ 4.690073, 43.986127 ], [ 4.689396, 43.985937 ], [ 4.692859, 43.993414 ], [ 4.692641684172656, 43.993639848259669 ], [ 4.693406, 43.994222 ] ] ], [ [ [ 4.659192870628603, 43.980243279625576 ], [ 4.65911, 43.98026 ], [ 4.658989970036073, 43.980102889841277 ], [ 4.655033, 43.977004 ], [ 4.653150637401479, 43.97612295651885 ], [ 4.65322, 43.983512 ], [ 4.653053, 43.984131 ], [ 4.655134, 43.986912 ], [ 4.655543, 43.986669 ], [ 4.657622, 43.984498 ], [ 4.662831056293457, 43.981484052233796 ], [ 4.659192870628603, 43.980243279625576 ] ] ], [ [ [ 4.686157120776272, 43.981935251954816 ], [ 4.686065568077365, 43.981935310076146 ], [ 4.686207278119991, 43.985345291795859 ], [ 4.686653, 43.985466 ], [ 4.687667, 43.985591 ], [ 4.688687, 43.985753 ], [ 4.687979, 43.985524 ], [ 4.686584207874244, 43.982011081446068 ], [ 4.686174, 43.981942 ], [ 4.686157120776272, 43.981935251954816 ] ] ] ] } },
{ "type": "Feature", "properties": { "codgeo": "30011", "value": 1080, "isochrone_group": 18.0, "nb_agences": 1 }, "geometry": { "type": "MultiPolygon", "coordinates": [ [ [ [ 4.67162, 43.928058 ], [ 4.671771510772122, 43.92817108120294 ], [ 4.671666, 43.927428 ], [ 4.671028, 43.925948 ], [ 4.670487, 43.925581 ], [ 4.670009, 43.925401 ], [ 4.666442925929637, 43.923830430956734 ], [ 4.666712, 43.924286 ], [ 4.667427, 43.927752 ], [ 4.667939368196556, 43.928160410884921 ], [ 4.67162, 43.928058 ] ] ], [ [ [ 4.685539, 43.927987 ], [ 4.685906, 43.92722 ], [ 4.687698, 43.926202 ], [ 4.690343, 43.925355 ], [ 4.693611, 43.925224 ], [ 4.700489, 43.922198 ], [ 4.698755748636478, 43.918509425998003 ], [ 4.69331, 43.922722 ], [ 4.690128, 43.924405 ], [ 4.685374, 43.924817 ], [ 4.684215, 43.924939 ], [ 4.682497, 43.925223 ], [ 4.681671, 43.928727 ], [ 4.678003, 43.932822 ], [ 4.681115, 43.931952 ], [ 4.685539, 43.927987 ] ] ], [ [ [ 4.756416, 44.044012 ], [ 4.762931465138234, 44.049459531329596 ], [ 4.762851, 44.049078 ], [ 4.762776, 44.048444 ], [ 4.762746, 44.047792 ], [ 4.762755, 44.047258 ], [ 4.762983, 44.045567 ], [ 4.761988885902785, 44.041498585637207 ], [ 4.758882, 44.040534 ], [ 4.750814, 44.038525 ], [ 4.747343, 44.039251 ], [ 4.742495, 44.042066 ], [ 4.73672, 44.045998 ], [ 4.731488, 44.046859 ], [ 4.727097, 44.046017 ], [ 4.725169160293312, 44.047119162277468 ], [ 4.729292, 44.0474 ], [ 4.73014, 44.048224 ], [ 4.731712, 44.049162 ], [ 4.732655, 44.049789 ], [ 4.740813, 44.048448 ], [ 4.74185, 44.048898 ], [ 4.74911, 44.043995 ], [ 4.75415, 44.044497 ], [ 4.756416, 44.044012 ] ] ], [ [ [ 4.779763076556008, 44.035106895198417 ], [ 4.777136492667958, 44.031237982772993 ], [ 4.77435588922955, 44.030044385829996 ], [ 4.772775807541396, 44.031123572436471 ], [ 4.773739, 44.031692 ], [ 4.774837, 44.033913 ], [ 4.77498, 44.036527 ], [ 4.773649, 44.042785 ], [ 4.774786, 44.045856 ], [ 4.775, 44.046256 ], [ 4.773709, 44.048431 ], [ 4.773479, 44.048499 ], [ 4.771974, 44.04801 ], [ 4.771826, 44.047955 ], [ 4.769441, 44.045617 ], [ 4.767167416322599, 44.043367366790228 ], [ 4.76716, 44.043525 ], [ 4.766984, 44.04471 ], [ 4.767606235171137, 44.047834940329224 ], [ 4.770887, 44.052503 ], [ 4.771249, 44.052663 ], [ 4.771676, 44.052929 ], [ 4.771827079236817, 44.053015856200034 ], [ 4.776452, 44.051295 ], [ 4.777966, 44.04858 ], [ 4.777141, 44.045278 ], [ 4.779564, 44.038701 ], [ 4.779866, 44.036833 ], [ 4.779763076556008, 44.035106895198417 ] ] ], [ [ [ 4.710425, 44.060028 ], [ 4.710779, 44.060031 ], [ 4.712805, 44.059383 ], [ 4.712891, 44.059244 ], [ 4.714723, 44.05637 ], [ 4.71585, 44.052951 ], [ 4.716702378289166, 44.051689860375149 ], [ 4.715594, 44.052267 ], [ 4.714352, 44.053857 ], [ 4.711504457588081, 44.051655353795269 ], [ 4.71148, 44.051687 ], [ 4.710981, 44.052349 ], [ 4.710696, 44.052776 ], [ 4.709505, 44.054832 ], [ 4.709327, 44.055245 ], [ 4.707726, 44.058027 ], [ 4.707481, 44.058586 ], [ 4.70848, 44.059148 ], [ 4.710425, 44.060028 ] ] ], [ [ [ 4.726255343748585, 44.026475999931122 ], [ 4.726798, 44.026924 ], [ 4.726449, 44.026474 ], [ 4.726255343748585, 44.026475999931122 ] ] ], [ [ [ 4.724820671056655, 44.026490816114638 ], [ 4.717831, 44.026563 ], [ 4.717547, 44.02787 ], [ 4.71741, 44.028802 ], [ 4.724820671056655, 44.026490816114638 ] ] ], [ [ [ 4.695544, 44.033445 ], [ 4.695843, 44.033095 ], [ 4.696541, 44.031971 ], [ 4.697628, 44.030511 ], [ 4.698746, 44.028948 ], [ 4.698918, 44.028678 ], [ 4.699219, 44.027908 ], [ 4.699483, 44.027099 ], [ 4.708297, 44.028917 ], [ 4.708166, 44.029563 ], [ 4.712074, 44.033412 ], [ 4.714843, 44.035712 ], [ 4.716166, 44.03412 ], [ 4.716405, 44.033751 ], [ 4.716733107069099, 44.032183167515861 ], [ 4.715079, 44.031888 ], [ 4.71415, 44.031756 ], [ 4.713075, 44.031563 ], [ 4.711591, 44.031334 ], [ 4.708606327637707, 44.025982013633396 ], [ 4.706710274462167, 44.025545579304833 ], [ 4.699628, 44.025446 ], [ 4.697947, 44.026221 ], [ 4.697898, 44.02623 ], [ 4.697521, 44.026251 ], [ 4.696028, 44.025417 ], [ 4.695476, 44.021823 ], [ 4.694738, 44.028364 ], [ 4.693573, 44.029934 ], [ 4.691497, 44.031713 ], [ 4.692799, 44.035069 ], [ 4.692826, 44.035058 ], [ 4.69399, 44.034632 ], [ 4.694334, 44.034469 ], [ 4.695167, 44.033813 ], [ 4.695544, 44.033445 ] ] ], [ [ [ 4.672211, 44.006392 ], [ 4.671805, 44.006272 ], [ 4.671422, 44.006191 ], [ 4.669081, 44.005432 ], [ 4.667382, 44.004771 ], [ 4.666076, 44.008126 ], [ 4.665171, 44.010158 ], [ 4.666073, 44.013644 ], [ 4.674774, 44.014925 ], [ 4.675335, 44.015191 ], [ 4.675699, 44.015288 ], [ 4.681459, 44.017477 ], [ 4.682699, 44.017986 ], [ 4.68791, 44.01682 ], [ 4.690366, 44.017134 ], [ 4.695476, 44.021823 ], [ 4.694263, 44.019015 ], [ 4.694134, 44.018555 ], [ 4.692771, 44.016065 ], [ 4.684634, 44.013862 ], [ 4.682141, 44.01322 ], [ 4.680884, 44.013012 ], [ 4.680105, 44.012356 ], [ 4.680657, 44.009419 ], [ 4.684675, 44.004133 ], [ 4.686119, 44.004397 ], [ 4.691347, 43.99788 ], [ 4.690931506413969, 43.997089548787557 ], [ 4.690455, 43.996747 ], [ 4.688136, 43.994949 ], [ 4.683139082283454, 43.99147835170843 ], [ 4.686291, 43.998166 ], [ 4.682456, 44.004774 ], [ 4.67678, 44.007749 ], [ 4.672631, 44.006581 ], [ 4.672211, 44.006392 ] ] ], [ [ [ 4.692859, 43.993414 ], [ 4.689396, 43.985937 ], [ 4.689349852535813, 43.98592502378925 ], [ 4.688947, 43.990768 ], [ 4.691627, 43.992867 ], [ 4.692641684172656, 43.993639848259669 ], [ 4.692859, 43.993414 ] ] ], [ [ [ 4.648307, 43.992609 ], [ 4.649442, 43.992661 ], [ 4.649583, 43.992608 ], [ 4.651821, 43.99014 ], [ 4.652915, 43.989199 ], [ 4.654502, 43.987918 ], [ 4.655543, 43.986669 ], [ 4.655134, 43.986912 ], [ 4.653406328792952, 43.984603180381178 ], [ 4.652966, 43.984415 ], [ 4.653053, 43.984131 ], [ 4.65322, 43.983512 ], [ 4.653183582444005, 43.979632518687758 ], [ 4.650304, 43.974681 ], [ 4.649265, 43.974089 ], [ 4.648580715592326, 43.97367272698532 ], [ 4.649215, 43.97464 ], [ 4.65259, 43.982462 ], [ 4.649394, 43.986889 ], [ 4.64855, 43.987839 ], [ 4.648171, 43.989293 ], [ 4.648204, 43.992563 ], [ 4.648307, 43.992609 ] ] ] ] } },
{ "type": "Feature", "properties": { "codgeo": "30011", "value": 1140, "isochrone_group": 19.0, "nb_agences": 1 }, "geometry": { "type": "MultiPolygon", "coordinates": [ [ [ [ 4.669701771983025, 43.924947025153138 ], [ 4.669449833670924, 43.925154732168998 ], [ 4.670009, 43.925401 ], [ 4.670487, 43.925581 ], [ 4.671028, 43.925948 ], [ 4.671666, 43.927428 ], [ 4.671947, 43.929407 ], [ 4.675827692466838, 43.931595336323362 ], [ 4.679437, 43.930649 ], [ 4.680035192734548, 43.930553235210461 ], [ 4.681671, 43.928727 ], [ 4.682497, 43.925223 ], [ 4.684215, 43.924939 ], [ 4.685374, 43.924817 ], [ 4.690128, 43.924405 ], [ 4.69331, 43.922722 ], [ 4.698188160011632, 43.918948485757177 ], [ 4.697281762824809, 43.915606364855961 ], [ 4.691964, 43.920864 ], [ 4.690305, 43.92094 ], [ 4.687272, 43.921713 ], [ 4.687054, 43.921802 ], [ 4.686613, 43.92198 ], [ 4.679686, 43.922997 ], [ 4.677785, 43.923807 ], [ 4.669874, 43.925119 ], [ 4.669701771983025, 43.924947025153138 ] ] ], [ [ [ 4.78015512997494, 44.047562747965287 ], [ 4.777464590652189, 44.046573147070951 ], [ 4.777966, 44.04858 ], [ 4.776452, 44.051295 ], [ 4.775754122893435, 44.051554668480208 ], [ 4.775761034059106, 44.051589247461557 ], [ 4.776057, 44.0515 ], [ 4.77749980693576, 44.053386064354754 ], [ 4.777623, 44.053345 ], [ 4.779866, 44.052923 ], [ 4.781271, 44.051329 ], [ 4.781297, 44.050959 ], [ 4.780098, 44.04933 ], [ 4.78015512997494, 44.047562747965287 ] ] ], [ [ [ 4.705572, 44.069899 ], [ 4.705535, 44.070875 ], [ 4.707683, 44.071408 ], [ 4.709104, 44.071349 ], [ 4.709305, 44.069836 ], [ 4.709487, 44.069102 ], [ 4.716756, 44.06442 ], [ 4.718945, 44.06311 ], [ 4.718376, 44.061205 ], [ 4.718375, 44.053589 ], [ 4.725746, 44.04843 ], [ 4.729041, 44.04988 ], [ 4.734639, 44.050938 ], [ 4.735495, 44.051302 ], [ 4.736238, 44.051492 ], [ 4.737091, 44.051759 ], [ 4.738136, 44.052019 ], [ 4.738683, 44.05211 ], [ 4.747006, 44.050804 ], [ 4.751086, 44.04778 ], [ 4.755698, 44.047116 ], [ 4.761817551366745, 44.050006180726349 ], [ 4.762209834602439, 44.048856181473717 ], [ 4.756416, 44.044012 ], [ 4.75415, 44.044497 ], [ 4.74911, 44.043995 ], [ 4.74185, 44.048898 ], [ 4.740813, 44.048448 ], [ 4.732655, 44.049789 ], [ 4.731712, 44.049162 ], [ 4.73014, 44.048224 ], [ 4.729292, 44.0474 ], [ 4.724957802384473, 44.047104765095426 ], [ 4.721636, 44.048839 ], [ 4.716248004574963, 44.052362130777567 ], [ 4.71585, 44.052951 ], [ 4.714723, 44.05637 ], [ 4.712891, 44.059244 ], [ 4.712805, 44.059383 ], [ 4.710779, 44.060031 ], [ 4.710425, 44.060028 ], [ 4.70848, 44.059148 ], [ 4.707481, 44.058586 ], [ 4.707726, 44.058027 ], [ 4.709327, 44.055245 ], [ 4.709505, 44.054832 ], [ 4.710696, 44.052776 ], [ 4.710981, 44.052349 ], [ 4.71148, 44.051687 ], [ 4.711903324661965, 44.051139251020246 ], [ 4.711903, 44.051139 ], [ 4.712681, 44.050133 ], [ 4.706983, 44.053648 ], [ 4.70683, 44.053699 ], [ 4.701424, 44.053908 ], [ 4.699894, 44.05416 ], [ 4.699816, 44.054214 ], [ 4.700347, 44.057344 ], [ 4.705206, 44.062407 ], [ 4.705583, 44.069568 ], [ 4.705572, 44.069899 ] ] ], [ [ [ 4.717248, 44.045401 ], [ 4.717781, 44.044906 ], [ 4.718353352464051, 44.044484048880406 ], [ 4.718328, 44.044449 ], [ 4.719104, 44.043887 ], [ 4.719718, 44.043478 ], [ 4.721587, 44.042368 ], [ 4.722256, 44.041943 ], [ 4.724648, 44.040425 ], [ 4.727067, 44.03791 ], [ 4.725119, 44.029642 ], [ 4.725096, 44.029455 ], [ 4.727152937286434, 44.027333192982852 ], [ 4.727139, 44.027255 ], [ 4.726798, 44.026924 ], [ 4.726255343748585, 44.026475999931122 ], [ 4.724820671056655, 44.026490816114638 ], [ 4.71741, 44.028802 ], [ 4.7171, 44.03043 ], [ 4.716832, 44.031894 ], [ 4.716793649872476, 44.031893868738869 ], [ 4.716405, 44.033751 ], [ 4.716166, 44.03412 ], [ 4.714843, 44.035712 ], [ 4.712074, 44.033412 ], [ 4.708166, 44.029563 ], [ 4.708297, 44.028917 ], [ 4.707714, 44.031776 ], [ 4.707711, 44.031794 ], [ 4.70993, 44.036811 ], [ 4.710091, 44.03718 ], [ 4.710624, 44.038089 ], [ 4.711128, 44.03817 ], [ 4.711298, 44.038197 ], [ 4.712132, 44.038241 ], [ 4.717248, 44.045401 ] ] ], [ [ [ 4.689535, 44.038083 ], [ 4.690737, 44.038644 ], [ 4.691392, 44.038876 ], [ 4.691495, 44.038849 ], [ 4.69303, 44.036752 ], [ 4.694122, 44.035536 ], [ 4.695544, 44.033445 ], [ 4.695167, 44.033813 ], [ 4.694334, 44.034469 ], [ 4.69399, 44.034632 ], [ 4.692826, 44.035058 ], [ 4.692799, 44.035069 ], [ 4.691497, 44.031713 ], [ 4.693573, 44.029934 ], [ 4.694738, 44.028364 ], [ 4.691211, 44.031071 ], [ 4.689524, 44.03236 ], [ 4.688996, 44.032684 ], [ 4.688, 44.034465 ], [ 4.687925, 44.034618 ], [ 4.687967, 44.035764 ], [ 4.687996, 44.03589 ], [ 4.688384, 44.036572 ], [ 4.689535, 44.038083 ] ] ], [ [ [ 4.666076, 44.008126 ], [ 4.667353604997021, 44.004843944284083 ], [ 4.6664, 44.00456 ], [ 4.664546, 44.005878 ], [ 4.663755, 44.006307 ], [ 4.656917340924234, 44.011717275594648 ], [ 4.65705, 44.011787 ], [ 4.657688, 44.011875 ], [ 4.663592, 44.010746 ], [ 4.666010869306436, 44.008272238198153 ], [ 4.666076, 44.008126 ] ] ], [ [ [ 4.658851, 44.015979 ], [ 4.65852175096269, 44.016060683921474 ], [ 4.658627, 44.016044 ], [ 4.661963240571283, 44.01566752676429 ], [ 4.658851, 44.015979 ] ] ], [ [ [ 4.662643763522516, 44.015596101727063 ], [ 4.662734, 44.015588 ], [ 4.668098, 44.015597 ], [ 4.672386879324036, 44.014573557454774 ], [ 4.671334573783936, 44.014418632343101 ], [ 4.670027, 44.014659 ], [ 4.662992, 44.015536 ], [ 4.662643763522516, 44.015596101727063 ] ] ], [ [ [ 4.668274, 44.005118 ], [ 4.668273619619413, 44.005117886738333 ], [ 4.669081, 44.005432 ], [ 4.671422, 44.006191 ], [ 4.668274, 44.005118 ] ] ], [ [ [ 4.682456, 44.004774 ], [ 4.686291, 43.998166 ], [ 4.683039, 43.991266 ], [ 4.681902276652658, 43.990537817820559 ], [ 4.680205, 43.989498 ], [ 4.683655, 43.997693 ], [ 4.683657, 43.997894 ], [ 4.683796, 43.998486 ], [ 4.682456, 44.004774 ] ] ], [ [ [ 4.657622, 43.984498 ], [ 4.666307, 43.983122 ], [ 4.664775, 43.982425 ], [ 4.663983076675133, 43.982036789626228 ], [ 4.65989651040076, 43.982723990254875 ], [ 4.658209, 43.98376 ], [ 4.657622, 43.984498 ] ] ], [ [ [ 4.674058, 43.98783 ], [ 4.680205, 43.989498 ], [ 4.672348, 43.985574 ], [ 4.669999, 43.984634 ], [ 4.667612, 43.983679 ], [ 4.666307, 43.983122 ], [ 4.667793, 43.984108 ], [ 4.670283, 43.986691 ], [ 4.674058, 43.98783 ] ] ] ] } },
{ "type": "Feature", "properties": { "codgeo": "30011", "value": 1200, "isochrone_group": 20.0, "nb_agences": 1 }, "geometry": { "type": "MultiPolygon", "coordinates": [ [ [ [ 4.710061288381525, 43.87592754251542 ], [ 4.712126, 43.874326 ], [ 4.712167070982649, 43.874266709558896 ], [ 4.704915, 43.876212 ], [ 4.704571, 43.876212 ], [ 4.704262, 43.876241 ], [ 4.703282089341562, 43.877416328406738 ], [ 4.703929, 43.87755 ], [ 4.710061288381525, 43.87592754251542 ] ] ], [ [ [ 4.6778, 43.921566 ], [ 4.670212082214798, 43.92100801342243 ], [ 4.669971, 43.923901 ], [ 4.669148359169678, 43.924394425840362 ], [ 4.669874, 43.925119 ], [ 4.677785, 43.923807 ], [ 4.679686, 43.922997 ], [ 4.686613, 43.92198 ], [ 4.687054, 43.921802 ], [ 4.687272, 43.921713 ], [ 4.690305, 43.92094 ], [ 4.691964, 43.920864 ], [ 4.697978, 43.914918 ], [ 4.692177, 43.914345 ], [ 4.691605, 43.91411 ], [ 4.691083, 43.913166 ], [ 4.690867, 43.912077 ], [ 4.690811055456779, 43.911743663763303 ], [ 4.691514, 43.919821 ], [ 4.687742, 43.920519 ], [ 4.68528, 43.921392 ], [ 4.680657, 43.921525 ], [ 4.679619, 43.921215 ], [ 4.679229, 43.921236 ], [ 4.678217, 43.92147 ], [ 4.6778, 43.921566 ] ] ], [ [ [ 4.689338935138617, 43.907291995046222 ], [ 4.68727176971547, 43.907180405143222 ], [ 4.69076, 43.911157 ], [ 4.690775871370263, 43.911339373411067 ], [ 4.690798, 43.910587 ], [ 4.690742, 43.909399 ], [ 4.689338935138617, 43.907291995046222 ] ] ], [ [ [ 4.682798, 44.001548 ], [ 4.683401543437339, 44.000337002138828 ], [ 4.683796, 43.998486 ], [ 4.683657, 43.997894 ], [ 4.683655, 43.997693 ], [ 4.680205, 43.989498 ], [ 4.674058, 43.98783 ], [ 4.670283, 43.986691 ], [ 4.667793, 43.984108 ], [ 4.666307, 43.983122 ], [ 4.665446912461922, 43.983258267179316 ], [ 4.668238, 43.987517 ], [ 4.671005, 43.989766 ], [ 4.674153, 43.991641 ], [ 4.676696, 43.992224 ], [ 4.680344, 43.999462 ], [ 4.68044, 43.999747 ], [ 4.68063, 44.000181 ], [ 4.67678, 44.007749 ], [ 4.682465, 44.002935 ], [ 4.682697, 44.001726 ], [ 4.682798, 44.001548 ] ] ], [ [ [ 4.696346, 44.05236 ], [ 4.69575, 44.053354 ], [ 4.695113, 44.0541 ], [ 4.693409, 44.056156 ], [ 4.693511566709867, 44.056468046176626 ], [ 4.693547, 44.05643 ], [ 4.695481, 44.054878 ], [ 4.695767, 44.054989 ], [ 4.697147, 44.0564 ], [ 4.697148, 44.056615 ], [ 4.697009661785049, 44.058929368902497 ], [ 4.698454, 44.05925 ], [ 4.703302, 44.061687 ], [ 4.703846, 44.067448 ], [ 4.703683, 44.067866 ], [ 4.703559, 44.068995 ], [ 4.703613, 44.069584 ], [ 4.703688, 44.069837 ], [ 4.704950647658784, 44.074262793240905 ], [ 4.705418, 44.074062 ], [ 4.705391, 44.07339 ], [ 4.705401, 44.072377 ], [ 4.707169, 44.072186 ], [ 4.707636, 44.072174 ], [ 4.709001, 44.07241 ], [ 4.710675560117378, 44.073734842531891 ], [ 4.711092, 44.071019 ], [ 4.712267008426516, 44.067311382383686 ], [ 4.709487, 44.069102 ], [ 4.709305, 44.069836 ], [ 4.709104, 44.071349 ], [ 4.707683, 44.071408 ], [ 4.705535, 44.070875 ], [ 4.705572, 44.069899 ], [ 4.705583, 44.069568 ], [ 4.705206, 44.062407 ], [ 4.700347, 44.057344 ], [ 4.699816, 44.054214 ], [ 4.699894, 44.05416 ], [ 4.701424, 44.053908 ], [ 4.70683, 44.053699 ], [ 4.706983, 44.053648 ], [ 4.712681, 44.050133 ], [ 4.712898, 44.049882 ], [ 4.713630771561113, 44.049119742411932 ], [ 4.71363, 44.049119 ], [ 4.715408, 44.047271 ], [ 4.717248, 44.045401 ], [ 4.712132, 44.038241 ], [ 4.711298, 44.038197 ], [ 4.711128, 44.03817 ], [ 4.710624, 44.038089 ], [ 4.710091, 44.03718 ], [ 4.70993, 44.036811 ], [ 4.707711, 44.031794 ], [ 4.707714, 44.031776 ], [ 4.708297, 44.028917 ], [ 4.699483, 44.027099 ], [ 4.699219, 44.027908 ], [ 4.698918, 44.028678 ], [ 4.698746, 44.028948 ], [ 4.697628, 44.030511 ], [ 4.696541, 44.031971 ], [ 4.695843, 44.033095 ], [ 4.695544, 44.033445 ], [ 4.694122, 44.035536 ], [ 4.69303, 44.036752 ], [ 4.691495, 44.038849 ], [ 4.691392, 44.038876 ], [ 4.690737, 44.038644 ], [ 4.689535, 44.038083 ], [ 4.688384, 44.036572 ], [ 4.687996, 44.03589 ], [ 4.687967, 44.035764 ], [ 4.687925, 44.034618 ], [ 4.688, 44.034465 ], [ 4.688996, 44.032684 ], [ 4.689524, 44.03236 ], [ 4.691211, 44.031071 ], [ 4.694738, 44.028364 ], [ 4.695476, 44.021823 ], [ 4.690553, 44.029168 ], [ 4.687269, 44.030653 ], [ 4.686586, 44.031735 ], [ 4.685657, 44.03312 ], [ 4.685401, 44.033545 ], [ 4.685537, 44.035173 ], [ 4.686347, 44.037202 ], [ 4.688111, 44.038915 ], [ 4.690535, 44.040993 ], [ 4.693637, 44.04404 ], [ 4.696346, 44.05236 ] ] ], [ [ [ 4.728937828326397, 44.049834598201301 ], [ 4.728752559849113, 44.049753068825872 ], [ 4.725364, 44.04974 ], [ 4.724242679877491, 44.049482181320286 ], [ 4.718375, 44.053589 ], [ 4.718376, 44.061205 ], [ 4.718945, 44.06311 ], [ 4.717790992345101, 44.063800612164421 ], [ 4.722094, 44.065727 ], [ 4.722375, 44.066049 ], [ 4.722663, 44.066088 ], [ 4.723756, 44.065942 ], [ 4.724853, 44.065557 ], [ 4.72576, 44.063228 ], [ 4.725706, 44.06311 ], [ 4.723929, 44.05783 ], [ 4.726954, 44.051822 ], [ 4.72739, 44.051364 ], [ 4.728937828326397, 44.049834598201301 ] ] ], [ [ [ 4.747006, 44.050804 ], [ 4.746784256728965, 44.050838794750923 ], [ 4.749963, 44.05205 ], [ 4.751369, 44.05256 ], [ 4.751779, 44.052654 ], [ 4.752097, 44.0527 ], [ 4.758745, 44.050781 ], [ 4.759536521091464, 44.051184299981607 ], [ 4.760869345116316, 44.049558355834392 ], [ 4.755698, 44.047116 ], [ 4.751086, 44.04778 ], [ 4.747006, 44.050804 ] ] ], [ [ [ 4.816987300746729, 44.024243211653058 ], [ 4.816837002756596, 44.024876533091415 ], [ 4.817302, 44.022919 ], [ 4.817345244407274, 44.022736733596076 ], [ 4.817345, 44.022737 ], [ 4.817255235946671, 44.023114888621492 ], [ 4.817142, 44.023592 ], [ 4.816987300746729, 44.024243211653058 ] ] ], [ [ [ 4.824192, 44.015958 ], [ 4.823462579976021, 44.016163822179131 ], [ 4.82331362765347, 44.016231195857706 ], [ 4.822815910018766, 44.016773708079533 ], [ 4.824449, 44.015861 ], [ 4.826875, 44.014924 ], [ 4.825637, 44.015338 ], [ 4.825395, 44.015429 ], [ 4.824192, 44.015958 ] ] ] ] } }
]
}
