{
"type": "FeatureCollection",
"name": "BPCE",
"crs": { "type": "name", "properties": { "name": "urn:ogc:def:crs:OGC:1.3:CRS84" } },
"features": [
{ "type": "Feature", "properties": { "codgeo": "82075", "value": 60, "isochrone_group": 1.0, "nb_agences": 2 }, "geometry": { "type": "Polygon", "coordinates": [ [ [ 1.294537, 43.825888 ], [ 1.294396, 43.826219 ], [ 1.294324, 43.826527 ], [ 1.294401, 43.827478 ], [ 1.294896, 43.828393 ], [ 1.295147, 43.828651 ], [ 1.296353881778334, 43.828721657182761 ], [ 1.296384, 43.828767 ], [ 1.298458, 43.83076 ], [ 1.298757, 43.83096 ], [ 1.302571, 43.829261 ], [ 1.302555, 43.828216 ], [ 1.301543, 43.82657 ], [ 1.301236, 43.826382 ], [ 1.298323, 43.824864 ], [ 1.295695122214485, 43.825925768802222 ], [ 1.294537, 43.825888 ] ] ] } },
{ "type": "Feature", "properties": { "codgeo": "82075", "value": 120, "isochrone_group": 2.0, "nb_agences": 2 }, "geometry": { "type": "Polygon", "coordinates": [ [ [ 1.291537, 43.822242 ], [ 1.288009, 43.823163 ], [ 1.287894, 43.823504 ], [ 1.291528, 43.827115 ], [ 1.291902, 43.828639 ], [ 1.29198, 43.828991 ], [ 1.294650998752586, 43.831765074207802 ], [ 1.295369, 43.833862 ], [ 1.295381, 43.833961 ], [ 1.29575, 43.834064 ], [ 1.301399, 43.832831 ], [ 1.301731, 43.83297 ], [ 1.302399, 43.832489 ], [ 1.306971, 43.829885 ], [ 1.307239, 43.828567 ], [ 1.30732, 43.827874 ], [ 1.305715, 43.822724 ], [ 1.305741, 43.822001 ], [ 1.305415, 43.821849 ], [ 1.304269, 43.821567 ], [ 1.302357, 43.821475 ], [ 1.298554, 43.822734 ], [ 1.298391, 43.823055 ], [ 1.295130606780163, 43.82462153594151 ], [ 1.291893, 43.822188 ], [ 1.291537, 43.822242 ] ], [ [ 1.295695122214485, 43.825925768802222 ], [ 1.298323, 43.824864 ], [ 1.301236, 43.826382 ], [ 1.301543, 43.82657 ], [ 1.302555, 43.828216 ], [ 1.302571, 43.829261 ], [ 1.298757, 43.83096 ], [ 1.298458, 43.83076 ], [ 1.296384, 43.828767 ], [ 1.296353881778334, 43.828721657182761 ], [ 1.295147, 43.828651 ], [ 1.294896, 43.828393 ], [ 1.294401, 43.827478 ], [ 1.294324, 43.826527 ], [ 1.294396, 43.826219 ], [ 1.294537, 43.825888 ], [ 1.295695122214485, 43.825925768802222 ] ] ] } },
{ "type": "Feature", "properties": { "codgeo": "82075", "value": 180, "isochrone_group": 3.0, "nb_agences": 2 }, "geometry": { "type": "Polygon", "coordinates": [ [ [ 1.290681, 43.816095 ], [ 1.290607, 43.815505 ], [ 1.290249, 43.81555 ], [ 1.285466, 43.818316 ], [ 1.280334, 43.819436 ], [ 1.280055, 43.819664 ], [ 1.280194, 43.820027 ], [ 1.284766, 43.823209 ], [ 1.28815, 43.828274 ], [ 1.289277, 43.829801 ], [ 1.291561181331499, 43.834583888321276 ], [ 1.292252, 43.838034 ], [ 1.29257, 43.838203 ], [ 1.299545, 43.837973 ], [ 1.30631, 43.834683 ], [ 1.309698, 43.832621 ], [ 1.31114, 43.829453 ], [ 1.31117, 43.828247 ], [ 1.31093, 43.827978 ], [ 1.308080038828127, 43.822259734410217 ], [ 1.308061262068506, 43.821892037629247 ], [ 1.309778, 43.818532 ], [ 1.309762, 43.818272 ], [ 1.3097, 43.818217 ], [ 1.309578, 43.818232 ], [ 1.308791, 43.818419 ], [ 1.308523, 43.818587 ], [ 1.299763, 43.820111 ], [ 1.299715821008784, 43.820192063558778 ], [ 1.298903726409264, 43.820480433857725 ], [ 1.291431664402505, 43.81876365812311 ], [ 1.290745, 43.817734 ], [ 1.29075, 43.817213 ], [ 1.290753, 43.817006 ], [ 1.290755, 43.8168 ], [ 1.290754173996408, 43.816799988495767 ], [ 1.290755, 43.816686 ], [ 1.290681, 43.816095 ] ], [ [ 1.295130606780163, 43.82462153594151 ], [ 1.298391, 43.823055 ], [ 1.298554, 43.822734 ], [ 1.302357, 43.821475 ], [ 1.304269, 43.821567 ], [ 1.305415, 43.821849 ], [ 1.305741, 43.822001 ], [ 1.305715, 43.822724 ], [ 1.30732, 43.827874 ], [ 1.307239, 43.828567 ], [ 1.306971, 43.829885 ], [ 1.302399, 43.832489 ], [ 1.301731, 43.83297 ], [ 1.301399, 43.832831 ], [ 1.29575, 43.834064 ], [ 1.295381, 43.833961 ], [ 1.295369, 43.833862 ], [ 1.294650998752586, 43.831765074207802 ], [ 1.29198, 43.828991 ], [ 1.291902, 43.828639 ], [ 1.291528, 43.827115 ], [ 1.287894, 43.823504 ], [ 1.288009, 43.823163 ], [ 1.291537, 43.822242 ], [ 1.291893, 43.822188 ], [ 1.295130606780163, 43.82462153594151 ] ] ] } },
{ "type": "Feature", "properties": { "codgeo": "82075", "value": 240, "isochrone_group": 4.0, "nb_agences": 2 }, "geometry": { "type": "Polygon", "coordinates": [ [ [ 1.291703, 43.812315 ], [ 1.290642, 43.807052 ], [ 1.290289, 43.806979 ], [ 1.281926, 43.809789 ], [ 1.281791, 43.810122 ], [ 1.27445, 43.814605 ], [ 1.273763, 43.814366 ], [ 1.273266, 43.81414 ], [ 1.273007, 43.81401 ], [ 1.272845, 43.814331 ], [ 1.2736, 43.819163 ], [ 1.274264, 43.819287 ], [ 1.275691, 43.819608 ], [ 1.276167, 43.81974 ], [ 1.276852, 43.819888 ], [ 1.277813, 43.820118 ], [ 1.278111, 43.820205 ], [ 1.283781, 43.827114 ], [ 1.285338, 43.829707 ], [ 1.285542, 43.830003 ], [ 1.286893, 43.831317 ], [ 1.287133, 43.831586 ], [ 1.289143170098499, 43.836606210797235 ], [ 1.288645, 43.84053 ], [ 1.288473, 43.840845 ], [ 1.287626, 43.845029 ], [ 1.287908, 43.845253 ], [ 1.296092, 43.845803 ], [ 1.296284, 43.845376 ], [ 1.298782, 43.841725 ], [ 1.303521, 43.838559 ], [ 1.303665, 43.838229 ], [ 1.305317068440391, 43.836899408094936 ], [ 1.305959, 43.836636 ], [ 1.312651, 43.832398 ], [ 1.312673585714854, 43.832395341763601 ], [ 1.319177, 43.833797 ], [ 1.319389, 43.833506 ], [ 1.319402, 43.832954 ], [ 1.319201, 43.832655 ], [ 1.318469, 43.831528 ], [ 1.314495, 43.824931 ], [ 1.314084, 43.816735 ], [ 1.314467, 43.815421 ], [ 1.31463, 43.814608 ], [ 1.314376, 43.814352 ], [ 1.312764, 43.814931 ], [ 1.311837, 43.816174 ], [ 1.309117922193626, 43.818341319631251 ], [ 1.309578, 43.818232 ], [ 1.3097, 43.818217 ], [ 1.309762, 43.818272 ], [ 1.309778, 43.818532 ], [ 1.308061262068506, 43.821892037629247 ], [ 1.308080038828127, 43.822259734410217 ], [ 1.31093, 43.827978 ], [ 1.31117, 43.828247 ], [ 1.31114, 43.829453 ], [ 1.309698, 43.832621 ], [ 1.30631, 43.834683 ], [ 1.299545, 43.837973 ], [ 1.29257, 43.838203 ], [ 1.292252, 43.838034 ], [ 1.291561181331499, 43.834583888321276 ], [ 1.289277, 43.829801 ], [ 1.28815, 43.828274 ], [ 1.284766, 43.823209 ], [ 1.280194, 43.820027 ], [ 1.280055, 43.819664 ], [ 1.280334, 43.819436 ], [ 1.285466, 43.818316 ], [ 1.290249, 43.81555 ], [ 1.290607, 43.815505 ], [ 1.290681, 43.816095 ], [ 1.290755, 43.816686 ], [ 1.290754173996408, 43.816799988495767 ], [ 1.290755, 43.8168 ], [ 1.290753, 43.817006 ], [ 1.29075, 43.817213 ], [ 1.290745, 43.817734 ], [ 1.291431664402505, 43.81876365812311 ], [ 1.298903726409264, 43.820480433857725 ], [ 1.299715821008784, 43.820192063558778 ], [ 1.299763, 43.820111 ], [ 1.308523, 43.818587 ], [ 1.308621851739823, 43.818525033237712 ], [ 1.306604159498538, 43.81842182583123 ], [ 1.301428, 43.817607 ], [ 1.301083, 43.817504 ], [ 1.292701929246064, 43.815370799880768 ], [ 1.291733, 43.812475 ], [ 1.291703, 43.812315 ] ] ] } },
{ "type": "Feature", "properties": { "codgeo": "82075", "value": 300, "isochrone_group": 5.0, "nb_agences": 2 }, "geometry": { "type": "MultiPolygon", "coordinates": [ [ [ [ 1.272547, 43.809989 ], [ 1.271993, 43.809696 ], [ 1.263651, 43.810997 ], [ 1.263564, 43.811346 ], [ 1.269339, 43.818192 ], [ 1.269712, 43.81867 ], [ 1.273034, 43.819038 ], [ 1.273262, 43.819092 ], [ 1.273461, 43.819137 ], [ 1.274198, 43.819275 ], [ 1.274271656415994, 43.819288722291212 ], [ 1.274264, 43.819287 ], [ 1.2736, 43.819163 ], [ 1.272845, 43.814331 ], [ 1.273007, 43.81401 ], [ 1.273266, 43.81414 ], [ 1.273763, 43.814366 ], [ 1.27445, 43.814605 ], [ 1.277266430462643, 43.812885062966359 ], [ 1.274222, 43.811565 ], [ 1.274004, 43.811204 ], [ 1.273775, 43.810827 ], [ 1.273641, 43.810655 ], [ 1.273489, 43.81051 ], [ 1.273292, 43.810377 ], [ 1.272924, 43.810185 ], [ 1.272547, 43.809989 ] ] ], [ [ [ 1.281706, 43.826635 ], [ 1.282817, 43.831691 ], [ 1.285672312892157, 43.83875196582337 ], [ 1.285872, 43.839485 ], [ 1.285319004527109, 43.847981930439715 ], [ 1.284463, 43.849097 ], [ 1.284463094595818, 43.849097072689425 ], [ 1.28414, 43.849518 ], [ 1.283188, 43.850428 ], [ 1.283414, 43.850709 ], [ 1.285017, 43.850119 ], [ 1.285127, 43.849776 ], [ 1.29384, 43.851934 ], [ 1.294194, 43.852 ], [ 1.29991, 43.846853 ], [ 1.29986, 43.846496 ], [ 1.303671, 43.838624 ], [ 1.303815, 43.838294 ], [ 1.305660165215804, 43.83675862288716 ], [ 1.305317068440391, 43.836899408094936 ], [ 1.303665, 43.838229 ], [ 1.303521, 43.838559 ], [ 1.298782, 43.841725 ], [ 1.296284, 43.845376 ], [ 1.296092, 43.845803 ], [ 1.287908, 43.845253 ], [ 1.287626, 43.845029 ], [ 1.288473, 43.840845 ], [ 1.288645, 43.84053 ], [ 1.289143170098499, 43.836606210797235 ], [ 1.287133, 43.831586 ], [ 1.286893, 43.831317 ], [ 1.285542, 43.830003 ], [ 1.285338, 43.829707 ], [ 1.283781, 43.827114 ], [ 1.278111, 43.820205 ], [ 1.277813, 43.820118 ], [ 1.276852, 43.819888 ], [ 1.276167, 43.81974 ], [ 1.281706, 43.826635 ] ] ], [ [ [ 1.317729, 43.836413 ], [ 1.317997, 43.836653 ], [ 1.326488, 43.838286 ], [ 1.327472, 43.838252 ], [ 1.327557, 43.838197 ], [ 1.327549, 43.837901 ], [ 1.327015, 43.83731 ], [ 1.32192, 43.83087 ], [ 1.319238, 43.822542 ], [ 1.320271, 43.815887 ], [ 1.321091, 43.808104 ], [ 1.320834, 43.807851 ], [ 1.31984, 43.808862 ], [ 1.311845, 43.808462 ], [ 1.311509, 43.80859 ], [ 1.311284, 43.80979 ], [ 1.30969, 43.814196 ], [ 1.301639, 43.81692 ], [ 1.298486290021483, 43.816843069887561 ], [ 1.301083, 43.817504 ], [ 1.301428, 43.817607 ], [ 1.306604159498538, 43.81842182583123 ], [ 1.308871422804861, 43.818537799100554 ], [ 1.311837, 43.816174 ], [ 1.312764, 43.814931 ], [ 1.314376, 43.814352 ], [ 1.31463, 43.814608 ], [ 1.314467, 43.815421 ], [ 1.314084, 43.816735 ], [ 1.314495, 43.824931 ], [ 1.318469, 43.831528 ], [ 1.319201, 43.832655 ], [ 1.319402, 43.832954 ], [ 1.319389, 43.833506 ], [ 1.319177, 43.833797 ], [ 1.312673585714854, 43.832395341763601 ], [ 1.312651, 43.832398 ], [ 1.311666923599576, 43.833021209172891 ], [ 1.317729, 43.836413 ] ] ], [ [ [ 1.292362, 43.813059 ], [ 1.293618, 43.805084 ], [ 1.293781, 43.804763 ], [ 1.295142, 43.799023 ], [ 1.294888, 43.798767 ], [ 1.294513, 43.79914 ], [ 1.294138, 43.799513 ], [ 1.294001799938062, 43.799690607618466 ], [ 1.294001, 43.79969 ], [ 1.293748548925576, 43.800020852029228 ], [ 1.29374, 43.800032 ], [ 1.293357, 43.800533 ], [ 1.286458, 43.805371 ], [ 1.286278, 43.805682 ], [ 1.285857917678805, 43.808467860614925 ], [ 1.290289, 43.806979 ], [ 1.290642, 43.807052 ], [ 1.291703, 43.812315 ], [ 1.291733, 43.812475 ], [ 1.292701929246064, 43.815370799880768 ], [ 1.296648563201465, 43.816375320695762 ], [ 1.292362, 43.813059 ] ] ] ] } },
{ "type": "Feature", "properties": { "codgeo": "82075", "value": 360, "isochrone_group": 6.0, "nb_agences": 2 }, "geometry": { "type": "MultiPolygon", "coordinates": [ [ [ [ 1.255662, 43.81087 ], [ 1.2559, 43.811056 ], [ 1.256283, 43.811336 ], [ 1.257142746384592, 43.811979417110742 ], [ 1.257238, 43.812052 ], [ 1.257759, 43.812449 ], [ 1.258152, 43.812753 ], [ 1.263332, 43.816658 ], [ 1.266223, 43.819265 ], [ 1.26938, 43.822673 ], [ 1.269659, 43.822965 ], [ 1.270017, 43.822994 ], [ 1.276167, 43.81974 ], [ 1.275691, 43.819608 ], [ 1.274928, 43.819411 ], [ 1.274198, 43.819275 ], [ 1.273461, 43.819137 ], [ 1.273262, 43.819092 ], [ 1.273034, 43.819038 ], [ 1.269712, 43.81867 ], [ 1.269339, 43.818192 ], [ 1.263564, 43.811346 ], [ 1.263651, 43.810997 ], [ 1.271993, 43.809696 ], [ 1.272547, 43.809989 ], [ 1.272924, 43.810185 ], [ 1.273292, 43.810377 ], [ 1.272001, 43.809338 ], [ 1.271816, 43.809176 ], [ 1.271526, 43.809106 ], [ 1.262938, 43.810823 ], [ 1.262555, 43.810731 ], [ 1.262391, 43.810706 ], [ 1.262225, 43.810695 ], [ 1.26195, 43.810709 ], [ 1.255883, 43.810587 ], [ 1.255662, 43.81087 ] ] ], [ [ [ 1.2797, 43.826221 ], [ 1.279642, 43.826577 ], [ 1.280019, 43.833124 ], [ 1.279836, 43.833821 ], [ 1.279661779871061, 43.83658147893852 ], [ 1.27916, 43.838675 ], [ 1.279093, 43.839029 ], [ 1.279371, 43.839283 ], [ 1.279647, 43.839515 ], [ 1.285435, 43.839267 ], [ 1.28574907130763, 43.841373833813854 ], [ 1.285872, 43.839485 ], [ 1.285672312892157, 43.83875196582337 ], [ 1.282817, 43.831691 ], [ 1.281706, 43.826635 ], [ 1.276167, 43.81974 ], [ 1.2797, 43.826221 ] ] ], [ [ [ 1.282267, 43.851172 ], [ 1.280775, 43.852378 ], [ 1.277214, 43.854051 ], [ 1.275878, 43.854351 ], [ 1.275518, 43.854693 ], [ 1.275321, 43.856818 ], [ 1.275547, 43.857098 ], [ 1.277131, 43.856586 ], [ 1.279368, 43.853991 ], [ 1.281003, 43.852657 ], [ 1.288622, 43.851932 ], [ 1.293111, 43.857599 ], [ 1.293267, 43.858317 ], [ 1.293423, 43.859034 ], [ 1.293775, 43.858958 ], [ 1.300404, 43.855288 ], [ 1.300574, 43.854971 ], [ 1.304257, 43.847238 ], [ 1.304187, 43.846885 ], [ 1.303671, 43.838624 ], [ 1.29986, 43.846496 ], [ 1.29991, 43.846853 ], [ 1.294194, 43.852 ], [ 1.29384, 43.851934 ], [ 1.285127, 43.849776 ], [ 1.285017, 43.850119 ], [ 1.283414, 43.850709 ], [ 1.283188, 43.850428 ], [ 1.283538034615741, 43.850093408087901 ], [ 1.282267, 43.851172 ] ] ], [ [ [ 1.315278, 43.839167 ], [ 1.315552, 43.839399 ], [ 1.315751, 43.839165 ], [ 1.324612, 43.839869 ], [ 1.324891, 43.840097 ], [ 1.329408, 43.840231 ], [ 1.333075, 43.8401 ], [ 1.336872, 43.840282 ], [ 1.336934, 43.839928 ], [ 1.336269, 43.839811 ], [ 1.335603, 43.839693 ], [ 1.332003, 43.838031 ], [ 1.328744, 43.832976 ], [ 1.328391, 43.832906 ], [ 1.322983, 43.829878 ], [ 1.32393, 43.824144 ], [ 1.323987, 43.823788 ], [ 1.322874, 43.819015 ], [ 1.324634, 43.81272 ], [ 1.324604, 43.812361 ], [ 1.325893, 43.804875 ], [ 1.327003, 43.803135 ], [ 1.32679, 43.802845 ], [ 1.320758, 43.805085 ], [ 1.319523, 43.805315 ], [ 1.319396, 43.805652 ], [ 1.310417, 43.805993 ], [ 1.310246, 43.805739 ], [ 1.31007, 43.805477 ], [ 1.309569, 43.804798 ], [ 1.308207, 43.801796 ], [ 1.307855, 43.801721 ], [ 1.301826578475338, 43.800403584585368 ], [ 1.301123, 43.800057 ], [ 1.300365, 43.795761 ], [ 1.297635, 43.791105 ], [ 1.297299, 43.790975 ], [ 1.294801, 43.794308 ], [ 1.292178, 43.797673 ], [ 1.292085, 43.798021 ], [ 1.286268, 43.803682 ], [ 1.283146, 43.803191 ], [ 1.282957, 43.803497 ], [ 1.284975, 43.808711 ], [ 1.280981840790947, 43.81449606234353 ], [ 1.280991260927454, 43.814500146908294 ], [ 1.285849, 43.808527 ], [ 1.286278, 43.805682 ], [ 1.286458, 43.805371 ], [ 1.293357, 43.800533 ], [ 1.29374, 43.800032 ], [ 1.293748548925576, 43.800020852029228 ], [ 1.294001, 43.79969 ], [ 1.294001799938062, 43.799690607618466 ], [ 1.294138, 43.799513 ], [ 1.294513, 43.79914 ], [ 1.294888, 43.798767 ], [ 1.295142, 43.799023 ], [ 1.293781, 43.804763 ], [ 1.293618, 43.805084 ], [ 1.292362, 43.813059 ], [ 1.297213, 43.816812 ], [ 1.301639, 43.81692 ], [ 1.30969, 43.814196 ], [ 1.311284, 43.80979 ], [ 1.311509, 43.80859 ], [ 1.311845, 43.808462 ], [ 1.31984, 43.808862 ], [ 1.320834, 43.807851 ], [ 1.321091, 43.808104 ], [ 1.320271, 43.815887 ], [ 1.319238, 43.822542 ], [ 1.32192, 43.83087 ], [ 1.327015, 43.83731 ], [ 1.327549, 43.837901 ], [ 1.327557, 43.838197 ], [ 1.327472, 43.838252 ], [ 1.326488, 43.838286 ], [ 1.317997, 43.836653 ], [ 1.317729, 43.836413 ], [ 1.310957, 43.832624 ], [ 1.310617, 43.832634 ], [ 1.31042206430934, 43.832796207587343 ], [ 1.315278, 43.839167 ] ] ] ] } },
{ "type": "Feature", "properties": { "codgeo": "82075", "value": 420, "isochrone_group": 7.0, "nb_agences": 2 }, "geometry": { "type": "MultiPolygon", "coordinates": [ [ [ [ 1.257401992899428, 43.814247708766111 ], [ 1.259072086165042, 43.817054855672374 ], [ 1.261093, 43.821432 ], [ 1.266529, 43.825483 ], [ 1.267599, 43.831317 ], [ 1.269436, 43.832021 ], [ 1.270001, 43.832183 ], [ 1.270517, 43.832282 ], [ 1.270837224855628, 43.832697827536201 ], [ 1.273498, 43.838446 ], [ 1.275814, 43.841202 ], [ 1.27954, 43.842373 ], [ 1.27975, 43.851123 ], [ 1.278116, 43.852457 ], [ 1.272557, 43.853219 ], [ 1.271295, 43.852974 ], [ 1.270413, 43.853169 ], [ 1.26913, 43.853432 ], [ 1.268807404188041, 43.855185582140102 ], [ 1.27486, 43.857192 ], [ 1.275086, 43.857472 ], [ 1.275031294044096, 43.860826256610565 ], [ 1.278928, 43.858959 ], [ 1.279905, 43.858601 ], [ 1.287965, 43.860574 ], [ 1.293614, 43.867072 ], [ 1.293946, 43.868573 ], [ 1.294894, 43.868419 ], [ 1.297461, 43.867795 ], [ 1.297129, 43.866294 ], [ 1.295879, 43.86298 ], [ 1.298346139629335, 43.860684217185501 ], [ 1.303364849126747, 43.857499306596111 ], [ 1.305165, 43.857889 ], [ 1.3061, 43.858299 ], [ 1.309359, 43.85857 ], [ 1.310159, 43.856852 ], [ 1.310269, 43.855087 ], [ 1.314438, 43.847303 ], [ 1.316836, 43.843272 ], [ 1.323671, 43.843923 ], [ 1.331252, 43.841776 ], [ 1.332925, 43.842745 ], [ 1.334064, 43.843215 ], [ 1.337396695184583, 43.843841987158797 ], [ 1.335589, 43.843001 ], [ 1.335098735411969, 43.8401970028562 ], [ 1.333075, 43.8401 ], [ 1.329408, 43.840231 ], [ 1.324891, 43.840097 ], [ 1.324612, 43.839869 ], [ 1.315751, 43.839165 ], [ 1.315552, 43.839399 ], [ 1.315278, 43.839167 ], [ 1.310338401178453, 43.832686444922956 ], [ 1.308269, 43.833076 ], [ 1.303815, 43.838294 ], [ 1.303671, 43.838624 ], [ 1.304187, 43.846885 ], [ 1.304257, 43.847238 ], [ 1.300574, 43.854971 ], [ 1.300404, 43.855288 ], [ 1.293775, 43.858958 ], [ 1.293423, 43.859034 ], [ 1.293267, 43.858317 ], [ 1.293111, 43.857599 ], [ 1.288622, 43.851932 ], [ 1.281003, 43.852657 ], [ 1.279368, 43.853991 ], [ 1.277131, 43.856586 ], [ 1.275547, 43.857098 ], [ 1.275321, 43.856818 ], [ 1.275518, 43.854693 ], [ 1.275878, 43.854351 ], [ 1.277214, 43.854051 ], [ 1.280775, 43.852378 ], [ 1.282267, 43.851172 ], [ 1.283938, 43.849754 ], [ 1.28414, 43.849518 ], [ 1.285319, 43.847982 ], [ 1.286504, 43.846438 ], [ 1.285435, 43.839267 ], [ 1.279647, 43.839515 ], [ 1.279371, 43.839283 ], [ 1.279093, 43.839029 ], [ 1.27916, 43.838675 ], [ 1.279661779871061, 43.83658147893852 ], [ 1.279836, 43.833821 ], [ 1.280019, 43.833124 ], [ 1.279642, 43.826577 ], [ 1.2797, 43.826221 ], [ 1.276167, 43.81974 ], [ 1.270017, 43.822994 ], [ 1.269659, 43.822965 ], [ 1.26938, 43.822673 ], [ 1.266223, 43.819265 ], [ 1.263332, 43.816658 ], [ 1.258152, 43.812753 ], [ 1.257759, 43.812449 ], [ 1.257238, 43.812052 ], [ 1.257142746384592, 43.811979417110742 ], [ 1.256283, 43.811336 ], [ 1.2559, 43.811056 ], [ 1.255662, 43.81087 ], [ 1.255883, 43.810587 ], [ 1.26195, 43.810709 ], [ 1.262225, 43.810695 ], [ 1.262391, 43.810706 ], [ 1.262555, 43.810731 ], [ 1.262938, 43.810823 ], [ 1.266671907521195, 43.810076479364959 ], [ 1.263686, 43.809337 ], [ 1.262802, 43.80913 ], [ 1.25574, 43.806506 ], [ 1.250228, 43.806621 ], [ 1.248983917484603, 43.813173040119622 ], [ 1.251791, 43.81298 ], [ 1.252459, 43.81194 ], [ 1.252708, 43.811441 ], [ 1.252813, 43.811288 ], [ 1.252927, 43.811124 ], [ 1.253337, 43.810616 ], [ 1.253861, 43.809947 ], [ 1.254155, 43.810155 ], [ 1.251997, 43.815788 ], [ 1.251967465990165, 43.81589971560242 ], [ 1.257401992899428, 43.814247708766111 ] ] ], [ [ [ 1.337586204258665, 43.837489697561871 ], [ 1.336449, 43.837266 ], [ 1.334277, 43.834394 ], [ 1.332323, 43.830467 ], [ 1.329282, 43.822772 ], [ 1.329627, 43.821155 ], [ 1.328843, 43.817482 ], [ 1.330282, 43.812003 ], [ 1.332355, 43.80385 ], [ 1.335036, 43.798975 ], [ 1.332577, 43.796345 ], [ 1.328436, 43.797178 ], [ 1.328165, 43.797473 ], [ 1.320903, 43.802287 ], [ 1.320316148698294, 43.803147557486781 ], [ 1.312518, 43.799351 ], [ 1.312229, 43.799132 ], [ 1.31172, 43.798853 ], [ 1.308342, 43.796349 ], [ 1.307952247591602, 43.794476259534022 ], [ 1.306096, 43.795283 ], [ 1.305737, 43.795311 ], [ 1.305718, 43.795071 ], [ 1.298710207426051, 43.792938760357387 ], [ 1.300365, 43.795761 ], [ 1.301123, 43.800057 ], [ 1.301826578475338, 43.800403584585368 ], [ 1.307855, 43.801721 ], [ 1.308207, 43.801796 ], [ 1.309569, 43.804798 ], [ 1.31007, 43.805477 ], [ 1.310246, 43.805739 ], [ 1.310417, 43.805993 ], [ 1.319396, 43.805652 ], [ 1.319523, 43.805315 ], [ 1.320758, 43.805085 ], [ 1.32679, 43.802845 ], [ 1.327003, 43.803135 ], [ 1.325893, 43.804875 ], [ 1.324604, 43.812361 ], [ 1.324634, 43.81272 ], [ 1.322874, 43.819015 ], [ 1.323987, 43.823788 ], [ 1.32393, 43.824144 ], [ 1.322983, 43.829878 ], [ 1.328391, 43.832906 ], [ 1.328744, 43.832976 ], [ 1.332003, 43.838031 ], [ 1.335006579210728, 43.839417652402282 ], [ 1.336267, 43.838165 ], [ 1.337586204258665, 43.837489697561871 ] ] ], [ [ [ 1.296537, 43.78684 ], [ 1.296315427190244, 43.786344692029679 ], [ 1.295394, 43.788506 ], [ 1.291615, 43.792869 ], [ 1.287756, 43.796038 ], [ 1.287004066513154, 43.798009907205305 ], [ 1.283313, 43.801392 ], [ 1.281428, 43.804459 ], [ 1.283958015899687, 43.806083371110475 ], [ 1.282957, 43.803497 ], [ 1.283146, 43.803191 ], [ 1.286268, 43.803682 ], [ 1.292085, 43.798021 ], [ 1.292178, 43.797673 ], [ 1.294801, 43.794308 ], [ 1.296736305139756, 43.791725785415998 ], [ 1.296396, 43.787171 ], [ 1.296537, 43.78684 ] ] ] ] } },
{ "type": "Feature", "properties": { "codgeo": "82075", "value": 480, "isochrone_group": 8.0, "nb_agences": 2 }, "geometry": { "type": "MultiPolygon", "coordinates": [ [ [ [ 1.238712, 43.808344 ], [ 1.238092, 43.810479 ], [ 1.239328180956607, 43.811583637576568 ], [ 1.242191, 43.80944 ], [ 1.246894, 43.807006 ], [ 1.249984, 43.806528 ], [ 1.256260325915665, 43.80576084300175 ], [ 1.258038105594539, 43.801853626981298 ], [ 1.257007246137637, 43.80240480197363 ], [ 1.251429101232481, 43.803418373872084 ], [ 1.250949, 43.803432 ], [ 1.25041, 43.803338 ], [ 1.245649, 43.806301 ], [ 1.240002, 43.807428 ], [ 1.238712, 43.808344 ] ] ], [ [ [ 1.257566014082649, 43.81452340088854 ], [ 1.257401992899428, 43.814247708766111 ], [ 1.254387520608535, 43.81516405878434 ], [ 1.25363440854431, 43.816776927978843 ], [ 1.257566014082649, 43.81452340088854 ] ] ], [ [ [ 1.263003, 43.832083 ], [ 1.264001, 43.832192 ], [ 1.264411, 43.832208 ], [ 1.264982, 43.832144 ], [ 1.265578, 43.831943 ], [ 1.269436, 43.832021 ], [ 1.267599, 43.831317 ], [ 1.266529, 43.825483 ], [ 1.263267121772596, 43.823052192660199 ], [ 1.261937, 43.826088 ], [ 1.263003, 43.832083 ] ] ], [ [ [ 1.272077005684168, 43.840266059779069 ], [ 1.272172, 43.843138 ], [ 1.272146134939792, 43.850377232428116 ], [ 1.272136313938856, 43.850421085258652 ], [ 1.270670488389708, 43.851341988756957 ], [ 1.275786, 43.852091 ], [ 1.277655, 43.851674 ], [ 1.279735400131631, 43.850514672151313 ], [ 1.27954, 43.842373 ], [ 1.275814, 43.841202 ], [ 1.273498, 43.838446 ], [ 1.270837224855628, 43.832697827536201 ], [ 1.270517, 43.832282 ], [ 1.270001, 43.832183 ], [ 1.269436, 43.832021 ], [ 1.271744, 43.839808 ], [ 1.272077005684168, 43.840266059779069 ] ] ], [ [ [ 1.268994472570672, 43.867642174574804 ], [ 1.268374, 43.867697 ], [ 1.268281951600778, 43.868105825315361 ], [ 1.268994472570672, 43.867642174574804 ] ] ], [ [ [ 1.280636, 43.865232 ], [ 1.281743, 43.867567 ], [ 1.281844, 43.867597 ], [ 1.283752, 43.867036 ], [ 1.284592, 43.865978 ], [ 1.2926, 43.869607 ], [ 1.291666, 43.873084 ], [ 1.296083, 43.877704 ], [ 1.297473, 43.880802 ], [ 1.300758, 43.879329 ], [ 1.299368, 43.876231 ], [ 1.299549, 43.870382 ], [ 1.299678, 43.865956 ], [ 1.298618, 43.862515 ], [ 1.300844947279784, 43.859098455158261 ], [ 1.298346139629335, 43.860684217185501 ], [ 1.295879, 43.86298 ], [ 1.297129, 43.866294 ], [ 1.297461, 43.867795 ], [ 1.294894, 43.868419 ], [ 1.293946, 43.868573 ], [ 1.293614, 43.867072 ], [ 1.287965, 43.860574 ], [ 1.280000988745335, 43.858624496996832 ], [ 1.279413, 43.863692 ], [ 1.279777, 43.864423 ], [ 1.279607, 43.865106 ], [ 1.279573648271682, 43.865247440017733 ], [ 1.280636, 43.865232 ] ] ], [ [ [ 1.308904, 43.86037 ], [ 1.316297, 43.861067 ], [ 1.317235, 43.861461 ], [ 1.318173, 43.861293 ], [ 1.31905, 43.857802 ], [ 1.317769, 43.857297 ], [ 1.31360414069226, 43.854117940724514 ], [ 1.313666988600227, 43.85362688907022 ], [ 1.316794, 43.846752 ], [ 1.319129, 43.846267 ], [ 1.319131334002654, 43.846265893006482 ], [ 1.319352, 43.84622 ], [ 1.32122, 43.84601 ], [ 1.324847, 43.846467 ], [ 1.325142, 43.846509 ], [ 1.325717, 43.846531 ], [ 1.326292, 43.846467 ], [ 1.326899, 43.846297 ], [ 1.327187689488499, 43.846163493427674 ], [ 1.325756681558293, 43.843332318255428 ], [ 1.323671, 43.843923 ], [ 1.316836, 43.843272 ], [ 1.314438, 43.847303 ], [ 1.310269, 43.855087 ], [ 1.310159, 43.856852 ], [ 1.309359, 43.85857 ], [ 1.3061, 43.858299 ], [ 1.305165, 43.857889 ], [ 1.303364849126747, 43.857499306596111 ], [ 1.303091380683832, 43.857672851715655 ], [ 1.308027, 43.859866 ], [ 1.308904, 43.86037 ] ] ], [ [ [ 1.342151248566584, 43.833012409243395 ], [ 1.338615, 43.831216 ], [ 1.334323, 43.823439 ], [ 1.33445, 43.819056 ], [ 1.33473, 43.81688 ], [ 1.334173637631261, 43.810274040574988 ], [ 1.334300884194155, 43.809815925744616 ], [ 1.336206, 43.807071 ], [ 1.338679, 43.798423 ], [ 1.339316, 43.797127 ], [ 1.339375, 43.796875 ], [ 1.339655, 43.793629 ], [ 1.337401, 43.790822 ], [ 1.337016, 43.791131 ], [ 1.336146, 43.791902 ], [ 1.335563, 43.792497 ], [ 1.335041, 43.793115 ], [ 1.326091, 43.79351 ], [ 1.3252, 43.792878 ], [ 1.320556433674707, 43.792184820064847 ], [ 1.320206, 43.792282 ], [ 1.319942233431284, 43.792093133792896 ], [ 1.31703517411353, 43.791659175268734 ], [ 1.317254, 43.791462 ], [ 1.317614, 43.791161 ], [ 1.318119827869908, 43.790788226852406 ], [ 1.314899, 43.788482 ], [ 1.308726, 43.792202 ], [ 1.308908978317982, 43.796769282329251 ], [ 1.31172, 43.798853 ], [ 1.312229, 43.799132 ], [ 1.312518, 43.799351 ], [ 1.320316148698294, 43.803147557486781 ], [ 1.320903, 43.802287 ], [ 1.328165, 43.797473 ], [ 1.328436, 43.797178 ], [ 1.332577, 43.796345 ], [ 1.335036, 43.798975 ], [ 1.332355, 43.80385 ], [ 1.330282, 43.812003 ], [ 1.328843, 43.817482 ], [ 1.329627, 43.821155 ], [ 1.329282, 43.822772 ], [ 1.332323, 43.830467 ], [ 1.334277, 43.834394 ], [ 1.336145257796258, 43.836864366662454 ], [ 1.341747, 43.8335 ], [ 1.342151248566584, 43.833012409243395 ] ] ], [ [ [ 1.292586, 43.786832 ], [ 1.289905, 43.792073 ], [ 1.284459, 43.797223 ], [ 1.2844, 43.797412 ], [ 1.284317, 43.798018 ], [ 1.284413, 43.798645 ], [ 1.284319165995559, 43.800470058671742 ], [ 1.287004066513154, 43.798009907205305 ], [ 1.287756, 43.796038 ], [ 1.291615, 43.792869 ], [ 1.29370383181175, 43.790457363801345 ], [ 1.292780021576044, 43.786627089457959 ], [ 1.292586, 43.786832 ] ] ], [ [ [ 1.262571, 43.804788 ], [ 1.262021, 43.805627 ], [ 1.261365, 43.806561 ], [ 1.261039, 43.806981 ], [ 1.260863, 43.807176 ], [ 1.260859981306446, 43.807173279337519 ], [ 1.260742, 43.8073 ], [ 1.260229, 43.807754 ], [ 1.259837823030607, 43.808028612239063 ], [ 1.262802, 43.80913 ], [ 1.263686, 43.809337 ], [ 1.266993, 43.810156 ], [ 1.264025542038023, 43.802963322630227 ], [ 1.262571, 43.804788 ] ] ] ] } },
{ "type": "Feature", "properties": { "codgeo": "82075", "value": 540, "isochrone_group": 9.0, "nb_agences": 2 }, "geometry": { "type": "MultiPolygon", "coordinates": [ [ [ [ 1.236367, 43.804699 ], [ 1.231049, 43.804911 ], [ 1.230223, 43.808415 ], [ 1.231326700749626, 43.809601687468557 ], [ 1.233966, 43.806947 ], [ 1.234137, 43.805498 ], [ 1.235974, 43.805847 ], [ 1.23753, 43.80625 ], [ 1.245829, 43.805587 ], [ 1.249266, 43.802783 ], [ 1.25352796178216, 43.803010409844305 ], [ 1.254247427514164, 43.799650836936941 ], [ 1.25341, 43.79991 ], [ 1.245193, 43.802077 ], [ 1.244527, 43.802029 ], [ 1.236367, 43.804699 ] ] ], [ [ [ 1.244654, 43.830097 ], [ 1.244663685112549, 43.830079327814119 ], [ 1.244484882154792, 43.830395872054034 ], [ 1.244654, 43.830097 ] ] ], [ [ [ 1.244962, 43.829535 ], [ 1.245036526502316, 43.829340811226352 ], [ 1.24466545539727, 43.830076097619269 ], [ 1.244962, 43.829535 ] ] ], [ [ [ 1.259856, 43.82441 ], [ 1.259024, 43.828799 ], [ 1.259084, 43.830659 ], [ 1.259089, 43.831245 ], [ 1.259134, 43.831493 ], [ 1.25943, 43.832755 ], [ 1.259432142504717, 43.832754515473084 ], [ 1.259454, 43.832847 ], [ 1.259556, 43.833421 ], [ 1.262808295575641, 43.832843017993618 ], [ 1.26355038861775, 43.834934890579682 ], [ 1.267447, 43.839557 ], [ 1.269958, 43.842137 ], [ 1.270319, 43.847703 ], [ 1.272148662657105, 43.849669763240271 ], [ 1.272172, 43.843138 ], [ 1.272077005684168, 43.840266059779069 ], [ 1.271744, 43.839808 ], [ 1.269436, 43.832021 ], [ 1.265578, 43.831943 ], [ 1.264982, 43.832144 ], [ 1.264411, 43.832208 ], [ 1.264001, 43.832192 ], [ 1.263003, 43.832083 ], [ 1.261937, 43.826088 ], [ 1.263382, 43.82279 ], [ 1.263677, 43.819323 ], [ 1.258759483201148, 43.814788114191259 ], [ 1.253563, 43.820087 ], [ 1.253367266244115, 43.820593942238062 ], [ 1.259856, 43.82441 ] ] ], [ [ [ 1.288662, 43.872859 ], [ 1.290496572818082, 43.873848804197273 ], [ 1.293894992801912, 43.876194055290867 ], [ 1.296292, 43.884082 ], [ 1.30128, 43.889235 ], [ 1.30456, 43.88775 ], [ 1.305149, 43.880599 ], [ 1.305423, 43.878895 ], [ 1.305366, 43.878795 ], [ 1.304824, 43.878201 ], [ 1.30179, 43.871934 ], [ 1.302887167051716, 43.86417886891396 ], [ 1.308932798132509, 43.861697545568333 ], [ 1.311125, 43.861564 ], [ 1.316572, 43.864442 ], [ 1.320168, 43.86426 ], [ 1.327362, 43.863546 ], [ 1.329176, 43.860436 ], [ 1.327154, 43.858947 ], [ 1.324155, 43.850945 ], [ 1.327153, 43.848951 ], [ 1.330005712409719, 43.845510595370975 ], [ 1.327485, 43.846026 ], [ 1.326152, 43.847445 ], [ 1.323568, 43.848648 ], [ 1.322875, 43.848934 ], [ 1.317028672262778, 43.846703256510743 ], [ 1.316794, 43.846752 ], [ 1.313666988600227, 43.85362688907022 ], [ 1.31360414069226, 43.854117940724514 ], [ 1.317769, 43.857297 ], [ 1.31905, 43.857802 ], [ 1.318173, 43.861293 ], [ 1.317235, 43.861461 ], [ 1.316297, 43.861067 ], [ 1.308904, 43.86037 ], [ 1.308027, 43.859866 ], [ 1.30207, 43.857219 ], [ 1.298618, 43.862515 ], [ 1.299678, 43.865956 ], [ 1.299549, 43.870382 ], [ 1.299368, 43.876231 ], [ 1.300758, 43.879329 ], [ 1.297473, 43.880802 ], [ 1.296083, 43.877704 ], [ 1.291666, 43.873084 ], [ 1.2926, 43.869607 ], [ 1.284592, 43.865978 ], [ 1.284332219719195, 43.866305199448931 ], [ 1.285809, 43.871472 ], [ 1.286007, 43.872568 ], [ 1.285314128945211, 43.873722372668084 ], [ 1.288662, 43.872859 ] ] ], [ [ [ 1.342363, 43.828905 ], [ 1.344795253967019, 43.829023888177602 ], [ 1.344528, 43.828762 ], [ 1.341618, 43.826642 ], [ 1.339345, 43.819327 ], [ 1.340293, 43.812131 ], [ 1.339716, 43.809437 ], [ 1.343461, 43.802979 ], [ 1.342825, 43.794443 ], [ 1.34543, 43.790368 ], [ 1.345729835797989, 43.788478150238426 ], [ 1.344969458415066, 43.787603490903379 ], [ 1.344351884148987, 43.787390028558086 ], [ 1.344337, 43.788157 ], [ 1.344328, 43.788228 ], [ 1.341901, 43.789592 ], [ 1.337501242525382, 43.790946836188446 ], [ 1.339655, 43.793629 ], [ 1.339375, 43.796875 ], [ 1.339316, 43.797127 ], [ 1.338679, 43.798423 ], [ 1.336206, 43.807071 ], [ 1.334300884194155, 43.809815925744616 ], [ 1.334173637631261, 43.810274040574988 ], [ 1.33473, 43.81688 ], [ 1.33445, 43.819056 ], [ 1.334323, 43.823439 ], [ 1.338615, 43.831216 ], [ 1.339494048095631, 43.831662555182582 ], [ 1.340076, 43.831325 ], [ 1.342363, 43.828905 ] ] ], [ [ [ 1.333725484859288, 43.793173059048122 ], [ 1.335041, 43.793115 ], [ 1.335563, 43.792497 ], [ 1.336146, 43.791902 ], [ 1.335187144032892, 43.792089371280781 ], [ 1.333725484859288, 43.793173059048122 ] ] ], [ [ [ 1.317614, 43.791161 ], [ 1.317254, 43.791462 ], [ 1.31703517411353, 43.791659175268734 ], [ 1.31965525072016, 43.792050293733503 ], [ 1.318045766804598, 43.790842806637464 ], [ 1.317614, 43.791161 ] ] ], [ [ [ 1.291089907753388, 43.78840706703329 ], [ 1.288443, 43.791099 ], [ 1.287667, 43.791785 ], [ 1.287321, 43.792145 ], [ 1.28699, 43.792645 ], [ 1.285346, 43.79544 ], [ 1.284843, 43.796326 ], [ 1.284527, 43.797039 ], [ 1.284466892363944, 43.79721553660039 ], [ 1.289905, 43.792073 ], [ 1.290919506006015, 43.790089775092305 ], [ 1.291092, 43.78841 ], [ 1.291089907753388, 43.78840706703329 ] ] ], [ [ [ 1.264305180885326, 43.803133579111957 ], [ 1.265473460589795, 43.806472862153299 ], [ 1.266993, 43.810156 ], [ 1.264323812053661, 43.803115804844985 ], [ 1.264305180885326, 43.803133579111957 ] ] ], [ [ [ 1.337380195648116, 43.846642962292968 ], [ 1.336109654608258, 43.84573278952913 ], [ 1.333655133137075, 43.845636466331939 ], [ 1.337163, 43.847995 ], [ 1.337406, 43.848119 ], [ 1.33782, 43.848275 ], [ 1.338608022529379, 43.84869860298209 ], [ 1.337380195648116, 43.846642962292968 ] ] ] ] } },
{ "type": "Feature", "properties": { "codgeo": "82075", "value": 600, "isochrone_group": 10.0, "nb_agences": 2 }, "geometry": { "type": "MultiPolygon", "coordinates": [ [ [ [ 1.220585733010194, 43.802681645200636 ], [ 1.22047106313749, 43.802740348046186 ], [ 1.219792, 43.80463 ], [ 1.21981, 43.804843 ], [ 1.219859839269098, 43.804965034770206 ], [ 1.223187, 43.80493 ], [ 1.224468, 43.803418 ], [ 1.230522, 43.802766 ], [ 1.235693, 43.80425 ], [ 1.240968487564803, 43.802959577808728 ], [ 1.239517125393525, 43.801381425560265 ], [ 1.236047, 43.803618 ], [ 1.231013, 43.801998 ], [ 1.224153, 43.802163 ], [ 1.220585733010194, 43.802681645200636 ] ] ], [ [ [ 1.252342, 43.835714 ], [ 1.253936, 43.835603 ], [ 1.254344285504874, 43.835819909497225 ], [ 1.257069, 43.831769 ], [ 1.259089738036781, 43.831249067402709 ], [ 1.259089, 43.831245 ], [ 1.259084, 43.830659 ], [ 1.259024, 43.828799 ], [ 1.259856, 43.82441 ], [ 1.253153353629817, 43.820468139127158 ], [ 1.250460463368188, 43.822468593850637 ], [ 1.250259, 43.822772 ], [ 1.249873, 43.822905 ], [ 1.245497361392829, 43.827604463849006 ], [ 1.245427381676489, 43.827903071659378 ], [ 1.245215, 43.828833 ], [ 1.245190532517555, 43.828913721779706 ], [ 1.245175, 43.82898 ], [ 1.24515332164555, 43.829036485853166 ], [ 1.245098, 43.829219 ], [ 1.245036526502316, 43.829340811226352 ], [ 1.244962, 43.829535 ], [ 1.24466545539727, 43.830076097619269 ], [ 1.244665, 43.830077 ], [ 1.244663685112549, 43.830079327814119 ], [ 1.244654, 43.830097 ], [ 1.244484882154792, 43.830395872054034 ], [ 1.243842, 43.831534 ], [ 1.243791441438136, 43.83161034545887 ], [ 1.243762, 43.831662 ], [ 1.252092, 43.832122 ], [ 1.252342, 43.835714 ] ] ], [ [ [ 1.290338, 43.881404 ], [ 1.292589, 43.885334 ], [ 1.292997, 43.885326 ], [ 1.293613, 43.885295 ], [ 1.29414, 43.885209 ], [ 1.298261963697265, 43.886720882246827 ], [ 1.300931, 43.889454 ], [ 1.302329457853726, 43.891905949946207 ], [ 1.303231, 43.894534 ], [ 1.304781, 43.897784 ], [ 1.306103, 43.899621 ], [ 1.309314, 43.897993 ], [ 1.311731, 43.889871 ], [ 1.309913, 43.886764 ], [ 1.30827, 43.879111 ], [ 1.306531, 43.875959 ], [ 1.30381, 43.873567 ], [ 1.301924, 43.872039 ], [ 1.303410340550156, 43.863964141518579 ], [ 1.302887167051716, 43.86417886891396 ], [ 1.30179, 43.871934 ], [ 1.304824, 43.878201 ], [ 1.305366, 43.878795 ], [ 1.305423, 43.878895 ], [ 1.305149, 43.880599 ], [ 1.30456, 43.88775 ], [ 1.30128, 43.889235 ], [ 1.296292, 43.884082 ], [ 1.294759190477626, 43.879037911366559 ], [ 1.294221, 43.880686 ], [ 1.294068, 43.880916 ], [ 1.292656, 43.88187 ], [ 1.289618, 43.880375 ], [ 1.289247989751828, 43.880243601011806 ], [ 1.290338, 43.881404 ] ] ], [ [ [ 1.293894992801912, 43.876194055290867 ], [ 1.290496572818082, 43.873848804197273 ], [ 1.288662, 43.872859 ], [ 1.287495624953028, 43.873159793047208 ], [ 1.288236, 43.874189 ], [ 1.289471, 43.875111 ], [ 1.293786, 43.878236 ], [ 1.29472390278682, 43.878921788497081 ], [ 1.293894992801912, 43.876194055290867 ] ] ], [ [ [ 1.313412912072765, 43.863577161751053 ], [ 1.316261, 43.868904 ], [ 1.319825, 43.869408 ], [ 1.32803, 43.866076 ], [ 1.329363506570193, 43.866711204471102 ], [ 1.329401, 43.864468 ], [ 1.331684, 43.861685 ], [ 1.332438845175699, 43.861553597105917 ], [ 1.33182, 43.860438 ], [ 1.327315, 43.857908 ], [ 1.329535, 43.851326 ], [ 1.329570373212599, 43.851239462772888 ], [ 1.329408, 43.851206 ], [ 1.326724, 43.853606 ], [ 1.325087, 43.852117 ], [ 1.32445507292842, 43.851745661411542 ], [ 1.327154, 43.858947 ], [ 1.329176, 43.860436 ], [ 1.327362, 43.863546 ], [ 1.320168, 43.86426 ], [ 1.316572, 43.864442 ], [ 1.311125, 43.861564 ], [ 1.308932798132509, 43.861697545568333 ], [ 1.307068429821493, 43.862462742874129 ], [ 1.31314173202993, 43.86329065092476 ], [ 1.313412912072765, 43.863577161751053 ] ] ], [ [ [ 1.346194, 43.827938 ], [ 1.346857150150157, 43.828234863624751 ], [ 1.345337, 43.826176 ], [ 1.34508, 43.825365 ], [ 1.344806, 43.824956 ], [ 1.342682, 43.821176 ], [ 1.344003, 43.813224 ], [ 1.347479, 43.808168 ], [ 1.347555, 43.808083 ], [ 1.347968, 43.807289 ], [ 1.348958916519632, 43.805043638779182 ], [ 1.343459969557296, 43.802965170033133 ], [ 1.343461, 43.802979 ], [ 1.339716, 43.809437 ], [ 1.340293, 43.812131 ], [ 1.339345, 43.819327 ], [ 1.341494835432967, 43.826245630088934 ], [ 1.341963, 43.826168 ], [ 1.346194, 43.827938 ] ] ], [ [ [ 1.337677, 43.789426 ], [ 1.336144, 43.789472 ], [ 1.334600218406633, 43.79220406317409 ], [ 1.336146, 43.791902 ], [ 1.337016, 43.791131 ], [ 1.337513, 43.790737 ], [ 1.33822, 43.790242 ], [ 1.338591, 43.790009 ], [ 1.339210346336556, 43.789652546416939 ], [ 1.338115, 43.789343 ], [ 1.337677, 43.789426 ] ] ], [ [ [ 1.284315, 43.816586 ], [ 1.284971510888653, 43.813623168100918 ], [ 1.284971510888653, 43.813623168100918 ], [ 1.284315, 43.816586 ] ] ], [ [ [ 1.284317, 43.798018 ], [ 1.2844, 43.797412 ], [ 1.284527, 43.797039 ], [ 1.284843, 43.796326 ], [ 1.285346, 43.79544 ], [ 1.286932684874902, 43.792742442685324 ], [ 1.284579, 43.793086 ], [ 1.283549, 43.796536 ], [ 1.284413, 43.798645 ], [ 1.284317, 43.798018 ] ] ], [ [ [ 1.270729, 43.793145 ], [ 1.271731, 43.790052 ], [ 1.272163303006776, 43.789366808277798 ], [ 1.271659, 43.790156 ], [ 1.270729, 43.793145 ] ] ] ] } },
{ "type": "Feature", "properties": { "codgeo": "82075", "value": 660, "isochrone_group": 11.0, "nb_agences": 2 }, "geometry": { "type": "MultiPolygon", "coordinates": [ [ [ [ 1.287479, 43.885133 ], [ 1.289296, 43.885396 ], [ 1.289438, 43.885419 ], [ 1.292843, 43.886011 ], [ 1.292984, 43.88604 ], [ 1.298717997617593, 43.887187865180842 ], [ 1.298261963697265, 43.886720882246827 ], [ 1.294890640612124, 43.885484325135934 ], [ 1.293613, 43.885295 ], [ 1.292997, 43.885326 ], [ 1.292589, 43.885334 ], [ 1.292535087493491, 43.885239874655447 ], [ 1.291071, 43.885165 ], [ 1.290741, 43.885095 ], [ 1.289593, 43.883672 ], [ 1.281156, 43.881423 ], [ 1.280196, 43.88534 ], [ 1.279967819555049, 43.88571357433392 ], [ 1.287479, 43.885133 ] ] ], [ [ [ 1.297924, 43.897962 ], [ 1.299597, 43.904205 ], [ 1.301682, 43.903948 ], [ 1.309327, 43.905216 ], [ 1.311494, 43.904919 ], [ 1.315988, 43.900303 ], [ 1.316975, 43.892551 ], [ 1.317735, 43.890698 ], [ 1.317549, 43.8897 ], [ 1.316841, 43.886654 ], [ 1.314919, 43.88361 ], [ 1.309733, 43.878304 ], [ 1.316447, 43.874205 ], [ 1.318241, 43.873381 ], [ 1.318435, 43.873211 ], [ 1.318848, 43.872628 ], [ 1.319522, 43.870875 ], [ 1.324451289628848, 43.868611093879565 ], [ 1.323952205878126, 43.867731967094954 ], [ 1.319825, 43.869408 ], [ 1.316261, 43.868904 ], [ 1.313412912072765, 43.863577161751053 ], [ 1.31314173202993, 43.86329065092476 ], [ 1.305531365966732, 43.862253211469962 ], [ 1.303477, 43.863602 ], [ 1.301924, 43.872039 ], [ 1.30381, 43.873567 ], [ 1.306531, 43.875959 ], [ 1.30827, 43.879111 ], [ 1.309913, 43.886764 ], [ 1.311731, 43.889871 ], [ 1.309314, 43.897993 ], [ 1.306103, 43.899621 ], [ 1.304781, 43.897784 ], [ 1.303231, 43.894534 ], [ 1.302329457853726, 43.891905949946207 ], [ 1.300931, 43.889454 ], [ 1.300150306346607, 43.888654562509515 ], [ 1.298254, 43.894377 ], [ 1.297924, 43.897962 ] ] ], [ [ [ 1.347351041980726, 43.820033988386086 ], [ 1.346498455146591, 43.817881153739897 ], [ 1.346494, 43.817685 ], [ 1.347273, 43.815128 ], [ 1.348388161076104, 43.812897038787007 ], [ 1.349395, 43.811891 ], [ 1.350698, 43.811525 ], [ 1.350743482067082, 43.811495577033149 ], [ 1.350665165549086, 43.810818986908615 ], [ 1.346862279087545, 43.809065048599919 ], [ 1.344003, 43.813224 ], [ 1.342682, 43.821176 ], [ 1.343340652718475, 43.822348178566784 ], [ 1.344146, 43.822232 ], [ 1.347351041980726, 43.820033988386086 ] ] ], [ [ [ 1.282488, 43.812154 ], [ 1.278967138768461, 43.812511994774759 ], [ 1.280216, 43.813324 ], [ 1.281324874993913, 43.81619447660033 ], [ 1.284315, 43.816586 ], [ 1.284795664906429, 43.81441676055227 ], [ 1.282925, 43.812296 ], [ 1.282488, 43.812154 ] ] ] ] } },
{ "type": "Feature", "properties": { "codgeo": "82075", "value": 720, "isochrone_group": 12.0, "nb_agences": 2 }, "geometry": { "type": "MultiPolygon", "coordinates": [ [ [ [ 1.259573, 43.888868 ], [ 1.25957445271887, 43.888866534673717 ], [ 1.258862, 43.888163 ], [ 1.258861896023365, 43.888162960195508 ], [ 1.259573, 43.888868 ] ] ], [ [ [ 1.289709, 43.892224 ], [ 1.289168, 43.895783 ], [ 1.291436, 43.903226 ], [ 1.288395628832885, 43.905746413293706 ], [ 1.288953, 43.905624 ], [ 1.290094, 43.906662 ], [ 1.290972, 43.907464 ], [ 1.291001, 43.908134 ], [ 1.290961, 43.908612 ], [ 1.290710109699304, 43.908780088221263 ], [ 1.29692, 43.905973 ], [ 1.30017, 43.904424 ], [ 1.306172540946301, 43.905936945417857 ], [ 1.306460615685645, 43.906064539162067 ], [ 1.307349, 43.906952 ], [ 1.311159, 43.912335 ], [ 1.314579, 43.911212 ], [ 1.317256, 43.903225 ], [ 1.324561, 43.902511 ], [ 1.326460588571427, 43.899723 ], [ 1.324615, 43.899723 ], [ 1.322837, 43.896592 ], [ 1.32386, 43.896011 ], [ 1.324027412440018, 43.895903585081832 ], [ 1.324027, 43.895903 ], [ 1.32186, 43.888176 ], [ 1.318314, 43.882403 ], [ 1.318199521916299, 43.881794233367955 ], [ 1.318132604954339, 43.880377084762479 ], [ 1.320451004810229, 43.875080904234807 ], [ 1.320188, 43.873608 ], [ 1.320333085108506, 43.870502487796514 ], [ 1.319522, 43.870875 ], [ 1.318848, 43.872628 ], [ 1.318435, 43.873211 ], [ 1.318241, 43.873381 ], [ 1.316447, 43.874205 ], [ 1.309733, 43.878304 ], [ 1.314919, 43.88361 ], [ 1.316841, 43.886654 ], [ 1.317549, 43.8897 ], [ 1.317735, 43.890698 ], [ 1.316975, 43.892551 ], [ 1.315988, 43.900303 ], [ 1.311494, 43.904919 ], [ 1.309327, 43.905216 ], [ 1.301682, 43.903948 ], [ 1.299597, 43.904205 ], [ 1.297924, 43.897962 ], [ 1.298254, 43.894377 ], [ 1.300517, 43.887548 ], [ 1.292794, 43.887147 ], [ 1.289245, 43.886541 ], [ 1.282694, 43.887777 ], [ 1.282561725328888, 43.887947787842897 ], [ 1.289709, 43.892224 ] ] ], [ [ [ 1.251559, 43.887381 ], [ 1.251557827026906, 43.887379074270015 ], [ 1.251448251060059, 43.887445735810218 ], [ 1.251448, 43.887448 ], [ 1.25096, 43.887746 ], [ 1.250751805504007, 43.890007352068814 ], [ 1.256308410924536, 43.887185431485904 ], [ 1.254515920396569, 43.886499227774109 ], [ 1.251559, 43.887381 ] ] ], [ [ [ 1.348400612680265, 43.812884597078174 ], [ 1.348388161076104, 43.812897038787007 ], [ 1.347273, 43.815128 ], [ 1.346494, 43.817685 ], [ 1.346498455146591, 43.817881153739897 ], [ 1.347025204528311, 43.819211228605489 ], [ 1.347183295636778, 43.819135206909863 ], [ 1.347630951592062, 43.818587684980471 ], [ 1.348400612680265, 43.812884597078174 ] ] ] ] } },
{ "type": "Feature", "properties": { "codgeo": "82075", "value": 780, "isochrone_group": 13.0, "nb_agences": 2 }, "geometry": { "type": "MultiPolygon", "coordinates": [ [ [ [ 1.253757, 43.891428 ], [ 1.255089, 43.891733 ], [ 1.261056, 43.890436 ], [ 1.261180501989771, 43.890494926063148 ], [ 1.260977, 43.89033 ], [ 1.2603, 43.889583 ], [ 1.25957445271887, 43.888866534673717 ], [ 1.259573, 43.888868 ], [ 1.258861896023365, 43.888162960195508 ], [ 1.256308410924536, 43.887185431485904 ], [ 1.250211, 43.890282 ], [ 1.249903134445583, 43.890364170168901 ], [ 1.250059376350197, 43.891886391938066 ], [ 1.253757, 43.891428 ] ] ], [ [ [ 1.285805, 43.895008 ], [ 1.28730172214541, 43.903845740422888 ], [ 1.288131, 43.90333 ], [ 1.29129010783901, 43.902747218979627 ], [ 1.289168, 43.895783 ], [ 1.289709, 43.892224 ], [ 1.288524523655786, 43.891515328180873 ], [ 1.285033, 43.894827 ], [ 1.284809944680822, 43.894822349554033 ], [ 1.285805, 43.895008 ] ] ], [ [ [ 1.305003, 43.909009 ], [ 1.30847, 43.914232 ], [ 1.313229280624552, 43.919135263261708 ], [ 1.313332, 43.918866 ], [ 1.313460136825779, 43.918803456553981 ], [ 1.3122, 43.915622 ], [ 1.311869, 43.914746 ], [ 1.315236, 43.913473 ], [ 1.31746552051951, 43.916901403891451 ], [ 1.318331, 43.91272 ], [ 1.318349, 43.912673 ], [ 1.318515, 43.910186 ], [ 1.324521, 43.903785 ], [ 1.32934, 43.905656 ], [ 1.329881, 43.906037 ], [ 1.331438, 43.907059 ], [ 1.332899, 43.908043 ], [ 1.334909, 43.905056 ], [ 1.333900376052559, 43.902724215433004 ], [ 1.330627, 43.902701 ], [ 1.328318, 43.904994 ], [ 1.32769, 43.904659 ], [ 1.323030779290155, 43.902660565720304 ], [ 1.317256, 43.903225 ], [ 1.314579, 43.911212 ], [ 1.311159, 43.912335 ], [ 1.307349, 43.906952 ], [ 1.306460615685645, 43.906064539162067 ], [ 1.306172540946301, 43.905936945417857 ], [ 1.30017, 43.904424 ], [ 1.29692, 43.905973 ], [ 1.295960362229188, 43.906406789930692 ], [ 1.293871161874129, 43.909302225322087 ], [ 1.297272, 43.907846 ], [ 1.305003, 43.909009 ] ] ], [ [ [ 1.320382, 43.882548 ], [ 1.318779298855649, 43.878899769432763 ], [ 1.318132604954339, 43.880377084762479 ], [ 1.318199521916299, 43.881794233367955 ], [ 1.318314, 43.882403 ], [ 1.32186, 43.888176 ], [ 1.323394706495421, 43.893648393673331 ], [ 1.323839, 43.893381 ], [ 1.322404, 43.886545 ], [ 1.320093, 43.883785 ], [ 1.320382, 43.882548 ] ] ] ] } },
{ "type": "Feature", "properties": { "codgeo": "82075", "value": 840, "isochrone_group": 14.0, "nb_agences": 2 }, "geometry": { "type": "MultiPolygon", "coordinates": [ [ [ [ 1.307670902456238, 43.917124577288902 ], [ 1.30769195664496, 43.917179082265861 ], [ 1.307739, 43.916806 ], [ 1.307668, 43.916037 ], [ 1.307754, 43.913515 ], [ 1.307810878441462, 43.913239040121063 ], [ 1.305003, 43.909009 ], [ 1.299815968078952, 43.908228697565086 ], [ 1.299363, 43.908963 ], [ 1.299243391490742, 43.909882818921673 ], [ 1.303727, 43.911372 ], [ 1.307670902456238, 43.917124577288902 ] ] ], [ [ [ 1.279779, 43.900222 ], [ 1.287306, 43.903871 ], [ 1.286001573022708, 43.896168710659737 ], [ 1.280546, 43.898889 ], [ 1.279170967410554, 43.899174055227341 ], [ 1.279779, 43.900222 ] ] ], [ [ [ 1.322945, 43.913388 ], [ 1.324289, 43.913212 ], [ 1.332785, 43.911135 ], [ 1.340959, 43.913412 ], [ 1.341967, 43.912897 ], [ 1.340089, 43.912829 ], [ 1.339072, 43.912155 ], [ 1.333741, 43.909807 ], [ 1.33028644486188, 43.906432991484287 ], [ 1.329076368378487, 43.905894553837634 ], [ 1.323472477293185, 43.904902481492897 ], [ 1.318515, 43.910186 ], [ 1.318411324314929, 43.911739261619104 ], [ 1.318459, 43.911797 ], [ 1.320246454799231, 43.915511767702988 ], [ 1.32136, 43.91396 ], [ 1.322068, 43.913648 ], [ 1.322945, 43.913388 ] ] ] ] } },
{ "type": "Feature", "properties": { "codgeo": "82075", "value": 900, "isochrone_group": 15.0, "nb_agences": 2 }, "geometry": { "type": "MultiPolygon", "coordinates": [ [ [ [ 1.229262368387027, 43.860620985268348 ], [ 1.227568, 43.862006 ], [ 1.227352328538276, 43.862277702569386 ], [ 1.231394, 43.866678 ], [ 1.232174, 43.870192 ], [ 1.232411568178923, 43.871888468101211 ], [ 1.232949, 43.87137 ], [ 1.231831010418203, 43.862922078723585 ], [ 1.230564, 43.86133 ], [ 1.229262368387027, 43.860620985268348 ] ] ], [ [ [ 1.325041982412679, 43.913027919906881 ], [ 1.327607907235362, 43.916329042938571 ], [ 1.329594, 43.915831 ], [ 1.33295, 43.914742 ], [ 1.339666, 43.913475 ], [ 1.34163322044977, 43.91384686812372 ], [ 1.342898, 43.914314 ], [ 1.343506382070597, 43.91456425076602 ], [ 1.342756644861028, 43.91322625039539 ], [ 1.341967, 43.912897 ], [ 1.340959, 43.913412 ], [ 1.336735064211253, 43.912235354319691 ], [ 1.33198, 43.912859 ], [ 1.330064, 43.91346 ], [ 1.329934, 43.913462 ], [ 1.329548, 43.913153 ], [ 1.329252517123963, 43.911998578970511 ], [ 1.325041982412679, 43.913027919906881 ] ] ], [ [ [ 1.306639147110843, 43.922076077545185 ], [ 1.306982412936152, 43.918901577887979 ], [ 1.305218325365204, 43.922441630503087 ], [ 1.306639147110843, 43.922076077545185 ] ] ] ] } },
{ "type": "Feature", "properties": { "codgeo": "82075", "value": 960, "isochrone_group": 16.0, "nb_agences": 2 }, "geometry": { "type": "Polygon", "coordinates": [ [ [ 1.334679, 43.916257 ], [ 1.330382674364126, 43.916411117186627 ], [ 1.331558147540299, 43.918694424579677 ], [ 1.337446, 43.917812 ], [ 1.337496189329798, 43.917714752473636 ], [ 1.334679, 43.916257 ] ] ] } },
{ "type": "Feature", "properties": { "codgeo": "82075", "value": 1020, "isochrone_group": 17.0, "nb_agences": 2 }, "geometry": { "type": "Polygon", "coordinates": [ [ [ 1.333393955076019, 43.918419288321736 ], [ 1.333171, 43.920835 ], [ 1.335373697091391, 43.922157938552793 ], [ 1.338308268506762, 43.919513485436951 ], [ 1.336761165678302, 43.917914637530849 ], [ 1.333393955076019, 43.918419288321736 ] ] ] } }
]
}
