{
"type": "FeatureCollection",
"name": "Credit_Agricole",
"crs": { "type": "name", "properties": { "name": "urn:ogc:def:crs:OGC:1.3:CRS84" } },
"features": [
{ "type": "Feature", "properties": { "codgeo": "30032", "value": 60, "isochrone_group": 1.0, "nb_agences": 3 }, "geometry": { "type": "MultiPolygon", "coordinates": [ [ [ [ 4.644052, 43.807565 ], [ 4.644114, 43.807582 ], [ 4.644157, 43.807585 ], [ 4.64492, 43.807252 ], [ 4.64562, 43.806704 ], [ 4.645606, 43.806344 ], [ 4.644432, 43.805677 ], [ 4.64099, 43.805948 ], [ 4.640627, 43.806 ], [ 4.640263, 43.806052 ], [ 4.640289414035737, 43.806232834552361 ], [ 4.640109, 43.806268 ], [ 4.638655, 43.807972 ], [ 4.638678, 43.808332 ], [ 4.639684, 43.808864 ], [ 4.640012, 43.808716 ], [ 4.641123, 43.807952 ], [ 4.641652, 43.807615 ], [ 4.641676, 43.807256 ], [ 4.640916591774099, 43.806594256805631 ], [ 4.644052, 43.807565 ] ] ], [ [ [ 4.611997, 43.816675 ], [ 4.612354, 43.81663 ], [ 4.615143, 43.816212 ], [ 4.615279, 43.816194 ], [ 4.615881, 43.815357 ], [ 4.615802, 43.815006 ], [ 4.614874, 43.814031 ], [ 4.614051, 43.813132 ], [ 4.613917, 43.813031 ], [ 4.61233, 43.812717 ], [ 4.611994, 43.812847 ], [ 4.611057, 43.813707 ], [ 4.610927, 43.813906 ], [ 4.610917, 43.814035 ], [ 4.610924, 43.814749 ], [ 4.611997, 43.816675 ] ] ] ] } },
{ "type": "Feature", "properties": { "codgeo": "30032", "value": 120, "isochrone_group": 2.0, "nb_agences": 3 }, "geometry": { "type": "MultiPolygon", "coordinates": [ [ [ [ 4.637075, 43.806932 ], [ 4.637088049379287, 43.807127196965155 ], [ 4.635826, 43.810901 ], [ 4.636007, 43.811212 ], [ 4.640003, 43.811008 ], [ 4.640175, 43.810944 ], [ 4.643219, 43.809365 ], [ 4.643829887122309, 43.808926504583937 ], [ 4.644747, 43.809144 ], [ 4.645912, 43.809176 ], [ 4.647479, 43.808616 ], [ 4.648651, 43.805694 ], [ 4.648656, 43.805657 ], [ 4.647481, 43.805365 ], [ 4.646557, 43.805335 ], [ 4.646344, 43.805341 ], [ 4.646103, 43.805375 ], [ 4.645714, 43.80543 ], [ 4.64360978297935, 43.805741735854916 ], [ 4.644432, 43.805677 ], [ 4.645606, 43.806344 ], [ 4.64562, 43.806704 ], [ 4.64492, 43.807252 ], [ 4.644157, 43.807585 ], [ 4.644114, 43.807582 ], [ 4.644052, 43.807565 ], [ 4.640916591774099, 43.806594256805631 ], [ 4.641676, 43.807256 ], [ 4.641652, 43.807615 ], [ 4.641123, 43.807952 ], [ 4.640012, 43.808716 ], [ 4.639684, 43.808864 ], [ 4.638678, 43.808332 ], [ 4.638655, 43.807972 ], [ 4.640109, 43.806268 ], [ 4.640289414035737, 43.806232834552361 ], [ 4.640289060866555, 43.806230416701801 ], [ 4.640285, 43.806231 ], [ 4.638022, 43.806524 ], [ 4.637075, 43.806932 ] ] ], [ [ [ 4.612645, 43.821947 ], [ 4.612994, 43.821859 ], [ 4.616362, 43.818231 ], [ 4.618246, 43.817416 ], [ 4.618523, 43.817187 ], [ 4.619593, 43.816234 ], [ 4.619552, 43.81518 ], [ 4.618527, 43.813878 ], [ 4.616117, 43.81192 ], [ 4.613669, 43.810851 ], [ 4.610266, 43.807492 ], [ 4.609939, 43.807644 ], [ 4.609634, 43.813457 ], [ 4.60888, 43.8144 ], [ 4.608756, 43.814557 ], [ 4.608566, 43.815045 ], [ 4.608554, 43.815218 ], [ 4.610901, 43.819172 ], [ 4.612645, 43.821947 ] ], [ [ 4.610924, 43.814749 ], [ 4.610917, 43.814035 ], [ 4.610927, 43.813906 ], [ 4.611057, 43.813707 ], [ 4.611994, 43.812847 ], [ 4.61233, 43.812717 ], [ 4.613917, 43.813031 ], [ 4.614051, 43.813132 ], [ 4.614874, 43.814031 ], [ 4.615802, 43.815006 ], [ 4.615881, 43.815357 ], [ 4.615279, 43.816194 ], [ 4.615143, 43.816212 ], [ 4.612354, 43.81663 ], [ 4.611997, 43.816675 ], [ 4.610924, 43.814749 ] ] ] ] } },
{ "type": "Feature", "properties": { "codgeo": "30032", "value": 180, "isochrone_group": 3.0, "nb_agences": 3 }, "geometry": { "type": "MultiPolygon", "coordinates": [ [ [ [ 4.628151, 43.807662 ], [ 4.628135, 43.808021 ], [ 4.628301265233218, 43.808101257284285 ], [ 4.631394, 43.814103 ], [ 4.631664, 43.814341 ], [ 4.635624, 43.812964 ], [ 4.641820986514612, 43.812129081083725 ], [ 4.643552, 43.812292 ], [ 4.646566, 43.813335 ], [ 4.646926, 43.813334 ], [ 4.648208814996735, 43.807362672856669 ], [ 4.647969, 43.807956 ], [ 4.647775230846341, 43.807877444937695 ], [ 4.647479, 43.808616 ], [ 4.645912, 43.809176 ], [ 4.644747, 43.809144 ], [ 4.643829887122309, 43.808926504583937 ], [ 4.643219, 43.809365 ], [ 4.640175, 43.810944 ], [ 4.640003, 43.811008 ], [ 4.636007, 43.811212 ], [ 4.635826, 43.810901 ], [ 4.637088049379287, 43.807127196965155 ], [ 4.637075, 43.806932 ], [ 4.638022, 43.806524 ], [ 4.640285, 43.806231 ], [ 4.641016, 43.806126 ], [ 4.645714, 43.80543 ], [ 4.646103, 43.805375 ], [ 4.646344, 43.805341 ], [ 4.646557, 43.805335 ], [ 4.647040193535196, 43.80535068810179 ], [ 4.646945, 43.804956 ], [ 4.647227, 43.804813 ], [ 4.648556, 43.804685 ], [ 4.648725558082697, 43.804650922150053 ], [ 4.648791, 43.803371 ], [ 4.648708, 43.802962 ], [ 4.648626, 43.802553 ], [ 4.647487, 43.802451 ], [ 4.647175, 43.80255 ], [ 4.641786041728194, 43.805127851045512 ], [ 4.63829186800335, 43.804640045305476 ], [ 4.638045, 43.804584 ], [ 4.636009, 43.803979 ], [ 4.628151, 43.807662 ] ] ], [ [ [ 4.614174, 43.827967 ], [ 4.614305, 43.828196 ], [ 4.614455, 43.828451 ], [ 4.614592, 43.828613 ], [ 4.614744, 43.828791 ], [ 4.614942, 43.828976 ], [ 4.615159, 43.829175 ], [ 4.61536, 43.829319 ], [ 4.61556, 43.829462 ], [ 4.61577, 43.829169 ], [ 4.61416, 43.826628 ], [ 4.615923, 43.819818 ], [ 4.621781, 43.817072 ], [ 4.622468, 43.816638 ], [ 4.623335, 43.814335 ], [ 4.623226, 43.813992 ], [ 4.616119, 43.809411 ], [ 4.61372, 43.808508 ], [ 4.608603, 43.802803 ], [ 4.608482, 43.802709 ], [ 4.608373, 43.802682 ], [ 4.605274, 43.807484 ], [ 4.605269, 43.807844 ], [ 4.608598918567697, 43.814960451257683 ], [ 4.608756, 43.814557 ], [ 4.60888, 43.8144 ], [ 4.609634, 43.813457 ], [ 4.609939, 43.807644 ], [ 4.610266, 43.807492 ], [ 4.613669, 43.810851 ], [ 4.616117, 43.81192 ], [ 4.618527, 43.813878 ], [ 4.619552, 43.81518 ], [ 4.619593, 43.816234 ], [ 4.618523, 43.817187 ], [ 4.618246, 43.817416 ], [ 4.616362, 43.818231 ], [ 4.612994, 43.821859 ], [ 4.612645, 43.821947 ], [ 4.610901, 43.819172 ], [ 4.608626539324539, 43.815340207281317 ], [ 4.603576, 43.819762 ], [ 4.60336, 43.819821 ], [ 4.603135, 43.819882 ], [ 4.602889, 43.819961 ], [ 4.602629, 43.820046 ], [ 4.602409, 43.820136 ], [ 4.602178, 43.820231 ], [ 4.601908, 43.820362 ], [ 4.601625, 43.8205 ], [ 4.601308, 43.820686 ], [ 4.600985, 43.820876 ], [ 4.60095, 43.820899 ], [ 4.601147, 43.8212 ], [ 4.609459, 43.822757 ], [ 4.614174, 43.827967 ] ] ] ] } },
{ "type": "Feature", "properties": { "codgeo": "30032", "value": 240, "isochrone_group": 4.0, "nb_agences": 3 }, "geometry": { "type": "MultiPolygon", "coordinates": [ [ [ [ 4.622084, 43.807081 ], [ 4.622154, 43.807339 ], [ 4.623167, 43.808532 ], [ 4.623375, 43.808674 ], [ 4.624885015741251, 43.810720569557951 ], [ 4.619792, 43.810115 ], [ 4.616328, 43.806953 ], [ 4.613676, 43.802592 ], [ 4.608527, 43.798574 ], [ 4.608232, 43.798368 ], [ 4.602109, 43.801796 ], [ 4.600093, 43.805822 ], [ 4.599562, 43.807429 ], [ 4.599676, 43.80777 ], [ 4.603668, 43.808315 ], [ 4.604659, 43.808275 ], [ 4.608733, 43.815247 ], [ 4.605269, 43.807844 ], [ 4.605274, 43.807484 ], [ 4.608373, 43.802682 ], [ 4.608482, 43.802709 ], [ 4.608603, 43.802803 ], [ 4.61372, 43.808508 ], [ 4.616119, 43.809411 ], [ 4.623226, 43.813992 ], [ 4.623335, 43.814335 ], [ 4.622468, 43.816638 ], [ 4.621781, 43.817072 ], [ 4.615923, 43.819818 ], [ 4.61416, 43.826628 ], [ 4.61577, 43.829169 ], [ 4.61556, 43.829462 ], [ 4.61536, 43.829319 ], [ 4.615159, 43.829175 ], [ 4.614942, 43.828976 ], [ 4.614744, 43.828791 ], [ 4.615554, 43.829669 ], [ 4.616258, 43.830115 ], [ 4.620846, 43.83695 ], [ 4.621195, 43.836865 ], [ 4.620991, 43.836026 ], [ 4.620788, 43.835187 ], [ 4.620708, 43.834869 ], [ 4.620647, 43.834684 ], [ 4.624963, 43.826796 ], [ 4.624871, 43.826448 ], [ 4.62373, 43.819445 ], [ 4.626925, 43.813864 ], [ 4.627080273199076, 43.813695867736811 ], [ 4.628694, 43.815883 ], [ 4.629423, 43.81781 ], [ 4.629506, 43.817971 ], [ 4.629607, 43.817974 ], [ 4.629774, 43.817893 ], [ 4.631027, 43.817287 ], [ 4.631211, 43.816977 ], [ 4.634112262708419, 43.814124844649534 ], [ 4.641723, 43.816144 ], [ 4.644959, 43.814955 ], [ 4.645291596400521, 43.814672563149429 ], [ 4.645674, 43.814562 ], [ 4.645707, 43.814533 ], [ 4.64603498571897, 43.814036598377626 ], [ 4.646589, 43.813554 ], [ 4.646698, 43.81343 ], [ 4.646746, 43.813343 ], [ 4.646746, 43.8133345 ], [ 4.646566, 43.813335 ], [ 4.643552, 43.812292 ], [ 4.641820986514612, 43.812129081083725 ], [ 4.635624, 43.812964 ], [ 4.631664, 43.814341 ], [ 4.631394, 43.814103 ], [ 4.628301265233218, 43.808101257284285 ], [ 4.628135, 43.808021 ], [ 4.628151, 43.807662 ], [ 4.636009, 43.803979 ], [ 4.638045, 43.804584 ], [ 4.63829186800335, 43.804640045305476 ], [ 4.641786041728194, 43.805127851045512 ], [ 4.647175, 43.80255 ], [ 4.647487, 43.802451 ], [ 4.648626, 43.802553 ], [ 4.648674797910896, 43.802796394457999 ], [ 4.649860205187393, 43.801885516063457 ], [ 4.647873, 43.800633 ], [ 4.647176, 43.801017 ], [ 4.641722, 43.803333 ], [ 4.637589, 43.802636 ], [ 4.632227, 43.80008 ], [ 4.630771, 43.800343 ], [ 4.630581, 43.800649 ], [ 4.626848, 43.807672 ], [ 4.623063, 43.807001 ], [ 4.62228, 43.806779 ], [ 4.622084, 43.807081 ] ] ], [ [ [ 4.604909, 43.817835 ], [ 4.604113, 43.817958 ], [ 4.603732, 43.817989 ], [ 4.603462, 43.818002 ], [ 4.603184, 43.818015 ], [ 4.602525, 43.818074 ], [ 4.601863, 43.818132 ], [ 4.600478, 43.818269 ], [ 4.599094, 43.818406 ], [ 4.596997, 43.821521 ], [ 4.593436, 43.825475 ], [ 4.593069, 43.825772 ], [ 4.592895, 43.82595 ], [ 4.592704, 43.826147 ], [ 4.592568, 43.826329 ], [ 4.591794, 43.82753 ], [ 4.592086, 43.82774 ], [ 4.599038, 43.824865 ], [ 4.604496, 43.825584 ], [ 4.605279, 43.825598 ], [ 4.606185, 43.825397 ], [ 4.614455, 43.828451 ], [ 4.614305, 43.828196 ], [ 4.614174, 43.827967 ], [ 4.609459, 43.822757 ], [ 4.601147, 43.8212 ], [ 4.60095, 43.820899 ], [ 4.600985, 43.820876 ], [ 4.601308, 43.820686 ], [ 4.601625, 43.8205 ], [ 4.601908, 43.820362 ], [ 4.602178, 43.820231 ], [ 4.602409, 43.820136 ], [ 4.602629, 43.820046 ], [ 4.602889, 43.819961 ], [ 4.603135, 43.819882 ], [ 4.60336, 43.819821 ], [ 4.603576, 43.819762 ], [ 4.608733, 43.815247 ], [ 4.604909, 43.817835 ] ] ] ] } },
{ "type": "Feature", "properties": { "codgeo": "30032", "value": 300, "isochrone_group": 5.0, "nb_agences": 3 }, "geometry": { "type": "MultiPolygon", "coordinates": [ [ [ [ 4.634315, 43.798253 ], [ 4.632911, 43.795726 ], [ 4.630523, 43.79314 ], [ 4.622361, 43.795305 ], [ 4.622165, 43.795606 ], [ 4.616694428706897, 43.801210262472814 ], [ 4.615868, 43.800119 ], [ 4.61562, 43.799858 ], [ 4.611476, 43.794552 ], [ 4.611217, 43.794303 ], [ 4.60687, 43.797199 ], [ 4.606738, 43.797534 ], [ 4.600502, 43.801805 ], [ 4.596939, 43.800852 ], [ 4.596662, 43.801082 ], [ 4.594177, 43.807541 ], [ 4.59426, 43.807891 ], [ 4.595991, 43.807837 ], [ 4.597075, 43.808036 ], [ 4.597717, 43.808196 ], [ 4.5979, 43.808255 ], [ 4.598095, 43.808318 ], [ 4.598467, 43.808354 ], [ 4.598708, 43.808323 ], [ 4.598918, 43.808242 ], [ 4.603668, 43.808315 ], [ 4.599676, 43.80777 ], [ 4.599562, 43.807429 ], [ 4.600093, 43.805822 ], [ 4.602109, 43.801796 ], [ 4.608232, 43.798368 ], [ 4.608527, 43.798574 ], [ 4.613676, 43.802592 ], [ 4.616328, 43.806953 ], [ 4.619792, 43.810115 ], [ 4.624885015741251, 43.810720569557951 ], [ 4.623375, 43.808674 ], [ 4.623167, 43.808532 ], [ 4.622154, 43.807339 ], [ 4.622084, 43.807081 ], [ 4.62228, 43.806779 ], [ 4.623063, 43.807001 ], [ 4.626848, 43.807672 ], [ 4.630581, 43.800649 ], [ 4.630771, 43.800343 ], [ 4.632227, 43.80008 ], [ 4.637589, 43.802636 ], [ 4.641034977528157, 43.80321713872177 ], [ 4.645485, 43.800856 ], [ 4.646968, 43.800735 ], [ 4.647046260046391, 43.800686844846737 ], [ 4.641716, 43.801034 ], [ 4.641357, 43.801003 ], [ 4.634315, 43.798253 ] ] ], [ [ [ 4.608733, 43.815247 ], [ 4.604659, 43.808275 ], [ 4.603668, 43.808315 ], [ 4.608733, 43.815247 ] ] ], [ [ [ 4.598573, 43.818457 ], [ 4.596616, 43.818632 ], [ 4.594658, 43.818807 ], [ 4.594245, 43.819517 ], [ 4.594344, 43.820151 ], [ 4.588757, 43.827169 ], [ 4.588408, 43.827259 ], [ 4.585248, 43.827743 ], [ 4.584895, 43.827816 ], [ 4.579212, 43.831131 ], [ 4.579224, 43.83149 ], [ 4.579632, 43.831477 ], [ 4.58004, 43.831464 ], [ 4.582232, 43.831386 ], [ 4.5912, 43.830855 ], [ 4.591555, 43.830797 ], [ 4.598245, 43.827807 ], [ 4.60163, 43.82918 ], [ 4.601752, 43.829193 ], [ 4.60594, 43.830001 ], [ 4.614592, 43.829324 ], [ 4.614816, 43.829427 ], [ 4.616255, 43.830114 ], [ 4.61898, 43.838438 ], [ 4.617859, 43.842706 ], [ 4.618068, 43.842999 ], [ 4.620734, 43.842646 ], [ 4.620849, 43.842305 ], [ 4.621093, 43.838893 ], [ 4.621143, 43.838461 ], [ 4.621191, 43.838046 ], [ 4.621223, 43.837717 ], [ 4.621255, 43.83739 ], [ 4.62125, 43.837183 ], [ 4.621224, 43.836988 ], [ 4.621194273827845, 43.836865176861423 ], [ 4.620846, 43.83695 ], [ 4.616258, 43.830115 ], [ 4.615554, 43.829669 ], [ 4.614744, 43.828791 ], [ 4.614592, 43.828613 ], [ 4.614455, 43.828451 ], [ 4.606185, 43.825397 ], [ 4.605279, 43.825598 ], [ 4.604496, 43.825584 ], [ 4.599038, 43.824865 ], [ 4.592086, 43.82774 ], [ 4.591794, 43.82753 ], [ 4.592568, 43.826329 ], [ 4.592704, 43.826147 ], [ 4.592895, 43.82595 ], [ 4.593069, 43.825772 ], [ 4.593436, 43.825475 ], [ 4.596997, 43.821521 ], [ 4.599094, 43.818406 ], [ 4.599851129416321, 43.818331052940728 ], [ 4.598573, 43.818457 ] ] ], [ [ [ 4.621004, 43.836079 ], [ 4.620788, 43.835187 ], [ 4.620991, 43.836026 ], [ 4.621028415887845, 43.836179882009326 ], [ 4.621004, 43.836079 ] ] ], [ [ [ 4.625245, 43.826721 ], [ 4.625432, 43.826663 ], [ 4.625652, 43.826592 ], [ 4.6259, 43.826455 ], [ 4.626046, 43.826346 ], [ 4.626188, 43.826212 ], [ 4.62634, 43.826068 ], [ 4.626527, 43.825855 ], [ 4.626675, 43.825569 ], [ 4.628081216665905, 43.822261940819232 ], [ 4.632443, 43.819702 ], [ 4.637938515596518, 43.818658433616037 ], [ 4.639852, 43.818996 ], [ 4.641999, 43.817859 ], [ 4.643689572985847, 43.816228266135994 ], [ 4.643581, 43.816092 ], [ 4.642675716110631, 43.815793944544019 ], [ 4.641723, 43.816144 ], [ 4.634112262708419, 43.814124844649534 ], [ 4.631211, 43.816977 ], [ 4.631027, 43.817287 ], [ 4.629774, 43.817893 ], [ 4.629607, 43.817974 ], [ 4.629506, 43.817971 ], [ 4.629423, 43.81781 ], [ 4.628694, 43.815883 ], [ 4.627080273199076, 43.813695867736811 ], [ 4.626925, 43.813864 ], [ 4.62373, 43.819445 ], [ 4.624871, 43.826448 ], [ 4.6249629508533, 43.82679581409726 ], [ 4.625245, 43.826721 ] ] ] ] } },
{ "type": "Feature", "properties": { "codgeo": "30032", "value": 360, "isochrone_group": 6.0, "nb_agences": 3 }, "geometry": { "type": "MultiPolygon", "coordinates": [ [ [ [ 4.639582, 43.788397 ], [ 4.63771, 43.788879 ], [ 4.629432, 43.787535 ], [ 4.625867, 43.787034 ], [ 4.618976, 43.788507 ], [ 4.618142, 43.790511 ], [ 4.617661, 43.791447 ], [ 4.61769615988372, 43.792255677325592 ], [ 4.617566, 43.792247 ], [ 4.617184, 43.792222 ], [ 4.616975, 43.792221 ], [ 4.616777, 43.79222 ], [ 4.616564, 43.79223 ], [ 4.616359, 43.792239 ], [ 4.615978, 43.792279 ], [ 4.615608, 43.792317 ], [ 4.615279, 43.792373 ], [ 4.614962, 43.792426 ], [ 4.614762, 43.792472 ], [ 4.614572, 43.792516 ], [ 4.614354, 43.792579 ], [ 4.614146, 43.79264 ], [ 4.613939, 43.792708 ], [ 4.613738, 43.792774 ], [ 4.613482, 43.79288 ], [ 4.613239, 43.792981 ], [ 4.613048, 43.793072 ], [ 4.612866, 43.79316 ], [ 4.61269, 43.793251 ], [ 4.612519, 43.79334 ], [ 4.61232, 43.793462 ], [ 4.61213, 43.793578 ], [ 4.611963, 43.793692 ], [ 4.611802, 43.793801 ], [ 4.611519, 43.794041 ], [ 4.60288, 43.795562 ], [ 4.60235, 43.795383 ], [ 4.598328, 43.792798 ], [ 4.59797, 43.792765 ], [ 4.595347, 43.794888 ], [ 4.59296, 43.798191 ], [ 4.589044, 43.805482 ], [ 4.588955, 43.805831 ], [ 4.592149, 43.807593 ], [ 4.592083, 43.816563 ], [ 4.592117, 43.816921 ], [ 4.588054, 43.824561 ], [ 4.584197, 43.825265 ], [ 4.584108, 43.825791 ], [ 4.576109, 43.829622 ], [ 4.571879, 43.830183 ], [ 4.570168, 43.830856 ], [ 4.570139, 43.830932 ], [ 4.570098, 43.831222 ], [ 4.570704, 43.831449 ], [ 4.577964, 43.833236 ], [ 4.578304, 43.833117 ], [ 4.582441694643896, 43.83137358386977 ], [ 4.582232, 43.831386 ], [ 4.58004, 43.831464 ], [ 4.579632, 43.831477 ], [ 4.579224, 43.83149 ], [ 4.579212, 43.831131 ], [ 4.584895, 43.827816 ], [ 4.585248, 43.827743 ], [ 4.588408, 43.827259 ], [ 4.588757, 43.827169 ], [ 4.594344, 43.820151 ], [ 4.594245, 43.819517 ], [ 4.594658, 43.818807 ], [ 4.596616, 43.818632 ], [ 4.598573, 43.818457 ], [ 4.600217, 43.818295 ], [ 4.601863, 43.818132 ], [ 4.602525, 43.818074 ], [ 4.603184, 43.818015 ], [ 4.603462, 43.818002 ], [ 4.603732, 43.817989 ], [ 4.604113, 43.817958 ], [ 4.604909, 43.817835 ], [ 4.608733, 43.815247 ], [ 4.603668, 43.808315 ], [ 4.598918, 43.808242 ], [ 4.598708, 43.808323 ], [ 4.598467, 43.808354 ], [ 4.598095, 43.808318 ], [ 4.5979, 43.808255 ], [ 4.597717, 43.808196 ], [ 4.597075, 43.808036 ], [ 4.595991, 43.807837 ], [ 4.59426, 43.807891 ], [ 4.594177, 43.807541 ], [ 4.596662, 43.801082 ], [ 4.596939, 43.800852 ], [ 4.600502, 43.801805 ], [ 4.606738, 43.797534 ], [ 4.60687, 43.797199 ], [ 4.611217, 43.794303 ], [ 4.611476, 43.794552 ], [ 4.61562, 43.799858 ], [ 4.615868, 43.800119 ], [ 4.616694428706897, 43.801210262472814 ], [ 4.622165, 43.795606 ], [ 4.622361, 43.795305 ], [ 4.630523, 43.79314 ], [ 4.632911, 43.795726 ], [ 4.634315, 43.798253 ], [ 4.641357, 43.801003 ], [ 4.641716, 43.801034 ], [ 4.647046260046391, 43.800686844846737 ], [ 4.653142, 43.796936 ], [ 4.647278469486082, 43.800543961195721 ], [ 4.646478071231932, 43.800424090975739 ], [ 4.643101, 43.798281 ], [ 4.640479, 43.791884 ], [ 4.639582, 43.788397 ] ] ], [ [ [ 4.591919, 43.831726 ], [ 4.592121, 43.831807 ], [ 4.592442, 43.831879 ], [ 4.593165, 43.83201 ], [ 4.593887, 43.832141 ], [ 4.60058, 43.831636 ], [ 4.607565, 43.831007 ], [ 4.607874, 43.83109 ], [ 4.609964, 43.831443 ], [ 4.617879, 43.835672 ], [ 4.617888, 43.835935 ], [ 4.617878, 43.837785 ], [ 4.611758, 43.843395 ], [ 4.609454, 43.845791 ], [ 4.608727, 43.846283 ], [ 4.608555, 43.846411 ], [ 4.608364, 43.846557 ], [ 4.608115, 43.846806 ], [ 4.607779, 43.847248 ], [ 4.607653, 43.847404 ], [ 4.607527, 43.847561 ], [ 4.607807, 43.847787 ], [ 4.615288, 43.846264 ], [ 4.618612, 43.850069 ], [ 4.618903, 43.850282 ], [ 4.619762, 43.849314 ], [ 4.619831, 43.849204 ], [ 4.619832, 43.849202 ], [ 4.619993, 43.848938 ], [ 4.625453, 43.842837 ], [ 4.626634, 43.842699 ], [ 4.626816, 43.842432 ], [ 4.626998, 43.842166 ], [ 4.627055, 43.841977 ], [ 4.627254, 43.841141 ], [ 4.626914, 43.841022 ], [ 4.620788, 43.835187 ], [ 4.621004, 43.836079 ], [ 4.621224, 43.836988 ], [ 4.62125, 43.837183 ], [ 4.621255, 43.83739 ], [ 4.621223, 43.837717 ], [ 4.621191, 43.838046 ], [ 4.621143, 43.838461 ], [ 4.621093, 43.838893 ], [ 4.620849, 43.842305 ], [ 4.620734, 43.842646 ], [ 4.618068, 43.842999 ], [ 4.617859, 43.842706 ], [ 4.61898, 43.838438 ], [ 4.616255, 43.830114 ], [ 4.614816, 43.829427 ], [ 4.614592, 43.829324 ], [ 4.60594, 43.830001 ], [ 4.601752, 43.829193 ], [ 4.60163, 43.82918 ], [ 4.598245, 43.827807 ], [ 4.591555, 43.830797 ], [ 4.5912, 43.830855 ], [ 4.588135037907219, 43.831036478018653 ], [ 4.591919, 43.831726 ] ] ], [ [ [ 4.623860896430693, 43.827559096464611 ], [ 4.625619, 43.826606 ], [ 4.625635261476034, 43.826597401978184 ], [ 4.625652, 43.826592 ], [ 4.625432, 43.826663 ], [ 4.625245, 43.826721 ], [ 4.624114, 43.827021 ], [ 4.62059, 43.834513 ], [ 4.623860896430693, 43.827559096464611 ] ] ], [ [ [ 4.625797596868972, 43.82651156947157 ], [ 4.62588, 43.826468 ], [ 4.625891319416083, 43.826459795322577 ], [ 4.6259, 43.826455 ], [ 4.625652, 43.826592 ], [ 4.625797596868972, 43.82651156947157 ] ] ], [ [ [ 4.625968832981044, 43.826403610993616 ], [ 4.626029, 43.82636 ], [ 4.626036100537759, 43.826353390694415 ], [ 4.626046, 43.826346 ], [ 4.6259, 43.826455 ], [ 4.625968832981044, 43.826403610993616 ] ] ], [ [ [ 4.62633, 43.826078 ], [ 4.626333640167389, 43.826074025104582 ], [ 4.62634, 43.826068 ], [ 4.626188, 43.826212 ], [ 4.62633, 43.826078 ] ] ], [ [ [ 4.626359530026043, 43.826045754569265 ], [ 4.626504, 43.825888 ], [ 4.62651598341917, 43.825867548297964 ], [ 4.626527, 43.825855 ], [ 4.62634, 43.826068 ], [ 4.626359530026043, 43.826045754569265 ] ] ], [ [ [ 4.626554698324019, 43.825801474860349 ], [ 4.626654, 43.825632 ], [ 4.626676910774503, 43.82556720725875 ], [ 4.627405371819736, 43.824883745048837 ], [ 4.62839, 43.825339 ], [ 4.631894139380275, 43.82279534360034 ], [ 4.635612, 43.82188 ], [ 4.638807534072376, 43.820091775254689 ], [ 4.638373, 43.819812 ], [ 4.638207, 43.819842 ], [ 4.637524, 43.819194 ], [ 4.637507041793518, 43.818740367976616 ], [ 4.632443, 43.819702 ], [ 4.628081216665905, 43.822261940819232 ], [ 4.626675, 43.825569 ], [ 4.626527, 43.825855 ], [ 4.626554698324019, 43.825801474860349 ] ] ], [ [ [ 4.653805, 43.794873 ], [ 4.653509061695781, 43.794612380203802 ], [ 4.653142, 43.796936 ], [ 4.653805, 43.794873 ] ] ] ] } },
{ "type": "Feature", "properties": { "codgeo": "30032", "value": 420, "isochrone_group": 7.0, "nb_agences": 3 }, "geometry": { "type": "MultiPolygon", "coordinates": [ [ [ [ 4.616613, 43.781942 ], [ 4.613991, 43.784409 ], [ 4.612673, 43.788573 ], [ 4.611466, 43.790529 ], [ 4.606233113337752, 43.793771757953046 ], [ 4.603916, 43.794202 ], [ 4.600214, 43.790264 ], [ 4.599532, 43.789534 ], [ 4.598993, 43.789239 ], [ 4.598449, 43.789042 ], [ 4.597064, 43.788694 ], [ 4.59063, 43.79222 ], [ 4.58809, 43.790892 ], [ 4.584247, 43.790418 ], [ 4.58298, 43.793788 ], [ 4.585403, 43.79632 ], [ 4.583351, 43.803314 ], [ 4.582834, 43.806876 ], [ 4.584868, 43.807171 ], [ 4.585944, 43.815606 ], [ 4.584943, 43.816811 ], [ 4.582779, 43.82237 ], [ 4.576057, 43.826364 ], [ 4.570249, 43.827175 ], [ 4.564952, 43.826115 ], [ 4.5639, 43.826181 ], [ 4.562344, 43.826338 ], [ 4.56226, 43.826464 ], [ 4.562097, 43.831099 ], [ 4.562294, 43.831386 ], [ 4.562446, 43.831579 ], [ 4.562774, 43.831905 ], [ 4.56337, 43.832452 ], [ 4.568971, 43.835099 ], [ 4.573571, 43.837867 ], [ 4.574235, 43.838237 ], [ 4.577689, 43.839698 ], [ 4.579233, 43.836446 ], [ 4.580647, 43.834755 ], [ 4.586003, 43.832152 ], [ 4.591299, 43.833223 ], [ 4.591765, 43.833387 ], [ 4.592153, 43.833473 ], [ 4.593615, 43.833735 ], [ 4.594711, 43.834005 ], [ 4.595252, 43.834113 ], [ 4.597884, 43.832822 ], [ 4.600970729815725, 43.831600814738145 ], [ 4.60058, 43.831636 ], [ 4.593887, 43.832141 ], [ 4.593165, 43.83201 ], [ 4.592442, 43.831879 ], [ 4.592121, 43.831807 ], [ 4.591919, 43.831726 ], [ 4.585619, 43.830578 ], [ 4.582557, 43.831325 ], [ 4.578304, 43.833117 ], [ 4.577964, 43.833236 ], [ 4.570704, 43.831449 ], [ 4.570098, 43.831222 ], [ 4.570139, 43.830932 ], [ 4.570168, 43.830856 ], [ 4.571879, 43.830183 ], [ 4.576109, 43.829622 ], [ 4.584108, 43.825791 ], [ 4.584197, 43.825265 ], [ 4.588054, 43.824561 ], [ 4.592117, 43.816921 ], [ 4.592083, 43.816563 ], [ 4.592149, 43.807593 ], [ 4.588955, 43.805831 ], [ 4.589044, 43.805482 ], [ 4.59296, 43.798191 ], [ 4.595347, 43.794888 ], [ 4.59797, 43.792765 ], [ 4.598328, 43.792798 ], [ 4.60235, 43.795383 ], [ 4.60288, 43.795562 ], [ 4.611519, 43.794041 ], [ 4.611802, 43.793801 ], [ 4.611963, 43.793692 ], [ 4.61213, 43.793578 ], [ 4.61232, 43.793462 ], [ 4.612519, 43.79334 ], [ 4.61269, 43.793251 ], [ 4.612866, 43.79316 ], [ 4.613048, 43.793072 ], [ 4.613239, 43.792981 ], [ 4.613482, 43.79288 ], [ 4.613738, 43.792774 ], [ 4.613939, 43.792708 ], [ 4.614146, 43.79264 ], [ 4.614354, 43.792579 ], [ 4.614572, 43.792516 ], [ 4.614762, 43.792472 ], [ 4.614962, 43.792426 ], [ 4.615279, 43.792373 ], [ 4.615608, 43.792317 ], [ 4.615978, 43.792279 ], [ 4.616359, 43.792239 ], [ 4.616564, 43.79223 ], [ 4.616777, 43.79222 ], [ 4.616975, 43.792221 ], [ 4.617184, 43.792222 ], [ 4.617566, 43.792247 ], [ 4.61769615988372, 43.792255677325592 ], [ 4.617661, 43.791447 ], [ 4.618142, 43.790511 ], [ 4.618976, 43.788507 ], [ 4.625867, 43.787034 ], [ 4.629432, 43.787535 ], [ 4.637195354176736, 43.788795443103844 ], [ 4.641194, 43.786756 ], [ 4.642274403820364, 43.786215798089806 ], [ 4.636539, 43.787006 ], [ 4.632012, 43.784878 ], [ 4.625653, 43.77919 ], [ 4.62496, 43.777815 ], [ 4.623018, 43.776676 ], [ 4.620253, 43.778701 ], [ 4.616613, 43.781942 ] ] ], [ [ [ 4.617888, 43.835935 ], [ 4.617879, 43.835672 ], [ 4.609964, 43.831443 ], [ 4.607874, 43.83109 ], [ 4.60776066370462, 43.831059556917431 ], [ 4.610254, 43.832441 ], [ 4.617888, 43.835935 ] ] ], [ [ [ 4.611432, 43.842946 ], [ 4.610771, 43.843165 ], [ 4.610227, 43.843407 ], [ 4.609859, 43.843605 ], [ 4.605646, 43.844756 ], [ 4.605445, 43.845005 ], [ 4.603769, 43.847853 ], [ 4.601408283653392, 43.850064977090689 ], [ 4.603292, 43.849448 ], [ 4.605664, 43.849172 ], [ 4.605933, 43.849411 ], [ 4.605235, 43.851175 ], [ 4.605030120550415, 43.852909699152917 ], [ 4.60816, 43.852573 ], [ 4.615517, 43.857587 ], [ 4.615636, 43.858294 ], [ 4.615815, 43.859073 ], [ 4.619324, 43.858267 ], [ 4.621223, 43.849533 ], [ 4.62139, 43.849023 ], [ 4.621529, 43.848036 ], [ 4.628494, 43.842499 ], [ 4.633155, 43.835616 ], [ 4.635414, 43.833314 ], [ 4.632844, 43.830792 ], [ 4.629816229977707, 43.824866268773953 ], [ 4.631877551041081, 43.822807385083472 ], [ 4.62839, 43.825339 ], [ 4.627405371819736, 43.824883745048837 ], [ 4.626676910774503, 43.82556720725875 ], [ 4.626654, 43.825632 ], [ 4.626554698324019, 43.825801474860349 ], [ 4.626527, 43.825855 ], [ 4.62651598341917, 43.825867548297964 ], [ 4.626504, 43.825888 ], [ 4.626359530026043, 43.826045754569265 ], [ 4.62634, 43.826068 ], [ 4.626333640167389, 43.826074025104582 ], [ 4.62633, 43.826078 ], [ 4.626188, 43.826212 ], [ 4.626046, 43.826346 ], [ 4.626036100537759, 43.826353390694415 ], [ 4.626029, 43.82636 ], [ 4.625968832981044, 43.826403610993616 ], [ 4.6259, 43.826455 ], [ 4.625891319416083, 43.826459795322577 ], [ 4.62588, 43.826468 ], [ 4.625797596868972, 43.82651156947157 ], [ 4.625652, 43.826592 ], [ 4.625635261476034, 43.826597401978184 ], [ 4.625619, 43.826606 ], [ 4.623860896430693, 43.827559096464611 ], [ 4.62059, 43.834513 ], [ 4.620647, 43.834684 ], [ 4.620708, 43.834869 ], [ 4.620788, 43.835187 ], [ 4.626914, 43.841022 ], [ 4.627254, 43.841141 ], [ 4.627055, 43.841977 ], [ 4.626998, 43.842166 ], [ 4.626816, 43.842432 ], [ 4.626634, 43.842699 ], [ 4.625453, 43.842837 ], [ 4.619993, 43.848938 ], [ 4.619832, 43.849202 ], [ 4.619831, 43.849204 ], [ 4.619762, 43.849314 ], [ 4.618903, 43.850282 ], [ 4.618612, 43.850069 ], [ 4.615288, 43.846264 ], [ 4.607807, 43.847787 ], [ 4.607527, 43.847561 ], [ 4.607653, 43.847404 ], [ 4.607779, 43.847248 ], [ 4.608115, 43.846806 ], [ 4.608364, 43.846557 ], [ 4.608555, 43.846411 ], [ 4.608727, 43.846283 ], [ 4.609454, 43.845791 ], [ 4.611758, 43.843395 ], [ 4.617878, 43.837785 ], [ 4.617888, 43.835935 ], [ 4.612466, 43.842689 ], [ 4.611432, 43.842946 ] ] ] ] } },
{ "type": "Feature", "properties": { "codgeo": "30032", "value": 480, "isochrone_group": 8.0, "nb_agences": 3 }, "geometry": { "type": "MultiPolygon", "coordinates": [ [ [ [ 4.579107, 43.785763 ], [ 4.575194, 43.785118 ], [ 4.574313, 43.786035 ], [ 4.573759, 43.78842 ], [ 4.574134, 43.788583 ], [ 4.575029, 43.788928 ], [ 4.580063, 43.795966 ], [ 4.577125, 43.804187 ], [ 4.577769, 43.807729 ], [ 4.583006, 43.814426 ], [ 4.579808, 43.822711 ], [ 4.573339, 43.825604 ], [ 4.566832, 43.824973 ], [ 4.56409, 43.822438 ], [ 4.563805, 43.822323 ], [ 4.561182, 43.821501 ], [ 4.559024, 43.821122 ], [ 4.557012, 43.821762 ], [ 4.556962, 43.821829 ], [ 4.554597, 43.828775 ], [ 4.553968, 43.83232 ], [ 4.554293, 43.832377 ], [ 4.557856, 43.833049 ], [ 4.564318, 43.836903 ], [ 4.565253, 43.838194 ], [ 4.565484, 43.838458 ], [ 4.567701, 43.841651 ], [ 4.571055, 43.840345 ], [ 4.578253, 43.840091 ], [ 4.58147, 43.842626 ], [ 4.584759, 43.844247 ], [ 4.587049, 43.845066 ], [ 4.595466, 43.847507 ], [ 4.595343864605387, 43.84827467973156 ], [ 4.59675, 43.846295 ], [ 4.596978, 43.846017 ], [ 4.59833, 43.846596 ], [ 4.604595297638022, 43.846448885636583 ], [ 4.605445, 43.845005 ], [ 4.605646, 43.844756 ], [ 4.609859, 43.843605 ], [ 4.610227, 43.843407 ], [ 4.610771, 43.843165 ], [ 4.611432, 43.842946 ], [ 4.612466, 43.842689 ], [ 4.617888, 43.835935 ], [ 4.610254, 43.832441 ], [ 4.60759, 43.830965 ], [ 4.607163, 43.830804 ], [ 4.603963, 43.830417 ], [ 4.597884, 43.832822 ], [ 4.595252, 43.834113 ], [ 4.594711, 43.834005 ], [ 4.593615, 43.833735 ], [ 4.592153, 43.833473 ], [ 4.591765, 43.833387 ], [ 4.591299, 43.833223 ], [ 4.586003, 43.832152 ], [ 4.580647, 43.834755 ], [ 4.579233, 43.836446 ], [ 4.577689, 43.839698 ], [ 4.574235, 43.838237 ], [ 4.573571, 43.837867 ], [ 4.568971, 43.835099 ], [ 4.56337, 43.832452 ], [ 4.562774, 43.831905 ], [ 4.562446, 43.831579 ], [ 4.562294, 43.831386 ], [ 4.562097, 43.831099 ], [ 4.56226, 43.826464 ], [ 4.562344, 43.826338 ], [ 4.5639, 43.826181 ], [ 4.564952, 43.826115 ], [ 4.570249, 43.827175 ], [ 4.576057, 43.826364 ], [ 4.582779, 43.82237 ], [ 4.584943, 43.816811 ], [ 4.585944, 43.815606 ], [ 4.584868, 43.807171 ], [ 4.582834, 43.806876 ], [ 4.583351, 43.803314 ], [ 4.585403, 43.79632 ], [ 4.58298, 43.793788 ], [ 4.584247, 43.790418 ], [ 4.58709374632619, 43.790769120936396 ], [ 4.581358, 43.787759 ], [ 4.579107, 43.785763 ] ] ], [ [ [ 4.616048, 43.859866 ], [ 4.616064944309367, 43.860145186029975 ], [ 4.618616, 43.860764 ], [ 4.620166, 43.863437 ], [ 4.623542875104434, 43.86683994221049 ], [ 4.623902, 43.866309 ], [ 4.621848, 43.862918 ], [ 4.620602, 43.861248 ], [ 4.619457, 43.858706 ], [ 4.619368885791508, 43.858060558450227 ], [ 4.619324, 43.858267 ], [ 4.615815, 43.859073 ], [ 4.615636, 43.858294 ], [ 4.615517, 43.857587 ], [ 4.60816, 43.852573 ], [ 4.608038337392338, 43.852586087947202 ], [ 4.607871, 43.853048 ], [ 4.609384427133474, 43.856048058825699 ], [ 4.616048, 43.859866 ] ] ], [ [ [ 4.631336388613599, 43.838301582959147 ], [ 4.628494, 43.842499 ], [ 4.631340151911635, 43.838313234347176 ], [ 4.631336388613599, 43.838301582959147 ] ] ], [ [ [ 4.633261, 43.830342 ], [ 4.633663, 43.829837 ], [ 4.630803607648718, 43.823880058610328 ], [ 4.629816229977707, 43.824866268773953 ], [ 4.632844, 43.830792 ], [ 4.632844215869311, 43.830792211837505 ], [ 4.632969, 43.830665 ], [ 4.633261, 43.830342 ] ] ], [ [ [ 4.637343161651696, 43.781556697992514 ], [ 4.632601, 43.780622 ], [ 4.628493, 43.777043 ], [ 4.622991, 43.770358 ], [ 4.62171, 43.767991 ], [ 4.621464, 43.767456 ], [ 4.621147, 43.766914 ], [ 4.621146553693944, 43.766914261147235 ], [ 4.621113, 43.766857 ], [ 4.620632, 43.766089 ], [ 4.61758, 43.767999 ], [ 4.617406, 43.770517 ], [ 4.61063, 43.775738 ], [ 4.609691, 43.775413 ], [ 4.609690803484382, 43.775413568008602 ], [ 4.609666, 43.775405 ], [ 4.60849, 43.778807 ], [ 4.608617, 43.779528 ], [ 4.608092, 43.78655 ], [ 4.608108, 43.786788 ], [ 4.608017, 43.788976 ], [ 4.601788230099137, 43.791938586204871 ], [ 4.603916, 43.794202 ], [ 4.606233113337752, 43.793771757953046 ], [ 4.611466, 43.790529 ], [ 4.612673, 43.788573 ], [ 4.613991, 43.784409 ], [ 4.616613, 43.781942 ], [ 4.620253, 43.778701 ], [ 4.623018, 43.776676 ], [ 4.62496, 43.777815 ], [ 4.625653, 43.77919 ], [ 4.632012, 43.784878 ], [ 4.634933410188382, 43.786251262840928 ], [ 4.637227, 43.781689 ], [ 4.637343161651696, 43.781556697992514 ] ] ] ] } },
{ "type": "Feature", "properties": { "codgeo": "30032", "value": 540, "isochrone_group": 9.0, "nb_agences": 3 }, "geometry": { "type": "MultiPolygon", "coordinates": [ [ [ [ 4.574623, 43.784865 ], [ 4.573935, 43.787415 ], [ 4.573163, 43.788156 ], [ 4.570461, 43.787685 ], [ 4.568196, 43.786658 ], [ 4.565433819543009, 43.786850465312654 ], [ 4.568955, 43.788935 ], [ 4.571122, 43.789791 ], [ 4.574621, 43.797965 ], [ 4.570591, 43.804696 ], [ 4.570753, 43.808292 ], [ 4.572739, 43.808203 ], [ 4.575179, 43.807981 ], [ 4.579411, 43.81516 ], [ 4.579369, 43.815874 ], [ 4.575218, 43.82248 ], [ 4.568604, 43.82344 ], [ 4.565305, 43.818597 ], [ 4.563646, 43.817749 ], [ 4.561819, 43.8177 ], [ 4.556474, 43.81545 ], [ 4.554944, 43.8149 ], [ 4.554212, 43.814671 ], [ 4.553137, 43.818107 ], [ 4.552278, 43.826439 ], [ 4.547425, 43.826872 ], [ 4.546953, 43.827196 ], [ 4.546043, 43.828338 ], [ 4.545516, 43.829924 ], [ 4.546586, 43.830778 ], [ 4.552477, 43.833883 ], [ 4.560091, 43.838037 ], [ 4.567651354202753, 43.841776899746613 ], [ 4.567707, 43.841667 ], [ 4.567701045153379, 43.841650982417903 ], [ 4.567701, 43.841651 ], [ 4.565484, 43.838458 ], [ 4.565434456310643, 43.838401378640746 ], [ 4.565385, 43.83835 ], [ 4.565355081743888, 43.838310664850155 ], [ 4.565253, 43.838194 ], [ 4.564852262815065, 43.83764068266764 ], [ 4.564299012012818, 43.836891675378745 ], [ 4.557856, 43.833049 ], [ 4.554293, 43.832377 ], [ 4.553968, 43.83232 ], [ 4.554597, 43.828775 ], [ 4.556962, 43.821829 ], [ 4.557012, 43.821762 ], [ 4.559024, 43.821122 ], [ 4.561182, 43.821501 ], [ 4.563805, 43.822323 ], [ 4.56409, 43.822438 ], [ 4.566832, 43.824973 ], [ 4.573339, 43.825604 ], [ 4.579808, 43.822711 ], [ 4.583006, 43.814426 ], [ 4.577769, 43.807729 ], [ 4.577125, 43.804187 ], [ 4.580063, 43.795966 ], [ 4.575029, 43.788928 ], [ 4.574134, 43.788583 ], [ 4.573759, 43.78842 ], [ 4.574313, 43.786035 ], [ 4.575194, 43.785118 ], [ 4.579107, 43.785763 ], [ 4.581358, 43.787759 ], [ 4.588616, 43.791568 ], [ 4.589186, 43.791749 ], [ 4.59063, 43.79222 ], [ 4.592243, 43.792649 ], [ 4.592424295879839, 43.792670952834435 ], [ 4.596369, 43.792478 ], [ 4.597758, 43.792629 ], [ 4.598351, 43.792721 ], [ 4.599954, 43.792811 ], [ 4.608017, 43.788976 ], [ 4.608108, 43.786788 ], [ 4.608092, 43.78655 ], [ 4.608617, 43.779528 ], [ 4.60849, 43.778807 ], [ 4.609666, 43.775405 ], [ 4.609690803484382, 43.775413568008602 ], [ 4.609691, 43.775413 ], [ 4.61063, 43.775738 ], [ 4.617406, 43.770517 ], [ 4.61758, 43.767999 ], [ 4.620632, 43.766089 ], [ 4.621113, 43.766857 ], [ 4.621146553693944, 43.766914261147235 ], [ 4.621147, 43.766914 ], [ 4.621464, 43.767456 ], [ 4.62171, 43.767991 ], [ 4.622991, 43.770358 ], [ 4.628493, 43.777043 ], [ 4.632601, 43.780622 ], [ 4.633759602944983, 43.780850365021351 ], [ 4.635472, 43.780149 ], [ 4.636088826938834, 43.779446206864627 ], [ 4.633442, 43.77692 ], [ 4.627089, 43.770741 ], [ 4.623955, 43.768036 ], [ 4.618745, 43.760846 ], [ 4.617522, 43.758401 ], [ 4.616837, 43.757208 ], [ 4.616631, 43.756884 ], [ 4.616630991764753, 43.756884005230027 ], [ 4.616617, 43.756862 ], [ 4.613579, 43.758793 ], [ 4.612613, 43.766638 ], [ 4.608715, 43.771668 ], [ 4.60211, 43.771598 ], [ 4.600402, 43.773559 ], [ 4.599947, 43.774476 ], [ 4.600255, 43.777156 ], [ 4.602155, 43.780324 ], [ 4.601547703672375, 43.784762610915664 ], [ 4.596395, 43.788573 ], [ 4.594889, 43.788402 ], [ 4.594887141846315, 43.788402581133987 ], [ 4.594882, 43.788402 ], [ 4.588445759969476, 43.790416567945066 ], [ 4.585056, 43.784315 ], [ 4.582395, 43.78189 ], [ 4.581483, 43.782891 ], [ 4.573565593338576, 43.784298862385519 ], [ 4.574623, 43.784865 ] ] ], [ [ [ 4.584891, 43.848387 ], [ 4.585521352236838, 43.84865213984326 ], [ 4.587254, 43.845139 ], [ 4.587258384315396, 43.84512672319282 ], [ 4.587049, 43.845066 ], [ 4.584759, 43.844247 ], [ 4.58147, 43.842626 ], [ 4.578253, 43.840091 ], [ 4.572821879651672, 43.840282651093126 ], [ 4.574125, 43.844342 ], [ 4.574461, 43.844774 ], [ 4.574694, 43.845246 ], [ 4.575546, 43.847609 ], [ 4.576014, 43.848395 ], [ 4.576448, 43.84919 ], [ 4.581081984987406, 43.849222202447507 ], [ 4.584891, 43.848387 ] ] ], [ [ [ 4.566036411754173, 43.781688412544206 ], [ 4.567249, 43.782588 ], [ 4.571078, 43.782967 ], [ 4.572954204546051, 43.783971523618746 ], [ 4.571129, 43.782138 ], [ 4.566036411754173, 43.781688412544206 ] ] ], [ [ [ 4.626164387646668, 43.86617247098016 ], [ 4.630665, 43.869063 ], [ 4.631314, 43.869204 ], [ 4.626164387646668, 43.86617247098016 ] ] ], [ [ [ 4.623210560337697, 43.864270627154198 ], [ 4.623224, 43.864284 ], [ 4.623246036041046, 43.864298152699924 ], [ 4.623210560337697, 43.864270627154198 ] ] ], [ [ [ 4.621204, 43.850065 ], [ 4.621216, 43.850045 ], [ 4.621374, 43.849786 ], [ 4.626912, 43.8441 ], [ 4.626953461935503, 43.84408068736461 ], [ 4.626809781833222, 43.843837911125547 ], [ 4.621529, 43.848036 ], [ 4.62139, 43.849023 ], [ 4.621223, 43.849533 ], [ 4.61989941492364, 43.853084929530404 ], [ 4.620873765931782, 43.850470193099319 ], [ 4.621149, 43.850152 ], [ 4.621204, 43.850065 ] ] ] ] } },
{ "type": "Feature", "properties": { "codgeo": "30032", "value": 600, "isochrone_group": 10.0, "nb_agences": 3 }, "geometry": { "type": "MultiPolygon", "coordinates": [ [ [ [ 4.616617, 43.756862 ], [ 4.616630991764753, 43.756884005230027 ], [ 4.616631, 43.756884 ], [ 4.616837, 43.757208 ], [ 4.616851742505783, 43.757233675634161 ], [ 4.616881, 43.75728 ], [ 4.616985524736503, 43.757466671548393 ], [ 4.617522, 43.758401 ], [ 4.618745, 43.760846 ], [ 4.623955, 43.768036 ], [ 4.627089, 43.770741 ], [ 4.631161492161685, 43.77470195215917 ], [ 4.629199, 43.770693 ], [ 4.628593, 43.769403 ], [ 4.627636, 43.768554 ], [ 4.62276137482418, 43.765155587223212 ], [ 4.621427, 43.764206 ], [ 4.62175, 43.760621 ], [ 4.616648390125093, 43.756503830623949 ], [ 4.616617, 43.756862 ] ] ], [ [ [ 4.597720765927474, 43.766466934657316 ], [ 4.597708, 43.766401 ], [ 4.596262, 43.765895 ], [ 4.596176, 43.765897 ], [ 4.595841506092376, 43.765942328613633 ], [ 4.595826, 43.765938 ], [ 4.595748, 43.765955 ], [ 4.594174, 43.767084 ], [ 4.594362, 43.768055 ], [ 4.595034, 43.773529 ], [ 4.595043, 43.777129 ], [ 4.597031, 43.784192 ], [ 4.598272080994086, 43.787184911457537 ], [ 4.601547703672375, 43.784762610915664 ], [ 4.602155, 43.780324 ], [ 4.600255, 43.777156 ], [ 4.599947, 43.774476 ], [ 4.600402, 43.773559 ], [ 4.60211, 43.771598 ], [ 4.608715, 43.771668 ], [ 4.612613, 43.766638 ], [ 4.613467169934867, 43.759701185156274 ], [ 4.607950823701487, 43.755409875313838 ], [ 4.60725, 43.762299 ], [ 4.607506, 43.76589 ], [ 4.600958, 43.770883 ], [ 4.597896, 43.767372 ], [ 4.597721, 43.766467 ], [ 4.597720765927474, 43.766466934657316 ] ] ], [ [ [ 4.566959, 43.780545 ], [ 4.568581, 43.778168 ], [ 4.569214, 43.778281 ], [ 4.569442, 43.778412 ], [ 4.570144, 43.778868 ], [ 4.57028, 43.779126 ], [ 4.569862, 43.778 ], [ 4.569671, 43.777533 ], [ 4.566152, 43.777546 ], [ 4.561765177841853, 43.778336606550546 ], [ 4.563724922176809, 43.781484347996276 ], [ 4.564110343179243, 43.781518374004165 ], [ 4.566959, 43.780545 ] ] ], [ [ [ 4.581483, 43.782891 ], [ 4.582395, 43.78189 ], [ 4.584752795574939, 43.78403868630938 ], [ 4.585563, 43.782336 ], [ 4.58492, 43.781422 ], [ 4.584578, 43.78119 ], [ 4.583558, 43.780639 ], [ 4.581025, 43.779232 ], [ 4.579277, 43.782379 ], [ 4.570626, 43.77994 ], [ 4.571012, 43.78137 ], [ 4.574528722116998, 43.784127600148054 ], [ 4.581483, 43.782891 ] ] ], [ [ [ 4.56516, 43.805586 ], [ 4.565142, 43.806651 ], [ 4.562316, 43.813262 ], [ 4.554949, 43.813261 ], [ 4.548153, 43.810491 ], [ 4.546864, 43.81113 ], [ 4.545424, 43.812839 ], [ 4.546427, 43.814703 ], [ 4.548091, 43.815807 ], [ 4.548435, 43.816117 ], [ 4.548879, 43.816422 ], [ 4.54928, 43.824812 ], [ 4.544861, 43.824897 ], [ 4.544115, 43.824523 ], [ 4.542715, 43.8239 ], [ 4.535206, 43.825297 ], [ 4.535140702371802, 43.825294043611336 ], [ 4.535198, 43.825297 ], [ 4.535016, 43.828892 ], [ 4.532744780511312, 43.828881167474627 ], [ 4.541014, 43.831589 ], [ 4.547427, 43.833727 ], [ 4.549271, 43.835369 ], [ 4.550785, 43.836571 ], [ 4.552149, 43.837531 ], [ 4.557686, 43.841306 ], [ 4.558547, 43.840198 ], [ 4.559007, 43.839747 ], [ 4.566246687732978, 43.841082049792021 ], [ 4.560091, 43.838037 ], [ 4.552477, 43.833883 ], [ 4.546586, 43.830778 ], [ 4.545516, 43.829924 ], [ 4.546043, 43.828338 ], [ 4.546953, 43.827196 ], [ 4.547425, 43.826872 ], [ 4.552278, 43.826439 ], [ 4.553137, 43.818107 ], [ 4.554212, 43.814671 ], [ 4.554944, 43.8149 ], [ 4.556474, 43.81545 ], [ 4.561819, 43.8177 ], [ 4.563646, 43.817749 ], [ 4.565305, 43.818597 ], [ 4.568604, 43.82344 ], [ 4.575218, 43.82248 ], [ 4.579369, 43.815874 ], [ 4.579411, 43.81516 ], [ 4.575179, 43.807981 ], [ 4.572739, 43.808203 ], [ 4.570753, 43.808292 ], [ 4.570591, 43.804696 ], [ 4.574621, 43.797965 ], [ 4.57134698577085, 43.790316588365506 ], [ 4.570474, 43.790333 ], [ 4.56623, 43.791151 ], [ 4.563959, 43.788358 ], [ 4.560792281451258, 43.789037170216169 ], [ 4.562592, 43.790477 ], [ 4.56441, 43.79249 ], [ 4.568846, 43.794696 ], [ 4.571054, 43.797251 ], [ 4.566728, 43.80493 ], [ 4.565396, 43.804978 ], [ 4.56516, 43.805586 ] ] ], [ [ [ 4.534698, 43.825274 ], [ 4.532725, 43.825276 ], [ 4.532725000784806, 43.825276706324523 ], [ 4.534742539840419, 43.825276016567578 ], [ 4.534698, 43.825274 ] ] ], [ [ [ 4.62328557497976, 43.847823339231688 ], [ 4.621374, 43.849786 ], [ 4.621216, 43.850045 ], [ 4.621204, 43.850065 ], [ 4.623419908029485, 43.848009858754047 ], [ 4.62328557497976, 43.847823339231688 ] ] ], [ [ [ 4.621204, 43.850065 ], [ 4.620931, 43.850499 ], [ 4.620421986805622, 43.853209823321485 ], [ 4.621055738501633, 43.850300766351786 ], [ 4.621204, 43.850065 ] ] ], [ [ [ 4.63358684089298, 43.869536240532227 ], [ 4.633642829792872, 43.869543322286852 ], [ 4.634196616395312, 43.869591358299466 ], [ 4.634398968995195, 43.869608590907966 ], [ 4.62870999759628, 43.867351266013287 ], [ 4.63358684089298, 43.869536240532227 ] ] ] ] } },
{ "type": "Feature", "properties": { "codgeo": "30032", "value": 660, "isochrone_group": 11.0, "nb_agences": 3 }, "geometry": { "type": "MultiPolygon", "coordinates": [ [ [ [ 4.570209, 43.77468 ], [ 4.571233, 43.778131 ], [ 4.571769283594763, 43.7802623290588 ], [ 4.579277, 43.782379 ], [ 4.581025, 43.779232 ], [ 4.583558, 43.780639 ], [ 4.581841, 43.779685 ], [ 4.580125, 43.778731 ], [ 4.572574, 43.776152 ], [ 4.571993, 43.774022 ], [ 4.571684, 43.773863 ], [ 4.569825, 43.773963 ], [ 4.567755, 43.775445 ], [ 4.568113, 43.775302 ], [ 4.570209, 43.77468 ] ] ], [ [ [ 4.559553, 43.775354 ], [ 4.558608906746961, 43.775012721163108 ], [ 4.559401, 43.775578 ], [ 4.567755, 43.775445 ], [ 4.559553, 43.775354 ] ] ], [ [ [ 4.547481, 43.7773 ], [ 4.548621, 43.777714 ], [ 4.553003427905447, 43.775354188183918 ], [ 4.547913, 43.777324 ], [ 4.546652, 43.776941 ], [ 4.543553005674702, 43.775373839158469 ], [ 4.544798, 43.776219 ], [ 4.547481, 43.7773 ] ] ], [ [ [ 4.551483, 43.81105 ], [ 4.546272839254526, 43.808007703340927 ], [ 4.546298, 43.808334 ], [ 4.545006, 43.810821 ], [ 4.543567, 43.810679 ], [ 4.543177, 43.81058 ], [ 4.54015976288333, 43.808845493636049 ], [ 4.54058, 43.813951 ], [ 4.536957, 43.82123 ], [ 4.536514737316163, 43.82132348570056 ], [ 4.539436080019253, 43.824510021469308 ], [ 4.542715, 43.8239 ], [ 4.544115, 43.824523 ], [ 4.544861, 43.824897 ], [ 4.54928, 43.824812 ], [ 4.548879, 43.816422 ], [ 4.548435, 43.816117 ], [ 4.548091, 43.815807 ], [ 4.546427, 43.814703 ], [ 4.545424, 43.812839 ], [ 4.546864, 43.81113 ], [ 4.548153, 43.810491 ], [ 4.554949, 43.813261 ], [ 4.562316, 43.813262 ], [ 4.565142, 43.806651 ], [ 4.56516, 43.805586 ], [ 4.565396, 43.804978 ], [ 4.566728, 43.80493 ], [ 4.571054, 43.797251 ], [ 4.5689774986444, 43.794848164418703 ], [ 4.568565, 43.794849 ], [ 4.565623, 43.795051 ], [ 4.560684677409044, 43.793354466698709 ], [ 4.563801, 43.795754 ], [ 4.564998, 43.799099 ], [ 4.559092, 43.805431 ], [ 4.555083, 43.81112 ], [ 4.551483, 43.81105 ] ] ], [ [ [ 4.53755, 43.833737 ], [ 4.53793, 43.833661 ], [ 4.544079, 43.835144 ], [ 4.54655, 43.84002 ], [ 4.548269, 43.841456 ], [ 4.552432, 43.844438 ], [ 4.552874, 43.844728 ], [ 4.5538, 43.84524 ], [ 4.554632, 43.844301 ], [ 4.556976, 43.842157 ], [ 4.557441, 43.841618 ], [ 4.557684699199261, 43.84130511314379 ], [ 4.552149, 43.837531 ], [ 4.550785, 43.836571 ], [ 4.549271, 43.835369 ], [ 4.547427, 43.833727 ], [ 4.541014, 43.831589 ], [ 4.533001790086368, 43.828965327640852 ], [ 4.531871, 43.828877 ], [ 4.528597, 43.828874 ], [ 4.535911, 43.832869 ], [ 4.536458, 43.833304 ], [ 4.53755, 43.833737 ] ] ], [ [ [ 4.564582864845711, 43.847147777931426 ], [ 4.567956, 43.84217 ], [ 4.567863855533511, 43.841983860776537 ], [ 4.567787, 43.841844 ], [ 4.564582864845711, 43.847147777931426 ] ] ], [ [ [ 4.621427, 43.764206 ], [ 4.62276137482418, 43.765155587223212 ], [ 4.623932712157753, 43.765972201345697 ], [ 4.621544517463038, 43.762901665309606 ], [ 4.621427, 43.764206 ] ] ], [ [ [ 4.614206920821798, 43.739977969390992 ], [ 4.61327, 43.7378 ], [ 4.612983712934531, 43.737551564669438 ], [ 4.613179, 43.739105 ], [ 4.614206920821798, 43.739977969390992 ] ] ], [ [ [ 4.593509845285492, 43.759427240349851 ], [ 4.593491, 43.759429 ], [ 4.592691, 43.760672 ], [ 4.593099, 43.765336 ], [ 4.590053, 43.772577 ], [ 4.588219876309061, 43.775657804723224 ], [ 4.586798984153265, 43.777214535654394 ], [ 4.583631346243326, 43.780678621353005 ], [ 4.584578, 43.78119 ], [ 4.584797624652728, 43.781338985144558 ], [ 4.584804, 43.781336 ], [ 4.58492, 43.781422 ], [ 4.585563, 43.782336 ], [ 4.586807, 43.785336 ], [ 4.591063225327887, 43.792347723801861 ], [ 4.591090100123676, 43.792355647048417 ], [ 4.592093373797907, 43.792611155749064 ], [ 4.592192142425457, 43.792636136833089 ], [ 4.592244671709876, 43.792647749452229 ], [ 4.598574, 43.787913 ], [ 4.597031, 43.784192 ], [ 4.595043, 43.777129 ], [ 4.595034, 43.773529 ], [ 4.594362, 43.768055 ], [ 4.594174, 43.767084 ], [ 4.595748, 43.765955 ], [ 4.595826, 43.765938 ], [ 4.595841506092376, 43.765942328613633 ], [ 4.596176, 43.765897 ], [ 4.596262, 43.765895 ], [ 4.597708, 43.766401 ], [ 4.597720765927474, 43.766466934657316 ], [ 4.597721, 43.766467 ], [ 4.597896, 43.767372 ], [ 4.600958, 43.770883 ], [ 4.607506, 43.76589 ], [ 4.60725, 43.762299 ], [ 4.60732720649516, 43.761540057100923 ], [ 4.605864, 43.759534 ], [ 4.60105839768293, 43.754467194171632 ], [ 4.596139, 43.759638 ], [ 4.594487, 43.759336 ], [ 4.59351, 43.759427 ], [ 4.593509845285492, 43.759427240349851 ] ] ], [ [ [ 4.620602, 43.861248 ], [ 4.62116419003119, 43.862005150495037 ], [ 4.62363422349218, 43.864600785789627 ], [ 4.623776960610408, 43.864711946750766 ], [ 4.620725415217954, 43.86141341204975 ], [ 4.620602, 43.861248 ] ] ], [ [ [ 4.619754055887871, 43.856275770290601 ], [ 4.619760536277759, 43.859379877046344 ], [ 4.619768255079221, 43.85939701345972 ], [ 4.619928554434698, 43.85547478432553 ], [ 4.619754055887871, 43.856275770290601 ] ] ], [ [ [ 4.647232027336901, 43.766740291159266 ], [ 4.646999, 43.767629 ], [ 4.649116, 43.771093 ], [ 4.647328, 43.766963 ], [ 4.647232027336901, 43.766740291159266 ] ] ] ] } },
{ "type": "Feature", "properties": { "codgeo": "30032", "value": 720, "isochrone_group": 12.0, "nb_agences": 3 }, "geometry": { "type": "MultiPolygon", "coordinates": [ [ [ [ 4.541349053655938, 43.772734090990916 ], [ 4.542855, 43.7749 ], [ 4.543553005674702, 43.775373839158469 ], [ 4.546652, 43.776941 ], [ 4.547913, 43.777324 ], [ 4.549598515937838, 43.776671766185437 ], [ 4.546476, 43.77544 ], [ 4.541349053655938, 43.772734090990916 ] ] ], [ [ [ 4.552007, 43.810381 ], [ 4.551980130183721, 43.811059666420249 ], [ 4.555083, 43.81112 ], [ 4.559092, 43.805431 ], [ 4.564998, 43.799099 ], [ 4.564182902485346, 43.796821221230971 ], [ 4.562393, 43.796704 ], [ 4.561248, 43.79637 ], [ 4.560431, 43.795923 ], [ 4.560289491171941, 43.795888213720474 ], [ 4.559996, 43.798914 ], [ 4.557036, 43.804944 ], [ 4.556017, 43.808397 ], [ 4.551970402635397, 43.810054021612515 ], [ 4.552007, 43.810381 ] ] ], [ [ [ 4.537422925966891, 43.808491852571215 ], [ 4.537848, 43.809906 ], [ 4.53412383613044, 43.816136812627917 ], [ 4.537272, 43.817011 ], [ 4.538755356441172, 43.817616906835418 ], [ 4.54058, 43.813951 ], [ 4.540301543051788, 43.810567996298552 ], [ 4.537422925966891, 43.808491852571215 ] ] ], [ [ [ 4.54243, 43.842723 ], [ 4.544415, 43.844662 ], [ 4.549204200389528, 43.848456498935569 ], [ 4.549746, 43.848015 ], [ 4.55333, 43.848358 ], [ 4.557652, 43.841349 ], [ 4.557651076178065, 43.841348281941357 ], [ 4.557441, 43.841618 ], [ 4.556976, 43.842157 ], [ 4.554632, 43.844301 ], [ 4.5538, 43.84524 ], [ 4.552874, 43.844728 ], [ 4.552432, 43.844438 ], [ 4.548269, 43.841456 ], [ 4.54655, 43.84002 ], [ 4.544079, 43.835144 ], [ 4.53793, 43.833661 ], [ 4.53755, 43.833737 ], [ 4.536458, 43.833304 ], [ 4.535911, 43.832869 ], [ 4.529779040585187, 43.829519645630008 ], [ 4.529238012069444, 43.829685848477396 ], [ 4.533291, 43.834819 ], [ 4.534297, 43.834945 ], [ 4.534926, 43.83501 ], [ 4.535862, 43.834734 ], [ 4.541688, 43.836072 ], [ 4.54243, 43.842723 ] ] ], [ [ [ 4.587323, 43.759142 ], [ 4.586997, 43.762728 ], [ 4.583982, 43.77102 ], [ 4.583048, 43.770886 ], [ 4.583047799650497, 43.770886678849209 ], [ 4.583001, 43.77088 ], [ 4.582654, 43.772221 ], [ 4.582547, 43.772688 ], [ 4.582552, 43.772875 ], [ 4.58249, 43.774443 ], [ 4.580788380006579, 43.779063101920265 ], [ 4.580890591010772, 43.779156625771734 ], [ 4.581448283574344, 43.779466671637479 ], [ 4.583558, 43.780639 ], [ 4.583631346243326, 43.780678621353005 ], [ 4.586798984153265, 43.777214535654394 ], [ 4.588219876309061, 43.775657804723224 ], [ 4.590053, 43.772577 ], [ 4.593099, 43.765336 ], [ 4.592691, 43.760672 ], [ 4.593491, 43.759429 ], [ 4.593509845285492, 43.759427240349851 ], [ 4.59351, 43.759427 ], [ 4.594487, 43.759336 ], [ 4.596139, 43.759638 ], [ 4.598382564107276, 43.757279777487831 ], [ 4.595277, 43.754534 ], [ 4.593414936608601, 43.751641911479872 ], [ 4.592123, 43.753016 ], [ 4.590624229526236, 43.754734569720561 ], [ 4.590149, 43.755261 ], [ 4.587323, 43.759142 ] ] ], [ [ [ 4.57081, 43.772591 ], [ 4.570868, 43.772562 ], [ 4.573293, 43.771746 ], [ 4.574155, 43.77218 ], [ 4.574361, 43.773182 ], [ 4.579364081826158, 43.77775985817938 ], [ 4.575511, 43.772862 ], [ 4.573335, 43.769501 ], [ 4.570059, 43.770994 ], [ 4.567514231076689, 43.775442328703718 ], [ 4.567755, 43.775445 ], [ 4.57081, 43.772591 ] ] ], [ [ [ 4.627896425742708, 43.868250643564402 ], [ 4.628124737931056, 43.868334172413803 ], [ 4.628359939362499, 43.868411776947035 ], [ 4.628424879606905, 43.868433203931218 ], [ 4.629151364291332, 43.868668514092413 ], [ 4.62963782327486, 43.868795295729853 ], [ 4.630066516805297, 43.86890702245212 ], [ 4.630709740366334, 43.869072720172056 ], [ 4.630719085315907, 43.86907475043072 ], [ 4.630738894107359, 43.869079054035659 ], [ 4.630868632520736, 43.868941790974013 ], [ 4.62408, 43.864945 ], [ 4.623770400352381, 43.864704855511413 ], [ 4.626556006483709, 43.867715926069408 ], [ 4.626569613756622, 43.8677222063492 ], [ 4.627185312501687, 43.867976337039309 ], [ 4.627266467409038, 43.868009833863447 ], [ 4.62747409932683, 43.868094538248116 ], [ 4.627896425742708, 43.868250643564402 ] ] ] ] } },
{ "type": "Feature", "properties": { "codgeo": "30032", "value": 780, "isochrone_group": 13.0, "nb_agences": 3 }, "geometry": { "type": "MultiPolygon", "coordinates": [ [ [ [ 4.608621438245608, 43.722471532835094 ], [ 4.608628432056976, 43.722592625225012 ], [ 4.608719, 43.722817 ], [ 4.609092443130248, 43.723526653328044 ], [ 4.609815, 43.724778 ], [ 4.610014, 43.725202 ], [ 4.610883, 43.726827 ], [ 4.608621438245608, 43.722471532835094 ] ] ], [ [ [ 4.620074, 43.750141 ], [ 4.621391, 43.749591 ], [ 4.621390075848363, 43.749588788161574 ], [ 4.620074, 43.750141 ] ] ], [ [ [ 4.57773, 43.770281 ], [ 4.579396, 43.774212 ], [ 4.58152111307106, 43.777073643961771 ], [ 4.58249, 43.774443 ], [ 4.582552, 43.772875 ], [ 4.582547, 43.772688 ], [ 4.582654, 43.772221 ], [ 4.583001, 43.77088 ], [ 4.583047799650497, 43.770886678849209 ], [ 4.583048, 43.770886 ], [ 4.583982, 43.77102 ], [ 4.586997, 43.762728 ], [ 4.587323, 43.759142 ], [ 4.589486104858658, 43.756171366611312 ], [ 4.587016, 43.754622 ], [ 4.586746, 43.749725 ], [ 4.586505768708124, 43.748775437123342 ], [ 4.583687, 43.754606 ], [ 4.58046, 43.758598 ], [ 4.580223, 43.76219 ], [ 4.577337924373142, 43.769466982968424 ], [ 4.576877, 43.769238 ], [ 4.572585, 43.765882 ], [ 4.568999, 43.766208 ], [ 4.566085, 43.769679 ], [ 4.560535888897524, 43.774576397724942 ], [ 4.559876, 43.774497 ], [ 4.556528, 43.773174 ], [ 4.556522047451818, 43.77318901873695 ], [ 4.556522, 43.773189 ], [ 4.556395442810007, 43.773508406241405 ], [ 4.547968, 43.775896 ], [ 4.544784, 43.769637 ], [ 4.543419, 43.766306 ], [ 4.538779, 43.765679 ], [ 4.536679459726833, 43.7645764925959 ], [ 4.536611, 43.764944 ], [ 4.539382, 43.769905 ], [ 4.541349053655938, 43.772734090990916 ], [ 4.546476, 43.77544 ], [ 4.550151460309285, 43.776889890990141 ], [ 4.556471, 43.773487 ], [ 4.559401, 43.775578 ], [ 4.567321, 43.773363 ], [ 4.567803, 43.769796 ], [ 4.569261, 43.76859 ], [ 4.572757, 43.767732 ], [ 4.57773, 43.770281 ] ] ], [ [ [ 4.648378, 43.771708 ], [ 4.646204, 43.777498 ], [ 4.646777, 43.776812 ], [ 4.649116, 43.771093 ], [ 4.648235835341459, 43.769092170282846 ], [ 4.648378, 43.771708 ] ] ], [ [ [ 4.557495, 43.802358 ], [ 4.557528823742576, 43.803940038118995 ], [ 4.558810368284667, 43.801329324068725 ], [ 4.557495, 43.802358 ] ] ], [ [ [ 4.54243, 43.842723 ], [ 4.541688, 43.836072 ], [ 4.535862, 43.834734 ], [ 4.534926, 43.83501 ], [ 4.534297, 43.834945 ], [ 4.533291, 43.834819 ], [ 4.532638081451478, 43.833992071842566 ], [ 4.528862199542597, 43.833799676136685 ], [ 4.529101, 43.833948 ], [ 4.529511, 43.834319 ], [ 4.530094, 43.834465 ], [ 4.532237, 43.834678 ], [ 4.532835, 43.834802 ], [ 4.537676, 43.837604 ], [ 4.539933, 43.844801 ], [ 4.539474, 43.847294 ], [ 4.543511892078417, 43.850229341980821 ], [ 4.543519, 43.850001 ], [ 4.544972, 43.847381 ], [ 4.546988106464045, 43.846700680561447 ], [ 4.544415, 43.844662 ], [ 4.54243, 43.842723 ] ] ] ] } },
{ "type": "Feature", "properties": { "codgeo": "30032", "value": 840, "isochrone_group": 14.0, "nb_agences": 3 }, "geometry": { "type": "MultiPolygon", "coordinates": [ [ [ [ 4.54882, 43.764093 ], [ 4.546453, 43.765063 ], [ 4.539049, 43.760411 ], [ 4.537309, 43.761244 ], [ 4.537299383395346, 43.761248601166962 ], [ 4.536679459726833, 43.7645764925959 ], [ 4.538779, 43.765679 ], [ 4.543419, 43.766306 ], [ 4.544784, 43.769637 ], [ 4.547968, 43.775896 ], [ 4.556395442810007, 43.773508406241405 ], [ 4.55642246654926, 43.773440203470905 ], [ 4.550184, 43.767425 ], [ 4.54882, 43.764093 ] ] ], [ [ [ 4.539938569328529, 43.852974839946057 ], [ 4.543815182968, 43.850449819017676 ], [ 4.539474, 43.847294 ], [ 4.539933, 43.844801 ], [ 4.537676, 43.837604 ], [ 4.532835, 43.834802 ], [ 4.532237, 43.834678 ], [ 4.530064771905542, 43.835375700226841 ], [ 4.534245, 43.838426 ], [ 4.536413, 43.844982 ], [ 4.536794, 43.848562 ], [ 4.536945, 43.850165 ], [ 4.539541, 43.852659 ], [ 4.539938569328529, 43.852974839946057 ] ] ], [ [ [ 4.575138, 43.761771 ], [ 4.574692657856126, 43.763443253406358 ], [ 4.573823, 43.763419 ], [ 4.571189, 43.763322 ], [ 4.576601, 43.765409 ], [ 4.578388631272341, 43.766816800720484 ], [ 4.580223, 43.76219 ], [ 4.58046, 43.758598 ], [ 4.583107815377954, 43.755322487453114 ], [ 4.582553, 43.754563 ], [ 4.580378, 43.754491 ], [ 4.580398332699783, 43.753876234841805 ], [ 4.579794, 43.754494 ], [ 4.576393, 43.754621 ], [ 4.576392937293981, 43.754621254027008 ], [ 4.576373, 43.754622 ], [ 4.57549, 43.758188 ], [ 4.575138, 43.761771 ] ] ], [ [ [ 4.570384, 43.763219 ], [ 4.567241, 43.762974 ], [ 4.566802, 43.766548 ], [ 4.567766462172678, 43.767676132738025 ], [ 4.568999, 43.766208 ], [ 4.569056793726385, 43.766202746024874 ], [ 4.569036, 43.765864 ], [ 4.569619, 43.763226 ], [ 4.570384, 43.763219 ] ] ], [ [ [ 4.621585, 43.749507 ], [ 4.622051, 43.74922 ], [ 4.622734, 43.747467 ], [ 4.622233, 43.746412 ], [ 4.617269, 43.74017 ], [ 4.619916748478968, 43.746089352682361 ], [ 4.620003, 43.746269 ], [ 4.621390075848363, 43.749588788161574 ], [ 4.621585, 43.749507 ] ] ], [ [ [ 4.611857454169138, 43.73121374353348 ], [ 4.613695, 43.73438 ], [ 4.613848329773186, 43.734627427133994 ], [ 4.611186, 43.728074 ], [ 4.611857454169138, 43.73121374353348 ] ] ], [ [ [ 4.617018607425788, 43.739749543105162 ], [ 4.617018607425794, 43.739749543105162 ], [ 4.616923, 43.739589 ], [ 4.617018607425788, 43.739749543105162 ] ] ], [ [ [ 4.617522, 43.758401 ], [ 4.617575187640507, 43.758519755162851 ], [ 4.617619, 43.758598 ], [ 4.617708891692035, 43.758818284036515 ], [ 4.617754, 43.758919 ], [ 4.617952536644812, 43.757007491894143 ], [ 4.617522, 43.758401 ] ] ], [ [ [ 4.6464989033899, 43.765039044376316 ], [ 4.645756325645598, 43.763315859635519 ], [ 4.645756, 43.763316 ], [ 4.6464989033899, 43.765039044376316 ] ] ], [ [ [ 4.608217, 43.715469 ], [ 4.608621438245608, 43.722471532835087 ], [ 4.609607417115665, 43.724370397009572 ], [ 4.609503, 43.716022 ], [ 4.609567, 43.715622 ], [ 4.609566975856337, 43.715621912182009 ], [ 4.60957, 43.715603 ], [ 4.609081679772228, 43.713748235681898 ], [ 4.608217, 43.715469 ] ] ] ] } },
{ "type": "Feature", "properties": { "codgeo": "30032", "value": 900, "isochrone_group": 15.0, "nb_agences": 3 }, "geometry": { "type": "MultiPolygon", "coordinates": [ [ [ [ 4.549536, 43.860731 ], [ 4.555934775322235, 43.861156799232809 ], [ 4.550859, 43.853854 ], [ 4.55016, 43.85392 ], [ 4.548947, 43.854075 ], [ 4.548855790711905, 43.854083333843576 ], [ 4.548898, 43.85482 ], [ 4.549263, 43.856957 ], [ 4.545714, 43.857563 ], [ 4.539541, 43.852659 ], [ 4.536945, 43.850165 ], [ 4.536794, 43.848562 ], [ 4.536413, 43.844982 ], [ 4.534249803650162, 43.838440526167183 ], [ 4.530741, 43.839209 ], [ 4.530333737597415, 43.839358004315876 ], [ 4.533687, 43.845368 ], [ 4.533322325521271, 43.851584042251062 ], [ 4.53446, 43.85205 ], [ 4.535008564567517, 43.856636067613124 ], [ 4.535051, 43.856707 ], [ 4.535811, 43.856275 ], [ 4.536495, 43.855821 ], [ 4.537435, 43.855164 ], [ 4.545827, 43.85821 ], [ 4.545959, 43.85919 ], [ 4.545936, 43.860677 ], [ 4.549536, 43.860731 ] ] ], [ [ [ 4.566604, 43.762896 ], [ 4.572756, 43.761993 ], [ 4.575125099277113, 43.761819442030671 ], [ 4.575138, 43.761771 ], [ 4.57549, 43.758188 ], [ 4.576372395167835, 43.754624442617789 ], [ 4.576028, 43.754638 ], [ 4.574458, 43.754535 ], [ 4.574052, 43.754478 ], [ 4.572459, 43.754335 ], [ 4.572458922278535, 43.754335067893095 ], [ 4.572369, 43.754327 ], [ 4.568877, 43.757403 ], [ 4.568518, 43.760985 ], [ 4.568604179896163, 43.761918222026253 ], [ 4.566503719230204, 43.762883669415899 ], [ 4.566604, 43.762896 ] ] ], [ [ [ 4.564091, 43.762587 ], [ 4.566501472934187, 43.762883393209961 ], [ 4.563098, 43.761531 ], [ 4.560722, 43.76212 ], [ 4.560224, 43.765685 ], [ 4.556471, 43.773487 ], [ 4.559401, 43.775578 ], [ 4.567396, 43.775649 ], [ 4.569512174186752, 43.76985803820363 ], [ 4.566165, 43.766469 ], [ 4.563651, 43.76616 ], [ 4.564091, 43.762587 ] ] ], [ [ [ 4.546453, 43.765063 ], [ 4.546857154418237, 43.764897376938869 ], [ 4.546857, 43.764897 ], [ 4.546452580216318, 43.765062736246108 ], [ 4.546453, 43.765063 ] ] ] ] } },
{ "type": "Feature", "properties": { "codgeo": "30032", "value": 960, "isochrone_group": 16.0, "nb_agences": 3 }, "geometry": { "type": "MultiPolygon", "coordinates": [ [ [ [ 4.541127107820318, 43.764393003032282 ], [ 4.541495, 43.763231 ], [ 4.539941, 43.759984 ], [ 4.537755, 43.76103 ], [ 4.537299481603165, 43.761248073965014 ], [ 4.537085829059467, 43.762395009475085 ], [ 4.537565, 43.762418 ], [ 4.541127107820318, 43.764393003032282 ] ] ], [ [ [ 4.696214, 43.855858 ], [ 4.696112, 43.855755 ], [ 4.691922712159116, 43.852323330268014 ], [ 4.691834849757344, 43.852405594863676 ], [ 4.69291, 43.8537 ], [ 4.693302, 43.854068 ], [ 4.693428, 43.854226 ], [ 4.693307102335993, 43.85460546754291 ], [ 4.694593, 43.856447 ], [ 4.695188, 43.857566 ], [ 4.695287, 43.857743 ], [ 4.695358, 43.858103 ], [ 4.695878028560753, 43.858996723234448 ], [ 4.695996, 43.857877 ], [ 4.696214, 43.855858 ] ] ], [ [ [ 4.573253216236082, 43.739987561822737 ], [ 4.572967, 43.741908 ], [ 4.575205821519533, 43.747330533791278 ], [ 4.575266, 43.745703 ], [ 4.574207, 43.740784 ], [ 4.573253216236082, 43.739987561822737 ] ] ], [ [ [ 4.554886, 43.764939 ], [ 4.556471, 43.773487 ], [ 4.555928, 43.765085 ], [ 4.556426, 43.76152 ], [ 4.559353, 43.761929 ], [ 4.564609, 43.758758 ], [ 4.568794898724084, 43.758222183204239 ], [ 4.568877, 43.757403 ], [ 4.572282529870195, 43.754403168991786 ], [ 4.57229, 43.75432 ], [ 4.574624253546849, 43.750198314173339 ], [ 4.568467, 43.753976 ], [ 4.565802, 43.753696 ], [ 4.565801995167265, 43.753696045891722 ], [ 4.565773, 43.753693 ], [ 4.565397, 43.757273 ], [ 4.565462194726818, 43.757955757630576 ], [ 4.565003, 43.758048 ], [ 4.557368, 43.761651 ], [ 4.555384, 43.761374 ], [ 4.554886, 43.764939 ] ] ] ] } },
{ "type": "Feature", "properties": { "codgeo": "30032", "value": 1020, "isochrone_group": 17.0, "nb_agences": 3 }, "geometry": { "type": "MultiPolygon", "coordinates": [ [ [ [ 4.57312, 43.739197 ], [ 4.572581134876881, 43.739189936651663 ], [ 4.573098921042329, 43.741022843345235 ], [ 4.573188897508826, 43.740419124130391 ], [ 4.57312, 43.739197 ] ] ], [ [ [ 4.560310593158905, 43.752607513593006 ], [ 4.565623151205099, 43.754878719908895 ], [ 4.565747967324777, 43.75369031110985 ], [ 4.565469, 43.753661 ], [ 4.563457, 43.753468 ], [ 4.560310593158905, 43.752607513593006 ] ] ] ] } },
{ "type": "Feature", "properties": { "codgeo": "30032", "value": 1080, "isochrone_group": 18.0, "nb_agences": 3 }, "geometry": { "type": "MultiPolygon", "coordinates": [ [ [ [ 4.559575, 43.752327 ], [ 4.559577096376755, 43.752327574453915 ], [ 4.55840908469983, 43.751777519125845 ], [ 4.559575, 43.752327 ] ] ], [ [ [ 4.5554708215294, 43.750393378930077 ], [ 4.556224992145232, 43.750748511152736 ], [ 4.555471, 43.750393 ], [ 4.5554708215294, 43.750393378930077 ] ] ] ] } },
{ "type": "Feature", "properties": { "codgeo": "30032", "value": 1140, "isochrone_group": 19.0, "nb_agences": 3 }, "geometry": { "type": "MultiPolygon", "coordinates": [ [ [ [ 4.565187434969344, 43.752403772750426 ], [ 4.567317011946018, 43.749183673683085 ], [ 4.559578, 43.752328 ], [ 4.563457, 43.753468 ], [ 4.565187434969344, 43.752403772750426 ] ] ], [ [ [ 4.559578, 43.752328 ], [ 4.557135, 43.751177 ], [ 4.55608344029556, 43.750681768731653 ], [ 4.556572989383699, 43.750912593630503 ], [ 4.557531, 43.751364 ], [ 4.559578, 43.752328 ] ] ], [ [ [ 4.552644161514835, 43.755322635106928 ], [ 4.549882, 43.758529 ], [ 4.547636, 43.761343 ], [ 4.539498, 43.75917 ], [ 4.540418185575284, 43.760546767735583 ], [ 4.547993, 43.761628 ], [ 4.550238, 43.758814 ], [ 4.554150399556922, 43.757425910412081 ], [ 4.553937, 43.75365 ], [ 4.555470868772173, 43.750393278623875 ], [ 4.554691, 43.750026 ], [ 4.553157, 43.753283 ], [ 4.552644161514835, 43.755322635106928 ] ] ] ] } }
]
}
