{
"type": "FeatureCollection",
"name": "BPCE",
"crs": { "type": "name", "properties": { "name": "urn:ogc:def:crs:OGC:1.3:CRS84" } },
"features": [
{ "type": "Feature", "properties": { "codgeo": "34299", "value": 60, "isochrone_group": 1.0, "nb_agences": 1 }, "geometry": { "type": "Polygon", "coordinates": [ [ [ 3.277652, 43.282095 ], [ 3.27777, 43.281876 ], [ 3.278572, 43.280678 ], [ 3.278875, 43.280804 ], [ 3.279205, 43.281131 ], [ 3.28006, 43.28239 ], [ 3.279696, 43.282639 ], [ 3.277722, 43.283314 ], [ 3.277468, 43.283079 ], [ 3.277652, 43.282095 ] ] ] } },
{ "type": "Feature", "properties": { "codgeo": "34299", "value": 120, "isochrone_group": 2.0, "nb_agences": 1 }, "geometry": { "type": "Polygon", "coordinates": [ [ [ 3.272784, 43.287841 ], [ 3.272968, 43.28815 ], [ 3.273647, 43.287746 ], [ 3.274326, 43.287341 ], [ 3.27567, 43.286546 ], [ 3.280966, 43.285022 ], [ 3.281678, 43.284072 ], [ 3.281893, 43.282948 ], [ 3.281893, 43.282946 ], [ 3.278491, 43.278583 ], [ 3.278377, 43.278455 ], [ 3.273321, 43.277916 ], [ 3.273233, 43.277905 ], [ 3.27305, 43.277903 ], [ 3.273047, 43.278263 ], [ 3.27331, 43.27945 ], [ 3.273416, 43.279794 ], [ 3.274152, 43.281081 ], [ 3.274031, 43.286787 ], [ 3.272784, 43.287841 ] ], [ [ 3.27777, 43.281876 ], [ 3.278572, 43.280678 ], [ 3.278875, 43.280804 ], [ 3.279205, 43.281131 ], [ 3.28006, 43.28239 ], [ 3.279696, 43.282639 ], [ 3.277722, 43.283314 ], [ 3.277468, 43.283079 ], [ 3.277652, 43.282095 ], [ 3.27777, 43.281876 ] ] ] } },
{ "type": "Feature", "properties": { "codgeo": "34299", "value": 180, "isochrone_group": 3.0, "nb_agences": 1 }, "geometry": { "type": "Polygon", "coordinates": [ [ [ 3.266056, 43.291888 ], [ 3.26624, 43.292198 ], [ 3.267398, 43.292192 ], [ 3.267654, 43.291938 ], [ 3.27037, 43.289699 ], [ 3.278528, 43.289414 ], [ 3.285612, 43.285907 ], [ 3.28575, 43.285575 ], [ 3.285831, 43.282167 ], [ 3.285622, 43.281874 ], [ 3.283244, 43.278841 ], [ 3.28041, 43.277009 ], [ 3.278549, 43.276204 ], [ 3.272739, 43.275798 ], [ 3.267888, 43.274594 ], [ 3.266338, 43.27478 ], [ 3.266374, 43.275138 ], [ 3.268871, 43.277881 ], [ 3.269344, 43.278604 ], [ 3.27077, 43.286986 ], [ 3.26655, 43.291481 ], [ 3.266056, 43.291888 ] ], [ [ 3.274152, 43.281081 ], [ 3.273416, 43.279794 ], [ 3.27331, 43.27945 ], [ 3.273047, 43.278263 ], [ 3.27305, 43.277903 ], [ 3.273233, 43.277905 ], [ 3.273321, 43.277916 ], [ 3.278377, 43.278455 ], [ 3.278491, 43.278583 ], [ 3.281893, 43.282946 ], [ 3.281893, 43.282948 ], [ 3.281678, 43.284072 ], [ 3.280966, 43.285022 ], [ 3.27567, 43.286546 ], [ 3.274326, 43.287341 ], [ 3.273647, 43.287746 ], [ 3.272968, 43.28815 ], [ 3.272784, 43.287841 ], [ 3.274031, 43.286787 ], [ 3.274152, 43.281081 ] ] ] } },
{ "type": "Feature", "properties": { "codgeo": "34299", "value": 240, "isochrone_group": 4.0, "nb_agences": 1 }, "geometry": { "type": "Polygon", "coordinates": [ [ [ 3.25962, 43.294938 ], [ 3.25975, 43.295273 ], [ 3.263545, 43.295011 ], [ 3.263874, 43.294864 ], [ 3.266948, 43.292797 ], [ 3.267636, 43.292388 ], [ 3.276046, 43.295242 ], [ 3.276232, 43.29555 ], [ 3.277286, 43.294975 ], [ 3.277532, 43.294776 ], [ 3.277693, 43.294583 ], [ 3.28467, 43.289643 ], [ 3.288597, 43.29012 ], [ 3.288943, 43.290021 ], [ 3.29039, 43.288496 ], [ 3.290796, 43.287907 ], [ 3.291116, 43.287191 ], [ 3.291073, 43.286833 ], [ 3.288696, 43.281025 ], [ 3.284709, 43.273029 ], [ 3.284621, 43.272611 ], [ 3.284533, 43.272193 ], [ 3.28418, 43.272267 ], [ 3.275814, 43.274382 ], [ 3.272306, 43.273599 ], [ 3.268978, 43.27212 ], [ 3.260661, 43.271473 ], [ 3.259162, 43.271321 ], [ 3.259043, 43.271661 ], [ 3.261209, 43.274809 ], [ 3.265914, 43.277533 ], [ 3.268817, 43.280635 ], [ 3.268247, 43.28751 ], [ 3.265845, 43.290038 ], [ 3.264687, 43.290882 ], [ 3.263913, 43.291482 ], [ 3.262602, 43.292336 ], [ 3.26194, 43.292724 ], [ 3.260395, 43.293764 ], [ 3.25962, 43.294938 ] ], [ [ 3.27077, 43.286986 ], [ 3.269344, 43.278604 ], [ 3.268871, 43.277881 ], [ 3.266374, 43.275138 ], [ 3.266338, 43.27478 ], [ 3.267888, 43.274594 ], [ 3.272739, 43.275798 ], [ 3.278549, 43.276204 ], [ 3.28041, 43.277009 ], [ 3.283244, 43.278841 ], [ 3.285622, 43.281874 ], [ 3.285831, 43.282167 ], [ 3.28575, 43.285575 ], [ 3.285612, 43.285907 ], [ 3.278528, 43.289414 ], [ 3.27037, 43.289699 ], [ 3.267654, 43.291938 ], [ 3.267398, 43.292192 ], [ 3.26624, 43.292198 ], [ 3.266056, 43.291888 ], [ 3.26655, 43.291481 ], [ 3.27077, 43.286986 ] ] ] } },
{ "type": "Feature", "properties": { "codgeo": "34299", "value": 300, "isochrone_group": 5.0, "nb_agences": 1 }, "geometry": { "type": "MultiPolygon", "coordinates": [ [ [ [ 3.285167, 43.269373 ], [ 3.28512, 43.269165 ], [ 3.284383, 43.264869 ], [ 3.284023, 43.264852 ], [ 3.281982, 43.269785 ], [ 3.274595, 43.272426 ], [ 3.270968, 43.271443 ], [ 3.262945, 43.270171 ], [ 3.26109, 43.266956 ], [ 3.260735, 43.267017 ], [ 3.258809, 43.267865 ], [ 3.251231, 43.2697 ], [ 3.250874, 43.269745 ], [ 3.249302, 43.270452 ], [ 3.249302, 43.270812 ], [ 3.250234, 43.270811 ], [ 3.251165, 43.27081 ], [ 3.257959, 43.273325 ], [ 3.260394, 43.274781 ], [ 3.263429, 43.278247 ], [ 3.263677, 43.278509 ], [ 3.26667, 43.285499 ], [ 3.259956, 43.289905 ], [ 3.257472, 43.289236 ], [ 3.25731, 43.289291 ], [ 3.257157, 43.289617 ], [ 3.254725, 43.295778 ], [ 3.252026, 43.298055 ], [ 3.251887, 43.298171 ], [ 3.252116, 43.298448 ], [ 3.252888, 43.298044 ], [ 3.261106, 43.297147 ], [ 3.263197, 43.295276 ], [ 3.263717, 43.294953 ], [ 3.263802501209648, 43.294895946268021 ], [ 3.263545, 43.295011 ], [ 3.25975, 43.295273 ], [ 3.25962, 43.294938 ], [ 3.260395, 43.293764 ], [ 3.26194, 43.292724 ], [ 3.262602, 43.292336 ], [ 3.263913, 43.291482 ], [ 3.264687, 43.290882 ], [ 3.265845, 43.290038 ], [ 3.268247, 43.28751 ], [ 3.268817, 43.280635 ], [ 3.265914, 43.277533 ], [ 3.261209, 43.274809 ], [ 3.259043, 43.271661 ], [ 3.259162, 43.271321 ], [ 3.260661, 43.271473 ], [ 3.268978, 43.27212 ], [ 3.272306, 43.273599 ], [ 3.275814, 43.274382 ], [ 3.28418, 43.272267 ], [ 3.284533, 43.272193 ], [ 3.284615882100128, 43.272586689975618 ], [ 3.285146, 43.269521 ], [ 3.285167, 43.269373 ] ] ], [ [ [ 3.29127, 43.296771 ], [ 3.291622, 43.296696 ], [ 3.296264, 43.291097 ], [ 3.297642, 43.287469 ], [ 3.297689, 43.287112 ], [ 3.298087, 43.28209 ], [ 3.291907, 43.279861 ], [ 3.289174, 43.278626 ], [ 3.285015936258123, 43.273644566170027 ], [ 3.288696, 43.281025 ], [ 3.291073, 43.286833 ], [ 3.291116, 43.287191 ], [ 3.290796, 43.287907 ], [ 3.29039, 43.288496 ], [ 3.288943, 43.290021 ], [ 3.288597, 43.29012 ], [ 3.28467, 43.289643 ], [ 3.277693, 43.294583 ], [ 3.277601703529377, 43.294692442352968 ], [ 3.277556, 43.294751 ], [ 3.277548415724393, 43.294774263604573 ], [ 3.285634, 43.293919 ], [ 3.29127, 43.296771 ] ] ], [ [ [ 3.276086298159492, 43.299259085441392 ], [ 3.276086, 43.29926 ], [ 3.276264, 43.300502 ], [ 3.276086298159492, 43.299259085441392 ] ] ], [ [ [ 3.272870721606387, 43.294164444169397 ], [ 3.275016714008225, 43.297169446672662 ], [ 3.275373, 43.296506 ], [ 3.27538, 43.296261 ], [ 3.275459, 43.295903 ], [ 3.275760713049723, 43.295145185617592 ], [ 3.272870721606387, 43.294164444169397 ] ] ], [ [ [ 3.267636, 43.292388 ], [ 3.266948, 43.292797 ], [ 3.269118105455313, 43.292890964205654 ], [ 3.267636, 43.292388 ] ] ] ] } },
{ "type": "Feature", "properties": { "codgeo": "34299", "value": 360, "isochrone_group": 6.0, "nb_agences": 1 }, "geometry": { "type": "MultiPolygon", "coordinates": [ [ [ [ 3.300937, 43.290181 ], [ 3.301761, 43.290442 ], [ 3.302696, 43.290773 ], [ 3.308271, 43.283798 ], [ 3.307961, 43.281929 ], [ 3.307613, 43.280259 ], [ 3.306014, 43.280446 ], [ 3.303958, 43.280568 ], [ 3.296236, 43.276976 ], [ 3.291527, 43.274475 ], [ 3.290317, 43.269077 ], [ 3.289519, 43.265567 ], [ 3.287202727313856, 43.26109133365425 ], [ 3.286833358997545, 43.261557483370382 ], [ 3.284586644965449, 43.266056053964164 ], [ 3.28512, 43.269165 ], [ 3.285167, 43.269373 ], [ 3.285146, 43.269521 ], [ 3.284533, 43.273066 ], [ 3.289174, 43.278626 ], [ 3.291907, 43.279861 ], [ 3.298087, 43.28209 ], [ 3.297689, 43.287112 ], [ 3.297642, 43.287469 ], [ 3.296264, 43.291097 ], [ 3.293765378907609, 43.294110739658834 ], [ 3.300136, 43.289923 ], [ 3.300629, 43.290099 ], [ 3.300937, 43.290181 ] ] ], [ [ [ 3.281944, 43.258938 ], [ 3.282003, 43.259519 ], [ 3.279708, 43.267331 ], [ 3.274499, 43.269368 ], [ 3.269209, 43.268468 ], [ 3.263857, 43.26273 ], [ 3.263787, 43.262634 ], [ 3.263721, 43.262545 ], [ 3.262994, 43.262093 ], [ 3.262247, 43.261968 ], [ 3.261634, 43.262073 ], [ 3.259499, 43.262964 ], [ 3.251422, 43.265937 ], [ 3.249154, 43.265807 ], [ 3.248786, 43.265836 ], [ 3.243849, 43.266971 ], [ 3.239196, 43.268413 ], [ 3.238683, 43.271976 ], [ 3.239202, 43.272051 ], [ 3.242599, 43.272901 ], [ 3.245629, 43.272913 ], [ 3.248607, 43.273493 ], [ 3.248985, 43.273578 ], [ 3.25268, 43.275487 ], [ 3.252965, 43.275774 ], [ 3.254948, 43.275166 ], [ 3.255896, 43.275125 ], [ 3.261543, 43.281236 ], [ 3.256995, 43.285445 ], [ 3.253441, 43.285141 ], [ 3.252582, 43.285091 ], [ 3.252026, 43.285119 ], [ 3.251846, 43.285217 ], [ 3.251016, 43.28593 ], [ 3.250682, 43.286252 ], [ 3.250649, 43.288127 ], [ 3.249887, 43.29633 ], [ 3.246927, 43.298962 ], [ 3.247815, 43.301067 ], [ 3.248616, 43.302141 ], [ 3.249185, 43.301839 ], [ 3.249359, 43.301733 ], [ 3.249564, 43.301593 ], [ 3.256196, 43.300104 ], [ 3.25861, 43.302775 ], [ 3.263146, 43.300584 ], [ 3.263297, 43.300373 ], [ 3.263552, 43.29879 ], [ 3.27146, 43.294614 ], [ 3.273304604139881, 43.298020913272623 ], [ 3.274643900528464, 43.29664740128284 ], [ 3.272052, 43.293018 ], [ 3.266948, 43.292797 ], [ 3.263717, 43.294953 ], [ 3.263197, 43.295276 ], [ 3.261106, 43.297147 ], [ 3.252888, 43.298044 ], [ 3.252116, 43.298448 ], [ 3.251887, 43.298171 ], [ 3.252026, 43.298055 ], [ 3.254725, 43.295778 ], [ 3.257157, 43.289617 ], [ 3.25731, 43.289291 ], [ 3.257472, 43.289236 ], [ 3.259956, 43.289905 ], [ 3.26667, 43.285499 ], [ 3.263677, 43.278509 ], [ 3.263429, 43.278247 ], [ 3.260394, 43.274781 ], [ 3.257959, 43.273325 ], [ 3.251165, 43.27081 ], [ 3.250234, 43.270811 ], [ 3.249302, 43.270812 ], [ 3.249302, 43.270452 ], [ 3.250874, 43.269745 ], [ 3.251231, 43.2697 ], [ 3.258809, 43.267865 ], [ 3.260735, 43.267017 ], [ 3.26109, 43.266956 ], [ 3.262945, 43.270171 ], [ 3.270968, 43.271443 ], [ 3.274595, 43.272426 ], [ 3.281982, 43.269785 ], [ 3.284023, 43.264852 ], [ 3.284023087616059, 43.264852004137417 ], [ 3.284023298145551, 43.264847542081796 ], [ 3.284034, 43.264619 ], [ 3.284155, 43.262036 ], [ 3.281934379502383, 43.258611428630189 ], [ 3.281939, 43.258717 ], [ 3.281944, 43.258938 ] ] ], [ [ [ 3.285935, 43.29861 ], [ 3.290544, 43.29898 ], [ 3.291596155031632, 43.298769270932766 ], [ 3.291589, 43.298694 ], [ 3.291517, 43.297926 ], [ 3.291270171638758, 43.296770963429225 ], [ 3.29127, 43.296771 ], [ 3.285634, 43.293919 ], [ 3.277548415724393, 43.294774263604573 ], [ 3.276086298159492, 43.299259085441392 ], [ 3.276264, 43.300502 ], [ 3.278155868145807, 43.302468625063923 ], [ 3.285935, 43.29861 ] ] ], [ [ [ 3.293342082059391, 43.294621303866762 ], [ 3.293174633310512, 43.294823274040155 ], [ 3.293410699843564, 43.294964215021338 ], [ 3.293342082059391, 43.294621303866762 ] ] ] ] } },
{ "type": "Feature", "properties": { "codgeo": "34299", "value": 420, "isochrone_group": 7.0, "nb_agences": 1 }, "geometry": { "type": "MultiPolygon", "coordinates": [ [ [ [ 3.305584, 43.292391 ], [ 3.306176156756051, 43.292857892826888 ], [ 3.306907, 43.29283 ], [ 3.307091, 43.292918 ], [ 3.307423626243287, 43.293303094073337 ], [ 3.308475, 43.293392 ], [ 3.308627, 43.292468 ], [ 3.308652, 43.292324 ], [ 3.308778, 43.289805 ], [ 3.310928, 43.283242 ], [ 3.31428, 43.28193 ], [ 3.316416, 43.280381 ], [ 3.314694, 43.277219 ], [ 3.313912, 43.277589 ], [ 3.312165, 43.278202 ], [ 3.311869, 43.278283 ], [ 3.311427, 43.278466 ], [ 3.303591, 43.277269 ], [ 3.30204, 43.274021 ], [ 3.296843, 43.272232 ], [ 3.29506, 43.264827 ], [ 3.295179, 43.264472 ], [ 3.291763, 43.263333 ], [ 3.291257060559796, 43.262557311054955 ], [ 3.289978982270664, 43.26306745309936 ], [ 3.289840013125011, 43.263253791024361 ], [ 3.289082256764384, 43.264723093747911 ], [ 3.289519, 43.265567 ], [ 3.290317, 43.269077 ], [ 3.291527, 43.274475 ], [ 3.296236, 43.276976 ], [ 3.303958, 43.280568 ], [ 3.306014, 43.280446 ], [ 3.307613, 43.280259 ], [ 3.307961, 43.281929 ], [ 3.308271, 43.283798 ], [ 3.302696, 43.290773 ], [ 3.301761, 43.290442 ], [ 3.302837, 43.290846 ], [ 3.303682, 43.2913 ], [ 3.305584, 43.292391 ] ] ], [ [ [ 3.276904, 43.266537 ], [ 3.274628, 43.267323 ], [ 3.271889, 43.267317 ], [ 3.270085, 43.266942 ], [ 3.26558, 43.262458 ], [ 3.262361, 43.260696 ], [ 3.255256, 43.263515 ], [ 3.249851, 43.263788 ], [ 3.246254, 43.26392 ], [ 3.242194, 43.264822 ], [ 3.234115, 43.267987 ], [ 3.229678, 43.272268 ], [ 3.230957, 43.275633 ], [ 3.232092, 43.275513 ], [ 3.232577, 43.275298 ], [ 3.238639, 43.274792 ], [ 3.242187, 43.275403 ], [ 3.243881, 43.282999 ], [ 3.24385, 43.284916 ], [ 3.243702, 43.286594 ], [ 3.244252, 43.286622 ], [ 3.248583, 43.294475 ], [ 3.245644, 43.297956 ], [ 3.241192, 43.302024 ], [ 3.240734, 43.302267 ], [ 3.240123, 43.304419 ], [ 3.240945, 43.305045 ], [ 3.242423, 43.305446 ], [ 3.24288, 43.305203 ], [ 3.251709, 43.304207 ], [ 3.253884, 43.307075 ], [ 3.256568, 43.305782 ], [ 3.262012, 43.301998 ], [ 3.262809, 43.300949 ], [ 3.262842039897768, 43.30073082023457 ], [ 3.25861, 43.302775 ], [ 3.256196, 43.300104 ], [ 3.249564, 43.301593 ], [ 3.249359, 43.301733 ], [ 3.249185, 43.301839 ], [ 3.248616, 43.302141 ], [ 3.247815, 43.301067 ], [ 3.246927, 43.298962 ], [ 3.249887, 43.29633 ], [ 3.250649, 43.288127 ], [ 3.250682, 43.286252 ], [ 3.251016, 43.28593 ], [ 3.251846, 43.285217 ], [ 3.252026, 43.285119 ], [ 3.252582, 43.285091 ], [ 3.253441, 43.285141 ], [ 3.256995, 43.285445 ], [ 3.261543, 43.281236 ], [ 3.255896, 43.275125 ], [ 3.254948, 43.275166 ], [ 3.252965, 43.275774 ], [ 3.25268, 43.275487 ], [ 3.248985, 43.273578 ], [ 3.248607, 43.273493 ], [ 3.245629, 43.272913 ], [ 3.242599, 43.272901 ], [ 3.239202, 43.272051 ], [ 3.238683, 43.271976 ], [ 3.239196, 43.268413 ], [ 3.243849, 43.266971 ], [ 3.248786, 43.265836 ], [ 3.249154, 43.265807 ], [ 3.251422, 43.265937 ], [ 3.259499, 43.262964 ], [ 3.261634, 43.262073 ], [ 3.262247, 43.261968 ], [ 3.262994, 43.262093 ], [ 3.263721, 43.262545 ], [ 3.263787, 43.262634 ], [ 3.263857, 43.26273 ], [ 3.269209, 43.268468 ], [ 3.274499, 43.269368 ], [ 3.279708, 43.267331 ], [ 3.281088428513913, 43.262632129607525 ], [ 3.280543441812339, 43.261600890351026 ], [ 3.278035, 43.266443 ], [ 3.276904, 43.266537 ] ] ] ] } },
{ "type": "Feature", "properties": { "codgeo": "34299", "value": 480, "isochrone_group": 8.0, "nb_agences": 1 }, "geometry": { "type": "MultiPolygon", "coordinates": [ [ [ [ 3.248326, 43.26092 ], [ 3.24778, 43.260721 ], [ 3.247034, 43.260701 ], [ 3.241206, 43.260449 ], [ 3.239769, 43.262211 ], [ 3.235727, 43.265927 ], [ 3.229763, 43.267661 ], [ 3.229393, 43.267674 ], [ 3.22384, 43.274699 ], [ 3.223329, 43.27505 ], [ 3.222794, 43.275461 ], [ 3.222074, 43.276101 ], [ 3.221681, 43.276504 ], [ 3.221297, 43.276942 ], [ 3.22091, 43.277443 ], [ 3.220519, 43.278029 ], [ 3.2198, 43.279182 ], [ 3.219323, 43.28015 ], [ 3.219286, 43.280386 ], [ 3.219424, 43.281134 ], [ 3.21972, 43.281461 ], [ 3.222974, 43.281732 ], [ 3.231694, 43.280663 ], [ 3.238395, 43.286302 ], [ 3.238568, 43.286856 ], [ 3.241763, 43.287586 ], [ 3.244424, 43.296008 ], [ 3.241997, 43.298418 ], [ 3.240942, 43.299553 ], [ 3.240427, 43.300098 ], [ 3.23454, 43.302967 ], [ 3.233102, 43.310038 ], [ 3.23364, 43.310622 ], [ 3.233698, 43.310683 ], [ 3.233701, 43.310686 ], [ 3.235876, 43.310953 ], [ 3.235885, 43.310948 ], [ 3.237129, 43.310243 ], [ 3.237768, 43.309863 ], [ 3.246282, 43.308523 ], [ 3.254131, 43.308012 ], [ 3.255371, 43.308493 ], [ 3.256543, 43.30807 ], [ 3.261663, 43.304045 ], [ 3.262809, 43.300949 ], [ 3.262012, 43.301998 ], [ 3.256568, 43.305782 ], [ 3.253884, 43.307075 ], [ 3.251709, 43.304207 ], [ 3.24288, 43.305203 ], [ 3.242423, 43.305446 ], [ 3.240945, 43.305045 ], [ 3.240123, 43.304419 ], [ 3.240734, 43.302267 ], [ 3.241192, 43.302024 ], [ 3.245644, 43.297956 ], [ 3.248583, 43.294475 ], [ 3.244252, 43.286622 ], [ 3.243702, 43.286594 ], [ 3.24385, 43.284916 ], [ 3.243881, 43.282999 ], [ 3.242187, 43.275403 ], [ 3.238639, 43.274792 ], [ 3.232577, 43.275298 ], [ 3.232092, 43.275513 ], [ 3.230957, 43.275633 ], [ 3.229678, 43.272268 ], [ 3.234115, 43.267987 ], [ 3.242194, 43.264822 ], [ 3.246254, 43.26392 ], [ 3.249851, 43.263788 ], [ 3.252260512830088, 43.263666298426905 ], [ 3.249788, 43.262352 ], [ 3.249347, 43.26175 ], [ 3.248326, 43.26092 ] ] ], [ [ [ 3.316739, 43.287148 ], [ 3.318066, 43.283801 ], [ 3.323664, 43.27695 ], [ 3.324872, 43.275998 ], [ 3.322972, 43.27294 ], [ 3.318226, 43.272973 ], [ 3.317031, 43.273213 ], [ 3.316599, 43.273362 ], [ 3.308017, 43.275303 ], [ 3.307018, 43.271844 ], [ 3.303482, 43.269469 ], [ 3.298378, 43.265464 ], [ 3.298256622951869, 43.264662763310959 ], [ 3.297836869607791, 43.264757751821293 ], [ 3.295423257034021, 43.266335647412731 ], [ 3.296843, 43.272232 ], [ 3.30204, 43.274021 ], [ 3.303591, 43.277269 ], [ 3.311427, 43.278466 ], [ 3.311869, 43.278283 ], [ 3.312165, 43.278202 ], [ 3.313912, 43.277589 ], [ 3.314694, 43.277219 ], [ 3.316416, 43.280381 ], [ 3.31428, 43.28193 ], [ 3.310928, 43.283242 ], [ 3.308778, 43.289805 ], [ 3.308664572881897, 43.292072642146842 ], [ 3.31042, 43.291743 ], [ 3.310591, 43.291704 ], [ 3.313974, 43.291167 ], [ 3.31416, 43.291234 ], [ 3.314647679946724, 43.291367151175287 ], [ 3.316739, 43.287148 ] ] ], [ [ [ 3.305584, 43.292391 ], [ 3.303682, 43.2913 ], [ 3.302837, 43.290846 ], [ 3.301761, 43.290442 ], [ 3.300937, 43.290181 ], [ 3.300629, 43.290099 ], [ 3.300136, 43.289923 ], [ 3.299885712106593, 43.290087527213629 ], [ 3.302631, 43.293572 ], [ 3.302631235646474, 43.293572416167066 ], [ 3.303292, 43.293205 ], [ 3.303746, 43.293018 ], [ 3.304051, 43.292939 ], [ 3.305850455590569, 43.292601089984856 ], [ 3.305584, 43.292391 ] ] ], [ [ [ 3.262777, 43.259102 ], [ 3.26219, 43.258752 ], [ 3.261298, 43.258635 ], [ 3.260602, 43.258826 ], [ 3.259636, 43.259144 ], [ 3.25878, 43.259935 ], [ 3.258656, 43.260473 ], [ 3.25708020055706, 43.262791225000662 ], [ 3.262361, 43.260696 ], [ 3.26558, 43.262458 ], [ 3.270085, 43.266942 ], [ 3.271889, 43.267317 ], [ 3.274628, 43.267323 ], [ 3.276904, 43.266537 ], [ 3.278035, 43.266443 ], [ 3.278541699553878, 43.265464904838737 ], [ 3.277646693166986, 43.262279080904598 ], [ 3.274005, 43.260243 ], [ 3.267691, 43.257603 ], [ 3.267633271791334, 43.257513179464809 ], [ 3.263164, 43.259511 ], [ 3.262777, 43.259102 ] ] ] ] } },
{ "type": "Feature", "properties": { "codgeo": "34299", "value": 540, "isochrone_group": 9.0, "nb_agences": 1 }, "geometry": { "type": "MultiPolygon", "coordinates": [ [ [ [ 3.231435, 43.284202 ], [ 3.237873, 43.289629 ], [ 3.240985, 43.291309 ], [ 3.237844, 43.298749 ], [ 3.230994, 43.302235 ], [ 3.229441, 43.302065 ], [ 3.229245132131496, 43.302624197810069 ], [ 3.234034021511762, 43.305455020786042 ], [ 3.23454, 43.302967 ], [ 3.240427, 43.300098 ], [ 3.240942, 43.299553 ], [ 3.241997, 43.298418 ], [ 3.244424, 43.296008 ], [ 3.241763, 43.287586 ], [ 3.238568, 43.286856 ], [ 3.238395, 43.286302 ], [ 3.231694, 43.280663 ], [ 3.222974, 43.281732 ], [ 3.22293473043202, 43.281728729547353 ], [ 3.222843, 43.282655 ], [ 3.222612, 43.286297 ], [ 3.222743053083156, 43.287480031730304 ], [ 3.222993, 43.285746 ], [ 3.230036, 43.284147 ], [ 3.230572, 43.284178 ], [ 3.231435, 43.284202 ] ] ], [ [ [ 3.238615, 43.310757 ], [ 3.247015, 43.310447 ], [ 3.251201, 43.311266 ], [ 3.251468, 43.31087 ], [ 3.257975, 43.307978 ], [ 3.262556567559551, 43.313511957709643 ], [ 3.265124, 43.313954 ], [ 3.267331, 43.313518 ], [ 3.269151, 43.313196 ], [ 3.269795, 43.313113 ], [ 3.27097986627424, 43.311458020050253 ], [ 3.274746, 43.305721 ], [ 3.274741707685363, 43.305655286188085 ], [ 3.274732, 43.305582 ], [ 3.274584452077763, 43.303247758713376 ], [ 3.274550845794594, 43.302733258459369 ], [ 3.274527982876727, 43.302495934931656 ], [ 3.274476448275862, 43.301983301270418 ], [ 3.274125824442641, 43.299537675752283 ], [ 3.274102511810661, 43.299494618212954 ], [ 3.268453018888976, 43.294745650083506 ], [ 3.265895121388474, 43.294857638621885 ], [ 3.263817, 43.295421 ], [ 3.263634665195096, 43.295496699879081 ], [ 3.262809, 43.300949 ], [ 3.261663, 43.304045 ], [ 3.256543, 43.30807 ], [ 3.255371, 43.308493 ], [ 3.254131, 43.308012 ], [ 3.246282, 43.308523 ], [ 3.237768, 43.309863 ], [ 3.233807647941999, 43.313619172272382 ], [ 3.235844, 43.313056 ], [ 3.238615, 43.310757 ] ] ], [ [ [ 3.322607, 43.289505 ], [ 3.323943, 43.286162 ], [ 3.32319075019067, 43.277529177285423 ], [ 3.318066, 43.283801 ], [ 3.316739, 43.287148 ], [ 3.314962364956955, 43.290732287263047 ], [ 3.318532, 43.294643 ], [ 3.320458582496168, 43.294402376908344 ], [ 3.322607, 43.289505 ] ] ], [ [ [ 3.330359, 43.272403 ], [ 3.331057, 43.271888 ], [ 3.330735, 43.269949 ], [ 3.33023, 43.269419 ], [ 3.329399, 43.269113 ], [ 3.328921, 43.268991 ], [ 3.327108, 43.269197 ], [ 3.324775, 43.269696 ], [ 3.321306, 43.270514 ], [ 3.319682, 43.271732 ], [ 3.310816, 43.270304 ], [ 3.306051, 43.267049 ], [ 3.305428565188615, 43.266126285638649 ], [ 3.301054, 43.266796 ], [ 3.300542887113875, 43.26716274077021 ], [ 3.303482, 43.269469 ], [ 3.307018, 43.271844 ], [ 3.308017, 43.275303 ], [ 3.316599, 43.273362 ], [ 3.317031, 43.273213 ], [ 3.318226, 43.272973 ], [ 3.322972, 43.27294 ], [ 3.324872, 43.275998 ], [ 3.323664, 43.27695 ], [ 3.323410207122929, 43.277260599321323 ], [ 3.325786, 43.276728 ], [ 3.328057, 43.274282 ], [ 3.330359, 43.272403 ] ] ], [ [ [ 3.290492, 43.243617 ], [ 3.288672168023385, 43.243420365612707 ], [ 3.289346, 43.243704 ], [ 3.29089, 43.244348 ], [ 3.291926087303391, 43.244815618186479 ], [ 3.290713, 43.243705 ], [ 3.290492, 43.243617 ] ] ], [ [ [ 3.252481568380754, 43.255872879314211 ], [ 3.251244, 43.256616 ], [ 3.249476, 43.257849 ], [ 3.246257, 43.260259 ], [ 3.245865524342106, 43.260650475657862 ], [ 3.247034, 43.260701 ], [ 3.24778, 43.260721 ], [ 3.248326, 43.26092 ], [ 3.249347, 43.26175 ], [ 3.249788, 43.262352 ], [ 3.255364, 43.265316 ], [ 3.258656, 43.260473 ], [ 3.25878, 43.259935 ], [ 3.259636, 43.259144 ], [ 3.260602, 43.258826 ], [ 3.261298, 43.258635 ], [ 3.26219, 43.258752 ], [ 3.262777, 43.259102 ], [ 3.263164, 43.259511 ], [ 3.267046446600936, 43.257775497683681 ], [ 3.26599, 43.256154 ], [ 3.265235, 43.25468 ], [ 3.259592097443705, 43.25302233625078 ], [ 3.258023, 43.257906 ], [ 3.252481568380754, 43.255872879314211 ] ] ], [ [ [ 3.240282, 43.261319 ], [ 3.232257, 43.265332 ], [ 3.228425, 43.266194 ], [ 3.226458, 43.267026 ], [ 3.223958, 43.268511 ], [ 3.219944, 43.273707 ], [ 3.2185, 43.277126 ], [ 3.218394, 43.281998 ], [ 3.218578624921228, 43.286351626393916 ], [ 3.219019, 43.286068 ], [ 3.219262, 43.282288 ], [ 3.219338, 43.281247 ], [ 3.219377612410785, 43.280882565820775 ], [ 3.219286, 43.280386 ], [ 3.219323, 43.28015 ], [ 3.2198, 43.279182 ], [ 3.220519, 43.278029 ], [ 3.22091, 43.277443 ], [ 3.221297, 43.276942 ], [ 3.221681, 43.276504 ], [ 3.222074, 43.276101 ], [ 3.222794, 43.275461 ], [ 3.223329, 43.27505 ], [ 3.22384, 43.274699 ], [ 3.229393, 43.267674 ], [ 3.229763, 43.267661 ], [ 3.235727, 43.265927 ], [ 3.239769, 43.262211 ], [ 3.241206, 43.260449 ], [ 3.243472222365727, 43.260546990397387 ], [ 3.242158093185276, 43.259336085865598 ], [ 3.242124, 43.259373 ], [ 3.240282, 43.261319 ] ] ] ] } },
{ "type": "Feature", "properties": { "codgeo": "34299", "value": 600, "isochrone_group": 10.0, "nb_agences": 1 }, "geometry": { "type": "MultiPolygon", "coordinates": [ [ [ [ 3.33065, 43.288858 ], [ 3.328287, 43.287922 ], [ 3.326561, 43.287221 ], [ 3.32815, 43.278451 ], [ 3.331117, 43.276366 ], [ 3.336989, 43.270398 ], [ 3.337759, 43.268297 ], [ 3.337668, 43.26804 ], [ 3.336847, 43.266801 ], [ 3.333457, 43.266263 ], [ 3.331663, 43.266025 ], [ 3.323164, 43.266449 ], [ 3.321103, 43.269401 ], [ 3.313963, 43.269177 ], [ 3.311148, 43.266791 ], [ 3.310319085855089, 43.265769433026307 ], [ 3.307847694569923, 43.268276332806956 ], [ 3.310816, 43.270304 ], [ 3.319682, 43.271732 ], [ 3.321306, 43.270514 ], [ 3.324775, 43.269696 ], [ 3.327108, 43.269197 ], [ 3.328921, 43.268991 ], [ 3.329399, 43.269113 ], [ 3.33023, 43.269419 ], [ 3.330735, 43.269949 ], [ 3.331057, 43.271888 ], [ 3.330359, 43.272403 ], [ 3.328057, 43.274282 ], [ 3.325786, 43.276728 ], [ 3.323172, 43.277314 ], [ 3.323943, 43.286162 ], [ 3.322607, 43.289505 ], [ 3.32079514345741, 43.293635176921896 ], [ 3.323052062524809, 43.294078460759465 ], [ 3.324561, 43.29389 ], [ 3.325119, 43.293624 ], [ 3.327052, 43.292182 ], [ 3.329109, 43.290242 ], [ 3.330222871782237, 43.289936128314373 ], [ 3.33065, 43.288858 ] ] ], [ [ [ 3.297528, 43.24767 ], [ 3.293691, 43.244533 ], [ 3.29074, 43.242988 ], [ 3.285714, 43.240228 ], [ 3.284397, 43.239675 ], [ 3.283955, 43.23955 ], [ 3.281537, 43.239035 ], [ 3.279673, 43.239584 ], [ 3.27964, 43.239624 ], [ 3.279592196109649, 43.239694749757739 ], [ 3.280169, 43.239969 ], [ 3.283616, 43.241318 ], [ 3.285399, 43.242049 ], [ 3.287412, 43.242901 ], [ 3.288505, 43.24335 ], [ 3.288672168023385, 43.243420365612707 ], [ 3.290492, 43.243617 ], [ 3.290713, 43.243705 ], [ 3.291926087303391, 43.244815618186479 ], [ 3.296037, 43.246671 ], [ 3.298504, 43.25077 ], [ 3.298645, 43.251044 ], [ 3.298927, 43.251727 ], [ 3.299060197342301, 43.251959402050552 ], [ 3.298602, 43.24964 ], [ 3.297528, 43.24767 ] ] ], [ [ [ 3.240129859700531, 43.261395079628862 ], [ 3.240282, 43.261319 ], [ 3.241317970370799, 43.260224538359623 ], [ 3.241371301088552, 43.25993598882576 ], [ 3.240664, 43.260703 ], [ 3.240129859700531, 43.261395079628862 ] ] ], [ [ [ 3.258216944655557, 43.25730236605267 ], [ 3.254771, 43.255541 ], [ 3.25370492543988, 43.256321722269234 ], [ 3.258023, 43.257906 ], [ 3.258216944655557, 43.25730236605267 ] ] ], [ [ [ 3.225666, 43.26562 ], [ 3.223861, 43.266077 ], [ 3.223235, 43.266594 ], [ 3.221658, 43.268587 ], [ 3.221557, 43.268747 ], [ 3.221186, 43.269351 ], [ 3.216292, 43.27624 ], [ 3.214932, 43.280393 ], [ 3.214792, 43.28084 ], [ 3.215908505258751, 43.283258581391529 ], [ 3.218450798994502, 43.27938738961123 ], [ 3.2185, 43.277126 ], [ 3.219944, 43.273707 ], [ 3.223958, 43.268511 ], [ 3.226458, 43.267026 ], [ 3.228425, 43.266194 ], [ 3.229189775868837, 43.266021965344741 ], [ 3.227002, 43.265869 ], [ 3.226901, 43.26585 ], [ 3.225666, 43.26562 ] ] ], [ [ [ 3.22924, 43.302459 ], [ 3.229300224119255, 43.302466911578584 ], [ 3.229441, 43.302065 ], [ 3.230994, 43.302235 ], [ 3.237844, 43.298749 ], [ 3.240985, 43.291309 ], [ 3.237873, 43.289629 ], [ 3.231435, 43.284202 ], [ 3.230572, 43.284178 ], [ 3.230036, 43.284147 ], [ 3.224478171581102, 43.28540881565268 ], [ 3.224886, 43.290911 ], [ 3.22609, 43.294303 ], [ 3.22924, 43.302459 ] ] ], [ [ [ 3.236372, 43.313632 ], [ 3.235820083303857, 43.315718552603371 ], [ 3.238149, 43.315204 ], [ 3.246547935987293, 43.313841794448663 ], [ 3.247005, 43.313642 ], [ 3.249977263218349, 43.312318020132892 ], [ 3.252122, 43.311326 ], [ 3.255202, 43.311482 ], [ 3.25689, 43.312529 ], [ 3.262854706738262, 43.313872072361491 ], [ 3.257975, 43.307978 ], [ 3.251468, 43.31087 ], [ 3.251201, 43.311266 ], [ 3.247157924911617, 43.310474963569661 ], [ 3.247038, 43.31076 ], [ 3.238989, 43.31116 ], [ 3.236372, 43.313632 ] ] ] ] } },
{ "type": "Feature", "properties": { "codgeo": "34299", "value": 660, "isochrone_group": 11.0, "nb_agences": 1 }, "geometry": { "type": "MultiPolygon", "coordinates": [ [ [ [ 3.332322, 43.277473 ], [ 3.332746, 43.27511 ], [ 3.339488, 43.27099 ], [ 3.340107, 43.270633 ], [ 3.341262, 43.269997 ], [ 3.34137, 43.269887 ], [ 3.341673, 43.269423 ], [ 3.34169, 43.269361 ], [ 3.341553, 43.268096 ], [ 3.340929, 43.267188 ], [ 3.340664, 43.267078 ], [ 3.340502, 43.267011 ], [ 3.336373, 43.266485 ], [ 3.33429845565048, 43.266396540749241 ], [ 3.336847, 43.266801 ], [ 3.337668, 43.26804 ], [ 3.337759, 43.268297 ], [ 3.336989, 43.270398 ], [ 3.331117, 43.276366 ], [ 3.32815, 43.278451 ], [ 3.326561, 43.287221 ], [ 3.328287, 43.287922 ], [ 3.330395, 43.279669 ], [ 3.332226, 43.278048 ], [ 3.332322, 43.277473 ] ] ], [ [ [ 3.31068, 43.265047 ], [ 3.310537985059868, 43.266039207887232 ], [ 3.311148, 43.266791 ], [ 3.313963, 43.269177 ], [ 3.321103, 43.269401 ], [ 3.323164, 43.266449 ], [ 3.325211187635176, 43.266346869448483 ], [ 3.322158, 43.265753 ], [ 3.319442, 43.263458 ], [ 3.31068, 43.265047 ] ] ], [ [ [ 3.299060197342301, 43.251959402050552 ], [ 3.299705119457084, 43.253084658901301 ], [ 3.299023164527947, 43.251771941370173 ], [ 3.299060197342301, 43.251959402050552 ] ] ], [ [ [ 3.273952, 43.234954 ], [ 3.272308, 43.234585 ], [ 3.279578, 43.239688 ], [ 3.279592196109649, 43.239694749757739 ], [ 3.27964, 43.239624 ], [ 3.279673, 43.239584 ], [ 3.280816895506061, 43.239247090862214 ], [ 3.276733, 43.236291 ], [ 3.276321, 43.235958 ], [ 3.273952, 43.234954 ] ] ], [ [ [ 3.238408590489484, 43.263536627994249 ], [ 3.238408921631164, 43.263534737000988 ], [ 3.233366608359901, 43.266314001942739 ], [ 3.233481, 43.266322 ], [ 3.238408590489484, 43.263536627994249 ] ] ], [ [ [ 3.226199, 43.262933 ], [ 3.22063, 43.266682 ], [ 3.217466, 43.268073 ], [ 3.216294, 43.273986 ], [ 3.215096053736092, 43.278086432982924 ], [ 3.215860961282115, 43.27755625279071 ], [ 3.216292, 43.27624 ], [ 3.221186, 43.269351 ], [ 3.221557, 43.268747 ], [ 3.221658, 43.268587 ], [ 3.223235, 43.266594 ], [ 3.223861, 43.266077 ], [ 3.225666, 43.26562 ], [ 3.226901, 43.26585 ], [ 3.227002, 43.265869 ], [ 3.232964156231759, 43.266285863215458 ], [ 3.227685, 43.263274 ], [ 3.22645, 43.262988 ], [ 3.226199, 43.262933 ] ] ], [ [ [ 3.246504, 43.313861 ], [ 3.246547935987293, 43.313841794448663 ], [ 3.240442451453375, 43.314832029990185 ], [ 3.240428240501746, 43.314940468834671 ], [ 3.241614, 43.314647 ], [ 3.241853768694715, 43.315506894346726 ], [ 3.243456, 43.315394 ], [ 3.244275, 43.314908 ], [ 3.244927, 43.314597 ], [ 3.246504, 43.313861 ] ] ] ] } },
{ "type": "Feature", "properties": { "codgeo": "34299", "value": 720, "isochrone_group": 12.0, "nb_agences": 1 }, "geometry": { "type": "MultiPolygon", "coordinates": [ [ [ [ 3.340107, 43.270633 ], [ 3.339488, 43.27099 ], [ 3.332746, 43.27511 ], [ 3.332322, 43.277473 ], [ 3.332226, 43.278048 ], [ 3.330395, 43.279669 ], [ 3.329770968077524, 43.282112138261944 ], [ 3.330244, 43.283122 ], [ 3.33284, 43.284094 ], [ 3.333217765947965, 43.284357534335065 ], [ 3.334282, 43.281442 ], [ 3.335583, 43.278085 ], [ 3.338627, 43.2719 ], [ 3.340577758220273, 43.270373777291681 ], [ 3.340107, 43.270633 ] ] ], [ [ [ 3.314999, 43.260539 ], [ 3.314355, 43.260819 ], [ 3.308862, 43.262233 ], [ 3.31068, 43.265047 ], [ 3.319442, 43.263458 ], [ 3.322158, 43.265753 ], [ 3.323275779304131, 43.26597041702712 ], [ 3.320465, 43.262114 ], [ 3.32046, 43.262084 ], [ 3.318895, 43.260566 ], [ 3.315942, 43.260535 ], [ 3.314999, 43.260539 ] ] ], [ [ [ 3.302097, 43.257258 ], [ 3.304744754552517, 43.259205166134343 ], [ 3.302447, 43.255311 ], [ 3.298504, 43.25077 ], [ 3.298645, 43.251044 ], [ 3.299705119457084, 43.253084658901301 ], [ 3.302097, 43.257258 ] ] ], [ [ [ 3.288505, 43.24335 ], [ 3.289346, 43.243704 ], [ 3.29089, 43.244348 ], [ 3.285399, 43.242049 ], [ 3.287412, 43.242901 ], [ 3.288505, 43.24335 ] ] ], [ [ [ 3.228188, 43.263351 ], [ 3.227672872340416, 43.263271191489359 ], [ 3.227685, 43.263274 ], [ 3.233187, 43.266413 ], [ 3.233210088111839, 43.266400274098942 ], [ 3.235890984033478, 43.262825920468636 ], [ 3.233878, 43.263458 ], [ 3.233024, 43.263532 ], [ 3.23204, 43.26352 ], [ 3.230294, 43.263447 ], [ 3.228188, 43.263351 ] ] ], [ [ [ 3.210894, 43.270025 ], [ 3.208458, 43.27144 ], [ 3.210093, 43.274647 ], [ 3.20959967295045, 43.278624482597991 ], [ 3.212225, 43.278147 ], [ 3.216294, 43.273986 ], [ 3.217466, 43.268073 ], [ 3.22063, 43.266682 ], [ 3.225557142921138, 43.263365092330538 ], [ 3.217946, 43.266576 ], [ 3.217678, 43.266512 ], [ 3.217316, 43.266437 ], [ 3.211278, 43.269822 ], [ 3.210894, 43.270025 ] ] ] ] } },
{ "type": "Feature", "properties": { "codgeo": "34299", "value": 780, "isochrone_group": 13.0, "nb_agences": 1 }, "geometry": { "type": "MultiPolygon", "coordinates": [ [ [ [ 3.33178697798641, 43.288277265544679 ], [ 3.332018396796355, 43.288327557087435 ], [ 3.331892837371822, 43.287987257277912 ], [ 3.33178697798641, 43.288277265544679 ] ] ], [ [ [ 3.338627, 43.2719 ], [ 3.335583, 43.278085 ], [ 3.334282, 43.281442 ], [ 3.334061944171463, 43.282044856413506 ], [ 3.33766, 43.281315 ], [ 3.3377, 43.281266 ], [ 3.339116, 43.273276 ], [ 3.340851, 43.27016 ], [ 3.338627, 43.2719 ] ] ], [ [ [ 3.312984, 43.258012 ], [ 3.310275, 43.260383 ], [ 3.303733, 43.257037 ], [ 3.302964270500615, 43.256187654672956 ], [ 3.304744754552517, 43.259205166134343 ], [ 3.308862, 43.262233 ], [ 3.314355, 43.260819 ], [ 3.314999, 43.260539 ], [ 3.315942, 43.260535 ], [ 3.318895, 43.260566 ], [ 3.32046, 43.262084 ], [ 3.320465, 43.262114 ], [ 3.324102, 43.267104 ], [ 3.330024, 43.267283 ], [ 3.332222, 43.266308 ], [ 3.324113, 43.262817 ], [ 3.323491, 43.26004 ], [ 3.321972, 43.259354 ], [ 3.32158, 43.259488 ], [ 3.312984, 43.258012 ] ] ], [ [ [ 3.272308, 43.234585 ], [ 3.267407, 43.232438 ], [ 3.26726802941575, 43.232464111383266 ], [ 3.272308, 43.234585 ] ] ], [ [ [ 3.24829219470753, 43.227903633400665 ], [ 3.243047, 43.224826 ], [ 3.242908628154486, 43.224929718722464 ], [ 3.246883, 43.228383 ], [ 3.24829219470753, 43.227903633400665 ] ] ], [ [ [ 3.24001, 43.249535 ], [ 3.240037, 43.249756 ], [ 3.240463563373705, 43.254985568901084 ], [ 3.240669, 43.25469 ], [ 3.241917, 43.248496 ], [ 3.245090714539004, 43.244515386609265 ], [ 3.245978, 43.243305 ], [ 3.246091813884789, 43.242831701632817 ], [ 3.245036716538957, 43.24198530816556 ], [ 3.240232, 43.247023 ], [ 3.240206, 43.247154 ], [ 3.240125, 43.248317 ], [ 3.24001, 43.249535 ] ] ], [ [ [ 3.233024, 43.263532 ], [ 3.233172483991035, 43.263519133705685 ], [ 3.232497347409834, 43.263525577407421 ], [ 3.233024, 43.263532 ] ] ], [ [ [ 3.201953513109225, 43.271674073896584 ], [ 3.203061, 43.271768 ], [ 3.207887, 43.271512 ], [ 3.208039, 43.271547 ], [ 3.208903106253933, 43.272313061624686 ], [ 3.208458, 43.27144 ], [ 3.210894, 43.270025 ], [ 3.211278, 43.269822 ], [ 3.216648385697912, 43.266811275325054 ], [ 3.21546, 43.2667 ], [ 3.214835, 43.266679 ], [ 3.214158, 43.266685 ], [ 3.20726, 43.271334 ], [ 3.202681, 43.271298 ], [ 3.202095, 43.271553 ], [ 3.201953513109225, 43.271674073896584 ] ] ], [ [ [ 3.201008384075994, 43.278686463329024 ], [ 3.20109867882156, 43.278868188410087 ], [ 3.202501, 43.279072 ], [ 3.202927, 43.279096 ], [ 3.20334, 43.279173 ], [ 3.209761878597569, 43.277316688631885 ], [ 3.210093, 43.274647 ], [ 3.209680280351437, 43.273837463661827 ], [ 3.209456, 43.274428 ], [ 3.208789, 43.275068 ], [ 3.205651, 43.276472 ], [ 3.205363, 43.27661 ], [ 3.201008384075994, 43.278686463329024 ] ] ], [ [ [ 3.217946, 43.266576 ], [ 3.218302692662114, 43.26642552231008 ], [ 3.217842012895043, 43.266551167258527 ], [ 3.217946, 43.266576 ] ] ] ] } },
{ "type": "Feature", "properties": { "codgeo": "34299", "value": 840, "isochrone_group": 14.0, "nb_agences": 1 }, "geometry": { "type": "MultiPolygon", "coordinates": [ [ [ [ 3.336120838878577, 43.281627214893106 ], [ 3.335348078007225, 43.281783967457521 ], [ 3.33595643897706, 43.283801766056804 ], [ 3.336120838878577, 43.281627214893106 ] ] ], [ [ [ 3.322876579373108, 43.259762519716887 ], [ 3.323491, 43.26004 ], [ 3.324113, 43.262817 ], [ 3.325329385336796, 43.263340665212816 ], [ 3.325426, 43.25961 ], [ 3.325389, 43.259597 ], [ 3.323512, 43.259485 ], [ 3.323359, 43.259514 ], [ 3.322876579373108, 43.259762519716887 ] ] ], [ [ [ 3.309698, 43.255485 ], [ 3.308834, 43.255646 ], [ 3.308328, 43.255931 ], [ 3.307251, 43.256801 ], [ 3.303635110085653, 43.256928844476654 ], [ 3.303733, 43.257037 ], [ 3.310275, 43.260383 ], [ 3.312984, 43.258012 ], [ 3.313271890771395, 43.258061433082695 ], [ 3.312839, 43.257846 ], [ 3.311331, 43.256182 ], [ 3.31098, 43.255913 ], [ 3.310374, 43.255605 ], [ 3.309698, 43.255485 ] ] ], [ [ [ 3.266581, 43.232175 ], [ 3.26726802941575, 43.232464111383266 ], [ 3.267407, 43.232438 ], [ 3.272308, 43.234585 ], [ 3.264794, 43.231198 ], [ 3.264636, 43.231166 ], [ 3.264144348055213, 43.231173130196836 ], [ 3.265657, 43.232178 ], [ 3.266581, 43.232175 ] ] ], [ [ [ 3.245232, 43.223312 ], [ 3.243089, 43.220419 ], [ 3.240711254513459, 43.220260459168053 ], [ 3.241239, 43.223479 ], [ 3.242908628154486, 43.224929718722464 ], [ 3.243047, 43.224826 ], [ 3.24829219470753, 43.227903633400665 ], [ 3.251807, 43.226708 ], [ 3.252189976907266, 43.226742435490976 ], [ 3.251624, 43.22634 ], [ 3.250888, 43.225817 ], [ 3.245232, 43.223312 ] ] ], [ [ [ 3.206952294776837, 43.271096918689217 ], [ 3.208124301997316, 43.270751492028772 ], [ 3.214157850968598, 43.266685100441727 ], [ 3.213947, 43.266687 ], [ 3.212419, 43.266724 ], [ 3.206156, 43.266604 ], [ 3.201029, 43.268218 ], [ 3.198632429951306, 43.269037731094187 ], [ 3.201327, 43.269118 ], [ 3.206952294776837, 43.271096918689217 ] ] ], [ [ [ 3.21546, 43.2667 ], [ 3.215694245288764, 43.266721933721257 ], [ 3.215694245288767, 43.266721933721257 ], [ 3.21546, 43.2667 ] ] ] ] } },
{ "type": "Feature", "properties": { "codgeo": "34299", "value": 900, "isochrone_group": 15.0, "nb_agences": 1 }, "geometry": { "type": "MultiPolygon", "coordinates": [ [ [ [ 3.338248682855622, 43.288829266414162 ], [ 3.337755, 43.291178 ], [ 3.338253, 43.288849 ], [ 3.338248682855622, 43.288829266414162 ] ] ], [ [ [ 3.346194, 43.294639 ], [ 3.344983, 43.295283 ], [ 3.346216711034936, 43.294647592436903 ], [ 3.346194, 43.294639 ] ] ], [ [ [ 3.325325, 43.26351 ], [ 3.332222, 43.266308 ], [ 3.325374405759604, 43.261602252846963 ], [ 3.325325, 43.26351 ] ] ], [ [ [ 3.312839, 43.257846 ], [ 3.318612, 43.260719 ], [ 3.311331, 43.256182 ], [ 3.312839, 43.257846 ] ] ], [ [ [ 3.301942645898407, 43.256988683742605 ], [ 3.307251, 43.256801 ], [ 3.308328, 43.255931 ], [ 3.308834, 43.255646 ], [ 3.309698, 43.255485 ], [ 3.303355, 43.253657 ], [ 3.298675528506873, 43.250872082621996 ], [ 3.298874, 43.251595 ], [ 3.298872884184186, 43.251595932261694 ], [ 3.298927, 43.251727 ], [ 3.301942645898407, 43.256988683742605 ] ] ], [ [ [ 3.264144348055213, 43.231173130196836 ], [ 3.264636, 43.231166 ], [ 3.264794, 43.231198 ], [ 3.265585373288136, 43.231554718302753 ], [ 3.262443, 43.229597 ], [ 3.261819, 43.229277 ], [ 3.261378, 43.229076 ], [ 3.260968097242468, 43.229063115041008 ], [ 3.264144348055213, 43.231173130196836 ] ] ], [ [ [ 3.244952, 43.219038 ], [ 3.240384420054291, 43.218267206589026 ], [ 3.240711254513459, 43.220260459168053 ], [ 3.243089, 43.220419 ], [ 3.245232, 43.223312 ], [ 3.250888, 43.225817 ], [ 3.251624, 43.22634 ], [ 3.252189976907266, 43.226742435490976 ], [ 3.25606665413653, 43.227091008162553 ], [ 3.252874, 43.225782 ], [ 3.247096, 43.221931 ], [ 3.244952, 43.219038 ] ] ], [ [ [ 3.237607, 43.232818 ], [ 3.23704, 43.230411 ], [ 3.237732, 43.23335 ], [ 3.23773250307932, 43.233350729854187 ], [ 3.237607, 43.232818 ] ] ], [ [ [ 3.244617, 43.24266 ], [ 3.24450302148308, 43.241557180836296 ], [ 3.242000134150699, 43.239549377958411 ], [ 3.242326, 43.241134 ], [ 3.241917, 43.248496 ], [ 3.244617, 43.24266 ] ] ] ] } },
{ "type": "Feature", "properties": { "codgeo": "34299", "value": 960, "isochrone_group": 16.0, "nb_agences": 1 }, "geometry": { "type": "MultiPolygon", "coordinates": [ [ [ [ 3.303805808504938, 43.253786919272748 ], [ 3.301143, 43.251227 ], [ 3.297668636104742, 43.248126882117745 ], [ 3.29856555259643, 43.250806632105927 ], [ 3.303355, 43.253657 ], [ 3.303805808504938, 43.253786919272748 ] ] ], [ [ [ 3.25287571026768, 43.225782701220446 ], [ 3.256066654136538, 43.227091008162553 ], [ 3.258031324578611, 43.227267662133009 ], [ 3.257269, 43.226432 ], [ 3.254894, 43.22416 ], [ 3.253574, 43.225264 ], [ 3.252895, 43.225766 ], [ 3.25287571026768, 43.225782701220446 ] ] ], [ [ [ 3.238383222232714, 43.214326296431793 ], [ 3.237798, 43.213369 ], [ 3.236768582723039, 43.213860530663048 ], [ 3.237011, 43.21385 ], [ 3.238383222232714, 43.214326296431793 ] ] ], [ [ [ 3.236366, 43.229004 ], [ 3.235732608013507, 43.227890211141165 ], [ 3.235633933833733, 43.227772264660636 ], [ 3.236389080811768, 43.229052182050673 ], [ 3.236366, 43.229004 ] ] ], [ [ [ 3.242000134150699, 43.239549377958411 ], [ 3.240601, 43.238427 ], [ 3.239102233653303, 43.236458554191209 ], [ 3.241499, 43.240983 ], [ 3.241917, 43.248496 ], [ 3.242326, 43.241134 ], [ 3.242000134150699, 43.239549377958411 ] ] ], [ [ [ 3.237736380952377, 43.233367190476194 ], [ 3.237954, 43.234291 ], [ 3.237954029668773, 43.234291056006597 ], [ 3.237736380952377, 43.233367190476194 ] ] ], [ [ [ 3.339282730471316, 43.285631493055519 ], [ 3.338783, 43.287294 ], [ 3.339283, 43.285632 ], [ 3.339282730471316, 43.285631493055519 ] ] ] ] } },
{ "type": "Feature", "properties": { "codgeo": "34299", "value": 1020, "isochrone_group": 17.0, "nb_agences": 1 }, "geometry": { "type": "MultiPolygon", "coordinates": [ [ [ [ 3.301143, 43.251227 ], [ 3.304171, 43.254138 ], [ 3.301036, 43.251072 ], [ 3.300627, 43.250517 ], [ 3.300574, 43.250451 ], [ 3.296037, 43.246671 ], [ 3.301143, 43.251227 ] ] ], [ [ [ 3.239551, 43.214704 ], [ 3.239387234649737, 43.214648938736573 ], [ 3.23982, 43.214825 ], [ 3.239551, 43.214704 ] ] ], [ [ [ 3.234664552160808, 43.226129235559206 ], [ 3.227037, 43.224719 ], [ 3.224347, 43.225133 ], [ 3.2241838331127, 43.225160434313423 ], [ 3.225847, 43.225746 ], [ 3.234670878717655, 43.22613995859772 ], [ 3.234664552160808, 43.226129235559206 ] ] ], [ [ [ 3.237736380952843, 43.233367190478162 ], [ 3.237736380941667, 43.233367190430727 ], [ 3.237607, 43.232818 ], [ 3.237736380952843, 43.233367190478162 ] ] ], [ [ [ 3.239347, 43.239838 ], [ 3.239835, 43.240476 ], [ 3.241253129216415, 43.245938726376394 ], [ 3.241745624264726, 43.245415746652824 ], [ 3.241499, 43.240983 ], [ 3.239102233653307, 43.236458554191209 ], [ 3.238179, 43.235246 ], [ 3.238551, 43.236744 ], [ 3.238663, 43.237331 ], [ 3.239062, 43.239127 ], [ 3.239347, 43.239838 ] ] ] ] } },
{ "type": "Feature", "properties": { "codgeo": "34299", "value": 1080, "isochrone_group": 18.0, "nb_agences": 1 }, "geometry": { "type": "MultiPolygon", "coordinates": [ [ [ [ 3.340947, 43.280422 ], [ 3.339160825216355, 43.273860887281806 ], [ 3.338861751051885, 43.274515754330068 ], [ 3.339405, 43.280569 ], [ 3.339706, 43.283681 ], [ 3.341275196282303, 43.283801101377847 ], [ 3.340947, 43.280422 ] ] ], [ [ [ 3.225879, 43.226668 ], [ 3.234739, 43.226143 ], [ 3.225847, 43.225746 ], [ 3.2241838331127, 43.225160434313423 ], [ 3.216394182998872, 43.226470159014745 ], [ 3.22289, 43.227797 ], [ 3.225502, 43.227212 ], [ 3.225879, 43.226668 ] ] ], [ [ [ 3.238663, 43.237331 ], [ 3.238551, 43.236744 ], [ 3.238179, 43.235246 ], [ 3.237607, 43.232818 ], [ 3.23704, 43.230411 ], [ 3.236366, 43.229004 ], [ 3.236311207124704, 43.228907649406146 ], [ 3.237739, 43.235981 ], [ 3.237879, 43.236514 ], [ 3.237997, 43.236861 ], [ 3.239062, 43.239127 ], [ 3.238663, 43.237331 ] ] ], [ [ [ 3.241239, 43.223479 ], [ 3.244089285398965, 43.225955576824319 ], [ 3.244089285398965, 43.225955576824319 ], [ 3.241239, 43.223479 ] ] ] ] } },
{ "type": "Feature", "properties": { "codgeo": "34299", "value": 1140, "isochrone_group": 19.0, "nb_agences": 1 }, "geometry": { "type": "MultiPolygon", "coordinates": [ [ [ [ 3.222255, 43.228292 ], [ 3.222887940754123, 43.227796579376751 ], [ 3.216394182998872, 43.226470159014745 ], [ 3.215616, 43.226601 ], [ 3.212746, 43.228389 ], [ 3.221516, 43.228858 ], [ 3.221624, 43.228778 ], [ 3.222255, 43.228292 ] ] ], [ [ [ 3.236311207124704, 43.228907649406146 ], [ 3.234739, 43.226143 ], [ 3.230933655215407, 43.226368486005867 ], [ 3.234854, 43.228028 ], [ 3.235047, 43.229867 ], [ 3.23542, 43.230073 ], [ 3.237420172846065, 43.234401515834172 ], [ 3.236311207124704, 43.228907649406146 ] ] ] ] } },
{ "type": "Feature", "properties": { "codgeo": "34299", "value": 1200, "isochrone_group": 20.0, "nb_agences": 1 }, "geometry": { "type": "MultiPolygon", "coordinates": [ [ [ [ 3.240461557739807, 43.218737643185555 ], [ 3.240461557739807, 43.218737643185555 ], [ 3.23982, 43.214825 ], [ 3.240461557739807, 43.218737643185555 ] ] ], [ [ [ 3.278657278267195, 43.239041721732811 ], [ 3.272308, 43.234585 ], [ 3.278657278267192, 43.239041721732811 ], [ 3.278657278267195, 43.239041721732811 ] ] ], [ [ [ 3.363040000266835, 43.277215036309528 ], [ 3.362336, 43.276854 ], [ 3.362137477128894, 43.27690832217867 ], [ 3.362585147354466, 43.277060458759294 ], [ 3.363040000266835, 43.277215036309528 ] ] ], [ [ [ 3.37176712719488, 43.280313987528693 ], [ 3.371758, 43.280312 ], [ 3.369381488489852, 43.279637981053192 ], [ 3.371088212369792, 43.280500783089238 ], [ 3.371212, 43.280421 ], [ 3.37176712719488, 43.280313987528693 ] ] ] ] } }
]
}
