{
"type": "FeatureCollection",
"name": "Credit_Agricole",
"crs": { "type": "name", "properties": { "name": "urn:ogc:def:crs:OGC:1.3:CRS84" } },
"features": [
{ "type": "Feature", "properties": { "codgeo": "34225", "value": 60, "isochrone_group": 1.0, "nb_agences": 1 }, "geometry": { "type": "Polygon", "coordinates": [ [ [ 3.036062, 43.369802 ], [ 3.036684, 43.368956 ], [ 3.038085, 43.36713 ], [ 3.038104, 43.367106 ], [ 3.03825, 43.366959 ], [ 3.039865, 43.365315 ], [ 3.040027, 43.365218 ], [ 3.040214, 43.36516 ], [ 3.044348, 43.36732 ], [ 3.044449, 43.367665 ], [ 3.044265, 43.368711 ], [ 3.044166, 43.369088 ], [ 3.0422, 43.369711 ], [ 3.041104, 43.370061 ], [ 3.039637, 43.37015 ], [ 3.036066, 43.370135 ], [ 3.03602, 43.37009 ], [ 3.036062, 43.369802 ] ] ] } },
{ "type": "Feature", "properties": { "codgeo": "34225", "value": 120, "isochrone_group": 2.0, "nb_agences": 1 }, "geometry": { "type": "Polygon", "coordinates": [ [ [ 3.02797, 43.373581 ], [ 3.028113, 43.373912 ], [ 3.028613, 43.373695 ], [ 3.029114, 43.373478 ], [ 3.030713, 43.372747 ], [ 3.035306, 43.374544 ], [ 3.036005, 43.37561 ], [ 3.036137, 43.375821 ], [ 3.03627, 43.376032 ], [ 3.03786, 43.375561 ], [ 3.042503, 43.372165 ], [ 3.042846, 43.372055 ], [ 3.044822, 43.371161 ], [ 3.046553, 43.370511 ], [ 3.047439, 43.369546 ], [ 3.051721, 43.36654 ], [ 3.051798, 43.3663 ], [ 3.051768, 43.366183 ], [ 3.04961, 43.365713 ], [ 3.049011, 43.365814 ], [ 3.046347, 43.365955 ], [ 3.042759, 43.363743 ], [ 3.04188, 43.359945 ], [ 3.041633, 43.359683 ], [ 3.039184, 43.357394 ], [ 3.038828, 43.35744 ], [ 3.036888, 43.362483 ], [ 3.035729, 43.363338 ], [ 3.03356, 43.368825 ], [ 3.033315, 43.369012 ], [ 3.033053, 43.369213 ], [ 3.032889, 43.36937 ], [ 3.032725, 43.369528 ], [ 3.02847, 43.373365 ], [ 3.02797, 43.373581 ] ], [ [ 3.036684, 43.368956 ], [ 3.038085, 43.36713 ], [ 3.038104, 43.367106 ], [ 3.03825, 43.366959 ], [ 3.039865, 43.365315 ], [ 3.040027, 43.365218 ], [ 3.040214, 43.36516 ], [ 3.044348, 43.36732 ], [ 3.044449, 43.367665 ], [ 3.044265, 43.368711 ], [ 3.044166, 43.369088 ], [ 3.0422, 43.369711 ], [ 3.041104, 43.370061 ], [ 3.039637, 43.37015 ], [ 3.036066, 43.370135 ], [ 3.03602, 43.37009 ], [ 3.036062, 43.369802 ], [ 3.036684, 43.368956 ] ] ] } },
{ "type": "Feature", "properties": { "codgeo": "34225", "value": 180, "isochrone_group": 3.0, "nb_agences": 1 }, "geometry": { "type": "Polygon", "coordinates": [ [ [ 3.01506, 43.380471 ], [ 3.015322, 43.380717 ], [ 3.023178, 43.378361 ], [ 3.023528, 43.378277 ], [ 3.027072, 43.374356 ], [ 3.033152, 43.376677 ], [ 3.033366, 43.376967 ], [ 3.035303, 43.379201 ], [ 3.035537, 43.379475 ], [ 3.037925, 43.380987 ], [ 3.038267, 43.381101 ], [ 3.042539, 43.3817 ], [ 3.042752, 43.381409 ], [ 3.048692, 43.374935 ], [ 3.048985, 43.374882 ], [ 3.049271, 43.374817 ], [ 3.049572, 43.374749 ], [ 3.050097, 43.374586 ], [ 3.052745, 43.373414 ], [ 3.052947, 43.373281 ], [ 3.053156, 43.373143 ], [ 3.05335, 43.373001 ], [ 3.053544, 43.372859 ], [ 3.059083, 43.365931 ], [ 3.059756, 43.365835 ], [ 3.060033, 43.365808 ], [ 3.060323, 43.36578 ], [ 3.06059, 43.365734 ], [ 3.060529, 43.365379 ], [ 3.059722, 43.365476 ], [ 3.059033, 43.365574 ], [ 3.058352, 43.365671 ], [ 3.056628, 43.365946 ], [ 3.052273, 43.365697 ], [ 3.048278, 43.358834 ], [ 3.048248, 43.358475 ], [ 3.045169, 43.356 ], [ 3.03869, 43.350035 ], [ 3.038858, 43.348993 ], [ 3.038848, 43.348633 ], [ 3.038846, 43.348484 ], [ 3.038488, 43.348449 ], [ 3.038313, 43.348523 ], [ 3.036699, 43.353175 ], [ 3.03439, 43.360426 ], [ 3.030808, 43.362693 ], [ 3.02691, 43.364145 ], [ 3.026906, 43.364505 ], [ 3.028158, 43.371342 ], [ 3.023751, 43.37364 ], [ 3.020285, 43.374398 ], [ 3.017404, 43.377523 ], [ 3.017231, 43.377707 ], [ 3.017049, 43.377902 ], [ 3.016882, 43.37811 ], [ 3.01671, 43.378324 ], [ 3.01506, 43.380471 ] ], [ [ 3.032725, 43.369528 ], [ 3.032889, 43.36937 ], [ 3.033053, 43.369213 ], [ 3.033315, 43.369012 ], [ 3.03356, 43.368825 ], [ 3.035729, 43.363338 ], [ 3.036888, 43.362483 ], [ 3.038828, 43.35744 ], [ 3.039184, 43.357394 ], [ 3.041633, 43.359683 ], [ 3.04188, 43.359945 ], [ 3.042759, 43.363743 ], [ 3.046347, 43.365955 ], [ 3.049011, 43.365814 ], [ 3.04961, 43.365713 ], [ 3.051768, 43.366183 ], [ 3.051798, 43.3663 ], [ 3.051721, 43.36654 ], [ 3.047439, 43.369546 ], [ 3.046553, 43.370511 ], [ 3.044822, 43.371161 ], [ 3.042846, 43.372055 ], [ 3.042503, 43.372165 ], [ 3.03786, 43.375561 ], [ 3.03627, 43.376032 ], [ 3.036137, 43.375821 ], [ 3.036005, 43.37561 ], [ 3.035306, 43.374544 ], [ 3.030713, 43.372747 ], [ 3.029114, 43.373478 ], [ 3.028613, 43.373695 ], [ 3.028113, 43.373912 ], [ 3.02797, 43.373581 ], [ 3.02847, 43.373365 ], [ 3.032725, 43.369528 ] ] ] } },
{ "type": "Feature", "properties": { "codgeo": "34225", "value": 240, "isochrone_group": 4.0, "nb_agences": 1 }, "geometry": { "type": "Polygon", "coordinates": [ [ [ 3.033607, 43.347922 ], [ 3.033358, 43.354426 ], [ 3.031972, 43.35714 ], [ 3.03043, 43.362773 ], [ 3.025966, 43.363984 ], [ 3.025324, 43.363869 ], [ 3.025084, 43.363835 ], [ 3.024492, 43.363707 ], [ 3.024109, 43.363607 ], [ 3.023785, 43.363543 ], [ 3.020654, 43.36225 ], [ 3.01775, 43.362966 ], [ 3.017613, 43.363299 ], [ 3.018268, 43.366112 ], [ 3.014343, 43.37376 ], [ 3.012417, 43.3743 ], [ 3.012228, 43.37433 ], [ 3.012283, 43.374685 ], [ 3.01223, 43.383108 ], [ 3.011516, 43.383881 ], [ 3.010809, 43.384647 ], [ 3.010521, 43.384927 ], [ 3.009925, 43.385469 ], [ 3.00929, 43.385972 ], [ 3.008965, 43.38621 ], [ 3.008481, 43.38654 ], [ 3.007996, 43.386871 ], [ 3.006586, 43.387836 ], [ 3.005182, 43.388797 ], [ 3.004884, 43.388984 ], [ 3.004586, 43.389171 ], [ 3.004777, 43.389476 ], [ 3.005075, 43.389289 ], [ 3.007328, 43.38798 ], [ 3.007727, 43.387681 ], [ 3.008145, 43.387364 ], [ 3.009503, 43.386262 ], [ 3.009833, 43.386021 ], [ 3.010159, 43.385742 ], [ 3.010475, 43.385472 ], [ 3.010772, 43.385185 ], [ 3.01106, 43.384906 ], [ 3.01178, 43.384126 ], [ 3.019865, 43.382168 ], [ 3.024132, 43.382364 ], [ 3.024411, 43.382137 ], [ 3.032243, 43.378732 ], [ 3.037157, 43.383299 ], [ 3.041783, 43.38811 ], [ 3.042089, 43.3883 ], [ 3.048806, 43.38465 ], [ 3.048969, 43.384329 ], [ 3.048409, 43.384044 ], [ 3.045576, 43.379604 ], [ 3.050648, 43.375037 ], [ 3.051, 43.374961 ], [ 3.052947, 43.373281 ], [ 3.052745, 43.373414 ], [ 3.050097, 43.374586 ], [ 3.049572, 43.374749 ], [ 3.049271, 43.374817 ], [ 3.048985, 43.374882 ], [ 3.048692, 43.374935 ], [ 3.042752, 43.381409 ], [ 3.042539, 43.3817 ], [ 3.038267, 43.381101 ], [ 3.037925, 43.380987 ], [ 3.035537, 43.379475 ], [ 3.035303, 43.379201 ], [ 3.033366, 43.376967 ], [ 3.033152, 43.376677 ], [ 3.027072, 43.374356 ], [ 3.023528, 43.378277 ], [ 3.023178, 43.378361 ], [ 3.015322, 43.380717 ], [ 3.01506, 43.380471 ], [ 3.01671, 43.378324 ], [ 3.016882, 43.37811 ], [ 3.017049, 43.377902 ], [ 3.017231, 43.377707 ], [ 3.017404, 43.377523 ], [ 3.020285, 43.374398 ], [ 3.023751, 43.37364 ], [ 3.028158, 43.371342 ], [ 3.026906, 43.364505 ], [ 3.02691, 43.364145 ], [ 3.030808, 43.362693 ], [ 3.03439, 43.360426 ], [ 3.036699, 43.353175 ], [ 3.038313, 43.348523 ], [ 3.038488, 43.348449 ], [ 3.038846, 43.348484 ], [ 3.038848, 43.348633 ], [ 3.038858, 43.348993 ], [ 3.03869, 43.350035 ], [ 3.045169, 43.356 ], [ 3.048248, 43.358475 ], [ 3.048278, 43.358834 ], [ 3.052273, 43.365697 ], [ 3.056628, 43.365946 ], [ 3.058352, 43.365671 ], [ 3.059033, 43.365574 ], [ 3.059722, 43.365476 ], [ 3.060529, 43.365379 ], [ 3.06059, 43.365734 ], [ 3.060323, 43.36578 ], [ 3.060033, 43.365808 ], [ 3.059756, 43.365835 ], [ 3.059083, 43.365931 ], [ 3.053544, 43.372859 ], [ 3.05335, 43.373001 ], [ 3.053156, 43.373143 ], [ 3.056979, 43.371503 ], [ 3.062191, 43.366798 ], [ 3.06558, 43.36631 ], [ 3.06579, 43.36632 ], [ 3.06601, 43.366331 ], [ 3.066293, 43.366331 ], [ 3.06659, 43.36633 ], [ 3.066898, 43.366305 ], [ 3.067221, 43.366278 ], [ 3.067637, 43.366206 ], [ 3.068058, 43.366133 ], [ 3.069246, 43.365893 ], [ 3.070434, 43.365653 ], [ 3.070363, 43.3653 ], [ 3.062551, 43.365013 ], [ 3.062407, 43.364979 ], [ 3.062176, 43.364969 ], [ 3.061806, 43.364988 ], [ 3.061452, 43.365006 ], [ 3.054102, 43.363044 ], [ 3.051363, 43.357665 ], [ 3.051231, 43.35733 ], [ 3.049692, 43.353754 ], [ 3.049464, 43.353476 ], [ 3.046056, 43.349256 ], [ 3.040598, 43.342111 ], [ 3.040596935046553, 43.342097724707294 ], [ 3.04059, 43.342113 ], [ 3.039871, 43.343976 ], [ 3.039373, 43.344503 ], [ 3.039018, 43.344444 ], [ 3.037823198093531, 43.342732218783844 ], [ 3.03361, 43.347562 ], [ 3.033607, 43.347922 ] ] ] } },
{ "type": "Feature", "properties": { "codgeo": "34225", "value": 300, "isochrone_group": 5.0, "nb_agences": 1 }, "geometry": { "type": "MultiPolygon", "coordinates": [ [ [ [ 3.029208, 43.346735 ], [ 3.028048, 43.346254 ], [ 3.027723, 43.346409 ], [ 3.027674, 43.347517 ], [ 3.027799, 43.347855 ], [ 3.028912, 43.350845 ], [ 3.029106, 43.351148 ], [ 3.03023, 43.356792 ], [ 3.022542, 43.358196 ], [ 3.022207, 43.358062 ], [ 3.021015, 43.358345 ], [ 3.014038, 43.362911 ], [ 3.013219, 43.363058 ], [ 3.011897, 43.363269 ], [ 3.011385, 43.363334 ], [ 3.00905, 43.371019 ], [ 3.008857, 43.372129 ], [ 3.009061, 43.374777 ], [ 3.010651, 43.375911 ], [ 3.010809, 43.384647 ], [ 3.011516, 43.383881 ], [ 3.01223, 43.383108 ], [ 3.012283, 43.374685 ], [ 3.012228, 43.37433 ], [ 3.012417, 43.3743 ], [ 3.014343, 43.37376 ], [ 3.018268, 43.366112 ], [ 3.017613, 43.363299 ], [ 3.01775, 43.362966 ], [ 3.020654, 43.36225 ], [ 3.023785, 43.363543 ], [ 3.024109, 43.363607 ], [ 3.024492, 43.363707 ], [ 3.025084, 43.363835 ], [ 3.025324, 43.363869 ], [ 3.025966, 43.363984 ], [ 3.03043, 43.362773 ], [ 3.031972, 43.35714 ], [ 3.033358, 43.354426 ], [ 3.033607, 43.347922 ], [ 3.03361, 43.347562 ], [ 3.035502420819149, 43.345392631666854 ], [ 3.036186574297755, 43.343074644730649 ], [ 3.031904, 43.347491 ], [ 3.029208, 43.346735 ] ] ], [ [ [ 3.001187, 43.390085 ], [ 3.000986, 43.390119 ], [ 3.000769, 43.390157 ], [ 3.000406, 43.390252 ], [ 3.000028, 43.390351 ], [ 2.999847, 43.390414 ], [ 2.999657, 43.390481 ], [ 2.999459, 43.390561 ], [ 2.999253, 43.390645 ], [ 2.998754, 43.390877 ], [ 2.998256, 43.391109 ], [ 2.996672, 43.391835 ], [ 2.995088, 43.392562 ], [ 2.989032, 43.394592 ], [ 2.987425, 43.394891 ], [ 2.987072, 43.394962 ], [ 2.986707, 43.395036 ], [ 2.986454, 43.395106 ], [ 2.9862, 43.395175 ], [ 2.986295, 43.395522 ], [ 2.990701, 43.394649 ], [ 2.990999, 43.394585 ], [ 2.991292, 43.394523 ], [ 2.991663, 43.39442 ], [ 2.992022, 43.394319 ], [ 2.992377, 43.394187 ], [ 2.992718, 43.39406 ], [ 2.993985, 43.393472 ], [ 2.99524, 43.392888 ], [ 2.996823, 43.392163 ], [ 2.998406, 43.391436 ], [ 2.998906, 43.391204 ], [ 3.001851, 43.390361 ], [ 3.008104, 43.391262 ], [ 3.008746, 43.39013 ], [ 3.016109, 43.385407 ], [ 3.019144, 43.384565 ], [ 3.025929, 43.385676 ], [ 3.027361, 43.385293 ], [ 3.027508, 43.384964 ], [ 3.032831, 43.380993 ], [ 3.037157, 43.383299 ], [ 3.032243, 43.378732 ], [ 3.024411, 43.382137 ], [ 3.024132, 43.382364 ], [ 3.019865, 43.382168 ], [ 3.01178, 43.384126 ], [ 3.01106, 43.384906 ], [ 3.010772, 43.385185 ], [ 3.010475, 43.385472 ], [ 3.010159, 43.385742 ], [ 3.009833, 43.386021 ], [ 3.009503, 43.386262 ], [ 3.008145, 43.387364 ], [ 3.007727, 43.387681 ], [ 3.007328, 43.38798 ], [ 3.005075, 43.389289 ], [ 3.004777, 43.389476 ], [ 3.004586, 43.389171 ], [ 3.004884, 43.388984 ], [ 3.005182, 43.388797 ], [ 3.006586, 43.387836 ], [ 3.001187, 43.390085 ] ] ], [ [ [ 3.036081, 43.392011 ], [ 3.035869, 43.392302 ], [ 3.0366, 43.3943 ], [ 3.036943, 43.39441 ], [ 3.043745, 43.390856 ], [ 3.051739, 43.387244 ], [ 3.051822, 43.386955 ], [ 3.052116, 43.3841 ], [ 3.052703, 43.379551 ], [ 3.054696, 43.375098 ], [ 3.062573, 43.373103 ], [ 3.062767, 43.373169 ], [ 3.062883, 43.372828 ], [ 3.068058, 43.366133 ], [ 3.067637, 43.366206 ], [ 3.067221, 43.366278 ], [ 3.066898, 43.366305 ], [ 3.06659, 43.36633 ], [ 3.066293, 43.366331 ], [ 3.06601, 43.366331 ], [ 3.06579, 43.36632 ], [ 3.06558, 43.36631 ], [ 3.062191, 43.366798 ], [ 3.056979, 43.371503 ], [ 3.053156, 43.373143 ], [ 3.052947, 43.373281 ], [ 3.051, 43.374961 ], [ 3.050648, 43.375037 ], [ 3.045576, 43.379604 ], [ 3.048409, 43.384044 ], [ 3.048969, 43.384329 ], [ 3.048806, 43.38465 ], [ 3.042089, 43.3883 ], [ 3.041783, 43.38811 ], [ 3.037157, 43.383299 ], [ 3.036081, 43.392011 ] ] ], [ [ [ 3.069321, 43.365878 ], [ 3.072949, 43.365404 ], [ 3.073372, 43.365428 ], [ 3.075664, 43.365601 ], [ 3.077961, 43.365773 ], [ 3.07848, 43.365794 ], [ 3.07901, 43.365814 ], [ 3.079392, 43.365806 ], [ 3.079783, 43.365796 ], [ 3.080199, 43.365769 ], [ 3.080618, 43.365741 ], [ 3.082193, 43.36561 ], [ 3.083773, 43.365479 ], [ 3.084115, 43.365441 ], [ 3.084461, 43.365401 ], [ 3.084716, 43.365366 ], [ 3.084975, 43.36533 ], [ 3.085365, 43.365264 ], [ 3.085761, 43.365197 ], [ 3.086176, 43.365109 ], [ 3.08659, 43.365022 ], [ 3.086516, 43.36467 ], [ 3.082163, 43.365251 ], [ 3.080588, 43.365382 ], [ 3.077975, 43.365414 ], [ 3.069461, 43.363535 ], [ 3.069121, 43.363654 ], [ 3.062551, 43.365013 ], [ 3.070363, 43.3653 ], [ 3.070434, 43.365653 ], [ 3.069246, 43.365893 ], [ 3.068058, 43.366133 ], [ 3.069321, 43.365878 ] ] ], [ [ [ 3.05951, 43.360894 ], [ 3.059443, 43.360541 ], [ 3.054071, 43.358429 ], [ 3.054218, 43.351313 ], [ 3.053994, 43.351031 ], [ 3.050062, 43.34881 ], [ 3.042943, 43.343762 ], [ 3.042769, 43.343447 ], [ 3.042471514875058, 43.342496844258314 ], [ 3.041917975100866, 43.343838963007627 ], [ 3.046056, 43.349256 ], [ 3.049464, 43.353476 ], [ 3.049692, 43.353754 ], [ 3.051231, 43.35733 ], [ 3.051363, 43.357665 ], [ 3.054102, 43.363044 ], [ 3.061452, 43.365006 ], [ 3.061806, 43.364988 ], [ 3.062176, 43.364969 ], [ 3.062407, 43.364979 ], [ 3.062551, 43.365013 ], [ 3.05951, 43.360894 ] ] ] ] } },
{ "type": "Feature", "properties": { "codgeo": "34225", "value": 360, "isochrone_group": 6.0, "nb_agences": 1 }, "geometry": { "type": "MultiPolygon", "coordinates": [ [ [ [ 3.019273, 43.355871 ], [ 3.015594, 43.355729 ], [ 3.015247, 43.355636 ], [ 3.014178, 43.355552 ], [ 3.013887, 43.355502 ], [ 3.013826, 43.355857 ], [ 3.009499, 43.363662 ], [ 3.006077, 43.363712 ], [ 3.00364, 43.364948 ], [ 3.0034, 43.365217 ], [ 3.006704, 43.373489 ], [ 3.006604, 43.37578 ], [ 3.006599, 43.37614 ], [ 3.007564, 43.376395 ], [ 3.009072, 43.377182 ], [ 3.00929, 43.385972 ], [ 3.009925, 43.385469 ], [ 3.010521, 43.384927 ], [ 3.010809, 43.384647 ], [ 3.010651, 43.375911 ], [ 3.009061, 43.374777 ], [ 3.008857, 43.372129 ], [ 3.00905, 43.371019 ], [ 3.011385, 43.363334 ], [ 3.011897, 43.363269 ], [ 3.013219, 43.363058 ], [ 3.014038, 43.362911 ], [ 3.021015, 43.358345 ], [ 3.022207, 43.358062 ], [ 3.022542, 43.358196 ], [ 3.03023, 43.356792 ], [ 3.029106, 43.351148 ], [ 3.028912, 43.350845 ], [ 3.027799, 43.347855 ], [ 3.027674, 43.347517 ], [ 3.027723, 43.346409 ], [ 3.028048, 43.346254 ], [ 3.028836005142193, 43.346580750408108 ], [ 3.030237, 43.343094 ], [ 3.026494727239541, 43.341830194803642 ], [ 3.025317, 43.342663 ], [ 3.020123, 43.347248 ], [ 3.020047, 43.3476 ], [ 3.019273, 43.355871 ] ] ], [ [ [ 2.994199, 43.392832 ], [ 2.988961, 43.39448 ], [ 2.981953, 43.394749 ], [ 2.979183, 43.394036 ], [ 2.978111, 43.393748 ], [ 2.977039, 43.393459 ], [ 2.976946, 43.393807 ], [ 2.976237327230775, 43.40076239723922 ], [ 2.979933, 43.399677 ], [ 2.980118, 43.399986 ], [ 2.980134182660217, 43.400341766327472 ], [ 2.983807, 43.397831 ], [ 2.992022, 43.394319 ], [ 2.991663, 43.39442 ], [ 2.991292, 43.394523 ], [ 2.990999, 43.394585 ], [ 2.990701, 43.394649 ], [ 2.986295, 43.395522 ], [ 2.9862, 43.395175 ], [ 2.986454, 43.395106 ], [ 2.986707, 43.395036 ], [ 2.987072, 43.394962 ], [ 2.987425, 43.394891 ], [ 2.989032, 43.394592 ], [ 2.995088, 43.392562 ], [ 2.996672, 43.391835 ], [ 2.998256, 43.391109 ], [ 2.996053, 43.391972 ], [ 2.994199, 43.392832 ] ] ], [ [ [ 3.006856, 43.393114 ], [ 3.008663, 43.393101 ], [ 3.014853, 43.387656 ], [ 3.021042, 43.386665 ], [ 3.023981, 43.386492 ], [ 3.028763, 43.386702 ], [ 3.032774, 43.393929 ], [ 3.033606, 43.396522 ], [ 3.033624, 43.396556 ], [ 3.035619, 43.401541 ], [ 3.035908, 43.401756 ], [ 3.037278, 43.401106 ], [ 3.03885, 43.399926 ], [ 3.043374, 43.392175 ], [ 3.051961, 43.391637 ], [ 3.052295, 43.391503 ], [ 3.053296, 43.390519 ], [ 3.05511, 43.383428 ], [ 3.059861, 43.377573 ], [ 3.066143, 43.373644 ], [ 3.069113, 43.374028 ], [ 3.06916, 43.373671 ], [ 3.072459, 43.365482 ], [ 3.073372, 43.365428 ], [ 3.072949, 43.365404 ], [ 3.069321, 43.365878 ], [ 3.068058, 43.366133 ], [ 3.062883, 43.372828 ], [ 3.062767, 43.373169 ], [ 3.062573, 43.373103 ], [ 3.054696, 43.375098 ], [ 3.052703, 43.379551 ], [ 3.052116, 43.3841 ], [ 3.051822, 43.386955 ], [ 3.051739, 43.387244 ], [ 3.043745, 43.390856 ], [ 3.036943, 43.39441 ], [ 3.0366, 43.3943 ], [ 3.035869, 43.392302 ], [ 3.036081, 43.392011 ], [ 3.037157, 43.383299 ], [ 3.032831, 43.380993 ], [ 3.027508, 43.384964 ], [ 3.027361, 43.385293 ], [ 3.025929, 43.385676 ], [ 3.019144, 43.384565 ], [ 3.016109, 43.385407 ], [ 3.008746, 43.39013 ], [ 3.008104, 43.391262 ], [ 3.001851, 43.390361 ], [ 2.998906, 43.391204 ], [ 2.998406, 43.391436 ], [ 3.006545, 43.392934 ], [ 3.006856, 43.393114 ] ] ], [ [ [ 3.077893, 43.36589 ], [ 3.078232, 43.365909 ], [ 3.078567, 43.365928 ], [ 3.078957, 43.365931 ], [ 3.079337, 43.365933 ], [ 3.079758, 43.365914 ], [ 3.08017, 43.365895 ], [ 3.085557, 43.36629 ], [ 3.09293315922867, 43.36721040596526 ], [ 3.093183, 43.366668 ], [ 3.093419, 43.366766 ], [ 3.093704, 43.366931 ], [ 3.093864443347428, 43.36700125416359 ], [ 3.098929, 43.362558 ], [ 3.100886, 43.361011 ], [ 3.100813, 43.360659 ], [ 3.098178, 43.360897 ], [ 3.090958, 43.361595 ], [ 3.084164, 43.361094 ], [ 3.083849, 43.36127 ], [ 3.07682, 43.364797 ], [ 3.07215, 43.363146 ], [ 3.071364, 43.362566 ], [ 3.070579, 43.361987 ], [ 3.068064, 43.359705 ], [ 3.067718, 43.359805 ], [ 3.060733, 43.358217 ], [ 3.05979, 43.352666 ], [ 3.059762, 43.352307 ], [ 3.058047, 43.347713 ], [ 3.05775, 43.347509 ], [ 3.049874, 43.345048 ], [ 3.048311, 43.344247 ], [ 3.044506, 43.342537 ], [ 3.044462180713086, 43.342310528041899 ], [ 3.043846, 43.343244 ], [ 3.045868185750662, 43.345836215152318 ], [ 3.050062, 43.34881 ], [ 3.053994, 43.351031 ], [ 3.054218, 43.351313 ], [ 3.054071, 43.358429 ], [ 3.059443, 43.360541 ], [ 3.05951, 43.360894 ], [ 3.062551, 43.365013 ], [ 3.069121, 43.363654 ], [ 3.069461, 43.363535 ], [ 3.077975, 43.365414 ], [ 3.080588, 43.365382 ], [ 3.082163, 43.365251 ], [ 3.086516, 43.36467 ], [ 3.08659, 43.365022 ], [ 3.086176, 43.365109 ], [ 3.085761, 43.365197 ], [ 3.085365, 43.365264 ], [ 3.084975, 43.36533 ], [ 3.084716, 43.365366 ], [ 3.084461, 43.365401 ], [ 3.084115, 43.365441 ], [ 3.083773, 43.365479 ], [ 3.082193, 43.36561 ], [ 3.080618, 43.365741 ], [ 3.080199, 43.365769 ], [ 3.079783, 43.365796 ], [ 3.079392, 43.365806 ], [ 3.07901, 43.365814 ], [ 3.07848, 43.365794 ], [ 3.077961, 43.365773 ], [ 3.075664, 43.365601 ], [ 3.073372, 43.365428 ], [ 3.075176, 43.365686 ], [ 3.077893, 43.36589 ] ] ] ] } },
{ "type": "Feature", "properties": { "codgeo": "34225", "value": 420, "isochrone_group": 7.0, "nb_agences": 1 }, "geometry": { "type": "MultiPolygon", "coordinates": [ [ [ [ 3.008139, 43.35418 ], [ 3.004595, 43.358701 ], [ 3.000117, 43.358294 ], [ 2.998148, 43.357204 ], [ 2.996404, 43.360353 ], [ 3.000655, 43.364719 ], [ 3.002021, 43.369684 ], [ 3.000853, 43.375123 ], [ 3.000823, 43.378565 ], [ 3.001126, 43.378713 ], [ 3.00159, 43.37869 ], [ 3.005502, 43.37981 ], [ 3.005914, 43.386595 ], [ 3.002208, 43.388319 ], [ 3.000912, 43.388488 ], [ 3.000361, 43.388589 ], [ 2.999492, 43.388822 ], [ 2.999048, 43.38898 ], [ 2.99857, 43.389176 ], [ 2.997581, 43.389636 ], [ 2.995211931936398, 43.390626813006122 ], [ 2.995874361926181, 43.392054863399963 ], [ 2.996053, 43.391972 ], [ 2.998256, 43.391109 ], [ 2.998754, 43.390877 ], [ 2.999253, 43.390645 ], [ 2.999459, 43.390561 ], [ 2.999657, 43.390481 ], [ 2.999847, 43.390414 ], [ 3.000028, 43.390351 ], [ 3.000406, 43.390252 ], [ 3.000769, 43.390157 ], [ 3.000986, 43.390119 ], [ 3.001187, 43.390085 ], [ 3.001805, 43.390004 ], [ 3.006586, 43.387836 ], [ 3.007996, 43.386871 ], [ 3.008481, 43.38654 ], [ 3.008965, 43.38621 ], [ 3.00929, 43.385972 ], [ 3.009072, 43.377182 ], [ 3.007564, 43.376395 ], [ 3.006599, 43.37614 ], [ 3.006604, 43.37578 ], [ 3.006704, 43.373489 ], [ 3.0034, 43.365217 ], [ 3.00364, 43.364948 ], [ 3.006077, 43.363712 ], [ 3.009499, 43.363662 ], [ 3.013826, 43.355857 ], [ 3.013887, 43.355502 ], [ 3.014178, 43.355552 ], [ 3.015247, 43.355636 ], [ 3.015594, 43.355729 ], [ 3.019273, 43.355871 ], [ 3.020047, 43.3476 ], [ 3.020123, 43.347248 ], [ 3.020900423687944, 43.346561729763337 ], [ 3.018114945641405, 43.344544190036935 ], [ 3.017145, 43.345946 ], [ 3.01548, 43.347084 ], [ 3.009271, 43.352843 ], [ 3.008139, 43.35418 ] ] ], [ [ [ 2.994114, 43.391086 ], [ 2.993074452043288, 43.391514066816711 ], [ 2.993428, 43.391404 ], [ 2.994115528328182, 43.391085360808795 ], [ 2.994114, 43.391086 ] ] ], [ [ [ 2.982725, 43.392659 ], [ 2.977616, 43.391937 ], [ 2.971752, 43.389063 ], [ 2.970536, 43.388407 ], [ 2.970185, 43.38823 ], [ 2.969535, 43.38798 ], [ 2.96906, 43.387848 ], [ 2.968093, 43.391315 ], [ 2.969646, 43.393068 ], [ 2.969537920627034, 43.399337305446117 ], [ 2.97187, 43.398607 ], [ 2.972743, 43.397464 ], [ 2.977614, 43.391937 ], [ 2.979604, 43.392472 ], [ 2.980052, 43.392623 ], [ 2.988658, 43.392889 ], [ 2.982725, 43.392659 ] ] ], [ [ [ 2.989737, 43.397365 ], [ 2.989941, 43.397331 ], [ 2.993284, 43.395578 ], [ 2.995923, 43.394357 ], [ 3.004466, 43.395541 ], [ 3.005317, 43.396653 ], [ 3.010704, 43.395923 ], [ 3.012712, 43.393841 ], [ 3.013166, 43.393361 ], [ 3.019678, 43.389762 ], [ 3.02226, 43.389273 ], [ 3.02858, 43.394343 ], [ 3.029899, 43.401926 ], [ 3.029891, 43.402044 ], [ 3.02976, 43.405642 ], [ 3.033079, 43.409088 ], [ 3.035651, 43.408655 ], [ 3.036573, 43.408222 ], [ 3.040092, 43.402741 ], [ 3.044401, 43.400725 ], [ 3.05249, 43.397012 ], [ 3.052859, 43.396844 ], [ 3.053103, 43.3966 ], [ 3.05315, 43.396535 ], [ 3.053241, 43.396395 ], [ 3.059357, 43.389853 ], [ 3.059932, 43.384555 ], [ 3.064115, 43.380574 ], [ 3.071956, 43.377406 ], [ 3.072789, 43.377675 ], [ 3.073224, 43.377712 ], [ 3.074629, 43.375298 ], [ 3.074032, 43.373934 ], [ 3.079047, 43.367434 ], [ 3.07989, 43.367413 ], [ 3.083570224547338, 43.368953701862942 ], [ 3.083554265048497, 43.366143150119569 ], [ 3.08017, 43.365895 ], [ 3.079758, 43.365914 ], [ 3.079337, 43.365933 ], [ 3.078957, 43.365931 ], [ 3.078567, 43.365928 ], [ 3.078232, 43.365909 ], [ 3.077893, 43.36589 ], [ 3.075176, 43.365686 ], [ 3.073372, 43.365428 ], [ 3.072459, 43.365482 ], [ 3.06916, 43.373671 ], [ 3.069113, 43.374028 ], [ 3.066143, 43.373644 ], [ 3.059861, 43.377573 ], [ 3.05511, 43.383428 ], [ 3.053296, 43.390519 ], [ 3.052295, 43.391503 ], [ 3.051961, 43.391637 ], [ 3.043374, 43.392175 ], [ 3.03885, 43.399926 ], [ 3.037278, 43.401106 ], [ 3.035908, 43.401756 ], [ 3.035619, 43.401541 ], [ 3.033624, 43.396556 ], [ 3.033606, 43.396522 ], [ 3.032774, 43.393929 ], [ 3.028763, 43.386702 ], [ 3.023981, 43.386492 ], [ 3.021042, 43.386665 ], [ 3.014853, 43.387656 ], [ 3.008663, 43.393101 ], [ 3.006856, 43.393114 ], [ 3.006545, 43.392934 ], [ 2.998406, 43.391436 ], [ 2.996823, 43.392163 ], [ 2.996081956751369, 43.392502391254112 ], [ 2.996708, 43.393852 ], [ 2.994943, 43.39467 ], [ 2.993179, 43.395489 ], [ 2.992537, 43.395722 ], [ 2.992045, 43.395874 ], [ 2.991515, 43.396007 ], [ 2.989331, 43.396425 ], [ 2.987243, 43.396823 ], [ 2.986101399137359, 43.400201059875435 ], [ 2.989737, 43.397365 ] ] ], [ [ [ 3.101397, 43.364931 ], [ 3.103068216587048, 43.365565296289894 ], [ 3.107414, 43.362072 ], [ 3.11044, 43.361947 ], [ 3.110901, 43.361904 ], [ 3.111766106350342, 43.361770566844818 ], [ 3.111788, 43.361756 ], [ 3.114259324130261, 43.360186553097599 ], [ 3.113672, 43.357689 ], [ 3.107268, 43.358475 ], [ 3.098369, 43.357948 ], [ 3.095059, 43.357591 ], [ 3.091267500652251, 43.361565078745791 ], [ 3.098178, 43.360897 ], [ 3.100813, 43.360659 ], [ 3.100886, 43.361011 ], [ 3.098929, 43.362558 ], [ 3.097082659271195, 43.364177837962828 ], [ 3.097498, 43.364327 ], [ 3.101397, 43.364931 ] ] ], [ [ [ 3.084214, 43.356831 ], [ 3.083715, 43.356078 ], [ 3.082682, 43.355577 ], [ 3.082282, 43.35555 ], [ 3.081596, 43.355581 ], [ 3.080812, 43.358008 ], [ 3.072054, 43.359071 ], [ 3.071961, 43.355473 ], [ 3.071453, 43.355486 ], [ 3.07097, 43.355547 ], [ 3.064187, 43.353704 ], [ 3.062518, 43.345653 ], [ 3.062022, 43.343911 ], [ 3.06189, 43.343444 ], [ 3.060779, 43.342501 ], [ 3.059168, 43.343209 ], [ 3.058737, 43.343301 ], [ 3.052631, 43.342597 ], [ 3.048785927992729, 43.341051822987133 ], [ 3.049495782194183, 43.344854172448841 ], [ 3.049874, 43.345048 ], [ 3.05775, 43.347509 ], [ 3.058047, 43.347713 ], [ 3.059762, 43.352307 ], [ 3.05979, 43.352666 ], [ 3.060733, 43.358217 ], [ 3.067718, 43.359805 ], [ 3.068064, 43.359705 ], [ 3.070579, 43.361987 ], [ 3.071364, 43.362566 ], [ 3.07215, 43.363146 ], [ 3.07682, 43.364797 ], [ 3.083849, 43.36127 ], [ 3.084164, 43.361094 ], [ 3.090958, 43.361595 ], [ 3.091195678135827, 43.361572022252233 ], [ 3.084552, 43.357808 ], [ 3.084214, 43.356831 ] ] ] ] } },
{ "type": "Feature", "properties": { "codgeo": "34225", "value": 480, "isochrone_group": 8.0, "nb_agences": 1 }, "geometry": { "type": "MultiPolygon", "coordinates": [ [ [ [ 2.993769, 43.354293 ], [ 2.993261, 43.354197 ], [ 2.990425, 43.353715 ], [ 2.989401, 43.357166 ], [ 2.99428, 43.360098 ], [ 2.997039186572533, 43.361005369930744 ], [ 2.996404, 43.360353 ], [ 2.998148, 43.357204 ], [ 3.000117, 43.358294 ], [ 3.004595, 43.358701 ], [ 3.008139, 43.35418 ], [ 3.009271, 43.352843 ], [ 3.01390581500313, 43.348544095248364 ], [ 3.011769781196866, 43.347912766495632 ], [ 3.011717, 43.347931 ], [ 3.006006, 43.352203 ], [ 3.004519, 43.35361 ], [ 2.996284, 43.354643 ], [ 2.993769, 43.354293 ] ] ], [ [ [ 3.000034, 43.369036 ], [ 2.998597, 43.373603 ], [ 2.998752, 43.378231 ], [ 2.999068, 43.381817 ], [ 2.997614919174791, 43.389457644904013 ], [ 2.997832, 43.389356 ], [ 2.998967, 43.388854 ], [ 2.999513, 43.388667 ], [ 3.000068, 43.388515 ], [ 3.005871300961781, 43.385891813169138 ], [ 3.005502, 43.37981 ], [ 3.00159, 43.37869 ], [ 3.001126, 43.378713 ], [ 3.000823, 43.378565 ], [ 3.000853, 43.375123 ], [ 3.002021, 43.369684 ], [ 3.000655, 43.364719 ], [ 2.998771757793723, 43.362784811462554 ], [ 3.000089, 43.367214 ], [ 3.000034, 43.369036 ] ] ], [ [ [ 2.967424, 43.384948 ], [ 2.965978, 43.385359 ], [ 2.958365, 43.385748 ], [ 2.956942, 43.385738 ], [ 2.956326, 43.389285 ], [ 2.958759, 43.389707 ], [ 2.96418, 43.392558 ], [ 2.962649276086274, 43.401100775628919 ], [ 2.963044, 43.401234 ], [ 2.963395, 43.401261 ], [ 2.964978, 43.401631 ], [ 2.96553, 43.401759 ], [ 2.969530458999934, 43.399770128270056 ], [ 2.969646, 43.393068 ], [ 2.968093, 43.391315 ], [ 2.96906, 43.387848 ], [ 2.969096926976464, 43.387858261812426 ], [ 2.969097, 43.387858 ], [ 2.969535, 43.38798 ], [ 2.970185, 43.38823 ], [ 2.970536, 43.388407 ], [ 2.971752, 43.389063 ], [ 2.977616, 43.391937 ], [ 2.971201, 43.387314 ], [ 2.967424, 43.384948 ] ] ], [ [ [ 2.998072, 43.398193 ], [ 3.001074, 43.398413 ], [ 3.005492, 43.398186 ], [ 3.009091, 43.398085 ], [ 3.013353244319387, 43.393257515309365 ], [ 3.013166, 43.393361 ], [ 3.012712, 43.393841 ], [ 3.010704, 43.395923 ], [ 3.005317, 43.396653 ], [ 3.004466, 43.395541 ], [ 2.995923, 43.394357 ], [ 2.993284, 43.395578 ], [ 2.991432494348728, 43.396548891237408 ], [ 2.990168, 43.404854 ], [ 2.991877, 43.405141 ], [ 2.992722, 43.405293 ], [ 2.992833981236501, 43.405304310206773 ], [ 2.998072, 43.398193 ] ] ], [ [ [ 3.019133, 43.391975 ], [ 3.020154, 43.391941 ], [ 3.025817, 43.394908 ], [ 3.023357, 43.40159 ], [ 3.023164, 43.401888 ], [ 3.022937, 43.402218 ], [ 3.022928, 43.402576 ], [ 3.023894, 43.404226 ], [ 3.02938, 43.407379 ], [ 3.030584, 43.413253 ], [ 3.032968, 43.415951 ], [ 3.038078, 43.413681 ], [ 3.038995, 43.412947 ], [ 3.039101, 43.412842 ], [ 3.039454, 43.412436 ], [ 3.039472, 43.412076 ], [ 3.039298, 43.411199 ], [ 3.042072, 43.402707 ], [ 3.044248, 43.401731 ], [ 3.045646, 43.401494 ], [ 3.053746, 43.398384 ], [ 3.060608, 43.395171 ], [ 3.063794, 43.387133 ], [ 3.064531, 43.386306 ], [ 3.067577, 43.381792 ], [ 3.075333, 43.377502 ], [ 3.076989, 43.377449 ], [ 3.077174, 43.37736 ], [ 3.0779, 43.374977 ], [ 3.078399969353077, 43.370044496026573 ], [ 3.077343403685276, 43.369642051055969 ], [ 3.074032, 43.373934 ], [ 3.074629, 43.375298 ], [ 3.073224, 43.377712 ], [ 3.072789, 43.377675 ], [ 3.071956, 43.377406 ], [ 3.064115, 43.380574 ], [ 3.059932, 43.384555 ], [ 3.059357, 43.389853 ], [ 3.053241, 43.396395 ], [ 3.05315, 43.396535 ], [ 3.053103, 43.3966 ], [ 3.052859, 43.396844 ], [ 3.05249, 43.397012 ], [ 3.044401, 43.400725 ], [ 3.040092, 43.402741 ], [ 3.036573, 43.408222 ], [ 3.035651, 43.408655 ], [ 3.033079, 43.409088 ], [ 3.02976, 43.405642 ], [ 3.029891, 43.402044 ], [ 3.029899, 43.401926 ], [ 3.02858, 43.394343 ], [ 3.02226, 43.389273 ], [ 3.019678, 43.389762 ], [ 3.013662439215106, 43.393086631950979 ], [ 3.018265, 43.391891 ], [ 3.019133, 43.391975 ] ] ], [ [ [ 3.09223910584523, 43.360546685969602 ], [ 3.095059, 43.357591 ], [ 3.098369, 43.357948 ], [ 3.103305747644896, 43.358240354872343 ], [ 3.09735, 43.356164 ], [ 3.091198, 43.356152 ], [ 3.082682018268693, 43.355577008860202 ], [ 3.083715, 43.356078 ], [ 3.084214, 43.356831 ], [ 3.084552, 43.357808 ], [ 3.087617652785404, 43.35954486699837 ], [ 3.092238, 43.360547 ], [ 3.09223910584523, 43.360546685969602 ] ] ], [ [ [ 3.109033402374172, 43.36200510466066 ], [ 3.107414, 43.362072 ], [ 3.109041170999737, 43.362532784887847 ], [ 3.109033402374172, 43.36200510466066 ] ] ], [ [ [ 3.112865, 43.355711 ], [ 3.107268, 43.358475 ], [ 3.11237800403217, 43.357847819617533 ], [ 3.115165910693281, 43.35562055465271 ], [ 3.112865, 43.355711 ] ] ], [ [ [ 3.07588, 43.355557 ], [ 3.071977035307148, 43.356093376721695 ], [ 3.072054, 43.359071 ], [ 3.080812, 43.358008 ], [ 3.081596, 43.355581 ], [ 3.082282, 43.35555 ], [ 3.079426, 43.354936 ], [ 3.07588, 43.355557 ] ] ], [ [ [ 3.067166034253463, 43.344547155480448 ], [ 3.064803, 43.344708 ], [ 3.062787722049218, 43.34695409779404 ], [ 3.064187, 43.353704 ], [ 3.066720995961143, 43.354392508706532 ], [ 3.0657, 43.352692 ], [ 3.067166034253463, 43.344547155480448 ] ] ] ] } },
{ "type": "Feature", "properties": { "codgeo": "34225", "value": 540, "isochrone_group": 9.0, "nb_agences": 1 }, "geometry": { "type": "MultiPolygon", "coordinates": [ [ [ [ 3.087001, 43.355846 ], [ 3.082282, 43.35555 ], [ 3.082682, 43.355577 ], [ 3.082682018268693, 43.355577008860202 ], [ 3.091198, 43.356152 ], [ 3.09735, 43.356164 ], [ 3.104271912359078, 43.358577189293698 ], [ 3.104282106722275, 43.358570332188158 ], [ 3.096631, 43.353955 ], [ 3.090421, 43.35472 ], [ 3.087001, 43.355846 ] ] ], [ [ [ 3.077907664649361, 43.350092424413198 ], [ 3.077847, 43.350104 ], [ 3.076478, 43.350738 ], [ 3.076075, 43.350974 ], [ 3.068902, 43.351156 ], [ 3.070296282901196, 43.344334089021892 ], [ 3.067166034253463, 43.344547155480448 ], [ 3.0657, 43.352692 ], [ 3.068065, 43.356631 ], [ 3.07588, 43.355557 ], [ 3.079426, 43.354936 ], [ 3.082282, 43.35555 ], [ 3.078696, 43.349942 ], [ 3.078349828384274, 43.35000805394786 ], [ 3.077945, 43.350136 ], [ 3.077907664649361, 43.350092424413198 ] ] ], [ [ [ 3.006331055053907, 43.348655354921881 ], [ 3.002619, 43.351959 ], [ 2.999518, 43.353743 ], [ 2.998644, 43.353709 ], [ 2.99792, 43.353569 ], [ 2.990487229229647, 43.353725576335918 ], [ 2.993261, 43.354197 ], [ 2.993769, 43.354293 ], [ 2.996284, 43.354643 ], [ 3.004519, 43.35361 ], [ 3.006006, 43.352203 ], [ 3.009448732370383, 43.349627732501084 ], [ 3.006792251356557, 43.348497775746843 ], [ 3.006331055053907, 43.348655354921881 ] ] ], [ [ [ 2.988374, 43.354061 ], [ 2.986231, 43.352336 ], [ 2.986225, 43.352149 ], [ 2.987241, 43.350644 ], [ 2.987463, 43.35057 ], [ 2.988412365562281, 43.349890019982453 ], [ 2.984436, 43.349772 ], [ 2.981746, 43.352164 ], [ 2.98375, 43.354948 ], [ 2.983945, 43.355092 ], [ 2.989328, 43.359611 ], [ 2.992439, 43.361195 ], [ 2.995752, 43.366487 ], [ 2.994679, 43.375398 ], [ 2.994798, 43.378559 ], [ 2.994684, 43.379997 ], [ 2.994304, 43.382884 ], [ 2.994569, 43.383279 ], [ 2.994114, 43.391086 ], [ 2.996557, 43.389953 ], [ 2.997614919174791, 43.389457644904013 ], [ 2.999068, 43.381817 ], [ 2.998752, 43.378231 ], [ 2.998597, 43.373603 ], [ 3.000034, 43.369036 ], [ 3.000089, 43.367214 ], [ 2.998373, 43.361444 ], [ 2.99428, 43.360098 ], [ 2.989401, 43.357166 ], [ 2.990421450566188, 43.353726962007897 ], [ 2.98985, 43.353739 ], [ 2.988374, 43.354061 ] ] ], [ [ [ 2.973595, 43.384813 ], [ 2.973065, 43.383932 ], [ 2.970478, 43.382734 ], [ 2.970215, 43.382607 ], [ 2.968796, 43.382985 ], [ 2.960376, 43.383254 ], [ 2.95805, 43.381047 ], [ 2.957192, 43.380205 ], [ 2.953871, 43.380178 ], [ 2.948435, 43.381978 ], [ 2.945497, 43.384059 ], [ 2.946264, 43.385142 ], [ 2.947356, 43.386636 ], [ 2.947728, 43.387177 ], [ 2.948175, 43.387805 ], [ 2.949303, 43.388025 ], [ 2.949643, 43.388117 ], [ 2.951883, 43.388513 ], [ 2.955000080544554, 43.390272215850899 ], [ 2.956617140533854, 43.389335497864906 ], [ 2.956326, 43.389285 ], [ 2.956942, 43.385738 ], [ 2.958365, 43.385748 ], [ 2.965978, 43.385359 ], [ 2.967424, 43.384948 ], [ 2.971201, 43.387314 ], [ 2.977616, 43.391937 ], [ 2.979335442560561, 43.392179990316819 ], [ 2.974554, 43.386981 ], [ 2.973595, 43.384813 ] ] ], [ [ [ 3.009111, 43.402414 ], [ 3.009237, 43.401798 ], [ 3.014811, 43.395466 ], [ 3.020663, 43.40138 ], [ 3.020678, 43.402742 ], [ 3.02217, 43.406019 ], [ 3.028794, 43.41126 ], [ 3.02554, 43.415206 ], [ 3.025188, 43.415586 ], [ 3.02461, 43.416912 ], [ 3.024658, 43.417248 ], [ 3.024915, 43.418751 ], [ 3.026078, 43.419634 ], [ 3.02728, 43.420304 ], [ 3.027862, 43.420484 ], [ 3.031225, 43.420026 ], [ 3.038695, 43.415393 ], [ 3.042347, 43.412692 ], [ 3.042483, 43.412479 ], [ 3.042294, 43.411242 ], [ 3.043478, 43.403819 ], [ 3.04655, 43.402873 ], [ 3.053552, 43.399819 ], [ 3.058172477832963, 43.396311386581544 ], [ 3.053746, 43.398384 ], [ 3.045646, 43.401494 ], [ 3.044248, 43.401731 ], [ 3.042072, 43.402707 ], [ 3.039298, 43.411199 ], [ 3.039472, 43.412076 ], [ 3.039454, 43.412436 ], [ 3.039101, 43.412842 ], [ 3.038995, 43.412947 ], [ 3.038078, 43.413681 ], [ 3.032968, 43.415951 ], [ 3.030584, 43.413253 ], [ 3.02938, 43.407379 ], [ 3.023894, 43.404226 ], [ 3.022928, 43.402576 ], [ 3.022937, 43.402218 ], [ 3.023164, 43.401888 ], [ 3.023357, 43.40159 ], [ 3.025817, 43.394908 ], [ 3.020154, 43.391941 ], [ 3.019133, 43.391975 ], [ 3.018265, 43.391891 ], [ 3.013457, 43.39314 ], [ 3.009091, 43.398085 ], [ 3.005492, 43.398186 ], [ 3.001074, 43.398413 ], [ 2.998072, 43.398193 ], [ 2.992833981236501, 43.405304310206773 ], [ 2.993821, 43.405404 ], [ 2.994248, 43.405472 ], [ 2.994697, 43.405562 ], [ 2.99512, 43.405678 ], [ 2.996113, 43.405848 ], [ 2.996662, 43.40598 ], [ 2.997731, 43.406325 ], [ 3.001781, 43.40622 ], [ 3.00258, 43.405985 ], [ 3.003654099651357, 43.406651824831592 ], [ 3.009111, 43.402414 ] ] ], [ [ [ 3.063771, 43.395095 ], [ 3.065774, 43.39471 ], [ 3.065094, 43.391175 ], [ 3.065816, 43.385821 ], [ 3.071841, 43.383699 ], [ 3.073572, 43.380543 ], [ 3.077060136553742, 43.378090155117462 ], [ 3.079522, 43.374717 ], [ 3.078089398753029, 43.373108465266554 ], [ 3.0779, 43.374977 ], [ 3.077174, 43.37736 ], [ 3.076989, 43.377449 ], [ 3.075333, 43.377502 ], [ 3.067577, 43.381792 ], [ 3.064531, 43.386306 ], [ 3.063794, 43.387133 ], [ 3.060608, 43.395171 ], [ 3.059291258958773, 43.395787538759166 ], [ 3.063073, 43.395174 ], [ 3.063771, 43.395095 ] ] ] ] } },
{ "type": "Feature", "properties": { "codgeo": "34225", "value": 600, "isochrone_group": 10.0, "nb_agences": 1 }, "geometry": { "type": "MultiPolygon", "coordinates": [ [ [ [ 2.980387, 43.358984 ], [ 2.985693, 43.359313 ], [ 2.990684, 43.365387 ], [ 2.992771, 43.3741 ], [ 2.990572, 43.37564 ], [ 2.990389, 43.379235 ], [ 2.990936, 43.383417 ], [ 2.99304, 43.385172 ], [ 2.9907537043438, 43.392196449609266 ], [ 2.994114, 43.391086 ], [ 2.994569, 43.383279 ], [ 2.994304, 43.382884 ], [ 2.994684, 43.379997 ], [ 2.994798, 43.378559 ], [ 2.994679, 43.375398 ], [ 2.995752, 43.366487 ], [ 2.992439, 43.361195 ], [ 2.989328, 43.359611 ], [ 2.986368072493853, 43.357126156529766 ], [ 2.98313, 43.356082 ], [ 2.982643, 43.355793 ], [ 2.982115, 43.355386 ], [ 2.980792, 43.351648 ], [ 2.982388, 43.348421 ], [ 2.986974, 43.347268 ], [ 2.988139810343403, 43.346316453886388 ], [ 2.985644, 43.34584 ], [ 2.977935, 43.347242 ], [ 2.976263, 43.347153 ], [ 2.974035, 43.346846 ], [ 2.972892, 43.35026 ], [ 2.97918, 43.355593 ], [ 2.980387, 43.358984 ] ] ], [ [ [ 2.979465, 43.383129 ], [ 2.971433, 43.379517 ], [ 2.971086, 43.379421 ], [ 2.970959, 43.37939 ], [ 2.970506, 43.379266 ], [ 2.970026, 43.379269 ], [ 2.969388, 43.379463 ], [ 2.966273, 43.380351 ], [ 2.95911, 43.380046 ], [ 2.956758, 43.376448 ], [ 2.953014, 43.372644 ], [ 2.951969, 43.372341 ], [ 2.951666, 43.372344 ], [ 2.951567, 43.372351 ], [ 2.951134, 43.372703 ], [ 2.950639, 43.373193 ], [ 2.942138, 43.373756 ], [ 2.939856, 43.376541 ], [ 2.939346, 43.382098 ], [ 2.940088, 43.383542 ], [ 2.940804, 43.383797 ], [ 2.94298131628644, 43.385680823521177 ], [ 2.945547994179023, 43.384131003514845 ], [ 2.945497, 43.384059 ], [ 2.948435, 43.381978 ], [ 2.953871, 43.380178 ], [ 2.957192, 43.380205 ], [ 2.95805, 43.381047 ], [ 2.960376, 43.383254 ], [ 2.968796, 43.382985 ], [ 2.970215, 43.382607 ], [ 2.970217635530357, 43.382608272670552 ], [ 2.970218, 43.382608 ], [ 2.970478, 43.382734 ], [ 2.973065, 43.383932 ], [ 2.973595, 43.384813 ], [ 2.973608959792746, 43.384844558738955 ], [ 2.975233282733844, 43.387719602275538 ], [ 2.979604, 43.392472 ], [ 2.982725, 43.392659 ], [ 2.979831, 43.386711 ], [ 2.979465, 43.383129 ] ] ], [ [ [ 3.017756, 43.406481 ], [ 3.022921, 43.412526 ], [ 3.021233, 43.416608 ], [ 3.021372, 43.420252 ], [ 3.022778, 43.421566 ], [ 3.022968, 43.421549 ], [ 3.023334, 43.421484 ], [ 3.023503071089233, 43.421483284203674 ], [ 3.023492, 43.421434 ], [ 3.023579, 43.421351 ], [ 3.023709, 43.42124 ], [ 3.024028, 43.420991 ], [ 3.024592, 43.420752 ], [ 3.026834458067453, 43.420456907303752 ], [ 3.026972379575326, 43.420132531044487 ], [ 3.026078, 43.419634 ], [ 3.024915, 43.418751 ], [ 3.024658, 43.417248 ], [ 3.02461, 43.416912 ], [ 3.025188, 43.415586 ], [ 3.02554, 43.415206 ], [ 3.028794, 43.41126 ], [ 3.02217, 43.406019 ], [ 3.020678, 43.402742 ], [ 3.020663, 43.40138 ], [ 3.014811, 43.395466 ], [ 3.009237, 43.401798 ], [ 3.009111, 43.402414 ], [ 3.006658326396397, 43.404318744532077 ], [ 3.008467, 43.405533 ], [ 3.011074, 43.410485 ], [ 3.012045494170507, 43.412271781944064 ], [ 3.017756, 43.406481 ] ] ], [ [ [ 3.040883830483546, 43.418346191319195 ], [ 3.041278, 43.417882 ], [ 3.042039, 43.41705 ], [ 3.043798, 43.4152 ], [ 3.044908, 43.409076 ], [ 3.051569, 43.403157 ], [ 3.053, 43.402954 ], [ 3.053264, 43.402843 ], [ 3.05451, 43.400948 ], [ 3.061022794463443, 43.395506619433029 ], [ 3.058746, 43.395876 ], [ 3.053552, 43.399819 ], [ 3.04655, 43.402873 ], [ 3.043478, 43.403819 ], [ 3.042294, 43.411242 ], [ 3.042483, 43.412479 ], [ 3.042347, 43.412692 ], [ 3.038695, 43.415393 ], [ 3.034821898501693, 43.41779515250893 ], [ 3.04076, 43.418414 ], [ 3.040883830483546, 43.418346191319195 ] ] ], [ [ [ 3.068653, 43.388969 ], [ 3.06961389103776, 43.384483385928291 ], [ 3.065816, 43.385821 ], [ 3.065094, 43.391175 ], [ 3.065094057194166, 43.391175297325539 ], [ 3.065264, 43.391142 ], [ 3.068653, 43.388969 ] ] ], [ [ [ 3.084961, 43.351311 ], [ 3.084306, 43.35253 ], [ 3.080836115182456, 43.353288839359521 ], [ 3.082282, 43.35555 ], [ 3.087358734066842, 43.355728219719516 ], [ 3.090421, 43.35472 ], [ 3.096631, 43.353955 ], [ 3.097697264881242, 43.354598196704231 ], [ 3.098985845157218, 43.351901421105552 ], [ 3.098097591301518, 43.350878321393999 ], [ 3.095238, 43.351434 ], [ 3.092201, 43.353368 ], [ 3.086431971085132, 43.349917241365034 ], [ 3.085016, 43.351179 ], [ 3.084961, 43.351311 ] ] ], [ [ [ 3.075102, 43.346841 ], [ 3.074677, 43.345821 ], [ 3.073706, 43.344102 ], [ 3.070152277497268, 43.345038674902653 ], [ 3.068902, 43.351156 ], [ 3.076075, 43.350974 ], [ 3.076478, 43.350738 ], [ 3.076516725896667, 43.350720065581839 ], [ 3.075482, 43.347346 ], [ 3.075102, 43.346841 ] ] ] ] } },
{ "type": "Feature", "properties": { "codgeo": "34225", "value": 660, "isochrone_group": 11.0, "nb_agences": 1 }, "geometry": { "type": "MultiPolygon", "coordinates": [ [ [ [ 2.986115, 43.363923 ], [ 2.989076, 43.366834 ], [ 2.988792, 43.373291 ], [ 2.988604, 43.37619 ], [ 2.987294, 43.379693 ], [ 2.986548, 43.380735 ], [ 2.978568, 43.382112 ], [ 2.973878, 43.379676 ], [ 2.969026, 43.377724 ], [ 2.968544, 43.377829 ], [ 2.96283, 43.371193 ], [ 2.961158, 43.368005 ], [ 2.959438, 43.368628 ], [ 2.952443, 43.369931 ], [ 2.949172, 43.370771 ], [ 2.943536, 43.366506 ], [ 2.939991, 43.365881 ], [ 2.937637, 43.36997 ], [ 2.935656, 43.374507 ], [ 2.93475732100368, 43.380292399362105 ], [ 2.939836073882468, 43.37675811653947 ], [ 2.939856, 43.376541 ], [ 2.942138, 43.373756 ], [ 2.944100641821287, 43.373626019133603 ], [ 2.951134, 43.372703 ], [ 2.951567, 43.372351 ], [ 2.951666, 43.372344 ], [ 2.951969, 43.372341 ], [ 2.953014, 43.372644 ], [ 2.956758, 43.376448 ], [ 2.95911, 43.380046 ], [ 2.966273, 43.380351 ], [ 2.969388, 43.379463 ], [ 2.970026, 43.379269 ], [ 2.970506, 43.379266 ], [ 2.971086, 43.379421 ], [ 2.971433, 43.379517 ], [ 2.979465, 43.383129 ], [ 2.979831, 43.386711 ], [ 2.982725, 43.392659 ], [ 2.98657, 43.393286 ], [ 2.988658, 43.392889 ], [ 2.990651, 43.392512 ], [ 2.99304, 43.385172 ], [ 2.990936, 43.383417 ], [ 2.990389, 43.379235 ], [ 2.990572, 43.37564 ], [ 2.992771, 43.3741 ], [ 2.990684, 43.365387 ], [ 2.985693, 43.359313 ], [ 2.981869463987936, 43.359075920590286 ], [ 2.980422, 43.359433 ], [ 2.977406, 43.357468 ], [ 2.972455, 43.350572 ], [ 2.97156, 43.349825 ], [ 2.971541, 43.349011 ], [ 2.971052816099026, 43.34377924883001 ], [ 2.970038, 43.343853 ], [ 2.967451, 43.345294 ], [ 2.967345, 43.348892 ], [ 2.973371, 43.35345 ], [ 2.976179, 43.359644 ], [ 2.978497, 43.362399 ], [ 2.986115, 43.363923 ] ] ], [ [ [ 3.021284044090909, 43.417946163073914 ], [ 3.021233, 43.416608 ], [ 3.022921, 43.412526 ], [ 3.017756, 43.406481 ], [ 3.014466874884213, 43.409816362383125 ], [ 3.014497, 43.41507 ], [ 3.017120463631148, 43.417465103914779 ], [ 3.021284044090909, 43.417946163073914 ] ] ], [ [ [ 3.047028334042224, 43.4126262590826 ], [ 3.047274, 43.409998 ], [ 3.054369, 43.406453 ], [ 3.057169, 43.401966 ], [ 3.059470285815344, 43.398274990824632 ], [ 3.058646961700444, 43.397491606108019 ], [ 3.05451, 43.400948 ], [ 3.053264, 43.402843 ], [ 3.053, 43.402954 ], [ 3.051569, 43.403157 ], [ 3.044908, 43.409076 ], [ 3.043828681242628, 43.415030727991123 ], [ 3.04614, 43.41315 ], [ 3.047028334042224, 43.4126262590826 ] ] ], [ [ [ 3.090628546624384, 43.352427433200255 ], [ 3.090751723864214, 43.352501111964948 ], [ 3.090767773218451, 43.352423249928343 ], [ 3.090628546624384, 43.352427433200255 ] ] ] ] } },
{ "type": "Feature", "properties": { "codgeo": "34225", "value": 720, "isochrone_group": 12.0, "nb_agences": 1 }, "geometry": { "type": "MultiPolygon", "coordinates": [ [ [ [ 2.967811, 43.353224 ], [ 2.973305, 43.359865 ], [ 2.967941, 43.365535 ], [ 2.966647, 43.365881 ], [ 2.965127, 43.366373 ], [ 2.964492, 43.366491 ], [ 2.961594, 43.367805 ], [ 2.954644, 43.367201 ], [ 2.953756, 43.366918 ], [ 2.946173, 43.362966 ], [ 2.943873, 43.358781 ], [ 2.942012, 43.357708 ], [ 2.941877, 43.357721 ], [ 2.940345, 43.359502 ], [ 2.934934, 43.366386 ], [ 2.933266, 43.368993 ], [ 2.931932, 43.373983 ], [ 2.931855793656081, 43.374100208290642 ], [ 2.935658724948973, 43.374500759165329 ], [ 2.935868469835465, 43.374020389377343 ], [ 2.937567, 43.369671 ], [ 2.939510503311887, 43.366715643567424 ], [ 2.939991, 43.365881 ], [ 2.943536, 43.366506 ], [ 2.949172, 43.370771 ], [ 2.952443, 43.369931 ], [ 2.959438, 43.368628 ], [ 2.961158, 43.368005 ], [ 2.96283, 43.371193 ], [ 2.968544, 43.377829 ], [ 2.969026, 43.377724 ], [ 2.973878, 43.379676 ], [ 2.978568, 43.382112 ], [ 2.986548, 43.380735 ], [ 2.987294, 43.379693 ], [ 2.988604, 43.37619 ], [ 2.988792, 43.373291 ], [ 2.989076, 43.366834 ], [ 2.986115, 43.363923 ], [ 2.979272011830663, 43.362554043059859 ], [ 2.977737, 43.362983 ], [ 2.976473, 43.363309 ], [ 2.975991, 43.362987 ], [ 2.975655, 43.362712 ], [ 2.975553, 43.362615 ], [ 2.975187, 43.362237 ], [ 2.975331, 43.360305 ], [ 2.972229, 43.353473 ], [ 2.965408, 43.348646 ], [ 2.964033, 43.346259 ], [ 2.963995, 43.346007 ], [ 2.96399, 43.345923 ], [ 2.964353, 43.344094 ], [ 2.964105887223967, 43.343059734244456 ], [ 2.963128, 43.343468 ], [ 2.962703, 43.343673 ], [ 2.961351, 43.344672 ], [ 2.960677, 43.346567 ], [ 2.96018, 43.349342 ], [ 2.960216, 43.34943 ], [ 2.96142, 43.350702 ], [ 2.963152, 43.351092 ], [ 2.967811, 43.353224 ] ] ], [ [ [ 3.049545, 43.409753 ], [ 3.05126, 43.410817 ], [ 3.052601, 43.411239 ], [ 3.055824, 43.411396 ], [ 3.058575, 43.403235 ], [ 3.05848, 43.403034 ], [ 3.057232592491061, 43.401864004643137 ], [ 3.057169, 43.401966 ], [ 3.054369, 43.406453 ], [ 3.047274, 43.409998 ], [ 3.047240325521101, 43.410358266663792 ], [ 3.048899, 43.409362 ], [ 3.049073, 43.409442 ], [ 3.049545, 43.409753 ] ] ] ] } },
{ "type": "Feature", "properties": { "codgeo": "34225", "value": 780, "isochrone_group": 13.0, "nb_agences": 1 }, "geometry": { "type": "MultiPolygon", "coordinates": [ [ [ [ 2.966469899101852, 43.365938324764372 ], [ 2.966647, 43.365881 ], [ 2.967941, 43.365535 ], [ 2.972622753752417, 43.36058616633553 ], [ 2.97291515822709, 43.359393769709882 ], [ 2.967811, 43.353224 ], [ 2.966997315598858, 43.352851650752712 ], [ 2.963127, 43.352101 ], [ 2.962531, 43.352177 ], [ 2.961454, 43.352197 ], [ 2.961007, 43.352171 ], [ 2.960595, 43.352075 ], [ 2.959603, 43.351786 ], [ 2.959563, 43.350447 ], [ 2.959124, 43.348848 ], [ 2.954037098221983, 43.34715346713498 ], [ 2.95375, 43.349766 ], [ 2.956536, 43.352046 ], [ 2.961186, 43.353975 ], [ 2.96253, 43.360896 ], [ 2.962504, 43.361039 ], [ 2.962585, 43.362012 ], [ 2.962894, 43.36366 ], [ 2.960100795898867, 43.367675230895365 ], [ 2.961594, 43.367805 ], [ 2.964492, 43.366491 ], [ 2.966469899101852, 43.365938324764372 ] ] ], [ [ [ 2.953194, 43.365531 ], [ 2.952189, 43.365026 ], [ 2.95163, 43.364911 ], [ 2.945611, 43.358375 ], [ 2.945499, 43.356899 ], [ 2.944843, 43.35502 ], [ 2.943648, 43.35248 ], [ 2.940734, 43.352955 ], [ 2.938476, 43.354331 ], [ 2.938373, 43.35442 ], [ 2.937907, 43.356116 ], [ 2.937936, 43.356209 ], [ 2.938297, 43.357924 ], [ 2.938359, 43.358553 ], [ 2.936707022014004, 43.364130320172897 ], [ 2.940345, 43.359502 ], [ 2.941877, 43.357721 ], [ 2.942012, 43.357708 ], [ 2.943873, 43.358781 ], [ 2.946173, 43.362966 ], [ 2.953756, 43.366918 ], [ 2.954644, 43.367201 ], [ 2.956319406207635, 43.367346603647398 ], [ 2.954332, 43.36653 ], [ 2.953851, 43.366063 ], [ 2.953555, 43.365785 ], [ 2.953194, 43.365531 ] ] ], [ [ [ 2.92814, 43.370971 ], [ 2.928016608708853, 43.37197762443941 ], [ 2.933266, 43.368993 ], [ 2.934934, 43.366386 ], [ 2.936193941711838, 43.36478307286189 ], [ 2.931487, 43.364392 ], [ 2.931104, 43.36408 ], [ 2.928833, 43.366873 ], [ 2.92814, 43.370971 ] ] ], [ [ [ 3.02375086005984, 43.282629759174107 ], [ 3.022263262104128, 43.281185603305509 ], [ 3.021917481724333, 43.281914132383385 ], [ 3.022006, 43.281978 ], [ 3.02375086005984, 43.282629759174107 ] ] ] ] } },
{ "type": "Feature", "properties": { "codgeo": "34225", "value": 840, "isochrone_group": 14.0, "nb_agences": 1 }, "geometry": { "type": "MultiPolygon", "coordinates": [ [ [ [ 2.931487, 43.364392 ], [ 2.936506, 43.364809 ], [ 2.938353537345267, 43.358497580486656 ], [ 2.938297, 43.357924 ], [ 2.937936, 43.356209 ], [ 2.937919, 43.356155 ], [ 2.937919078524023, 43.356154734577018 ], [ 2.937907, 43.356116 ], [ 2.938373, 43.35442 ], [ 2.938452652718061, 43.354351173864977 ], [ 2.938453, 43.35435 ], [ 2.938476, 43.354331 ], [ 2.939217532617038, 43.353879118298899 ], [ 2.938853, 43.352594 ], [ 2.938950929681406, 43.348671009503406 ], [ 2.936578, 43.349729 ], [ 2.934578, 43.353097 ], [ 2.934454, 43.355207 ], [ 2.929474, 43.361308 ], [ 2.925904, 43.361776 ], [ 2.924435, 43.366839 ], [ 2.924539903109005, 43.367116948408466 ], [ 2.928832098988244, 43.366878328060857 ], [ 2.928833, 43.366873 ], [ 2.931104, 43.36408 ], [ 2.931487, 43.364392 ] ] ], [ [ [ 2.95201, 43.352715 ], [ 2.944329355004613, 43.35353539877724 ], [ 2.944691, 43.35394 ], [ 2.944741, 43.354069 ], [ 2.945499, 43.356899 ], [ 2.945611, 43.358375 ], [ 2.95163, 43.364911 ], [ 2.952189, 43.365026 ], [ 2.953194, 43.365531 ], [ 2.953555, 43.365785 ], [ 2.953851, 43.366063 ], [ 2.954332, 43.36653 ], [ 2.959438, 43.368628 ], [ 2.962585, 43.362012 ], [ 2.962549, 43.361892 ], [ 2.962574378727843, 43.361884413607306 ], [ 2.962504, 43.361039 ], [ 2.96253, 43.360896 ], [ 2.961573929325334, 43.355972662842717 ], [ 2.954949, 43.353355 ], [ 2.953805, 43.353136 ], [ 2.953245, 43.353004 ], [ 2.95201, 43.352715 ] ] ] ] } },
{ "type": "Feature", "properties": { "codgeo": "34225", "value": 900, "isochrone_group": 15.0, "nb_agences": 1 }, "geometry": { "type": "MultiPolygon", "coordinates": [ [ [ [ 2.915435, 43.449812 ], [ 2.91545131944055, 43.449770745779738 ], [ 2.915212, 43.450033 ], [ 2.915435, 43.449812 ] ] ], [ [ [ 2.934454, 43.355207 ], [ 2.934578, 43.353097 ], [ 2.934581790992583, 43.353090615968483 ], [ 2.934253, 43.352681 ], [ 2.934029, 43.351294 ], [ 2.933997, 43.350686 ], [ 2.935575, 43.349333 ], [ 2.936831370847262, 43.345534434075695 ], [ 2.936482751634413, 43.344919265924553 ], [ 2.933063, 43.346457 ], [ 2.928039, 43.348875 ], [ 2.927662, 43.349017 ], [ 2.927291, 43.352586 ], [ 2.927021, 43.355829 ], [ 2.924612, 43.36132 ], [ 2.922298835099793, 43.362998659434489 ], [ 2.925636850101184, 43.362696748766318 ], [ 2.925904, 43.361776 ], [ 2.92790304296387, 43.361513940586235 ], [ 2.929203, 43.360646 ], [ 2.934454, 43.355207 ] ] ] ] } },
{ "type": "Feature", "properties": { "codgeo": "34225", "value": 960, "isochrone_group": 16.0, "nb_agences": 1 }, "geometry": { "type": "MultiPolygon", "coordinates": [ [ [ [ 2.911385, 43.452425 ], [ 2.909598, 43.452634 ], [ 2.907268, 43.453247 ], [ 2.903139, 43.455758 ], [ 2.911385, 43.452425 ] ] ], [ [ [ 2.915212, 43.450033 ], [ 2.914649, 43.45041 ], [ 2.91341, 43.45134 ], [ 2.912737, 43.4519 ], [ 2.915212, 43.450033 ] ] ], [ [ [ 2.925393, 43.352101 ], [ 2.924818, 43.350246 ], [ 2.924143475846217, 43.34540454363313 ], [ 2.920231, 43.347266 ], [ 2.919191, 43.347419 ], [ 2.918725, 43.347532 ], [ 2.918331, 43.347689 ], [ 2.917992, 43.34786 ], [ 2.918311, 43.349493 ], [ 2.918481, 43.350306 ], [ 2.918732, 43.350694 ], [ 2.921064, 43.357701 ], [ 2.920541252180505, 43.359993555302076 ], [ 2.925824469334518, 43.358556334945689 ], [ 2.927021, 43.355829 ], [ 2.927283989814332, 43.352670200118951 ], [ 2.927073, 43.352543 ], [ 2.926147, 43.352299 ], [ 2.925393, 43.352101 ] ] ], [ [ [ 2.915987940629629, 43.448952836664127 ], [ 2.915692, 43.449507 ], [ 2.915987940629631, 43.448952836664127 ], [ 2.915987940629629, 43.448952836664127 ] ] ], [ [ [ 2.915692, 43.449507 ], [ 2.915451319440552, 43.44977074577973 ], [ 2.91545131944055, 43.449770745779738 ], [ 2.915692, 43.449507 ] ] ] ] } },
{ "type": "Feature", "properties": { "codgeo": "34225", "value": 1020, "isochrone_group": 17.0, "nb_agences": 1 }, "geometry": { "type": "Polygon", "coordinates": [ [ [ 2.915553, 43.347904 ], [ 2.910783, 43.349452 ], [ 2.910468, 43.351282 ], [ 2.91023, 43.353009 ], [ 2.910666, 43.353077 ], [ 2.911949, 43.353394 ], [ 2.91529765847542, 43.355613800121667 ], [ 2.917686558093769, 43.35076138729179 ], [ 2.917262, 43.347931 ], [ 2.918725, 43.347532 ], [ 2.919289185319708, 43.347321943877745 ], [ 2.918256668716309, 43.345773046549539 ], [ 2.915553, 43.347904 ] ] ] } },
{ "type": "Feature", "properties": { "codgeo": "34225", "value": 1080, "isochrone_group": 18.0, "nb_agences": 1 }, "geometry": { "type": "Polygon", "coordinates": [ [ [ 2.904757, 43.351578 ], [ 2.901925113107614, 43.353215143568484 ], [ 2.902317, 43.355388 ], [ 2.903467, 43.35518 ], [ 2.90406, 43.355095 ], [ 2.906321, 43.354378 ], [ 2.910414322404214, 43.355249632306439 ], [ 2.910313969738614, 43.353786365001142 ], [ 2.908687, 43.353127 ], [ 2.908604094553611, 43.35208421970853 ], [ 2.907972, 43.35211 ], [ 2.906545, 43.351969 ], [ 2.90605, 43.351872 ], [ 2.904757, 43.351578 ] ] ] } }
]
}
