{
"type": "FeatureCollection",
"name": "BPCE",
"crs": { "type": "name", "properties": { "name": "urn:ogc:def:crs:OGC:1.3:CRS84" } },
"features": [
{ "type": "Feature", "properties": { "codgeo": "81120", "value": 60, "isochrone_group": 1.0, "nb_agences": 2 }, "geometry": { "type": "Polygon", "coordinates": [ [ [ 2.264449, 43.537161 ], [ 2.263971, 43.536172 ], [ 2.263237, 43.536316 ], [ 2.262889, 43.536406 ], [ 2.259995, 43.53748 ], [ 2.259918, 43.537832 ], [ 2.259896, 43.539894 ], [ 2.260101, 43.54019 ], [ 2.262558479867081, 43.540889305119336 ], [ 2.26328, 43.541454 ], [ 2.263634, 43.541521 ], [ 2.266257, 43.541084 ], [ 2.266376, 43.541034 ], [ 2.266533, 43.54092 ], [ 2.266619, 43.540194 ], [ 2.266378, 43.539926 ], [ 2.26544017829431, 43.538979529993817 ], [ 2.264449, 43.537161 ] ] ] } },
{ "type": "Feature", "properties": { "codgeo": "81120", "value": 120, "isochrone_group": 2.0, "nb_agences": 2 }, "geometry": { "type": "Polygon", "coordinates": [ [ [ 2.262661, 43.534002 ], [ 2.26194, 43.53446 ], [ 2.256463, 43.535793 ], [ 2.256301, 43.536115 ], [ 2.255697, 43.541924 ], [ 2.254983, 43.543276 ], [ 2.255187, 43.543573 ], [ 2.25966, 43.544342 ], [ 2.264784746116008, 43.545490294520647 ], [ 2.265181, 43.545811 ], [ 2.265574, 43.546094 ], [ 2.265718, 43.54609 ], [ 2.265859, 43.546048 ], [ 2.27171, 43.544824 ], [ 2.271877, 43.545107 ], [ 2.272186, 43.544923 ], [ 2.271683, 43.54261 ], [ 2.271607, 43.542258 ], [ 2.269578, 43.539344 ], [ 2.269500525250446, 43.539133467307032 ], [ 2.270007, 43.534916 ], [ 2.269956, 43.534646 ], [ 2.269911, 43.534641 ], [ 2.269748, 43.534692 ], [ 2.268079600265679, 43.535175530993499 ], [ 2.268053, 43.535049 ], [ 2.26636740012531, 43.535018557285348 ], [ 2.26302, 43.533969 ], [ 2.262661, 43.534002 ] ], [ [ 2.26544017829431, 43.538979529993817 ], [ 2.266378, 43.539926 ], [ 2.266619, 43.540194 ], [ 2.266533, 43.54092 ], [ 2.266376, 43.541034 ], [ 2.266257, 43.541084 ], [ 2.263634, 43.541521 ], [ 2.26328, 43.541454 ], [ 2.262558479867081, 43.540889305119336 ], [ 2.260101, 43.54019 ], [ 2.259896, 43.539894 ], [ 2.259918, 43.537832 ], [ 2.259995, 43.53748 ], [ 2.262889, 43.536406 ], [ 2.263237, 43.536316 ], [ 2.263971, 43.536172 ], [ 2.264449, 43.537161 ], [ 2.26544017829431, 43.538979529993817 ] ] ] } },
{ "type": "Feature", "properties": { "codgeo": "81120", "value": 180, "isochrone_group": 3.0, "nb_agences": 2 }, "geometry": { "type": "Polygon", "coordinates": [ [ [ 2.263928, 43.531483 ], [ 2.262731, 43.530726 ], [ 2.262372, 43.530758 ], [ 2.254153, 43.532363 ], [ 2.25383, 43.532521 ], [ 2.249329, 43.534942 ], [ 2.249294, 43.5353 ], [ 2.249496, 43.542826 ], [ 2.249365, 43.547185 ], [ 2.249564, 43.547485 ], [ 2.250454, 43.547508 ], [ 2.257353, 43.546566 ], [ 2.259790848365407, 43.546539045902598 ], [ 2.265784, 43.551912 ], [ 2.265989, 43.552208 ], [ 2.274326, 43.549282 ], [ 2.274636, 43.549099 ], [ 2.275227, 43.548485 ], [ 2.275412, 43.54827 ], [ 2.277567, 43.544071 ], [ 2.277392, 43.543757 ], [ 2.275931513519682, 43.543003847167995 ], [ 2.273914, 43.541756 ], [ 2.274006045781054, 43.541269299013493 ], [ 2.275920987456482, 43.53454056737143 ], [ 2.278007, 43.533393 ], [ 2.277935, 43.533041 ], [ 2.274071, 43.531476 ], [ 2.273731, 43.531358 ], [ 2.267220289067347, 43.53356581287116 ], [ 2.265804523925189, 43.533048624761719 ], [ 2.264557, 43.531959 ], [ 2.263928, 43.531483 ] ], [ [ 2.26636740012531, 43.535018557285348 ], [ 2.268053, 43.535049 ], [ 2.268079600265679, 43.535175530993499 ], [ 2.269748, 43.534692 ], [ 2.269911, 43.534641 ], [ 2.269956, 43.534646 ], [ 2.270007, 43.534916 ], [ 2.269500525250446, 43.539133467307032 ], [ 2.269578, 43.539344 ], [ 2.271607, 43.542258 ], [ 2.271683, 43.54261 ], [ 2.272186, 43.544923 ], [ 2.271877, 43.545107 ], [ 2.27171, 43.544824 ], [ 2.265859, 43.546048 ], [ 2.265718, 43.54609 ], [ 2.265574, 43.546094 ], [ 2.265181, 43.545811 ], [ 2.264784746116008, 43.545490294520647 ], [ 2.25966, 43.544342 ], [ 2.255187, 43.543573 ], [ 2.254983, 43.543276 ], [ 2.255697, 43.541924 ], [ 2.256301, 43.536115 ], [ 2.256463, 43.535793 ], [ 2.26194, 43.53446 ], [ 2.262661, 43.534002 ], [ 2.26302, 43.533969 ], [ 2.26636740012531, 43.535018557285348 ] ] ] } },
{ "type": "Feature", "properties": { "codgeo": "81120", "value": 240, "isochrone_group": 4.0, "nb_agences": 2 }, "geometry": { "type": "Polygon", "coordinates": [ [ [ 2.244199, 43.548499 ], [ 2.239451, 43.552072 ], [ 2.239522, 43.552425 ], [ 2.239764, 43.552376 ], [ 2.240007, 43.552327 ], [ 2.245059, 43.551725 ], [ 2.245371, 43.551624 ], [ 2.245684, 43.551523 ], [ 2.246019, 43.551341 ], [ 2.246322, 43.551173 ], [ 2.247255, 43.550485 ], [ 2.247897364220076, 43.54996459845416 ], [ 2.252475187952157, 43.54865773086717 ], [ 2.256150981828035, 43.549879501089848 ], [ 2.25880525206952, 43.551912616808806 ], [ 2.259012447537628, 43.552313482072449 ], [ 2.260408, 43.556098 ], [ 2.26055, 43.556261 ], [ 2.26066, 43.556367 ], [ 2.262233, 43.556643 ], [ 2.262263, 43.556644 ], [ 2.262407, 43.556398 ], [ 2.263678, 43.554762 ], [ 2.264261, 43.554121 ], [ 2.264687, 43.553667 ], [ 2.265174, 43.553092 ], [ 2.266125582391876, 43.552160064282276 ], [ 2.265989, 43.552208 ], [ 2.265784, 43.551912 ], [ 2.259790848365407, 43.546539045902598 ], [ 2.257353, 43.546566 ], [ 2.250454, 43.547508 ], [ 2.249564, 43.547485 ], [ 2.249365, 43.547185 ], [ 2.249496, 43.542826 ], [ 2.249294, 43.5353 ], [ 2.249329, 43.534942 ], [ 2.25383, 43.532521 ], [ 2.254153, 43.532363 ], [ 2.262372, 43.530758 ], [ 2.262731, 43.530726 ], [ 2.263928, 43.531483 ], [ 2.264557, 43.531959 ], [ 2.265804523925189, 43.533048624761719 ], [ 2.267220289067347, 43.53356581287116 ], [ 2.273731, 43.531358 ], [ 2.274071, 43.531476 ], [ 2.277935, 43.533041 ], [ 2.278007, 43.533393 ], [ 2.275920987456482, 43.53454056737143 ], [ 2.274006045781054, 43.541269299013493 ], [ 2.273914, 43.541756 ], [ 2.275931513519682, 43.543003847167995 ], [ 2.277392, 43.543757 ], [ 2.277567, 43.544071 ], [ 2.275412, 43.54827 ], [ 2.275227, 43.548485 ], [ 2.274636, 43.549099 ], [ 2.274326, 43.549282 ], [ 2.266469087628197, 43.552039505769457 ], [ 2.274645, 43.553778 ], [ 2.277455, 43.555557 ], [ 2.277805, 43.55547 ], [ 2.278004, 43.554899 ], [ 2.27801, 43.554032 ], [ 2.27755, 43.550374 ], [ 2.280288, 43.542634 ], [ 2.279608224182081, 43.536963842924195 ], [ 2.283374, 43.533733 ], [ 2.283695, 43.53357 ], [ 2.288537, 43.530589 ], [ 2.290029, 43.530102 ], [ 2.289917, 43.52976 ], [ 2.288425, 43.530247 ], [ 2.282334, 43.530589 ], [ 2.276202, 43.527789 ], [ 2.276034, 43.527959 ], [ 2.275867, 43.528129 ], [ 2.275391184743047, 43.528682767969265 ], [ 2.27536, 43.528671 ], [ 2.275143, 43.528904 ], [ 2.274926, 43.529136 ], [ 2.274766, 43.529345 ], [ 2.274619, 43.52954 ], [ 2.274457, 43.52977 ], [ 2.26732, 43.53114 ], [ 2.26434, 43.525074 ], [ 2.26422, 43.524735 ], [ 2.262007, 43.522538 ], [ 2.261649, 43.52257 ], [ 2.260157, 43.525778 ], [ 2.252654, 43.528553 ], [ 2.244565, 43.531539 ], [ 2.241263, 43.533941 ], [ 2.241254, 43.534301 ], [ 2.245962, 43.538463 ], [ 2.248126, 43.542171 ], [ 2.244504, 43.548307 ], [ 2.244199, 43.548499 ] ] ] } },
{ "type": "Feature", "properties": { "codgeo": "81120", "value": 300, "isochrone_group": 5.0, "nb_agences": 2 }, "geometry": { "type": "Polygon", "coordinates": [ [ [ 2.233735, 43.550471 ], [ 2.23141, 43.550674 ], [ 2.231064, 43.550773 ], [ 2.227968, 43.551075 ], [ 2.227709, 43.551069 ], [ 2.227511, 43.551083 ], [ 2.226631, 43.551186 ], [ 2.226313, 43.551206 ], [ 2.225685, 43.551261 ], [ 2.225056, 43.551316 ], [ 2.225088, 43.551675 ], [ 2.231318, 43.554363 ], [ 2.23167, 43.554436 ], [ 2.235455339164614, 43.552997422640438 ], [ 2.236474609182263, 43.552805252951742 ], [ 2.240988, 43.555176 ], [ 2.241289, 43.555373 ], [ 2.243904, 43.55415 ], [ 2.244196, 43.553941 ], [ 2.249256, 43.552019 ], [ 2.256146, 43.554447 ], [ 2.256180625912973, 43.554672008319898 ], [ 2.256407, 43.557747 ], [ 2.256326, 43.558098 ], [ 2.25772, 43.559595 ], [ 2.258039, 43.559762 ], [ 2.263457, 43.559305 ], [ 2.263759, 43.55911 ], [ 2.271874, 43.55735 ], [ 2.273812, 43.55887 ], [ 2.274141, 43.559016 ], [ 2.277669, 43.559328 ], [ 2.280698, 43.557622 ], [ 2.28186, 43.556856 ], [ 2.281757, 43.556511 ], [ 2.279742, 43.553257 ], [ 2.279718255336308, 43.553196994775853 ], [ 2.278936, 43.547385 ], [ 2.280288, 43.542634 ], [ 2.28451, 43.534773 ], [ 2.290077, 43.535193 ], [ 2.290361, 43.534972 ], [ 2.292002, 43.529039 ], [ 2.295744, 43.52498 ], [ 2.295743648301054, 43.52497959784634 ], [ 2.295946, 43.524803 ], [ 2.297899, 43.523068 ], [ 2.299073, 43.522095 ], [ 2.298844, 43.521818 ], [ 2.29767, 43.522791 ], [ 2.296495, 43.523764 ], [ 2.296291, 43.523942 ], [ 2.295986, 43.524251 ], [ 2.294884, 43.525252 ], [ 2.294782874093583, 43.525340113381716 ], [ 2.293411, 43.526441 ], [ 2.293064, 43.526679 ], [ 2.292889, 43.52682 ], [ 2.292725, 43.526998 ], [ 2.292582, 43.527156 ], [ 2.284229, 43.528582 ], [ 2.281593, 43.525083 ], [ 2.281462, 43.524748 ], [ 2.280049, 43.524021 ], [ 2.276023, 43.52569 ], [ 2.268538, 43.527282 ], [ 2.266641, 43.524374 ], [ 2.266353, 43.524135 ], [ 2.261161, 43.517004 ], [ 2.261149981042627, 43.516962009478554 ], [ 2.26093, 43.516105 ], [ 2.260925396654811, 43.516106173918985 ], [ 2.260696, 43.515232 ], [ 2.260592, 43.515071 ], [ 2.259635, 43.513481 ], [ 2.259299, 43.513611 ], [ 2.259412, 43.513903 ], [ 2.259843, 43.517619 ], [ 2.254556, 43.523759 ], [ 2.250775, 43.526203 ], [ 2.243892, 43.527813 ], [ 2.241767, 43.527567 ], [ 2.234159, 43.530353 ], [ 2.231916, 43.530443 ], [ 2.231882, 43.530801 ], [ 2.234836, 43.535449 ], [ 2.235106, 43.535687 ], [ 2.240121, 43.539912 ], [ 2.242689, 43.545721 ], [ 2.240499623629141, 43.549497204416483 ], [ 2.238335405345671, 43.551927655901487 ], [ 2.23409, 43.550412 ], [ 2.233735, 43.550471 ] ], [ [ 2.27755, 43.550374 ], [ 2.27801, 43.554032 ], [ 2.278004, 43.554899 ], [ 2.277805, 43.55547 ], [ 2.277455, 43.555557 ], [ 2.274645, 43.553778 ], [ 2.266288, 43.552001 ], [ 2.265174, 43.553092 ], [ 2.264687, 43.553667 ], [ 2.264261, 43.554121 ], [ 2.263678, 43.554762 ], [ 2.262407, 43.556398 ], [ 2.262263, 43.556644 ], [ 2.262233, 43.556643 ], [ 2.26066, 43.556367 ], [ 2.26055, 43.556261 ], [ 2.260408, 43.556098 ], [ 2.259012447537628, 43.552313482072449 ], [ 2.25880525206952, 43.551912616808806 ], [ 2.256150981828035, 43.549879501089848 ], [ 2.252475187952157, 43.54865773086717 ], [ 2.247897364220076, 43.54996459845416 ], [ 2.247255, 43.550485 ], [ 2.246322, 43.551173 ], [ 2.246019, 43.551341 ], [ 2.245684, 43.551523 ], [ 2.245371, 43.551624 ], [ 2.245059, 43.551725 ], [ 2.240007, 43.552327 ], [ 2.239764, 43.552376 ], [ 2.239522, 43.552425 ], [ 2.239451, 43.552072 ], [ 2.244199, 43.548499 ], [ 2.244504, 43.548307 ], [ 2.248126, 43.542171 ], [ 2.245962, 43.538463 ], [ 2.241254, 43.534301 ], [ 2.241263, 43.533941 ], [ 2.244565, 43.531539 ], [ 2.252654, 43.528553 ], [ 2.260157, 43.525778 ], [ 2.261649, 43.52257 ], [ 2.262007, 43.522538 ], [ 2.26422, 43.524735 ], [ 2.26434, 43.525074 ], [ 2.26732, 43.53114 ], [ 2.274457, 43.52977 ], [ 2.274619, 43.52954 ], [ 2.274766, 43.529345 ], [ 2.274926, 43.529136 ], [ 2.275143, 43.528904 ], [ 2.27536, 43.528671 ], [ 2.275391184743047, 43.528682767969265 ], [ 2.275867, 43.528129 ], [ 2.276034, 43.527959 ], [ 2.276202, 43.527789 ], [ 2.282334, 43.530589 ], [ 2.288425, 43.530247 ], [ 2.289917, 43.52976 ], [ 2.290029, 43.530102 ], [ 2.288537, 43.530589 ], [ 2.283695, 43.53357 ], [ 2.283374, 43.533733 ], [ 2.279608224182081, 43.536963842924195 ], [ 2.280288, 43.542634 ], [ 2.27755, 43.550374 ] ] ] } },
{ "type": "Feature", "properties": { "codgeo": "81120", "value": 360, "isochrone_group": 6.0, "nb_agences": 2 }, "geometry": { "type": "MultiPolygon", "coordinates": [ [ [ [ 2.222135, 43.547668 ], [ 2.214005, 43.551169 ], [ 2.214701, 43.554701 ], [ 2.217246, 43.555399 ], [ 2.224894, 43.557204 ], [ 2.228747, 43.558725 ], [ 2.229402, 43.558515 ], [ 2.229679, 43.558403 ], [ 2.237449, 43.558414 ], [ 2.2396, 43.559618 ], [ 2.240731, 43.559892 ], [ 2.241331, 43.559733 ], [ 2.242424, 43.556593 ], [ 2.243454, 43.555127 ], [ 2.251593, 43.558297 ], [ 2.251633747371037, 43.5583611333102 ], [ 2.252096, 43.562173 ], [ 2.25488, 43.564455 ], [ 2.257416, 43.563195 ], [ 2.262325837867492, 43.562093851349552 ], [ 2.263045, 43.56205 ], [ 2.269303, 43.563359 ], [ 2.272785, 43.567036 ], [ 2.279209, 43.565535 ], [ 2.282706, 43.564682 ], [ 2.285115, 43.557316 ], [ 2.287307, 43.556438 ], [ 2.287663, 43.556279 ], [ 2.287651615658088, 43.556253526663134 ], [ 2.288086, 43.556021 ], [ 2.288416, 43.555751 ], [ 2.286237196051649, 43.55308865447364 ], [ 2.286194, 43.552992 ], [ 2.280429, 43.546307 ], [ 2.280079, 43.543618 ], [ 2.280072005037731, 43.543393017800099 ], [ 2.278936, 43.547385 ], [ 2.279718255336308, 43.553196994775853 ], [ 2.279742, 43.553257 ], [ 2.281757, 43.556511 ], [ 2.28186, 43.556856 ], [ 2.280698, 43.557622 ], [ 2.277669, 43.559328 ], [ 2.274141, 43.559016 ], [ 2.273812, 43.55887 ], [ 2.271874, 43.55735 ], [ 2.263759, 43.55911 ], [ 2.263457, 43.559305 ], [ 2.258039, 43.559762 ], [ 2.25772, 43.559595 ], [ 2.256326, 43.558098 ], [ 2.256407, 43.557747 ], [ 2.256180625912973, 43.554672008319898 ], [ 2.256146, 43.554447 ], [ 2.249256, 43.552019 ], [ 2.244196, 43.553941 ], [ 2.243904, 43.55415 ], [ 2.241289, 43.555373 ], [ 2.240988, 43.555176 ], [ 2.236474609182263, 43.552805252951742 ], [ 2.235455339164614, 43.552997422640438 ], [ 2.23167, 43.554436 ], [ 2.231318, 43.554363 ], [ 2.225088, 43.551675 ], [ 2.225056, 43.551316 ], [ 2.225685, 43.551261 ], [ 2.226313, 43.551206 ], [ 2.226631, 43.551186 ], [ 2.227511, 43.551083 ], [ 2.227709, 43.551069 ], [ 2.227968, 43.551075 ], [ 2.231064, 43.550773 ], [ 2.23141, 43.550674 ], [ 2.233735, 43.550471 ], [ 2.23409, 43.550412 ], [ 2.238335405345671, 43.551927655901487 ], [ 2.240499623629141, 43.549497204416483 ], [ 2.242689, 43.545721 ], [ 2.240121, 43.539912 ], [ 2.235106, 43.535687 ], [ 2.234836, 43.535449 ], [ 2.231882, 43.530801 ], [ 2.231916, 43.530443 ], [ 2.234159, 43.530353 ], [ 2.241767, 43.527567 ], [ 2.243892, 43.527813 ], [ 2.250775, 43.526203 ], [ 2.254556, 43.523759 ], [ 2.259843, 43.517619 ], [ 2.259412, 43.513903 ], [ 2.259299, 43.513611 ], [ 2.259635, 43.513481 ], [ 2.260592, 43.515071 ], [ 2.260696, 43.515232 ], [ 2.260925396654811, 43.516106173918985 ], [ 2.26093, 43.516105 ], [ 2.261149981042627, 43.516962009478554 ], [ 2.261161, 43.517004 ], [ 2.266353, 43.524135 ], [ 2.266641, 43.524374 ], [ 2.268538, 43.527282 ], [ 2.276023, 43.52569 ], [ 2.280049, 43.524021 ], [ 2.281462, 43.524748 ], [ 2.281593, 43.525083 ], [ 2.284229, 43.528582 ], [ 2.292582, 43.527156 ], [ 2.292725, 43.526998 ], [ 2.292889, 43.52682 ], [ 2.293064, 43.526679 ], [ 2.293411, 43.526441 ], [ 2.294782874093583, 43.525340113381716 ], [ 2.294884, 43.525252 ], [ 2.295986, 43.524251 ], [ 2.296291, 43.523942 ], [ 2.296495, 43.523764 ], [ 2.29767, 43.522791 ], [ 2.298844, 43.521818 ], [ 2.299073, 43.522095 ], [ 2.297899, 43.523068 ], [ 2.295946, 43.524803 ], [ 2.295743648301054, 43.52497959784634 ], [ 2.295744, 43.52498 ], [ 2.292002, 43.529039 ], [ 2.291357721762681, 43.531368374029256 ], [ 2.29189, 43.531157 ], [ 2.292191, 43.531002 ], [ 2.292659, 43.530686 ], [ 2.293064, 43.530302 ], [ 2.2971, 43.525941 ], [ 2.303808218062231, 43.521788964230481 ], [ 2.305378341108093, 43.521006325343407 ], [ 2.307614, 43.520266 ], [ 2.307848, 43.52019 ], [ 2.306727, 43.516769 ], [ 2.299, 43.517258 ], [ 2.296389, 43.519737 ], [ 2.294537, 43.523412 ], [ 2.286507, 43.521971 ], [ 2.280495, 43.518712 ], [ 2.280109, 43.51872 ], [ 2.279307, 43.519011 ], [ 2.278959, 43.519639 ], [ 2.270285, 43.521938 ], [ 2.265965, 43.516113 ], [ 2.267007, 43.513416 ], [ 2.264075, 43.505264 ], [ 2.261537, 43.502711 ], [ 2.260622, 43.503489 ], [ 2.260223, 43.503874 ], [ 2.259846, 43.504371 ], [ 2.259614, 43.504851 ], [ 2.255214, 43.509435 ], [ 2.252072, 43.50977 ], [ 2.250127, 43.510994 ], [ 2.250101, 43.511096 ], [ 2.251389, 43.519374 ], [ 2.247484, 43.523576 ], [ 2.240445, 43.523491 ], [ 2.239464, 43.523019 ], [ 2.238795, 43.522674 ], [ 2.230523, 43.524796 ], [ 2.229623, 43.524062 ], [ 2.227748, 43.522904 ], [ 2.225856, 43.525967 ], [ 2.226039, 43.530451 ], [ 2.228701, 43.536977 ], [ 2.228782, 43.537606 ], [ 2.228924, 43.538133 ], [ 2.229422, 43.538854 ], [ 2.231626391651941, 43.540337283807453 ], [ 2.23292928528422, 43.54626167081873 ], [ 2.232258, 43.547532 ], [ 2.231489522471195, 43.547720822138814 ], [ 2.227391986325299, 43.547916314131129 ], [ 2.22572, 43.547337 ], [ 2.222135, 43.547668 ] ] ], [ [ [ 2.285385149731728, 43.534839025307583 ], [ 2.28451, 43.534773 ], [ 2.283900633331523, 43.535907588200118 ], [ 2.285385149731728, 43.534839025307583 ] ] ] ] } },
{ "type": "Feature", "properties": { "codgeo": "81120", "value": 420, "isochrone_group": 7.0, "nb_agences": 2 }, "geometry": { "type": "MultiPolygon", "coordinates": [ [ [ [ 2.209867, 43.550878 ], [ 2.206385, 43.551792 ], [ 2.205992, 43.552144 ], [ 2.204336, 43.55385 ], [ 2.204558, 43.554573 ], [ 2.206233, 43.555736 ], [ 2.206367, 43.555727 ], [ 2.209205968080954, 43.555704057655355 ], [ 2.217209, 43.558704 ], [ 2.217498249947529, 43.558744599971988 ], [ 2.221219, 43.560729 ], [ 2.226598, 43.560517 ], [ 2.226754, 43.560528 ], [ 2.227458, 43.560421 ], [ 2.228489, 43.560313 ], [ 2.228905, 43.560267 ], [ 2.23654, 43.561874 ], [ 2.239259, 43.564234 ], [ 2.242895201534536, 43.568073453113008 ], [ 2.243527, 43.569544 ], [ 2.24561, 43.57248 ], [ 2.250335, 43.56982 ], [ 2.252947, 43.567342 ], [ 2.256995385307871, 43.567723852704582 ], [ 2.258159, 43.567066 ], [ 2.262381, 43.565504 ], [ 2.268457, 43.564979 ], [ 2.26978, 43.568327 ], [ 2.269780239491966, 43.568327225092858 ], [ 2.27102, 43.567837 ], [ 2.277729, 43.570905 ], [ 2.27832, 43.571334 ], [ 2.280983, 43.573757 ], [ 2.281372759068967, 43.573328780692144 ], [ 2.281373, 43.573329 ], [ 2.282797, 43.571764 ], [ 2.283181, 43.571173 ], [ 2.283382, 43.570659 ], [ 2.28351, 43.569017 ], [ 2.282844, 43.565286 ], [ 2.285115, 43.557316 ], [ 2.282706, 43.564682 ], [ 2.279209, 43.565535 ], [ 2.272785, 43.567036 ], [ 2.269303, 43.563359 ], [ 2.263045, 43.56205 ], [ 2.262325837867492, 43.562093851349552 ], [ 2.257416, 43.563195 ], [ 2.25488, 43.564455 ], [ 2.252096, 43.562173 ], [ 2.251633747371037, 43.5583611333102 ], [ 2.251593, 43.558297 ], [ 2.243454, 43.555127 ], [ 2.242424, 43.556593 ], [ 2.241331, 43.559733 ], [ 2.240731, 43.559892 ], [ 2.2396, 43.559618 ], [ 2.237449, 43.558414 ], [ 2.229679, 43.558403 ], [ 2.229402, 43.558515 ], [ 2.228747, 43.558725 ], [ 2.224894, 43.557204 ], [ 2.217246, 43.555399 ], [ 2.214701, 43.554701 ], [ 2.214005, 43.551169 ], [ 2.222135, 43.547668 ], [ 2.22572, 43.547337 ], [ 2.227391986325299, 43.547916314131129 ], [ 2.231489522471195, 43.547720822138814 ], [ 2.232258, 43.547532 ], [ 2.23292928528422, 43.54626167081873 ], [ 2.231626391651941, 43.540337283807453 ], [ 2.229422, 43.538854 ], [ 2.229018885227838, 43.538270373994521 ], [ 2.224348, 43.542825 ], [ 2.223712608519269, 43.543241 ], [ 2.223669, 43.543241 ], [ 2.223602602037336, 43.543313022836124 ], [ 2.221336, 43.544797 ], [ 2.215462, 43.549213 ], [ 2.209867, 43.550878 ] ] ], [ [ [ 2.288086, 43.556021 ], [ 2.287651615658088, 43.556253526663134 ], [ 2.287651615658089, 43.556253526663134 ], [ 2.288086, 43.556021 ] ] ], [ [ [ 2.290324, 43.554752 ], [ 2.290456, 43.554631 ], [ 2.290391454152952, 43.553206893215936 ], [ 2.290459, 43.551971 ], [ 2.29033, 43.551851 ], [ 2.287888, 43.551842 ], [ 2.28765, 43.551894 ], [ 2.284993064142464, 43.551599414361242 ], [ 2.286194, 43.552992 ], [ 2.286237196051649, 43.55308865447364 ], [ 2.288416, 43.555751 ], [ 2.288086, 43.556021 ], [ 2.290324, 43.554752 ] ] ], [ [ [ 2.310676, 43.522021 ], [ 2.310801, 43.52203 ], [ 2.311291, 43.521957 ], [ 2.311332, 43.521944 ], [ 2.315131, 43.517947 ], [ 2.314369, 43.514428 ], [ 2.310125, 43.514903 ], [ 2.308993, 43.515456 ], [ 2.301125, 43.516155 ], [ 2.298293, 43.513932 ], [ 2.297367353042193, 43.514923395225352 ], [ 2.296434, 43.515394 ], [ 2.296101, 43.515634 ], [ 2.295785, 43.51592 ], [ 2.295347, 43.516581 ], [ 2.290806968414365, 43.51995178404151 ], [ 2.285126, 43.516456 ], [ 2.283901, 43.51533 ], [ 2.283414, 43.514948 ], [ 2.282063, 43.514564 ], [ 2.280614, 43.51526 ], [ 2.279145, 43.5158 ], [ 2.271726, 43.512892 ], [ 2.271443, 43.51256 ], [ 2.269812, 43.511585 ], [ 2.267926, 43.502855 ], [ 2.267992, 43.50267 ], [ 2.268523, 43.500969 ], [ 2.26807, 43.499431 ], [ 2.267687, 43.498508 ], [ 2.26701, 43.497907 ], [ 2.266439, 43.497682 ], [ 2.265077, 43.497697 ], [ 2.264326, 43.498115 ], [ 2.263924, 43.498576 ], [ 2.263066, 43.500024 ], [ 2.262045, 43.501713 ], [ 2.260223, 43.503874 ], [ 2.260622, 43.503489 ], [ 2.261537, 43.502711 ], [ 2.264075, 43.505264 ], [ 2.267007, 43.513416 ], [ 2.265965, 43.516113 ], [ 2.270285, 43.521938 ], [ 2.278959, 43.519639 ], [ 2.279307, 43.519011 ], [ 2.280109, 43.51872 ], [ 2.280495, 43.518712 ], [ 2.286507, 43.521971 ], [ 2.294537, 43.523412 ], [ 2.296389, 43.519737 ], [ 2.299, 43.517258 ], [ 2.306727, 43.516769 ], [ 2.307848, 43.52019 ], [ 2.307614, 43.520266 ], [ 2.305378341108093, 43.521006325343407 ], [ 2.304894940635838, 43.521247279712306 ], [ 2.310676, 43.522021 ] ] ], [ [ [ 2.251884, 43.507817 ], [ 2.245173, 43.507041 ], [ 2.244295, 43.507062 ], [ 2.243663, 43.507208 ], [ 2.243034, 43.509093 ], [ 2.243191, 43.509483 ], [ 2.244062, 43.510786 ], [ 2.246778, 43.512241 ], [ 2.248963, 43.515103 ], [ 2.244648, 43.521729 ], [ 2.237074, 43.519708 ], [ 2.235917, 43.519695 ], [ 2.235279, 43.519906 ], [ 2.226629978906618, 43.520436541921043 ], [ 2.226456270064332, 43.520352503397461 ], [ 2.223928, 43.517682 ], [ 2.220812, 43.519486 ], [ 2.220694, 43.522248 ], [ 2.221336, 43.52579 ], [ 2.222971, 43.529634 ], [ 2.223525, 43.53076 ], [ 2.225354, 43.530886 ], [ 2.226986478400613, 43.532773781383341 ], [ 2.226039, 43.530451 ], [ 2.225856, 43.525967 ], [ 2.227748, 43.522904 ], [ 2.229623, 43.524062 ], [ 2.230523, 43.524796 ], [ 2.238795, 43.522674 ], [ 2.239464, 43.523019 ], [ 2.240445, 43.523491 ], [ 2.247484, 43.523576 ], [ 2.251389, 43.519374 ], [ 2.250101, 43.511096 ], [ 2.250127, 43.510994 ], [ 2.252072, 43.50977 ], [ 2.255214, 43.509435 ], [ 2.259614, 43.504851 ], [ 2.259846, 43.504371 ], [ 2.251884, 43.507817 ] ] ] ] } },
{ "type": "Feature", "properties": { "codgeo": "81120", "value": 480, "isochrone_group": 8.0, "nb_agences": 2 }, "geometry": { "type": "MultiPolygon", "coordinates": [ [ [ [ 2.208592, 43.542414 ], [ 2.207936, 43.543273 ], [ 2.20767, 43.543644 ], [ 2.207421, 43.544112 ], [ 2.204967, 43.548028 ], [ 2.196682, 43.551432 ], [ 2.193714, 43.551625 ], [ 2.192308, 43.553171 ], [ 2.192292, 43.55332 ], [ 2.193135, 43.555178 ], [ 2.19425, 43.555755 ], [ 2.200728, 43.556707 ], [ 2.203431, 43.557701 ], [ 2.206836, 43.558869 ], [ 2.215129, 43.562036 ], [ 2.217779, 43.564471 ], [ 2.222973, 43.564444 ], [ 2.22362, 43.564499 ], [ 2.225095, 43.564549 ], [ 2.230808, 43.565383 ], [ 2.235489, 43.568096 ], [ 2.237059743491903, 43.572472024983917 ], [ 2.241281, 43.57002 ], [ 2.243309527921162, 43.569037821359146 ], [ 2.242895201534536, 43.568073453113008 ], [ 2.239259, 43.564234 ], [ 2.23654, 43.561874 ], [ 2.228905, 43.560267 ], [ 2.228489, 43.560313 ], [ 2.227458, 43.560421 ], [ 2.226754, 43.560528 ], [ 2.226598, 43.560517 ], [ 2.221219, 43.560729 ], [ 2.217498249947529, 43.558744599971988 ], [ 2.217209, 43.558704 ], [ 2.209205968080954, 43.555704057655355 ], [ 2.206367, 43.555727 ], [ 2.206233, 43.555736 ], [ 2.204558, 43.554573 ], [ 2.204336, 43.55385 ], [ 2.205992, 43.552144 ], [ 2.206385, 43.551792 ], [ 2.209867, 43.550878 ], [ 2.215462, 43.549213 ], [ 2.221336, 43.544797 ], [ 2.223602602037336, 43.543313022836124 ], [ 2.223669, 43.543241 ], [ 2.223712608519269, 43.543241 ], [ 2.224348, 43.542825 ], [ 2.230495, 43.536831 ], [ 2.225354, 43.530886 ], [ 2.223525, 43.53076 ], [ 2.222971, 43.529634 ], [ 2.221336, 43.52579 ], [ 2.220694, 43.522248 ], [ 2.220812, 43.519486 ], [ 2.223928, 43.517682 ], [ 2.226456270064332, 43.520352503397461 ], [ 2.226629978906618, 43.520436541921043 ], [ 2.235279, 43.519906 ], [ 2.235917, 43.519695 ], [ 2.237074, 43.519708 ], [ 2.244648, 43.521729 ], [ 2.248963, 43.515103 ], [ 2.246778, 43.512241 ], [ 2.244062, 43.510786 ], [ 2.243191, 43.509483 ], [ 2.243034, 43.509093 ], [ 2.243663, 43.507208 ], [ 2.244295, 43.507062 ], [ 2.245173, 43.507041 ], [ 2.251884, 43.507817 ], [ 2.259846, 43.504371 ], [ 2.260223, 43.503874 ], [ 2.262045, 43.501713 ], [ 2.263066, 43.500024 ], [ 2.263924, 43.498576 ], [ 2.258299, 43.503325 ], [ 2.258208884493714, 43.503419806203297 ], [ 2.256465, 43.50415 ], [ 2.256515, 43.504635 ], [ 2.247927, 43.507321 ], [ 2.247696, 43.506804 ], [ 2.247493768431065, 43.506721135681246 ], [ 2.244742, 43.504975 ], [ 2.244077, 43.504274 ], [ 2.243356, 43.504315 ], [ 2.234838, 43.505347 ], [ 2.234322, 43.506223 ], [ 2.234652, 43.508943 ], [ 2.233243, 43.515687 ], [ 2.229583606834326, 43.51771918977861 ], [ 2.227072858120242, 43.517940519629974 ], [ 2.22291, 43.515924 ], [ 2.222229, 43.514833 ], [ 2.221648, 43.514351 ], [ 2.21951, 43.512083 ], [ 2.219027, 43.511572 ], [ 2.218634, 43.511303 ], [ 2.217506, 43.510694 ], [ 2.216597, 43.511512 ], [ 2.215796, 43.513862 ], [ 2.215579, 43.52258 ], [ 2.214571, 43.524489 ], [ 2.215545, 43.52618 ], [ 2.217265, 43.527823 ], [ 2.219153, 43.531868 ], [ 2.220285033215657, 43.535407904679445 ], [ 2.219775, 43.540578 ], [ 2.219928993823934, 43.541556692455963 ], [ 2.211763, 43.544118 ], [ 2.210746, 43.542693 ], [ 2.208592, 43.542414 ] ] ], [ [ [ 2.255396429910978, 43.568696423013819 ], [ 2.255688, 43.568464 ], [ 2.256231, 43.568156 ], [ 2.256838740874487, 43.567709077653291 ], [ 2.253547243802419, 43.567398616330202 ], [ 2.255396429910978, 43.568696423013819 ] ] ], [ [ [ 2.276154, 43.570901 ], [ 2.276154185604761, 43.570901142210651 ], [ 2.27666, 43.570592 ], [ 2.276661, 43.570591 ], [ 2.276824240603218, 43.570491256993698 ], [ 2.276216530127808, 43.57021335332125 ], [ 2.276154, 43.570901 ] ] ], [ [ [ 2.285733031907509, 43.569430297023104 ], [ 2.285763, 43.569185 ], [ 2.282844, 43.565286 ], [ 2.283503321771106, 43.568979587879888 ], [ 2.285733031907509, 43.569430297023104 ] ] ], [ [ [ 2.280429, 43.546307 ], [ 2.284574452139732, 43.551553001090113 ], [ 2.284574452139733, 43.551553001090113 ], [ 2.280429, 43.546307 ] ] ], [ [ [ 2.306896279936418, 43.522644877726123 ], [ 2.307487661962893, 43.522623196378788 ], [ 2.308662, 43.522986 ], [ 2.311968, 43.523809 ], [ 2.313588, 43.523693 ], [ 2.313941, 43.523569 ], [ 2.317047, 43.522604 ], [ 2.321947, 43.5165 ], [ 2.32362, 43.516144 ], [ 2.322872, 43.512623 ], [ 2.319736, 43.51117 ], [ 2.311327, 43.511995 ], [ 2.310697, 43.511141 ], [ 2.310344, 43.510458 ], [ 2.310006, 43.510385 ], [ 2.308995, 43.510392 ], [ 2.308376, 43.510521 ], [ 2.308051, 43.510643 ], [ 2.299658, 43.512321 ], [ 2.298972, 43.512095 ], [ 2.297119, 43.511804 ], [ 2.293804, 43.51321 ], [ 2.287226, 43.511422 ], [ 2.283632, 43.511205 ], [ 2.280318312568101, 43.512073005154939 ], [ 2.276271836902897, 43.512533448197765 ], [ 2.272679, 43.51151 ], [ 2.270965, 43.503097 ], [ 2.271136, 43.502195 ], [ 2.270586, 43.496965 ], [ 2.267292, 43.495511 ], [ 2.264326, 43.498115 ], [ 2.265077, 43.497697 ], [ 2.266439, 43.497682 ], [ 2.26701, 43.497907 ], [ 2.267687, 43.498508 ], [ 2.26807, 43.499431 ], [ 2.268523, 43.500969 ], [ 2.267992, 43.50267 ], [ 2.267926, 43.502855 ], [ 2.269812, 43.511585 ], [ 2.271443, 43.51256 ], [ 2.271726, 43.512892 ], [ 2.279145, 43.5158 ], [ 2.280614, 43.51526 ], [ 2.282063, 43.514564 ], [ 2.283414, 43.514948 ], [ 2.283901, 43.51533 ], [ 2.285126, 43.516456 ], [ 2.290806968414365, 43.51995178404151 ], [ 2.295347, 43.516581 ], [ 2.295785, 43.51592 ], [ 2.296101, 43.515634 ], [ 2.296434, 43.515394 ], [ 2.297367353042193, 43.514923395225352 ], [ 2.298293, 43.513932 ], [ 2.301125, 43.516155 ], [ 2.308993, 43.515456 ], [ 2.310125, 43.514903 ], [ 2.314369, 43.514428 ], [ 2.315131, 43.517947 ], [ 2.311332, 43.521944 ], [ 2.311291, 43.521957 ], [ 2.310801, 43.52203 ], [ 2.310676, 43.522021 ], [ 2.304721, 43.521224 ], [ 2.300500600080258, 43.523836206589863 ], [ 2.306896279936418, 43.522644877726123 ] ] ] ] } },
{ "type": "Feature", "properties": { "codgeo": "81120", "value": 540, "isochrone_group": 9.0, "nb_agences": 2 }, "geometry": { "type": "MultiPolygon", "coordinates": [ [ [ [ 2.195939, 43.560392 ], [ 2.202199, 43.563059 ], [ 2.204276, 43.564104 ], [ 2.212653, 43.565707 ], [ 2.213193, 43.568368 ], [ 2.213406, 43.568515 ], [ 2.214524, 43.568782 ], [ 2.215724085857887, 43.568832386536975 ], [ 2.220933, 43.566021 ], [ 2.222423663239077, 43.564446855620432 ], [ 2.217779, 43.564471 ], [ 2.215129, 43.562036 ], [ 2.206836, 43.558869 ], [ 2.203431, 43.557701 ], [ 2.200728, 43.556707 ], [ 2.198540126923852, 43.556385472496366 ], [ 2.194331, 43.556359 ], [ 2.191073598386205, 43.557384427466744 ], [ 2.195939, 43.560392 ] ] ], [ [ [ 2.196682, 43.551432 ], [ 2.199970490657937, 43.550080880844938 ], [ 2.19694, 43.548773 ], [ 2.193375, 43.549275 ], [ 2.192585938502689, 43.549391725073576 ], [ 2.193858, 43.550319 ], [ 2.196608268517743, 43.551436794533728 ], [ 2.196682, 43.551432 ] ] ], [ [ [ 2.235489, 43.568096 ], [ 2.235086563632171, 43.567862757131827 ], [ 2.235213, 43.568349 ], [ 2.235600640744929, 43.568407026397075 ], [ 2.235489, 43.568096 ] ] ], [ [ [ 2.28288089129473, 43.565156531211365 ], [ 2.282880891294732, 43.565156531211365 ], [ 2.285115, 43.557316 ], [ 2.28288089129473, 43.565156531211365 ] ] ], [ [ [ 2.288958, 43.553111 ], [ 2.285838, 43.553152 ], [ 2.288825, 43.553116 ], [ 2.288958, 43.553111 ] ] ], [ [ [ 2.306151, 43.524391 ], [ 2.30672, 43.524075 ], [ 2.308794941908692, 43.523421456366918 ], [ 2.312649, 43.524193 ], [ 2.319597896698807, 43.523021247445833 ], [ 2.323576, 43.523387 ], [ 2.324825, 43.523626 ], [ 2.329478, 43.516333 ], [ 2.33234366014837, 43.514485808766828 ], [ 2.33146, 43.513813 ], [ 2.330353, 43.514507 ], [ 2.329404, 43.513123 ], [ 2.329079, 43.510813 ], [ 2.330319, 43.510398 ], [ 2.331488, 43.51001 ], [ 2.332682681459353, 43.509229302883284 ], [ 2.325158, 43.507934 ], [ 2.321872, 43.504698 ], [ 2.32173, 43.504559 ], [ 2.319211, 43.50713 ], [ 2.314952279120391, 43.511639326879013 ], [ 2.319736, 43.51117 ], [ 2.322872, 43.512623 ], [ 2.32362, 43.516144 ], [ 2.321947, 43.5165 ], [ 2.317047, 43.522604 ], [ 2.313941, 43.523569 ], [ 2.313588, 43.523693 ], [ 2.311968, 43.523809 ], [ 2.308662, 43.522986 ], [ 2.307487661962893, 43.522623196378788 ], [ 2.306896279936418, 43.522644877726123 ], [ 2.299224, 43.524074 ], [ 2.297759, 43.525289 ], [ 2.2971, 43.525941 ], [ 2.304299, 43.524276 ], [ 2.305919, 43.524522 ], [ 2.306151, 43.524391 ] ] ], [ [ [ 2.310001, 43.508204 ], [ 2.30973894923302, 43.507812332724626 ], [ 2.309411, 43.507267 ], [ 2.30902, 43.50655 ], [ 2.30586, 43.508275 ], [ 2.298972, 43.512095 ], [ 2.299658, 43.512321 ], [ 2.308051, 43.510643 ], [ 2.308376, 43.510521 ], [ 2.308995, 43.510392 ], [ 2.310006, 43.510385 ], [ 2.310344, 43.510458 ], [ 2.310697, 43.511141 ], [ 2.311327, 43.511995 ], [ 2.312804409146253, 43.511850052616751 ], [ 2.310563, 43.509687 ], [ 2.310349, 43.508842 ], [ 2.310001, 43.508204 ] ] ], [ [ [ 2.290576, 43.504203 ], [ 2.290333, 43.503964 ], [ 2.288022, 43.504025 ], [ 2.286107, 43.506344 ], [ 2.286041, 43.506477 ], [ 2.284524, 43.509076 ], [ 2.279804162375277, 43.511806708020188 ], [ 2.278716819672142, 43.512255236885238 ], [ 2.280318312568101, 43.512073005154939 ], [ 2.283632, 43.511205 ], [ 2.287226, 43.511422 ], [ 2.293804, 43.51321 ], [ 2.297119, 43.511804 ], [ 2.298972, 43.512095 ], [ 2.295995, 43.509576 ], [ 2.291451, 43.505122 ], [ 2.290576, 43.504203 ] ] ], [ [ [ 2.273008206466627, 43.508795260326593 ], [ 2.271613237143608, 43.50490485645404 ], [ 2.271136, 43.502195 ], [ 2.270965, 43.503097 ], [ 2.272679, 43.51151 ], [ 2.276271836902897, 43.512533448197765 ], [ 2.277629909915526, 43.512378914889773 ], [ 2.276685142885645, 43.51209927054196 ], [ 2.274687, 43.51048 ], [ 2.273008206466627, 43.508795260326593 ] ] ], [ [ [ 2.268674, 43.491986 ], [ 2.267255, 43.492341 ], [ 2.266682, 43.493032 ], [ 2.266618, 43.493135 ], [ 2.26574, 43.494377 ], [ 2.264326, 43.498115 ], [ 2.267292, 43.495511 ], [ 2.270586, 43.496965 ], [ 2.271136, 43.502195 ], [ 2.27433, 43.496355 ], [ 2.273609, 43.492883 ], [ 2.268674, 43.491986 ] ] ], [ [ [ 2.255837, 43.500554 ], [ 2.255787, 43.502254 ], [ 2.255894, 43.503172 ], [ 2.254870951301978, 43.505149195948178 ], [ 2.256515, 43.504635 ], [ 2.256465, 43.50415 ], [ 2.258208884493714, 43.503419806203297 ], [ 2.258299, 43.503325 ], [ 2.263924, 43.498576 ], [ 2.264326, 43.498115 ], [ 2.256901, 43.498435 ], [ 2.25615, 43.499561 ], [ 2.255837, 43.500554 ] ] ], [ [ [ 2.239951, 43.50377 ], [ 2.232406, 43.503316 ], [ 2.231707, 43.50321 ], [ 2.231484, 43.503195 ], [ 2.231482960044024, 43.503205260693228 ], [ 2.231187, 43.503199 ], [ 2.230563, 43.503306 ], [ 2.229964, 43.503558 ], [ 2.229478, 43.503898 ], [ 2.229169, 43.50423 ], [ 2.228859, 43.504737 ], [ 2.228524, 43.505295 ], [ 2.231233, 43.507665 ], [ 2.229511373429099, 43.511609437765784 ], [ 2.227228558498525, 43.51503412022106 ], [ 2.227218, 43.515036 ], [ 2.221813, 43.512061 ], [ 2.219525, 43.509281 ], [ 2.215001, 43.506717 ], [ 2.212878, 43.504984 ], [ 2.212654, 43.505024 ], [ 2.211773, 43.505675 ], [ 2.211407, 43.506502 ], [ 2.211159, 43.507068 ], [ 2.210907, 43.507738 ], [ 2.211867, 43.515982 ], [ 2.211957, 43.520225 ], [ 2.211563, 43.525144 ], [ 2.211683, 43.528742 ], [ 2.205273, 43.533782 ], [ 2.205197, 43.533853 ], [ 2.204797, 43.53424 ], [ 2.204711, 43.534525 ], [ 2.204206, 43.537838 ], [ 2.204217, 43.537883 ], [ 2.205916, 43.541767 ], [ 2.205991, 43.541973 ], [ 2.206597366542065, 43.545426322991553 ], [ 2.207421, 43.544112 ], [ 2.20767, 43.543644 ], [ 2.207936, 43.543273 ], [ 2.208592, 43.542414 ], [ 2.210746, 43.542693 ], [ 2.211763, 43.544118 ], [ 2.219928993823934, 43.541556692455963 ], [ 2.219775, 43.540578 ], [ 2.220285033215657, 43.535407904679445 ], [ 2.219153, 43.531868 ], [ 2.217265, 43.527823 ], [ 2.215545, 43.52618 ], [ 2.214571, 43.524489 ], [ 2.215579, 43.52258 ], [ 2.215796, 43.513862 ], [ 2.216597, 43.511512 ], [ 2.217506, 43.510694 ], [ 2.218634, 43.511303 ], [ 2.219027, 43.511572 ], [ 2.21951, 43.512083 ], [ 2.221648, 43.514351 ], [ 2.222229, 43.514833 ], [ 2.22291, 43.515924 ], [ 2.227072858120242, 43.517940519629974 ], [ 2.229583606834326, 43.51771918977861 ], [ 2.233243, 43.515687 ], [ 2.234652, 43.508943 ], [ 2.234322, 43.506223 ], [ 2.234838, 43.505347 ], [ 2.243356, 43.504315 ], [ 2.244077, 43.504274 ], [ 2.244742, 43.504975 ], [ 2.245489782489861, 43.505449505657033 ], [ 2.245146, 43.504046 ], [ 2.244437, 43.503137 ], [ 2.239951, 43.50377 ] ] ] ] } },
{ "type": "Feature", "properties": { "codgeo": "81120", "value": 600, "isochrone_group": 10.0, "nb_agences": 2 }, "geometry": { "type": "MultiPolygon", "coordinates": [ [ [ [ 2.204575, 43.564287 ], [ 2.208308, 43.56981 ], [ 2.209661946690182, 43.570093815922505 ], [ 2.211042, 43.568628 ], [ 2.211453, 43.565929 ], [ 2.212012951112226, 43.565584521980774 ], [ 2.204276, 43.564104 ], [ 2.202199, 43.563059 ], [ 2.197006137432325, 43.560846641458774 ], [ 2.198525, 43.56289 ], [ 2.200727, 43.563085 ], [ 2.204575, 43.564287 ] ] ], [ [ [ 2.308794941908692, 43.523421456366918 ], [ 2.30672, 43.524075 ], [ 2.306151, 43.524391 ], [ 2.305919, 43.524522 ], [ 2.304299, 43.524276 ], [ 2.2971, 43.525941 ], [ 2.295369, 43.527456 ], [ 2.304197, 43.526515 ], [ 2.309722495479776, 43.523607143254637 ], [ 2.308794941908692, 43.523421456366918 ] ] ], [ [ [ 2.329893, 43.524029 ], [ 2.336500809309382, 43.521219792897099 ], [ 2.336348, 43.521154 ], [ 2.333796, 43.521901 ], [ 2.331784, 43.522467 ], [ 2.329771, 43.523033 ], [ 2.327403119948361, 43.519585116960378 ], [ 2.324829948915598, 43.523618243189034 ], [ 2.325013, 43.523652 ], [ 2.325635, 43.523705 ], [ 2.329893, 43.524029 ] ] ], [ [ [ 2.327628227253705, 43.508359226303781 ], [ 2.327644006729364, 43.50813231097387 ], [ 2.325928200855818, 43.508066582806947 ], [ 2.327628227253705, 43.508359226303781 ] ] ], [ [ [ 2.319449, 43.498447 ], [ 2.318726, 43.498212 ], [ 2.316335, 43.50023 ], [ 2.314290663971821, 43.503800047465596 ], [ 2.310940902222159, 43.504060471016267 ], [ 2.307006, 43.503487 ], [ 2.306318702331136, 43.503283356246257 ], [ 2.306259, 43.503245 ], [ 2.306240457163078, 43.503273852882941 ], [ 2.303459, 43.503491 ], [ 2.294946, 43.503148 ], [ 2.293688, 43.501828 ], [ 2.293347, 43.501417 ], [ 2.292958, 43.501087 ], [ 2.291072, 43.499492 ], [ 2.290252, 43.499011 ], [ 2.290141, 43.498981 ], [ 2.287361, 43.501104 ], [ 2.28717, 43.501698 ], [ 2.284524, 43.509076 ], [ 2.286041, 43.506477 ], [ 2.286107, 43.506344 ], [ 2.288022, 43.504025 ], [ 2.290333, 43.503964 ], [ 2.290576, 43.504203 ], [ 2.291451, 43.505122 ], [ 2.295995, 43.509576 ], [ 2.298972, 43.512095 ], [ 2.30586, 43.508275 ], [ 2.30902, 43.50655 ], [ 2.309411, 43.507267 ], [ 2.30973894923302, 43.507812332724626 ], [ 2.310001, 43.508204 ], [ 2.310349, 43.508842 ], [ 2.310563, 43.509687 ], [ 2.313824, 43.512834 ], [ 2.319211, 43.50713 ], [ 2.32173, 43.504559 ], [ 2.321872, 43.504698 ], [ 2.325158, 43.507934 ], [ 2.325363141254824, 43.507969313130566 ], [ 2.320919, 43.501559 ], [ 2.320196, 43.49957 ], [ 2.319449, 43.498447 ] ] ], [ [ [ 2.271613237143608, 43.50490485645404 ], [ 2.273008206466627, 43.508795260326593 ], [ 2.274687, 43.51048 ], [ 2.276685142885645, 43.51209927054196 ], [ 2.278088167525318, 43.512514555895812 ], [ 2.279804162375277, 43.511806708020188 ], [ 2.284524, 43.509076 ], [ 2.275667, 43.508449 ], [ 2.271136, 43.502195 ], [ 2.271613237143608, 43.50490485645404 ] ] ], [ [ [ 2.27561, 43.495689 ], [ 2.275687, 43.495491 ], [ 2.276061, 43.494628 ], [ 2.275954, 43.493613 ], [ 2.2758, 43.493387 ], [ 2.275122, 43.492412 ], [ 2.26929, 43.487054 ], [ 2.268857, 43.486823 ], [ 2.268358, 43.486637 ], [ 2.266862, 43.487495 ], [ 2.266328, 43.488196 ], [ 2.266114, 43.489048 ], [ 2.26622, 43.489814 ], [ 2.263326, 43.495221 ], [ 2.258851, 43.495222 ], [ 2.255427, 43.495781 ], [ 2.255469, 43.496224 ], [ 2.255621, 43.497575 ], [ 2.255618, 43.498554 ], [ 2.255837, 43.500554 ], [ 2.25615, 43.499561 ], [ 2.256901, 43.498435 ], [ 2.264326, 43.498115 ], [ 2.26574, 43.494377 ], [ 2.266618, 43.493135 ], [ 2.266682, 43.493032 ], [ 2.267255, 43.492341 ], [ 2.268674, 43.491986 ], [ 2.273609, 43.492883 ], [ 2.27433, 43.496355 ], [ 2.271136, 43.502195 ], [ 2.274843, 43.496477 ], [ 2.275334, 43.496076 ], [ 2.27561, 43.495689 ] ] ], [ [ [ 2.24431, 43.501512 ], [ 2.241762, 43.50055 ], [ 2.233766, 43.502992 ], [ 2.231187, 43.503199 ], [ 2.231482960044024, 43.503205260693228 ], [ 2.231484, 43.503195 ], [ 2.231707, 43.50321 ], [ 2.232406, 43.503316 ], [ 2.239951, 43.50377 ], [ 2.244437, 43.503137 ], [ 2.245146, 43.504046 ], [ 2.245776, 43.506618 ], [ 2.246282, 43.507549 ], [ 2.252182, 43.510346 ], [ 2.255894, 43.503172 ], [ 2.255787, 43.502254 ], [ 2.255837, 43.500554 ], [ 2.24899, 43.504973 ], [ 2.24652, 43.502591 ], [ 2.24431, 43.501512 ] ] ], [ [ [ 2.221154, 43.506877 ], [ 2.215212, 43.500754 ], [ 2.215141, 43.500596 ], [ 2.214571, 43.499904 ], [ 2.214356, 43.499816 ], [ 2.212573, 43.499214 ], [ 2.2096, 43.501244 ], [ 2.210325018027981, 43.50575294335431 ], [ 2.209593260191348, 43.508326456556773 ], [ 2.206914, 43.511532 ], [ 2.206486, 43.511814 ], [ 2.206018, 43.512348 ], [ 2.205961, 43.512446 ], [ 2.208414, 43.518886 ], [ 2.206671, 43.523926 ], [ 2.202234, 43.526721 ], [ 2.201778, 43.526929 ], [ 2.197761, 43.528014 ], [ 2.197032, 43.528628 ], [ 2.195931, 43.531114 ], [ 2.196837, 43.531649 ], [ 2.199507, 43.539592 ], [ 2.193759532780853, 43.545588654114958 ], [ 2.194053, 43.545734 ], [ 2.194847848262915, 43.549067603133807 ], [ 2.19694, 43.548773 ], [ 2.202946163976565, 43.551365103953856 ], [ 2.203655270936146, 43.551017492230436 ], [ 2.20687, 43.546979 ], [ 2.205991, 43.541973 ], [ 2.205916, 43.541767 ], [ 2.204217, 43.537883 ], [ 2.204206, 43.537838 ], [ 2.204711, 43.534525 ], [ 2.204797, 43.53424 ], [ 2.205197, 43.533853 ], [ 2.205273, 43.533782 ], [ 2.211683, 43.528742 ], [ 2.211563, 43.525144 ], [ 2.211957, 43.520225 ], [ 2.211867, 43.515982 ], [ 2.210907, 43.507738 ], [ 2.211159, 43.507068 ], [ 2.211407, 43.506502 ], [ 2.211773, 43.505675 ], [ 2.212654, 43.505024 ], [ 2.212878, 43.504984 ], [ 2.215001, 43.506717 ], [ 2.219525, 43.509281 ], [ 2.221813, 43.512061 ], [ 2.227218, 43.515036 ], [ 2.227228558498525, 43.51503412022106 ], [ 2.229511373429099, 43.511609437765784 ], [ 2.231233, 43.507665 ], [ 2.228524, 43.505295 ], [ 2.228859, 43.504737 ], [ 2.229169, 43.50423 ], [ 2.229478, 43.503898 ], [ 2.229964, 43.503558 ], [ 2.226561, 43.504734 ], [ 2.225638623993203, 43.505395927048042 ], [ 2.221154, 43.506877 ] ] ], [ [ [ 2.292197, 43.569234 ], [ 2.289526, 43.570197 ], [ 2.292197034564651, 43.569234095880823 ], [ 2.292197, 43.569234 ] ] ], [ [ [ 2.285838, 43.553152 ], [ 2.280505545252558, 43.546403866750538 ], [ 2.280505545252559, 43.546403866750538 ], [ 2.285838, 43.553152 ] ] ], [ [ [ 2.28288089129473, 43.565156531211365 ], [ 2.282880891294732, 43.565156531211365 ], [ 2.285115, 43.557316 ], [ 2.28288089129473, 43.565156531211365 ] ] ] ] } },
{ "type": "Feature", "properties": { "codgeo": "81120", "value": 660, "isochrone_group": 11.0, "nb_agences": 2 }, "geometry": { "type": "MultiPolygon", "coordinates": [ [ [ [ 2.199507, 43.539592 ], [ 2.196837, 43.531649 ], [ 2.195931, 43.531114 ], [ 2.197032, 43.528628 ], [ 2.197761, 43.528014 ], [ 2.201778, 43.526929 ], [ 2.202234, 43.526721 ], [ 2.206671, 43.523926 ], [ 2.208414, 43.518886 ], [ 2.205961, 43.512446 ], [ 2.206018, 43.512348 ], [ 2.206486, 43.511814 ], [ 2.206914, 43.511532 ], [ 2.209593260191348, 43.508326456556773 ], [ 2.210325018027981, 43.50575294335431 ], [ 2.2096, 43.501244 ], [ 2.212573, 43.499214 ], [ 2.214356, 43.499816 ], [ 2.214571, 43.499904 ], [ 2.215141, 43.500596 ], [ 2.215212, 43.500754 ], [ 2.221154, 43.506877 ], [ 2.225638623993203, 43.505395927048042 ], [ 2.226561, 43.504734 ], [ 2.229964, 43.503558 ], [ 2.227136765803534, 43.504015145351246 ], [ 2.222291283778755, 43.503502864660234 ], [ 2.217694, 43.499562 ], [ 2.216958, 43.499002 ], [ 2.213643, 43.497516 ], [ 2.207768, 43.494504 ], [ 2.20489, 43.495729 ], [ 2.204648, 43.4963 ], [ 2.204611, 43.503585 ], [ 2.20477, 43.505828 ], [ 2.205775, 43.512895 ], [ 2.2049, 43.515144 ], [ 2.20449, 43.516003 ], [ 2.202302, 43.519158 ], [ 2.200413, 43.520964 ], [ 2.19194, 43.523507 ], [ 2.190176, 43.52214 ], [ 2.189898, 43.521852 ], [ 2.18899, 43.522051 ], [ 2.188607, 43.522261 ], [ 2.187311, 43.524356 ], [ 2.187807, 43.524961 ], [ 2.188919240802015, 43.526585224663258 ], [ 2.188919, 43.526586 ], [ 2.189067, 43.526801 ], [ 2.189691, 43.527691 ], [ 2.190085, 43.528161 ], [ 2.192535, 43.53446 ], [ 2.192710699884144, 43.541363155974402 ], [ 2.196279361203477, 43.542959576139687 ], [ 2.199507, 43.539592 ] ] ], [ [ [ 2.204575, 43.564287 ], [ 2.200727, 43.563085 ], [ 2.201639397224063, 43.566943042296494 ], [ 2.205289907525558, 43.565344710759085 ], [ 2.204575, 43.564287 ] ] ], [ [ [ 2.302625, 43.529374 ], [ 2.302934, 43.528889 ], [ 2.303426, 43.527881 ], [ 2.304698746936519, 43.526250949795063 ], [ 2.304197, 43.526515 ], [ 2.295369, 43.527456 ], [ 2.293417, 43.529827 ], [ 2.293064, 43.530302 ], [ 2.292659, 43.530686 ], [ 2.301415, 43.529713 ], [ 2.302291, 43.529496 ], [ 2.302625, 43.529374 ] ] ], [ [ [ 2.331477, 43.524228 ], [ 2.332074, 43.524227 ], [ 2.332615423502068, 43.524167451250129 ], [ 2.329899530632443, 43.524026223603428 ], [ 2.329893, 43.524029 ], [ 2.325635, 43.523705 ], [ 2.330052, 43.524058 ], [ 2.33042, 43.524101 ], [ 2.331477, 43.524228 ] ] ], [ [ [ 2.317327, 43.492003 ], [ 2.31727, 43.492004 ], [ 2.316054547796456, 43.492418386083273 ], [ 2.317299, 43.49271 ], [ 2.317703987319835, 43.492644396097774 ], [ 2.317461, 43.492112 ], [ 2.317327, 43.492003 ] ] ], [ [ [ 2.305141344098715, 43.497859062792479 ], [ 2.305059, 43.49779 ], [ 2.304881, 43.497909 ], [ 2.302843, 43.498945 ], [ 2.302622, 43.499045 ], [ 2.302586, 43.499171 ], [ 2.295578955938462, 43.503173502629757 ], [ 2.303459, 43.503491 ], [ 2.306240457163078, 43.503273852882941 ], [ 2.306259, 43.503245 ], [ 2.306318702331136, 43.503283356246257 ], [ 2.307006, 43.503487 ], [ 2.310940902222159, 43.504060471016267 ], [ 2.314290663971821, 43.503800047465596 ], [ 2.31577527382071, 43.501207456250015 ], [ 2.311635, 43.499804 ], [ 2.308749, 43.497653 ], [ 2.309412, 43.496762 ], [ 2.309699681730522, 43.496395730978719 ], [ 2.307055, 43.497492 ], [ 2.305141344098715, 43.497859062792479 ] ] ], [ [ [ 2.322262745294664, 43.50304308752203 ], [ 2.321866117290508, 43.502925139835661 ], [ 2.32228574937082, 43.503530425059559 ], [ 2.322262745294664, 43.50304308752203 ] ] ], [ [ [ 2.295368469848686, 43.50316502186751 ], [ 2.293688, 43.501828 ], [ 2.294946, 43.503148 ], [ 2.295368469848686, 43.50316502186751 ] ] ], [ [ [ 2.28599, 43.499701 ], [ 2.286146341302184, 43.50267023733749 ], [ 2.284524, 43.509076 ], [ 2.28717, 43.501698 ], [ 2.287361, 43.501104 ], [ 2.290141, 43.498981 ], [ 2.290252, 43.499011 ], [ 2.290774957964623, 43.49931775948901 ], [ 2.289761, 43.498496 ], [ 2.288974, 43.497686 ], [ 2.28599, 43.499701 ] ] ], [ [ [ 2.278509, 43.494215 ], [ 2.278714476792032, 43.493840386197924 ], [ 2.278744, 43.493815 ], [ 2.278998067833693, 43.493335094091911 ], [ 2.279196, 43.493049 ], [ 2.279469, 43.492434 ], [ 2.279614, 43.491898 ], [ 2.279708, 43.490967 ], [ 2.279684, 43.490764 ], [ 2.278144, 43.491003 ], [ 2.270232688897101, 43.487920071178095 ], [ 2.275122, 43.492412 ], [ 2.2758, 43.493387 ], [ 2.275954, 43.493613 ], [ 2.276061, 43.494628 ], [ 2.275687, 43.495491 ], [ 2.27561, 43.495689 ], [ 2.275334, 43.496076 ], [ 2.274843, 43.496477 ], [ 2.277708, 43.494953 ], [ 2.278217, 43.494694 ], [ 2.278509, 43.494215 ] ] ], [ [ [ 2.263971, 43.485255 ], [ 2.262126, 43.48542 ], [ 2.261531, 43.485554 ], [ 2.260297, 43.487535 ], [ 2.255597, 43.493571 ], [ 2.253043, 43.494666 ], [ 2.253124, 43.495281 ], [ 2.253367, 43.496204 ], [ 2.247513, 43.502014 ], [ 2.244678, 43.499979 ], [ 2.244091, 43.499733 ], [ 2.242305, 43.49858 ], [ 2.234665, 43.501202 ], [ 2.230563, 43.503306 ], [ 2.231187, 43.503199 ], [ 2.233766, 43.502992 ], [ 2.241762, 43.50055 ], [ 2.24431, 43.501512 ], [ 2.24652, 43.502591 ], [ 2.24899, 43.504973 ], [ 2.255837, 43.500554 ], [ 2.255618, 43.498554 ], [ 2.255621, 43.497575 ], [ 2.255469, 43.496224 ], [ 2.255427, 43.495781 ], [ 2.258851, 43.495222 ], [ 2.263326, 43.495221 ], [ 2.26622, 43.489814 ], [ 2.266114, 43.489048 ], [ 2.266328, 43.488196 ], [ 2.266862, 43.487495 ], [ 2.268350630812781, 43.48664122644562 ], [ 2.268194, 43.486585 ], [ 2.264534, 43.485357 ], [ 2.263971, 43.485255 ] ] ], [ [ [ 2.28288089129473, 43.565156531211365 ], [ 2.282880891294732, 43.565156531211365 ], [ 2.285115, 43.557316 ], [ 2.28288089129473, 43.565156531211365 ] ] ] ] } },
{ "type": "Feature", "properties": { "codgeo": "81120", "value": 720, "isochrone_group": 12.0, "nb_agences": 2 }, "geometry": { "type": "MultiPolygon", "coordinates": [ [ [ [ 2.192535, 43.53446 ], [ 2.190085, 43.528161 ], [ 2.189691, 43.527691 ], [ 2.189067, 43.526801 ], [ 2.188919, 43.526586 ], [ 2.188919240802015, 43.526585224663258 ], [ 2.187807, 43.524961 ], [ 2.187311, 43.524356 ], [ 2.188607, 43.522261 ], [ 2.18899, 43.522051 ], [ 2.189898, 43.521852 ], [ 2.190176, 43.52214 ], [ 2.19194, 43.523507 ], [ 2.200413, 43.520964 ], [ 2.202302, 43.519158 ], [ 2.20449, 43.516003 ], [ 2.2049, 43.515144 ], [ 2.205775, 43.512895 ], [ 2.20477, 43.505828 ], [ 2.204611, 43.503585 ], [ 2.204648, 43.4963 ], [ 2.20489, 43.495729 ], [ 2.207768, 43.494504 ], [ 2.213643, 43.497516 ], [ 2.216958, 43.499002 ], [ 2.217694, 43.499562 ], [ 2.222291283778755, 43.503502864660234 ], [ 2.227136765803534, 43.504015145351246 ], [ 2.229964, 43.503558 ], [ 2.230563, 43.503306 ], [ 2.230966290939494, 43.503099143798963 ], [ 2.223051, 43.499518 ], [ 2.22251, 43.498643 ], [ 2.222231, 43.498392 ], [ 2.214743, 43.495236 ], [ 2.207796, 43.490056 ], [ 2.204714, 43.488285 ], [ 2.204561, 43.488548 ], [ 2.204325, 43.489124 ], [ 2.203323, 43.491448 ], [ 2.202861, 43.494478 ], [ 2.200498, 43.502754 ], [ 2.198201, 43.503938 ], [ 2.196282, 43.504553 ], [ 2.19738, 43.507981 ], [ 2.196786, 43.51695 ], [ 2.193445654483291, 43.519524849669111 ], [ 2.185752544679277, 43.517743650538215 ], [ 2.183577, 43.516226 ], [ 2.180257, 43.515434 ], [ 2.179067, 43.518831 ], [ 2.183533574112447, 43.521662895294014 ], [ 2.185098287893545, 43.525365150570082 ], [ 2.186163, 43.528401 ], [ 2.186176, 43.528994 ], [ 2.186239244940805, 43.531170235553482 ], [ 2.187298, 43.531387 ], [ 2.189983, 43.531317 ], [ 2.19019, 43.531694 ], [ 2.19258989186382, 43.536616672439031 ], [ 2.192535, 43.53446 ] ] ], [ [ [ 2.305239, 43.529383 ], [ 2.306377, 43.525968 ], [ 2.31147846122416, 43.522737165541841 ], [ 2.31123906395676, 43.522669100762784 ], [ 2.306151, 43.524391 ], [ 2.303426, 43.527881 ], [ 2.302934, 43.528889 ], [ 2.302625, 43.529374 ], [ 2.302291, 43.529496 ], [ 2.301415, 43.529713 ], [ 2.292659, 43.530686 ], [ 2.292191, 43.531002 ], [ 2.29189, 43.531157 ], [ 2.291336, 43.531377 ], [ 2.300188, 43.532136 ], [ 2.301199, 43.531992 ], [ 2.305239, 43.529383 ] ] ], [ [ [ 2.323108, 43.491769 ], [ 2.323139782732596, 43.491704993741287 ], [ 2.322652439181425, 43.491777908879115 ], [ 2.323108, 43.491769 ] ] ], [ [ [ 2.316579, 43.490938 ], [ 2.315928, 43.490964 ], [ 2.312468, 43.492999 ], [ 2.315007138389774, 43.492846031362959 ], [ 2.315406, 43.491967 ], [ 2.315546, 43.491901 ], [ 2.315586, 43.491883 ], [ 2.315711, 43.491828 ], [ 2.317074, 43.491887 ], [ 2.318980630102708, 43.491849714227342 ], [ 2.31668, 43.490951 ], [ 2.316579, 43.490938 ] ] ], [ [ [ 2.301376, 43.49835 ], [ 2.297455, 43.500694 ], [ 2.289761, 43.498496 ], [ 2.292958, 43.501087 ], [ 2.293347, 43.501417 ], [ 2.293688, 43.501828 ], [ 2.295462638333118, 43.503239944558338 ], [ 2.302586, 43.499171 ], [ 2.302622, 43.499045 ], [ 2.302843, 43.498945 ], [ 2.304881, 43.497909 ], [ 2.305059, 43.49779 ], [ 2.305060283376124, 43.497791076379976 ], [ 2.305068, 43.497784 ], [ 2.309032476426164, 43.494041546134511 ], [ 2.303603, 43.495521 ], [ 2.301376, 43.49835 ] ] ], [ [ [ 2.280803, 43.492967 ], [ 2.279591, 43.489759 ], [ 2.278793, 43.487304 ], [ 2.278698, 43.487066 ], [ 2.278533, 43.486692 ], [ 2.275311, 43.485846 ], [ 2.26769289766866, 43.486416870583902 ], [ 2.268194, 43.486585 ], [ 2.268857, 43.486823 ], [ 2.26929, 43.487054 ], [ 2.269922, 43.487799 ], [ 2.278144, 43.491003 ], [ 2.279684, 43.490764 ], [ 2.279708, 43.490967 ], [ 2.279614, 43.491898 ], [ 2.279469, 43.492434 ], [ 2.279196, 43.493049 ], [ 2.278998067833693, 43.493335094091911 ], [ 2.278744, 43.493815 ], [ 2.278714476792032, 43.493840386197924 ], [ 2.278509, 43.494215 ], [ 2.278217, 43.494694 ], [ 2.277708, 43.494953 ], [ 2.274843, 43.496477 ], [ 2.271136, 43.502195 ], [ 2.270965, 43.503097 ], [ 2.272679, 43.51151 ], [ 2.276516, 43.512603 ], [ 2.284524, 43.509076 ], [ 2.286146341302184, 43.50267023733749 ], [ 2.28599, 43.499701 ], [ 2.288974, 43.497686 ], [ 2.289761, 43.498496 ], [ 2.288304, 43.495555 ], [ 2.288071, 43.495099 ], [ 2.280803, 43.492967 ] ] ], [ [ [ 2.252501, 43.49372 ], [ 2.24494, 43.496533 ], [ 2.244821, 43.496525 ], [ 2.24352, 43.49682 ], [ 2.243069, 43.49704 ], [ 2.242075, 43.497635 ], [ 2.241555, 43.498068 ], [ 2.237166600398176, 43.500343466460201 ], [ 2.242305, 43.49858 ], [ 2.244091, 43.499733 ], [ 2.244678, 43.499979 ], [ 2.247513, 43.502014 ], [ 2.253367, 43.496204 ], [ 2.253124, 43.495281 ], [ 2.253043, 43.494666 ], [ 2.255597, 43.493571 ], [ 2.260297, 43.487535 ], [ 2.261531, 43.485554 ], [ 2.255485, 43.488551 ], [ 2.253147, 43.492387 ], [ 2.252501, 43.49372 ] ] ] ] } },
{ "type": "Feature", "properties": { "codgeo": "81120", "value": 780, "isochrone_group": 13.0, "nb_agences": 2 }, "geometry": { "type": "MultiPolygon", "coordinates": [ [ [ [ 2.193445654483291, 43.519524849669111 ], [ 2.196786, 43.51695 ], [ 2.19738, 43.507981 ], [ 2.196282, 43.504553 ], [ 2.198201, 43.503938 ], [ 2.195006, 43.504456 ], [ 2.194544, 43.50445 ], [ 2.192496, 43.504418 ], [ 2.18908, 43.504983 ], [ 2.188439, 43.506118 ], [ 2.188203, 43.506782 ], [ 2.188212, 43.507468 ], [ 2.186722328461388, 43.511908021008701 ], [ 2.186721556630342, 43.511909176271232 ], [ 2.183606025947572, 43.513147823060365 ], [ 2.183904, 43.515843 ], [ 2.186076155596154, 43.517818576738229 ], [ 2.193445654483291, 43.519524849669111 ] ] ], [ [ [ 2.298419, 43.532888 ], [ 2.302765, 43.533251 ], [ 2.304638, 43.533972 ], [ 2.309534, 43.531514 ], [ 2.311243, 43.528346 ], [ 2.317034333955334, 43.522785549790385 ], [ 2.31670905373548, 43.522755643057913 ], [ 2.31189, 43.524701 ], [ 2.311636, 43.524788 ], [ 2.309596116913923, 43.523929283366968 ], [ 2.306377, 43.525968 ], [ 2.305239, 43.529383 ], [ 2.301199, 43.531992 ], [ 2.300188, 43.532136 ], [ 2.291336, 43.531377 ], [ 2.290168687382919, 43.532073568482026 ], [ 2.297752, 43.532668 ], [ 2.298419, 43.532888 ] ] ], [ [ [ 2.319864584756959, 43.492195020768897 ], [ 2.323139782732596, 43.491704993741287 ], [ 2.323239590233415, 43.491503994513202 ], [ 2.31969323944956, 43.49212808672965 ], [ 2.319864584756959, 43.492195020768897 ] ] ], [ [ [ 2.300631, 43.493755 ], [ 2.300238, 43.493622 ], [ 2.299917, 43.49355 ], [ 2.299289, 43.496467 ], [ 2.293852453563663, 43.499664834797635 ], [ 2.297455, 43.500694 ], [ 2.301376, 43.49835 ], [ 2.303603, 43.495521 ], [ 2.304844507772972, 43.495182707072736 ], [ 2.306091, 43.493366 ], [ 2.306604866080358, 43.492809496324604 ], [ 2.301169, 43.494048 ], [ 2.300631, 43.493755 ] ] ], [ [ [ 2.309754, 43.492092 ], [ 2.313343406248892, 43.492484129561696 ], [ 2.313460289197891, 43.49241538482147 ], [ 2.309754, 43.492092 ] ] ], [ [ [ 2.285603, 43.492413 ], [ 2.285232, 43.492105 ], [ 2.279077, 43.485762 ], [ 2.278867, 43.484431 ], [ 2.278261, 43.483506 ], [ 2.275029, 43.481922 ], [ 2.274506, 43.482987 ], [ 2.267591252816743, 43.486382766792069 ], [ 2.26769289766866, 43.486416870583902 ], [ 2.275311, 43.485846 ], [ 2.278533, 43.486692 ], [ 2.278698, 43.487066 ], [ 2.278793, 43.487304 ], [ 2.279591, 43.489759 ], [ 2.280803, 43.492967 ], [ 2.287989143052639, 43.495074988028108 ], [ 2.287652, 43.494561 ], [ 2.286054, 43.492971 ], [ 2.285603, 43.492413 ] ] ], [ [ [ 2.246438, 43.488122 ], [ 2.243172, 43.496092 ], [ 2.241555, 43.498068 ], [ 2.242075, 43.497635 ], [ 2.243069, 43.49704 ], [ 2.24352, 43.49682 ], [ 2.244821, 43.496525 ], [ 2.24494, 43.496533 ], [ 2.252501, 43.49372 ], [ 2.253147, 43.492387 ], [ 2.255485, 43.488551 ], [ 2.257026762776465, 43.487786748752704 ], [ 2.250648, 43.484815 ], [ 2.247075, 43.485254 ], [ 2.246438, 43.488122 ] ] ], [ [ [ 2.222135, 43.496404 ], [ 2.217166, 43.495168 ], [ 2.216318, 43.495108 ], [ 2.215608, 43.495135 ], [ 2.214274300113413, 43.494886515990679 ], [ 2.214743, 43.495236 ], [ 2.222231, 43.498392 ], [ 2.22251, 43.498643 ], [ 2.223051, 43.499518 ], [ 2.231014569190565, 43.503120986503241 ], [ 2.234805, 43.501568 ], [ 2.226724, 43.497706 ], [ 2.225146, 43.497308 ], [ 2.222135, 43.496404 ] ] ], [ [ [ 2.210973, 43.48528 ], [ 2.210917, 43.484767 ], [ 2.210861, 43.484453 ], [ 2.210287, 43.483475 ], [ 2.209659, 43.48254 ], [ 2.206683, 43.482446 ], [ 2.20661, 43.482568 ], [ 2.206389, 43.483129 ], [ 2.205659, 43.485429 ], [ 2.201466, 43.491034 ], [ 2.201249, 43.491735 ], [ 2.200904, 43.493466 ], [ 2.202024, 43.496913 ], [ 2.198201, 43.503938 ], [ 2.200498, 43.502754 ], [ 2.202861, 43.494478 ], [ 2.203323, 43.491448 ], [ 2.204325, 43.489124 ], [ 2.204561, 43.488548 ], [ 2.204714, 43.488285 ], [ 2.207796, 43.490056 ], [ 2.213958725033458, 43.494651208820102 ], [ 2.212940881533565, 43.493642407703121 ], [ 2.21082, 43.486211 ], [ 2.210973, 43.48528 ] ] ], [ [ [ 2.296062, 43.565094 ], [ 2.298103380670421, 43.566014622655295 ], [ 2.300098526287049, 43.564640647553375 ], [ 2.296062, 43.565094 ] ] ], [ [ [ 2.294966, 43.564744 ], [ 2.294942450413359, 43.564770037219027 ], [ 2.2951, 43.564752 ], [ 2.294966, 43.564744 ] ] ], [ [ [ 2.282967698655739, 43.564851883625614 ], [ 2.282967698655739, 43.564851883625614 ], [ 2.285115, 43.557316 ], [ 2.282967698655739, 43.564851883625614 ] ] ] ] } },
{ "type": "Feature", "properties": { "codgeo": "81120", "value": 840, "isochrone_group": 14.0, "nb_agences": 2 }, "geometry": { "type": "MultiPolygon", "coordinates": [ [ [ [ 2.303481, 43.535993 ], [ 2.303653346177398, 43.535830009005018 ], [ 2.305277, 43.53699 ], [ 2.305832, 43.536933 ], [ 2.31286, 43.532926 ], [ 2.314164, 43.529571 ], [ 2.318713936905834, 43.523062643630297 ], [ 2.316501245005323, 43.523297386024787 ], [ 2.311243, 43.528346 ], [ 2.309534, 43.531514 ], [ 2.304638, 43.533972 ], [ 2.302765, 43.533251 ], [ 2.301081123774757, 43.533110354102675 ], [ 2.30188, 43.534146 ], [ 2.301939, 43.534216 ], [ 2.302624, 43.535086 ], [ 2.303481, 43.535993 ] ] ], [ [ [ 2.299415333552852, 43.493358489653644 ], [ 2.297806, 43.492843 ], [ 2.297703, 43.493057 ], [ 2.297469, 43.494223 ], [ 2.294303422467935, 43.498481446013706 ], [ 2.288304, 43.495555 ], [ 2.289761, 43.498496 ], [ 2.293505053455058, 43.499869179259527 ], [ 2.299289, 43.496467 ], [ 2.299917, 43.49355 ], [ 2.300238, 43.493622 ], [ 2.300631, 43.493755 ], [ 2.301169, 43.494048 ], [ 2.305414830376366, 43.493080633172255 ], [ 2.307959, 43.491754 ], [ 2.300678, 43.492039 ], [ 2.299434, 43.49334 ], [ 2.299415333552852, 43.493358489653644 ] ] ], [ [ [ 2.309754, 43.492092 ], [ 2.314458676217922, 43.492502497076067 ], [ 2.30885, 43.49171 ], [ 2.309754, 43.492092 ] ] ], [ [ [ 2.278867, 43.484431 ], [ 2.279077, 43.485762 ], [ 2.285232, 43.492105 ], [ 2.285603, 43.492413 ], [ 2.285134, 43.491955 ], [ 2.284339, 43.49112 ], [ 2.283585, 43.49031 ], [ 2.278867, 43.484431 ] ] ], [ [ [ 2.279063087082974, 43.480199012410935 ], [ 2.279011, 43.479735 ], [ 2.2781, 43.47853 ], [ 2.277439, 43.478235 ], [ 2.276972, 43.478144 ], [ 2.276472, 43.478127 ], [ 2.276113, 43.478156 ], [ 2.275301, 43.480107 ], [ 2.269157, 43.48427 ], [ 2.268403, 43.484352 ], [ 2.263971, 43.485255 ], [ 2.264534, 43.485357 ], [ 2.267491, 43.486432 ], [ 2.274506, 43.482987 ], [ 2.275029, 43.481922 ], [ 2.278261, 43.483506 ], [ 2.278867, 43.484431 ], [ 2.278967, 43.481815 ], [ 2.279142, 43.480902 ], [ 2.2791, 43.480205 ], [ 2.279063087082974, 43.480199012410935 ] ] ], [ [ [ 2.254412526090921, 43.486568823759768 ], [ 2.257509440713937, 43.488011619563693 ], [ 2.261531, 43.485554 ], [ 2.254412526090921, 43.486568823759768 ] ] ], [ [ [ 2.249629, 43.481471 ], [ 2.246853, 43.478876 ], [ 2.243309, 43.478239 ], [ 2.243245, 43.478596 ], [ 2.243112, 43.479481 ], [ 2.242808, 43.4811 ], [ 2.242799, 43.482159 ], [ 2.243356, 43.483163 ], [ 2.24518, 43.487392 ], [ 2.245329, 43.488714 ], [ 2.240706481314128, 43.496018112094639 ], [ 2.240655, 43.496042 ], [ 2.240650921038416, 43.496105903731497 ], [ 2.240642, 43.49612 ], [ 2.240563, 43.496949 ], [ 2.234805, 43.501568 ], [ 2.241555, 43.498068 ], [ 2.243172, 43.496092 ], [ 2.246438, 43.488122 ], [ 2.247075, 43.485254 ], [ 2.250648, 43.484815 ], [ 2.251956700923432, 43.485424699791821 ], [ 2.250493, 43.483097 ], [ 2.250369, 43.48253 ], [ 2.250116, 43.482004 ], [ 2.249629, 43.481471 ] ] ], [ [ [ 2.22915, 43.495844 ], [ 2.220762, 43.493347 ], [ 2.219618, 43.493152 ], [ 2.219347, 43.493104 ], [ 2.214439, 43.485688 ], [ 2.213376, 43.482249 ], [ 2.206452, 43.476834 ], [ 2.203489, 43.477923 ], [ 2.203131, 43.478544 ], [ 2.203265, 43.480046 ], [ 2.204503728512085, 43.483575760705754 ], [ 2.203749124712093, 43.487982029093423 ], [ 2.205659, 43.485429 ], [ 2.206389, 43.483129 ], [ 2.20661, 43.482568 ], [ 2.206683, 43.482446 ], [ 2.209659, 43.48254 ], [ 2.210287, 43.483475 ], [ 2.210861, 43.484453 ], [ 2.210917, 43.484767 ], [ 2.210973, 43.48528 ], [ 2.21082, 43.486211 ], [ 2.212940881533565, 43.493642407703121 ], [ 2.214178047672138, 43.494868583026395 ], [ 2.215608, 43.495135 ], [ 2.216318, 43.495108 ], [ 2.217166, 43.495168 ], [ 2.222135, 43.496404 ], [ 2.225146, 43.497308 ], [ 2.226724, 43.497706 ], [ 2.234805, 43.501568 ], [ 2.229894, 43.49768 ], [ 2.229689, 43.49695 ], [ 2.229432, 43.495921 ], [ 2.22915, 43.495844 ] ] ], [ [ [ 2.198810856680475, 43.493779374298974 ], [ 2.198515, 43.495435 ], [ 2.195140861627816, 43.500457865076783 ], [ 2.194523, 43.50107 ], [ 2.191087123827761, 43.502535986403586 ], [ 2.186717764467409, 43.503331084176047 ], [ 2.187244, 43.503823 ], [ 2.188404, 43.504835 ], [ 2.187169, 43.508217 ], [ 2.187629504742041, 43.509204148617847 ], [ 2.188212, 43.507468 ], [ 2.188203, 43.506782 ], [ 2.188439, 43.506118 ], [ 2.18908, 43.504983 ], [ 2.192496, 43.504418 ], [ 2.194544, 43.50445 ], [ 2.195006, 43.504456 ], [ 2.198201, 43.503938 ], [ 2.202024, 43.496913 ], [ 2.200904, 43.493466 ], [ 2.201249, 43.491735 ], [ 2.201466, 43.491034 ], [ 2.20360643975395, 43.488172763457939 ], [ 2.202876, 43.489041 ], [ 2.200028, 43.491737 ], [ 2.198501, 43.49269 ], [ 2.198810856680475, 43.493779374298974 ] ] ], [ [ [ 2.330093, 43.554742 ], [ 2.330337491449796, 43.554632738289982 ], [ 2.330459001497025, 43.554574290419154 ], [ 2.330093, 43.554742 ] ] ] ] } },
{ "type": "Feature", "properties": { "codgeo": "81120", "value": 900, "isochrone_group": 15.0, "nb_agences": 2 }, "geometry": { "type": "MultiPolygon", "coordinates": [ [ [ [ 2.239082, 43.483735 ], [ 2.239397, 43.48434 ], [ 2.239794, 43.484761 ], [ 2.240596867671249, 43.491613917519608 ], [ 2.240321813419983, 43.493062910799765 ], [ 2.23157, 43.492405 ], [ 2.231275, 43.491917 ], [ 2.228590496723484, 43.492449747303013 ], [ 2.228587, 43.492446 ], [ 2.227446451025406, 43.492516285474409 ], [ 2.2219, 43.491713 ], [ 2.217324056650099, 43.485667693826962 ], [ 2.217027, 43.48426 ], [ 2.217606, 43.482965 ], [ 2.21744, 43.480765 ], [ 2.215820177451568, 43.480100342108102 ], [ 2.215558, 43.479772 ], [ 2.207992, 43.475314 ], [ 2.207079, 43.471832 ], [ 2.206863, 43.471888 ], [ 2.205964, 43.472205 ], [ 2.203515, 43.473075 ], [ 2.202591, 43.47378 ], [ 2.202241, 43.475121 ], [ 2.202542, 43.477768 ], [ 2.203265, 43.480046 ], [ 2.203131, 43.478544 ], [ 2.203489, 43.477923 ], [ 2.206452, 43.476834 ], [ 2.213376, 43.482249 ], [ 2.214439, 43.485688 ], [ 2.219347, 43.493104 ], [ 2.219618, 43.493152 ], [ 2.220762, 43.493347 ], [ 2.22915, 43.495844 ], [ 2.229432, 43.495921 ], [ 2.229689, 43.49695 ], [ 2.229894, 43.49768 ], [ 2.234805, 43.501568 ], [ 2.240563, 43.496949 ], [ 2.240642, 43.49612 ], [ 2.240650921038416, 43.496105903731497 ], [ 2.240655, 43.496042 ], [ 2.240706481314128, 43.496018112094639 ], [ 2.245329, 43.488714 ], [ 2.24518, 43.487392 ], [ 2.243356, 43.483163 ], [ 2.242799, 43.482159 ], [ 2.242808, 43.4811 ], [ 2.243112, 43.479481 ], [ 2.243245, 43.478596 ], [ 2.243309, 43.478239 ], [ 2.246853, 43.478876 ], [ 2.249629, 43.481471 ], [ 2.250116, 43.482004 ], [ 2.250369, 43.48253 ], [ 2.250493, 43.483097 ], [ 2.252819, 43.486796 ], [ 2.261531, 43.485554 ], [ 2.262126, 43.48542 ], [ 2.263971, 43.485255 ], [ 2.268403, 43.484352 ], [ 2.269157, 43.48427 ], [ 2.275301, 43.480107 ], [ 2.276113, 43.478156 ], [ 2.276472, 43.478127 ], [ 2.276972, 43.478144 ], [ 2.277439, 43.478235 ], [ 2.2781, 43.47853 ], [ 2.279011, 43.479735 ], [ 2.279063087082974, 43.480199012410935 ], [ 2.2791, 43.480205 ], [ 2.279142, 43.480902 ], [ 2.27984, 43.478811 ], [ 2.279912, 43.478094 ], [ 2.279828, 43.477086 ], [ 2.276981, 43.477012 ], [ 2.275756, 43.477054 ], [ 2.274663, 43.47718 ], [ 2.267263, 43.481619 ], [ 2.261832037562487, 43.485347338658713 ], [ 2.253707, 43.483339 ], [ 2.248125, 43.476997 ], [ 2.247632, 43.475951 ], [ 2.244593, 43.471627 ], [ 2.24142, 43.470114 ], [ 2.24131, 43.470283 ], [ 2.24103, 43.471036 ], [ 2.240994, 43.471546 ], [ 2.24095, 43.473322 ], [ 2.241014, 43.47354 ], [ 2.241217, 43.47401 ], [ 2.238912, 43.482681 ], [ 2.238968, 43.483245 ], [ 2.239082, 43.483735 ] ] ], [ [ [ 2.203744856661364, 43.488006951015365 ], [ 2.202867850013676, 43.489048715015151 ], [ 2.202876, 43.489041 ], [ 2.203744580711697, 43.488008562335487 ], [ 2.203744856661364, 43.488006951015365 ] ] ], [ [ [ 2.288304, 43.495555 ], [ 2.287909, 43.490758 ], [ 2.28603, 43.487687 ], [ 2.283307825197294, 43.486449613268512 ], [ 2.278967, 43.481815 ], [ 2.278867, 43.484431 ], [ 2.283585, 43.49031 ], [ 2.284339, 43.49112 ], [ 2.285134, 43.491955 ], [ 2.285603, 43.492413 ], [ 2.286054, 43.492971 ], [ 2.287652, 43.494561 ], [ 2.288304, 43.495555 ] ] ], [ [ [ 2.198810856680475, 43.493779374298974 ], [ 2.198501, 43.49269 ], [ 2.200028, 43.491737 ], [ 2.195296, 43.49339 ], [ 2.194944, 43.496972 ], [ 2.194953, 43.499944 ], [ 2.194766, 43.500565 ], [ 2.19039814799854, 43.50266136019453 ], [ 2.191087123827761, 43.502535986403586 ], [ 2.194523, 43.50107 ], [ 2.195140861627816, 43.500457865076783 ], [ 2.198515, 43.495435 ], [ 2.198810856680475, 43.493779374298974 ] ] ], [ [ [ 2.294547093018667, 43.497079134500297 ], [ 2.29325141036069, 43.497968287179837 ], [ 2.293508947870598, 43.498093910874992 ], [ 2.294547093018667, 43.497079134500297 ] ] ], [ [ [ 2.181023, 43.499013 ], [ 2.178999, 43.498655 ], [ 2.178998900531503, 43.498655561490175 ], [ 2.178588, 43.498583 ], [ 2.178222196697447, 43.498534060840541 ], [ 2.18453, 43.501839 ], [ 2.181337, 43.49909 ], [ 2.181023, 43.499013 ] ] ], [ [ [ 2.282880891294732, 43.565156531211365 ], [ 2.284397630980192, 43.559833583041787 ], [ 2.284397630980192, 43.559833583041787 ], [ 2.28288089129473, 43.565156531211365 ], [ 2.282880891294732, 43.565156531211365 ] ] ], [ [ [ 2.326293, 43.484417 ], [ 2.32611, 43.484785 ], [ 2.325558, 43.485968 ], [ 2.325756, 43.485634 ], [ 2.326163, 43.485013 ], [ 2.327577881593994, 43.484789859073494 ], [ 2.326397, 43.484248 ], [ 2.326293, 43.484417 ] ] ], [ [ [ 2.324909672843667, 43.488140666980058 ], [ 2.325199, 43.487558 ], [ 2.324885170509849, 43.488149170405613 ], [ 2.324909672843667, 43.488140666980058 ] ] ], [ [ [ 2.299434, 43.49334 ], [ 2.300678, 43.492039 ], [ 2.300134, 43.492183 ], [ 2.299225079025017, 43.493297548750199 ], [ 2.299415333552852, 43.493358489653644 ], [ 2.299434, 43.49334 ] ] ], [ [ [ 2.344393, 43.526106 ], [ 2.343474, 43.525883 ], [ 2.339237, 43.523199 ], [ 2.341857, 43.52612 ], [ 2.345046, 43.526985 ], [ 2.346834, 43.528339 ], [ 2.346988, 43.528356 ], [ 2.351087932669208, 43.528523799663709 ], [ 2.346778205632102, 43.52604135505554 ], [ 2.345264, 43.526202 ], [ 2.344864, 43.526185 ], [ 2.344574, 43.526142 ], [ 2.344558352391098, 43.526133734265166 ], [ 2.344393, 43.526106 ] ] ], [ [ [ 2.302911, 43.537567 ], [ 2.303119, 43.53817 ], [ 2.304484, 43.538739 ], [ 2.304952640424943, 43.538711635494565 ], [ 2.305642, 43.540158 ], [ 2.306234, 43.539951 ], [ 2.310805, 43.538748 ], [ 2.316719, 43.533521 ], [ 2.317347, 43.532928 ], [ 2.317093, 43.530451 ], [ 2.321071862616359, 43.5230697549827 ], [ 2.318891484104297, 43.522808675176684 ], [ 2.314164, 43.529571 ], [ 2.31286, 43.532926 ], [ 2.305832, 43.536933 ], [ 2.305277, 43.53699 ], [ 2.303653346177398, 43.535830009005018 ], [ 2.303481, 43.535993 ], [ 2.302624, 43.535086 ], [ 2.301939, 43.534216 ], [ 2.30188, 43.534146 ], [ 2.302806, 43.537068 ], [ 2.302911, 43.537567 ] ] ], [ [ [ 2.305852388018137, 43.560587351363885 ], [ 2.307816361381629, 43.560207489657209 ], [ 2.307898, 43.56009 ], [ 2.310208, 43.558145 ], [ 2.311166, 43.557545 ], [ 2.30697, 43.559166 ], [ 2.305852388018137, 43.560587351363885 ] ] ] ] } },
{ "type": "Feature", "properties": { "codgeo": "81120", "value": 960, "isochrone_group": 16.0, "nb_agences": 2 }, "geometry": { "type": "MultiPolygon", "coordinates": [ [ [ [ 2.320357164911104, 43.555787822277814 ], [ 2.319897229288878, 43.555588819306365 ], [ 2.320189, 43.555794 ], [ 2.320357164911104, 43.555787822277814 ] ] ], [ [ [ 2.285115, 43.557316 ], [ 2.28288089129473, 43.565156531211365 ], [ 2.282880891294732, 43.565156531211365 ], [ 2.285115, 43.557316 ] ] ], [ [ [ 2.307447, 43.541217 ], [ 2.307929, 43.541204 ], [ 2.313932, 43.539097 ], [ 2.314283, 43.539096 ], [ 2.315598, 43.539226 ], [ 2.315610065499024, 43.539211996556446 ], [ 2.315919, 43.539239 ], [ 2.316817, 43.539282 ], [ 2.320592, 43.535062 ], [ 2.320866, 43.534881 ], [ 2.319599555322441, 43.532418733186425 ], [ 2.319734, 43.531808 ], [ 2.317845, 43.530921 ], [ 2.321110125406975, 43.523074336591755 ], [ 2.321071862616359, 43.5230697549827 ], [ 2.317093, 43.530451 ], [ 2.317347, 43.532928 ], [ 2.316719, 43.533521 ], [ 2.310805, 43.538748 ], [ 2.306234, 43.539951 ], [ 2.305642, 43.540158 ], [ 2.304952640424943, 43.538711635494565 ], [ 2.304484, 43.538739 ], [ 2.303119, 43.53817 ], [ 2.302911, 43.537567 ], [ 2.302806, 43.537068 ], [ 2.30188, 43.534146 ], [ 2.303712, 43.540284 ], [ 2.305414, 43.541075 ], [ 2.306151, 43.541179 ], [ 2.306915071915706, 43.54118677681339 ], [ 2.307447, 43.541217 ] ] ], [ [ [ 2.346988, 43.52931 ], [ 2.349908577233816, 43.529525629164112 ], [ 2.351265250470053, 43.530315998377588 ], [ 2.351248, 43.528616 ], [ 2.351087932669208, 43.528523799663709 ], [ 2.346988, 43.528356 ], [ 2.346834, 43.528339 ], [ 2.345046, 43.526985 ], [ 2.342278897224259, 43.526234437472233 ], [ 2.343946, 43.527898 ], [ 2.344721, 43.529027 ], [ 2.345504, 43.529372 ], [ 2.346217, 43.529419 ], [ 2.346988, 43.52931 ] ] ], [ [ [ 2.326416529810825, 43.48298916179543 ], [ 2.328151353879753, 43.483514930562343 ], [ 2.330491666778105, 43.481751687478031 ], [ 2.329316, 43.480871 ], [ 2.327193, 43.482174 ], [ 2.326416529810825, 43.48298916179543 ] ] ], [ [ [ 2.301728, 43.491734 ], [ 2.301508, 43.491794 ], [ 2.300678, 43.492039 ], [ 2.307959, 43.491754 ], [ 2.301728, 43.491734 ] ] ], [ [ [ 2.287893, 43.486826 ], [ 2.286269, 43.487557 ], [ 2.283085978284728, 43.486212751704684 ], [ 2.283307825197294, 43.486449613268512 ], [ 2.28603, 43.487687 ], [ 2.287909, 43.490758 ], [ 2.288304, 43.495555 ], [ 2.293246, 43.497972 ], [ 2.298167, 43.494595 ], [ 2.300134, 43.492183 ], [ 2.291864, 43.488872 ], [ 2.291266, 43.486704 ], [ 2.290061, 43.486259 ], [ 2.288791, 43.486517 ], [ 2.287893, 43.486826 ] ] ], [ [ [ 2.280094, 43.473702 ], [ 2.280045, 43.473311 ], [ 2.280033, 43.473233 ], [ 2.27963, 43.472931 ], [ 2.276685, 43.472765 ], [ 2.276424, 43.473284 ], [ 2.274663, 43.47718 ], [ 2.275756, 43.477054 ], [ 2.276981, 43.477012 ], [ 2.279828, 43.477086 ], [ 2.279912, 43.478094 ], [ 2.280234, 43.476089 ], [ 2.280293, 43.474928 ], [ 2.280205, 43.474159 ], [ 2.280168846343416, 43.474163113653418 ], [ 2.280094, 43.473702 ] ] ], [ [ [ 2.261248, 43.480659 ], [ 2.256991, 43.482118 ], [ 2.253505175754393, 43.483109696996479 ], [ 2.253707, 43.483339 ], [ 2.261832037562487, 43.485347338658713 ], [ 2.267263, 43.481619 ], [ 2.269316631734413, 43.480387098477152 ], [ 2.266693, 43.481508 ], [ 2.263634, 43.480136 ], [ 2.262766, 43.480023 ], [ 2.262195, 43.480144 ], [ 2.261248, 43.480659 ] ] ], [ [ [ 2.239251, 43.462634 ], [ 2.238822, 43.463914 ], [ 2.238721, 43.464695 ], [ 2.238754, 43.465311 ], [ 2.239094, 43.466605 ], [ 2.239194, 43.466938 ], [ 2.239667, 43.468399 ], [ 2.239914, 43.468981 ], [ 2.240432, 43.469994 ], [ 2.240975605436569, 43.472288471469447 ], [ 2.240994, 43.471546 ], [ 2.24103, 43.471036 ], [ 2.24131, 43.470283 ], [ 2.24142, 43.470114 ], [ 2.244593, 43.471627 ], [ 2.247632, 43.475951 ], [ 2.245454, 43.470503 ], [ 2.245272, 43.469368 ], [ 2.242527, 43.464207 ], [ 2.239528, 43.462217 ], [ 2.239251, 43.462634 ] ] ], [ [ [ 2.23806, 43.48262 ], [ 2.238121303089794, 43.482698864109516 ], [ 2.238348, 43.483119 ], [ 2.239397, 43.48434 ], [ 2.239082, 43.483735 ], [ 2.238968, 43.483245 ], [ 2.238912, 43.482681 ], [ 2.241217, 43.47401 ], [ 2.241014, 43.47354 ], [ 2.24095, 43.473322 ], [ 2.240959241773642, 43.472948968409383 ], [ 2.238001, 43.479107 ], [ 2.237174, 43.480104 ], [ 2.237893, 43.481903 ], [ 2.238014, 43.4825 ], [ 2.23806, 43.48262 ] ] ], [ [ [ 2.22969, 43.48883 ], [ 2.229582, 43.488697 ], [ 2.22955854035989, 43.488713708779912 ], [ 2.229378, 43.488554 ], [ 2.229102, 43.488282 ], [ 2.227245, 43.487938 ], [ 2.227015, 43.487961 ], [ 2.226292, 43.488992 ], [ 2.221134797945342, 43.490702086981429 ], [ 2.2219, 43.491713 ], [ 2.227446451025406, 43.492516285474409 ], [ 2.228587, 43.492446 ], [ 2.228590496723484, 43.492449747303013 ], [ 2.231275, 43.491917 ], [ 2.23157, 43.492405 ], [ 2.240321813419983, 43.493062910799765 ], [ 2.240596867671249, 43.491613917519608 ], [ 2.239794, 43.484761 ], [ 2.239397, 43.48434 ], [ 2.239879, 43.489832 ], [ 2.239763, 43.490142 ], [ 2.231013, 43.491144 ], [ 2.230314, 43.489402 ], [ 2.22969, 43.48883 ] ] ], [ [ [ 2.209672, 43.472664 ], [ 2.208977, 43.471847 ], [ 2.20777, 43.471548 ], [ 2.204449, 43.471247 ], [ 2.202313099618153, 43.47227308419307 ], [ 2.20211, 43.472361 ], [ 2.202106540617587, 43.472372314909627 ], [ 2.201541, 43.472644 ], [ 2.201174, 43.472944 ], [ 2.200764, 43.47342 ], [ 2.200388, 43.474379 ], [ 2.200454, 43.47534 ], [ 2.200634, 43.475782 ], [ 2.200732, 43.475958 ], [ 2.203265, 43.480046 ], [ 2.202542, 43.477768 ], [ 2.202241, 43.475121 ], [ 2.202591, 43.47378 ], [ 2.203515, 43.473075 ], [ 2.205964, 43.472205 ], [ 2.206863, 43.471888 ], [ 2.207079, 43.471832 ], [ 2.207992, 43.475314 ], [ 2.215558, 43.479772 ], [ 2.215820177451568, 43.480100342108102 ], [ 2.21744, 43.480765 ], [ 2.217442178305632, 43.480793869110791 ], [ 2.217693, 43.479211 ], [ 2.216155, 43.477555 ], [ 2.215678, 43.477089 ], [ 2.215138, 43.476819 ], [ 2.209672, 43.472664 ] ] ], [ [ [ 2.194015163092746, 43.500925365828429 ], [ 2.194766, 43.500565 ], [ 2.194953, 43.499944 ], [ 2.194944, 43.496972 ], [ 2.195296, 43.49339 ], [ 2.200028, 43.491737 ], [ 2.201077, 43.491176 ], [ 2.197245, 43.491834 ], [ 2.194354, 43.493259 ], [ 2.193245, 43.495743 ], [ 2.194435, 43.498483 ], [ 2.194015163092746, 43.500925365828429 ] ] ], [ [ [ 2.300527, 43.532392 ], [ 2.293260243761776, 43.531352930420965 ], [ 2.293260243761775, 43.531352930420965 ], [ 2.300527, 43.532392 ] ] ] ] } },
{ "type": "Feature", "properties": { "codgeo": "81120", "value": 1020, "isochrone_group": 17.0, "nb_agences": 2 }, "geometry": { "type": "MultiPolygon", "coordinates": [ [ [ [ 2.309754, 43.492092 ], [ 2.316182, 43.492746 ], [ 2.30885, 43.49171 ], [ 2.309754, 43.492092 ] ] ], [ [ [ 2.280782, 43.471626 ], [ 2.27841, 43.471311 ], [ 2.277049, 43.47158 ], [ 2.276201, 43.473425 ], [ 2.274663, 43.47718 ], [ 2.276424, 43.473284 ], [ 2.276685, 43.472765 ], [ 2.27963, 43.472931 ], [ 2.280033, 43.473233 ], [ 2.280045, 43.473311 ], [ 2.280094, 43.473702 ], [ 2.280168846343416, 43.474163113653418 ], [ 2.280205, 43.474159 ], [ 2.280293, 43.474928 ], [ 2.280234, 43.476089 ], [ 2.279912, 43.478094 ], [ 2.27984, 43.478811 ], [ 2.28209, 43.476327 ], [ 2.282608, 43.472955 ], [ 2.282551, 43.472757 ], [ 2.281726, 43.472183 ], [ 2.280782, 43.471626 ] ] ], [ [ [ 2.253244, 43.483184 ], [ 2.256991, 43.482118 ], [ 2.261248, 43.480659 ], [ 2.262195, 43.480144 ], [ 2.262766, 43.480023 ], [ 2.263634, 43.480136 ], [ 2.261984, 43.479379 ], [ 2.255131805239883, 43.478921587786026 ], [ 2.247632, 43.475951 ], [ 2.248125, 43.476997 ], [ 2.253244, 43.483184 ] ] ], [ [ [ 2.248233, 43.458063 ], [ 2.242773, 43.45798 ], [ 2.239179, 43.458184 ], [ 2.238535, 43.458728 ], [ 2.236695, 43.460316 ], [ 2.236706, 43.460848 ], [ 2.238754, 43.465311 ], [ 2.238721, 43.464695 ], [ 2.238822, 43.463914 ], [ 2.239251, 43.462634 ], [ 2.239528, 43.462217 ], [ 2.242527, 43.464207 ], [ 2.245272, 43.469368 ], [ 2.245454, 43.470503 ], [ 2.247632, 43.475951 ], [ 2.247632, 43.467963 ], [ 2.248759, 43.461624 ], [ 2.249436, 43.460128 ], [ 2.249449, 43.459619 ], [ 2.248233, 43.458063 ] ] ], [ [ [ 2.221999, 43.478591 ], [ 2.222337, 43.477881 ], [ 2.219129, 43.476247 ], [ 2.212028, 43.472665 ], [ 2.210525, 43.471202 ], [ 2.208344, 43.46804 ], [ 2.207667, 43.467477 ], [ 2.206937, 43.467274 ], [ 2.206325, 43.467311 ], [ 2.203444, 43.467913 ], [ 2.202991, 43.468017 ], [ 2.202414, 43.468318 ], [ 2.201574, 43.469015 ], [ 2.201274, 43.469364 ], [ 2.199335, 43.47344 ], [ 2.198591, 43.47539 ], [ 2.200661, 43.478854 ], [ 2.200918, 43.479295 ], [ 2.202976, 43.48044 ], [ 2.205378, 43.486067 ], [ 2.203265, 43.480046 ], [ 2.200732, 43.475958 ], [ 2.200634, 43.475782 ], [ 2.200454, 43.47534 ], [ 2.200388, 43.474379 ], [ 2.200764, 43.47342 ], [ 2.201174, 43.472944 ], [ 2.201541, 43.472644 ], [ 2.202106540617587, 43.472372314909627 ], [ 2.20211, 43.472361 ], [ 2.202313099618153, 43.47227308419307 ], [ 2.204449, 43.471247 ], [ 2.20777, 43.471548 ], [ 2.208977, 43.471847 ], [ 2.209672, 43.472664 ], [ 2.215138, 43.476819 ], [ 2.215678, 43.477089 ], [ 2.216155, 43.477555 ], [ 2.217693, 43.479211 ], [ 2.217162, 43.482562 ], [ 2.217056, 43.483324 ], [ 2.216773, 43.484049 ], [ 2.218635, 43.491531 ], [ 2.226292, 43.488992 ], [ 2.227015, 43.487961 ], [ 2.227245, 43.487938 ], [ 2.229102, 43.488282 ], [ 2.229378, 43.488554 ], [ 2.22955854035989, 43.488713708779912 ], [ 2.229582, 43.488697 ], [ 2.22969, 43.48883 ], [ 2.230314, 43.489402 ], [ 2.231013, 43.491144 ], [ 2.239763, 43.490142 ], [ 2.239879, 43.489832 ], [ 2.239397, 43.48434 ], [ 2.238348, 43.483119 ], [ 2.238121303089794, 43.482698864109516 ], [ 2.23806, 43.48262 ], [ 2.238014, 43.4825 ], [ 2.237893, 43.481903 ], [ 2.237174, 43.480104 ], [ 2.238001, 43.479107 ], [ 2.23567, 43.480295 ], [ 2.232846, 43.482528 ], [ 2.230219, 43.483978 ], [ 2.228439, 43.48479 ], [ 2.221999, 43.478591 ] ] ], [ [ [ 2.201077, 43.491176 ], [ 2.205378, 43.486067 ], [ 2.198425, 43.49104 ], [ 2.197639, 43.491525 ], [ 2.194354, 43.493259 ], [ 2.197245, 43.491834 ], [ 2.201077, 43.491176 ] ] ], [ [ [ 2.194435, 43.498483 ], [ 2.193245, 43.495743 ], [ 2.193907412313656, 43.50099616033814 ], [ 2.194012024029669, 43.500943627063357 ], [ 2.194435, 43.498483 ] ] ], [ [ [ 2.187871523575948, 43.504027226204251 ], [ 2.188071905286613, 43.503926599736502 ], [ 2.187289784086079, 43.504163129713668 ], [ 2.187293021712815, 43.504165856254666 ], [ 2.187871523575948, 43.504027226204251 ] ] ], [ [ [ 2.175557, 43.494717 ], [ 2.17428155595579, 43.49490655910499 ], [ 2.175542, 43.494788 ], [ 2.175613842713721, 43.494703479160307 ], [ 2.175557, 43.494717 ] ] ], [ [ [ 2.167826223085149, 43.494754838022594 ], [ 2.168015, 43.495496 ], [ 2.16826210257999, 43.495472757190562 ], [ 2.167826223085149, 43.494754838022594 ] ] ], [ [ [ 2.289802, 43.537029 ], [ 2.288909, 43.53632 ], [ 2.288615, 43.535953 ], [ 2.283561340124947, 43.536514723072045 ], [ 2.279974471115261, 43.539459046386121 ], [ 2.279974550136798, 43.539580660531541 ], [ 2.279974667381716, 43.53976110046095 ], [ 2.279974667381716, 43.53976110046095 ], [ 2.280090555793726, 43.543706781512363 ], [ 2.280102542553289, 43.543798874073694 ], [ 2.280115128939946, 43.54389557348432 ], [ 2.280285, 43.544706 ], [ 2.280429, 43.546307 ], [ 2.285838, 43.553152 ], [ 2.289595, 43.552291 ], [ 2.289626, 43.55231 ], [ 2.289245, 43.5533 ], [ 2.288086, 43.556021 ], [ 2.287307, 43.556438 ], [ 2.284397630980192, 43.559833583041787 ], [ 2.282880891294732, 43.565156531211365 ], [ 2.289526, 43.570197 ], [ 2.289556108984035, 43.570186145754555 ], [ 2.296248, 43.566195 ], [ 2.297734, 43.566269 ], [ 2.303237, 43.561749 ], [ 2.305354183974536, 43.561234988881147 ], [ 2.307002, 43.559187 ], [ 2.307343, 43.559408 ], [ 2.308002672582346, 43.559283043008946 ], [ 2.308049, 43.559196 ], [ 2.308575, 43.558175 ], [ 2.309277, 43.557646 ], [ 2.309735, 43.557444 ], [ 2.310859, 43.55772 ], [ 2.31086700895937, 43.557732259524407 ], [ 2.311166, 43.557545 ], [ 2.313625, 43.556292 ], [ 2.315332, 43.555192 ], [ 2.316871, 43.554302 ], [ 2.316900684826731, 43.55432800162815 ], [ 2.316937, 43.554308 ], [ 2.316993219722423, 43.554332324908252 ], [ 2.317055, 43.553993 ], [ 2.31765, 43.553145 ], [ 2.320348, 43.554626 ], [ 2.32926516159863, 43.555197804161828 ], [ 2.329422, 43.555132 ], [ 2.329569538034313, 43.55504624764027 ], [ 2.329917, 43.554835 ], [ 2.330009756588857, 43.55479038290661 ], [ 2.330093, 43.554742 ], [ 2.33033749144986, 43.554632738289939 ], [ 2.33047, 43.554569 ], [ 2.330548046819482, 43.554538642403323 ], [ 2.330592, 43.554519 ], [ 2.332957894701027, 43.553470190429387 ], [ 2.336272, 43.546962 ], [ 2.338742, 43.544343 ], [ 2.343190576326986, 43.544216408680086 ], [ 2.346252449869365, 43.541948123677443 ], [ 2.348307, 43.538417 ], [ 2.348359, 43.537957 ], [ 2.348372, 43.537864 ], [ 2.348496, 43.537019 ], [ 2.348853, 43.536403 ], [ 2.349343, 43.535952 ], [ 2.35130255197779, 43.533991985318075 ], [ 2.351265250470053, 43.530315998377588 ], [ 2.349908577233816, 43.529525629164112 ], [ 2.346988, 43.52931 ], [ 2.346217, 43.529419 ], [ 2.345504, 43.529372 ], [ 2.344721, 43.529027 ], [ 2.343946, 43.527898 ], [ 2.339237, 43.523199 ], [ 2.331062, 43.52267 ], [ 2.328329, 43.523439 ], [ 2.326725288061335, 43.523597347207009 ], [ 2.326133, 43.523724 ], [ 2.325650386855434, 43.523703480733651 ], [ 2.325635, 43.523705 ], [ 2.325584089535058, 43.523700661970018 ], [ 2.325545, 43.523699 ], [ 2.325440139614019, 43.523688396140741 ], [ 2.325013, 43.523652 ], [ 2.324931382932777, 43.523636948835886 ], [ 2.324833, 43.523627 ], [ 2.324117789097895, 43.523486912394524 ], [ 2.323576, 43.523387 ], [ 2.323499142558451, 43.523365738748986 ], [ 2.323429, 43.523352 ], [ 2.321110125406975, 43.523074336591755 ], [ 2.317845, 43.530921 ], [ 2.319734, 43.531808 ], [ 2.319599555322441, 43.532418733186425 ], [ 2.320866, 43.534881 ], [ 2.320592, 43.535062 ], [ 2.316817, 43.539282 ], [ 2.315919, 43.539239 ], [ 2.315610065499024, 43.539211996556446 ], [ 2.315598, 43.539226 ], [ 2.314283, 43.539096 ], [ 2.313932, 43.539097 ], [ 2.307929, 43.541204 ], [ 2.307447, 43.541217 ], [ 2.306915071915706, 43.54118677681339 ], [ 2.306151, 43.541179 ], [ 2.305414, 43.541075 ], [ 2.303712, 43.540284 ], [ 2.30188, 43.534146 ], [ 2.300663040362356, 43.532568359789778 ], [ 2.300207, 43.532389 ], [ 2.293422317209756, 43.531440205772384 ], [ 2.292776, 43.532763 ], [ 2.292825, 43.536363 ], [ 2.291861, 43.536895 ], [ 2.290977, 43.537195 ], [ 2.289802, 43.537029 ] ] ] ] } },
{ "type": "Feature", "properties": { "codgeo": "81120", "value": 1080, "isochrone_group": 18.0, "nb_agences": 2 }, "geometry": { "type": "MultiPolygon", "coordinates": [ [ [ [ 2.291266, 43.486704 ], [ 2.291864, 43.488872 ], [ 2.291493, 43.486769 ], [ 2.291266, 43.486704 ] ] ], [ [ [ 2.286271, 43.476492 ], [ 2.284832, 43.473192 ], [ 2.280782, 43.471626 ], [ 2.281726, 43.472183 ], [ 2.282551, 43.472757 ], [ 2.282608, 43.472955 ], [ 2.28209, 43.476327 ], [ 2.27984, 43.478811 ], [ 2.279142, 43.480902 ], [ 2.278967, 43.481815 ], [ 2.283308, 43.477989 ], [ 2.283929, 43.477923 ], [ 2.284465, 43.477729 ], [ 2.285009, 43.47737 ], [ 2.286271, 43.476492 ] ] ], [ [ [ 2.256601, 43.476037 ], [ 2.256174, 43.475902 ], [ 2.251011, 43.471419 ], [ 2.250441, 43.467864 ], [ 2.252082, 43.460591 ], [ 2.257631, 43.458545 ], [ 2.257759, 43.45853 ], [ 2.258368, 43.458245 ], [ 2.258379, 43.45824 ], [ 2.25868, 43.458059 ], [ 2.257991, 43.455182 ], [ 2.255257, 43.453603 ], [ 2.254497, 43.453152 ], [ 2.253797, 43.453044 ], [ 2.253378, 43.453088 ], [ 2.253024, 43.453183 ], [ 2.252045, 43.453447 ], [ 2.243134, 43.453821 ], [ 2.239583, 43.453229 ], [ 2.235337, 43.456048 ], [ 2.234661, 43.459632 ], [ 2.234731, 43.460219 ], [ 2.234851, 43.460614 ], [ 2.235271, 43.461516 ], [ 2.235398, 43.46168 ], [ 2.239094, 43.466605 ], [ 2.238754, 43.465311 ], [ 2.236706, 43.460848 ], [ 2.236695, 43.460316 ], [ 2.238535, 43.458728 ], [ 2.239179, 43.458184 ], [ 2.242773, 43.45798 ], [ 2.248233, 43.458063 ], [ 2.249449, 43.459619 ], [ 2.249436, 43.460128 ], [ 2.248759, 43.461624 ], [ 2.247632, 43.467963 ], [ 2.247632, 43.475951 ], [ 2.255131805239883, 43.478921587786026 ], [ 2.261984, 43.479379 ], [ 2.263634, 43.480136 ], [ 2.266693, 43.481508 ], [ 2.273523, 43.47859 ], [ 2.265156, 43.478805 ], [ 2.264726, 43.478687 ], [ 2.262135, 43.477626 ], [ 2.26142, 43.477419 ], [ 2.256601, 43.476037 ] ] ], [ [ [ 2.223978, 43.47518 ], [ 2.223567, 43.47438 ], [ 2.222389, 43.472644 ], [ 2.222258, 43.472626 ], [ 2.221864, 43.472581 ], [ 2.22137, 43.472616 ], [ 2.220792, 43.472795 ], [ 2.212807, 43.472442 ], [ 2.210294, 43.469568 ], [ 2.209658, 43.468351 ], [ 2.206327, 43.463806 ], [ 2.205602, 43.462773 ], [ 2.205, 43.462481 ], [ 2.204741, 43.46241 ], [ 2.203198, 43.46297 ], [ 2.202645, 43.463243 ], [ 2.202109, 43.463736 ], [ 2.201794, 43.464258 ], [ 2.201613, 43.464916 ], [ 2.20161, 43.465623 ], [ 2.196543, 43.472191 ], [ 2.195524, 43.472352 ], [ 2.196089, 43.475908 ], [ 2.196284, 43.480929 ], [ 2.197827, 43.481106 ], [ 2.198409, 43.481135 ], [ 2.201117639977166, 43.481939211585612 ], [ 2.197884, 43.488302 ], [ 2.197628, 43.488643 ], [ 2.197322, 43.489214 ], [ 2.194354, 43.493259 ], [ 2.197639, 43.491525 ], [ 2.198425, 43.49104 ], [ 2.205378, 43.486067 ], [ 2.202976, 43.48044 ], [ 2.200918, 43.479295 ], [ 2.200661, 43.478854 ], [ 2.198591, 43.47539 ], [ 2.199335, 43.47344 ], [ 2.201274, 43.469364 ], [ 2.201574, 43.469015 ], [ 2.202414, 43.468318 ], [ 2.202991, 43.468017 ], [ 2.203444, 43.467913 ], [ 2.206325, 43.467311 ], [ 2.206937, 43.467274 ], [ 2.207667, 43.467477 ], [ 2.208344, 43.46804 ], [ 2.210525, 43.471202 ], [ 2.212028, 43.472665 ], [ 2.219129, 43.476247 ], [ 2.222337, 43.477881 ], [ 2.221999, 43.478591 ], [ 2.228439, 43.48479 ], [ 2.230219, 43.483978 ], [ 2.232846, 43.482528 ], [ 2.23567, 43.480295 ], [ 2.238001, 43.479107 ], [ 2.241075, 43.472708 ], [ 2.240432, 43.469994 ], [ 2.240827826130576, 43.471664718691095 ], [ 2.233791, 43.476692 ], [ 2.232680697263283, 43.4777975510845 ], [ 2.229841472623552, 43.477207223682001 ], [ 2.223978, 43.47518 ] ] ], [ [ [ 2.193796873274804, 43.502195248449105 ], [ 2.193947857913972, 43.501316908034163 ], [ 2.193905143751919, 43.500978169853539 ], [ 2.187282293387073, 43.504156821482439 ], [ 2.187289784086079, 43.504163129713668 ], [ 2.193796873274804, 43.502195248449105 ] ] ], [ [ [ 2.180147, 43.495024 ], [ 2.180221, 43.495866 ], [ 2.18453, 43.501839 ], [ 2.180147, 43.495024 ] ] ] ] } },
{ "type": "Feature", "properties": { "codgeo": "81120", "value": 1140, "isochrone_group": 19.0, "nb_agences": 2 }, "geometry": { "type": "MultiPolygon", "coordinates": [ [ [ [ 2.291864, 43.488872 ], [ 2.300134, 43.492183 ], [ 2.300678, 43.492039 ], [ 2.301478, 43.491797 ], [ 2.301508, 43.491794 ], [ 2.301758199961093, 43.491839604487296 ], [ 2.296288, 43.488467 ], [ 2.29399, 43.485696 ], [ 2.290061, 43.486259 ], [ 2.291266, 43.486704 ], [ 2.291493, 43.486769 ], [ 2.291864, 43.488872 ] ] ], [ [ [ 2.288898439712606, 43.473523089222724 ], [ 2.289967, 43.471297 ], [ 2.28943, 43.470705 ], [ 2.289211, 43.470496 ], [ 2.288502, 43.470107 ], [ 2.286982, 43.470251 ], [ 2.27841, 43.471311 ], [ 2.280782, 43.471626 ], [ 2.284832, 43.473192 ], [ 2.286271, 43.476492 ], [ 2.285009, 43.47737 ], [ 2.286529, 43.476353 ], [ 2.287439, 43.475726 ], [ 2.287757, 43.475353 ], [ 2.288274, 43.474787 ], [ 2.28864, 43.474244 ], [ 2.288898439712606, 43.473523089222724 ] ] ], [ [ [ 2.256774, 43.467675 ], [ 2.254622652721748, 43.466970685015646 ], [ 2.252405947709165, 43.46047155559328 ], [ 2.252082, 43.460591 ], [ 2.250441, 43.467864 ], [ 2.251011, 43.471419 ], [ 2.256174, 43.475902 ], [ 2.256601, 43.476037 ], [ 2.26142, 43.477419 ], [ 2.262135, 43.477626 ], [ 2.264726, 43.478687 ], [ 2.265156, 43.478805 ], [ 2.273523, 43.47859 ], [ 2.274663, 43.47718 ], [ 2.276201, 43.473425 ], [ 2.271935473699409, 43.476654612770446 ], [ 2.267369, 43.475775 ], [ 2.261239, 43.474797 ], [ 2.257316, 43.467862 ], [ 2.257124, 43.467783 ], [ 2.256774, 43.467675 ] ] ], [ [ [ 2.261522, 43.457987 ], [ 2.261475, 43.45711 ], [ 2.261151, 43.452707 ], [ 2.260948, 43.450659 ], [ 2.260125, 43.450339 ], [ 2.251951, 43.451345 ], [ 2.251652412980811, 43.451571926134577 ], [ 2.251634, 43.451568 ], [ 2.243233, 43.451748 ], [ 2.242275, 43.450951 ], [ 2.240021, 43.450221 ], [ 2.234729, 43.450579 ], [ 2.233734, 43.451137 ], [ 2.233269, 43.451503 ], [ 2.232708, 43.452761 ], [ 2.23308, 43.454023 ], [ 2.234661, 43.459632 ], [ 2.235337, 43.456048 ], [ 2.239583, 43.453229 ], [ 2.243134, 43.453821 ], [ 2.252045, 43.453447 ], [ 2.253024, 43.453183 ], [ 2.253378, 43.453088 ], [ 2.253797, 43.453044 ], [ 2.254497, 43.453152 ], [ 2.255257, 43.453603 ], [ 2.257991, 43.455182 ], [ 2.25868, 43.458059 ], [ 2.258379, 43.45824 ], [ 2.258368, 43.458245 ], [ 2.257759, 43.45853 ], [ 2.257631, 43.458545 ], [ 2.254099036561807, 43.459847288195085 ], [ 2.257966, 43.458879 ], [ 2.258726, 43.45915 ], [ 2.258893, 43.459177 ], [ 2.259975708018585, 43.458007263592712 ], [ 2.261499, 43.458113 ], [ 2.261522, 43.457987 ] ] ], [ [ [ 2.225443, 43.47102 ], [ 2.224309, 43.470818 ], [ 2.224058, 43.470779 ], [ 2.223331, 43.470776 ], [ 2.217205195185107, 43.470582501572324 ], [ 2.21261, 43.467191 ], [ 2.211578, 43.466521 ], [ 2.210221, 43.466065 ], [ 2.20396, 43.459935 ], [ 2.203042, 43.457754 ], [ 2.199547, 43.456891 ], [ 2.19908, 43.458581 ], [ 2.198957, 43.459189 ], [ 2.199044, 43.460025 ], [ 2.199401, 43.460757 ], [ 2.199847, 43.461281 ], [ 2.201009, 43.46352 ], [ 2.201215, 43.464205 ], [ 2.20161, 43.465623 ], [ 2.201613, 43.464916 ], [ 2.201794, 43.464258 ], [ 2.202109, 43.463736 ], [ 2.202645, 43.463243 ], [ 2.203198, 43.46297 ], [ 2.204741, 43.46241 ], [ 2.205, 43.462481 ], [ 2.205602, 43.462773 ], [ 2.206327, 43.463806 ], [ 2.209658, 43.468351 ], [ 2.210294, 43.469568 ], [ 2.212807, 43.472442 ], [ 2.220792, 43.472795 ], [ 2.22137, 43.472616 ], [ 2.221864, 43.472581 ], [ 2.222258, 43.472626 ], [ 2.222389, 43.472644 ], [ 2.223567, 43.47438 ], [ 2.223978, 43.47518 ], [ 2.229841472623552, 43.477207223682001 ], [ 2.232680697263283, 43.4777975510845 ], [ 2.233791, 43.476692 ], [ 2.240827826130576, 43.471664718691095 ], [ 2.240432, 43.469994 ], [ 2.239914, 43.468981 ], [ 2.239667, 43.468399 ], [ 2.239194, 43.466938 ], [ 2.239094, 43.466605 ], [ 2.235398, 43.46168 ], [ 2.235271, 43.461516 ], [ 2.234851, 43.460614 ], [ 2.234933, 43.464998 ], [ 2.235005, 43.46583 ], [ 2.235739, 43.466039 ], [ 2.234477, 43.474819 ], [ 2.226385, 43.47213 ], [ 2.225443, 43.47102 ] ] ], [ [ [ 2.190990929977167, 43.470879169946727 ], [ 2.190043, 43.471302 ], [ 2.189691158457965, 43.471735611589445 ], [ 2.192723, 43.472502 ], [ 2.192957, 43.472943 ], [ 2.193139, 43.473444 ], [ 2.192974, 43.474742 ], [ 2.192562, 43.475295 ], [ 2.192188, 43.475622 ], [ 2.191283, 43.476493 ], [ 2.190481, 43.476717 ], [ 2.19022521895628, 43.476744318000868 ], [ 2.190953, 43.480161 ], [ 2.191235, 43.480261 ], [ 2.196328, 43.483736 ], [ 2.198385, 43.486431 ], [ 2.198721521661867, 43.486654020272965 ], [ 2.201117639977166, 43.481939211585612 ], [ 2.198409, 43.481135 ], [ 2.197827, 43.481106 ], [ 2.196284, 43.480929 ], [ 2.196089, 43.475908 ], [ 2.195524, 43.472352 ], [ 2.196543, 43.472191 ], [ 2.20161, 43.465623 ], [ 2.194298, 43.470442 ], [ 2.193037, 43.470086 ], [ 2.192426, 43.470204 ], [ 2.192177, 43.470303 ], [ 2.190984, 43.470863 ], [ 2.190990929977167, 43.470879169946727 ] ] ], [ [ [ 2.161030329550166, 43.48432339812171 ], [ 2.164715, 43.483654 ], [ 2.165041, 43.483086 ], [ 2.161030329550166, 43.48432339812171 ] ] ], [ [ [ 2.16103032955016, 43.48432339812171 ], [ 2.156062, 43.485226 ], [ 2.161030329550166, 43.48432339812171 ], [ 2.16103032955016, 43.48432339812171 ] ] ], [ [ [ 2.179219, 43.492806 ], [ 2.179507, 43.493076 ], [ 2.178831, 43.492125 ], [ 2.178690652516895, 43.491957897311089 ], [ 2.179142768148881, 43.492790659225008 ], [ 2.179219, 43.492806 ] ] ] ] } },
{ "type": "Feature", "properties": { "codgeo": "81120", "value": 1200, "isochrone_group": 20.0, "nb_agences": 2 }, "geometry": { "type": "MultiPolygon", "coordinates": [ [ [ [ 2.292396, 43.475753 ], [ 2.292794, 43.474585 ], [ 2.292713, 43.474002 ], [ 2.292517, 43.473447 ], [ 2.292015, 43.472547 ], [ 2.291523, 43.471953 ], [ 2.289211, 43.470496 ], [ 2.28943, 43.470705 ], [ 2.289967, 43.471297 ], [ 2.288898439712606, 43.473523089222724 ], [ 2.28864, 43.474244 ], [ 2.288274, 43.474787 ], [ 2.287757, 43.475353 ], [ 2.287439, 43.475726 ], [ 2.286529, 43.476353 ], [ 2.285009, 43.47737 ], [ 2.284465, 43.477729 ], [ 2.283929, 43.477923 ], [ 2.283308, 43.477989 ], [ 2.278967, 43.481815 ], [ 2.278867, 43.484431 ], [ 2.286269, 43.487557 ], [ 2.287893, 43.486826 ], [ 2.288791, 43.486517 ], [ 2.290061, 43.486259 ], [ 2.29399, 43.485696 ], [ 2.296288, 43.488467 ], [ 2.301997817206791, 43.491987338428238 ], [ 2.302182517644727, 43.491980108703629 ], [ 2.29883, 43.485426 ], [ 2.298804, 43.485184 ], [ 2.298105, 43.483949 ], [ 2.297476, 43.483563 ], [ 2.296795, 43.483336 ], [ 2.292396, 43.475753 ] ] ], [ [ [ 2.259847394803122, 43.458145890662131 ], [ 2.258893, 43.459177 ], [ 2.258726, 43.45915 ], [ 2.257966, 43.458879 ], [ 2.252343, 43.460287 ], [ 2.254622652721748, 43.466970685015646 ], [ 2.256774, 43.467675 ], [ 2.257124, 43.467783 ], [ 2.257316, 43.467862 ], [ 2.261239, 43.474797 ], [ 2.267369, 43.475775 ], [ 2.271935473699409, 43.476654612770446 ], [ 2.276201, 43.473425 ], [ 2.277049, 43.47158 ], [ 2.269047, 43.474026 ], [ 2.268799, 43.474021 ], [ 2.263506, 43.473391 ], [ 2.262443, 43.466699 ], [ 2.26146, 43.466147 ], [ 2.259847394803122, 43.458145890662131 ] ] ], [ [ [ 2.266337, 43.453053 ], [ 2.263136, 43.446056 ], [ 2.262419, 43.44406 ], [ 2.26236, 43.443956 ], [ 2.261078, 43.443661 ], [ 2.260898, 43.443684 ], [ 2.260761, 43.443711 ], [ 2.256969, 43.445741 ], [ 2.252344, 43.449215 ], [ 2.244839807886302, 43.449738961342845 ], [ 2.243919, 43.449531 ], [ 2.242439239237753, 43.449094932845867 ], [ 2.240659, 43.448226 ], [ 2.237815, 43.447639 ], [ 2.237366, 43.447524 ], [ 2.234538, 43.448046 ], [ 2.233269, 43.451503 ], [ 2.233734, 43.451137 ], [ 2.234729, 43.450579 ], [ 2.240021, 43.450221 ], [ 2.242275, 43.450951 ], [ 2.243233, 43.451748 ], [ 2.251634, 43.451568 ], [ 2.251652412980811, 43.451571926134577 ], [ 2.251951, 43.451345 ], [ 2.260125, 43.450339 ], [ 2.260948, 43.450659 ], [ 2.261151, 43.452707 ], [ 2.261448601947603, 43.456751263503989 ], [ 2.264114, 43.455617 ], [ 2.26463, 43.45562 ], [ 2.265378, 43.455437 ], [ 2.26619, 43.454856 ], [ 2.266505, 43.454467 ], [ 2.266337, 43.453053 ] ] ], [ [ [ 2.214807, 43.465557 ], [ 2.209113, 43.461865 ], [ 2.20714, 43.455926 ], [ 2.204933, 43.452307 ], [ 2.20446, 43.451132 ], [ 2.204171, 43.450505 ], [ 2.204161, 43.450488 ], [ 2.20104, 43.452283 ], [ 2.199676, 43.455323 ], [ 2.199501, 43.456038 ], [ 2.19908, 43.458581 ], [ 2.199547, 43.456891 ], [ 2.203042, 43.457754 ], [ 2.20396, 43.459935 ], [ 2.210221, 43.466065 ], [ 2.211578, 43.466521 ], [ 2.21261, 43.467191 ], [ 2.217205195185107, 43.470582501572324 ], [ 2.223331, 43.470776 ], [ 2.224058, 43.470779 ], [ 2.224309, 43.470818 ], [ 2.225443, 43.47102 ], [ 2.226385, 43.47213 ], [ 2.234477, 43.474819 ], [ 2.235739, 43.466039 ], [ 2.235005, 43.46583 ], [ 2.234933, 43.464998 ], [ 2.234851, 43.460614 ], [ 2.234731, 43.460219 ], [ 2.234661, 43.459632 ], [ 2.23308, 43.454023 ], [ 2.232708, 43.452761 ], [ 2.231964, 43.459538 ], [ 2.230072, 43.462601 ], [ 2.229651, 43.46383 ], [ 2.221379, 43.467136 ], [ 2.215409, 43.465698 ], [ 2.214807, 43.465557 ] ] ], [ [ [ 2.188619, 43.481904 ], [ 2.189605897601868, 43.482200801400438 ], [ 2.196341, 43.486456 ], [ 2.196335, 43.486555 ], [ 2.198804516068781, 43.48699336729306 ], [ 2.200068879409409, 43.488278930950493 ], [ 2.201307325283508, 43.49421544280559 ], [ 2.201488089764979, 43.493706985405169 ], [ 2.201475255639544, 43.492601934297248 ], [ 2.201249, 43.491735 ], [ 2.201457495269632, 43.491072720908235 ], [ 2.201432126820103, 43.488888432356589 ], [ 2.201024225747207, 43.488180072684543 ], [ 2.198385, 43.486431 ], [ 2.196328, 43.483736 ], [ 2.191235, 43.480261 ], [ 2.190953, 43.480161 ], [ 2.19022521895628, 43.476744318000868 ], [ 2.188908, 43.476885 ], [ 2.188261, 43.476826 ], [ 2.187521, 43.476509 ], [ 2.184754264148098, 43.476220145816711 ], [ 2.185465, 43.480169 ], [ 2.187106, 43.48115 ], [ 2.188619, 43.481904 ] ] ], [ [ [ 2.194766, 43.500565 ], [ 2.190434688356008, 43.502643822569439 ], [ 2.190434688356011, 43.502643822569439 ], [ 2.194766, 43.500565 ] ] ], [ [ [ 2.172976230637273, 43.479313578109647 ], [ 2.172773, 43.479461 ], [ 2.172878242321109, 43.479761008490364 ], [ 2.172976230637273, 43.479313578109647 ] ] ], [ [ [ 2.178831, 43.492125 ], [ 2.179507, 43.493076 ], [ 2.178486, 43.490419 ], [ 2.178121, 43.489733 ], [ 2.177119, 43.488419 ], [ 2.174786663354915, 43.485201239258153 ], [ 2.175719, 43.487859 ], [ 2.176219, 43.488205 ], [ 2.1776, 43.489949 ], [ 2.178690652516895, 43.491957897311089 ], [ 2.178831, 43.492125 ] ] ] ] } }
]
}
