{
"type": "FeatureCollection",
"name": "Credit_Agricole",
"crs": { "type": "name", "properties": { "name": "urn:ogc:def:crs:OGC:1.3:CRS84" } },
"features": [
{ "type": "Feature", "properties": { "codgeo": "81227", "value": 60, "isochrone_group": 1.0, "nb_agences": 1 }, "geometry": { "type": "Polygon", "coordinates": [ [ [ 2.280393, 43.664344 ], [ 2.280575, 43.663444 ], [ 2.281503, 43.661337 ], [ 2.281783, 43.661111 ], [ 2.287359, 43.661291 ], [ 2.287715, 43.661342 ], [ 2.293409, 43.662088 ], [ 2.29373, 43.66227 ], [ 2.294051, 43.662453 ], [ 2.295794, 43.664448 ], [ 2.294758, 43.669189 ], [ 2.294695, 43.669362 ], [ 2.294573, 43.669554 ], [ 2.29445, 43.669746 ], [ 2.290378, 43.670316 ], [ 2.29009, 43.670358 ], [ 2.289802, 43.670399 ], [ 2.28975, 43.670043 ], [ 2.288023, 43.66478 ], [ 2.286497, 43.664658 ], [ 2.281496, 43.664527 ], [ 2.280477, 43.664694 ], [ 2.280393, 43.664344 ] ] ] } },
{ "type": "Feature", "properties": { "codgeo": "81227", "value": 120, "isochrone_group": 2.0, "nb_agences": 1 }, "geometry": { "type": "Polygon", "coordinates": [ [ [ 2.281773, 43.66043 ], [ 2.281248, 43.658461 ], [ 2.278285, 43.655454 ], [ 2.277921, 43.655061 ], [ 2.277256, 43.654287 ], [ 2.27452, 43.653479 ], [ 2.274352, 43.653798 ], [ 2.275873, 43.655767 ], [ 2.278955, 43.65735 ], [ 2.279515, 43.658728 ], [ 2.276245, 43.662838 ], [ 2.274312, 43.661825 ], [ 2.274003, 43.662009 ], [ 2.271792, 43.663332 ], [ 2.271777, 43.663692 ], [ 2.272753, 43.668672 ], [ 2.273845, 43.668823 ], [ 2.274411, 43.668537 ], [ 2.274505, 43.668487 ], [ 2.275438, 43.668057 ], [ 2.276219, 43.667748 ], [ 2.276433, 43.667643 ], [ 2.276634, 43.667544 ], [ 2.276811, 43.667427 ], [ 2.276967, 43.667322 ], [ 2.277204, 43.667142 ], [ 2.277643, 43.666851 ], [ 2.277876, 43.666721 ], [ 2.278043, 43.666608 ], [ 2.278196, 43.666503 ], [ 2.278443, 43.666255 ], [ 2.283167, 43.665715 ], [ 2.284884, 43.67135 ], [ 2.282696, 43.67229 ], [ 2.282031, 43.673188 ], [ 2.279813, 43.674694 ], [ 2.279914, 43.675039 ], [ 2.280217, 43.674951 ], [ 2.280519, 43.674863 ], [ 2.281259, 43.674672 ], [ 2.282004, 43.67448 ], [ 2.287384, 43.676036 ], [ 2.287744, 43.676051 ], [ 2.290931, 43.673848 ], [ 2.294612, 43.672476 ], [ 2.295312, 43.67194 ], [ 2.297909, 43.669076 ], [ 2.301102, 43.669286 ], [ 2.302607, 43.668467 ], [ 2.302734, 43.66813 ], [ 2.30234, 43.667799 ], [ 2.299547, 43.666436 ], [ 2.296644, 43.663851 ], [ 2.292876, 43.660941 ], [ 2.292569, 43.660754 ], [ 2.289543, 43.660335 ], [ 2.287359, 43.661291 ], [ 2.281773, 43.66043 ] ], [ [ 2.287715, 43.661342 ], [ 2.293409, 43.662088 ], [ 2.29373, 43.66227 ], [ 2.294051, 43.662453 ], [ 2.295794, 43.664448 ], [ 2.294758, 43.669189 ], [ 2.294695, 43.669362 ], [ 2.294573, 43.669554 ], [ 2.29445, 43.669746 ], [ 2.290378, 43.670316 ], [ 2.29009, 43.670358 ], [ 2.289802, 43.670399 ], [ 2.28975, 43.670043 ], [ 2.288023, 43.66478 ], [ 2.286497, 43.664658 ], [ 2.281496, 43.664527 ], [ 2.280477, 43.664694 ], [ 2.280393, 43.664344 ], [ 2.280575, 43.663444 ], [ 2.281503, 43.661337 ], [ 2.281783, 43.661111 ], [ 2.287359, 43.661291 ], [ 2.287715, 43.661342 ] ] ] } },
{ "type": "Feature", "properties": { "codgeo": "81227", "value": 180, "isochrone_group": 3.0, "nb_agences": 1 }, "geometry": { "type": "MultiPolygon", "coordinates": [ [ [ [ 2.273249, 43.649161 ], [ 2.272891, 43.649129 ], [ 2.270256, 43.652049 ], [ 2.2701, 43.652232 ], [ 2.270016, 43.652423 ], [ 2.270013, 43.652651 ], [ 2.270103, 43.652855 ], [ 2.26885, 43.660374 ], [ 2.264966, 43.661677 ], [ 2.263282, 43.662278 ], [ 2.261677, 43.664732 ], [ 2.261728, 43.665088 ], [ 2.264214, 43.671773 ], [ 2.264434, 43.672059 ], [ 2.265206, 43.671464 ], [ 2.265979, 43.67087 ], [ 2.266238, 43.670623 ], [ 2.266482, 43.670388 ], [ 2.269255, 43.668848 ], [ 2.270263, 43.668629 ], [ 2.272352, 43.668664 ], [ 2.274654, 43.676948 ], [ 2.273808, 43.677669 ], [ 2.273394, 43.677944 ], [ 2.273288, 43.678107 ], [ 2.27317, 43.678291 ], [ 2.272137, 43.679852 ], [ 2.271374, 43.680833 ], [ 2.271659, 43.681054 ], [ 2.277879, 43.676619 ], [ 2.281259, 43.674672 ], [ 2.280519, 43.674863 ], [ 2.280217, 43.674951 ], [ 2.279914, 43.675039 ], [ 2.279813, 43.674694 ], [ 2.282031, 43.673188 ], [ 2.282696, 43.67229 ], [ 2.284884, 43.67135 ], [ 2.283167, 43.665715 ], [ 2.278443, 43.666255 ], [ 2.278196, 43.666503 ], [ 2.278043, 43.666608 ], [ 2.277876, 43.666721 ], [ 2.277643, 43.666851 ], [ 2.277204, 43.667142 ], [ 2.276967, 43.667322 ], [ 2.276811, 43.667427 ], [ 2.276634, 43.667544 ], [ 2.276433, 43.667643 ], [ 2.276219, 43.667748 ], [ 2.275438, 43.668057 ], [ 2.274505, 43.668487 ], [ 2.274411, 43.668537 ], [ 2.273845, 43.668823 ], [ 2.272753, 43.668672 ], [ 2.271777, 43.663692 ], [ 2.271792, 43.663332 ], [ 2.274003, 43.662009 ], [ 2.274312, 43.661825 ], [ 2.276245, 43.662838 ], [ 2.279515, 43.658728 ], [ 2.278955, 43.65735 ], [ 2.275873, 43.655767 ], [ 2.274352, 43.653798 ], [ 2.27452, 43.653479 ], [ 2.277171344633254, 43.654261999438482 ], [ 2.273249, 43.649161 ] ] ], [ [ [ 2.287751, 43.67691 ], [ 2.287947, 43.677149 ], [ 2.288121, 43.677272 ], [ 2.288336, 43.677366 ], [ 2.292747, 43.679318 ], [ 2.296085, 43.678761 ], [ 2.296103, 43.678567 ], [ 2.304016, 43.674915 ], [ 2.304691, 43.675528 ], [ 2.305002, 43.675346 ], [ 2.308117, 43.666938 ], [ 2.308124, 43.666085 ], [ 2.307766, 43.666042 ], [ 2.299107, 43.665801 ], [ 2.294248, 43.658999 ], [ 2.294194, 43.658828 ], [ 2.28708, 43.659179 ], [ 2.281248, 43.658461 ], [ 2.281773, 43.66043 ], [ 2.287359, 43.661291 ], [ 2.289543, 43.660335 ], [ 2.292569, 43.660754 ], [ 2.292876, 43.660941 ], [ 2.296644, 43.663851 ], [ 2.299547, 43.666436 ], [ 2.30234, 43.667799 ], [ 2.302734, 43.66813 ], [ 2.302607, 43.668467 ], [ 2.301102, 43.669286 ], [ 2.297909, 43.669076 ], [ 2.295312, 43.67194 ], [ 2.294612, 43.672476 ], [ 2.290931, 43.673848 ], [ 2.287744, 43.676051 ], [ 2.287384, 43.676036 ], [ 2.282004, 43.67448 ], [ 2.281259, 43.674672 ], [ 2.287751, 43.67691 ] ] ] ] } },
{ "type": "Feature", "properties": { "codgeo": "81227", "value": 240, "isochrone_group": 4.0, "nb_agences": 1 }, "geometry": { "type": "MultiPolygon", "coordinates": [ [ [ [ 2.262969, 43.660618 ], [ 2.262116, 43.660524 ], [ 2.259786, 43.661187 ], [ 2.259449, 43.661248 ], [ 2.259209, 43.66131 ], [ 2.258943, 43.66138 ], [ 2.258665, 43.661507 ], [ 2.258343, 43.66175 ], [ 2.25802, 43.661993 ], [ 2.256899, 43.66538 ], [ 2.25274, 43.669335 ], [ 2.254841, 43.67546 ], [ 2.259314, 43.676032 ], [ 2.259556, 43.675765 ], [ 2.261964, 43.673426 ], [ 2.262397, 43.673167 ], [ 2.262829, 43.672907 ], [ 2.263411, 43.672624 ], [ 2.264006, 43.672333 ], [ 2.264188, 43.672221 ], [ 2.264354, 43.672119 ], [ 2.264433292452833, 43.672058080188677 ], [ 2.264214, 43.671773 ], [ 2.261728, 43.665088 ], [ 2.261677, 43.664732 ], [ 2.263282, 43.662278 ], [ 2.264966, 43.661677 ], [ 2.26885, 43.660374 ], [ 2.26919881625605, 43.658280824078815 ], [ 2.262969, 43.660618 ] ] ], [ [ [ 2.278776, 43.647824 ], [ 2.278759, 43.647465 ], [ 2.275873, 43.640917 ], [ 2.275514, 43.640902 ], [ 2.270159, 43.646247 ], [ 2.267243, 43.648457 ], [ 2.26711, 43.648791 ], [ 2.270013, 43.652651 ], [ 2.270016, 43.652423 ], [ 2.2701, 43.652232 ], [ 2.270256, 43.652049 ], [ 2.272891, 43.649129 ], [ 2.273249, 43.649161 ], [ 2.277269, 43.654389 ], [ 2.278285, 43.655454 ], [ 2.278776, 43.647824 ] ] ], [ [ [ 2.297225, 43.661066 ], [ 2.297083, 43.660888 ], [ 2.29694, 43.66071 ], [ 2.296684, 43.660481 ], [ 2.296449, 43.660276 ], [ 2.29618, 43.660087 ], [ 2.295926, 43.65991 ], [ 2.292341, 43.656616 ], [ 2.284418, 43.656958 ], [ 2.278285, 43.655454 ], [ 2.281248, 43.658461 ], [ 2.28708, 43.659179 ], [ 2.294194, 43.658828 ], [ 2.294248, 43.658999 ], [ 2.299107, 43.665801 ], [ 2.299405835532944, 43.665809317284157 ], [ 2.297225, 43.661066 ] ] ], [ [ [ 2.30849, 43.662497 ], [ 2.308275, 43.662208 ], [ 2.308109, 43.662332 ], [ 2.307943, 43.662456 ], [ 2.307729, 43.662663 ], [ 2.307574, 43.662962 ], [ 2.300256179926699, 43.665832984335644 ], [ 2.307766, 43.666042 ], [ 2.308124, 43.666085 ], [ 2.308117, 43.666938 ], [ 2.30849, 43.662497 ] ] ], [ [ [ 2.293556, 43.681996 ], [ 2.295395, 43.684675 ], [ 2.295735, 43.684792 ], [ 2.297456, 43.684785 ], [ 2.297486, 43.684427 ], [ 2.305574, 43.68056 ], [ 2.309364, 43.679182 ], [ 2.309664, 43.678983 ], [ 2.309557, 43.678821 ], [ 2.309396, 43.678662 ], [ 2.306859, 43.674638 ], [ 2.308117, 43.666938 ], [ 2.305002, 43.675346 ], [ 2.304691, 43.675528 ], [ 2.304016, 43.674915 ], [ 2.296103, 43.678567 ], [ 2.296085, 43.678761 ], [ 2.292747, 43.679318 ], [ 2.288336, 43.677366 ], [ 2.288121, 43.677272 ], [ 2.293556, 43.681996 ] ] ], [ [ [ 2.265174, 43.671489 ], [ 2.271395, 43.671691 ], [ 2.272117, 43.679877 ], [ 2.271334, 43.680884 ], [ 2.27054, 43.681929 ], [ 2.267792, 43.684303 ], [ 2.267483, 43.684488 ], [ 2.266972, 43.685234 ], [ 2.268614, 43.688731 ], [ 2.269769, 43.689163 ], [ 2.270096, 43.689011 ], [ 2.270176, 43.688423 ], [ 2.270155, 43.688064 ], [ 2.272250337194988, 43.680632363270149 ], [ 2.271659, 43.681054 ], [ 2.271374, 43.680833 ], [ 2.272137, 43.679852 ], [ 2.27317, 43.678291 ], [ 2.273288, 43.678107 ], [ 2.273394, 43.677944 ], [ 2.273808, 43.677669 ], [ 2.274654, 43.676948 ], [ 2.272352, 43.668664 ], [ 2.270263, 43.668629 ], [ 2.269255, 43.668848 ], [ 2.266482, 43.670388 ], [ 2.266238, 43.670623 ], [ 2.265979, 43.67087 ], [ 2.265206, 43.671464 ], [ 2.265035558440888, 43.671595363636882 ], [ 2.265174, 43.671489 ] ] ] ] } },
{ "type": "Feature", "properties": { "codgeo": "81227", "value": 300, "isochrone_group": 5.0, "nb_agences": 1 }, "geometry": { "type": "MultiPolygon", "coordinates": [ [ [ [ 2.26204, 43.660498 ], [ 2.261712, 43.660463 ], [ 2.261351, 43.660427 ], [ 2.260981, 43.660458 ], [ 2.2606, 43.660491 ], [ 2.260032, 43.660572 ], [ 2.259453, 43.660655 ], [ 2.259175, 43.660711 ], [ 2.258896, 43.660767 ], [ 2.253865, 43.661496 ], [ 2.253663, 43.661502 ], [ 2.253082, 43.661617 ], [ 2.2525, 43.661732 ], [ 2.250779, 43.667443 ], [ 2.247008, 43.670575 ], [ 2.244584, 43.671513 ], [ 2.244594, 43.671618 ], [ 2.244655, 43.671866 ], [ 2.246188, 43.676554 ], [ 2.246645, 43.676501 ], [ 2.247101, 43.676447 ], [ 2.24957, 43.676298 ], [ 2.249862, 43.676269 ], [ 2.250101, 43.676215 ], [ 2.250288, 43.676139 ], [ 2.254507, 43.675482 ], [ 2.260482, 43.677414 ], [ 2.26083, 43.677319 ], [ 2.264184, 43.685661 ], [ 2.263173, 43.686212 ], [ 2.262438, 43.689456 ], [ 2.262478, 43.689814 ], [ 2.26468, 43.696751 ], [ 2.26498, 43.69695 ], [ 2.26701, 43.695587 ], [ 2.267705, 43.694843 ], [ 2.268349, 43.694138 ], [ 2.27332, 43.689287 ], [ 2.273346, 43.686301 ], [ 2.273194353974449, 43.679594152158259 ], [ 2.272401, 43.680098 ], [ 2.270155, 43.688064 ], [ 2.270176, 43.688423 ], [ 2.270096, 43.689011 ], [ 2.269769, 43.689163 ], [ 2.268614, 43.688731 ], [ 2.266972, 43.685234 ], [ 2.267483, 43.684488 ], [ 2.267792, 43.684303 ], [ 2.27054, 43.681929 ], [ 2.271334, 43.680884 ], [ 2.272117, 43.679877 ], [ 2.271395, 43.671691 ], [ 2.265174, 43.671489 ], [ 2.264354, 43.672119 ], [ 2.264188, 43.672221 ], [ 2.264006, 43.672333 ], [ 2.263411, 43.672624 ], [ 2.262829, 43.672907 ], [ 2.262397, 43.673167 ], [ 2.261964, 43.673426 ], [ 2.259556, 43.675765 ], [ 2.259314, 43.676032 ], [ 2.254841, 43.67546 ], [ 2.25274, 43.669335 ], [ 2.256899, 43.66538 ], [ 2.25802, 43.661993 ], [ 2.258343, 43.66175 ], [ 2.258665, 43.661507 ], [ 2.258943, 43.66138 ], [ 2.259209, 43.66131 ], [ 2.259449, 43.661248 ], [ 2.259786, 43.661187 ], [ 2.262116, 43.660524 ], [ 2.262969, 43.660618 ], [ 2.26204, 43.660498 ] ] ], [ [ [ 2.262969, 43.660618 ], [ 2.270014, 43.657975 ], [ 2.270037125074322, 43.656644658645789 ], [ 2.262969, 43.660618 ] ] ], [ [ [ 2.270064413770895, 43.655074792056432 ], [ 2.270103, 43.652855 ], [ 2.270013, 43.652651 ], [ 2.270064413770895, 43.655074792056432 ] ] ], [ [ [ 2.292952, 43.656424 ], [ 2.291339, 43.654821 ], [ 2.291028, 43.655004 ], [ 2.284371, 43.65625 ], [ 2.284901, 43.64734 ], [ 2.284865, 43.646981 ], [ 2.281997, 43.646224 ], [ 2.276193, 43.639618 ], [ 2.276355, 43.639093 ], [ 2.276525, 43.638509 ], [ 2.276513, 43.638126 ], [ 2.2765, 43.637744 ], [ 2.275765, 43.634 ], [ 2.275739, 43.633742 ], [ 2.275657, 43.633555 ], [ 2.275327, 43.6337 ], [ 2.27439, 43.635351 ], [ 2.272785, 43.638767 ], [ 2.272601, 43.639077 ], [ 2.269427, 43.645835 ], [ 2.264096, 43.644731 ], [ 2.263797, 43.644931 ], [ 2.263546, 43.647102 ], [ 2.263837, 43.647313 ], [ 2.267063, 43.648765 ], [ 2.270013, 43.652651 ], [ 2.26711, 43.648791 ], [ 2.267243, 43.648457 ], [ 2.270159, 43.646247 ], [ 2.275514, 43.640902 ], [ 2.275873, 43.640917 ], [ 2.278759, 43.647465 ], [ 2.278776, 43.647824 ], [ 2.278285, 43.655454 ], [ 2.284418, 43.656958 ], [ 2.292341, 43.656616 ], [ 2.295926, 43.65991 ], [ 2.29618, 43.660087 ], [ 2.296449, 43.660276 ], [ 2.292952, 43.656424 ] ] ], [ [ [ 2.297396, 43.661428 ], [ 2.297276, 43.661137 ], [ 2.297230861361122, 43.66107874846044 ], [ 2.297406466233294, 43.661460689057421 ], [ 2.297396, 43.661428 ] ] ], [ [ [ 2.30812, 43.662323 ], [ 2.307943, 43.662456 ], [ 2.308109, 43.662332 ], [ 2.308139964936849, 43.66230886956523 ], [ 2.30812, 43.662323 ] ] ], [ [ [ 2.311014, 43.661566 ], [ 2.315896, 43.660419 ], [ 2.316016, 43.660079 ], [ 2.315339, 43.65984 ], [ 2.314662, 43.6596 ], [ 2.314377, 43.659522 ], [ 2.314105, 43.659447 ], [ 2.31377, 43.659419 ], [ 2.313504, 43.659446 ], [ 2.313271, 43.659473 ], [ 2.313022, 43.659537 ], [ 2.312797, 43.659596 ], [ 2.312479, 43.659733 ], [ 2.312283, 43.659846 ], [ 2.312104, 43.659949 ], [ 2.31191, 43.66011 ], [ 2.308517, 43.662097 ], [ 2.308339, 43.662168 ], [ 2.308277581352985, 43.662211469818672 ], [ 2.30849, 43.662497 ], [ 2.308117, 43.666938 ], [ 2.311014, 43.661566 ] ] ], [ [ [ 2.292523, 43.683524 ], [ 2.2926, 43.683764 ], [ 2.295304, 43.685598 ], [ 2.295493, 43.685695 ], [ 2.296069, 43.685992 ], [ 2.299528, 43.686084 ], [ 2.299888, 43.686068 ], [ 2.306444, 43.685023 ], [ 2.307221, 43.684729 ], [ 2.310467, 43.680034 ], [ 2.314394, 43.67925 ], [ 2.314598, 43.679263 ], [ 2.314846, 43.679274 ], [ 2.315046, 43.679235 ], [ 2.315196, 43.679172 ], [ 2.31618, 43.678369 ], [ 2.316314, 43.678189 ], [ 2.316813, 43.67702 ], [ 2.316542, 43.676783 ], [ 2.312278, 43.677126 ], [ 2.312087, 43.677139 ], [ 2.311896, 43.677151 ], [ 2.306884171119388, 43.674483931940159 ], [ 2.306859, 43.674638 ], [ 2.309396, 43.678662 ], [ 2.309557, 43.678821 ], [ 2.309664, 43.678983 ], [ 2.309364, 43.679182 ], [ 2.305574, 43.68056 ], [ 2.297486, 43.684427 ], [ 2.297456, 43.684785 ], [ 2.295735, 43.684792 ], [ 2.295395, 43.684675 ], [ 2.293556, 43.681996 ], [ 2.288121, 43.677272 ], [ 2.292523, 43.683524 ] ] ], [ [ [ 2.285604, 43.676431 ], [ 2.285944, 43.676549 ], [ 2.288121, 43.677272 ], [ 2.287947, 43.677149 ], [ 2.287751, 43.67691 ], [ 2.281259, 43.674672 ], [ 2.277879, 43.676619 ], [ 2.285604, 43.676431 ] ] ] ] } },
{ "type": "Feature", "properties": { "codgeo": "81227", "value": 360, "isochrone_group": 6.0, "nb_agences": 1 }, "geometry": { "type": "MultiPolygon", "coordinates": [ [ [ [ 2.307162, 43.67165 ], [ 2.308117, 43.666938 ], [ 2.307747, 43.667296 ], [ 2.306749, 43.674412 ], [ 2.311896, 43.677151 ], [ 2.312087, 43.677139 ], [ 2.312278, 43.677126 ], [ 2.312991518890722, 43.677068603897865 ], [ 2.313146477034588, 43.676638548374498 ], [ 2.312869, 43.676717 ], [ 2.307162, 43.67165 ] ] ], [ [ [ 2.316401, 43.66055 ], [ 2.316676, 43.660582 ], [ 2.316976, 43.660614 ], [ 2.317212, 43.660608 ], [ 2.317459, 43.660601 ], [ 2.317697, 43.66058 ], [ 2.317954, 43.660557 ], [ 2.318283, 43.660493 ], [ 2.318631, 43.660425 ], [ 2.318961, 43.660323 ], [ 2.319307, 43.660216 ], [ 2.319553, 43.660114 ], [ 2.31982, 43.660002 ], [ 2.32004, 43.659877 ], [ 2.32027, 43.659745 ], [ 2.320535, 43.659571 ], [ 2.32081, 43.65939 ], [ 2.321104, 43.659166 ], [ 2.321404, 43.658939 ], [ 2.321607, 43.658772 ], [ 2.321816, 43.658599 ], [ 2.322027, 43.658409 ], [ 2.32345, 43.657319 ], [ 2.32327, 43.657007 ], [ 2.322997, 43.657165 ], [ 2.322724, 43.657323 ], [ 2.314105, 43.659447 ], [ 2.314377, 43.659522 ], [ 2.314662, 43.6596 ], [ 2.315339, 43.65984 ], [ 2.316016, 43.660079 ], [ 2.315896, 43.660419 ], [ 2.311014, 43.661566 ], [ 2.316401, 43.66055 ] ] ], [ [ [ 2.296099, 43.658367 ], [ 2.296041, 43.658121 ], [ 2.295627, 43.657252 ], [ 2.295322, 43.657061 ], [ 2.291039, 43.654422 ], [ 2.290296, 43.646738 ], [ 2.290288, 43.646378 ], [ 2.289814, 43.646388 ], [ 2.28934, 43.646397 ], [ 2.288763, 43.646482 ], [ 2.28466, 43.646087 ], [ 2.284177, 43.64593 ], [ 2.278666, 43.639293 ], [ 2.281458, 43.632348 ], [ 2.281471, 43.631989 ], [ 2.273644, 43.629133 ], [ 2.2733, 43.629238 ], [ 2.2726, 43.629743 ], [ 2.268694, 43.632643 ], [ 2.268712, 43.633002 ], [ 2.269372, 43.635696 ], [ 2.262924, 43.640567 ], [ 2.262617, 43.640516 ], [ 2.26231, 43.640464 ], [ 2.26225, 43.640819 ], [ 2.26129, 43.64752 ], [ 2.258407, 43.650346 ], [ 2.258589, 43.650657 ], [ 2.259358, 43.650206 ], [ 2.260127, 43.649755 ], [ 2.260862, 43.649454 ], [ 2.261391, 43.649262 ], [ 2.261628, 43.649151 ], [ 2.261842, 43.649034 ], [ 2.270013, 43.652651 ], [ 2.267063, 43.648765 ], [ 2.263837, 43.647313 ], [ 2.263546, 43.647102 ], [ 2.263797, 43.644931 ], [ 2.264096, 43.644731 ], [ 2.269427, 43.645835 ], [ 2.272601, 43.639077 ], [ 2.272785, 43.638767 ], [ 2.27439, 43.635351 ], [ 2.275327, 43.6337 ], [ 2.275657, 43.633555 ], [ 2.275739, 43.633742 ], [ 2.275765, 43.634 ], [ 2.2765, 43.637744 ], [ 2.276513, 43.638126 ], [ 2.276525, 43.638509 ], [ 2.276355, 43.639093 ], [ 2.276193, 43.639618 ], [ 2.281997, 43.646224 ], [ 2.284865, 43.646981 ], [ 2.284901, 43.64734 ], [ 2.284371, 43.65625 ], [ 2.291028, 43.655004 ], [ 2.291339, 43.654821 ], [ 2.292952, 43.656424 ], [ 2.296449, 43.660276 ], [ 2.296684, 43.660481 ], [ 2.29694, 43.66071 ], [ 2.297097, 43.660906 ], [ 2.297276, 43.661137 ], [ 2.296099, 43.658367 ] ] ], [ [ [ 2.252463, 43.66174 ], [ 2.251898, 43.661862 ], [ 2.251015, 43.662018 ], [ 2.250654, 43.66206 ], [ 2.248967, 43.662168 ], [ 2.247914, 43.662251 ], [ 2.246861, 43.662333 ], [ 2.24689, 43.662692 ], [ 2.247008, 43.670575 ], [ 2.250779, 43.667443 ], [ 2.252499780165798, 43.66173272950212 ], [ 2.252463, 43.66174 ] ] ], [ [ [ 2.243737, 43.671403 ], [ 2.242683, 43.671222 ], [ 2.240374, 43.670477 ], [ 2.239549, 43.670751 ], [ 2.238866, 43.671042 ], [ 2.238183, 43.671334 ], [ 2.238421, 43.679503 ], [ 2.238531, 43.679846 ], [ 2.240816, 43.681123 ], [ 2.241076, 43.680873 ], [ 2.244955, 43.677516 ], [ 2.24957, 43.676298 ], [ 2.247101, 43.676447 ], [ 2.246645, 43.676501 ], [ 2.246188, 43.676554 ], [ 2.244655, 43.671866 ], [ 2.244594, 43.671618 ], [ 2.244584, 43.671513 ], [ 2.247008, 43.670575 ], [ 2.243737, 43.671403 ] ] ], [ [ [ 2.26017, 43.678156 ], [ 2.260463, 43.678365 ], [ 2.262523, 43.686567 ], [ 2.256745, 43.689998 ], [ 2.256734, 43.690358 ], [ 2.26092, 43.696488 ], [ 2.257004, 43.700999 ], [ 2.256767, 43.70127 ], [ 2.257806, 43.702725 ], [ 2.258053, 43.702987 ], [ 2.258477, 43.702869 ], [ 2.264637, 43.70082 ], [ 2.269264, 43.701578 ], [ 2.271013, 43.701737 ], [ 2.27111, 43.70139 ], [ 2.268786387369076, 43.693711171167294 ], [ 2.268349, 43.694138 ], [ 2.267705, 43.694843 ], [ 2.26701, 43.695587 ], [ 2.26498, 43.69695 ], [ 2.26468, 43.696751 ], [ 2.262478, 43.689814 ], [ 2.262438, 43.689456 ], [ 2.263173, 43.686212 ], [ 2.264184, 43.685661 ], [ 2.26083, 43.677319 ], [ 2.260482, 43.677414 ], [ 2.254507, 43.675482 ], [ 2.26017, 43.678156 ] ] ], [ [ [ 2.273421, 43.689247 ], [ 2.277474, 43.68471 ], [ 2.27736, 43.684368 ], [ 2.284328, 43.678741 ], [ 2.288309002563945, 43.677539013182596 ], [ 2.288121, 43.677272 ], [ 2.285944, 43.676549 ], [ 2.285604, 43.676431 ], [ 2.277879, 43.676619 ], [ 2.273183, 43.679092 ], [ 2.273346, 43.686301 ], [ 2.27332, 43.689287 ], [ 2.273301922516945, 43.689304641092392 ], [ 2.273421, 43.689247 ] ] ], [ [ [ 2.292284, 43.684973 ], [ 2.292199, 43.685323 ], [ 2.292377, 43.685365 ], [ 2.292554, 43.685408 ], [ 2.296069, 43.685992 ], [ 2.295493, 43.685695 ], [ 2.295304, 43.685598 ], [ 2.2926, 43.683764 ], [ 2.292523, 43.683524 ], [ 2.292284, 43.684973 ] ] ], [ [ [ 2.299813, 43.686324 ], [ 2.303185, 43.686298 ], [ 2.304989, 43.686253 ], [ 2.312677, 43.688085 ], [ 2.313031, 43.688148 ], [ 2.318991, 43.682198 ], [ 2.31884, 43.681871 ], [ 2.320381279408116, 43.675244181282388 ], [ 2.317954, 43.676796 ], [ 2.316186103717448, 43.678360800976577 ], [ 2.31618, 43.678369 ], [ 2.316139508258908, 43.678402043565143 ], [ 2.316126, 43.678414 ], [ 2.315382, 43.679031 ], [ 2.315275374513758, 43.679107225879527 ], [ 2.315196, 43.679172 ], [ 2.315168770562759, 43.679183436363644 ], [ 2.315147, 43.679199 ], [ 2.315072923076912, 43.679223692307701 ], [ 2.315046, 43.679235 ], [ 2.315029132530143, 43.679238289156622 ], [ 2.315018, 43.679242 ], [ 2.3149712808988, 43.679249570224741 ], [ 2.314846, 43.679274 ], [ 2.314825991316932, 43.679273112518082 ], [ 2.314802, 43.679277 ], [ 2.314598, 43.679263 ], [ 2.314394, 43.67925 ], [ 2.310467, 43.680034 ], [ 2.307221, 43.684729 ], [ 2.306444, 43.685023 ], [ 2.299888, 43.686068 ], [ 2.299528, 43.686084 ], [ 2.296069, 43.685992 ], [ 2.299813, 43.686324 ] ] ] ] } },
{ "type": "Feature", "properties": { "codgeo": "81227", "value": 420, "isochrone_group": 7.0, "nb_agences": 1 }, "geometry": { "type": "MultiPolygon", "coordinates": [ [ [ [ 2.26129, 43.64752 ], [ 2.26225, 43.640819 ], [ 2.26231, 43.640464 ], [ 2.262617, 43.640516 ], [ 2.262924, 43.640567 ], [ 2.269372, 43.635696 ], [ 2.268712, 43.633002 ], [ 2.268694, 43.632643 ], [ 2.2726, 43.629743 ], [ 2.2733, 43.629238 ], [ 2.273644, 43.629133 ], [ 2.281471, 43.631989 ], [ 2.281458, 43.632348 ], [ 2.278666, 43.639293 ], [ 2.281312779145261, 43.642480565448587 ], [ 2.279529, 43.639166 ], [ 2.284167, 43.634488 ], [ 2.284226, 43.634473 ], [ 2.28429, 43.6344 ], [ 2.289789, 43.631036 ], [ 2.290486, 43.630988 ], [ 2.290462, 43.630629 ], [ 2.289764, 43.630677 ], [ 2.289066, 43.630725 ], [ 2.288791, 43.630752 ], [ 2.287135, 43.63097 ], [ 2.286462, 43.631019 ], [ 2.286178, 43.631076 ], [ 2.285345, 43.631338 ], [ 2.28453, 43.631595 ], [ 2.281743, 43.631998 ], [ 2.275797, 43.626796 ], [ 2.275538, 43.626546 ], [ 2.27101, 43.623096 ], [ 2.270703, 43.623283 ], [ 2.267426, 43.629884 ], [ 2.264663102289256, 43.629873501729747 ], [ 2.264844, 43.630762 ], [ 2.264374, 43.634332 ], [ 2.263891, 43.634268 ], [ 2.263387, 43.634167 ], [ 2.257919, 43.633402 ], [ 2.257874930362124, 43.633392890367084 ], [ 2.257271, 43.638008 ], [ 2.257798, 43.639784 ], [ 2.257939, 43.640115 ], [ 2.26129, 43.64752 ] ] ], [ [ [ 2.258145, 43.6505 ], [ 2.257534, 43.650834 ], [ 2.256926, 43.651167 ], [ 2.254133, 43.651869 ], [ 2.254064, 43.652222 ], [ 2.254224, 43.652727 ], [ 2.254471, 43.652989 ], [ 2.252463, 43.66174 ], [ 2.253065, 43.661621 ], [ 2.253663, 43.661502 ], [ 2.253865, 43.661496 ], [ 2.254054, 43.661519 ], [ 2.258874, 43.660772 ], [ 2.259163, 43.660714 ], [ 2.259453, 43.660655 ], [ 2.260032, 43.660572 ], [ 2.2606, 43.660491 ], [ 2.260981, 43.660458 ], [ 2.261351, 43.660427 ], [ 2.261712, 43.660463 ], [ 2.26204, 43.660498 ], [ 2.262969, 43.660618 ], [ 2.270097, 43.656611 ], [ 2.270013, 43.652651 ], [ 2.261842, 43.649034 ], [ 2.261628, 43.649151 ], [ 2.261391, 43.649262 ], [ 2.260862, 43.649454 ], [ 2.260127, 43.649755 ], [ 2.259358, 43.650206 ], [ 2.258589, 43.650657 ], [ 2.258407158345766, 43.650346270579874 ], [ 2.258145, 43.6505 ] ] ], [ [ [ 2.247898, 43.662252 ], [ 2.242168, 43.660124 ], [ 2.241884, 43.660345 ], [ 2.242202, 43.660755 ], [ 2.24252, 43.661166 ], [ 2.241595, 43.669489 ], [ 2.23432, 43.669296 ], [ 2.233966, 43.669361 ], [ 2.231421, 43.671385 ], [ 2.226097, 43.675607 ], [ 2.226146, 43.675963 ], [ 2.226762, 43.676107 ], [ 2.230253, 43.677953 ], [ 2.233169, 43.685853 ], [ 2.233411, 43.686119 ], [ 2.234954, 43.684713 ], [ 2.243798, 43.685005 ], [ 2.244724, 43.688702 ], [ 2.244999, 43.688935 ], [ 2.252117, 43.690551 ], [ 2.252417, 43.690751 ], [ 2.253963, 43.690773 ], [ 2.257035165075957, 43.690799027691256 ], [ 2.256734, 43.690358 ], [ 2.256745, 43.689998 ], [ 2.262523, 43.686567 ], [ 2.260463, 43.678365 ], [ 2.26017, 43.678156 ], [ 2.254507, 43.675482 ], [ 2.25367, 43.675457 ], [ 2.250687, 43.675973 ], [ 2.250288, 43.676139 ], [ 2.250101, 43.676215 ], [ 2.249862, 43.676269 ], [ 2.24957, 43.676298 ], [ 2.244955, 43.677516 ], [ 2.241076, 43.680873 ], [ 2.240816, 43.681123 ], [ 2.238531, 43.679846 ], [ 2.238421, 43.679503 ], [ 2.238183, 43.671334 ], [ 2.238866, 43.671042 ], [ 2.239549, 43.670751 ], [ 2.240374, 43.670477 ], [ 2.242683, 43.671222 ], [ 2.243737, 43.671403 ], [ 2.247008, 43.670575 ], [ 2.24689, 43.662692 ], [ 2.246861, 43.662333 ], [ 2.247914, 43.662251 ], [ 2.248967, 43.662168 ], [ 2.247898, 43.662252 ] ] ], [ [ [ 2.260569935200608, 43.696891253909598 ], [ 2.26092, 43.696488 ], [ 2.259220751720029, 43.693999612050597 ], [ 2.260569935200608, 43.696891253909598 ] ] ], [ [ [ 2.255164, 43.70041 ], [ 2.254917, 43.700451 ], [ 2.254676, 43.700527 ], [ 2.254438, 43.700621 ], [ 2.249208, 43.699806 ], [ 2.249097, 43.699766 ], [ 2.247576, 43.699311 ], [ 2.247129, 43.699231 ], [ 2.246682, 43.699151 ], [ 2.246619, 43.699506 ], [ 2.248362, 43.701436 ], [ 2.252017, 43.70836 ], [ 2.252187, 43.708678 ], [ 2.253477, 43.7084 ], [ 2.257286, 43.706511 ], [ 2.26155, 43.703598 ], [ 2.267384, 43.704144 ], [ 2.267404, 43.704149 ], [ 2.272844, 43.704514 ], [ 2.273835270700742, 43.705223153382931 ], [ 2.273775, 43.703826 ], [ 2.271675, 43.701977 ], [ 2.271825, 43.70165 ], [ 2.274173758043798, 43.702172660541841 ], [ 2.270095152590275, 43.698036239804814 ], [ 2.27111, 43.70139 ], [ 2.271013, 43.701737 ], [ 2.269264, 43.701578 ], [ 2.264637, 43.70082 ], [ 2.258477, 43.702869 ], [ 2.258053, 43.702987 ], [ 2.257806, 43.702725 ], [ 2.256767, 43.70127 ], [ 2.257004, 43.700999 ], [ 2.258945743540135, 43.698762226478671 ], [ 2.255164, 43.70041 ] ] ], [ [ [ 2.272417, 43.689733 ], [ 2.272253, 43.68982 ], [ 2.268724, 43.693505 ], [ 2.270091051717036, 43.698022687673429 ], [ 2.272417, 43.689733 ] ] ], [ [ [ 2.279538, 43.684066 ], [ 2.279887, 43.68386 ], [ 2.280236, 43.683653 ], [ 2.283074, 43.680396 ], [ 2.283243, 43.680176 ], [ 2.283413, 43.679955 ], [ 2.284278, 43.678795 ], [ 2.288627, 43.677443 ], [ 2.284328, 43.678741 ], [ 2.27736, 43.684368 ], [ 2.277474, 43.68471 ], [ 2.273421, 43.689247 ], [ 2.279538, 43.684066 ] ] ], [ [ [ 2.291134, 43.685241 ], [ 2.291005, 43.685454 ], [ 2.290865, 43.685688 ], [ 2.290773, 43.685893 ], [ 2.290263, 43.686735 ], [ 2.290509, 43.686998 ], [ 2.296069, 43.685992 ], [ 2.292554, 43.685408 ], [ 2.292377, 43.685365 ], [ 2.292199, 43.685323 ], [ 2.292284, 43.684973 ], [ 2.292523, 43.683524 ], [ 2.288627, 43.677443 ], [ 2.291134, 43.685241 ] ] ], [ [ [ 2.306075, 43.686572 ], [ 2.309976, 43.692968 ], [ 2.309994, 43.693414 ], [ 2.310108, 43.693592 ], [ 2.310258, 43.693721 ], [ 2.310582, 43.693878 ], [ 2.310932, 43.693962 ], [ 2.311633, 43.692671 ], [ 2.312817, 43.689711 ], [ 2.313603224907177, 43.687576735201731 ], [ 2.313031, 43.688148 ], [ 2.312677, 43.688085 ], [ 2.304989, 43.686253 ], [ 2.303185, 43.686298 ], [ 2.306075, 43.686572 ] ] ], [ [ [ 2.31938, 43.683114 ], [ 2.319597, 43.683073 ], [ 2.319814, 43.683031 ], [ 2.320954, 43.682608 ], [ 2.321055, 43.682575 ], [ 2.328844, 43.68184 ], [ 2.329005, 43.681856 ], [ 2.330011, 43.681903 ], [ 2.330061, 43.681547 ], [ 2.329786, 43.681508 ], [ 2.32951, 43.681468 ], [ 2.327548, 43.680913 ], [ 2.327244, 43.680803 ], [ 2.32533048840189, 43.672491183995703 ], [ 2.324525, 43.672595 ], [ 2.320381279408116, 43.675244181282388 ], [ 2.31884, 43.681871 ], [ 2.318991, 43.682198 ], [ 2.315011929667056, 43.68617039404046 ], [ 2.31938, 43.683114 ] ] ], [ [ [ 2.312047, 43.672273 ], [ 2.312228408362635, 43.672016083510321 ], [ 2.308469, 43.670538 ], [ 2.308117, 43.666938 ], [ 2.307162, 43.67165 ], [ 2.310136448952372, 43.674290885376152 ], [ 2.312047, 43.672273 ] ] ], [ [ [ 2.323775, 43.65715 ], [ 2.324621, 43.656766 ], [ 2.326089, 43.656383 ], [ 2.326887, 43.6563 ], [ 2.327366, 43.656269 ], [ 2.327728, 43.656243 ], [ 2.327989, 43.656193 ], [ 2.328267, 43.65614 ], [ 2.328486, 43.656076 ], [ 2.328737, 43.656 ], [ 2.32891, 43.655911 ], [ 2.329106, 43.655807 ], [ 2.329272, 43.655686 ], [ 2.329455, 43.65555 ], [ 2.329717, 43.655297 ], [ 2.329923, 43.655007 ], [ 2.330029, 43.65476 ], [ 2.33007, 43.65452 ], [ 2.330032, 43.653923 ], [ 2.329994, 43.653326 ], [ 2.329634, 43.653349 ], [ 2.324481, 43.656435 ], [ 2.323919, 43.656672 ], [ 2.323611, 43.656829 ], [ 2.323316, 43.65698 ], [ 2.323016, 43.657154 ], [ 2.322724, 43.657323 ], [ 2.322997, 43.657165 ], [ 2.32327, 43.657007 ], [ 2.32345, 43.657319 ], [ 2.322770413489429, 43.65783955467078 ], [ 2.323775, 43.65715 ] ] ], [ [ [ 2.297529, 43.654495 ], [ 2.297693, 43.654232 ], [ 2.297851, 43.653799 ], [ 2.298008, 43.653367 ], [ 2.296144, 43.645898 ], [ 2.295967, 43.645558 ], [ 2.295737, 43.645281 ], [ 2.294026, 43.643615 ], [ 2.293666, 43.643633 ], [ 2.28934, 43.646397 ], [ 2.289814, 43.646388 ], [ 2.290288, 43.646378 ], [ 2.290296, 43.646738 ], [ 2.291039, 43.654422 ], [ 2.295322, 43.657061 ], [ 2.295627, 43.657252 ], [ 2.296041, 43.658121 ], [ 2.296099, 43.658367 ], [ 2.297276, 43.661137 ], [ 2.297529, 43.654495 ] ] ] ] } },
{ "type": "Feature", "properties": { "codgeo": "81227", "value": 480, "isochrone_group": 8.0, "nb_agences": 1 }, "geometry": { "type": "MultiPolygon", "coordinates": [ [ [ [ 2.25326, 43.649793 ], [ 2.25245, 43.649766 ], [ 2.251887, 43.649906 ], [ 2.250534, 43.650464 ], [ 2.249647, 43.650867 ], [ 2.24881, 43.652673 ], [ 2.248461, 43.653404 ], [ 2.24006, 43.656176 ], [ 2.239855, 43.656067 ], [ 2.238146, 43.655454 ], [ 2.237738, 43.655679 ], [ 2.23661, 43.657204 ], [ 2.230789, 43.662999 ], [ 2.228768, 43.665978 ], [ 2.221063, 43.670618 ], [ 2.219682, 43.670505 ], [ 2.21931, 43.67048 ], [ 2.218902, 43.67198 ], [ 2.217398, 43.680191 ], [ 2.220205, 43.682445 ], [ 2.225249, 43.687434 ], [ 2.225023, 43.691027 ], [ 2.22667, 43.691131 ], [ 2.227237, 43.691125 ], [ 2.227861, 43.69106 ], [ 2.228826, 43.69089 ], [ 2.230214, 43.690485 ], [ 2.23101, 43.690099 ], [ 2.231717, 43.689698 ], [ 2.240154, 43.692568 ], [ 2.240068, 43.696769 ], [ 2.24149, 43.701123 ], [ 2.242126, 43.702077 ], [ 2.242819, 43.702471 ], [ 2.243993, 43.710918 ], [ 2.24394, 43.711501 ], [ 2.244464, 43.713994 ], [ 2.245, 43.714191 ], [ 2.246072, 43.714402 ], [ 2.253042, 43.711597 ], [ 2.257228, 43.710657 ], [ 2.259662, 43.704965 ], [ 2.267139, 43.704222 ], [ 2.269117, 43.704597 ], [ 2.27158441476724, 43.7065352285342 ], [ 2.271658, 43.705191 ], [ 2.269786432908183, 43.704308850737412 ], [ 2.267404, 43.704149 ], [ 2.267384, 43.704144 ], [ 2.26155, 43.703598 ], [ 2.257286, 43.706511 ], [ 2.253477, 43.7084 ], [ 2.252187, 43.708678 ], [ 2.252017, 43.70836 ], [ 2.248362, 43.701436 ], [ 2.246619, 43.699506 ], [ 2.246682, 43.699151 ], [ 2.247129, 43.699231 ], [ 2.247576, 43.699311 ], [ 2.249097, 43.699766 ], [ 2.249208, 43.699806 ], [ 2.254438, 43.700621 ], [ 2.254676, 43.700527 ], [ 2.254917, 43.700451 ], [ 2.255164, 43.70041 ], [ 2.261021, 43.697858 ], [ 2.257775, 43.690901 ], [ 2.257577, 43.690851 ], [ 2.257386, 43.690802 ], [ 2.253963, 43.690773 ], [ 2.252417, 43.690751 ], [ 2.252117, 43.690551 ], [ 2.244999, 43.688935 ], [ 2.244724, 43.688702 ], [ 2.243798, 43.685005 ], [ 2.234954, 43.684713 ], [ 2.233411, 43.686119 ], [ 2.233169, 43.685853 ], [ 2.230253, 43.677953 ], [ 2.226762, 43.676107 ], [ 2.226146, 43.675963 ], [ 2.226097, 43.675607 ], [ 2.231421, 43.671385 ], [ 2.233966, 43.669361 ], [ 2.23432, 43.669296 ], [ 2.241595, 43.669489 ], [ 2.24252, 43.661166 ], [ 2.242202, 43.660755 ], [ 2.241884, 43.660345 ], [ 2.242168, 43.660124 ], [ 2.247898, 43.662252 ], [ 2.248967, 43.662168 ], [ 2.250654, 43.66206 ], [ 2.251015, 43.662018 ], [ 2.251898, 43.661862 ], [ 2.252463, 43.66174 ], [ 2.254471, 43.652989 ], [ 2.254224, 43.652727 ], [ 2.254064, 43.652222 ], [ 2.254133, 43.651869 ], [ 2.256926, 43.651167 ], [ 2.257534, 43.650834 ], [ 2.258145, 43.6505 ], [ 2.259042, 43.649974 ], [ 2.26129, 43.64752 ], [ 2.259262301046691, 43.643039214936067 ], [ 2.259125, 43.648047 ], [ 2.257368, 43.649079 ], [ 2.25326, 43.649793 ] ] ], [ [ [ 2.277492956610802, 43.701546322036378 ], [ 2.273822, 43.697662 ], [ 2.27301715639178, 43.689442486049394 ], [ 2.272417, 43.689733 ], [ 2.270089, 43.69803 ], [ 2.274256459052264, 43.70225653385841 ], [ 2.277492956610802, 43.701546322036378 ] ] ], [ [ [ 2.276513, 43.686735 ], [ 2.278829, 43.685966 ], [ 2.286709, 43.686933 ], [ 2.28926, 43.689473 ], [ 2.29048, 43.688846 ], [ 2.295605, 43.687336 ], [ 2.29627, 43.687229 ], [ 2.299729, 43.686482 ], [ 2.300518, 43.686421 ], [ 2.302742, 43.686384 ], [ 2.308356, 43.692933 ], [ 2.308606, 43.694249 ], [ 2.308973, 43.694748 ], [ 2.30964, 43.695218 ], [ 2.310205, 43.695386 ], [ 2.310745, 43.695411 ], [ 2.31149, 43.695233 ], [ 2.313538454283196, 43.695000668111184 ], [ 2.31373, 43.694713 ], [ 2.313878, 43.694556 ], [ 2.317256, 43.691033 ], [ 2.317538, 43.691138 ], [ 2.32050434377601, 43.692256227385592 ], [ 2.320863, 43.690842 ], [ 2.320794, 43.684978 ], [ 2.327954, 43.683257 ], [ 2.32864, 43.683448 ], [ 2.329157, 43.683469 ], [ 2.330056, 43.683525 ], [ 2.33053, 43.683495 ], [ 2.33092, 43.683414 ], [ 2.33238, 43.68312 ], [ 2.332932, 43.683042 ], [ 2.333525, 43.682791 ], [ 2.335702, 43.681581 ], [ 2.33614, 43.681134 ], [ 2.33646, 43.680481 ], [ 2.336514, 43.679599 ], [ 2.336305, 43.678981 ], [ 2.337449, 43.672302 ], [ 2.338329655220534, 43.6719754263694 ], [ 2.33373, 43.671549 ], [ 2.333437, 43.671521 ], [ 2.333114, 43.671488 ], [ 2.32533048840189, 43.672491183995703 ], [ 2.327244, 43.680803 ], [ 2.327548, 43.680913 ], [ 2.32951, 43.681468 ], [ 2.329786, 43.681508 ], [ 2.330061, 43.681547 ], [ 2.330011, 43.681903 ], [ 2.329005, 43.681856 ], [ 2.328844, 43.68184 ], [ 2.321055, 43.682575 ], [ 2.320954, 43.682608 ], [ 2.319814, 43.683031 ], [ 2.319597, 43.683073 ], [ 2.31938, 43.683114 ], [ 2.313812, 43.68701 ], [ 2.312817, 43.689711 ], [ 2.311633, 43.692671 ], [ 2.310932, 43.693962 ], [ 2.310582, 43.693878 ], [ 2.310258, 43.693721 ], [ 2.310108, 43.693592 ], [ 2.309994, 43.693414 ], [ 2.309976, 43.692968 ], [ 2.306075, 43.686572 ], [ 2.303185, 43.686298 ], [ 2.299813, 43.686324 ], [ 2.296069, 43.685992 ], [ 2.290509, 43.686998 ], [ 2.290263, 43.686735 ], [ 2.290773, 43.685893 ], [ 2.290865, 43.685688 ], [ 2.291005, 43.685454 ], [ 2.291134, 43.685241 ], [ 2.288627, 43.677443 ], [ 2.284278, 43.678795 ], [ 2.283413, 43.679955 ], [ 2.283243, 43.680176 ], [ 2.283074, 43.680396 ], [ 2.280236, 43.683653 ], [ 2.279887, 43.68386 ], [ 2.279538, 43.684066 ], [ 2.275774898231301, 43.687253286294542 ], [ 2.276513, 43.686735 ] ] ], [ [ [ 2.309513, 43.670753 ], [ 2.309673, 43.670768 ], [ 2.310063, 43.670985 ], [ 2.316334, 43.664626 ], [ 2.316372, 43.664302 ], [ 2.316568, 43.663985 ], [ 2.317808, 43.664748 ], [ 2.31817, 43.664966 ], [ 2.318846, 43.665337 ], [ 2.31946, 43.665618 ], [ 2.319719, 43.665726 ], [ 2.324617053665045, 43.663099128283669 ], [ 2.32469, 43.658496 ], [ 2.326624, 43.657941 ], [ 2.327476, 43.657886 ], [ 2.328031, 43.657835 ], [ 2.328717, 43.657696 ], [ 2.329483, 43.657438 ], [ 2.329725889912395, 43.657302217792022 ], [ 2.33159820276555, 43.653095026708129 ], [ 2.331596751980908, 43.653073444417018 ], [ 2.328390683277991, 43.649288991525019 ], [ 2.325326, 43.648832 ], [ 2.325013, 43.649934 ], [ 2.324812, 43.650607 ], [ 2.321332, 43.656358 ], [ 2.314532, 43.657885 ], [ 2.313893, 43.657803 ], [ 2.313086, 43.657864 ], [ 2.312385, 43.658029 ], [ 2.311827, 43.65825 ], [ 2.311292, 43.658548 ], [ 2.310696, 43.659015 ], [ 2.303744, 43.653333 ], [ 2.304008, 43.652182 ], [ 2.30269, 43.649999 ], [ 2.298999, 43.645185 ], [ 2.297935, 43.640069 ], [ 2.301658, 43.634434 ], [ 2.30318, 43.631171 ], [ 2.302405, 43.63081 ], [ 2.301836, 43.630619 ], [ 2.301423, 43.630531 ], [ 2.298375, 43.630028 ], [ 2.297804, 43.629948 ], [ 2.296804, 43.629857 ], [ 2.291238, 43.629047 ], [ 2.290706, 43.629001 ], [ 2.288955, 43.629109 ], [ 2.288631, 43.62914 ], [ 2.287599, 43.629314 ], [ 2.286343, 43.629403 ], [ 2.278971, 43.624964 ], [ 2.273753136285528, 43.620434037450664 ], [ 2.27362, 43.622461 ], [ 2.273303, 43.623316 ], [ 2.271968749385052, 43.623826495887457 ], [ 2.275538, 43.626546 ], [ 2.275797, 43.626796 ], [ 2.281743, 43.631998 ], [ 2.28453, 43.631595 ], [ 2.285345, 43.631338 ], [ 2.286178, 43.631076 ], [ 2.286462, 43.631019 ], [ 2.287135, 43.63097 ], [ 2.288791, 43.630752 ], [ 2.289066, 43.630725 ], [ 2.289764, 43.630677 ], [ 2.290462, 43.630629 ], [ 2.290486, 43.630988 ], [ 2.289789, 43.631036 ], [ 2.28429, 43.6344 ], [ 2.284226, 43.634473 ], [ 2.284167, 43.634488 ], [ 2.279529, 43.639166 ], [ 2.283005, 43.645625 ], [ 2.28466, 43.646087 ], [ 2.288209, 43.646565 ], [ 2.288763, 43.646482 ], [ 2.28934, 43.646397 ], [ 2.293666, 43.643633 ], [ 2.294026, 43.643615 ], [ 2.295737, 43.645281 ], [ 2.295967, 43.645558 ], [ 2.296144, 43.645898 ], [ 2.298008, 43.653367 ], [ 2.297851, 43.653799 ], [ 2.297693, 43.654232 ], [ 2.297529, 43.654495 ], [ 2.297276, 43.661137 ], [ 2.297396, 43.661428 ], [ 2.297542, 43.661884 ], [ 2.299545, 43.666112 ], [ 2.307574, 43.662962 ], [ 2.307729, 43.662663 ], [ 2.307943, 43.662456 ], [ 2.30812, 43.662323 ], [ 2.308339, 43.662168 ], [ 2.308517, 43.662097 ], [ 2.308725, 43.662017 ], [ 2.311743, 43.660251 ], [ 2.31191, 43.66011 ], [ 2.312104, 43.659949 ], [ 2.312283, 43.659846 ], [ 2.312479, 43.659733 ], [ 2.312797, 43.659596 ], [ 2.313022, 43.659537 ], [ 2.313271, 43.659473 ], [ 2.313504, 43.659446 ], [ 2.31377, 43.659419 ], [ 2.314105, 43.659447 ], [ 2.322724, 43.657323 ], [ 2.323016, 43.657154 ], [ 2.323316, 43.65698 ], [ 2.323611, 43.656829 ], [ 2.323919, 43.656672 ], [ 2.324481, 43.656435 ], [ 2.329634, 43.653349 ], [ 2.329994, 43.653326 ], [ 2.330032, 43.653923 ], [ 2.33007, 43.65452 ], [ 2.330029, 43.65476 ], [ 2.329923, 43.655007 ], [ 2.329717, 43.655297 ], [ 2.329455, 43.65555 ], [ 2.329272, 43.655686 ], [ 2.329106, 43.655807 ], [ 2.32891, 43.655911 ], [ 2.328737, 43.656 ], [ 2.328486, 43.656076 ], [ 2.328267, 43.65614 ], [ 2.327989, 43.656193 ], [ 2.327728, 43.656243 ], [ 2.327366, 43.656269 ], [ 2.326887, 43.6563 ], [ 2.326089, 43.656383 ], [ 2.324621, 43.656766 ], [ 2.323775, 43.65715 ], [ 2.322289, 43.65817 ], [ 2.322027, 43.658409 ], [ 2.321816, 43.658599 ], [ 2.321607, 43.658772 ], [ 2.321404, 43.658939 ], [ 2.321104, 43.659166 ], [ 2.32081, 43.65939 ], [ 2.320535, 43.659571 ], [ 2.32027, 43.659745 ], [ 2.32004, 43.659877 ], [ 2.31982, 43.660002 ], [ 2.319553, 43.660114 ], [ 2.319307, 43.660216 ], [ 2.318961, 43.660323 ], [ 2.318631, 43.660425 ], [ 2.318283, 43.660493 ], [ 2.317954, 43.660557 ], [ 2.317697, 43.66058 ], [ 2.317459, 43.660601 ], [ 2.317212, 43.660608 ], [ 2.316976, 43.660614 ], [ 2.316676, 43.660582 ], [ 2.316401, 43.66055 ], [ 2.311014, 43.661566 ], [ 2.310702, 43.661795 ], [ 2.308117, 43.666938 ], [ 2.308469, 43.670538 ], [ 2.309157510731405, 43.67080870120099 ], [ 2.309513, 43.670753 ] ] ], [ [ [ 2.257573, 43.635217 ], [ 2.254714255169456, 43.637187450637235 ], [ 2.257379351007311, 43.638373144950641 ], [ 2.257271, 43.638008 ], [ 2.257634335180004, 43.635231468475212 ], [ 2.257573, 43.635217 ] ] ] ] } },
{ "type": "Feature", "properties": { "codgeo": "81227", "value": 540, "isochrone_group": 9.0, "nb_agences": 1 }, "geometry": { "type": "MultiPolygon", "coordinates": [ [ [ [ 2.212893, 43.668861 ], [ 2.211704, 43.668473 ], [ 2.210244, 43.667771 ], [ 2.206439583120242, 43.668789439031968 ], [ 2.206825, 43.670534 ], [ 2.206872, 43.670891 ], [ 2.20556179408431, 43.671331665691774 ], [ 2.205736, 43.672672 ], [ 2.207345, 43.672642 ], [ 2.2126, 43.674963 ], [ 2.217221, 43.680411 ], [ 2.214345, 43.684064 ], [ 2.214003, 43.684813 ], [ 2.213776, 43.685655 ], [ 2.213711, 43.686571 ], [ 2.213813, 43.687402 ], [ 2.213991, 43.688004 ], [ 2.214318, 43.688696 ], [ 2.214472, 43.688941 ], [ 2.216227, 43.691079 ], [ 2.2173, 43.691584 ], [ 2.217399, 43.69159 ], [ 2.22534, 43.693064 ], [ 2.228826, 43.69089 ], [ 2.227861, 43.69106 ], [ 2.227237, 43.691125 ], [ 2.22667, 43.691131 ], [ 2.225023, 43.691027 ], [ 2.225249, 43.687434 ], [ 2.220205, 43.682445 ], [ 2.217398, 43.680191 ], [ 2.218902, 43.67198 ], [ 2.21931, 43.67048 ], [ 2.219682, 43.670505 ], [ 2.221063, 43.670618 ], [ 2.225858856971501, 43.667729904432477 ], [ 2.225128, 43.667063 ], [ 2.222046575430203, 43.665469084824359 ], [ 2.219013, 43.670468 ], [ 2.218668, 43.670487 ], [ 2.21616, 43.67013 ], [ 2.214663, 43.66979 ], [ 2.212893, 43.668861 ] ] ], [ [ [ 2.23498, 43.697552 ], [ 2.23552, 43.701111 ], [ 2.238413, 43.701471 ], [ 2.243322, 43.706659 ], [ 2.24232, 43.711501 ], [ 2.238156, 43.714985 ], [ 2.237618, 43.715181 ], [ 2.237238, 43.715397 ], [ 2.236894, 43.715643 ], [ 2.236444, 43.715991 ], [ 2.236799, 43.717268 ], [ 2.237316, 43.717874 ], [ 2.238645, 43.718839 ], [ 2.245005, 43.717481 ], [ 2.249981, 43.715814 ], [ 2.252413, 43.714608 ], [ 2.252564, 43.714285 ], [ 2.252828, 43.713527 ], [ 2.253951331602273, 43.711392802268016 ], [ 2.253042, 43.711597 ], [ 2.246072, 43.714402 ], [ 2.245, 43.714191 ], [ 2.244464, 43.713994 ], [ 2.24394, 43.711501 ], [ 2.243993, 43.710918 ], [ 2.242819, 43.702471 ], [ 2.242126, 43.702077 ], [ 2.24149, 43.701123 ], [ 2.240068, 43.696769 ], [ 2.240154, 43.692568 ], [ 2.231717, 43.689698 ], [ 2.23101, 43.690099 ], [ 2.230214, 43.690485 ], [ 2.23498, 43.697552 ] ] ], [ [ [ 2.266307862429549, 43.70430459130867 ], [ 2.266307862429541, 43.70430459130867 ], [ 2.259662, 43.704965 ], [ 2.266307862429549, 43.70430459130867 ] ] ], [ [ [ 2.285082, 43.689216 ], [ 2.288232, 43.690959 ], [ 2.295605, 43.687336 ], [ 2.29048, 43.688846 ], [ 2.28926, 43.689473 ], [ 2.286709, 43.686933 ], [ 2.278829, 43.685966 ], [ 2.276513, 43.686735 ], [ 2.285082, 43.689216 ] ] ], [ [ [ 2.321283, 43.690764 ], [ 2.321497, 43.691053 ], [ 2.323031, 43.693133 ], [ 2.324608764201691, 43.692643258698155 ], [ 2.324315, 43.692135 ], [ 2.323918, 43.691773 ], [ 2.322094, 43.686276 ], [ 2.327954, 43.683257 ], [ 2.320794, 43.684978 ], [ 2.320861826518941, 43.690742271116896 ], [ 2.321283, 43.690764 ] ] ], [ [ [ 2.339972, 43.682104 ], [ 2.340643, 43.682142 ], [ 2.342444, 43.682225 ], [ 2.343055, 43.682114 ], [ 2.343765, 43.681744 ], [ 2.344371, 43.681344 ], [ 2.344802, 43.680993 ], [ 2.342528, 43.678202 ], [ 2.342808395570962, 43.672371028798807 ], [ 2.34141, 43.672261 ], [ 2.338329655220534, 43.6719754263694 ], [ 2.337449, 43.672302 ], [ 2.336305, 43.678981 ], [ 2.336514, 43.679599 ], [ 2.33646, 43.680481 ], [ 2.33614, 43.681134 ], [ 2.335702, 43.681581 ], [ 2.333525, 43.682791 ], [ 2.332932, 43.683042 ], [ 2.339972, 43.682104 ] ] ], [ [ [ 2.327582, 43.661499 ], [ 2.327611, 43.66118 ], [ 2.327756, 43.660917 ], [ 2.327914, 43.660812 ], [ 2.329539763606286, 43.657406267567325 ], [ 2.329483, 43.657438 ], [ 2.328717, 43.657696 ], [ 2.328031, 43.657835 ], [ 2.327476, 43.657886 ], [ 2.326624, 43.657941 ], [ 2.32469, 43.658496 ], [ 2.324617153228812, 43.663092845517205 ], [ 2.327582, 43.661499 ] ] ], [ [ [ 2.328328, 43.649215 ], [ 2.328171, 43.649122 ], [ 2.323034, 43.64694 ], [ 2.322413, 43.646899 ], [ 2.322197, 43.64687 ], [ 2.321993, 43.646843 ], [ 2.321753, 43.646783 ], [ 2.321533, 43.646728 ], [ 2.321322, 43.646649 ], [ 2.321132, 43.646577 ], [ 2.320905, 43.64643 ], [ 2.320738, 43.646242 ], [ 2.320608, 43.646088 ], [ 2.320451, 43.6458 ], [ 2.320315, 43.645543 ], [ 2.320007621440719, 43.644891762788689 ], [ 2.318547, 43.645416 ], [ 2.318781, 43.646067 ], [ 2.319153, 43.646812 ], [ 2.31963, 43.647441 ], [ 2.320193, 43.647903 ], [ 2.320905880274464, 43.656453688944261 ], [ 2.321332, 43.656358 ], [ 2.324812, 43.650607 ], [ 2.325013, 43.649934 ], [ 2.325326, 43.648832 ], [ 2.328390683277991, 43.649288991525019 ], [ 2.328328, 43.649215 ] ] ], [ [ [ 2.307098, 43.65202 ], [ 2.307211, 43.6496 ], [ 2.306738, 43.648438 ], [ 2.301069, 43.643729 ], [ 2.298999, 43.640784 ], [ 2.304141, 43.634986 ], [ 2.304598, 43.635012 ], [ 2.305094, 43.634995 ], [ 2.308537, 43.634754 ], [ 2.309212, 43.634737 ], [ 2.311985, 43.635108 ], [ 2.31281, 43.631604 ], [ 2.310708, 43.631109 ], [ 2.309525, 43.630867 ], [ 2.309004, 43.630807 ], [ 2.308481, 43.630805 ], [ 2.301423, 43.630531 ], [ 2.301836, 43.630619 ], [ 2.302405, 43.63081 ], [ 2.30318, 43.631171 ], [ 2.301658, 43.634434 ], [ 2.297935, 43.640069 ], [ 2.298999, 43.645185 ], [ 2.30269, 43.649999 ], [ 2.304008, 43.652182 ], [ 2.303744, 43.653333 ], [ 2.310696, 43.659015 ], [ 2.311292, 43.658548 ], [ 2.311827, 43.65825 ], [ 2.312385, 43.658029 ], [ 2.313086, 43.657864 ], [ 2.313893, 43.657803 ], [ 2.307098, 43.65202 ] ] ], [ [ [ 2.285344839333701, 43.622803291070205 ], [ 2.281577, 43.623563 ], [ 2.279537545770494, 43.625305141708537 ], [ 2.286343, 43.629403 ], [ 2.287599, 43.629314 ], [ 2.288631, 43.62914 ], [ 2.288955, 43.629109 ], [ 2.290706, 43.629001 ], [ 2.291238, 43.629047 ], [ 2.285344839333701, 43.622803291070205 ] ] ], [ [ [ 2.258155, 43.640606 ], [ 2.252559682065049, 43.64348356901877 ], [ 2.255149951531295, 43.649464512805906 ], [ 2.257368, 43.649079 ], [ 2.259125, 43.648047 ], [ 2.259331609279196, 43.640511333758738 ], [ 2.258155, 43.640606 ] ] ], [ [ [ 2.24819, 43.652035 ], [ 2.246282, 43.651963 ], [ 2.245688, 43.65199 ], [ 2.244876, 43.652106 ], [ 2.244537, 43.652211 ], [ 2.239308, 43.652466 ], [ 2.238568, 43.652449 ], [ 2.238187, 43.652436 ], [ 2.236729, 43.652283 ], [ 2.233628, 43.654112 ], [ 2.233946, 43.654651 ], [ 2.230085619390671, 43.660464185682201 ], [ 2.231980184227333, 43.661813136300076 ], [ 2.23661, 43.657204 ], [ 2.237738, 43.655679 ], [ 2.238146, 43.655454 ], [ 2.239855, 43.656067 ], [ 2.24006, 43.656176 ], [ 2.248461, 43.653404 ], [ 2.24881, 43.652673 ], [ 2.249058102440221, 43.65213766785299 ], [ 2.24819, 43.652035 ] ] ], [ [ [ 2.281822, 43.708897 ], [ 2.284281836370901, 43.709034864149771 ], [ 2.28179272421109, 43.708115930286588 ], [ 2.281822, 43.708897 ] ] ] ] } },
{ "type": "Feature", "properties": { "codgeo": "81227", "value": 600, "isochrone_group": 10.0, "nb_agences": 1 }, "geometry": { "type": "MultiPolygon", "coordinates": [ [ [ [ 2.236607890463037, 43.652354431584364 ], [ 2.236729, 43.652283 ], [ 2.238187, 43.652436 ], [ 2.238568, 43.652449 ], [ 2.239308, 43.652466 ], [ 2.244537, 43.652211 ], [ 2.244876, 43.652106 ], [ 2.245688, 43.65199 ], [ 2.246282, 43.651963 ], [ 2.24819, 43.652035 ], [ 2.249898, 43.652237 ], [ 2.252136, 43.651769 ], [ 2.253477, 43.651205 ], [ 2.254077, 43.650781 ], [ 2.255436, 43.650125 ], [ 2.252977590835813, 43.644448522240303 ], [ 2.250639, 43.64695 ], [ 2.248112, 43.648401 ], [ 2.247048, 43.648845 ], [ 2.244408304699243, 43.646419387871511 ], [ 2.243523, 43.647782 ], [ 2.24114355522671, 43.647730329103709 ], [ 2.236961, 43.649429 ], [ 2.236433, 43.65172 ], [ 2.236607890463037, 43.652354431584364 ] ] ], [ [ [ 2.209324, 43.675546 ], [ 2.205626131274824, 43.676962915065189 ], [ 2.208219, 43.67855 ], [ 2.214003, 43.684813 ], [ 2.214345, 43.684064 ], [ 2.217221, 43.680411 ], [ 2.2126, 43.674963 ], [ 2.212279279631998, 43.674821345961156 ], [ 2.209324, 43.675546 ] ] ], [ [ [ 2.211188, 43.688103 ], [ 2.209423, 43.688702 ], [ 2.207659, 43.689302 ], [ 2.207009, 43.689523 ], [ 2.206921, 43.692235 ], [ 2.206969, 43.692282 ], [ 2.212218, 43.697624 ], [ 2.215246, 43.699571 ], [ 2.216462, 43.697681 ], [ 2.217373, 43.696185 ], [ 2.224973, 43.694061 ], [ 2.229305, 43.697108 ], [ 2.230577, 43.700475 ], [ 2.231759, 43.701083 ], [ 2.235299, 43.703972 ], [ 2.237233, 43.710888 ], [ 2.232447, 43.717905 ], [ 2.231887, 43.718287 ], [ 2.230532, 43.719225 ], [ 2.229035, 43.719968 ], [ 2.230344, 43.723322 ], [ 2.230959, 43.723112 ], [ 2.232368, 43.722321 ], [ 2.23308, 43.721942 ], [ 2.233583, 43.721601 ], [ 2.242319, 43.721564 ], [ 2.249936, 43.717041 ], [ 2.253243, 43.715618 ], [ 2.255375, 43.708688 ], [ 2.252828, 43.713527 ], [ 2.252564, 43.714285 ], [ 2.252413, 43.714608 ], [ 2.249981, 43.715814 ], [ 2.245005, 43.717481 ], [ 2.238645, 43.718839 ], [ 2.237316, 43.717874 ], [ 2.236799, 43.717268 ], [ 2.236444, 43.715991 ], [ 2.236894, 43.715643 ], [ 2.237238, 43.715397 ], [ 2.237618, 43.715181 ], [ 2.238156, 43.714985 ], [ 2.24232, 43.711501 ], [ 2.243322, 43.706659 ], [ 2.238413, 43.701471 ], [ 2.23552, 43.701111 ], [ 2.23498, 43.697552 ], [ 2.230214, 43.690485 ], [ 2.228826, 43.69089 ], [ 2.22534, 43.693064 ], [ 2.217399, 43.69159 ], [ 2.2173, 43.691584 ], [ 2.216227, 43.691079 ], [ 2.214472, 43.688941 ], [ 2.214318, 43.688696 ], [ 2.213991, 43.688004 ], [ 2.213813, 43.687402 ], [ 2.213711, 43.686571 ], [ 2.213776, 43.685655 ], [ 2.214003, 43.684813 ], [ 2.211188, 43.688103 ] ] ], [ [ [ 2.258237, 43.705995098039224 ], [ 2.258237, 43.705995098039224 ], [ 2.257367, 43.706624 ], [ 2.258237, 43.705995098039224 ] ] ], [ [ [ 2.284245, 43.691485 ], [ 2.287477, 43.693071 ], [ 2.28795, 43.692106 ], [ 2.289565131598158, 43.690303915803597 ], [ 2.288232, 43.690959 ], [ 2.285082, 43.689216 ], [ 2.28080238509627, 43.687976914391861 ], [ 2.284245, 43.691485 ] ] ], [ [ [ 2.308435569778218, 43.693351855312542 ], [ 2.308435569778218, 43.693351855312542 ], [ 2.308356, 43.692933 ], [ 2.308435569778218, 43.693351855312542 ] ] ], [ [ [ 2.325349356120314, 43.689330310884131 ], [ 2.324562, 43.685786 ], [ 2.329157, 43.683469 ], [ 2.32864, 43.683448 ], [ 2.327954, 43.683257 ], [ 2.322094, 43.686276 ], [ 2.323245272979023, 43.689745598446109 ], [ 2.325349356120314, 43.689330310884131 ] ] ], [ [ [ 2.34493, 43.68088 ], [ 2.346087, 43.679889 ], [ 2.35355, 43.676368 ], [ 2.353575, 43.676137 ], [ 2.353559, 43.675587 ], [ 2.353419, 43.675025 ], [ 2.353207, 43.674576 ], [ 2.352814, 43.67408 ], [ 2.352489, 43.673803 ], [ 2.352086, 43.673558 ], [ 2.351596, 43.673366 ], [ 2.351136, 43.673264 ], [ 2.35100987196539, 43.671673355523829 ], [ 2.347036, 43.67432 ], [ 2.345843, 43.674827 ], [ 2.342775673222571, 43.673051506990546 ], [ 2.342528, 43.678202 ], [ 2.344798717648612, 43.680988971397213 ], [ 2.34493, 43.68088 ] ] ], [ [ [ 2.319405, 43.643615 ], [ 2.319239, 43.643263 ], [ 2.319078, 43.642924 ], [ 2.31903, 43.642765 ], [ 2.31862, 43.6416 ], [ 2.318454, 43.641183 ], [ 2.318406, 43.640943 ], [ 2.316592, 43.634499 ], [ 2.316838, 43.634235 ], [ 2.317751, 43.633405 ], [ 2.318037, 43.633623 ], [ 2.319309, 43.63528 ], [ 2.319667, 43.635847 ], [ 2.320008, 43.636391 ], [ 2.320102, 43.636628 ], [ 2.320153, 43.636892 ], [ 2.320166865729982, 43.637004581449418 ], [ 2.31997, 43.634702 ], [ 2.319742, 43.634417 ], [ 2.317935, 43.633044 ], [ 2.317315, 43.63264 ], [ 2.316832, 43.632427 ], [ 2.316308, 43.632266 ], [ 2.315571, 43.632123 ], [ 2.313099, 43.631673 ], [ 2.312809815005354, 43.631604785722715 ], [ 2.311985, 43.635108 ], [ 2.309212, 43.634737 ], [ 2.308537, 43.634754 ], [ 2.305094, 43.634995 ], [ 2.304598, 43.635012 ], [ 2.304141, 43.634986 ], [ 2.298999, 43.640784 ], [ 2.301069, 43.643729 ], [ 2.306738, 43.648438 ], [ 2.307211, 43.6496 ], [ 2.307098, 43.65202 ], [ 2.313893, 43.657803 ], [ 2.314532, 43.657885 ], [ 2.315202, 43.658073 ], [ 2.320929, 43.656731 ], [ 2.320193, 43.647903 ], [ 2.31963, 43.647441 ], [ 2.319153, 43.646812 ], [ 2.318781, 43.646067 ], [ 2.318547, 43.645416 ], [ 2.320007621440719, 43.644891762788689 ], [ 2.319405, 43.643615 ] ] ], [ [ [ 2.291465688612262, 43.624421140256636 ], [ 2.28912, 43.624513 ], [ 2.288267699322885, 43.624718422027762 ], [ 2.291941230120532, 43.629197509116594 ], [ 2.296305, 43.629865 ], [ 2.296804, 43.629857 ], [ 2.291465688612262, 43.624421140256636 ] ] ], [ [ [ 2.260242121224196, 43.704907352538491 ], [ 2.262927059167499, 43.704640546481016 ], [ 2.260242121224203, 43.704907352538491 ], [ 2.260242121224196, 43.704907352538491 ] ] ], [ [ [ 2.218097218167515, 43.670085543960646 ], [ 2.21676, 43.669014 ], [ 2.216471679306647, 43.669177519558822 ], [ 2.218097218167515, 43.670085543960646 ] ] ] ] } },
{ "type": "Feature", "properties": { "codgeo": "81227", "value": 660, "isochrone_group": 11.0, "nb_agences": 1 }, "geometry": { "type": "MultiPolygon", "coordinates": [ [ [ [ 2.206965, 43.704636 ], [ 2.207132, 43.704792 ], [ 2.208196, 43.70549 ], [ 2.208509, 43.705424 ], [ 2.209807, 43.704947 ], [ 2.210336, 43.704748 ], [ 2.210943, 43.704049 ], [ 2.211668, 43.703324 ], [ 2.213491, 43.701683 ], [ 2.213901, 43.701311 ], [ 2.214294, 43.70089 ], [ 2.214661, 43.700437 ], [ 2.215201, 43.699641 ], [ 2.223582, 43.699329 ], [ 2.224791, 43.70272 ], [ 2.228782, 43.703082 ], [ 2.232091, 43.710962 ], [ 2.232448, 43.714544 ], [ 2.226009, 43.720792 ], [ 2.220482, 43.72252 ], [ 2.22006, 43.722545 ], [ 2.219564621643493, 43.723234239020428 ], [ 2.220629, 43.72606 ], [ 2.220554608464909, 43.726123497140222 ], [ 2.223287, 43.725972 ], [ 2.224158, 43.725788 ], [ 2.225867, 43.725235 ], [ 2.226889, 43.724873 ], [ 2.22766, 43.724531 ], [ 2.230959, 43.723112 ], [ 2.230344, 43.723322 ], [ 2.229035, 43.719968 ], [ 2.230532, 43.719225 ], [ 2.231887, 43.718287 ], [ 2.232447, 43.717905 ], [ 2.237233, 43.710888 ], [ 2.235299, 43.703972 ], [ 2.231759, 43.701083 ], [ 2.230577, 43.700475 ], [ 2.229305, 43.697108 ], [ 2.224973, 43.694061 ], [ 2.217373, 43.696185 ], [ 2.216462, 43.697681 ], [ 2.215246, 43.699571 ], [ 2.212218, 43.697624 ], [ 2.207732887030631, 43.693059421321706 ], [ 2.207623, 43.693088 ], [ 2.207058, 43.693163 ], [ 2.206509, 43.693153 ], [ 2.204289214669156, 43.693961433606503 ], [ 2.20715, 43.702151 ], [ 2.206827, 43.702694 ], [ 2.206633, 43.703207 ], [ 2.206491, 43.703545 ], [ 2.206965, 43.704636 ] ] ], [ [ [ 2.241608, 43.723207 ], [ 2.241884, 43.7225 ], [ 2.242490860932271, 43.72146194840532 ], [ 2.242319, 43.721564 ], [ 2.233583, 43.721601 ], [ 2.23308, 43.721942 ], [ 2.232368, 43.722321 ], [ 2.230959, 43.723112 ], [ 2.238041, 43.722721 ], [ 2.241608, 43.723207 ] ] ], [ [ [ 2.251872, 43.718846 ], [ 2.252517, 43.719245 ], [ 2.253026, 43.719624 ], [ 2.255176, 43.716736 ], [ 2.255746287339225, 43.709994891164165 ], [ 2.254918928202159, 43.710170447260339 ], [ 2.253243, 43.715618 ], [ 2.249936, 43.717041 ], [ 2.244536736322079, 43.720247100776589 ], [ 2.251402, 43.718522 ], [ 2.251872, 43.718846 ] ] ], [ [ [ 2.274583, 43.695104 ], [ 2.274692, 43.695447 ], [ 2.282711, 43.699509 ], [ 2.282907, 43.699131 ], [ 2.283131, 43.698825 ], [ 2.283928, 43.697725 ], [ 2.284361, 43.697179 ], [ 2.285028, 43.696073 ], [ 2.285707, 43.693521 ], [ 2.285698, 43.692629 ], [ 2.285675, 43.69233 ], [ 2.285926926197578, 43.692310351160074 ], [ 2.284245, 43.691485 ], [ 2.278829, 43.685966 ], [ 2.276513, 43.686735 ], [ 2.273874954486589, 43.688470133468016 ], [ 2.273421, 43.689247 ], [ 2.274583, 43.695104 ] ] ], [ [ [ 2.293149, 43.694808 ], [ 2.293317, 43.695025 ], [ 2.293315, 43.696345 ], [ 2.293302, 43.696575 ], [ 2.293289, 43.696773 ], [ 2.293305, 43.699113 ], [ 2.300891, 43.701602 ], [ 2.301511, 43.701028 ], [ 2.302581, 43.699542 ], [ 2.302912, 43.698765 ], [ 2.302712, 43.693916 ], [ 2.30279, 43.693733 ], [ 2.302867, 43.69355 ], [ 2.302949, 43.693418 ], [ 2.302949, 43.686625475418595 ], [ 2.302742, 43.686384 ], [ 2.300518, 43.686421 ], [ 2.299729, 43.686482 ], [ 2.29627, 43.687229 ], [ 2.295605, 43.687336 ], [ 2.291207, 43.688472 ], [ 2.28795, 43.692106 ], [ 2.287580888701033, 43.692859049478884 ], [ 2.292968, 43.694799 ], [ 2.293149, 43.694808 ] ] ], [ [ [ 2.326052518264571, 43.688113612273902 ], [ 2.325482, 43.685867 ], [ 2.330056, 43.683525 ], [ 2.329157, 43.683469 ], [ 2.324562, 43.685786 ], [ 2.32483848655714, 43.687030613826593 ], [ 2.32595, 43.688115 ], [ 2.326052518264571, 43.688113612273902 ] ] ], [ [ [ 2.348742, 43.684466 ], [ 2.349314, 43.684676 ], [ 2.349884, 43.684798 ], [ 2.350128, 43.684823 ], [ 2.353323, 43.677164 ], [ 2.353507, 43.676611 ], [ 2.353541269873507, 43.676372118822897 ], [ 2.346087, 43.679889 ], [ 2.34493, 43.68088 ], [ 2.344371, 43.681344 ], [ 2.343765, 43.681744 ], [ 2.343055, 43.682114 ], [ 2.342444, 43.682225 ], [ 2.348181, 43.684185 ], [ 2.348742, 43.684466 ] ] ], [ [ [ 2.353245155080207, 43.674656809580256 ], [ 2.353419, 43.675025 ], [ 2.353527131482351, 43.674663863091176 ], [ 2.353245155080207, 43.674656809580256 ] ] ], [ [ [ 2.317775, 43.631446 ], [ 2.313099, 43.631673 ], [ 2.315489890101357, 43.632108234848545 ], [ 2.318079682719165, 43.631899760163208 ], [ 2.317775, 43.631446 ] ] ], [ [ [ 2.298751577430802, 43.625706638105015 ], [ 2.302277104882152, 43.63063134695382 ], [ 2.308481, 43.630805 ], [ 2.309004, 43.630807 ], [ 2.309525, 43.630867 ], [ 2.303634286579388, 43.62475767035933 ], [ 2.298751577430802, 43.625706638105015 ] ] ], [ [ [ 2.20633, 43.681441 ], [ 2.206982, 43.689535 ], [ 2.20700568301412, 43.689625223473932 ], [ 2.207009, 43.689523 ], [ 2.207659, 43.689302 ], [ 2.209423, 43.688702 ], [ 2.211188, 43.688103 ], [ 2.214003, 43.684813 ], [ 2.208954428099506, 43.67934633232835 ], [ 2.207837, 43.680283 ], [ 2.20633, 43.681441 ] ] ], [ [ [ 2.320155824604493, 43.636875442209515 ], [ 2.320166865729982, 43.637004581449418 ], [ 2.32022, 43.637436 ], [ 2.320331721206855, 43.637543423551477 ], [ 2.320184186790418, 43.636709183487632 ], [ 2.320155824604493, 43.636875442209515 ] ] ] ] } },
{ "type": "Feature", "properties": { "codgeo": "81227", "value": 720, "isochrone_group": 12.0, "nb_agences": 1 }, "geometry": { "type": "MultiPolygon", "coordinates": [ [ [ [ 2.3100115938231, 43.619052604391484 ], [ 2.31001174109834, 43.619052676757285 ], [ 2.311138, 43.61902 ], [ 2.311425, 43.618988 ], [ 2.311134, 43.61902 ], [ 2.3100115938231, 43.619052604391484 ] ] ], [ [ [ 2.311957180588897, 43.618991490457013 ], [ 2.311959620507306, 43.618991332551971 ], [ 2.311824, 43.61894 ], [ 2.311821723217673, 43.618940273451656 ], [ 2.311957180588897, 43.618991490457013 ] ] ], [ [ [ 2.205692, 43.711858 ], [ 2.207381, 43.711234 ], [ 2.209103, 43.71071 ], [ 2.211246, 43.710614 ], [ 2.215566, 43.705319 ], [ 2.221826, 43.706019 ], [ 2.226258, 43.712777 ], [ 2.219732, 43.718599 ], [ 2.219377, 43.718828 ], [ 2.219518, 43.718747 ], [ 2.221595, 43.719364 ], [ 2.226940913440071, 43.719887729900059 ], [ 2.232448, 43.714544 ], [ 2.232091, 43.710962 ], [ 2.228782, 43.703082 ], [ 2.224791, 43.70272 ], [ 2.223582, 43.699329 ], [ 2.215201, 43.699641 ], [ 2.214661, 43.700437 ], [ 2.214294, 43.70089 ], [ 2.213901, 43.701311 ], [ 2.213491, 43.701683 ], [ 2.211668, 43.703324 ], [ 2.210943, 43.704049 ], [ 2.210336, 43.704748 ], [ 2.209807, 43.704947 ], [ 2.208509, 43.705424 ], [ 2.208196, 43.70549 ], [ 2.207132, 43.704792 ], [ 2.206965, 43.704636 ], [ 2.206491, 43.703545 ], [ 2.206633, 43.703207 ], [ 2.206827, 43.702694 ], [ 2.20715, 43.702151 ], [ 2.205698846659149, 43.697996785245088 ], [ 2.203002, 43.700501 ], [ 2.202291180969094, 43.70097928071015 ], [ 2.20254, 43.702867 ], [ 2.202522, 43.702915 ], [ 2.203123, 43.705572 ], [ 2.205675, 43.711808 ], [ 2.205692, 43.711858 ] ] ], [ [ [ 2.241573, 43.726276 ], [ 2.241599, 43.725555 ], [ 2.241715, 43.724516 ], [ 2.242682, 43.721135 ], [ 2.241884, 43.7225 ], [ 2.241608, 43.723207 ], [ 2.238041, 43.722721 ], [ 2.230959, 43.723112 ], [ 2.237768, 43.727041 ], [ 2.241573, 43.726276 ] ] ], [ [ [ 2.243001, 43.720633 ], [ 2.242682, 43.721135 ], [ 2.246013905642772, 43.719875918246416 ], [ 2.243001, 43.720633 ] ] ], [ [ [ 2.216759379047813, 43.720342355557221 ], [ 2.218044, 43.719961 ], [ 2.219377, 43.718828 ], [ 2.219318, 43.71887 ], [ 2.218035, 43.719907 ], [ 2.216759379047813, 43.720342355557221 ] ] ], [ [ [ 2.223091, 43.728553 ], [ 2.222399, 43.728938 ], [ 2.223745, 43.728643 ], [ 2.225113, 43.727916 ], [ 2.223091, 43.728553 ] ] ], [ [ [ 2.22526, 43.727787 ], [ 2.225113, 43.727916 ], [ 2.225451, 43.727621 ], [ 2.225494326412135, 43.727575140584911 ], [ 2.22526, 43.727787 ] ] ], [ [ [ 2.350692, 43.684828 ], [ 2.351095, 43.684779 ], [ 2.351537, 43.684673 ], [ 2.351921, 43.684525 ], [ 2.360545, 43.683067 ], [ 2.361133, 43.679516 ], [ 2.35967, 43.678986 ], [ 2.358415, 43.678345 ], [ 2.358011, 43.678171 ], [ 2.357462, 43.67801 ], [ 2.355563897968358, 43.676608606340736 ], [ 2.353198315640449, 43.677462891239387 ], [ 2.350129695144461, 43.684818936428357 ], [ 2.350283, 43.684832 ], [ 2.350692, 43.684828 ] ] ], [ [ [ 2.339972, 43.682104 ], [ 2.337218906010439, 43.68239737297516 ], [ 2.337218906010445, 43.68239737297516 ], [ 2.339972, 43.682104 ] ] ], [ [ [ 2.320256, 43.630049 ], [ 2.319928, 43.630076 ], [ 2.317124879579382, 43.624894133317873 ], [ 2.316593, 43.624822 ], [ 2.316209, 43.624754 ], [ 2.315966, 43.624705 ], [ 2.311216819883727, 43.624182780662352 ], [ 2.312981879672554, 43.631206914457017 ], [ 2.316247, 43.630252 ], [ 2.316465, 43.630253 ], [ 2.318598, 43.630366 ], [ 2.320934, 43.631718 ], [ 2.321023, 43.631892 ], [ 2.320979, 43.63205 ], [ 2.320184186790418, 43.636709183487632 ], [ 2.320331721206856, 43.637543423551477 ], [ 2.320387546394358, 43.637597101273691 ], [ 2.322404, 43.632821 ], [ 2.322625, 43.631652 ], [ 2.321799, 43.630349 ], [ 2.321223, 43.630094 ], [ 2.320671, 43.63002 ], [ 2.320256, 43.630049 ] ] ] ] } },
{ "type": "Feature", "properties": { "codgeo": "81227", "value": 780, "isochrone_group": 13.0, "nb_agences": 1 }, "geometry": { "type": "MultiPolygon", "coordinates": [ [ [ [ 2.22778741386876, 43.728878825976111 ], [ 2.226603, 43.731501 ], [ 2.226363515657774, 43.731866043233133 ], [ 2.227402, 43.732029 ], [ 2.227789, 43.729568 ], [ 2.22778741386876, 43.728878825976111 ] ] ], [ [ [ 2.208892, 43.711558 ], [ 2.208762, 43.71259 ], [ 2.208678, 43.712801 ], [ 2.208628, 43.712893 ], [ 2.210891453331084, 43.720285828411818 ], [ 2.217747, 43.71681 ], [ 2.217691, 43.714268 ], [ 2.218989, 43.714153 ], [ 2.2197, 43.714229 ], [ 2.220354, 43.714534 ], [ 2.22113, 43.71558 ], [ 2.222238874722359, 43.716362557365379 ], [ 2.226258, 43.712777 ], [ 2.221826, 43.706019 ], [ 2.215566, 43.705319 ], [ 2.211246, 43.710614 ], [ 2.209103, 43.71071 ], [ 2.208734448045855, 43.710822149375126 ], [ 2.208918, 43.711265 ], [ 2.208892, 43.711558 ] ] ], [ [ [ 2.24132, 43.728886 ], [ 2.241504, 43.726801 ], [ 2.241543577067297, 43.726281915517355 ], [ 2.237768, 43.727041 ], [ 2.231824730198832, 43.723611552643753 ], [ 2.231721307347477, 43.723739000010411 ], [ 2.236976, 43.728061 ], [ 2.239238, 43.729169 ], [ 2.240107, 43.729837 ], [ 2.24132, 43.728886 ] ] ], [ [ [ 2.361175, 43.6831 ], [ 2.36164, 43.683039 ], [ 2.362282, 43.68286 ], [ 2.362643, 43.682704 ], [ 2.365292, 43.681359 ], [ 2.36567, 43.681076 ], [ 2.365915, 43.680848 ], [ 2.366226, 43.68051 ], [ 2.366514, 43.680131 ], [ 2.366811, 43.679641 ], [ 2.367037, 43.679034 ], [ 2.367142, 43.678342 ], [ 2.367131, 43.677945 ], [ 2.367025, 43.677375 ], [ 2.366302, 43.674539 ], [ 2.366445380584757, 43.67369039844305 ], [ 2.364289, 43.674962 ], [ 2.36335, 43.674993 ], [ 2.359599, 43.675298 ], [ 2.355453025365883, 43.676526747642136 ], [ 2.357462, 43.67801 ], [ 2.358011, 43.678171 ], [ 2.358415, 43.678345 ], [ 2.35967, 43.678986 ], [ 2.361133, 43.679516 ], [ 2.360545, 43.683067 ], [ 2.351921, 43.684525 ], [ 2.360743, 43.683092 ], [ 2.361175, 43.6831 ] ] ], [ [ [ 2.339972, 43.682104 ], [ 2.33917335453773, 43.682189104611872 ], [ 2.339173354537731, 43.682189104611872 ], [ 2.339972, 43.682104 ] ] ], [ [ [ 2.341011, 43.653021 ], [ 2.341596, 43.653265 ], [ 2.343626253361248, 43.652401905549958 ], [ 2.342121, 43.651732 ], [ 2.34147, 43.651441 ], [ 2.339170415068318, 43.651204682770114 ], [ 2.340196, 43.652597 ], [ 2.340722, 43.652879 ], [ 2.341011, 43.653021 ] ] ], [ [ [ 2.326978495789685, 43.643181575010537 ], [ 2.326351, 43.642831 ], [ 2.325332, 43.642169 ], [ 2.320316416206234, 43.63815864519399 ], [ 2.320318070459197, 43.63816890508204 ], [ 2.320913523159438, 43.63898182852472 ], [ 2.326485, 43.64346 ], [ 2.326978495789685, 43.643181575010537 ] ] ], [ [ [ 2.321899959790682, 43.630508262236411 ], [ 2.322625, 43.631652 ], [ 2.322404, 43.632821 ], [ 2.325760710210747, 43.628143962927133 ], [ 2.323826990098185, 43.627434516663307 ], [ 2.323835, 43.627455 ], [ 2.321899959790682, 43.630508262236411 ] ] ], [ [ [ 2.320671853679235, 43.626276955271763 ], [ 2.320113947688833, 43.62861367970531 ], [ 2.322896, 43.627435 ], [ 2.3233, 43.627277 ], [ 2.323347420921528, 43.627258571572568 ], [ 2.320671853679235, 43.626276955271763 ] ] ] ] } },
{ "type": "Feature", "properties": { "codgeo": "81227", "value": 840, "isochrone_group": 14.0, "nb_agences": 1 }, "geometry": { "type": "MultiPolygon", "coordinates": [ [ [ [ 2.238464, 43.732623 ], [ 2.239005, 43.732007 ], [ 2.242562, 43.729177 ], [ 2.243462942412972, 43.728579226421829 ], [ 2.24152206011713, 43.726564127305856 ], [ 2.241504, 43.726801 ], [ 2.24132, 43.728886 ], [ 2.240107, 43.729837 ], [ 2.239238, 43.729169 ], [ 2.236976, 43.728061 ], [ 2.232986969482932, 43.724780010797915 ], [ 2.232018, 43.728991 ], [ 2.230827840206571, 43.732107105727799 ], [ 2.235178, 43.730822 ], [ 2.23773, 43.73336 ], [ 2.238464, 43.732623 ] ] ], [ [ [ 2.335055, 43.695415 ], [ 2.337287418310256, 43.700730907211998 ], [ 2.337685, 43.699762 ], [ 2.337226, 43.698649 ], [ 2.336552011014885, 43.693659484505744 ], [ 2.335055, 43.695415 ] ] ], [ [ [ 2.374752, 43.679239 ], [ 2.375204610788102, 43.678804514557278 ], [ 2.372848, 43.676376 ], [ 2.367788, 43.673749 ], [ 2.366339372791952, 43.674317808201337 ], [ 2.366302, 43.674539 ], [ 2.367025, 43.677375 ], [ 2.367131, 43.677945 ], [ 2.367142, 43.678342 ], [ 2.367037, 43.679034 ], [ 2.366811, 43.679641 ], [ 2.366514, 43.680131 ], [ 2.366226, 43.68051 ], [ 2.365915, 43.680848 ], [ 2.36567, 43.681076 ], [ 2.365292, 43.681359 ], [ 2.370645, 43.679657 ], [ 2.374752, 43.679239 ] ] ] ] } },
{ "type": "Feature", "properties": { "codgeo": "81227", "value": 900, "isochrone_group": 15.0, "nb_agences": 1 }, "geometry": { "type": "MultiPolygon", "coordinates": [ [ [ [ 2.235178, 43.730822 ], [ 2.234754421714304, 43.73094713169791 ], [ 2.235183, 43.731733 ], [ 2.235253, 43.732193 ], [ 2.237883590562142, 43.733486264687514 ], [ 2.238079179183719, 43.733195358407791 ], [ 2.238041348205666, 43.733047379253975 ], [ 2.23773, 43.73336 ], [ 2.235178, 43.730822 ] ] ], [ [ [ 2.380283, 43.684861 ], [ 2.380641, 43.685153 ], [ 2.381316, 43.685502 ], [ 2.382785, 43.68597 ], [ 2.383213, 43.686023 ], [ 2.383717, 43.685992 ], [ 2.384364, 43.685779 ], [ 2.384839, 43.685517 ], [ 2.384273544970882, 43.684261608474912 ], [ 2.383712, 43.684485 ], [ 2.383309, 43.684546 ], [ 2.382888, 43.684546 ], [ 2.382419, 43.684461 ], [ 2.382, 43.684304 ], [ 2.381572, 43.684049 ], [ 2.380961, 43.683542 ], [ 2.377351, 43.680962 ], [ 2.376978, 43.680721 ], [ 2.376587, 43.680377 ], [ 2.376191, 43.679821 ], [ 2.375204610788102, 43.678804514557278 ], [ 2.374752, 43.679239 ], [ 2.370645, 43.679657 ], [ 2.370378455407466, 43.679741748532884 ], [ 2.3767, 43.681423 ], [ 2.379866, 43.68444 ], [ 2.380283, 43.684861 ] ] ], [ [ [ 2.357233733562069, 43.683662027069325 ], [ 2.357233733562071, 43.683662027069325 ], [ 2.360743, 43.683092 ], [ 2.357233733562069, 43.683662027069325 ] ] ] ] } },
{ "type": "Feature", "properties": { "codgeo": "81227", "value": 960, "isochrone_group": 16.0, "nb_agences": 1 }, "geometry": { "type": "Polygon", "coordinates": [ [ [ 2.336910715922992, 43.615624827965277 ], [ 2.336929692948304, 43.615622231314688 ], [ 2.336930091650856, 43.615622135565658 ], [ 2.336910634184189, 43.615624798794002 ], [ 2.336910715922992, 43.615624827965277 ] ] ] } },
{ "type": "Feature", "properties": { "codgeo": "81227", "value": 1020, "isochrone_group": 17.0, "nb_agences": 1 }, "geometry": { "type": "MultiPolygon", "coordinates": [ [ [ [ 2.372955147634348, 43.680427034782674 ], [ 2.370229, 43.679702 ], [ 2.372955147634347, 43.680427034782674 ], [ 2.372955147634348, 43.680427034782674 ] ] ], [ [ [ 2.332885, 43.612245 ], [ 2.332546807804951, 43.612138975842591 ], [ 2.332549381510244, 43.612142640250063 ], [ 2.332886, 43.612249 ], [ 2.333492697498871, 43.612443439188034 ], [ 2.333525305086653, 43.61245051567002 ], [ 2.332885, 43.612245 ] ] ] ] } },
{ "type": "Feature", "properties": { "codgeo": "81227", "value": 1080, "isochrone_group": 18.0, "nb_agences": 1 }, "geometry": { "type": "Polygon", "coordinates": [ [ [ 2.367988403882488, 43.680454008865041 ], [ 2.371662, 43.685937 ], [ 2.377904830458735, 43.682571128077704 ], [ 2.3767, 43.681423 ], [ 2.370229, 43.679702 ], [ 2.367988403882488, 43.680454008865041 ] ] ] } }
]
}
