{
"type": "FeatureCollection",
"name": "Credit_Agricole",
"crs": { "type": "name", "properties": { "name": "urn:ogc:def:crs:OGC:1.3:CRS84" } },
"features": [
{ "type": "Feature", "properties": { "codgeo": "46191", "value": 60, "isochrone_group": 1.0, "nb_agences": 1 }, "geometry": { "type": "Polygon", "coordinates": [ [ [ 1.375286, 44.498351 ], [ 1.377241, 44.498513 ], [ 1.378023, 44.498359 ], [ 1.378273, 44.498317 ], [ 1.378518, 44.498276 ], [ 1.381437, 44.49678 ], [ 1.381621, 44.492492 ], [ 1.381455, 44.492173 ], [ 1.380225, 44.489651 ], [ 1.380367, 44.48932 ], [ 1.380901, 44.489539 ], [ 1.381396, 44.489804 ], [ 1.381507, 44.489881 ], [ 1.381675, 44.490062 ], [ 1.381786, 44.490271 ], [ 1.381869, 44.490441 ], [ 1.386065, 44.494564 ], [ 1.389774, 44.495333 ], [ 1.390244, 44.495357 ], [ 1.393116, 44.495073 ], [ 1.393605, 44.495051 ], [ 1.394093, 44.495029 ], [ 1.397253, 44.494788 ], [ 1.397542, 44.494742 ], [ 1.397599, 44.495097 ], [ 1.39731, 44.495144 ], [ 1.39702, 44.49519 ], [ 1.396202, 44.495294 ], [ 1.395389, 44.495397 ], [ 1.394664, 44.495479 ], [ 1.39394, 44.495561 ], [ 1.393507, 44.495599 ], [ 1.388917, 44.498946 ], [ 1.388463, 44.500757 ], [ 1.388443, 44.501292 ], [ 1.38307, 44.502075 ], [ 1.382753, 44.501905 ], [ 1.378795, 44.499262 ], [ 1.376363, 44.499038 ], [ 1.376175, 44.499033 ], [ 1.376027, 44.499002 ], [ 1.375869, 44.498952 ], [ 1.375194, 44.498699 ], [ 1.375286, 44.498351 ] ] ] } },
{ "type": "Feature", "properties": { "codgeo": "46191", "value": 120, "isochrone_group": 2.0, "nb_agences": 1 }, "geometry": { "type": "MultiPolygon", "coordinates": [ [ [ [ 1.38307, 44.488564 ], [ 1.383118, 44.488379 ], [ 1.383204, 44.487586 ], [ 1.38326, 44.486675 ], [ 1.383118, 44.48652 ], [ 1.382858, 44.486416 ], [ 1.382598, 44.486312 ], [ 1.376842, 44.485166 ], [ 1.376391, 44.484825 ], [ 1.37594, 44.484485 ], [ 1.375723, 44.484772 ], [ 1.370748, 44.487871 ], [ 1.37048, 44.48774 ], [ 1.370183, 44.487598 ], [ 1.369981, 44.487539 ], [ 1.369625, 44.487477 ], [ 1.368393, 44.487121 ], [ 1.368039, 44.487182 ], [ 1.368052, 44.487969 ], [ 1.369249, 44.488217 ], [ 1.371659, 44.488679 ], [ 1.372087, 44.488901 ], [ 1.372378, 44.489029 ], [ 1.37268, 44.489136 ], [ 1.37297, 44.489238 ], [ 1.373255, 44.48932 ], [ 1.373529, 44.489398 ], [ 1.375758, 44.490825 ], [ 1.379188, 44.495311 ], [ 1.375031, 44.498318 ], [ 1.372395, 44.496739 ], [ 1.372074, 44.496901 ], [ 1.369017, 44.498339 ], [ 1.368817, 44.498638 ], [ 1.370877, 44.502418 ], [ 1.371658, 44.502431 ], [ 1.371992, 44.502296 ], [ 1.375959, 44.49988 ], [ 1.379976, 44.503392 ], [ 1.379109, 44.505886 ], [ 1.37913, 44.506246 ], [ 1.383136, 44.507489 ], [ 1.38552, 44.506016 ], [ 1.387627, 44.502342 ], [ 1.391893, 44.49904 ], [ 1.396202, 44.495294 ], [ 1.395389, 44.495397 ], [ 1.394664, 44.495479 ], [ 1.39394, 44.495561 ], [ 1.393507, 44.495599 ], [ 1.388917, 44.498946 ], [ 1.388463, 44.500757 ], [ 1.388443, 44.501292 ], [ 1.38307, 44.502075 ], [ 1.382753, 44.501905 ], [ 1.378795, 44.499262 ], [ 1.376363, 44.499038 ], [ 1.376175, 44.499033 ], [ 1.376027, 44.499002 ], [ 1.375869, 44.498952 ], [ 1.375194, 44.498699 ], [ 1.375286, 44.498351 ], [ 1.377241, 44.498513 ], [ 1.378023, 44.498359 ], [ 1.378273, 44.498317 ], [ 1.378518, 44.498276 ], [ 1.381437, 44.49678 ], [ 1.381621, 44.492492 ], [ 1.381455, 44.492173 ], [ 1.380225, 44.489651 ], [ 1.380367, 44.48932 ], [ 1.380901, 44.489539 ], [ 1.381396, 44.489804 ], [ 1.381507, 44.489881 ], [ 1.381675, 44.490062 ], [ 1.381786, 44.490271 ], [ 1.381869, 44.490441 ], [ 1.382949588666745, 44.491502789102235 ], [ 1.38307, 44.488564 ] ] ], [ [ [ 1.394221, 44.494955 ], [ 1.394018, 44.494947 ], [ 1.393804, 44.494939 ], [ 1.393126, 44.494954 ], [ 1.392439, 44.494969 ], [ 1.391311, 44.495007 ], [ 1.390577, 44.494988 ], [ 1.389218328285416, 44.495217790631294 ], [ 1.389774, 44.495333 ], [ 1.390244, 44.495357 ], [ 1.393116, 44.495073 ], [ 1.393605, 44.495051 ], [ 1.394093, 44.495029 ], [ 1.396218850959726, 44.494866870227447 ], [ 1.394221, 44.494955 ] ] ], [ [ [ 1.397613, 44.495095 ], [ 1.397793, 44.495053 ], [ 1.397976, 44.495011 ], [ 1.398238, 44.494947 ], [ 1.398508, 44.49488 ], [ 1.398814, 44.49479 ], [ 1.399128, 44.494696 ], [ 1.399381, 44.494608 ], [ 1.399638, 44.494518 ], [ 1.400183, 44.494315 ], [ 1.403989, 44.493186 ], [ 1.404181, 44.493131 ], [ 1.404389, 44.493069 ], [ 1.404606, 44.492983 ], [ 1.404839, 44.49289 ], [ 1.405071, 44.492769 ], [ 1.406315, 44.491881 ], [ 1.406664, 44.491492 ], [ 1.407027, 44.491086 ], [ 1.407182, 44.490859 ], [ 1.407347, 44.490548 ], [ 1.407481, 44.490226 ], [ 1.407635, 44.489811 ], [ 1.407788, 44.489396 ], [ 1.40745, 44.489271 ], [ 1.402953, 44.49303 ], [ 1.402004, 44.493222 ], [ 1.401742, 44.4933 ], [ 1.401497, 44.493374 ], [ 1.401174, 44.493507 ], [ 1.400058, 44.493978 ], [ 1.399513, 44.49418 ], [ 1.399262, 44.494268 ], [ 1.398712, 44.494445 ], [ 1.398152, 44.494597 ], [ 1.397158427874745, 44.494795212620936 ], [ 1.397253, 44.494788 ], [ 1.397542, 44.494742 ], [ 1.397599, 44.495097 ], [ 1.397537968944808, 44.495106925465741 ], [ 1.397613, 44.495095 ] ] ] ] } },
{ "type": "Feature", "properties": { "codgeo": "46191", "value": 180, "isochrone_group": 3.0, "nb_agences": 1 }, "geometry": { "type": "MultiPolygon", "coordinates": [ [ [ [ 1.382441, 44.484922 ], [ 1.38228, 44.4845 ], [ 1.382119, 44.484078 ], [ 1.376615, 44.48234 ], [ 1.370624, 44.479061 ], [ 1.370272, 44.479138 ], [ 1.36541, 44.481235 ], [ 1.365143, 44.481476 ], [ 1.361688, 44.489501 ], [ 1.361176, 44.489848 ], [ 1.356196, 44.494711 ], [ 1.356097, 44.495058 ], [ 1.356946, 44.495299 ], [ 1.357795, 44.495541 ], [ 1.35801, 44.495582 ], [ 1.35821, 44.495619 ], [ 1.362689, 44.496948 ], [ 1.369095, 44.502762 ], [ 1.371052, 44.506414 ], [ 1.373388, 44.510007 ], [ 1.373406, 44.510022 ], [ 1.373567, 44.510075 ], [ 1.37943, 44.511355 ], [ 1.384938, 44.515535 ], [ 1.385273, 44.515406 ], [ 1.385138, 44.515056 ], [ 1.388998, 44.507146 ], [ 1.394329, 44.500868 ], [ 1.394523, 44.500565 ], [ 1.400685137859676, 44.494166047387402 ], [ 1.400183, 44.494315 ], [ 1.399638, 44.494518 ], [ 1.399381, 44.494608 ], [ 1.399128, 44.494696 ], [ 1.398814, 44.49479 ], [ 1.398508, 44.49488 ], [ 1.398238, 44.494947 ], [ 1.397976, 44.495011 ], [ 1.397793, 44.495053 ], [ 1.397613, 44.495095 ], [ 1.397311, 44.495143 ], [ 1.39702, 44.49519 ], [ 1.396202, 44.495294 ], [ 1.391893, 44.49904 ], [ 1.387627, 44.502342 ], [ 1.38552, 44.506016 ], [ 1.383136, 44.507489 ], [ 1.37913, 44.506246 ], [ 1.379109, 44.505886 ], [ 1.379976, 44.503392 ], [ 1.375959, 44.49988 ], [ 1.371992, 44.502296 ], [ 1.371658, 44.502431 ], [ 1.370877, 44.502418 ], [ 1.368817, 44.498638 ], [ 1.369017, 44.498339 ], [ 1.372074, 44.496901 ], [ 1.372395, 44.496739 ], [ 1.375031, 44.498318 ], [ 1.379188, 44.495311 ], [ 1.375758, 44.490825 ], [ 1.373529, 44.489398 ], [ 1.373255, 44.48932 ], [ 1.37297, 44.489238 ], [ 1.37268, 44.489136 ], [ 1.372378, 44.489029 ], [ 1.372087, 44.488901 ], [ 1.371659, 44.488679 ], [ 1.369249, 44.488217 ], [ 1.368052, 44.487969 ], [ 1.368039, 44.487182 ], [ 1.368393, 44.487121 ], [ 1.369625, 44.487477 ], [ 1.369981, 44.487539 ], [ 1.370183, 44.487598 ], [ 1.37048, 44.48774 ], [ 1.370748, 44.487871 ], [ 1.375723, 44.484772 ], [ 1.37594, 44.484485 ], [ 1.376391, 44.484825 ], [ 1.376842, 44.485166 ], [ 1.382598, 44.486312 ], [ 1.382858, 44.486416 ], [ 1.383118, 44.48652 ], [ 1.38326, 44.486675 ], [ 1.382441, 44.484922 ] ] ], [ [ [ 1.383118, 44.488379 ], [ 1.38307, 44.488564 ], [ 1.38291, 44.492469 ], [ 1.386143, 44.494737 ], [ 1.388614, 44.49532 ], [ 1.383118, 44.488379 ] ] ], [ [ [ 1.412669, 44.489678 ], [ 1.412677, 44.489318 ], [ 1.412518, 44.481666 ], [ 1.412294, 44.481384 ], [ 1.411737, 44.481825 ], [ 1.41118, 44.482266 ], [ 1.410984, 44.482439 ], [ 1.410796, 44.482605 ], [ 1.410566, 44.482922 ], [ 1.410365, 44.483207 ], [ 1.410218, 44.483466 ], [ 1.410082, 44.483709 ], [ 1.409372, 44.484949 ], [ 1.409021, 44.485573 ], [ 1.408676, 44.486186 ], [ 1.408559, 44.486448 ], [ 1.408449, 44.486695 ], [ 1.40761, 44.488558 ], [ 1.401497, 44.493374 ], [ 1.401742, 44.4933 ], [ 1.402004, 44.493222 ], [ 1.402953, 44.49303 ], [ 1.40745, 44.489271 ], [ 1.407788, 44.489396 ], [ 1.407635, 44.489811 ], [ 1.407481, 44.490226 ], [ 1.407347, 44.490548 ], [ 1.407182, 44.490859 ], [ 1.407027, 44.491086 ], [ 1.406664, 44.491492 ], [ 1.406315, 44.491881 ], [ 1.405071, 44.492769 ], [ 1.412669, 44.489678 ] ] ] ] } },
{ "type": "Feature", "properties": { "codgeo": "46191", "value": 240, "isochrone_group": 4.0, "nb_agences": 1 }, "geometry": { "type": "MultiPolygon", "coordinates": [ [ [ [ 1.38174, 44.482073 ], [ 1.377089, 44.480392 ], [ 1.376744, 44.480498 ], [ 1.370067, 44.47852 ], [ 1.368833, 44.474998 ], [ 1.368527, 44.474808 ], [ 1.363712, 44.475266 ], [ 1.363572, 44.475597 ], [ 1.363507, 44.48365 ], [ 1.358421, 44.487069 ], [ 1.356774, 44.488048 ], [ 1.349589, 44.4892 ], [ 1.349307, 44.489161 ], [ 1.349258, 44.489518 ], [ 1.349515, 44.490745 ], [ 1.350116, 44.491465 ], [ 1.350336, 44.491723 ], [ 1.350551, 44.491973 ], [ 1.351635, 44.493164 ], [ 1.351859, 44.493385 ], [ 1.352024, 44.493516 ], [ 1.352227, 44.493646 ], [ 1.352469, 44.493761 ], [ 1.35269, 44.493864 ], [ 1.353254, 44.494066 ], [ 1.353802, 44.49426 ], [ 1.354429, 44.494494 ], [ 1.355059, 44.494729 ], [ 1.355473, 44.494864 ], [ 1.362403, 44.499966 ], [ 1.36822, 44.505999 ], [ 1.366598, 44.514513 ], [ 1.366804, 44.514808 ], [ 1.369887, 44.513933 ], [ 1.37034, 44.513582 ], [ 1.375486, 44.512251 ], [ 1.380394, 44.515462 ], [ 1.380973, 44.515992 ], [ 1.386284, 44.518518 ], [ 1.388478, 44.522974 ], [ 1.388536, 44.523363 ], [ 1.388892, 44.523309 ], [ 1.388775, 44.521728 ], [ 1.388761, 44.521493 ], [ 1.388712, 44.521263 ], [ 1.388622, 44.521041 ], [ 1.388541, 44.520849 ], [ 1.388405, 44.520598 ], [ 1.386824, 44.515867 ], [ 1.386786, 44.51574 ], [ 1.386636, 44.515525 ], [ 1.389003, 44.507148 ], [ 1.390513, 44.507323 ], [ 1.391326, 44.506017 ], [ 1.393613, 44.503006 ], [ 1.397557, 44.49802 ], [ 1.404839, 44.49289 ], [ 1.404606, 44.492983 ], [ 1.404389, 44.493069 ], [ 1.404181, 44.493131 ], [ 1.403989, 44.493186 ], [ 1.403025, 44.493382 ], [ 1.400742, 44.494107 ], [ 1.394523, 44.500565 ], [ 1.394329, 44.500868 ], [ 1.388998, 44.507146 ], [ 1.385138, 44.515056 ], [ 1.385273, 44.515406 ], [ 1.384938, 44.515535 ], [ 1.37943, 44.511355 ], [ 1.373567, 44.510075 ], [ 1.373406, 44.510022 ], [ 1.373388, 44.510007 ], [ 1.371052, 44.506414 ], [ 1.369095, 44.502762 ], [ 1.362689, 44.496948 ], [ 1.35821, 44.495619 ], [ 1.35801, 44.495582 ], [ 1.357795, 44.495541 ], [ 1.356946, 44.495299 ], [ 1.356097, 44.495058 ], [ 1.356196, 44.494711 ], [ 1.361176, 44.489848 ], [ 1.361688, 44.489501 ], [ 1.365143, 44.481476 ], [ 1.36541, 44.481235 ], [ 1.370272, 44.479138 ], [ 1.370624, 44.479061 ], [ 1.376615, 44.48234 ], [ 1.382119, 44.484078 ], [ 1.38228, 44.4845 ], [ 1.382441, 44.484922 ], [ 1.38326, 44.486675 ], [ 1.38174, 44.482073 ] ] ], [ [ [ 1.41277, 44.489651 ], [ 1.415127, 44.488703 ], [ 1.415054, 44.488351 ], [ 1.414537, 44.480069 ], [ 1.417207, 44.47922 ], [ 1.417565, 44.479175 ], [ 1.417867, 44.479088 ], [ 1.42133, 44.478382 ], [ 1.421609, 44.478352 ], [ 1.421571, 44.477994 ], [ 1.416258, 44.477626 ], [ 1.41592, 44.477647 ], [ 1.415534, 44.477787 ], [ 1.415149, 44.477927 ], [ 1.41233, 44.480815 ], [ 1.410796, 44.482605 ], [ 1.410984, 44.482439 ], [ 1.41118, 44.482266 ], [ 1.411737, 44.481825 ], [ 1.412294, 44.481384 ], [ 1.412518, 44.481666 ], [ 1.412677, 44.489318 ], [ 1.412669, 44.489678 ], [ 1.405071, 44.492769 ], [ 1.41277, 44.489651 ] ] ] ] } },
{ "type": "Feature", "properties": { "codgeo": "46191", "value": 300, "isochrone_group": 5.0, "nb_agences": 1 }, "geometry": { "type": "MultiPolygon", "coordinates": [ [ [ [ 1.362523, 44.484299 ], [ 1.360006, 44.485275 ], [ 1.358655, 44.485619 ], [ 1.352354, 44.48626 ], [ 1.352013, 44.486376 ], [ 1.345204, 44.487553 ], [ 1.337638, 44.487452 ], [ 1.337491, 44.487781 ], [ 1.339168, 44.49148 ], [ 1.345316, 44.492575 ], [ 1.352469, 44.493761 ], [ 1.352227, 44.493646 ], [ 1.352024, 44.493516 ], [ 1.351859, 44.493385 ], [ 1.351635, 44.493164 ], [ 1.350551, 44.491973 ], [ 1.350336, 44.491723 ], [ 1.350116, 44.491465 ], [ 1.349515, 44.490745 ], [ 1.349258, 44.489518 ], [ 1.349307, 44.489161 ], [ 1.349589, 44.4892 ], [ 1.356774, 44.488048 ], [ 1.358421, 44.487069 ], [ 1.363507, 44.48365 ], [ 1.36351833117677, 44.482246154361057 ], [ 1.362523, 44.484299 ] ] ], [ [ [ 1.369526, 44.473687 ], [ 1.369471, 44.473541 ], [ 1.369392, 44.473468 ], [ 1.369111, 44.473306 ], [ 1.368808, 44.473132 ], [ 1.368673, 44.473076 ], [ 1.363006, 44.470809 ], [ 1.360943, 44.470992 ], [ 1.360819, 44.47133 ], [ 1.362631, 44.474671 ], [ 1.362809, 44.475002 ], [ 1.363036, 44.47523 ], [ 1.363566504049961, 44.476277905933365 ], [ 1.363572, 44.475597 ], [ 1.363712, 44.475266 ], [ 1.368527, 44.474808 ], [ 1.368833, 44.474998 ], [ 1.370067, 44.47852 ], [ 1.37507407605805, 44.480003300350887 ], [ 1.369526, 44.473687 ] ] ], [ [ [ 1.38145, 44.480349 ], [ 1.376866, 44.480173 ], [ 1.376134, 44.480262 ], [ 1.376002373500504, 44.480278299952658 ], [ 1.376744, 44.480498 ], [ 1.377089, 44.480392 ], [ 1.38174, 44.482073 ], [ 1.381740167481484, 44.482073507072229 ], [ 1.38145, 44.480349 ] ] ], [ [ [ 1.411476, 44.478092 ], [ 1.411229, 44.478354 ], [ 1.409372, 44.484949 ], [ 1.410082, 44.483709 ], [ 1.410218, 44.483466 ], [ 1.410365, 44.483207 ], [ 1.410566, 44.482922 ], [ 1.410796, 44.482605 ], [ 1.41233, 44.480815 ], [ 1.415149, 44.477927 ], [ 1.415534, 44.477787 ], [ 1.41592, 44.477647 ], [ 1.411476, 44.478092 ] ] ], [ [ [ 1.412417, 44.491722 ], [ 1.415036, 44.489789 ], [ 1.415421, 44.489502 ], [ 1.415792, 44.489226 ], [ 1.415901, 44.488835 ], [ 1.417996, 44.481435 ], [ 1.4239, 44.477997 ], [ 1.424103, 44.477956 ], [ 1.424317, 44.477912 ], [ 1.42452, 44.477858 ], [ 1.424733, 44.477801 ], [ 1.42498, 44.477719 ], [ 1.429301, 44.477072 ], [ 1.429363, 44.476717 ], [ 1.428584, 44.474656 ], [ 1.428246, 44.474532 ], [ 1.420367382573971, 44.477910632559251 ], [ 1.421571, 44.477994 ], [ 1.421609, 44.478352 ], [ 1.42133, 44.478382 ], [ 1.417867, 44.479088 ], [ 1.417565, 44.479175 ], [ 1.417207, 44.47922 ], [ 1.414537, 44.480069 ], [ 1.415054, 44.488351 ], [ 1.415127, 44.488703 ], [ 1.41277, 44.489651 ], [ 1.405071, 44.492769 ], [ 1.404839, 44.49289 ], [ 1.404737009467678, 44.492961849963038 ], [ 1.412417, 44.491722 ] ] ], [ [ [ 1.391282, 44.50874 ], [ 1.391391, 44.508492 ], [ 1.391501, 44.508245 ], [ 1.393148, 44.505592 ], [ 1.397655, 44.497964 ], [ 1.397698638254493, 44.497920219136844 ], [ 1.397557, 44.49802 ], [ 1.393613, 44.503006 ], [ 1.391326, 44.506017 ], [ 1.390513, 44.507323 ], [ 1.389003, 44.507148 ], [ 1.386636, 44.515525 ], [ 1.386760778960954, 44.515703849844037 ], [ 1.391282, 44.50874 ] ] ], [ [ [ 1.361663, 44.515385 ], [ 1.361463, 44.515332 ], [ 1.361281, 44.515305 ], [ 1.360996, 44.515301 ], [ 1.360722, 44.515348 ], [ 1.358902, 44.515507 ], [ 1.358643, 44.515516 ], [ 1.358415, 44.515561 ], [ 1.358226, 44.515628 ], [ 1.358045, 44.515731 ], [ 1.357893, 44.515854 ], [ 1.354824, 44.517599 ], [ 1.354504, 44.517733 ], [ 1.354202, 44.517897 ], [ 1.35393, 44.518091 ], [ 1.35379, 44.518247 ], [ 1.353626, 44.518438 ], [ 1.353484, 44.5187 ], [ 1.3538, 44.518871 ], [ 1.356584, 44.517499 ], [ 1.363211, 44.516449 ], [ 1.363522, 44.516467 ], [ 1.363877, 44.516451 ], [ 1.364241, 44.51641 ], [ 1.364585, 44.516346 ], [ 1.36845, 44.516026 ], [ 1.374508, 44.513471 ], [ 1.380223, 44.517478 ], [ 1.381151, 44.524091 ], [ 1.381335, 44.524401 ], [ 1.388442, 44.528717 ], [ 1.388756, 44.528892 ], [ 1.393061, 44.526095 ], [ 1.399553, 44.524696 ], [ 1.399605, 44.52434 ], [ 1.395569, 44.52121 ], [ 1.395364, 44.521274 ], [ 1.395158, 44.521338 ], [ 1.388324754976015, 44.520357873998449 ], [ 1.388405, 44.520598 ], [ 1.388541, 44.520849 ], [ 1.388622, 44.521041 ], [ 1.388712, 44.521263 ], [ 1.388761, 44.521493 ], [ 1.388775, 44.521728 ], [ 1.388892, 44.523309 ], [ 1.388536, 44.523363 ], [ 1.388478, 44.522974 ], [ 1.386284, 44.518518 ], [ 1.380973, 44.515992 ], [ 1.380394, 44.515462 ], [ 1.375486, 44.512251 ], [ 1.37034, 44.513582 ], [ 1.369887, 44.513933 ], [ 1.366804, 44.514808 ], [ 1.366598, 44.514513 ], [ 1.367238896999414, 44.511148883444513 ], [ 1.361663, 44.515385 ] ] ], [ [ [ 1.359418, 44.501266 ], [ 1.359497, 44.501617 ], [ 1.364425, 44.504374 ], [ 1.367723344685472, 44.508605981102285 ], [ 1.36822, 44.505999 ], [ 1.362403, 44.499966 ], [ 1.355473, 44.494864 ], [ 1.355059, 44.494729 ], [ 1.354429, 44.494494 ], [ 1.353802, 44.49426 ], [ 1.359418, 44.501266 ] ] ] ] } },
{ "type": "Feature", "properties": { "codgeo": "46191", "value": 360, "isochrone_group": 6.0, "nb_agences": 1 }, "geometry": { "type": "MultiPolygon", "coordinates": [ [ [ [ 1.366137, 44.467156 ], [ 1.36595, 44.466848 ], [ 1.36029, 44.467958 ], [ 1.35999, 44.468158 ], [ 1.355699, 44.47205 ], [ 1.355618, 44.472401 ], [ 1.35821, 44.478097 ], [ 1.359162, 44.484139 ], [ 1.351934, 44.485546 ], [ 1.351412, 44.485686 ], [ 1.350884, 44.485827 ], [ 1.350623, 44.485907 ], [ 1.350352, 44.485991 ], [ 1.3495, 44.486238 ], [ 1.349155, 44.486325 ], [ 1.345807, 44.486571 ], [ 1.342237, 44.48592 ], [ 1.338781, 44.483984 ], [ 1.338425, 44.483936 ], [ 1.3317, 44.485802 ], [ 1.331584, 44.486142 ], [ 1.33026, 44.490127 ], [ 1.329631, 44.493108 ], [ 1.329684, 44.493464 ], [ 1.331087, 44.493372 ], [ 1.331305, 44.493343 ], [ 1.33921, 44.493317 ], [ 1.344623, 44.494484 ], [ 1.345652, 44.494958 ], [ 1.345955, 44.495074 ], [ 1.346258, 44.495191 ], [ 1.35269, 44.493864 ], [ 1.352469, 44.493761 ], [ 1.345316, 44.492575 ], [ 1.339168, 44.49148 ], [ 1.337491, 44.487781 ], [ 1.337638, 44.487452 ], [ 1.345204, 44.487553 ], [ 1.352013, 44.486376 ], [ 1.352354, 44.48626 ], [ 1.358655, 44.485619 ], [ 1.360006, 44.485275 ], [ 1.362523, 44.484299 ], [ 1.36502, 44.479149 ], [ 1.363036, 44.47523 ], [ 1.362809, 44.475002 ], [ 1.362631, 44.474671 ], [ 1.360819, 44.47133 ], [ 1.360943, 44.470992 ], [ 1.363006, 44.470809 ], [ 1.368673, 44.473076 ], [ 1.368808, 44.473132 ], [ 1.369111, 44.473306 ], [ 1.369392, 44.473468 ], [ 1.369471, 44.473541 ], [ 1.369526, 44.473687 ], [ 1.36938, 44.472494 ], [ 1.366137, 44.467156 ] ] ], [ [ [ 1.381429, 44.480223 ], [ 1.381074, 44.480283 ], [ 1.376866, 44.480173 ], [ 1.38145, 44.480349 ], [ 1.381749, 44.482126 ], [ 1.38326, 44.486675 ], [ 1.381739, 44.482063 ], [ 1.381429, 44.480223 ] ] ], [ [ [ 1.411974, 44.477462 ], [ 1.40927, 44.477727 ], [ 1.409048, 44.47801 ], [ 1.40867, 44.479314 ], [ 1.408449, 44.486695 ], [ 1.408559, 44.486448 ], [ 1.408676, 44.486186 ], [ 1.409021, 44.485573 ], [ 1.409372, 44.484949 ], [ 1.411229, 44.478354 ], [ 1.411476, 44.478092 ], [ 1.41592, 44.477647 ], [ 1.412169, 44.477476 ], [ 1.411974, 44.477462 ] ] ], [ [ [ 1.4339, 44.479469 ], [ 1.434021, 44.47913 ], [ 1.429477, 44.472648 ], [ 1.428968549684432, 44.470912636966432 ], [ 1.428219, 44.471366 ], [ 1.427896, 44.471526 ], [ 1.426261179444486, 44.471428987766878 ], [ 1.422562341368956, 44.476969355828821 ], [ 1.428246, 44.474532 ], [ 1.428584, 44.474656 ], [ 1.429363, 44.476717 ], [ 1.429301, 44.477072 ], [ 1.42498, 44.477719 ], [ 1.424733, 44.477801 ], [ 1.42452, 44.477858 ], [ 1.424317, 44.477912 ], [ 1.432544, 44.479681 ], [ 1.4339, 44.479469 ] ] ], [ [ [ 1.412559, 44.492012 ], [ 1.416036, 44.490995 ], [ 1.416255, 44.490881 ], [ 1.416474, 44.490767 ], [ 1.417702, 44.484278 ], [ 1.424103, 44.477956 ], [ 1.4239, 44.477997 ], [ 1.417996, 44.481435 ], [ 1.415901, 44.488835 ], [ 1.415792, 44.489226 ], [ 1.415421, 44.489502 ], [ 1.415036, 44.489789 ], [ 1.412417, 44.491722 ], [ 1.407626980984644, 44.492495295862028 ], [ 1.412327, 44.491992 ], [ 1.412559, 44.492012 ] ] ], [ [ [ 1.402079, 44.49619 ], [ 1.404929514377857, 44.492930772163561 ], [ 1.404606, 44.492983 ], [ 1.397961, 44.497657 ], [ 1.397655, 44.497964 ], [ 1.40076, 44.49678 ], [ 1.402079, 44.49619 ] ] ], [ [ [ 1.392185, 44.509328 ], [ 1.393076, 44.509274 ], [ 1.393405, 44.509238 ], [ 1.395855, 44.509625 ], [ 1.396139, 44.509723 ], [ 1.396256, 44.509382 ], [ 1.394980124486977, 44.502491168940153 ], [ 1.393148, 44.505592 ], [ 1.391501, 44.508245 ], [ 1.391391, 44.508492 ], [ 1.391282, 44.50874 ], [ 1.389081603312105, 44.5121291800466 ], [ 1.391301, 44.509382 ], [ 1.392185, 44.509328 ] ] ], [ [ [ 1.399011, 44.526628 ], [ 1.407789, 44.527084 ], [ 1.408121, 44.526944 ], [ 1.407674, 44.525745 ], [ 1.40749, 44.525354 ], [ 1.405005, 44.519116 ], [ 1.404783, 44.518833 ], [ 1.402485, 44.51991 ], [ 1.402253, 44.519971 ], [ 1.401754, 44.520177 ], [ 1.400764, 44.520514 ], [ 1.397912, 44.520698 ], [ 1.397621, 44.520673 ], [ 1.397345, 44.520691 ], [ 1.393581, 44.51989 ], [ 1.393265, 44.519718 ], [ 1.386759668651454, 44.515705560007866 ], [ 1.386488, 44.516124 ], [ 1.388235, 44.520345 ], [ 1.395158, 44.521338 ], [ 1.395364, 44.521274 ], [ 1.395569, 44.52121 ], [ 1.399605, 44.52434 ], [ 1.399553, 44.524696 ], [ 1.393061, 44.526095 ], [ 1.392666642231345, 44.526351218043892 ], [ 1.394323, 44.526019 ], [ 1.399011, 44.526628 ] ] ], [ [ [ 1.376661, 44.520111 ], [ 1.376633, 44.520373 ], [ 1.376666, 44.520765 ], [ 1.376698, 44.521157 ], [ 1.37836, 44.526683 ], [ 1.379133, 44.528905 ], [ 1.382521, 44.535857 ], [ 1.382771, 44.536117 ], [ 1.383842, 44.537126 ], [ 1.384201, 44.537153 ], [ 1.387091, 44.532223 ], [ 1.3924723739563, 44.526477436014922 ], [ 1.388756, 44.528892 ], [ 1.388442, 44.528717 ], [ 1.381335, 44.524401 ], [ 1.381151, 44.524091 ], [ 1.380223, 44.517478 ], [ 1.374508, 44.513471 ], [ 1.369751749927576, 44.515476978695112 ], [ 1.376838, 44.519668 ], [ 1.376661, 44.520111 ] ] ], [ [ [ 1.351516, 44.518042 ], [ 1.35119, 44.518195 ], [ 1.346947, 44.519342 ], [ 1.346701, 44.519382 ], [ 1.344873, 44.520322 ], [ 1.34372, 44.520916 ], [ 1.343748, 44.521275 ], [ 1.350006, 44.525098 ], [ 1.350344, 44.525222 ], [ 1.35456, 44.522909 ], [ 1.3547, 44.522577 ], [ 1.3570007198987, 44.517432973759831 ], [ 1.356584, 44.517499 ], [ 1.3538, 44.518871 ], [ 1.353484, 44.5187 ], [ 1.353626, 44.518438 ], [ 1.35379, 44.518247 ], [ 1.35393, 44.518091 ], [ 1.354202, 44.517897 ], [ 1.354504, 44.517733 ], [ 1.354824, 44.517599 ], [ 1.357893, 44.515854 ], [ 1.352139, 44.517984 ], [ 1.351516, 44.518042 ] ] ], [ [ [ 1.361463, 44.515332 ], [ 1.361663, 44.515385 ], [ 1.364123753457264, 44.513515518110303 ], [ 1.361281, 44.515305 ], [ 1.361463, 44.515332 ] ] ], [ [ [ 1.357473, 44.502085 ], [ 1.363683, 44.504421 ], [ 1.363931, 44.504681 ], [ 1.36694413946945, 44.511372816428334 ], [ 1.368788, 44.509972 ], [ 1.364425, 44.504374 ], [ 1.359497, 44.501617 ], [ 1.359418, 44.501266 ], [ 1.353802, 44.49426 ], [ 1.353254, 44.494066 ], [ 1.35713, 44.501974 ], [ 1.357473, 44.502085 ] ] ] ] } },
{ "type": "Feature", "properties": { "codgeo": "46191", "value": 420, "isochrone_group": 7.0, "nb_agences": 1 }, "geometry": { "type": "MultiPolygon", "coordinates": [ [ [ [ 1.416199, 44.476007 ], [ 1.415367, 44.476124 ], [ 1.413812, 44.47669 ], [ 1.413539, 44.476784 ], [ 1.412692838364207, 44.477499880661249 ], [ 1.41592, 44.477647 ], [ 1.416258, 44.477626 ], [ 1.416351, 44.477637 ], [ 1.418963, 44.477996 ], [ 1.420138, 44.478009 ], [ 1.421921, 44.47793 ], [ 1.423153823959703, 44.47608339348389 ], [ 1.420805912092446, 44.474599480087704 ], [ 1.418982, 44.476376 ], [ 1.416593, 44.476035 ], [ 1.416199, 44.476007 ] ] ], [ [ [ 1.406969, 44.486035 ], [ 1.400553, 44.492011 ], [ 1.398949, 44.492662 ], [ 1.396708, 44.493235 ], [ 1.394286, 44.493337 ], [ 1.393768, 44.493319 ], [ 1.392315, 44.493354 ], [ 1.384728, 44.488553 ], [ 1.384606, 44.485773 ], [ 1.38372, 44.485016 ], [ 1.382341294966429, 44.483889288221661 ], [ 1.38326, 44.486675 ], [ 1.383204, 44.487586 ], [ 1.383118, 44.488379 ], [ 1.388614, 44.49532 ], [ 1.390577, 44.494988 ], [ 1.391311, 44.495007 ], [ 1.392439, 44.494969 ], [ 1.393126, 44.494954 ], [ 1.393804, 44.494939 ], [ 1.394018, 44.494947 ], [ 1.394221, 44.494955 ], [ 1.396964, 44.494834 ], [ 1.398152, 44.494597 ], [ 1.398712, 44.494445 ], [ 1.399262, 44.494268 ], [ 1.399513, 44.49418 ], [ 1.400058, 44.493978 ], [ 1.401174, 44.493507 ], [ 1.401497, 44.493374 ], [ 1.40761, 44.488558 ], [ 1.408449, 44.486695 ], [ 1.408591972228217, 44.48191998635081 ], [ 1.407264, 44.485393 ], [ 1.406969, 44.486035 ] ] ], [ [ [ 1.375717, 44.468636 ], [ 1.377292, 44.465399 ], [ 1.376071, 44.464805 ], [ 1.37583, 44.464698 ], [ 1.374394, 44.464261 ], [ 1.373943, 44.46416 ], [ 1.371948, 44.463921 ], [ 1.371423, 44.463911 ], [ 1.36983, 44.463988 ], [ 1.369469, 44.464017 ], [ 1.368922, 44.464128 ], [ 1.367099, 44.464657 ], [ 1.35897, 44.460978 ], [ 1.358493, 44.460566 ], [ 1.357229, 44.459633 ], [ 1.355092, 44.46253 ], [ 1.350459, 44.467954 ], [ 1.349479, 44.469791 ], [ 1.349514, 44.469949 ], [ 1.348821, 44.478015 ], [ 1.348634, 44.478334 ], [ 1.348715, 44.480728 ], [ 1.343878, 44.485737 ], [ 1.339646, 44.481987 ], [ 1.338583, 44.480341 ], [ 1.338117, 44.479889 ], [ 1.337396, 44.479424 ], [ 1.336928, 44.479203 ], [ 1.329183, 44.482339 ], [ 1.327061, 44.483631 ], [ 1.326938, 44.485154 ], [ 1.327691, 44.485754 ], [ 1.327788, 44.494229 ], [ 1.32738, 44.494914 ], [ 1.322744, 44.49907 ], [ 1.323434017878561, 44.500535050997698 ], [ 1.324038, 44.500251 ], [ 1.324638, 44.499969 ], [ 1.325373, 44.499589 ], [ 1.326108, 44.499209 ], [ 1.326273, 44.499528 ], [ 1.325538, 44.499908 ], [ 1.324803, 44.500288 ], [ 1.324191, 44.500577 ], [ 1.323587461017564, 44.500860842590754 ], [ 1.324278, 44.502327 ], [ 1.325487, 44.501757 ], [ 1.327023, 44.500964 ], [ 1.327466, 44.500697 ], [ 1.328202, 44.500133 ], [ 1.328606, 44.499748 ], [ 1.336208, 44.496897 ], [ 1.345069, 44.496469 ], [ 1.345915, 44.496785 ], [ 1.347048, 44.496987 ], [ 1.348843, 44.497011 ], [ 1.355503, 44.501951 ], [ 1.355908, 44.503685 ], [ 1.356664, 44.50449 ], [ 1.357371, 44.504992 ], [ 1.358012, 44.5054 ], [ 1.357442, 44.514211 ], [ 1.357037, 44.514463 ], [ 1.355019, 44.515387 ], [ 1.350027, 44.514669 ], [ 1.341694, 44.516232 ], [ 1.333541, 44.518157 ], [ 1.331816, 44.517827 ], [ 1.330707, 44.519143 ], [ 1.33033, 44.521106 ], [ 1.330294, 44.521451 ], [ 1.330459, 44.521802 ], [ 1.332053, 44.522482 ], [ 1.335063, 44.522669 ], [ 1.338418, 44.523038 ], [ 1.341341763573385, 44.525069059667246 ], [ 1.346272, 44.5252 ], [ 1.346998, 44.523963 ], [ 1.347209, 44.523671 ], [ 1.347346612450638, 44.523473385330576 ], [ 1.343748, 44.521275 ], [ 1.34372, 44.520916 ], [ 1.344873, 44.520322 ], [ 1.346701, 44.519382 ], [ 1.346947, 44.519342 ], [ 1.35119, 44.518195 ], [ 1.351516, 44.518042 ], [ 1.352139, 44.517984 ], [ 1.357893, 44.515854 ], [ 1.358045, 44.515731 ], [ 1.358226, 44.515628 ], [ 1.358415, 44.515561 ], [ 1.358643, 44.515516 ], [ 1.358902, 44.515507 ], [ 1.360722, 44.515348 ], [ 1.360996, 44.515301 ], [ 1.361281, 44.515305 ], [ 1.367073, 44.511659 ], [ 1.363931, 44.504681 ], [ 1.363683, 44.504421 ], [ 1.357473, 44.502085 ], [ 1.35713, 44.501974 ], [ 1.353254, 44.494066 ], [ 1.35269, 44.493864 ], [ 1.346258, 44.495191 ], [ 1.345955, 44.495074 ], [ 1.345652, 44.494958 ], [ 1.344623, 44.494484 ], [ 1.33921, 44.493317 ], [ 1.331305, 44.493343 ], [ 1.331087, 44.493372 ], [ 1.329684, 44.493464 ], [ 1.329631, 44.493108 ], [ 1.33026, 44.490127 ], [ 1.331584, 44.486142 ], [ 1.3317, 44.485802 ], [ 1.338425, 44.483936 ], [ 1.338781, 44.483984 ], [ 1.342237, 44.48592 ], [ 1.345807, 44.486571 ], [ 1.349155, 44.486325 ], [ 1.3495, 44.486238 ], [ 1.350352, 44.485991 ], [ 1.350623, 44.485907 ], [ 1.350884, 44.485827 ], [ 1.351412, 44.485686 ], [ 1.351934, 44.485546 ], [ 1.359162, 44.484139 ], [ 1.35821, 44.478097 ], [ 1.355618, 44.472401 ], [ 1.355699, 44.47205 ], [ 1.35999, 44.468158 ], [ 1.36029, 44.467958 ], [ 1.36595, 44.466848 ], [ 1.366137, 44.467156 ], [ 1.36938, 44.472494 ], [ 1.369526, 44.473687 ], [ 1.374097871877364, 44.478891924309075 ], [ 1.371128, 44.473446 ], [ 1.375717, 44.468636 ] ] ], [ [ [ 1.357555836678232, 44.530027854166022 ], [ 1.360156, 44.526287 ], [ 1.360898, 44.525189 ], [ 1.365307, 44.517826 ], [ 1.372695, 44.522084 ], [ 1.370789149110027, 44.528535122466188 ], [ 1.372565, 44.528224 ], [ 1.375357, 44.527809 ], [ 1.378311, 44.529264 ], [ 1.378358, 44.529621 ], [ 1.378107, 44.536866 ], [ 1.377876, 44.537142 ], [ 1.376678, 44.538145 ], [ 1.376465, 44.538339 ], [ 1.375617920901411, 44.539440527762601 ], [ 1.376225, 44.540436 ], [ 1.378174, 44.540952 ], [ 1.380447, 44.541512 ], [ 1.38915, 44.542496 ], [ 1.390257, 44.542972 ], [ 1.390909, 44.543232 ], [ 1.391668, 44.541382 ], [ 1.392241, 44.539888 ], [ 1.388657, 44.531889 ], [ 1.390392, 44.529258 ], [ 1.397590301130329, 44.52644344248899 ], [ 1.394323, 44.526019 ], [ 1.392573, 44.52637 ], [ 1.387091, 44.532223 ], [ 1.384201, 44.537153 ], [ 1.383842, 44.537126 ], [ 1.382771, 44.536117 ], [ 1.382521, 44.535857 ], [ 1.379133, 44.528905 ], [ 1.37836, 44.526683 ], [ 1.376698, 44.521157 ], [ 1.376666, 44.520765 ], [ 1.376633, 44.520373 ], [ 1.376661, 44.520111 ], [ 1.376838, 44.519668 ], [ 1.36916, 44.515127 ], [ 1.36845, 44.516026 ], [ 1.364585, 44.516346 ], [ 1.364241, 44.51641 ], [ 1.363877, 44.516451 ], [ 1.363522, 44.516467 ], [ 1.363211, 44.516449 ], [ 1.362919, 44.516399 ], [ 1.36267, 44.516324 ], [ 1.3571, 44.517211 ], [ 1.3547, 44.522577 ], [ 1.35456, 44.522909 ], [ 1.353923917236335, 44.523257970453592 ], [ 1.355322, 44.529595 ], [ 1.357555836678232, 44.530027854166022 ] ] ], [ [ [ 1.405833, 44.533456 ], [ 1.4124, 44.533437 ], [ 1.41381, 44.530125 ], [ 1.414815, 44.526511 ], [ 1.414673, 44.525341 ], [ 1.412974, 44.518994 ], [ 1.412743, 44.515402 ], [ 1.412461, 44.51542 ], [ 1.411774, 44.515503 ], [ 1.410809, 44.515711 ], [ 1.405828, 44.51498 ], [ 1.402991, 44.509928 ], [ 1.402485, 44.506363 ], [ 1.404973, 44.497737 ], [ 1.41198, 44.493575 ], [ 1.413144, 44.493523 ], [ 1.414742, 44.492902 ], [ 1.415636, 44.492594 ], [ 1.41676, 44.490524 ], [ 1.417505, 44.489063 ], [ 1.419631, 44.485053 ], [ 1.424223, 44.479584 ], [ 1.428787, 44.482258 ], [ 1.431417, 44.484716 ], [ 1.438017, 44.482572 ], [ 1.438113, 44.481283 ], [ 1.438047, 44.480611 ], [ 1.437718, 44.479854 ], [ 1.437334, 44.479387 ], [ 1.437138634703957, 44.479210398602454 ], [ 1.435793, 44.480189 ], [ 1.432831555194822, 44.479636042993128 ], [ 1.432544, 44.479681 ], [ 1.429058793107571, 44.478931597910218 ], [ 1.427074, 44.478561 ], [ 1.426939273509331, 44.478475850958787 ], [ 1.424317, 44.477912 ], [ 1.424103, 44.477956 ], [ 1.417702, 44.484278 ], [ 1.416474, 44.490767 ], [ 1.416255, 44.490881 ], [ 1.416036, 44.490995 ], [ 1.412559, 44.492012 ], [ 1.412327, 44.491992 ], [ 1.405071, 44.492769 ], [ 1.402079, 44.49619 ], [ 1.40076, 44.49678 ], [ 1.397655, 44.497964 ], [ 1.394637, 44.500638 ], [ 1.396256, 44.509382 ], [ 1.396139, 44.509723 ], [ 1.395855, 44.509625 ], [ 1.393405, 44.509238 ], [ 1.393076, 44.509274 ], [ 1.392185, 44.509328 ], [ 1.391301, 44.509382 ], [ 1.386381, 44.515472 ], [ 1.393265, 44.519718 ], [ 1.393581, 44.51989 ], [ 1.397345, 44.520691 ], [ 1.397621, 44.520673 ], [ 1.397912, 44.520698 ], [ 1.400764, 44.520514 ], [ 1.401754, 44.520177 ], [ 1.402253, 44.519971 ], [ 1.402485, 44.51991 ], [ 1.404783, 44.518833 ], [ 1.405005, 44.519116 ], [ 1.40749, 44.525354 ], [ 1.407674, 44.525745 ], [ 1.408121, 44.526944 ], [ 1.407789, 44.527084 ], [ 1.399011, 44.526628 ], [ 1.398826516939163, 44.52660403451705 ], [ 1.404403, 44.531627 ], [ 1.405833, 44.533456 ] ] ] ] } },
{ "type": "Feature", "properties": { "codgeo": "46191", "value": 480, "isochrone_group": 8.0, "nb_agences": 1 }, "geometry": { "type": "MultiPolygon", "coordinates": [ [ [ [ 1.383207, 44.472616 ], [ 1.380153, 44.46834 ], [ 1.37986, 44.467794 ], [ 1.379467, 44.467215 ], [ 1.379094, 44.466795 ], [ 1.378246, 44.466031 ], [ 1.377915, 44.46577 ], [ 1.377443, 44.465478 ], [ 1.377290063151105, 44.465402980685631 ], [ 1.375717, 44.468636 ], [ 1.371128, 44.473446 ], [ 1.375398, 44.481276 ], [ 1.378971, 44.481135 ], [ 1.382767166448433, 44.484237320906793 ], [ 1.381863, 44.475956 ], [ 1.383207, 44.472616 ] ] ], [ [ [ 1.356149, 44.455964 ], [ 1.353019, 44.454186 ], [ 1.352937, 44.454329 ], [ 1.352153, 44.456725 ], [ 1.352074, 44.457118 ], [ 1.35206, 44.457603 ], [ 1.352183, 44.458468 ], [ 1.350342, 44.467246 ], [ 1.349587, 44.468266 ], [ 1.349435, 44.469361 ], [ 1.345059, 44.476141 ], [ 1.340954, 44.475924 ], [ 1.340292, 44.475638 ], [ 1.340004442831957, 44.475862115298838 ], [ 1.344955, 44.477069 ], [ 1.346277, 44.477219 ], [ 1.348745662664285, 44.478143516631512 ], [ 1.348821, 44.478015 ], [ 1.349514, 44.469949 ], [ 1.349479, 44.469791 ], [ 1.350459, 44.467954 ], [ 1.355092, 44.46253 ], [ 1.357229, 44.459633 ], [ 1.358493, 44.460566 ], [ 1.35897, 44.460978 ], [ 1.367099, 44.464657 ], [ 1.368922, 44.464128 ], [ 1.369469, 44.464017 ], [ 1.36983, 44.463988 ], [ 1.362395, 44.462025 ], [ 1.356149, 44.455964 ] ] ], [ [ [ 1.342956, 44.482066 ], [ 1.338835, 44.477133 ], [ 1.338561889582416, 44.476986407399799 ], [ 1.336122, 44.478888 ], [ 1.327336, 44.480389 ], [ 1.326033, 44.481643 ], [ 1.325267, 44.483335 ], [ 1.326949318849299, 44.485013848719667 ], [ 1.327061, 44.483631 ], [ 1.329183, 44.482339 ], [ 1.336928, 44.479203 ], [ 1.337396, 44.479424 ], [ 1.338117, 44.479889 ], [ 1.338583, 44.480341 ], [ 1.339646, 44.481987 ], [ 1.343878, 44.485737 ], [ 1.348653421975635, 44.480791767691549 ], [ 1.343362, 44.482305 ], [ 1.342956, 44.482066 ] ] ], [ [ [ 1.324172, 44.502372 ], [ 1.324276234526292, 44.502323251533348 ], [ 1.324252968067057, 44.502273852017218 ], [ 1.324164727056214, 44.502374822943509 ], [ 1.324172, 44.502372 ] ] ], [ [ [ 1.336553, 44.501178 ], [ 1.340699, 44.49705 ], [ 1.345915, 44.496785 ], [ 1.345069, 44.496469 ], [ 1.336208, 44.496897 ], [ 1.328606, 44.499748 ], [ 1.328202, 44.500133 ], [ 1.327466, 44.500697 ], [ 1.327023, 44.500964 ], [ 1.332954, 44.501125 ], [ 1.336553, 44.501178 ] ] ], [ [ [ 1.348843, 44.497011 ], [ 1.347048, 44.496987 ], [ 1.349138721060219, 44.497230348654277 ], [ 1.348843, 44.497011 ] ] ], [ [ [ 1.355503, 44.501951 ], [ 1.35132115660363, 44.498849152195504 ], [ 1.355908, 44.503685 ], [ 1.355503, 44.501951 ] ] ], [ [ [ 1.356698, 44.506239 ], [ 1.355043, 44.514543 ], [ 1.351478205829445, 44.514877727120499 ], [ 1.355019, 44.515387 ], [ 1.357037, 44.514463 ], [ 1.357442, 44.514211 ], [ 1.358012, 44.5054 ], [ 1.357371, 44.504992 ], [ 1.356664, 44.50449 ], [ 1.355908, 44.503685 ], [ 1.356226, 44.505241 ], [ 1.356698, 44.506239 ] ] ], [ [ [ 1.33996, 44.515335 ], [ 1.338897, 44.514902 ], [ 1.338582, 44.514791 ], [ 1.337877, 44.514508 ], [ 1.337044, 44.514135 ], [ 1.335982, 44.513741 ], [ 1.330766, 44.513056 ], [ 1.327186, 44.513431 ], [ 1.327292, 44.514449 ], [ 1.327307, 44.517397 ], [ 1.326058, 44.521026 ], [ 1.321875, 44.524598 ], [ 1.321117, 44.524974 ], [ 1.320123, 44.525698 ], [ 1.322242, 44.528608 ], [ 1.325685069596961, 44.52766805652773 ], [ 1.328338, 44.522592 ], [ 1.329015, 44.518287 ], [ 1.329326, 44.518105 ], [ 1.33133533005733, 44.518397389219608 ], [ 1.331816, 44.517827 ], [ 1.333541, 44.518157 ], [ 1.341694, 44.516232 ], [ 1.350027, 44.514669 ], [ 1.351436275440469, 44.514871696267264 ], [ 1.348598, 44.513542 ], [ 1.33996, 44.515335 ] ] ], [ [ [ 1.36338, 44.528066 ], [ 1.370523, 44.524716 ], [ 1.370883, 44.524711 ], [ 1.371932654692268, 44.524664465747648 ], [ 1.372695, 44.522084 ], [ 1.365307, 44.517826 ], [ 1.360898, 44.525189 ], [ 1.360588277565473, 44.525647322416582 ], [ 1.362753, 44.527847 ], [ 1.36338, 44.528066 ] ] ], [ [ [ 1.380276, 44.542727 ], [ 1.383861, 44.543048 ], [ 1.390257, 44.542972 ], [ 1.38915, 44.542496 ], [ 1.380447, 44.541512 ], [ 1.379390176558299, 44.54125162994837 ], [ 1.378554504244856, 44.541921919990479 ], [ 1.380276, 44.542727 ] ] ], [ [ [ 1.396225, 44.54691 ], [ 1.396803, 44.546874 ], [ 1.398066, 44.546583 ], [ 1.401237, 44.544902 ], [ 1.401294, 44.544868 ], [ 1.407864, 44.540414 ], [ 1.408479, 44.539998 ], [ 1.409078, 44.539025 ], [ 1.409561, 44.537957 ], [ 1.417501, 44.535821 ], [ 1.420349, 44.537132 ], [ 1.422398, 44.534173 ], [ 1.421943, 44.533858 ], [ 1.420978, 44.533267 ], [ 1.419039, 44.525137 ], [ 1.419033, 44.521537 ], [ 1.421174, 44.514227 ], [ 1.417935, 44.512656 ], [ 1.413856, 44.512602 ], [ 1.407276, 44.507976 ], [ 1.406662, 44.507184 ], [ 1.406123, 44.506436 ], [ 1.405943, 44.498091 ], [ 1.413144, 44.493523 ], [ 1.41198, 44.493575 ], [ 1.404973, 44.497737 ], [ 1.402485, 44.506363 ], [ 1.402991, 44.509928 ], [ 1.405828, 44.51498 ], [ 1.410809, 44.515711 ], [ 1.411774, 44.515503 ], [ 1.412461, 44.51542 ], [ 1.412743, 44.515402 ], [ 1.412974, 44.518994 ], [ 1.414673, 44.525341 ], [ 1.414815, 44.526511 ], [ 1.41381, 44.530125 ], [ 1.4124, 44.533437 ], [ 1.405833, 44.533456 ], [ 1.404403, 44.531627 ], [ 1.398328, 44.526155 ], [ 1.390392, 44.529258 ], [ 1.388657, 44.531889 ], [ 1.392241, 44.539888 ], [ 1.391668, 44.541382 ], [ 1.390909, 44.543232 ], [ 1.390257, 44.542972 ], [ 1.394975, 44.546452 ], [ 1.396225, 44.54691 ] ] ], [ [ [ 1.421102, 44.486013 ], [ 1.428182, 44.487295 ], [ 1.428597, 44.48718 ], [ 1.435902, 44.486848 ], [ 1.436920606958433, 44.485876867526294 ], [ 1.434965294948911, 44.48356334176205 ], [ 1.431417, 44.484716 ], [ 1.428787, 44.482258 ], [ 1.424223, 44.479584 ], [ 1.419631, 44.485053 ], [ 1.417505, 44.489063 ], [ 1.41676, 44.490524 ], [ 1.415636, 44.492594 ], [ 1.418903, 44.488863 ], [ 1.421102, 44.486013 ] ] ], [ [ [ 1.3099, 44.499704 ], [ 1.31042, 44.500132 ], [ 1.311317, 44.500778 ], [ 1.312103, 44.501286 ], [ 1.312876, 44.501685 ], [ 1.313826, 44.502082 ], [ 1.314284, 44.502246 ], [ 1.315221, 44.502541 ], [ 1.315754, 44.50268 ], [ 1.316975, 44.502926 ], [ 1.317493, 44.50301 ], [ 1.317868, 44.503055 ], [ 1.318738, 44.503112 ], [ 1.319659, 44.503127 ], [ 1.32021195396644, 44.503097692542617 ], [ 1.317569, 44.502397 ], [ 1.316153, 44.502101 ], [ 1.314958, 44.501745 ], [ 1.31485, 44.501713 ], [ 1.313822, 44.50126 ], [ 1.313409, 44.501069 ], [ 1.312406, 44.500528 ], [ 1.31193, 44.500184 ], [ 1.31121, 44.49962 ], [ 1.310592, 44.499178 ], [ 1.310433, 44.498997 ], [ 1.310198, 44.498744 ], [ 1.30964, 44.49804 ], [ 1.309543563708156, 44.497928858334603 ], [ 1.308831, 44.498621 ], [ 1.309545, 44.499355 ], [ 1.3099, 44.499704 ] ] ] ] } },
{ "type": "Feature", "properties": { "codgeo": "46191", "value": 540, "isochrone_group": 9.0, "nb_agences": 1 }, "geometry": { "type": "MultiPolygon", "coordinates": [ [ [ [ 1.352153, 44.456725 ], [ 1.352937, 44.454329 ], [ 1.353019, 44.454186 ], [ 1.356149, 44.455964 ], [ 1.362395, 44.462025 ], [ 1.36983, 44.463988 ], [ 1.371423, 44.463911 ], [ 1.371948, 44.463921 ], [ 1.365555, 44.460244 ], [ 1.360098, 44.453393 ], [ 1.360665, 44.451918 ], [ 1.360802, 44.451557 ], [ 1.360477, 44.449813 ], [ 1.353322, 44.447958 ], [ 1.350338, 44.449972 ], [ 1.352074, 44.457118 ], [ 1.352153, 44.456725 ] ] ], [ [ [ 1.336632, 44.475742 ], [ 1.339643, 44.475774 ], [ 1.340142828648354, 44.475754260645772 ], [ 1.340292, 44.475638 ], [ 1.340526073580054, 44.475739125443965 ], [ 1.342479, 44.475662 ], [ 1.345639720544167, 44.475241254732744 ], [ 1.349435, 44.469361 ], [ 1.349587, 44.468266 ], [ 1.350342, 44.467246 ], [ 1.352183, 44.458468 ], [ 1.35206, 44.457603 ], [ 1.349967, 44.464206 ], [ 1.347454, 44.466783 ], [ 1.343104, 44.474167 ], [ 1.337482, 44.474293 ], [ 1.336891, 44.474142 ], [ 1.33626, 44.474039 ], [ 1.335245, 44.473945 ], [ 1.334822406934661, 44.473896208243417 ], [ 1.336632, 44.475742 ] ] ], [ [ [ 1.380046, 44.468119 ], [ 1.38009701955044, 44.46823568148308 ], [ 1.380153, 44.46834 ], [ 1.380453824526885, 44.468761193738359 ], [ 1.384764, 44.471844 ], [ 1.384782892983408, 44.471834361701362 ], [ 1.37986, 44.467794 ], [ 1.379876310346561, 44.467824394024653 ], [ 1.379877, 44.467824 ], [ 1.380046, 44.468119 ] ] ], [ [ [ 1.386404, 44.47783 ], [ 1.383733, 44.476735 ], [ 1.382883, 44.476565 ], [ 1.381912415792488, 44.476408602544765 ], [ 1.382806, 44.484593 ], [ 1.38372, 44.485016 ], [ 1.384606, 44.485773 ], [ 1.386888891567621, 44.483324820855991 ], [ 1.386404, 44.47783 ] ] ], [ [ [ 1.441259051618609, 44.485678560895188 ], [ 1.441461, 44.487317 ], [ 1.441261382385299, 44.485675014727519 ], [ 1.441259051618609, 44.485678560895188 ] ] ], [ [ [ 1.428597, 44.48718 ], [ 1.428182, 44.487295 ], [ 1.421102, 44.486013 ], [ 1.418903, 44.488863 ], [ 1.418583062132491, 44.489228377466695 ], [ 1.426175, 44.490393 ], [ 1.426209, 44.490463 ], [ 1.426877, 44.490947 ], [ 1.4277, 44.491391 ], [ 1.427717, 44.491392 ], [ 1.434301, 44.490364 ], [ 1.434974295319344, 44.490511734268068 ], [ 1.432713488534707, 44.486992912499154 ], [ 1.428597, 44.48718 ] ] ], [ [ [ 1.308881, 44.497166 ], [ 1.307669292312617, 44.497139773146131 ], [ 1.308359, 44.498072 ], [ 1.308738, 44.498521 ], [ 1.308832939585538, 44.498619116002885 ], [ 1.309543563708156, 44.497928858334603 ], [ 1.309017, 44.497322 ], [ 1.308881, 44.497166 ] ] ], [ [ [ 1.318738, 44.503112 ], [ 1.324526, 44.508748 ], [ 1.322708, 44.512822 ], [ 1.321016, 44.515999 ], [ 1.317191, 44.523573 ], [ 1.312915, 44.522893 ], [ 1.309354, 44.520899 ], [ 1.307595, 44.52404 ], [ 1.312752, 44.527845 ], [ 1.316298505286225, 44.530697447553017 ], [ 1.316534, 44.528361 ], [ 1.317278, 44.526081 ], [ 1.323858, 44.520967 ], [ 1.324698, 44.515286 ], [ 1.326974, 44.512031 ], [ 1.328081, 44.510852 ], [ 1.32838, 44.510812 ], [ 1.328746, 44.510773 ], [ 1.330427, 44.511012 ], [ 1.334037, 44.513387 ], [ 1.334577909906298, 44.513556605499573 ], [ 1.335982, 44.513741 ], [ 1.337044, 44.514135 ], [ 1.337877, 44.514508 ], [ 1.338582, 44.514791 ], [ 1.338897, 44.514902 ], [ 1.338991706401, 44.514940577489782 ], [ 1.339009, 44.514946 ], [ 1.33996, 44.515335 ], [ 1.348598, 44.513542 ], [ 1.349872686134556, 44.514139174386557 ], [ 1.355145998125242, 44.514026204572808 ], [ 1.356698, 44.506239 ], [ 1.356226, 44.505241 ], [ 1.355908, 44.503685 ], [ 1.349866, 44.497315 ], [ 1.347048, 44.496987 ], [ 1.345915, 44.496785 ], [ 1.340699, 44.49705 ], [ 1.336553, 44.501178 ], [ 1.332954, 44.501125 ], [ 1.327023, 44.500964 ], [ 1.326860087885956, 44.501048107621394 ], [ 1.325834, 44.507367 ], [ 1.326087, 44.507849 ], [ 1.326466, 44.508543 ], [ 1.326506, 44.508701 ], [ 1.326513, 44.509036 ], [ 1.326153, 44.509044 ], [ 1.322405, 44.504737 ], [ 1.319057417977528, 44.503117202247182 ], [ 1.318738, 44.503112 ] ] ], [ [ [ 1.401245, 44.552898 ], [ 1.401589, 44.552723 ], [ 1.402055, 44.552389 ], [ 1.406219, 44.548437 ], [ 1.409028, 44.546185 ], [ 1.409949, 44.543933 ], [ 1.411209, 44.54062 ], [ 1.419631, 44.540248 ], [ 1.423958, 44.539883 ], [ 1.427111, 44.539585 ], [ 1.428953, 44.539347 ], [ 1.429359, 44.53927 ], [ 1.429927, 44.539121 ], [ 1.430215, 44.53796 ], [ 1.429789, 44.536241 ], [ 1.429693, 44.53614 ], [ 1.429011, 44.535639 ], [ 1.422402, 44.533291 ], [ 1.420916, 44.530012 ], [ 1.425113, 44.523098 ], [ 1.423588, 44.519837 ], [ 1.427361, 44.513562 ], [ 1.427629, 44.511098 ], [ 1.427705, 44.509978 ], [ 1.426077, 44.509822 ], [ 1.423204, 44.509157 ], [ 1.421285, 44.509514 ], [ 1.413725, 44.508089 ], [ 1.412789, 44.507844 ], [ 1.411341, 44.507322 ], [ 1.411017, 44.507219 ], [ 1.409952, 44.506983 ], [ 1.408094, 44.506056 ], [ 1.406882, 44.497881 ], [ 1.413144, 44.493523 ], [ 1.405943, 44.498091 ], [ 1.406123, 44.506436 ], [ 1.406662, 44.507184 ], [ 1.407276, 44.507976 ], [ 1.413856, 44.512602 ], [ 1.417935, 44.512656 ], [ 1.421174, 44.514227 ], [ 1.419033, 44.521537 ], [ 1.419039, 44.525137 ], [ 1.420978, 44.533267 ], [ 1.421943, 44.533858 ], [ 1.422398, 44.534173 ], [ 1.420349, 44.537132 ], [ 1.417501, 44.535821 ], [ 1.409561, 44.537957 ], [ 1.409078, 44.539025 ], [ 1.408479, 44.539998 ], [ 1.407864, 44.540414 ], [ 1.401294, 44.544868 ], [ 1.401237, 44.544902 ], [ 1.398066, 44.546583 ], [ 1.396803, 44.546874 ], [ 1.396225, 44.54691 ], [ 1.394975, 44.546452 ], [ 1.392204756998179, 44.54440866688293 ], [ 1.39483, 44.547219 ], [ 1.395079, 44.548209 ], [ 1.395591, 44.548913 ], [ 1.395857, 44.549189 ], [ 1.396005, 44.549318 ], [ 1.399628, 44.553048 ], [ 1.39975, 44.553093 ], [ 1.400515, 44.55319 ], [ 1.400905, 44.553039 ], [ 1.401245, 44.552898 ] ] ], [ [ [ 1.390257, 44.542972 ], [ 1.383861, 44.543048 ], [ 1.38376745997236, 44.543039624449399 ], [ 1.380445, 44.543167 ], [ 1.380099912459471, 44.545935104254667 ], [ 1.380673, 44.546153 ], [ 1.384193, 44.545398 ], [ 1.390874716386194, 44.543427628025434 ], [ 1.390257, 44.542972 ] ] ] ] } },
{ "type": "Feature", "properties": { "codgeo": "46191", "value": 600, "isochrone_group": 10.0, "nb_agences": 1 }, "geometry": { "type": "MultiPolygon", "coordinates": [ [ [ [ 1.384606, 44.485773 ], [ 1.384728, 44.488553 ], [ 1.392315, 44.493354 ], [ 1.393768, 44.493319 ], [ 1.394286, 44.493337 ], [ 1.396708, 44.493235 ], [ 1.397504, 44.493089 ], [ 1.397946, 44.492982 ], [ 1.398474, 44.492828 ], [ 1.398949, 44.492662 ], [ 1.399901, 44.492314 ], [ 1.400553, 44.492011 ], [ 1.40103, 44.491823 ], [ 1.395372797329035, 44.487816369402438 ], [ 1.391473, 44.490662 ], [ 1.390179, 44.49027 ], [ 1.388187, 44.487687 ], [ 1.389342, 44.481879 ], [ 1.388944621537312, 44.481120250429207 ], [ 1.384606, 44.485773 ] ] ], [ [ [ 1.365777, 44.450464 ], [ 1.362774, 44.446033 ], [ 1.361008, 44.445215 ], [ 1.356427, 44.445796 ], [ 1.350792, 44.444341 ], [ 1.350474, 44.444184 ], [ 1.35015, 44.444072 ], [ 1.349288, 44.443866 ], [ 1.348478, 44.443847 ], [ 1.344782, 44.443931 ], [ 1.343885, 44.447417 ], [ 1.3491, 44.451588 ], [ 1.350693, 44.458771 ], [ 1.346317, 44.462015 ], [ 1.343375, 44.464091 ], [ 1.343912, 44.465382 ], [ 1.34473, 44.466372 ], [ 1.34578, 44.467 ], [ 1.346587835487989, 44.468253289369365 ], [ 1.347454, 44.466783 ], [ 1.349967, 44.464206 ], [ 1.35206, 44.457603 ], [ 1.352074, 44.457118 ], [ 1.350338, 44.449972 ], [ 1.353322, 44.447958 ], [ 1.360477, 44.449813 ], [ 1.360802, 44.451557 ], [ 1.360665, 44.451918 ], [ 1.360098, 44.453393 ], [ 1.365555, 44.460244 ], [ 1.371948, 44.463921 ], [ 1.37314980955626, 44.464064976182406 ], [ 1.373779, 44.464134 ], [ 1.373864439890766, 44.464150588538288 ], [ 1.373943, 44.46416 ], [ 1.374139068676233, 44.464203908949656 ], [ 1.374258, 44.464227 ], [ 1.37431205706757, 44.464242649143735 ], [ 1.374394, 44.464261 ], [ 1.367182, 44.458982 ], [ 1.365777, 44.450464 ] ] ], [ [ [ 1.409632, 44.554376 ], [ 1.413004, 44.553116 ], [ 1.416267, 44.544764 ], [ 1.42268, 44.54242 ], [ 1.424065, 44.542488 ], [ 1.428656, 44.542594 ], [ 1.435045, 44.538408 ], [ 1.437046, 44.538375 ], [ 1.437997, 44.538473 ], [ 1.43909, 44.538563 ], [ 1.439826, 44.538598 ], [ 1.439997, 44.535002 ], [ 1.439261, 44.534967 ], [ 1.438296, 44.534885 ], [ 1.437414, 44.534794 ], [ 1.435007, 44.534808 ], [ 1.434228, 44.534871 ], [ 1.433808, 44.534934 ], [ 1.428938, 44.534696 ], [ 1.423508, 44.532714 ], [ 1.422595, 44.531355 ], [ 1.421713870792003, 44.528697613853723 ], [ 1.420916, 44.530012 ], [ 1.422402, 44.533291 ], [ 1.429011, 44.535639 ], [ 1.429693, 44.53614 ], [ 1.429789, 44.536241 ], [ 1.430215, 44.53796 ], [ 1.429927, 44.539121 ], [ 1.429359, 44.53927 ], [ 1.428953, 44.539347 ], [ 1.427111, 44.539585 ], [ 1.423958, 44.539883 ], [ 1.419631, 44.540248 ], [ 1.411209, 44.54062 ], [ 1.409949, 44.543933 ], [ 1.409028, 44.546185 ], [ 1.406219, 44.548437 ], [ 1.403751945343559, 44.550778450528881 ], [ 1.409345434196044, 44.554411361032081 ], [ 1.409632, 44.554376 ] ] ], [ [ [ 1.427692, 44.522755 ], [ 1.428739, 44.522623 ], [ 1.430227, 44.522385 ], [ 1.430562, 44.522366 ], [ 1.43035, 44.518772 ], [ 1.432386, 44.514053 ], [ 1.436128, 44.511294 ], [ 1.436379, 44.511185 ], [ 1.436806, 44.508509 ], [ 1.441191327973229, 44.502354659554854 ], [ 1.44092, 44.501926 ], [ 1.434495, 44.500949 ], [ 1.429827, 44.497588 ], [ 1.429003, 44.495514 ], [ 1.429021, 44.495452 ], [ 1.428893637587357, 44.491208284410725 ], [ 1.427717, 44.491392 ], [ 1.4277, 44.491391 ], [ 1.426877, 44.490947 ], [ 1.426209, 44.490463 ], [ 1.426175, 44.490393 ], [ 1.417505, 44.489063 ], [ 1.41676, 44.490524 ], [ 1.415636, 44.492594 ], [ 1.414742, 44.492902 ], [ 1.413144, 44.493523 ], [ 1.406882, 44.497881 ], [ 1.408094, 44.506056 ], [ 1.409952, 44.506983 ], [ 1.411017, 44.507219 ], [ 1.411341, 44.507322 ], [ 1.412789, 44.507844 ], [ 1.413725, 44.508089 ], [ 1.421285, 44.509514 ], [ 1.423204, 44.509157 ], [ 1.426077, 44.509822 ], [ 1.427705, 44.509978 ], [ 1.427629, 44.511098 ], [ 1.427361, 44.513562 ], [ 1.423588, 44.519837 ], [ 1.425113, 44.523098 ], [ 1.423305463014576, 44.526075677082964 ], [ 1.426447, 44.522902 ], [ 1.427692, 44.522755 ] ] ], [ [ [ 1.315789, 44.517366 ], [ 1.308494, 44.520426 ], [ 1.307939, 44.520188 ], [ 1.307304, 44.519988 ], [ 1.306574, 44.519845 ], [ 1.304028, 44.519212 ], [ 1.303499, 44.519083 ], [ 1.302925, 44.519021 ], [ 1.302384, 44.519035 ], [ 1.301782, 44.519125 ], [ 1.29864, 44.519243 ], [ 1.298204, 44.519258 ], [ 1.297698, 44.519325 ], [ 1.297115, 44.519479 ], [ 1.296583, 44.51969 ], [ 1.295536, 44.520161 ], [ 1.297012, 44.523444 ], [ 1.29992, 44.523133 ], [ 1.307551312414734, 44.527372618008172 ], [ 1.308344, 44.527006 ], [ 1.310328710444844, 44.526057019244256 ], [ 1.307595, 44.52404 ], [ 1.309354, 44.520899 ], [ 1.312915, 44.522893 ], [ 1.316135146891047, 44.523405090712338 ], [ 1.317523487699681, 44.522914630892174 ], [ 1.318842600927422, 44.520302614268168 ], [ 1.319646, 44.51445 ], [ 1.319306, 44.513571 ], [ 1.319593, 44.513293 ], [ 1.322325926102022, 44.510028463615107 ], [ 1.318373510864564, 44.50578722548881 ], [ 1.320147, 44.511381 ], [ 1.316081, 44.513778 ], [ 1.315789, 44.517366 ] ] ] ] } },
{ "type": "Feature", "properties": { "codgeo": "46191", "value": 660, "isochrone_group": 11.0, "nb_agences": 1 }, "geometry": { "type": "MultiPolygon", "coordinates": [ [ [ [ 1.372167, 44.453299 ], [ 1.37111, 44.449858 ], [ 1.367379, 44.44437 ], [ 1.366463, 44.443184 ], [ 1.35968, 44.440999 ], [ 1.354786, 44.440509 ], [ 1.353562, 44.440397 ], [ 1.350977, 44.442902 ], [ 1.343885, 44.442988 ], [ 1.342166, 44.441995 ], [ 1.341475, 44.441767 ], [ 1.338112, 44.440824 ], [ 1.337713, 44.440727 ], [ 1.337238, 44.440698 ], [ 1.336616, 44.44078 ], [ 1.335034, 44.44117 ], [ 1.335657, 44.444715 ], [ 1.338143, 44.444878 ], [ 1.339101, 44.445107 ], [ 1.339627, 44.44526 ], [ 1.342497, 44.446665 ], [ 1.342815, 44.44692 ], [ 1.343169, 44.447135 ], [ 1.346384, 44.45085 ], [ 1.346517, 44.450944 ], [ 1.346687, 44.451028 ], [ 1.346828, 44.451077 ], [ 1.348012, 44.451382 ], [ 1.349529571329555, 44.453524981079852 ], [ 1.3491, 44.451588 ], [ 1.343885, 44.447417 ], [ 1.344782, 44.443931 ], [ 1.348478, 44.443847 ], [ 1.349288, 44.443866 ], [ 1.35015, 44.444072 ], [ 1.350474, 44.444184 ], [ 1.350792, 44.444341 ], [ 1.356427, 44.445796 ], [ 1.361008, 44.445215 ], [ 1.362774, 44.446033 ], [ 1.365777, 44.450464 ], [ 1.367182, 44.458982 ], [ 1.374394, 44.464261 ], [ 1.370746, 44.461512 ], [ 1.372167, 44.453299 ] ] ], [ [ [ 1.341963, 44.459022 ], [ 1.341308, 44.458736 ], [ 1.339825, 44.458415 ], [ 1.339208, 44.459761 ], [ 1.339064, 44.461934 ], [ 1.341928, 44.463298 ], [ 1.343912, 44.465382 ], [ 1.343375, 44.464091 ], [ 1.346317, 44.462015 ], [ 1.350693, 44.458771 ], [ 1.350464546734368, 44.457740880849322 ], [ 1.343896, 44.460283 ], [ 1.341963, 44.459022 ] ] ], [ [ [ 1.416158, 44.556773 ], [ 1.416625, 44.558115 ], [ 1.416775, 44.550914 ], [ 1.418445, 44.547725 ], [ 1.426057, 44.544531 ], [ 1.432326, 44.546066 ], [ 1.434849, 44.543498 ], [ 1.442265, 44.538574 ], [ 1.445732, 44.538413 ], [ 1.446249, 44.538469 ], [ 1.446543, 44.538452 ], [ 1.447024, 44.538382 ], [ 1.447281, 44.538325 ], [ 1.447986, 44.537316 ], [ 1.447893, 44.535398 ], [ 1.447774, 44.535228 ], [ 1.445446, 44.53164 ], [ 1.443172, 44.531737 ], [ 1.442397, 44.531799 ], [ 1.441913, 44.532443 ], [ 1.4415, 44.532885 ], [ 1.437414, 44.534794 ], [ 1.438296, 44.534885 ], [ 1.439261, 44.534967 ], [ 1.439997, 44.535002 ], [ 1.439826, 44.538598 ], [ 1.43909, 44.538563 ], [ 1.437997, 44.538473 ], [ 1.437046, 44.538375 ], [ 1.435045, 44.538408 ], [ 1.428656, 44.542594 ], [ 1.424065, 44.542488 ], [ 1.42268, 44.54242 ], [ 1.416267, 44.544764 ], [ 1.413458672693767, 44.551952216261604 ], [ 1.414329, 44.55305 ], [ 1.416158, 44.556773 ] ] ], [ [ [ 1.432765, 44.522294 ], [ 1.43411, 44.521989 ], [ 1.435572, 44.521893 ], [ 1.435971, 44.521771 ], [ 1.436127, 44.52173 ], [ 1.437515, 44.519395 ], [ 1.437533, 44.519369 ], [ 1.439898317053885, 44.513181789584408 ], [ 1.436538447019036, 44.510185748892411 ], [ 1.436379, 44.511185 ], [ 1.436128, 44.511294 ], [ 1.432386, 44.514053 ], [ 1.43035, 44.518772 ], [ 1.430562, 44.522366 ], [ 1.430227, 44.522385 ], [ 1.428739, 44.522623 ], [ 1.427692, 44.522755 ], [ 1.426447, 44.522902 ], [ 1.421462, 44.527938 ], [ 1.422595, 44.531355 ], [ 1.423508, 44.532714 ], [ 1.428938, 44.534696 ], [ 1.433808, 44.534934 ], [ 1.434228, 44.534871 ], [ 1.435007, 44.534808 ], [ 1.428218, 44.529359 ], [ 1.432765, 44.522294 ] ] ], [ [ [ 1.302925, 44.519021 ], [ 1.303499, 44.519083 ], [ 1.304028, 44.519212 ], [ 1.306574, 44.519845 ], [ 1.307304, 44.519988 ], [ 1.307939, 44.520188 ], [ 1.308494, 44.520426 ], [ 1.313688860032326, 44.518246936024816 ], [ 1.314666, 44.513663 ], [ 1.318828250563958, 44.511370520050249 ], [ 1.318255, 44.508322 ], [ 1.316173474642449, 44.508036730356487 ], [ 1.311829, 44.513459 ], [ 1.310481, 44.51488 ], [ 1.302925, 44.519021 ] ] ], [ [ [ 1.292202, 44.520192 ], [ 1.291146, 44.520298 ], [ 1.29045314706454, 44.520365838081155 ], [ 1.292186, 44.522055 ], [ 1.294687106279322, 44.523867321024028 ], [ 1.294927, 44.523803 ], [ 1.295902, 44.523738 ], [ 1.296713, 44.523551 ], [ 1.29992, 44.523133 ], [ 1.297012, 44.523444 ], [ 1.295536, 44.520161 ], [ 1.296583, 44.51969 ], [ 1.297115, 44.519479 ], [ 1.293649, 44.520143 ], [ 1.292202, 44.520192 ] ] ], [ [ [ 1.303556, 44.529369 ], [ 1.304068, 44.529932 ], [ 1.304628, 44.530719 ], [ 1.30494, 44.53114 ], [ 1.305840717508824, 44.533433732624552 ], [ 1.306574, 44.534176 ], [ 1.307052, 44.533922 ], [ 1.307752, 44.533364 ], [ 1.314206811273684, 44.535642306139188 ], [ 1.315812, 44.534278 ], [ 1.315913, 44.533683 ], [ 1.315923176650301, 44.533645174959275 ], [ 1.309064, 44.53064 ], [ 1.307552, 44.527373 ], [ 1.301218387409959, 44.523854326338885 ], [ 1.303411704968356, 44.52923401432524 ], [ 1.303556, 44.529369 ] ] ] ] } },
{ "type": "Feature", "properties": { "codgeo": "46191", "value": 720, "isochrone_group": 12.0, "nb_agences": 1 }, "geometry": { "type": "MultiPolygon", "coordinates": [ [ [ [ 1.422185, 44.550939 ], [ 1.426104, 44.545728 ], [ 1.43183, 44.547892 ], [ 1.432169, 44.548046 ], [ 1.436926, 44.549298 ], [ 1.437357, 44.549461 ], [ 1.438629, 44.546093 ], [ 1.442265, 44.538574 ], [ 1.434849, 44.543498 ], [ 1.432326, 44.546066 ], [ 1.426057, 44.544531 ], [ 1.418445, 44.547725 ], [ 1.416775, 44.550914 ], [ 1.41669779211146, 44.554620493369143 ], [ 1.423301194766542, 44.557910417927651 ], [ 1.422185, 44.550939 ] ] ], [ [ [ 1.447095, 44.538773 ], [ 1.447517, 44.538829 ], [ 1.448883, 44.539162 ], [ 1.450886, 44.536116 ], [ 1.449873, 44.529678 ], [ 1.451164, 44.526317 ], [ 1.450517, 44.526069 ], [ 1.449064248314718, 44.523317014670013 ], [ 1.444674, 44.520226 ], [ 1.44337, 44.518321 ], [ 1.442876, 44.517645 ], [ 1.4410459327224, 44.514640196590271 ], [ 1.439423074825052, 44.514424931032728 ], [ 1.437533, 44.519369 ], [ 1.437515, 44.519395 ], [ 1.436127, 44.52173 ], [ 1.435971, 44.521771 ], [ 1.435572, 44.521893 ], [ 1.43411, 44.521989 ], [ 1.432765, 44.522294 ], [ 1.428218, 44.529359 ], [ 1.435007, 44.534808 ], [ 1.437414, 44.534794 ], [ 1.4415, 44.532885 ], [ 1.441913, 44.532443 ], [ 1.442397, 44.531799 ], [ 1.443172, 44.531737 ], [ 1.445446, 44.53164 ], [ 1.447774, 44.535228 ], [ 1.447893, 44.535398 ], [ 1.447986, 44.537316 ], [ 1.447281, 44.538325 ], [ 1.447024, 44.538382 ], [ 1.446543, 44.538452 ], [ 1.446249, 44.538469 ], [ 1.445732, 44.538413 ], [ 1.442265, 44.538574 ], [ 1.446495, 44.538548 ], [ 1.447095, 44.538773 ] ] ], [ [ [ 1.376312, 44.450346 ], [ 1.374878, 44.447044 ], [ 1.367379, 44.44437 ], [ 1.37111, 44.449858 ], [ 1.372167, 44.453299 ], [ 1.370746, 44.461512 ], [ 1.374300978828251, 44.464190902631273 ], [ 1.37502310044324, 44.463584401912939 ], [ 1.372133, 44.460218 ], [ 1.373278, 44.452533 ], [ 1.376312, 44.450346 ] ] ], [ [ [ 1.362746, 44.437129 ], [ 1.362203, 44.437412 ], [ 1.361378, 44.438056 ], [ 1.353271, 44.437544 ], [ 1.352533, 44.43573 ], [ 1.350869, 44.436313 ], [ 1.349199, 44.437086 ], [ 1.348073, 44.43858 ], [ 1.341026910435921, 44.441577289194335 ], [ 1.341470158554921, 44.441765642437474 ], [ 1.341475, 44.441767 ], [ 1.342166, 44.441995 ], [ 1.343885, 44.442988 ], [ 1.350977, 44.442902 ], [ 1.353562, 44.440397 ], [ 1.354786, 44.440509 ], [ 1.35968, 44.440999 ], [ 1.366463, 44.443184 ], [ 1.367379, 44.44437 ], [ 1.366594, 44.441667 ], [ 1.362746, 44.437129 ] ] ], [ [ [ 1.343671, 44.450003 ], [ 1.346825, 44.452586 ], [ 1.341308, 44.458736 ], [ 1.34184846791558, 44.458971990570767 ], [ 1.341912, 44.458989 ], [ 1.341960045112781, 44.459020709774428 ], [ 1.341963, 44.459022 ], [ 1.343896, 44.460283 ], [ 1.352074, 44.457118 ], [ 1.348012, 44.451382 ], [ 1.346828, 44.451077 ], [ 1.346687, 44.451028 ], [ 1.346517, 44.450944 ], [ 1.346384, 44.45085 ], [ 1.343169, 44.447135 ], [ 1.342815, 44.44692 ], [ 1.342497, 44.446665 ], [ 1.340719202368618, 44.445794684434794 ], [ 1.340440744983969, 44.446542315413915 ], [ 1.343671, 44.450003 ] ] ], [ [ [ 1.339559734463805, 44.458359228530384 ], [ 1.33981877442627, 44.45842858123541 ], [ 1.339824227504393, 44.458416685217308 ], [ 1.339598, 44.458368 ], [ 1.339559734463805, 44.458359228530384 ] ] ], [ [ [ 1.301782, 44.519125 ], [ 1.302384, 44.519035 ], [ 1.302925, 44.519021 ], [ 1.310047166983713, 44.515117758406646 ], [ 1.309634, 44.513963 ], [ 1.314266, 44.506504 ], [ 1.313208600338569, 44.503583278563951 ], [ 1.30966, 44.504603 ], [ 1.309554632667344, 44.504645569988867 ], [ 1.308565, 44.509225 ], [ 1.307948, 44.512772 ], [ 1.301782, 44.519125 ] ] ], [ [ [ 1.293465, 44.519546 ], [ 1.293803833382559, 44.520113337747837 ], [ 1.297115, 44.519479 ], [ 1.297698, 44.519325 ], [ 1.292560551088585, 44.519045538269019 ], [ 1.293465, 44.519546 ] ] ], [ [ [ 1.301206, 44.527827 ], [ 1.302471, 44.528354 ], [ 1.303411704968356, 44.52923401432524 ], [ 1.300919, 44.52312 ], [ 1.29992, 44.523133 ], [ 1.300947547382439, 44.527752781666237 ], [ 1.301206, 44.527827 ] ] ], [ [ [ 1.307614903966794, 44.535618506610859 ], [ 1.308308, 44.535102 ], [ 1.312926419827665, 44.536730555689992 ], [ 1.314206811273682, 44.535642306139188 ], [ 1.307752, 44.533364 ], [ 1.307052, 44.533922 ], [ 1.306574, 44.534176 ], [ 1.305840717508824, 44.533433732624552 ], [ 1.306336, 44.534695 ], [ 1.307614903966794, 44.535618506610859 ] ] ] ] } },
{ "type": "Feature", "properties": { "codgeo": "46191", "value": 780, "isochrone_group": 13.0, "nb_agences": 1 }, "geometry": { "type": "MultiPolygon", "coordinates": [ [ [ [ 1.36908, 44.437366 ], [ 1.367167, 44.434312 ], [ 1.366841, 44.434376 ], [ 1.366194, 44.434572 ], [ 1.365639, 44.434813 ], [ 1.365517, 44.434879 ], [ 1.362203, 44.437412 ], [ 1.362746, 44.437129 ], [ 1.366594, 44.441667 ], [ 1.367379, 44.44437 ], [ 1.37111576730812, 44.445702459765549 ], [ 1.371112, 44.44565 ], [ 1.374703, 44.445393 ], [ 1.378586842665176, 44.446037054311319 ], [ 1.373721, 44.443019 ], [ 1.36908, 44.437366 ] ] ], [ [ [ 1.373270149011943, 44.461542556251352 ], [ 1.376089, 44.457217 ], [ 1.373514, 44.454701 ], [ 1.373122832335106, 44.453574452842531 ], [ 1.372133, 44.460218 ], [ 1.373270149011943, 44.461542556251352 ] ] ], [ [ [ 1.347925, 44.43308 ], [ 1.345039, 44.435005 ], [ 1.344533, 44.435961 ], [ 1.338801154335189, 44.436620385480921 ], [ 1.33911, 44.437167 ], [ 1.341832854640489, 44.44123445394743 ], [ 1.348073, 44.43858 ], [ 1.349199, 44.437086 ], [ 1.350869, 44.436313 ], [ 1.352511337837039, 44.4357375895679 ], [ 1.352284, 44.435197 ], [ 1.3515, 44.433503 ], [ 1.347925, 44.43308 ] ] ], [ [ [ 1.299363, 44.519322 ], [ 1.301782, 44.519125 ], [ 1.306458973294613, 44.514306185316137 ], [ 1.305605, 44.511099 ], [ 1.305464, 44.509444 ], [ 1.305497, 44.50936 ], [ 1.30585, 44.508466 ], [ 1.306527976526161, 44.505618033426131 ], [ 1.304934, 44.506419 ], [ 1.30483910707669, 44.506504762920684 ], [ 1.304768, 44.511497 ], [ 1.304593, 44.514773 ], [ 1.29864, 44.519243 ], [ 1.299363, 44.519322 ] ] ], [ [ [ 1.297698, 44.519325 ], [ 1.298204, 44.519258 ], [ 1.29864, 44.519243 ], [ 1.295241329552836, 44.518063779862054 ], [ 1.294372717097213, 44.519144114636077 ], [ 1.297698, 44.519325 ] ] ], [ [ [ 1.292079668132134, 44.523872414474212 ], [ 1.292079668132139, 44.523872414474212 ], [ 1.292519, 44.523778 ], [ 1.292079668132134, 44.523872414474212 ] ] ], [ [ [ 1.299053, 44.52718 ], [ 1.299531, 44.527346 ], [ 1.300947547382439, 44.527752781666237 ], [ 1.29992, 44.523133 ], [ 1.296713, 44.523551 ], [ 1.295902, 44.523738 ], [ 1.297640627975563, 44.526621957913783 ], [ 1.297697, 44.526632 ], [ 1.299053, 44.52718 ] ] ], [ [ [ 1.308308, 44.535102 ], [ 1.307614903966794, 44.535618506610859 ], [ 1.311194, 44.538203 ], [ 1.312926419827665, 44.536730555689992 ], [ 1.308308, 44.535102 ] ] ], [ [ [ 1.440884, 44.552677 ], [ 1.441075, 44.552778 ], [ 1.443486, 44.548989 ], [ 1.444707, 44.545603 ], [ 1.451426, 44.540594 ], [ 1.453092, 44.537422 ], [ 1.452991, 44.535609 ], [ 1.456852214078371, 44.528390901334454 ], [ 1.452758, 44.529735 ], [ 1.452266, 44.529911 ], [ 1.451401, 44.530075 ], [ 1.450668, 44.530008 ], [ 1.450184, 44.529839 ], [ 1.449874291926471, 44.529686210683728 ], [ 1.450886, 44.536116 ], [ 1.448883, 44.539162 ], [ 1.447517, 44.538829 ], [ 1.447095, 44.538773 ], [ 1.446495, 44.538548 ], [ 1.442265, 44.538574 ], [ 1.438629, 44.546093 ], [ 1.437357, 44.549461 ], [ 1.436926, 44.549298 ], [ 1.432169, 44.548046 ], [ 1.43183, 44.547892 ], [ 1.426104, 44.545728 ], [ 1.422185, 44.550939 ], [ 1.422333454336656, 44.551866201286927 ], [ 1.423966, 44.553933 ], [ 1.428596, 44.556404 ], [ 1.429131731229294, 44.556577842345874 ], [ 1.431141, 44.549279 ], [ 1.436945, 44.550668 ], [ 1.437243, 44.550823 ], [ 1.440428, 44.552342 ], [ 1.440884, 44.552677 ] ] ] ] } },
{ "type": "Feature", "properties": { "codgeo": "46191", "value": 840, "isochrone_group": 14.0, "nb_agences": 1 }, "geometry": { "type": "MultiPolygon", "coordinates": [ [ [ [ 1.382325, 44.445972 ], [ 1.376133, 44.442566 ], [ 1.373894, 44.437107 ], [ 1.372126, 44.433971 ], [ 1.369214, 44.434376 ], [ 1.367339289641503, 44.434587051001124 ], [ 1.36908, 44.437366 ], [ 1.370229198503536, 44.438765788653406 ], [ 1.37046, 44.438718 ], [ 1.372404, 44.439797 ], [ 1.372882, 44.440013 ], [ 1.373493, 44.440565 ], [ 1.375133, 44.442538 ], [ 1.382702, 44.447101 ], [ 1.38359290733867, 44.446461049040067 ], [ 1.383349, 44.446115 ], [ 1.383086, 44.446046 ], [ 1.382325, 44.445972 ] ] ], [ [ [ 1.362203, 44.437412 ], [ 1.365517, 44.434879 ], [ 1.365618215415282, 44.434824244119611 ], [ 1.364857, 44.434948 ], [ 1.363009, 44.435612 ], [ 1.361378, 44.438056 ], [ 1.362203, 44.437412 ] ] ], [ [ [ 1.352044, 44.43107 ], [ 1.351774, 44.430562 ], [ 1.345623, 44.428397 ], [ 1.342397, 44.429892 ], [ 1.335149845670898, 44.433780136941117 ], [ 1.335882, 44.434088 ], [ 1.336384, 44.434334 ], [ 1.33838, 44.435875 ], [ 1.339133095597819, 44.436582199308106 ], [ 1.344533, 44.435961 ], [ 1.345039, 44.435005 ], [ 1.347925, 44.43308 ], [ 1.3515, 44.433503 ], [ 1.352284, 44.435197 ], [ 1.352319, 44.433197 ], [ 1.352471, 44.432024 ], [ 1.352124, 44.431239 ], [ 1.352044, 44.43107 ] ] ], [ [ [ 1.334574, 44.433538 ], [ 1.334697528773994, 44.433589942527291 ], [ 1.334539275750182, 44.433497135915019 ], [ 1.334574, 44.433538 ] ] ], [ [ [ 1.302949800236382, 44.51523696223606 ], [ 1.303055, 44.515588 ], [ 1.298354679895145, 44.519144003872363 ], [ 1.29864, 44.519243 ], [ 1.303550494540824, 44.515555798488585 ], [ 1.302949800236382, 44.51523696223606 ] ] ], [ [ [ 1.294927, 44.523803 ], [ 1.293764, 44.523741 ], [ 1.292519, 44.523778 ], [ 1.292079668132136, 44.523872414474212 ], [ 1.295547, 44.526249 ], [ 1.297640627975563, 44.526621957913783 ], [ 1.295902, 44.523738 ], [ 1.294927, 44.523803 ] ] ], [ [ [ 1.430278, 44.564016 ], [ 1.434325, 44.56748 ], [ 1.430722, 44.564198 ], [ 1.430278, 44.564016 ] ] ], [ [ [ 1.434325, 44.56748 ], [ 1.434723, 44.567826 ], [ 1.436118105907206, 44.567536122250601 ], [ 1.434325, 44.56748 ] ] ], [ [ [ 1.458712514682677, 44.531842032779096 ], [ 1.458413, 44.531787 ], [ 1.455425683136633, 44.531057637982009 ], [ 1.452991, 44.535609 ], [ 1.453092, 44.537422 ], [ 1.451426, 44.540594 ], [ 1.444707, 44.545603 ], [ 1.443486, 44.548989 ], [ 1.441075, 44.552778 ], [ 1.440884, 44.552677 ], [ 1.440428, 44.552342 ], [ 1.437243, 44.550823 ], [ 1.436945, 44.550668 ], [ 1.431141, 44.549279 ], [ 1.430053646022055, 44.553228907237354 ], [ 1.432087, 44.554163 ], [ 1.434981, 44.55423 ], [ 1.435058, 44.554454 ], [ 1.435023, 44.556363 ], [ 1.440713, 44.5622 ], [ 1.442093, 44.562484 ], [ 1.442739898470722, 44.562575732324127 ], [ 1.446216, 44.555592 ], [ 1.449925, 44.549573 ], [ 1.452981, 44.542236 ], [ 1.455388, 44.539576 ], [ 1.456872, 44.534057 ], [ 1.458712514682677, 44.531842032779096 ] ] ] ] } },
{ "type": "Feature", "properties": { "codgeo": "46191", "value": 900, "isochrone_group": 15.0, "nb_agences": 1 }, "geometry": { "type": "MultiPolygon", "coordinates": [ [ [ [ 1.361378, 44.438056 ], [ 1.362371884402071, 44.436566696824862 ], [ 1.361922, 44.436802 ], [ 1.361273, 44.437057 ], [ 1.359921310860657, 44.437964002363458 ], [ 1.361378, 44.438056 ] ] ], [ [ [ 1.356869289976454, 44.437771251075347 ], [ 1.352319, 44.433197 ], [ 1.352284, 44.435197 ], [ 1.353271, 44.437544 ], [ 1.356869289976454, 44.437771251075347 ] ] ], [ [ [ 1.343142, 44.425999 ], [ 1.339753, 44.427213 ], [ 1.337784, 44.429459 ], [ 1.335708827319804, 44.428603867154003 ], [ 1.336636878312314, 44.432982335999796 ], [ 1.342397, 44.429892 ], [ 1.345623, 44.428397 ], [ 1.351774, 44.430562 ], [ 1.352044, 44.43107 ], [ 1.352124, 44.431239 ], [ 1.352471, 44.432024 ], [ 1.352211, 44.42998 ], [ 1.35147, 44.429707 ], [ 1.348863, 44.428658 ], [ 1.343142, 44.425999 ] ] ], [ [ [ 1.364857, 44.434948 ], [ 1.366487, 44.434683 ], [ 1.369214, 44.434376 ], [ 1.372126, 44.433971 ], [ 1.373372982783299, 44.436182842764936 ], [ 1.375605194680803, 44.43507392906308 ], [ 1.375982305120389, 44.433487943741987 ], [ 1.373017, 44.431874 ], [ 1.364857, 44.434948 ] ] ], [ [ [ 1.322905, 44.426462 ], [ 1.323089, 44.425853 ], [ 1.323130746667815, 44.423900774006896 ], [ 1.320952, 44.424987 ], [ 1.321569, 44.428534 ], [ 1.321517424870325, 44.428862959214634 ], [ 1.322962, 44.427531 ], [ 1.322905, 44.426462 ] ] ], [ [ [ 1.45031, 44.567502 ], [ 1.447075, 44.567128 ], [ 1.446388, 44.567122 ], [ 1.445645, 44.56696 ], [ 1.4426, 44.566274 ], [ 1.43712, 44.568231 ], [ 1.435929, 44.570161 ], [ 1.436144147202081, 44.570559780787171 ], [ 1.441968, 44.568084 ], [ 1.445365, 44.569097 ], [ 1.451894, 44.567795 ], [ 1.451897502754827, 44.567780269927773 ], [ 1.451088, 44.567654 ], [ 1.45031, 44.567502 ] ] ], [ [ [ 1.459616030068888, 44.534481890284326 ], [ 1.45915, 44.534341 ], [ 1.458867, 44.534569 ], [ 1.457058, 44.533985 ], [ 1.45699030189244, 44.533914629598726 ], [ 1.456872, 44.534057 ], [ 1.455388, 44.539576 ], [ 1.452981, 44.542236 ], [ 1.449925, 44.549573 ], [ 1.446216, 44.555592 ], [ 1.444659610351657, 44.558718896209591 ], [ 1.446105, 44.559549 ], [ 1.452691974068218, 44.563489289228173 ], [ 1.452375, 44.556225 ], [ 1.454536, 44.551757 ], [ 1.455106, 44.548203 ], [ 1.456771, 44.540665 ], [ 1.457975, 44.538932 ], [ 1.459616030068888, 44.534481890284326 ] ] ], [ [ [ 1.460987784015078, 44.517617361016484 ], [ 1.461518, 44.517567 ], [ 1.462209, 44.51764 ], [ 1.462527, 44.517738 ], [ 1.461155020895724, 44.516815276798503 ], [ 1.460843525942658, 44.517507678234743 ], [ 1.460987784015078, 44.517617361016484 ] ] ] ] } },
{ "type": "Feature", "properties": { "codgeo": "46191", "value": 960, "isochrone_group": 16.0, "nb_agences": 1 }, "geometry": { "type": "MultiPolygon", "coordinates": [ [ [ [ 1.371447, 44.429806 ], [ 1.368794, 44.43224 ], [ 1.366962584444219, 44.43415479331108 ], [ 1.373017, 44.431874 ], [ 1.374769051973366, 44.432827599445332 ], [ 1.376417, 44.431719 ], [ 1.376799, 44.431515 ], [ 1.376904030743087, 44.431483126508589 ], [ 1.375792154448699, 44.42945366084097 ], [ 1.374869, 44.429496 ], [ 1.371447, 44.429806 ] ] ], [ [ [ 1.352041, 44.426488 ], [ 1.344980800522524, 44.422854778145108 ], [ 1.344606, 44.423 ], [ 1.344382374898409, 44.422620314687926 ], [ 1.340629, 44.421322 ], [ 1.338474, 44.424205 ], [ 1.332487599322625, 44.423219968216912 ], [ 1.33307, 44.423977 ], [ 1.336529, 44.428084 ], [ 1.337828488675557, 44.429408252633174 ], [ 1.339753, 44.427213 ], [ 1.343142, 44.425999 ], [ 1.348863, 44.428658 ], [ 1.35147, 44.429707 ], [ 1.352211, 44.42998 ], [ 1.352471, 44.432024 ], [ 1.352319, 44.433197 ], [ 1.358206, 44.439115 ], [ 1.361273, 44.437057 ], [ 1.361922, 44.436802 ], [ 1.362204353213493, 44.436654320713167 ], [ 1.355131, 44.434359 ], [ 1.352662, 44.428188 ], [ 1.35252, 44.427643 ], [ 1.352041, 44.426488 ] ] ], [ [ [ 1.460489, 44.569757 ], [ 1.459090987238094, 44.570062367975297 ], [ 1.461007, 44.569906 ], [ 1.461099475629139, 44.569848794145699 ], [ 1.460489, 44.569757 ] ] ], [ [ [ 1.458756957227584, 44.536811505365762 ], [ 1.457975, 44.538932 ], [ 1.456771, 44.540665 ], [ 1.455106, 44.548203 ], [ 1.454536, 44.551757 ], [ 1.452375, 44.556225 ], [ 1.45257189401125, 44.560737340877125 ], [ 1.455122, 44.563174 ], [ 1.45889, 44.564731 ], [ 1.459691, 44.565026 ], [ 1.460450497188604, 44.565224552281485 ], [ 1.457141, 44.557382 ], [ 1.459849, 44.550562 ], [ 1.460786, 44.547438 ], [ 1.459231, 44.541559 ], [ 1.46497251022496, 44.540966514969753 ], [ 1.464569, 44.538818 ], [ 1.458756957227584, 44.536811505365762 ] ] ], [ [ [ 1.476985, 44.536495 ], [ 1.477572, 44.54092 ], [ 1.477068, 44.536319 ], [ 1.477052173498409, 44.536311553091799 ], [ 1.476985, 44.536495 ] ] ] ] } },
{ "type": "Feature", "properties": { "codgeo": "46191", "value": 1020, "isochrone_group": 17.0, "nb_agences": 1 }, "geometry": { "type": "MultiPolygon", "coordinates": [ [ [ [ 1.354464, 44.428069 ], [ 1.354468121194515, 44.427958851710216 ], [ 1.352148, 44.425268 ], [ 1.352047888099847, 44.425076629269157 ], [ 1.348633, 44.421709 ], [ 1.346111076897497, 44.423436425284237 ], [ 1.352041, 44.426488 ], [ 1.35252, 44.427643 ], [ 1.352662, 44.428188 ], [ 1.355131, 44.434359 ], [ 1.363171, 44.436968 ], [ 1.36561504442495, 44.435556216614707 ], [ 1.365616183989473, 44.435541481648535 ], [ 1.358253, 44.432799 ], [ 1.357868, 44.43216 ], [ 1.356704, 44.430552 ], [ 1.355014946753512, 44.428593054136428 ], [ 1.354485, 44.428539 ], [ 1.354464, 44.428069 ] ] ], [ [ [ 1.339735526277452, 44.42218441172183 ], [ 1.334614061470128, 44.423479619719643 ], [ 1.334654351969597, 44.42357649634431 ], [ 1.338474, 44.424205 ], [ 1.339799735632047, 44.422431405648638 ], [ 1.339735526277452, 44.42218441172183 ] ] ], [ [ [ 1.330069, 44.418523 ], [ 1.327986133978258, 44.41448724600297 ], [ 1.326408045847496, 44.418767969959738 ], [ 1.326543299701237, 44.418997874214654 ], [ 1.331098, 44.420852 ], [ 1.33171856410267, 44.420806909751157 ], [ 1.330069, 44.418523 ] ] ], [ [ [ 1.317001, 44.415733 ], [ 1.317465749606173, 44.417354054726552 ], [ 1.317836188918325, 44.4153911865452 ], [ 1.317643, 44.415215 ], [ 1.317875, 44.414337 ], [ 1.318136, 44.41376 ], [ 1.318158733777665, 44.413682099467529 ], [ 1.318168, 44.413633 ], [ 1.318130105677224, 44.413075145871261 ], [ 1.317001, 44.415733 ] ] ], [ [ [ 1.459877157284644, 44.563865902336907 ], [ 1.461324, 44.56459 ], [ 1.465525371273833, 44.564435110736461 ], [ 1.468951343536954, 44.560920880276647 ], [ 1.468818, 44.558874 ], [ 1.468034, 44.551204 ], [ 1.46583, 44.543026 ], [ 1.463426167524008, 44.541126087079874 ], [ 1.459231, 44.541559 ], [ 1.460786, 44.547438 ], [ 1.459849, 44.550562 ], [ 1.457141, 44.557382 ], [ 1.459877157284644, 44.563865902336907 ] ] ] ] } },
{ "type": "Feature", "properties": { "codgeo": "46191", "value": 1080, "isochrone_group": 18.0, "nb_agences": 1 }, "geometry": { "type": "MultiPolygon", "coordinates": [ [ [ [ 1.339923, 44.422137 ], [ 1.341798, 44.420282 ], [ 1.342377, 44.419747 ], [ 1.34246041107923, 44.419695141426402 ], [ 1.34265221408557, 44.41852791546156 ], [ 1.338979, 44.418822 ], [ 1.338923, 44.419575 ], [ 1.336559286066663, 44.422387979864432 ], [ 1.336618540713715, 44.422972691009711 ], [ 1.339923, 44.422137 ] ] ], [ [ [ 1.330122, 44.411341 ], [ 1.330066857433816, 44.411352415478603 ], [ 1.330015, 44.411366 ], [ 1.328267452700928, 44.415032328186655 ], [ 1.328486861439147, 44.41545745379868 ], [ 1.330122, 44.411341 ] ] ], [ [ [ 1.330229523064937, 44.411309803752921 ], [ 1.330122, 44.411341 ], [ 1.330451, 44.411252 ], [ 1.330450959552775, 44.411251796472513 ], [ 1.330229523064937, 44.411309803752921 ] ] ], [ [ [ 1.505605, 44.530583 ], [ 1.506295751757971, 44.530312911336075 ], [ 1.506295, 44.530311 ], [ 1.505605, 44.530583 ] ] ], [ [ [ 1.493321194078366, 44.545327316402307 ], [ 1.49331162779185, 44.545788198828234 ], [ 1.493883695049777, 44.544315477168098 ], [ 1.493577518945395, 44.544482359373411 ], [ 1.493321194078366, 44.545327316402307 ] ] ] ] } },
{ "type": "Feature", "properties": { "codgeo": "46191", "value": 1140, "isochrone_group": 19.0, "nb_agences": 1 }, "geometry": { "type": "MultiPolygon", "coordinates": [ [ [ [ 1.514637, 44.527853 ], [ 1.515608011691081, 44.531069442604412 ], [ 1.515694, 44.530969 ], [ 1.51597, 44.530043 ], [ 1.515882, 44.52927 ], [ 1.515438, 44.528453 ], [ 1.514258470860693, 44.527096856871928 ], [ 1.514637, 44.527853 ] ] ], [ [ [ 1.503145, 44.541259 ], [ 1.503216188295506, 44.541563547000777 ], [ 1.504486193640351, 44.54007009779648 ], [ 1.503145, 44.541259 ] ] ] ] } }
]
}
