{
"type": "FeatureCollection",
"name": "La_Banque_Postale",
"crs": { "type": "name", "properties": { "name": "urn:ogc:def:crs:OGC:1.3:CRS84" } },
"features": [
{ "type": "Feature", "properties": { "codgeo": "66053", "value": 60, "isochrone_group": 1.0, "nb_agences": 1 }, "geometry": { "type": "Polygon", "coordinates": [ [ [ 3.082397, 42.525127 ], [ 3.082425, 42.52466 ], [ 3.082542, 42.52432 ], [ 3.08348, 42.524558 ], [ 3.083551, 42.526087 ], [ 3.082735, 42.526848 ], [ 3.082394, 42.526735 ], [ 3.082397, 42.525127 ] ] ] } },
{ "type": "Feature", "properties": { "codgeo": "66053", "value": 120, "isochrone_group": 2.0, "nb_agences": 1 }, "geometry": { "type": "Polygon", "coordinates": [ [ [ 3.079117, 42.524119 ], [ 3.081083, 42.527704 ], [ 3.08201, 42.527909 ], [ 3.083571, 42.528223 ], [ 3.08388, 42.528259 ], [ 3.084189, 42.528294 ], [ 3.084603, 42.527953 ], [ 3.084866, 42.527729 ], [ 3.086861, 42.523825 ], [ 3.086873, 42.523465 ], [ 3.086682, 42.523374 ], [ 3.085789, 42.523264 ], [ 3.083026, 42.52315 ], [ 3.081291, 42.523063 ], [ 3.079152, 42.524098 ], [ 3.079117, 42.524119 ] ], [ [ 3.082425, 42.52466 ], [ 3.082542, 42.52432 ], [ 3.08348, 42.524558 ], [ 3.083551, 42.526087 ], [ 3.082735, 42.526848 ], [ 3.082394, 42.526735 ], [ 3.082397, 42.525127 ], [ 3.082425, 42.52466 ] ] ] } },
{ "type": "Feature", "properties": { "codgeo": "66053", "value": 180, "isochrone_group": 3.0, "nb_agences": 1 }, "geometry": { "type": "Polygon", "coordinates": [ [ [ 3.076312, 42.526295 ], [ 3.076899, 42.527206 ], [ 3.079332, 42.529476 ], [ 3.084865, 42.528589 ], [ 3.085113, 42.528513 ], [ 3.086025, 42.528099 ], [ 3.091444, 42.525487 ], [ 3.091641, 42.525399 ], [ 3.091792, 42.525285 ], [ 3.092052, 42.524991 ], [ 3.092322, 42.524686 ], [ 3.092484, 42.524457 ], [ 3.092595, 42.524159 ], [ 3.092706, 42.523862 ], [ 3.08761, 42.521732 ], [ 3.087279, 42.521596 ], [ 3.086568, 42.52147 ], [ 3.08288, 42.52121 ], [ 3.079235, 42.521059 ], [ 3.078875, 42.521072 ], [ 3.076774, 42.523232 ], [ 3.076312, 42.526295 ] ], [ [ 3.081291, 42.523063 ], [ 3.083026, 42.52315 ], [ 3.085789, 42.523264 ], [ 3.086682, 42.523374 ], [ 3.086873, 42.523465 ], [ 3.086861, 42.523825 ], [ 3.084866, 42.527729 ], [ 3.084603, 42.527953 ], [ 3.084189, 42.528294 ], [ 3.08388, 42.528259 ], [ 3.083571, 42.528223 ], [ 3.08201, 42.527909 ], [ 3.081083, 42.527704 ], [ 3.079117, 42.524119 ], [ 3.079152, 42.524098 ], [ 3.081291, 42.523063 ] ] ] } },
{ "type": "Feature", "properties": { "codgeo": "66053", "value": 240, "isochrone_group": 4.0, "nb_agences": 1 }, "geometry": { "type": "Polygon", "coordinates": [ [ [ 3.098013, 42.523742 ], [ 3.099946, 42.523322 ], [ 3.099961, 42.522962 ], [ 3.097545, 42.522522 ], [ 3.089412, 42.520218 ], [ 3.089071, 42.520102 ], [ 3.081769, 42.519288 ], [ 3.078365, 42.517664 ], [ 3.078013, 42.51774 ], [ 3.074607, 42.521599 ], [ 3.074365, 42.521866 ], [ 3.074331, 42.522115 ], [ 3.074378, 42.522472 ], [ 3.075771, 42.530135 ], [ 3.076609, 42.530386 ], [ 3.079446, 42.530394 ], [ 3.085113, 42.528513 ], [ 3.084865, 42.528589 ], [ 3.079332, 42.529476 ], [ 3.076899, 42.527206 ], [ 3.076312, 42.526295 ], [ 3.076774, 42.523232 ], [ 3.078875, 42.521072 ], [ 3.079235, 42.521059 ], [ 3.08288, 42.52121 ], [ 3.086568, 42.52147 ], [ 3.087279, 42.521596 ], [ 3.08761, 42.521732 ], [ 3.092706, 42.523862 ], [ 3.092595, 42.524159 ], [ 3.092484, 42.524457 ], [ 3.092322, 42.524686 ], [ 3.092052, 42.524991 ], [ 3.091792, 42.525285 ], [ 3.091641, 42.525399 ], [ 3.091444, 42.525487 ], [ 3.098013, 42.523742 ] ] ] } },
{ "type": "Feature", "properties": { "codgeo": "66053", "value": 300, "isochrone_group": 5.0, "nb_agences": 1 }, "geometry": { "type": "Polygon", "coordinates": [ [ [ 3.09698, 42.525013 ], [ 3.103272, 42.524091 ], [ 3.103514, 42.524063 ], [ 3.104397, 42.521931 ], [ 3.104251, 42.521602 ], [ 3.103054, 42.521743 ], [ 3.099485, 42.521844 ], [ 3.090709, 42.520046 ], [ 3.090517, 42.519861 ], [ 3.090172, 42.519563 ], [ 3.089382, 42.51928 ], [ 3.088106, 42.519113 ], [ 3.082995, 42.517485 ], [ 3.079837, 42.514794 ], [ 3.079579, 42.514543 ], [ 3.076561, 42.516392 ], [ 3.073551, 42.519826 ], [ 3.072525, 42.521661 ], [ 3.072097, 42.522948 ], [ 3.069106, 42.530089 ], [ 3.068978, 42.530365 ], [ 3.068962, 42.530584 ], [ 3.071393, 42.531951 ], [ 3.07739, 42.532886 ], [ 3.078271, 42.532433 ], [ 3.085113, 42.528513 ], [ 3.079446, 42.530394 ], [ 3.076609, 42.530386 ], [ 3.075771, 42.530135 ], [ 3.074378, 42.522472 ], [ 3.074331, 42.522115 ], [ 3.074365, 42.521866 ], [ 3.074607, 42.521599 ], [ 3.078013, 42.51774 ], [ 3.078365, 42.517664 ], [ 3.081769, 42.519288 ], [ 3.089071, 42.520102 ], [ 3.089412, 42.520218 ], [ 3.097545, 42.522522 ], [ 3.099961, 42.522962 ], [ 3.099946, 42.523322 ], [ 3.098013, 42.523742 ], [ 3.091444, 42.525487 ], [ 3.09698, 42.525013 ] ] ] } },
{ "type": "Feature", "properties": { "codgeo": "66053", "value": 360, "isochrone_group": 6.0, "nb_agences": 1 }, "geometry": { "type": "MultiPolygon", "coordinates": [ [ [ [ 3.084398, 42.516729 ], [ 3.082031, 42.512278 ], [ 3.079759, 42.511677 ], [ 3.07956, 42.511643 ], [ 3.07828, 42.511836 ], [ 3.073934, 42.516398 ], [ 3.072687, 42.519435 ], [ 3.068032, 42.52477 ], [ 3.067997, 42.52493 ], [ 3.068004, 42.525085 ], [ 3.066996, 42.5318 ], [ 3.065443, 42.533873 ], [ 3.06557, 42.53421 ], [ 3.065726, 42.534151 ], [ 3.067517, 42.533421 ], [ 3.070192, 42.532586 ], [ 3.075973392202862, 42.532665134852358 ], [ 3.071393, 42.531951 ], [ 3.068962, 42.530584 ], [ 3.068978, 42.530365 ], [ 3.069106, 42.530089 ], [ 3.072097, 42.522948 ], [ 3.072525, 42.521661 ], [ 3.073551, 42.519826 ], [ 3.076561, 42.516392 ], [ 3.079579, 42.514543 ], [ 3.079837, 42.514794 ], [ 3.082995, 42.517485 ], [ 3.088106, 42.519113 ], [ 3.089382, 42.51928 ], [ 3.084398, 42.516729 ] ] ], [ [ [ 3.104393, 42.524182 ], [ 3.108566, 42.520565 ], [ 3.107925, 42.519049 ], [ 3.107773, 42.518792 ], [ 3.107694, 42.518699 ], [ 3.107448, 42.51843 ], [ 3.107202, 42.518162 ], [ 3.106937, 42.518405 ], [ 3.099485, 42.521844 ], [ 3.103054, 42.521743 ], [ 3.104251, 42.521602 ], [ 3.104397, 42.521931 ], [ 3.103514, 42.524063 ], [ 3.103272, 42.524091 ], [ 3.09698, 42.525013 ], [ 3.104393, 42.524182 ] ] ], [ [ [ 3.07893, 42.532603 ], [ 3.086025, 42.528099 ], [ 3.085113, 42.528513 ], [ 3.078271, 42.532433 ], [ 3.07739, 42.532886 ], [ 3.07893, 42.532603 ] ] ] ] } },
{ "type": "Feature", "properties": { "codgeo": "66053", "value": 420, "isochrone_group": 7.0, "nb_agences": 1 }, "geometry": { "type": "MultiPolygon", "coordinates": [ [ [ [ 3.063146, 42.535063 ], [ 3.065033, 42.535069 ], [ 3.068045, 42.533501 ], [ 3.076548, 42.532673 ], [ 3.070192, 42.532586 ], [ 3.067517, 42.533421 ], [ 3.065726, 42.534151 ], [ 3.06557, 42.53421 ], [ 3.065443, 42.533873 ], [ 3.066996, 42.5318 ], [ 3.068004, 42.525085 ], [ 3.067997, 42.52493 ], [ 3.068032, 42.52477 ], [ 3.072687, 42.519435 ], [ 3.073934, 42.516398 ], [ 3.07828, 42.511836 ], [ 3.07956, 42.511643 ], [ 3.079759, 42.511677 ], [ 3.082031, 42.512278 ], [ 3.084398, 42.516729 ], [ 3.085711165835431, 42.517401128018903 ], [ 3.083792, 42.511782 ], [ 3.082276, 42.509998 ], [ 3.081671, 42.509711 ], [ 3.077446, 42.509184 ], [ 3.076953, 42.509251 ], [ 3.076461, 42.509319 ], [ 3.072078, 42.512885 ], [ 3.072061, 42.513245 ], [ 3.073159, 42.515187 ], [ 3.066997, 42.520905 ], [ 3.066644, 42.520832 ], [ 3.063072, 42.525593 ], [ 3.059713464326199, 42.528857513483402 ], [ 3.059755, 42.528884 ], [ 3.060365, 42.531904 ], [ 3.05998454027751, 42.534058180092508 ], [ 3.062855, 42.535015 ], [ 3.063146, 42.535063 ] ] ], [ [ [ 3.111447, 42.519947 ], [ 3.111457, 42.519587 ], [ 3.105953, 42.51573 ], [ 3.105891, 42.515746 ], [ 3.105751, 42.515898 ], [ 3.104313, 42.518214 ], [ 3.099485, 42.521844 ], [ 3.106937, 42.518405 ], [ 3.107202, 42.518162 ], [ 3.107448, 42.51843 ], [ 3.107694, 42.518699 ], [ 3.107773, 42.518792 ], [ 3.107925, 42.519049 ], [ 3.108566, 42.520565 ], [ 3.104393, 42.524182 ], [ 3.111447, 42.519947 ] ] ] ] } },
{ "type": "Feature", "properties": { "codgeo": "66053", "value": 480, "isochrone_group": 8.0, "nb_agences": 1 }, "geometry": { "type": "MultiPolygon", "coordinates": [ [ [ [ 3.112175, 42.521113 ], [ 3.111959, 42.520126 ], [ 3.111885, 42.520009 ], [ 3.108683, 42.51511 ], [ 3.107482, 42.513954 ], [ 3.107125, 42.513907 ], [ 3.106399, 42.513863 ], [ 3.105382, 42.513917 ], [ 3.102156, 42.517879 ], [ 3.094084, 42.521642 ], [ 3.099485, 42.521844 ], [ 3.104313, 42.518214 ], [ 3.105751, 42.515898 ], [ 3.105891, 42.515746 ], [ 3.105953, 42.51573 ], [ 3.111457, 42.519587 ], [ 3.111447, 42.519947 ], [ 3.104393, 42.524182 ], [ 3.112175, 42.521113 ] ] ], [ [ [ 3.088186, 42.514368 ], [ 3.085353, 42.507368 ], [ 3.085286, 42.507015 ], [ 3.077303, 42.506005 ], [ 3.077164, 42.506228 ], [ 3.076466, 42.507465 ], [ 3.07015, 42.512705 ], [ 3.066928, 42.520177 ], [ 3.066408165495015, 42.52100990010323 ], [ 3.066474616883501, 42.521057765122514 ], [ 3.066644, 42.520832 ], [ 3.066997, 42.520905 ], [ 3.073159, 42.515187 ], [ 3.072061, 42.513245 ], [ 3.072078, 42.512885 ], [ 3.076461, 42.509319 ], [ 3.076953, 42.509251 ], [ 3.077446, 42.509184 ], [ 3.081671, 42.509711 ], [ 3.082276, 42.509998 ], [ 3.083792, 42.511782 ], [ 3.085817, 42.517711 ], [ 3.089382, 42.51928 ], [ 3.090709, 42.520046 ], [ 3.088186, 42.514368 ] ] ] ] } },
{ "type": "Feature", "properties": { "codgeo": "66053", "value": 540, "isochrone_group": 9.0, "nb_agences": 1 }, "geometry": { "type": "MultiPolygon", "coordinates": [ [ [ [ 3.112175, 42.521113 ], [ 3.104393, 42.524182 ], [ 3.112071, 42.521662 ], [ 3.112175, 42.521113 ] ] ], [ [ [ 3.111078, 42.513397 ], [ 3.109969, 42.512763 ], [ 3.107803, 42.512839 ], [ 3.102945, 42.513808 ], [ 3.102706, 42.514077 ], [ 3.100441, 42.517437 ], [ 3.100281, 42.517759 ], [ 3.099981, 42.518267 ], [ 3.091437, 42.515686 ], [ 3.091371, 42.515446 ], [ 3.09111, 42.515171 ], [ 3.088193, 42.509347 ], [ 3.088179, 42.508987 ], [ 3.084033, 42.504615 ], [ 3.083874, 42.504474 ], [ 3.083605, 42.504298 ], [ 3.083294, 42.504101 ], [ 3.082509, 42.5038 ], [ 3.077223, 42.503846 ], [ 3.075668, 42.504206 ], [ 3.075407, 42.504351 ], [ 3.075477622540175, 42.508284996499277 ], [ 3.076466, 42.507465 ], [ 3.077164, 42.506228 ], [ 3.077303, 42.506005 ], [ 3.085286, 42.507015 ], [ 3.085353, 42.507368 ], [ 3.088186, 42.514368 ], [ 3.090709, 42.520046 ], [ 3.094084, 42.521642 ], [ 3.102156, 42.517879 ], [ 3.105382, 42.513917 ], [ 3.106399, 42.513863 ], [ 3.107125, 42.513907 ], [ 3.107482, 42.513954 ], [ 3.108683, 42.51511 ], [ 3.111885, 42.520009 ], [ 3.111959, 42.520126 ], [ 3.112175, 42.521113 ], [ 3.111506, 42.513833 ], [ 3.111078, 42.513397 ] ] ], [ [ [ 3.063087, 42.514434 ], [ 3.063093, 42.514794 ], [ 3.064368366478987, 42.521491024221177 ], [ 3.065301, 42.519992 ], [ 3.065552, 42.519322 ], [ 3.065937, 42.518851 ], [ 3.06692, 42.517919 ], [ 3.068550104828351, 42.516415247275759 ], [ 3.07015, 42.512705 ], [ 3.064196, 42.512997 ], [ 3.063087, 42.514434 ] ] ] ] } },
{ "type": "Feature", "properties": { "codgeo": "66053", "value": 600, "isochrone_group": 10.0, "nb_agences": 1 }, "geometry": { "type": "MultiPolygon", "coordinates": [ [ [ [ 3.072665270091485, 42.533051090128687 ], [ 3.071392903152836, 42.53317498990824 ], [ 3.067919107655272, 42.53473622929701 ], [ 3.068218, 42.534757 ], [ 3.068723, 42.534561 ], [ 3.072665270091485, 42.533051090128687 ] ] ], [ [ [ 3.092072, 42.526981 ], [ 3.10033, 42.524959 ], [ 3.100875, 42.524966 ], [ 3.102580921913523, 42.524385134613517 ], [ 3.09698, 42.525013 ], [ 3.096331, 42.525016 ], [ 3.091444, 42.525487 ], [ 3.086025, 42.528099 ], [ 3.082202277641064, 42.530525714799801 ], [ 3.086429, 42.529458 ], [ 3.092072, 42.526981 ] ] ], [ [ [ 3.116382, 42.512418 ], [ 3.115713, 42.511424 ], [ 3.115648, 42.511376 ], [ 3.114128, 42.510971 ], [ 3.105729, 42.510084 ], [ 3.105107, 42.510002 ], [ 3.104722, 42.509972 ], [ 3.103998, 42.510098 ], [ 3.103675, 42.510146 ], [ 3.103049, 42.510229 ], [ 3.100397, 42.510634 ], [ 3.099987, 42.510656 ], [ 3.09196, 42.507131 ], [ 3.086327, 42.500497 ], [ 3.085808, 42.500193 ], [ 3.078667, 42.500432 ], [ 3.07796, 42.500459 ], [ 3.077461, 42.500592 ], [ 3.076989, 42.500775 ], [ 3.074377, 42.502982 ], [ 3.073787, 42.50369 ], [ 3.066669, 42.508884 ], [ 3.066407, 42.508861 ], [ 3.064286, 42.508354 ], [ 3.063242, 42.508549 ], [ 3.059084, 42.512371 ], [ 3.058855, 42.512673 ], [ 3.058709, 42.512931 ], [ 3.058359, 42.51565 ], [ 3.05852, 42.515762 ], [ 3.058568343949742, 42.523361329643485 ], [ 3.061275, 42.524605 ], [ 3.063625, 42.522511 ], [ 3.063959, 42.522149 ], [ 3.064275312500742, 42.521002392320909 ], [ 3.063093, 42.514794 ], [ 3.063087, 42.514434 ], [ 3.064196, 42.512997 ], [ 3.065335008700025, 42.512941139983148 ], [ 3.06533, 42.512852 ], [ 3.066797, 42.512649 ], [ 3.067584, 42.512556 ], [ 3.070646478727169, 42.512384355553579 ], [ 3.075495, 42.509253 ], [ 3.075407, 42.504351 ], [ 3.075668, 42.504206 ], [ 3.077223, 42.503846 ], [ 3.082509, 42.5038 ], [ 3.083294, 42.504101 ], [ 3.083605, 42.504298 ], [ 3.083874, 42.504474 ], [ 3.084033, 42.504615 ], [ 3.088179, 42.508987 ], [ 3.088193, 42.509347 ], [ 3.09111, 42.515171 ], [ 3.091371, 42.515446 ], [ 3.091437, 42.515686 ], [ 3.099981, 42.518267 ], [ 3.100281, 42.517759 ], [ 3.100441, 42.517437 ], [ 3.102706, 42.514077 ], [ 3.102945, 42.513808 ], [ 3.107803, 42.512839 ], [ 3.109969, 42.512763 ], [ 3.111078, 42.513397 ], [ 3.111506, 42.513833 ], [ 3.112105233344112, 42.520353805299152 ], [ 3.116214, 42.513964 ], [ 3.116382, 42.512418 ] ] ], [ [ [ 3.05609168389272, 42.538366931228119 ], [ 3.058994362484849, 42.535996027319861 ], [ 3.057163, 42.536031 ], [ 3.05609168389272, 42.538366931228119 ] ] ] ] } },
{ "type": "Feature", "properties": { "codgeo": "66053", "value": 660, "isochrone_group": 11.0, "nb_agences": 1 }, "geometry": { "type": "MultiPolygon", "coordinates": [ [ [ [ 3.049716, 42.545363 ], [ 3.049500371902014, 42.545838493666444 ], [ 3.049826, 42.545938 ], [ 3.050958, 42.545592 ], [ 3.055002, 42.541587 ], [ 3.049716, 42.545363 ] ] ], [ [ [ 3.05609168389272, 42.538366931228119 ], [ 3.055262, 42.540176 ], [ 3.055002, 42.541587 ], [ 3.057494, 42.538185 ], [ 3.062218675422162, 42.535934454110858 ], [ 3.058994362484848, 42.535996027319861 ], [ 3.05609168389272, 42.538366931228119 ] ] ], [ [ [ 3.068218, 42.534757 ], [ 3.068237170596989, 42.53474955953066 ], [ 3.068237170596904, 42.534749559530695 ], [ 3.068218, 42.534757 ] ] ], [ [ [ 3.117254, 42.515854 ], [ 3.117587, 42.515254 ], [ 3.117776, 42.514415 ], [ 3.117859322295704, 42.513720983783983 ], [ 3.116218963918592, 42.513918320130095 ], [ 3.116214, 42.513964 ], [ 3.111392, 42.521463 ], [ 3.116812, 42.516323 ], [ 3.117254, 42.515854 ] ] ], [ [ [ 3.107658, 42.509973 ], [ 3.101865, 42.508844 ], [ 3.094917, 42.50832 ], [ 3.093242, 42.503361 ], [ 3.093115, 42.502624 ], [ 3.092783, 42.50217 ], [ 3.092276, 42.501466 ], [ 3.088872, 42.500522 ], [ 3.088271, 42.500394 ], [ 3.087329, 42.50033 ], [ 3.086899, 42.500347 ], [ 3.08591898008728, 42.50025800567736 ], [ 3.086327, 42.500497 ], [ 3.09196, 42.507131 ], [ 3.099987, 42.510656 ], [ 3.100397, 42.510634 ], [ 3.103049, 42.510229 ], [ 3.103675, 42.510146 ], [ 3.103998, 42.510098 ], [ 3.104722, 42.509972 ], [ 3.105107, 42.510002 ], [ 3.105729, 42.510084 ], [ 3.108591021249593, 42.510386251797627 ], [ 3.108642092992913, 42.509945232272955 ], [ 3.107658, 42.509973 ] ] ], [ [ [ 3.073805, 42.497213 ], [ 3.072854, 42.496957 ], [ 3.07163, 42.497776 ], [ 3.071403, 42.498125 ], [ 3.070952, 42.498848 ], [ 3.070685, 42.49985 ], [ 3.068789, 42.503338 ], [ 3.062597, 42.506739 ], [ 3.060923, 42.507022 ], [ 3.054365, 42.510494 ], [ 3.053101, 42.511022 ], [ 3.05254, 42.512628 ], [ 3.05379, 42.514129 ], [ 3.050885215069315, 42.518988876378415 ], [ 3.053105, 42.520851 ], [ 3.058524374760561, 42.516449681660163 ], [ 3.05852, 42.515762 ], [ 3.058359, 42.51565 ], [ 3.058709, 42.512931 ], [ 3.058855, 42.512673 ], [ 3.059084, 42.512371 ], [ 3.059441689977473, 42.512042214263126 ], [ 3.059442, 42.512031 ], [ 3.063242, 42.508549 ], [ 3.064286, 42.508354 ], [ 3.066407, 42.508861 ], [ 3.066669, 42.508884 ], [ 3.073787, 42.50369 ], [ 3.074377, 42.502982 ], [ 3.076989, 42.500775 ], [ 3.077461, 42.500592 ], [ 3.07796, 42.500459 ], [ 3.078667, 42.500432 ], [ 3.085366023215908, 42.500207792389212 ], [ 3.07875, 42.499607 ], [ 3.073805, 42.497213 ] ] ] ] } },
{ "type": "Feature", "properties": { "codgeo": "66053", "value": 720, "isochrone_group": 12.0, "nb_agences": 1 }, "geometry": { "type": "MultiPolygon", "coordinates": [ [ [ [ 3.050958, 42.545592 ], [ 3.049826, 42.545938 ], [ 3.049500371902014, 42.545838493666444 ], [ 3.047893, 42.549383 ], [ 3.047971299625234, 42.55027541310384 ], [ 3.048871, 42.549839 ], [ 3.051705, 42.544892 ], [ 3.055002, 42.541587 ], [ 3.050958, 42.545592 ] ] ], [ [ [ 3.068218, 42.534757 ], [ 3.067711942419344, 42.534682425070706 ], [ 3.067711942419341, 42.534682425070706 ], [ 3.068218, 42.534757 ] ] ], [ [ [ 3.117807230196545, 42.51415487439197 ], [ 3.117776, 42.514415 ], [ 3.117587, 42.515254 ], [ 3.117254, 42.515854 ], [ 3.116812, 42.516323 ], [ 3.118988424717048, 42.514115289177653 ], [ 3.117807230196545, 42.51415487439197 ] ] ], [ [ [ 3.098197, 42.505796 ], [ 3.097891, 42.505194 ], [ 3.097214, 42.504513 ], [ 3.096946, 42.50432 ], [ 3.093387, 42.501191 ], [ 3.088872, 42.500522 ], [ 3.092276, 42.501466 ], [ 3.092783, 42.50217 ], [ 3.093115, 42.502624 ], [ 3.093242, 42.503361 ], [ 3.094917, 42.50832 ], [ 3.100336439145942, 42.508728719935583 ], [ 3.100271358971394, 42.507123589741688 ], [ 3.098197, 42.505796 ] ] ], [ [ [ 3.07804, 42.493612 ], [ 3.074818, 42.494474 ], [ 3.07232, 42.495647 ], [ 3.071446, 42.496198 ], [ 3.071169, 42.496509 ], [ 3.070996, 42.496714 ], [ 3.064515, 42.502879 ], [ 3.059184, 42.506189 ], [ 3.053101, 42.511022 ], [ 3.054365, 42.510494 ], [ 3.060923, 42.507022 ], [ 3.062597, 42.506739 ], [ 3.068789, 42.503338 ], [ 3.070685, 42.49985 ], [ 3.070952, 42.498848 ], [ 3.071403, 42.498125 ], [ 3.07163, 42.497776 ], [ 3.072854, 42.496957 ], [ 3.073805, 42.497213 ], [ 3.07875, 42.499607 ], [ 3.086899, 42.500347 ], [ 3.087329, 42.50033 ], [ 3.088271, 42.500394 ], [ 3.080992, 42.495672 ], [ 3.07804, 42.493612 ] ] ], [ [ [ 3.048755, 42.51781 ], [ 3.049452, 42.517937 ], [ 3.052543513122639, 42.516214446005762 ], [ 3.05379, 42.514129 ], [ 3.05254, 42.512628 ], [ 3.047231622404376, 42.51752856122107 ], [ 3.048755, 42.51781 ] ] ] ] } },
{ "type": "Feature", "properties": { "codgeo": "66053", "value": 780, "isochrone_group": 13.0, "nb_agences": 1 }, "geometry": { "type": "MultiPolygon", "coordinates": [ [ [ [ 3.048326329381369, 42.550103200618267 ], [ 3.047971299625234, 42.55027541310384 ], [ 3.048041276830568, 42.55107297215762 ], [ 3.048047, 42.551056 ], [ 3.048326329381369, 42.550103200618267 ] ] ], [ [ [ 3.068208602428812, 42.534755615131481 ], [ 3.068208602428812, 42.534755615131481 ], [ 3.068218, 42.534757 ], [ 3.068208602428812, 42.534755615131481 ] ] ], [ [ [ 3.121372306826628, 42.514854499783638 ], [ 3.120988, 42.514836 ], [ 3.120355, 42.514679 ], [ 3.118458426804978, 42.514652905809712 ], [ 3.116812, 42.516323 ], [ 3.111392, 42.521463 ], [ 3.111126, 42.521559 ], [ 3.114913, 42.520297 ], [ 3.116526, 42.519196 ], [ 3.121372306826628, 42.514854499783638 ] ] ], [ [ [ 3.092258, 42.498554 ], [ 3.085036973054935, 42.49829603664864 ], [ 3.088271, 42.500394 ], [ 3.088872, 42.500522 ], [ 3.093387, 42.501191 ], [ 3.096946, 42.50432 ], [ 3.097214, 42.504513 ], [ 3.097891, 42.505194 ], [ 3.098016946530735, 42.505441777161757 ], [ 3.099383831823698, 42.504195444280796 ], [ 3.095651, 42.500734 ], [ 3.093816, 42.498522 ], [ 3.092984, 42.498402 ], [ 3.092258, 42.498554 ] ] ], [ [ [ 3.077652607885908, 42.490015844600258 ], [ 3.076863, 42.490769 ], [ 3.071446, 42.496198 ], [ 3.07232, 42.495647 ], [ 3.074818, 42.494474 ], [ 3.07804, 42.493612 ], [ 3.080992, 42.495672 ], [ 3.084795519220356, 42.498139401807741 ], [ 3.083102416897566, 42.492445143549922 ], [ 3.080525, 42.492219 ], [ 3.077652607885908, 42.490015844600258 ] ] ], [ [ [ 3.055692, 42.506294 ], [ 3.055115, 42.506664 ], [ 3.054478, 42.50743 ], [ 3.054215, 42.50803 ], [ 3.053101, 42.511022 ], [ 3.059184, 42.506189 ], [ 3.064515, 42.502879 ], [ 3.06507498584665, 42.502346317891622 ], [ 3.057851, 42.504958 ], [ 3.057406, 42.505185 ], [ 3.055692, 42.506294 ] ] ] ] } },
{ "type": "Feature", "properties": { "codgeo": "66053", "value": 840, "isochrone_group": 14.0, "nb_agences": 1 }, "geometry": { "type": "MultiPolygon", "coordinates": [ [ [ [ 3.049283178081612, 42.546839366196153 ], [ 3.048047, 42.551056 ], [ 3.048041276830568, 42.55107297215762 ], [ 3.048312679204265, 42.554166256882645 ], [ 3.048781, 42.553988 ], [ 3.048795, 42.553917 ], [ 3.048735, 42.552971 ], [ 3.049529829026814, 42.546806821370033 ], [ 3.049387, 42.546867 ], [ 3.049283178081612, 42.546839366196153 ] ] ], [ [ [ 3.122089, 42.514889 ], [ 3.120852980485763, 42.515319731454269 ], [ 3.116526, 42.519196 ], [ 3.114913, 42.520297 ], [ 3.111126, 42.521559 ], [ 3.117511, 42.521372 ], [ 3.11943, 42.518702 ], [ 3.123470020408001, 42.514474246301674 ], [ 3.122089, 42.514889 ] ] ], [ [ [ 3.08484, 42.498289 ], [ 3.092258, 42.498554 ], [ 3.092984, 42.498402 ], [ 3.093231849654451, 42.498437747546291 ], [ 3.092801453522634, 42.497976911847168 ], [ 3.092716, 42.497931 ], [ 3.092558057992892, 42.497716302281162 ], [ 3.088638, 42.493519 ], [ 3.08384369464925, 42.494938216119742 ], [ 3.08484, 42.498289 ] ] ], [ [ [ 3.065358, 42.502244 ], [ 3.070996, 42.496714 ], [ 3.071169, 42.496509 ], [ 3.071446, 42.496198 ], [ 3.075574687808766, 42.492060166122613 ], [ 3.075311289550193, 42.491438912169194 ], [ 3.070891, 42.494418 ], [ 3.069564, 42.494978 ], [ 3.065358, 42.502244 ] ] ], [ [ [ 3.054057, 42.504181 ], [ 3.054017, 42.504655 ], [ 3.054031, 42.505659 ], [ 3.054025, 42.505809 ], [ 3.053101, 42.511022 ], [ 3.054215, 42.50803 ], [ 3.054478, 42.50743 ], [ 3.055115, 42.506664 ], [ 3.055692, 42.506294 ], [ 3.057406, 42.505185 ], [ 3.057851, 42.504958 ], [ 3.065358, 42.502244 ], [ 3.05817, 42.50296 ], [ 3.05434, 42.503192 ], [ 3.054171, 42.503644 ], [ 3.054057, 42.504181 ] ] ] ] } },
{ "type": "Feature", "properties": { "codgeo": "66053", "value": 900, "isochrone_group": 15.0, "nb_agences": 1 }, "geometry": { "type": "MultiPolygon", "coordinates": [ [ [ [ 3.048434, 42.555549 ], [ 3.048282392732113, 42.55624826898611 ], [ 3.048292, 42.55624 ], [ 3.048434, 42.555549 ] ] ], [ [ [ 3.123354958538616, 42.514594654912194 ], [ 3.11943, 42.518702 ], [ 3.117745445438906, 42.52104580441798 ], [ 3.119639, 42.520899 ], [ 3.120597, 42.520826 ], [ 3.121017, 42.520297 ], [ 3.126165028766814, 42.513941291991657 ], [ 3.123354958538616, 42.514594654912194 ] ] ], [ [ [ 3.059166, 42.50038 ], [ 3.058328, 42.500393 ], [ 3.057961, 42.500397 ], [ 3.057146, 42.500541 ], [ 3.056225, 42.500708 ], [ 3.055146, 42.501865 ], [ 3.054647, 42.502523 ], [ 3.054397, 42.503045 ], [ 3.05434157352465, 42.503191904684677 ], [ 3.05817, 42.50296 ], [ 3.064558764552311, 42.502323612212095 ], [ 3.065439673391869, 42.502102906594075 ], [ 3.069564, 42.494978 ], [ 3.070891, 42.494418 ], [ 3.069042, 42.495127 ], [ 3.068521, 42.495372 ], [ 3.06801, 42.495704 ], [ 3.067517, 42.49628 ], [ 3.067263, 42.496717 ], [ 3.059166, 42.50038 ] ] ], [ [ [ 3.043584, 42.516835 ], [ 3.04599, 42.51734 ], [ 3.041633, 42.515311 ], [ 3.041363, 42.515183 ], [ 3.039001789674419, 42.515394253054858 ], [ 3.043584, 42.516835 ] ] ] ] } },
{ "type": "Feature", "properties": { "codgeo": "66053", "value": 960, "isochrone_group": 16.0, "nb_agences": 1 }, "geometry": { "type": "MultiPolygon", "coordinates": [ [ [ [ 3.124577, 42.521709 ], [ 3.125132, 42.521106 ], [ 3.129009, 42.513285 ], [ 3.12762, 42.513603 ], [ 3.126257974266542, 42.513826542349854 ], [ 3.121017, 42.520297 ], [ 3.120597, 42.520826 ], [ 3.119639, 42.520899 ], [ 3.118570917907893, 42.52098180678739 ], [ 3.120451, 42.521655 ], [ 3.120885, 42.521785 ], [ 3.121267, 42.521825 ], [ 3.124035, 42.521985 ], [ 3.12413, 42.52195 ], [ 3.124577, 42.521709 ] ] ], [ [ [ 3.130337, 42.510169 ], [ 3.130114, 42.510018 ], [ 3.129009, 42.513285 ], [ 3.130337, 42.510169 ] ] ], [ [ [ 3.054171, 42.503644 ], [ 3.054847, 42.500338 ], [ 3.054902, 42.500305 ], [ 3.057638, 42.500441 ], [ 3.057674642586851, 42.500447595665626 ], [ 3.057961, 42.500397 ], [ 3.058328, 42.500393 ], [ 3.059166, 42.50038 ], [ 3.067263, 42.496717 ], [ 3.067445046149963, 42.496403794616029 ], [ 3.059068, 42.498541 ], [ 3.058558, 42.497853 ], [ 3.058169, 42.497552 ], [ 3.05535, 42.497453 ], [ 3.055296, 42.497523 ], [ 3.054927, 42.498713 ], [ 3.054171, 42.503644 ] ] ], [ [ [ 3.038637456537129, 42.515426849256627 ], [ 3.041363, 42.515183 ], [ 3.041633, 42.515311 ], [ 3.041095, 42.515043 ], [ 3.040373, 42.514752 ], [ 3.039062, 42.514314 ], [ 3.037655, 42.514009 ], [ 3.037495, 42.514025 ], [ 3.036945362503993, 42.514337963074865 ], [ 3.038637456537129, 42.515426849256627 ] ] ], [ [ [ 3.048591, 42.55772 ], [ 3.048434, 42.555549 ], [ 3.048292, 42.55624 ], [ 3.048282392732113, 42.55624826898611 ], [ 3.047949, 42.557786 ], [ 3.047692, 42.558278 ], [ 3.047026373367294, 42.559680654287405 ], [ 3.047035050927098, 42.559791315151365 ], [ 3.048579, 42.557784 ], [ 3.048591, 42.55772 ] ] ] ] } },
{ "type": "Feature", "properties": { "codgeo": "66053", "value": 1020, "isochrone_group": 17.0, "nb_agences": 1 }, "geometry": { "type": "MultiPolygon", "coordinates": [ [ [ [ 3.132813, 42.509744 ], [ 3.132281, 42.509311 ], [ 3.131731, 42.509072 ], [ 3.131553, 42.509025 ], [ 3.128073599147545, 42.507594579649556 ], [ 3.130114, 42.510018 ], [ 3.130337, 42.510169 ], [ 3.129009, 42.513285 ], [ 3.125132, 42.521106 ], [ 3.124712030981696, 42.521562290663141 ], [ 3.127826, 42.52023 ], [ 3.128749, 42.519835 ], [ 3.129379, 42.519204 ], [ 3.129444, 42.519094 ], [ 3.133272, 42.511178 ], [ 3.132813, 42.509744 ] ] ], [ [ [ 3.059068, 42.498541 ], [ 3.067456, 42.496401 ], [ 3.067517, 42.49628 ], [ 3.06801, 42.495704 ], [ 3.068521, 42.495372 ], [ 3.069042, 42.495127 ], [ 3.060156, 42.495497 ], [ 3.059089, 42.495309 ], [ 3.058439, 42.495495 ], [ 3.056487, 42.496537 ], [ 3.055864, 42.496995 ], [ 3.055370527514075, 42.497453720902413 ], [ 3.058169, 42.497552 ], [ 3.058558, 42.497853 ], [ 3.059068, 42.498541 ] ] ], [ [ [ 3.046622, 42.564612 ], [ 3.047128, 42.56169 ], [ 3.047246, 42.561022 ], [ 3.047701627599927, 42.558924687178724 ], [ 3.047554356887667, 42.559116156403491 ], [ 3.04505035132255, 42.567114880371896 ], [ 3.04661, 42.564679 ], [ 3.046622, 42.564612 ] ] ] ] } },
{ "type": "Feature", "properties": { "codgeo": "66053", "value": 1080, "isochrone_group": 18.0, "nb_agences": 1 }, "geometry": { "type": "MultiPolygon", "coordinates": [ [ [ [ 3.130781371860863, 42.516328421198907 ], [ 3.129444, 42.519094 ], [ 3.129379, 42.519204 ], [ 3.128749, 42.519835 ], [ 3.130549, 42.51845 ], [ 3.130781371860863, 42.516328421198907 ] ] ], [ [ [ 3.118632706497296, 42.521003931171805 ], [ 3.120451, 42.521655 ], [ 3.118632706497299, 42.521003931171805 ], [ 3.118632706497296, 42.521003931171805 ] ] ], [ [ [ 3.128073599147545, 42.507594579649556 ], [ 3.128867349023745, 42.507920899043114 ], [ 3.128481, 42.499443 ], [ 3.130313, 42.496636 ], [ 3.132838, 42.494208 ], [ 3.130968, 42.495423 ], [ 3.129867, 42.496191 ], [ 3.128586, 42.497143 ], [ 3.125976, 42.49953 ], [ 3.127165, 42.506749 ], [ 3.127818, 42.507291 ], [ 3.128073599147545, 42.507594579649556 ] ] ], [ [ [ 3.071505, 42.494174 ], [ 3.071360820756128, 42.492447323272174 ], [ 3.070891, 42.494418 ], [ 3.071505, 42.494174 ] ] ], [ [ [ 3.059867, 42.495327 ], [ 3.060046, 42.49536 ], [ 3.060265764578257, 42.495492429564024 ], [ 3.069042, 42.495127 ], [ 3.06309, 42.4951 ], [ 3.059089, 42.495309 ], [ 3.059527, 42.495292 ], [ 3.059867, 42.495327 ] ] ], [ [ [ 3.013244604396248, 42.525956196675672 ], [ 3.012878718686855, 42.526137148162263 ], [ 3.013017, 42.526188 ], [ 3.013244604396248, 42.525956196675672 ] ] ], [ [ [ 3.047246, 42.561022 ], [ 3.047128, 42.56169 ], [ 3.046622, 42.564612 ], [ 3.04661, 42.564679 ], [ 3.045014817686952, 42.567170377283958 ], [ 3.045025, 42.56736 ], [ 3.045019, 42.573363 ], [ 3.046186, 42.567123 ], [ 3.046378, 42.566011 ], [ 3.047636589408084, 42.559421631520387 ], [ 3.047567641465519, 42.559541442699249 ], [ 3.047246, 42.561022 ] ] ] ] } },
{ "type": "Feature", "properties": { "codgeo": "66053", "value": 1140, "isochrone_group": 19.0, "nb_agences": 1 }, "geometry": { "type": "MultiPolygon", "coordinates": [ [ [ [ 3.010758, 42.525847 ], [ 3.011932, 42.525789 ], [ 3.012878718686855, 42.526137148162263 ], [ 3.013244604396248, 42.525956196675665 ], [ 3.015400436402979, 42.523760593101663 ], [ 3.014789, 42.524197 ], [ 3.010758, 42.525847 ] ] ], [ [ [ 3.131119, 42.511867 ], [ 3.130845, 42.512727 ], [ 3.130794, 42.512808 ], [ 3.130598353437596, 42.512860282022565 ], [ 3.130941, 42.514871 ], [ 3.130549, 42.51845 ], [ 3.128749, 42.519835 ], [ 3.133235, 42.517795 ], [ 3.133671, 42.517481 ], [ 3.134499, 42.516837 ], [ 3.134549, 42.516796 ], [ 3.134224, 42.515556 ], [ 3.133749, 42.513703 ], [ 3.130645610959105, 42.510556923351935 ], [ 3.131119, 42.511867 ] ] ], [ [ [ 3.132655, 42.499436 ], [ 3.132715, 42.499094 ], [ 3.132862, 42.494145 ], [ 3.132838, 42.494208 ], [ 3.130313, 42.496636 ], [ 3.128481, 42.499443 ], [ 3.128889, 42.508396 ], [ 3.130114, 42.510018 ], [ 3.129451, 42.508815 ], [ 3.130045, 42.500357 ], [ 3.132655, 42.499436 ] ] ], [ [ [ 3.132204, 42.492243 ], [ 3.131332863281981, 42.484378049426631 ], [ 3.131285, 42.48441 ], [ 3.132204, 42.492243 ] ] ], [ [ [ 3.063791, 42.493498 ], [ 3.062013, 42.49433 ], [ 3.059089, 42.495309 ], [ 3.06309, 42.4951 ], [ 3.069042, 42.495127 ], [ 3.070891, 42.494418 ], [ 3.065667, 42.493919 ], [ 3.065592, 42.493872 ], [ 3.06415, 42.493564 ], [ 3.063791, 42.493498 ] ] ], [ [ [ 3.072711182872102, 42.533033505295819 ], [ 3.068723, 42.534561 ], [ 3.072711182872122, 42.533033505295819 ], [ 3.072711182872102, 42.533033505295819 ] ] ], [ [ [ 3.068218, 42.534757 ], [ 3.068179816312106, 42.534751373079395 ], [ 3.0681798163121, 42.534751373079395 ], [ 3.068218, 42.534757 ] ] ] ] } },
{ "type": "Feature", "properties": { "codgeo": "66053", "value": 1200, "isochrone_group": 20.0, "nb_agences": 1 }, "geometry": { "type": "MultiPolygon", "coordinates": [ [ [ [ 3.010758, 42.525847 ], [ 3.012427171796031, 42.52516376173071 ], [ 3.015595029749486, 42.521163804463328 ], [ 3.015344, 42.521322 ], [ 3.00947893767672, 42.525502346339898 ], [ 3.010758, 42.525847 ] ] ], [ [ [ 3.13451180771238, 42.516654097118 ], [ 3.135606, 42.515578 ], [ 3.133921398072357, 42.514375533953846 ], [ 3.134224, 42.515556 ], [ 3.13451180771238, 42.516654097118 ] ] ], [ [ [ 3.132204, 42.492243 ], [ 3.131825, 42.484589 ], [ 3.131650743886152, 42.484165851951978 ], [ 3.131332863281981, 42.484378049426631 ], [ 3.132204, 42.492243 ] ] ], [ [ [ 3.071505, 42.494174 ], [ 3.070758, 42.485228 ], [ 3.06947, 42.484999 ], [ 3.06841, 42.484565 ], [ 3.065274, 42.492542 ], [ 3.06426, 42.492635 ], [ 3.063223, 42.492838 ], [ 3.060567, 42.493139 ], [ 3.060198, 42.493148 ], [ 3.059427, 42.493147 ], [ 3.055864, 42.496995 ], [ 3.056487, 42.496537 ], [ 3.058439, 42.495495 ], [ 3.063791, 42.493498 ], [ 3.06415, 42.493564 ], [ 3.071505, 42.494174 ] ] ], [ [ [ 3.068218, 42.534757 ], [ 3.068179816312104, 42.534751373079395 ], [ 3.068179816312099, 42.534751373079395 ], [ 3.068218, 42.534757 ] ] ] ] } }
]
}
