{
"type": "FeatureCollection",
"name": "BPCE",
"crs": { "type": "name", "properties": { "name": "urn:ogc:def:crs:OGC:1.3:CRS84" } },
"features": [
{ "type": "Feature", "properties": { "codgeo": "31032", "value": 60, "isochrone_group": 1.0, "nb_agences": 1 }, "geometry": { "type": "Polygon", "coordinates": [ [ [ 1.31817, 43.684262 ], [ 1.318722, 43.682643 ], [ 1.319014, 43.682431 ], [ 1.320542, 43.68216 ], [ 1.324557, 43.682452 ], [ 1.324943, 43.682499 ], [ 1.32533, 43.682546 ], [ 1.326688, 43.682825 ], [ 1.330517, 43.685145 ], [ 1.330469, 43.685502 ], [ 1.326356, 43.685714 ], [ 1.323032, 43.686268 ], [ 1.321421, 43.686131 ], [ 1.321095, 43.685978 ], [ 1.318251, 43.684613 ], [ 1.31817, 43.684262 ] ] ] } },
{ "type": "Feature", "properties": { "codgeo": "31032", "value": 120, "isochrone_group": 2.0, "nb_agences": 1 }, "geometry": { "type": "Polygon", "coordinates": [ [ [ 1.313754, 43.686037 ], [ 1.314755, 43.686891 ], [ 1.315063, 43.687077 ], [ 1.319637, 43.690715 ], [ 1.319827, 43.690686 ], [ 1.319986, 43.69052 ], [ 1.325694, 43.689299 ], [ 1.326035, 43.689414 ], [ 1.330449, 43.689037 ], [ 1.334105, 43.686825 ], [ 1.338331, 43.683644 ], [ 1.33919, 43.683396 ], [ 1.339091, 43.68305 ], [ 1.338231, 43.683298 ], [ 1.336552, 43.683583 ], [ 1.33213, 43.683508 ], [ 1.328246, 43.681535 ], [ 1.32633, 43.679096 ], [ 1.326107, 43.678813 ], [ 1.323551, 43.678423 ], [ 1.323267, 43.678459 ], [ 1.322983, 43.678494 ], [ 1.318846, 43.679979 ], [ 1.315862, 43.680424 ], [ 1.315617, 43.680688 ], [ 1.313699, 43.685681 ], [ 1.313754, 43.686037 ] ], [ [ 1.318722, 43.682643 ], [ 1.319014, 43.682431 ], [ 1.320542, 43.68216 ], [ 1.324557, 43.682452 ], [ 1.324943, 43.682499 ], [ 1.32533, 43.682546 ], [ 1.326688, 43.682825 ], [ 1.330517, 43.685145 ], [ 1.330469, 43.685502 ], [ 1.326356, 43.685714 ], [ 1.323032, 43.686268 ], [ 1.321421, 43.686131 ], [ 1.321095, 43.685978 ], [ 1.318251, 43.684613 ], [ 1.31817, 43.684262 ], [ 1.318722, 43.682643 ] ] ] } },
{ "type": "Feature", "properties": { "codgeo": "31032", "value": 180, "isochrone_group": 3.0, "nb_agences": 1 }, "geometry": { "type": "MultiPolygon", "coordinates": [ [ [ [ 1.330751, 43.676987 ], [ 1.330579, 43.676671 ], [ 1.322695, 43.675543 ], [ 1.322337, 43.675506 ], [ 1.315544, 43.675784 ], [ 1.309223, 43.677491 ], [ 1.30504, 43.682477 ], [ 1.305064, 43.682837 ], [ 1.305596, 43.686024 ], [ 1.308178, 43.688685 ], [ 1.312236, 43.690742 ], [ 1.318594, 43.695331 ], [ 1.319749, 43.69634 ], [ 1.320105, 43.696283 ], [ 1.322659, 43.693775 ], [ 1.325393, 43.692158 ], [ 1.333101, 43.689804 ], [ 1.335535, 43.691707 ], [ 1.335835, 43.691906 ], [ 1.339192, 43.691518 ], [ 1.339228, 43.69116 ], [ 1.339112, 43.689316 ], [ 1.341745, 43.681661 ], [ 1.343181, 43.680621 ], [ 1.344118, 43.680105 ], [ 1.345055, 43.679589 ], [ 1.344882, 43.679274 ], [ 1.343945, 43.67979 ], [ 1.343008, 43.680306 ], [ 1.342362, 43.680669 ], [ 1.342145, 43.68083 ], [ 1.341948, 43.680977 ], [ 1.341498, 43.681399 ], [ 1.341065, 43.681808 ], [ 1.338414905461966, 43.683244966797034 ], [ 1.339091, 43.68305 ], [ 1.33919, 43.683396 ], [ 1.338331, 43.683644 ], [ 1.334105, 43.686825 ], [ 1.330449, 43.689037 ], [ 1.326035, 43.689414 ], [ 1.325694, 43.689299 ], [ 1.319986, 43.69052 ], [ 1.319827, 43.690686 ], [ 1.319637, 43.690715 ], [ 1.315063, 43.687077 ], [ 1.314755, 43.686891 ], [ 1.313754, 43.686037 ], [ 1.313699, 43.685681 ], [ 1.315617, 43.680688 ], [ 1.315862, 43.680424 ], [ 1.318846, 43.679979 ], [ 1.322983, 43.678494 ], [ 1.323267, 43.678459 ], [ 1.323551, 43.678423 ], [ 1.326107, 43.678813 ], [ 1.32633, 43.679096 ], [ 1.328246, 43.681535 ], [ 1.33213, 43.683508 ], [ 1.336552, 43.683583 ], [ 1.330751, 43.676987 ] ] ], [ [ [ 1.336552, 43.683583 ], [ 1.338231, 43.683298 ], [ 1.338408491322514, 43.683246816455842 ], [ 1.336552, 43.683583 ] ] ] ] } },
{ "type": "Feature", "properties": { "codgeo": "31032", "value": 240, "isochrone_group": 4.0, "nb_agences": 1 }, "geometry": { "type": "MultiPolygon", "coordinates": [ [ [ [ 1.33216, 43.675934 ], [ 1.325986, 43.674759 ], [ 1.323076, 43.671357 ], [ 1.322738, 43.671347 ], [ 1.315639, 43.673801 ], [ 1.309657, 43.675606 ], [ 1.301355, 43.674425 ], [ 1.30116, 43.674728 ], [ 1.297801, 43.682753 ], [ 1.29588, 43.682997 ], [ 1.295925, 43.683354 ], [ 1.302718, 43.688283 ], [ 1.307351, 43.691958 ], [ 1.30953, 43.695324 ], [ 1.309748, 43.69561 ], [ 1.316358, 43.701123 ], [ 1.317656, 43.702006 ], [ 1.318188, 43.701609 ], [ 1.323334, 43.6981 ], [ 1.326301, 43.695205 ], [ 1.332848, 43.695762 ], [ 1.333148, 43.695961 ], [ 1.334581, 43.693798 ], [ 1.336324062172778, 43.691849474494184 ], [ 1.335835, 43.691906 ], [ 1.335535, 43.691707 ], [ 1.333101, 43.689804 ], [ 1.325393, 43.692158 ], [ 1.322659, 43.693775 ], [ 1.320105, 43.696283 ], [ 1.319749, 43.69634 ], [ 1.318594, 43.695331 ], [ 1.312236, 43.690742 ], [ 1.308178, 43.688685 ], [ 1.305596, 43.686024 ], [ 1.305064, 43.682837 ], [ 1.30504, 43.682477 ], [ 1.309223, 43.677491 ], [ 1.315544, 43.675784 ], [ 1.322337, 43.675506 ], [ 1.322695, 43.675543 ], [ 1.330579, 43.676671 ], [ 1.330751, 43.676987 ], [ 1.336552, 43.683583 ], [ 1.33216, 43.675934 ] ] ], [ [ [ 1.345082, 43.679574 ], [ 1.34698, 43.678528 ], [ 1.347624, 43.678187 ], [ 1.350422, 43.677367 ], [ 1.350602, 43.677333 ], [ 1.3507, 43.677289 ], [ 1.350886, 43.677155 ], [ 1.351007, 43.677027 ], [ 1.351365, 43.676641 ], [ 1.351723, 43.676254 ], [ 1.351459, 43.67601 ], [ 1.3466, 43.676152 ], [ 1.346437, 43.676473 ], [ 1.343008, 43.680306 ], [ 1.343945, 43.67979 ], [ 1.344882, 43.679274 ], [ 1.345054945434685, 43.679588900646976 ], [ 1.345082, 43.679574 ] ] ], [ [ [ 1.343899, 43.693385 ], [ 1.344153, 43.693641 ], [ 1.346934, 43.693624 ], [ 1.347161, 43.693346 ], [ 1.346817, 43.692736 ], [ 1.346526, 43.692523 ], [ 1.344945, 43.691917 ], [ 1.344807, 43.691855 ], [ 1.341737, 43.689285 ], [ 1.343181, 43.680621 ], [ 1.341745, 43.681661 ], [ 1.339112, 43.689316 ], [ 1.339228, 43.69116 ], [ 1.339192, 43.691518 ], [ 1.336582471400848, 43.691819607714173 ], [ 1.343899, 43.693385 ] ] ] ] } },
{ "type": "Feature", "properties": { "codgeo": "31032", "value": 300, "isochrone_group": 5.0, "nb_agences": 1 }, "geometry": { "type": "MultiPolygon", "coordinates": [ [ [ [ 1.299088, 43.672062 ], [ 1.29372, 43.671994 ], [ 1.293378, 43.672107 ], [ 1.293349, 43.674421 ], [ 1.293499, 43.674748 ], [ 1.293757, 43.68166 ], [ 1.290856, 43.684134 ], [ 1.290534, 43.684276 ], [ 1.289658, 43.684753 ], [ 1.288793, 43.685224 ], [ 1.288516, 43.685352 ], [ 1.288243, 43.685477 ], [ 1.287917, 43.685616 ], [ 1.287598, 43.685752 ], [ 1.286636, 43.686115 ], [ 1.285675, 43.686478 ], [ 1.285802, 43.686815 ], [ 1.286764, 43.686452 ], [ 1.287725, 43.686089 ], [ 1.288058, 43.685947 ], [ 1.288384, 43.685809 ], [ 1.288666, 43.685678 ], [ 1.288944, 43.68555 ], [ 1.28983, 43.685069 ], [ 1.292412, 43.684105 ], [ 1.292739, 43.684045 ], [ 1.293547, 43.683836 ], [ 1.294343, 43.683629 ], [ 1.294584, 43.683569 ], [ 1.302187, 43.688228 ], [ 1.3023, 43.691362 ], [ 1.302283, 43.691721 ], [ 1.305344, 43.698364 ], [ 1.305586, 43.698631 ], [ 1.311708, 43.699487 ], [ 1.313504, 43.704948 ], [ 1.313335, 43.707291 ], [ 1.313585, 43.707551 ], [ 1.3165, 43.705939 ], [ 1.324412, 43.70304 ], [ 1.327675, 43.699371 ], [ 1.334998, 43.699033 ], [ 1.34056, 43.697232 ], [ 1.347491, 43.695156 ], [ 1.34981, 43.696695 ], [ 1.350121, 43.696876 ], [ 1.351923, 43.695472 ], [ 1.353166, 43.694009 ], [ 1.352949, 43.693722 ], [ 1.34872, 43.691393 ], [ 1.348629, 43.69134 ], [ 1.348398, 43.691275 ], [ 1.348167, 43.691211 ], [ 1.341737, 43.689285 ], [ 1.344807, 43.691855 ], [ 1.344945, 43.691917 ], [ 1.346526, 43.692523 ], [ 1.346817, 43.692736 ], [ 1.347161, 43.693346 ], [ 1.346934, 43.693624 ], [ 1.344153, 43.693641 ], [ 1.343899, 43.693385 ], [ 1.336388, 43.691778 ], [ 1.334581, 43.693798 ], [ 1.333148, 43.695961 ], [ 1.332848, 43.695762 ], [ 1.326301, 43.695205 ], [ 1.323334, 43.6981 ], [ 1.318188, 43.701609 ], [ 1.317656, 43.702006 ], [ 1.316358, 43.701123 ], [ 1.309748, 43.69561 ], [ 1.30953, 43.695324 ], [ 1.307351, 43.691958 ], [ 1.302718, 43.688283 ], [ 1.295925, 43.683354 ], [ 1.29588, 43.682997 ], [ 1.297801, 43.682753 ], [ 1.30116, 43.674728 ], [ 1.301355, 43.674425 ], [ 1.301917679610529, 43.674505043919538 ], [ 1.300267, 43.672483 ], [ 1.300075, 43.672179 ], [ 1.299088, 43.672062 ] ] ], [ [ [ 1.315438, 43.672062 ], [ 1.309473, 43.673532 ], [ 1.303853016779412, 43.674780355073061 ], [ 1.309657, 43.675606 ], [ 1.315639, 43.673801 ], [ 1.322738, 43.671347 ], [ 1.323076, 43.671357 ], [ 1.325986, 43.674759 ], [ 1.33216, 43.675934 ], [ 1.328852, 43.671838 ], [ 1.32527798553396, 43.666028691263094 ], [ 1.323688, 43.667886 ], [ 1.323352, 43.667755 ], [ 1.322824650505838, 43.667053593039093 ], [ 1.315438, 43.672062 ] ] ], [ [ [ 1.35543, 43.670789 ], [ 1.354436, 43.670851 ], [ 1.346038, 43.671733 ], [ 1.341025, 43.674364 ], [ 1.340993, 43.674723 ], [ 1.33216, 43.675934 ], [ 1.336552, 43.683583 ], [ 1.338413, 43.683246 ], [ 1.341065, 43.681808 ], [ 1.341498, 43.681399 ], [ 1.341948, 43.680977 ], [ 1.342145, 43.68083 ], [ 1.342362, 43.680669 ], [ 1.343008, 43.680306 ], [ 1.346437, 43.676473 ], [ 1.3466, 43.676152 ], [ 1.351459, 43.67601 ], [ 1.351723, 43.676254 ], [ 1.351365, 43.676641 ], [ 1.351007, 43.677027 ], [ 1.350886, 43.677155 ], [ 1.3507, 43.677289 ], [ 1.356356230677395, 43.676498421379272 ], [ 1.355213, 43.675666 ], [ 1.355224, 43.675306 ], [ 1.356467317166668, 43.671993489183478 ], [ 1.355743, 43.670967 ], [ 1.35543, 43.670789 ] ] ] ] } },
{ "type": "Feature", "properties": { "codgeo": "31032", "value": 360, "isochrone_group": 6.0, "nb_agences": 1 }, "geometry": { "type": "MultiPolygon", "coordinates": [ [ [ [ 1.333357, 43.670368 ], [ 1.33016870628381, 43.664905170972894 ], [ 1.328799, 43.665344 ], [ 1.327149, 43.667248 ], [ 1.326537244599602, 43.668075528163619 ], [ 1.328852, 43.671838 ], [ 1.33216, 43.675934 ], [ 1.340993, 43.674723 ], [ 1.341025, 43.674364 ], [ 1.346038, 43.671733 ], [ 1.347579111817224, 43.671571144722229 ], [ 1.347873142872304, 43.670200238196465 ], [ 1.346668, 43.669239 ], [ 1.345365, 43.665883 ], [ 1.344235045005479, 43.665329091981171 ], [ 1.342533, 43.666762 ], [ 1.342267, 43.667004 ], [ 1.340410425850273, 43.666584235391745 ], [ 1.340101, 43.667032 ], [ 1.333357, 43.670368 ] ] ], [ [ [ 1.313793, 43.669179 ], [ 1.313524, 43.669202 ], [ 1.30816, 43.670485 ], [ 1.3033, 43.670102 ], [ 1.297973, 43.668901 ], [ 1.292524, 43.665889 ], [ 1.292163, 43.666063 ], [ 1.291658, 43.66634 ], [ 1.285362, 43.670583 ], [ 1.285151, 43.672371 ], [ 1.284851, 43.674147 ], [ 1.28805, 43.677082 ], [ 1.284357, 43.685014 ], [ 1.283525, 43.685261 ], [ 1.280782, 43.685438 ], [ 1.27754, 43.687868 ], [ 1.27754, 43.691468 ], [ 1.277721, 43.691468 ], [ 1.27808, 43.691438 ], [ 1.278921, 43.69122 ], [ 1.280083, 43.690816 ], [ 1.283991, 43.688899 ], [ 1.285567, 43.688567 ], [ 1.285947, 43.688481 ], [ 1.288297, 43.687604 ], [ 1.289018, 43.687299 ], [ 1.289622, 43.687022 ], [ 1.29148, 43.686016 ], [ 1.292534, 43.685721 ], [ 1.293027, 43.68564 ], [ 1.29475, 43.685197 ], [ 1.295596, 43.685028 ], [ 1.296730424814931, 43.684884295700748 ], [ 1.294584, 43.683569 ], [ 1.294343, 43.683629 ], [ 1.293547, 43.683836 ], [ 1.292739, 43.684045 ], [ 1.292412, 43.684105 ], [ 1.28983, 43.685069 ], [ 1.288944, 43.68555 ], [ 1.288666, 43.685678 ], [ 1.288384, 43.685809 ], [ 1.288058, 43.685947 ], [ 1.287725, 43.686089 ], [ 1.286764, 43.686452 ], [ 1.285802, 43.686815 ], [ 1.285675, 43.686478 ], [ 1.286636, 43.686115 ], [ 1.287598, 43.685752 ], [ 1.287917, 43.685616 ], [ 1.288243, 43.685477 ], [ 1.288516, 43.685352 ], [ 1.288793, 43.685224 ], [ 1.289658, 43.684753 ], [ 1.290534, 43.684276 ], [ 1.290856, 43.684134 ], [ 1.293757, 43.68166 ], [ 1.293499, 43.674748 ], [ 1.293349, 43.674421 ], [ 1.293378, 43.672107 ], [ 1.29372, 43.671994 ], [ 1.299088, 43.672062 ], [ 1.300075, 43.672179 ], [ 1.300267, 43.672483 ], [ 1.302405, 43.675102 ], [ 1.309473, 43.673532 ], [ 1.315438, 43.672062 ], [ 1.319952105247492, 43.669001279024229 ], [ 1.316877148346548, 43.666887057922892 ], [ 1.315486, 43.66917 ], [ 1.313793, 43.669179 ] ] ], [ [ [ 1.308111, 43.710652 ], [ 1.310371, 43.713454 ], [ 1.311296, 43.713189 ], [ 1.311528, 43.713033 ], [ 1.311529, 43.713033 ], [ 1.311761, 43.712877 ], [ 1.315074, 43.708365 ], [ 1.316169, 43.707202 ], [ 1.322736, 43.704307 ], [ 1.326505, 43.705201 ], [ 1.329532, 43.705888 ], [ 1.336343, 43.701239 ], [ 1.338567, 43.70309 ], [ 1.346009, 43.70299 ], [ 1.348002, 43.702458 ], [ 1.355328, 43.697657 ], [ 1.355603, 43.697489 ], [ 1.355783, 43.697273 ], [ 1.356163028220866, 43.69600715306774 ], [ 1.352923150242352, 43.694294832015657 ], [ 1.351923, 43.695472 ], [ 1.350121, 43.696876 ], [ 1.34981, 43.696695 ], [ 1.347491, 43.695156 ], [ 1.34056, 43.697232 ], [ 1.334998, 43.699033 ], [ 1.327675, 43.699371 ], [ 1.324412, 43.70304 ], [ 1.3165, 43.705939 ], [ 1.313585, 43.707551 ], [ 1.313335, 43.707291 ], [ 1.313504, 43.704948 ], [ 1.311708, 43.699487 ], [ 1.305586, 43.698631 ], [ 1.305344, 43.698364 ], [ 1.302283, 43.691721 ], [ 1.3023, 43.691362 ], [ 1.302187, 43.688228 ], [ 1.29791006602836, 43.685607161466031 ], [ 1.299263, 43.693248 ], [ 1.298681, 43.696801 ], [ 1.30134, 43.700688 ], [ 1.303738, 43.703374 ], [ 1.308111, 43.710652 ] ] ], [ [ [ 1.356496, 43.689606 ], [ 1.356416, 43.68959 ], [ 1.35532, 43.689707 ], [ 1.353474, 43.689931 ], [ 1.352979, 43.689996 ], [ 1.347064, 43.690705 ], [ 1.345461, 43.690373 ], [ 1.343963, 43.68204 ], [ 1.345864, 43.680993 ], [ 1.347739, 43.67996 ], [ 1.353304, 43.679888 ], [ 1.353341116985796, 43.679879127300097 ], [ 1.353341, 43.679879 ], [ 1.348, 43.679822 ], [ 1.347063, 43.678609 ], [ 1.347023377791433, 43.678505031324732 ], [ 1.34698, 43.678528 ], [ 1.345082, 43.679574 ], [ 1.343181, 43.680621 ], [ 1.341737, 43.689285 ], [ 1.348167, 43.691211 ], [ 1.348398, 43.691275 ], [ 1.348629, 43.69134 ], [ 1.34872, 43.691393 ], [ 1.352867568615467, 43.693677154009308 ], [ 1.354097, 43.692201 ], [ 1.355967, 43.690068 ], [ 1.3567, 43.690295 ], [ 1.356862905560233, 43.690498775859794 ], [ 1.356496, 43.689606 ] ] ] ] } },
{ "type": "Feature", "properties": { "codgeo": "31032", "value": 420, "isochrone_group": 7.0, "nb_agences": 1 }, "geometry": { "type": "MultiPolygon", "coordinates": [ [ [ [ 1.361225030111607, 43.69022260813955 ], [ 1.3609508948455, 43.690399588358837 ], [ 1.361159866858294, 43.692363040001894 ], [ 1.361225030111607, 43.69022260813955 ] ] ], [ [ [ 1.355783, 43.697273 ], [ 1.355603, 43.697489 ], [ 1.355328, 43.697657 ], [ 1.352552840104143, 43.69947566539178 ], [ 1.356726, 43.698903 ], [ 1.356819, 43.698912 ], [ 1.358638, 43.698221 ], [ 1.359117953218891, 43.697555742060629 ], [ 1.359069, 43.697543 ], [ 1.355970748785932, 43.696647622168413 ], [ 1.355783, 43.697273 ] ] ], [ [ [ 1.290875, 43.666398 ], [ 1.28636, 43.669028 ], [ 1.281641, 43.670096 ], [ 1.278703, 43.671856 ], [ 1.279949, 43.675233 ], [ 1.280217, 43.67619 ], [ 1.281946, 43.682147 ], [ 1.28027, 43.685333 ], [ 1.275796, 43.68793 ], [ 1.275265, 43.688082 ], [ 1.270337, 43.688266 ], [ 1.270009, 43.688283 ], [ 1.269878, 43.688362 ], [ 1.269547, 43.688585 ], [ 1.269425, 43.688749 ], [ 1.268988, 43.689605 ], [ 1.269228, 43.691324 ], [ 1.271717, 43.693925 ], [ 1.275472, 43.694219 ], [ 1.280083, 43.690816 ], [ 1.278921, 43.69122 ], [ 1.27808, 43.691438 ], [ 1.277721, 43.691468 ], [ 1.27754, 43.691468 ], [ 1.27754, 43.687868 ], [ 1.280782, 43.685438 ], [ 1.283525, 43.685261 ], [ 1.284357, 43.685014 ], [ 1.28805, 43.677082 ], [ 1.284851, 43.674147 ], [ 1.285151, 43.672371 ], [ 1.285362, 43.670583 ], [ 1.291658, 43.66634 ], [ 1.292163, 43.666063 ], [ 1.292524, 43.665889 ], [ 1.297973, 43.668901 ], [ 1.298207758330421, 43.668953927492929 ], [ 1.296421, 43.667079 ], [ 1.296526, 43.663971 ], [ 1.296620948637692, 43.66340385341703 ], [ 1.293782, 43.664274 ], [ 1.290875, 43.666398 ] ] ], [ [ [ 1.335290081294225, 43.669411778292172 ], [ 1.332990939477064, 43.669740791145223 ], [ 1.333357, 43.670368 ], [ 1.335290081294225, 43.669411778292172 ] ] ], [ [ [ 1.353081426805073, 43.6899825500155 ], [ 1.356509619384926, 43.688020269283037 ], [ 1.357264, 43.684192 ], [ 1.351193, 43.681048 ], [ 1.345864, 43.680993 ], [ 1.343964094081945, 43.68204608610472 ], [ 1.345461, 43.690373 ], [ 1.347064, 43.690705 ], [ 1.352979, 43.689996 ], [ 1.353081426805073, 43.6899825500155 ] ] ], [ [ [ 1.348023650250282, 43.702443811786573 ], [ 1.348002, 43.702458 ], [ 1.346009, 43.70299 ], [ 1.338567, 43.70309 ], [ 1.336343, 43.701239 ], [ 1.339458, 43.707453 ], [ 1.34211, 43.709887 ], [ 1.345331, 43.707371 ], [ 1.346995, 43.704179 ], [ 1.348023650250282, 43.702443811786573 ] ] ], [ [ [ 1.293572, 43.696511 ], [ 1.294005, 43.696634 ], [ 1.299314, 43.702356 ], [ 1.298766, 43.705712 ], [ 1.298808, 43.706293 ], [ 1.298881, 43.706802 ], [ 1.30001, 43.707421 ], [ 1.304903, 43.714201 ], [ 1.306428, 43.71558 ], [ 1.307602, 43.716584 ], [ 1.313318, 43.714183 ], [ 1.315175, 43.711099 ], [ 1.316443456913301, 43.707081008258889 ], [ 1.316169, 43.707202 ], [ 1.315074, 43.708365 ], [ 1.311761, 43.712877 ], [ 1.311529, 43.713033 ], [ 1.311528, 43.713033 ], [ 1.311296, 43.713189 ], [ 1.310371, 43.713454 ], [ 1.308111, 43.710652 ], [ 1.303738, 43.703374 ], [ 1.30134, 43.700688 ], [ 1.298681, 43.696801 ], [ 1.299263, 43.693248 ], [ 1.297759, 43.684754 ], [ 1.295596, 43.685028 ], [ 1.29475, 43.685197 ], [ 1.293027, 43.68564 ], [ 1.292534, 43.685721 ], [ 1.29148, 43.686016 ], [ 1.289622, 43.687022 ], [ 1.289018, 43.687299 ], [ 1.288297, 43.687604 ], [ 1.285947, 43.688481 ], [ 1.285567, 43.688567 ], [ 1.292297, 43.693546 ], [ 1.292418, 43.695749 ], [ 1.292615, 43.695918 ], [ 1.292988, 43.696206 ], [ 1.293572, 43.696511 ] ] ] ] } },
{ "type": "Feature", "properties": { "codgeo": "31032", "value": 480, "isochrone_group": 8.0, "nb_agences": 1 }, "geometry": { "type": "MultiPolygon", "coordinates": [ [ [ [ 1.267152, 43.676105 ], [ 1.267001, 43.676161 ], [ 1.266254, 43.678657 ], [ 1.266286, 43.678805 ], [ 1.266328, 43.678868 ], [ 1.266967, 43.687736 ], [ 1.265469, 43.689444 ], [ 1.265445, 43.689786 ], [ 1.266352, 43.693748 ], [ 1.267706, 43.695805 ], [ 1.269156, 43.696453 ], [ 1.269591, 43.696602 ], [ 1.277764, 43.694704 ], [ 1.280886, 43.695009 ], [ 1.288674, 43.695725 ], [ 1.28964, 43.695772 ], [ 1.295606, 43.701979 ], [ 1.295243, 43.705561 ], [ 1.299005, 43.711124 ], [ 1.302472, 43.715419 ], [ 1.304445, 43.719276 ], [ 1.304554, 43.719373 ], [ 1.312707, 43.716404 ], [ 1.312805, 43.716131 ], [ 1.313107, 43.714854 ], [ 1.313238847688354, 43.714216247848164 ], [ 1.307602, 43.716584 ], [ 1.306428, 43.71558 ], [ 1.304903, 43.714201 ], [ 1.30001, 43.707421 ], [ 1.298881, 43.706802 ], [ 1.298808, 43.706293 ], [ 1.298766, 43.705712 ], [ 1.299314, 43.702356 ], [ 1.294005, 43.696634 ], [ 1.293572, 43.696511 ], [ 1.292988, 43.696206 ], [ 1.292615, 43.695918 ], [ 1.292418, 43.695749 ], [ 1.292297, 43.693546 ], [ 1.285567, 43.688567 ], [ 1.283991, 43.688899 ], [ 1.280083, 43.690816 ], [ 1.275472, 43.694219 ], [ 1.271717, 43.693925 ], [ 1.269228, 43.691324 ], [ 1.268988, 43.689605 ], [ 1.269425, 43.688749 ], [ 1.269547, 43.688585 ], [ 1.269878, 43.688362 ], [ 1.270009, 43.688283 ], [ 1.270337, 43.688266 ], [ 1.275265, 43.688082 ], [ 1.275796, 43.68793 ], [ 1.28027, 43.685333 ], [ 1.281946, 43.682147 ], [ 1.280217, 43.67619 ], [ 1.279949, 43.675233 ], [ 1.278703, 43.671856 ], [ 1.281641, 43.670096 ], [ 1.28636, 43.669028 ], [ 1.290875, 43.666398 ], [ 1.291434134696507, 43.665989468147451 ], [ 1.2918, 43.665323 ], [ 1.292387327313116, 43.662047826607918 ], [ 1.291167, 43.661679 ], [ 1.282978, 43.665361 ], [ 1.276268, 43.670296 ], [ 1.269276, 43.675325 ], [ 1.267152, 43.676105 ] ] ], [ [ [ 1.333613, 43.717049 ], [ 1.334209, 43.717378 ], [ 1.335036, 43.717539 ], [ 1.338559, 43.714735 ], [ 1.34282, 43.712322 ], [ 1.346892601928704, 43.708988636798885 ], [ 1.345577020272072, 43.706899066881945 ], [ 1.345331, 43.707371 ], [ 1.34211, 43.709887 ], [ 1.339458, 43.707453 ], [ 1.336343, 43.701239 ], [ 1.333779, 43.700316 ], [ 1.336508, 43.707833 ], [ 1.334498, 43.712846 ], [ 1.333151, 43.714262 ], [ 1.332373, 43.715117 ], [ 1.333613, 43.717049 ] ] ], [ [ [ 1.316571, 43.706677 ], [ 1.316443456913301, 43.707081008258889 ], [ 1.322736, 43.704307 ], [ 1.316571, 43.706677 ] ] ] ] } },
{ "type": "Feature", "properties": { "codgeo": "31032", "value": 540, "isochrone_group": 9.0, "nb_agences": 1 }, "geometry": { "type": "MultiPolygon", "coordinates": [ [ [ [ 1.282112, 43.662983 ], [ 1.282025, 43.662995 ], [ 1.281234177104447, 43.662400212075731 ], [ 1.280725, 43.662778 ], [ 1.280166, 43.665156 ], [ 1.279506, 43.667022 ], [ 1.271931, 43.671722 ], [ 1.266589, 43.671246 ], [ 1.263761, 43.673145 ], [ 1.262245, 43.676411 ], [ 1.256979, 43.679638 ], [ 1.254995, 43.680581 ], [ 1.25478, 43.682488 ], [ 1.25624, 43.683959 ], [ 1.260344, 43.690607 ], [ 1.260148, 43.694202 ], [ 1.264292, 43.695074 ], [ 1.268531, 43.697794 ], [ 1.271703, 43.699088 ], [ 1.272769, 43.6986 ], [ 1.273251, 43.697987 ], [ 1.281581, 43.696581 ], [ 1.288523, 43.697634 ], [ 1.291556, 43.703243 ], [ 1.292035, 43.705505 ], [ 1.293458, 43.707917 ], [ 1.298191, 43.712973 ], [ 1.297825, 43.718568 ], [ 1.298295, 43.720446 ], [ 1.298823, 43.720932 ], [ 1.298944, 43.72098 ], [ 1.304814, 43.721658 ], [ 1.306693, 43.721788 ], [ 1.315274, 43.720499 ], [ 1.316566, 43.716293 ], [ 1.316861, 43.715851 ], [ 1.317162, 43.715254 ], [ 1.316396, 43.713749 ], [ 1.316562299049885, 43.707028617824044 ], [ 1.316169, 43.707202 ], [ 1.313512, 43.712895 ], [ 1.313107, 43.714854 ], [ 1.312805, 43.716131 ], [ 1.312707, 43.716404 ], [ 1.304554, 43.719373 ], [ 1.304445, 43.719276 ], [ 1.302472, 43.715419 ], [ 1.299005, 43.711124 ], [ 1.295243, 43.705561 ], [ 1.295606, 43.701979 ], [ 1.28964, 43.695772 ], [ 1.288674, 43.695725 ], [ 1.280886, 43.695009 ], [ 1.277764, 43.694704 ], [ 1.269591, 43.696602 ], [ 1.269156, 43.696453 ], [ 1.267706, 43.695805 ], [ 1.266352, 43.693748 ], [ 1.265445, 43.689786 ], [ 1.265469, 43.689444 ], [ 1.266967, 43.687736 ], [ 1.266328, 43.678868 ], [ 1.266286, 43.678805 ], [ 1.266254, 43.678657 ], [ 1.267001, 43.676161 ], [ 1.267152, 43.676105 ], [ 1.269276, 43.675325 ], [ 1.276268, 43.670296 ], [ 1.282978, 43.665361 ], [ 1.289018994294298, 43.662644802541024 ], [ 1.288293178725238, 43.660655154267765 ], [ 1.28661, 43.661027 ], [ 1.283616, 43.660633 ], [ 1.283101374537087, 43.66101483037631 ], [ 1.282112, 43.662983 ] ] ], [ [ [ 1.368601918983579, 43.680469118346849 ], [ 1.369874704879277, 43.680895801207747 ], [ 1.372725, 43.676828 ], [ 1.372679620123521, 43.674443837550172 ], [ 1.371849, 43.674931 ], [ 1.368601918983579, 43.680469118346849 ] ] ], [ [ [ 1.329362, 43.721144 ], [ 1.331076, 43.721834 ], [ 1.331908, 43.721622 ], [ 1.339076, 43.71951 ], [ 1.339652, 43.719134 ], [ 1.340288, 43.718524 ], [ 1.340740340656963, 43.713590284427355 ], [ 1.340592448118821, 43.713583460382367 ], [ 1.338559, 43.714735 ], [ 1.335036, 43.717539 ], [ 1.334209, 43.717378 ], [ 1.333613, 43.717049 ], [ 1.332373, 43.715117 ], [ 1.333151, 43.714262 ], [ 1.334498, 43.712846 ], [ 1.336299091592535, 43.708354023804297 ], [ 1.336353, 43.707515 ], [ 1.336368869862647, 43.707449767591605 ], [ 1.333779, 43.700316 ], [ 1.326904, 43.703446 ], [ 1.326505, 43.705201 ], [ 1.33428, 43.708495 ], [ 1.330885, 43.714725 ], [ 1.328535, 43.719282 ], [ 1.328463, 43.719358 ], [ 1.329176, 43.721017 ], [ 1.329242, 43.72107 ], [ 1.329362, 43.721144 ] ] ] ] } },
{ "type": "Feature", "properties": { "codgeo": "31032", "value": 600, "isochrone_group": 10.0, "nb_agences": 1 }, "geometry": { "type": "MultiPolygon", "coordinates": [ [ [ [ 1.251072, 43.677513 ], [ 1.247895, 43.682551 ], [ 1.245089, 43.684832 ], [ 1.245044, 43.684923 ], [ 1.247381, 43.692241 ], [ 1.247414, 43.692317 ], [ 1.247788, 43.692604 ], [ 1.249014, 43.693401 ], [ 1.25438, 43.696181 ], [ 1.262409, 43.696383 ], [ 1.263815, 43.698366 ], [ 1.265327, 43.699834 ], [ 1.265705, 43.700119 ], [ 1.266555, 43.700481 ], [ 1.267452, 43.700362 ], [ 1.274422, 43.702103 ], [ 1.276676, 43.705334 ], [ 1.279069, 43.704827 ], [ 1.27914, 43.704784 ], [ 1.286372, 43.699491 ], [ 1.291152, 43.706017 ], [ 1.2911, 43.706564 ], [ 1.289987, 43.715311 ], [ 1.288749, 43.717553 ], [ 1.293574, 43.722139 ], [ 1.293632, 43.722176 ], [ 1.298553, 43.724622 ], [ 1.298657, 43.724636 ], [ 1.306517, 43.723024 ], [ 1.311783, 43.723746 ], [ 1.313274853486197, 43.72079930297825 ], [ 1.306693, 43.721788 ], [ 1.304814, 43.721658 ], [ 1.298944, 43.72098 ], [ 1.298823, 43.720932 ], [ 1.298295, 43.720446 ], [ 1.297825, 43.718568 ], [ 1.298191, 43.712973 ], [ 1.293458, 43.707917 ], [ 1.292035, 43.705505 ], [ 1.291556, 43.703243 ], [ 1.288523, 43.697634 ], [ 1.281581, 43.696581 ], [ 1.273251, 43.697987 ], [ 1.272769, 43.6986 ], [ 1.271703, 43.699088 ], [ 1.268531, 43.697794 ], [ 1.264292, 43.695074 ], [ 1.260148, 43.694202 ], [ 1.260344, 43.690607 ], [ 1.25624, 43.683959 ], [ 1.25478, 43.682488 ], [ 1.254995, 43.680581 ], [ 1.256979, 43.679638 ], [ 1.262245, 43.676411 ], [ 1.263761, 43.673145 ], [ 1.266589, 43.671246 ], [ 1.271931, 43.671722 ], [ 1.277272179919482, 43.668408000578019 ], [ 1.270753, 43.669715 ], [ 1.269299, 43.668135 ], [ 1.268564, 43.667935 ], [ 1.266621, 43.668992 ], [ 1.259371, 43.670178 ], [ 1.254206, 43.675741 ], [ 1.252009, 43.676701 ], [ 1.251072, 43.677513 ] ] ], [ [ [ 1.280141950208751, 43.66522399531889 ], [ 1.278516721125599, 43.664018882745701 ], [ 1.278575106657159, 43.667599583988299 ], [ 1.279506, 43.667022 ], [ 1.280141950208751, 43.66522399531889 ] ] ], [ [ [ 1.331076, 43.721834 ], [ 1.329362, 43.721144 ], [ 1.329242, 43.72107 ], [ 1.329176, 43.721017 ], [ 1.328463, 43.719358 ], [ 1.328535, 43.719282 ], [ 1.330885, 43.714725 ], [ 1.332378959977762, 43.711983506432553 ], [ 1.330680148781847, 43.70696986689228 ], [ 1.326505, 43.705201 ], [ 1.322736, 43.704307 ], [ 1.316571, 43.706677 ], [ 1.316396, 43.713749 ], [ 1.317162, 43.715254 ], [ 1.316861, 43.715851 ], [ 1.316566, 43.716293 ], [ 1.31555976896591, 43.719568702576922 ], [ 1.317442, 43.718816 ], [ 1.322401, 43.725905 ], [ 1.325048, 43.728344 ], [ 1.331509, 43.725426 ], [ 1.333431054942571, 43.723771635101258 ], [ 1.332629755502557, 43.721409339896567 ], [ 1.331908, 43.721622 ], [ 1.331076, 43.721834 ] ] ] ] } },
{ "type": "Feature", "properties": { "codgeo": "31032", "value": 660, "isochrone_group": 11.0, "nb_agences": 1 }, "geometry": { "type": "MultiPolygon", "coordinates": [ [ [ [ 1.245636, 43.694722 ], [ 1.249708, 43.701274 ], [ 1.252285, 43.703788 ], [ 1.253748, 43.702288 ], [ 1.254259, 43.701531 ], [ 1.263094, 43.701051 ], [ 1.266753, 43.701384 ], [ 1.273743, 43.706649 ], [ 1.279982, 43.711049 ], [ 1.284886, 43.714101 ], [ 1.286377, 43.71947 ], [ 1.287332, 43.721358 ], [ 1.291586, 43.725816 ], [ 1.292488, 43.726783 ], [ 1.292704781530231, 43.726900300227491 ], [ 1.294375, 43.724399 ], [ 1.29445, 43.724339 ], [ 1.295676667185686, 43.723192308867347 ], [ 1.293632, 43.722176 ], [ 1.293574, 43.722139 ], [ 1.288749, 43.717553 ], [ 1.289987, 43.715311 ], [ 1.2911, 43.706564 ], [ 1.291152, 43.706017 ], [ 1.286372, 43.699491 ], [ 1.27914, 43.704784 ], [ 1.279069, 43.704827 ], [ 1.276676, 43.705334 ], [ 1.274422, 43.702103 ], [ 1.267452, 43.700362 ], [ 1.266555, 43.700481 ], [ 1.265705, 43.700119 ], [ 1.265327, 43.699834 ], [ 1.263815, 43.698366 ], [ 1.262409, 43.696383 ], [ 1.25438, 43.696181 ], [ 1.249014, 43.693401 ], [ 1.247788, 43.692604 ], [ 1.247414, 43.692317 ], [ 1.247381, 43.692241 ], [ 1.245044, 43.684923 ], [ 1.245089, 43.684832 ], [ 1.247895, 43.682551 ], [ 1.251072, 43.677513 ], [ 1.252009, 43.676701 ], [ 1.254206, 43.675741 ], [ 1.258883885857774, 43.670702649752805 ], [ 1.252763, 43.672753 ], [ 1.249474, 43.674218 ], [ 1.247047, 43.676138 ], [ 1.24619, 43.679635 ], [ 1.240428, 43.685232 ], [ 1.237393, 43.686337 ], [ 1.237033, 43.686447 ], [ 1.23659, 43.686627 ], [ 1.235867, 43.687005 ], [ 1.237534, 43.690196 ], [ 1.241548, 43.693543 ], [ 1.245636, 43.694722 ] ] ], [ [ [ 1.30612114560715, 43.723105185404741 ], [ 1.307047164544165, 43.723096688720268 ], [ 1.306517, 43.723024 ], [ 1.30612114560715, 43.723105185404741 ] ] ], [ [ [ 1.355296870068801, 43.64331804652852 ], [ 1.357145875028426, 43.642429050303349 ], [ 1.358036150127772, 43.641698326684185 ], [ 1.355296870068801, 43.64331804652852 ] ] ], [ [ [ 1.266621, 43.668992 ], [ 1.268564, 43.667935 ], [ 1.269299, 43.668135 ], [ 1.270753, 43.669715 ], [ 1.2771881031146, 43.668424856737332 ], [ 1.278544404781516, 43.665716681814992 ], [ 1.278523560454865, 43.664438329039037 ], [ 1.27825, 43.663923 ], [ 1.273295, 43.663241 ], [ 1.271986, 43.660007 ], [ 1.27177360093577, 43.659857383742391 ], [ 1.270251, 43.665361 ], [ 1.268578, 43.666067 ], [ 1.268378, 43.666184 ], [ 1.262664, 43.668785 ], [ 1.26187, 43.66891 ], [ 1.260353558550378, 43.670017266973687 ], [ 1.266621, 43.668992 ] ] ], [ [ [ 1.371849, 43.674931 ], [ 1.3709267585179, 43.676503945807745 ], [ 1.371305694781753, 43.676552258630949 ], [ 1.372441541382018, 43.674847751805842 ], [ 1.371849, 43.674931 ] ] ], [ [ [ 1.312820957567782, 43.725319239529995 ], [ 1.312909, 43.725367 ], [ 1.314016771519935, 43.72601118797192 ], [ 1.314058008395313, 43.72603308177689 ], [ 1.320447195794044, 43.723111993745512 ], [ 1.317442, 43.718816 ], [ 1.313476, 43.720402 ], [ 1.311783479295661, 43.723745053299076 ], [ 1.312083, 43.723835 ], [ 1.312820957567782, 43.725319239529995 ] ] ] ] } },
{ "type": "Feature", "properties": { "codgeo": "31032", "value": 720, "isochrone_group": 12.0, "nb_agences": 1 }, "geometry": { "type": "MultiPolygon", "coordinates": [ [ [ [ 1.354874925390838, 43.643565133176956 ], [ 1.358802, 43.640378 ], [ 1.360612, 43.637354 ], [ 1.360962, 43.637385 ], [ 1.364926233276055, 43.635607101439824 ], [ 1.365139325776858, 43.63544657225399 ], [ 1.364547, 43.635605 ], [ 1.360178, 43.637348 ], [ 1.354870934923454, 43.643565874890207 ], [ 1.354874925390838, 43.643565133176956 ] ] ], [ [ [ 1.302777, 43.63559 ], [ 1.302248, 43.635687 ], [ 1.301932, 43.635775 ], [ 1.301389, 43.63595 ], [ 1.301387551802001, 43.635967390969 ], [ 1.304401, 43.63761 ], [ 1.306382, 43.637807 ], [ 1.308773035656787, 43.635222213426232 ], [ 1.302777, 43.63559 ] ] ], [ [ [ 1.271145060028317, 43.661446713471491 ], [ 1.268378, 43.666184 ], [ 1.268578, 43.666067 ], [ 1.270251, 43.665361 ], [ 1.271263987787201, 43.661699439098918 ], [ 1.271145060028317, 43.661446713471491 ] ] ], [ [ [ 1.227628, 43.691278 ], [ 1.227851, 43.691675 ], [ 1.22789, 43.691726 ], [ 1.230845, 43.694587 ], [ 1.231439, 43.694769 ], [ 1.233165, 43.694322 ], [ 1.233265, 43.69423 ], [ 1.238293016301723, 43.690828891769264 ], [ 1.237534, 43.690196 ], [ 1.235867, 43.687005 ], [ 1.23659, 43.686627 ], [ 1.237033, 43.686447 ], [ 1.237393, 43.686337 ], [ 1.240428, 43.685232 ], [ 1.24619, 43.679635 ], [ 1.247047, 43.676138 ], [ 1.249474, 43.674218 ], [ 1.251436271008461, 43.673343957121503 ], [ 1.244694, 43.673442 ], [ 1.242674, 43.672901 ], [ 1.242651, 43.67291 ], [ 1.241645, 43.675356 ], [ 1.239882, 43.683065 ], [ 1.238294, 43.684377 ], [ 1.234029, 43.68652 ], [ 1.232241, 43.687507 ], [ 1.231951, 43.687654 ], [ 1.22881, 43.689163 ], [ 1.228346, 43.68937 ], [ 1.228309, 43.689393 ], [ 1.227628, 43.691278 ] ] ], [ [ [ 1.263094, 43.701051 ], [ 1.254259, 43.701531 ], [ 1.253748, 43.702288 ], [ 1.252285, 43.703788 ], [ 1.249708, 43.701274 ], [ 1.245636, 43.694722 ], [ 1.244967794699622, 43.694529286191518 ], [ 1.245713, 43.694975 ], [ 1.247765, 43.701797 ], [ 1.249201, 43.705098 ], [ 1.251999, 43.706021 ], [ 1.255223, 43.705481 ], [ 1.26227, 43.702528 ], [ 1.265522, 43.704073 ], [ 1.271442, 43.707941 ], [ 1.271875, 43.708129 ], [ 1.277748245206584, 43.709473664034135 ], [ 1.273743, 43.706649 ], [ 1.266753, 43.701384 ], [ 1.263094, 43.701051 ] ] ], [ [ [ 1.312352, 43.742165 ], [ 1.312282689886463, 43.742751406926075 ], [ 1.314803135540579, 43.741291040499171 ], [ 1.312352, 43.742165 ] ] ], [ [ [ 1.309033, 43.723175 ], [ 1.309486211202855, 43.72305448572542 ], [ 1.308694, 43.722816 ], [ 1.308247, 43.722636 ], [ 1.308151376378182, 43.722673827236861 ], [ 1.309014673014758, 43.723165007780018 ], [ 1.309033, 43.723175 ] ] ], [ [ [ 1.278959161804889, 43.710327652338755 ], [ 1.277441, 43.716426 ], [ 1.277167, 43.717567 ], [ 1.277104, 43.717899 ], [ 1.277091, 43.718551 ], [ 1.27698, 43.719996 ], [ 1.278656, 43.720213 ], [ 1.282141057044377, 43.726349450628092 ], [ 1.283089, 43.726287 ], [ 1.284768, 43.726132 ], [ 1.286969, 43.725713 ], [ 1.289008713568689, 43.723115120143184 ], [ 1.287332, 43.721358 ], [ 1.286377, 43.71947 ], [ 1.284886, 43.714101 ], [ 1.279982, 43.711049 ], [ 1.278959161804889, 43.710327652338755 ] ] ], [ [ [ 1.381095, 43.670764 ], [ 1.38117073422894, 43.670707231064043 ], [ 1.381244, 43.669932 ], [ 1.381339576075068, 43.669790724636066 ], [ 1.377242382720013, 43.671819164225624 ], [ 1.376733957700197, 43.672253557953596 ], [ 1.381095, 43.670764 ] ] ], [ [ [ 1.383792693518616, 43.668667650918053 ], [ 1.383800752839102, 43.668642588040278 ], [ 1.383747626230222, 43.668664545610497 ], [ 1.383792693518616, 43.668667650918053 ] ] ] ] } },
{ "type": "Feature", "properties": { "codgeo": "31032", "value": 780, "isochrone_group": 13.0, "nb_agences": 1 }, "geometry": { "type": "MultiPolygon", "coordinates": [ [ [ [ 1.268473954590479, 43.657533076244036 ], [ 1.270220417450891, 43.663029728216706 ], [ 1.271145060028317, 43.661446713471491 ], [ 1.269714645415671, 43.658407032627949 ], [ 1.268473954590479, 43.657533076244036 ] ] ], [ [ [ 1.222601, 43.697589 ], [ 1.223488, 43.697914 ], [ 1.224343, 43.69796 ], [ 1.228644, 43.697448 ], [ 1.233983, 43.696371 ], [ 1.237101, 43.700855 ], [ 1.237122, 43.700885 ], [ 1.239077, 43.701552 ], [ 1.23909, 43.701548 ], [ 1.24758, 43.703893 ], [ 1.248825, 43.707271 ], [ 1.252026, 43.709499 ], [ 1.252594, 43.709254 ], [ 1.253667, 43.708756 ], [ 1.25442, 43.708233 ], [ 1.254878, 43.707824 ], [ 1.262462, 43.706416 ], [ 1.266704, 43.71003 ], [ 1.26653297506531, 43.717835363118823 ], [ 1.266594, 43.717821 ], [ 1.27019, 43.717696 ], [ 1.271635, 43.71881 ], [ 1.271709, 43.719252 ], [ 1.272034474378066, 43.720870838854204 ], [ 1.275014, 43.720116 ], [ 1.276685, 43.719948 ], [ 1.279916230571418, 43.722432000315628 ], [ 1.278656, 43.720213 ], [ 1.27698, 43.719996 ], [ 1.277091, 43.718551 ], [ 1.277104, 43.717899 ], [ 1.277167, 43.717567 ], [ 1.277441, 43.716426 ], [ 1.279095, 43.709782 ], [ 1.271875, 43.708129 ], [ 1.271442, 43.707941 ], [ 1.265522, 43.704073 ], [ 1.26227, 43.702528 ], [ 1.255223, 43.705481 ], [ 1.251999, 43.706021 ], [ 1.249201, 43.705098 ], [ 1.247765, 43.701797 ], [ 1.245713, 43.694975 ], [ 1.238522, 43.690674 ], [ 1.233265, 43.69423 ], [ 1.233165, 43.694322 ], [ 1.231439, 43.694769 ], [ 1.230845, 43.694587 ], [ 1.22789, 43.691726 ], [ 1.227851, 43.691675 ], [ 1.227628, 43.691278 ], [ 1.228309, 43.689393 ], [ 1.228346, 43.68937 ], [ 1.22881, 43.689163 ], [ 1.231951, 43.687654 ], [ 1.232241, 43.687507 ], [ 1.234029, 43.68652 ], [ 1.238294, 43.684377 ], [ 1.239882, 43.683065 ], [ 1.241645, 43.675356 ], [ 1.242651, 43.67291 ], [ 1.242674, 43.672901 ], [ 1.244694, 43.673442 ], [ 1.248095752048328, 43.673392533349634 ], [ 1.243319, 43.669315 ], [ 1.243172, 43.66911 ], [ 1.241456, 43.668605 ], [ 1.24131, 43.668652 ], [ 1.240251, 43.671214 ], [ 1.239071, 43.674638 ], [ 1.237236, 43.682128 ], [ 1.230076, 43.686661 ], [ 1.227062, 43.686071 ], [ 1.226648, 43.685929 ], [ 1.226224, 43.685821 ], [ 1.224457, 43.685453 ], [ 1.222672, 43.685078 ], [ 1.221932, 43.688601 ], [ 1.222216, 43.697145 ], [ 1.222601, 43.697589 ] ] ], [ [ [ 1.311607164353995, 43.748466775589669 ], [ 1.315193, 43.742628 ], [ 1.320098, 43.739494 ], [ 1.32132, 43.738529 ], [ 1.320726450251194, 43.735304802479149 ], [ 1.317575, 43.739685 ], [ 1.312282689886463, 43.742751406926075 ], [ 1.311607164353995, 43.748466775589669 ] ] ] ] } },
{ "type": "Feature", "properties": { "codgeo": "31032", "value": 840, "isochrone_group": 14.0, "nb_agences": 1 }, "geometry": { "type": "MultiPolygon", "coordinates": [ [ [ [ 1.268763570432508, 43.665729883712835 ], [ 1.27024334201369, 43.663101878816754 ], [ 1.270220417450891, 43.663029728216706 ], [ 1.268378, 43.666184 ], [ 1.268763570432508, 43.665729883712835 ] ] ], [ [ [ 1.384412, 43.668353 ], [ 1.387384531391106, 43.666221247636827 ], [ 1.387191644726611, 43.666206538334691 ], [ 1.384412, 43.668353 ] ] ], [ [ [ 1.24131, 43.668652 ], [ 1.241345910230087, 43.668640439857448 ], [ 1.240681, 43.666403 ], [ 1.239861, 43.665673 ], [ 1.23933, 43.66515 ], [ 1.237742, 43.666656 ], [ 1.236804, 43.667715 ], [ 1.237335, 43.668237 ], [ 1.23828, 43.669086 ], [ 1.23857254577496, 43.676672562477151 ], [ 1.239071, 43.674638 ], [ 1.240251, 43.671214 ], [ 1.24131, 43.668652 ] ] ], [ [ [ 1.234197, 43.696681 ], [ 1.234198053259328, 43.696680268381918 ], [ 1.233983, 43.696371 ], [ 1.228644, 43.697448 ], [ 1.224343, 43.69796 ], [ 1.223488, 43.697914 ], [ 1.222601, 43.697589 ], [ 1.222216, 43.697145 ], [ 1.221932, 43.688601 ], [ 1.222672, 43.685078 ], [ 1.224457, 43.685453 ], [ 1.226224, 43.685821 ], [ 1.226648, 43.685929 ], [ 1.227062, 43.686071 ], [ 1.230076, 43.686661 ], [ 1.237236, 43.682128 ], [ 1.23829902346267, 43.677789010498408 ], [ 1.238139, 43.678108 ], [ 1.237867, 43.679551 ], [ 1.230839, 43.685073 ], [ 1.22936, 43.684969 ], [ 1.229173, 43.684963 ], [ 1.223783, 43.683344 ], [ 1.220778, 43.681789 ], [ 1.218877, 43.682319 ], [ 1.215214, 43.683617 ], [ 1.214943, 43.683826 ], [ 1.213425, 43.68607 ], [ 1.213472, 43.686115 ], [ 1.216294, 43.692408 ], [ 1.215236, 43.695849 ], [ 1.217169, 43.699744 ], [ 1.217224, 43.699829 ], [ 1.219038, 43.700627 ], [ 1.226227, 43.704249 ], [ 1.229651, 43.703138 ], [ 1.237478, 43.701394 ], [ 1.238220298179823, 43.702459467195581 ], [ 1.238275655392953, 43.702360551820057 ], [ 1.237573464406097, 43.701039029032664 ], [ 1.237122, 43.700885 ], [ 1.237101, 43.700855 ], [ 1.235110383185521, 43.6979922912777 ], [ 1.235106, 43.697989 ], [ 1.234197, 43.696681 ] ] ], [ [ [ 1.245577513599183, 43.703339898632542 ], [ 1.247845193621795, 43.704612537393103 ], [ 1.24758, 43.703893 ], [ 1.245577513599183, 43.703339898632542 ] ] ], [ [ [ 1.240462, 43.705671 ], [ 1.239448000006493, 43.704219265406842 ], [ 1.240461974480281, 43.705671531198526 ], [ 1.240462, 43.705671 ] ] ], [ [ [ 1.251400124299139, 43.710284777004404 ], [ 1.253667, 43.708756 ], [ 1.252650048460552, 43.709227986828182 ], [ 1.25264, 43.709233 ], [ 1.251400124299139, 43.710284777004404 ] ] ], [ [ [ 1.254541, 43.708133 ], [ 1.254469304241049, 43.708188970666846 ], [ 1.25442, 43.708233 ], [ 1.260909, 43.708023 ], [ 1.262874557338897, 43.714786726525247 ], [ 1.266589536308822, 43.715253979036682 ], [ 1.266704, 43.71003 ], [ 1.262462, 43.706416 ], [ 1.254885476273606, 43.707822611999831 ], [ 1.254827277257494, 43.707869296073568 ], [ 1.254714205603917, 43.707970270541466 ], [ 1.254541, 43.708133 ] ] ], [ [ [ 1.311847130014382, 43.750075225245361 ], [ 1.311464509445389, 43.749673725371963 ], [ 1.311425, 43.750008 ], [ 1.311847130014382, 43.750075225245361 ] ] ] ] } },
{ "type": "Feature", "properties": { "codgeo": "31032", "value": 900, "isochrone_group": 15.0, "nb_agences": 1 }, "geometry": { "type": "MultiPolygon", "coordinates": [ [ [ [ 1.208003, 43.680422 ], [ 1.207946865243811, 43.680379424120609 ], [ 1.207873, 43.688834 ], [ 1.207072, 43.692343 ], [ 1.208958, 43.697935 ], [ 1.209694, 43.703211 ], [ 1.210164, 43.704206 ], [ 1.210238, 43.704303 ], [ 1.211537, 43.705107 ], [ 1.212557, 43.705393 ], [ 1.214246, 43.703875 ], [ 1.215226, 43.703183 ], [ 1.218697, 43.701983 ], [ 1.225437983459105, 43.706596443072456 ], [ 1.226232, 43.704291 ], [ 1.22629345203692, 43.704227438021903 ], [ 1.226227, 43.704249 ], [ 1.219038, 43.700627 ], [ 1.217224, 43.699829 ], [ 1.217169, 43.699744 ], [ 1.215236, 43.695849 ], [ 1.216294, 43.692408 ], [ 1.213472, 43.686115 ], [ 1.213425, 43.68607 ], [ 1.214943, 43.683826 ], [ 1.215214, 43.683617 ], [ 1.218877, 43.682319 ], [ 1.220778, 43.681789 ], [ 1.223783, 43.683344 ], [ 1.229173, 43.684963 ], [ 1.22936, 43.684969 ], [ 1.230839, 43.685073 ], [ 1.237867, 43.679551 ], [ 1.238139, 43.678108 ], [ 1.238593, 43.677203 ], [ 1.23828, 43.669086 ], [ 1.237335, 43.668237 ], [ 1.236804, 43.667715 ], [ 1.237742, 43.666656 ], [ 1.23933, 43.66515 ], [ 1.239861, 43.665673 ], [ 1.240681, 43.666403 ], [ 1.239377, 43.661958 ], [ 1.235777, 43.661885 ], [ 1.235714, 43.663775 ], [ 1.235753, 43.664772 ], [ 1.234913, 43.669391 ], [ 1.237949, 43.676218 ], [ 1.235868, 43.678717 ], [ 1.227148, 43.677078 ], [ 1.223567, 43.676711 ], [ 1.222955, 43.678648 ], [ 1.22256, 43.679418 ], [ 1.214061, 43.681522 ], [ 1.212507, 43.679904 ], [ 1.210339296517915, 43.677306644078868 ], [ 1.210593, 43.677922 ], [ 1.210685, 43.678017 ], [ 1.209996, 43.680752 ], [ 1.209923, 43.680865 ], [ 1.209398, 43.681027 ], [ 1.208095, 43.680518 ], [ 1.208003, 43.680422 ] ] ], [ [ [ 1.260615150254622, 43.708032509700494 ], [ 1.261208095851863, 43.709052225913084 ], [ 1.260909, 43.708023 ], [ 1.260615150254622, 43.708032509700494 ] ] ], [ [ [ 1.389486835140799, 43.664818798764372 ], [ 1.388611508238157, 43.665341320581689 ], [ 1.38713874121062, 43.666397516186812 ], [ 1.38691, 43.666697 ], [ 1.384412, 43.668353 ], [ 1.391206511369164, 43.665568290084231 ], [ 1.389486835140799, 43.664818798764372 ] ] ] ] } },
{ "type": "Feature", "properties": { "codgeo": "31032", "value": 960, "isochrone_group": 16.0, "nb_agences": 1 }, "geometry": { "type": "MultiPolygon", "coordinates": [ [ [ [ 1.234544962692814, 43.663850058086844 ], [ 1.235053344510509, 43.668619272268991 ], [ 1.235753, 43.664772 ], [ 1.235714, 43.663775 ], [ 1.235741334252412, 43.662954972427627 ], [ 1.234544962692814, 43.663850058086844 ] ] ], [ [ [ 1.235715, 43.659301 ], [ 1.235714320753343, 43.659302758604667 ], [ 1.236429932901151, 43.659798017542791 ], [ 1.23624, 43.659503 ], [ 1.235715, 43.659301 ] ] ], [ [ [ 1.222570940694257, 43.673388057334392 ], [ 1.222955, 43.678648 ], [ 1.223567, 43.676711 ], [ 1.227148, 43.677078 ], [ 1.235868, 43.678717 ], [ 1.237949, 43.676218 ], [ 1.234913, 43.669391 ], [ 1.234987273583632, 43.66898258371095 ], [ 1.227767010812231, 43.672427677892088 ], [ 1.227444, 43.674386 ], [ 1.227386, 43.675063 ], [ 1.227281, 43.676099 ], [ 1.225308, 43.675777 ], [ 1.223699, 43.675734 ], [ 1.222904, 43.674585 ], [ 1.222570940694257, 43.673388057334392 ] ] ], [ [ [ 1.200099, 43.708427 ], [ 1.206047, 43.708952 ], [ 1.208644, 43.711445 ], [ 1.209022, 43.711052 ], [ 1.209996, 43.709979 ], [ 1.210248, 43.709695 ], [ 1.210976, 43.70898 ], [ 1.211516, 43.70835 ], [ 1.214246, 43.703875 ], [ 1.212557, 43.705393 ], [ 1.211537, 43.705107 ], [ 1.210238, 43.704303 ], [ 1.210164, 43.704206 ], [ 1.209694, 43.703211 ], [ 1.208958, 43.697935 ], [ 1.207072, 43.692343 ], [ 1.207873, 43.688834 ], [ 1.207938114704109, 43.681381006164735 ], [ 1.20199325219182, 43.68199784370568 ], [ 1.201229, 43.684323 ], [ 1.199432, 43.687443 ], [ 1.202851, 43.691578 ], [ 1.203904, 43.696661 ], [ 1.204065, 43.698008 ], [ 1.199875, 43.704833 ], [ 1.198397, 43.707392 ], [ 1.198571, 43.707718 ], [ 1.198879, 43.708181 ], [ 1.20002, 43.70843 ], [ 1.200099, 43.708427 ] ] ], [ [ [ 1.21204, 43.676984 ], [ 1.212002347389371, 43.676969983259568 ], [ 1.212011, 43.676997 ], [ 1.213494, 43.680278 ], [ 1.214061, 43.681522 ], [ 1.220580196390195, 43.679908117283802 ], [ 1.213523, 43.680265 ], [ 1.21204, 43.676984 ] ] ], [ [ [ 1.214246, 43.703875 ], [ 1.219759, 43.703982 ], [ 1.222698, 43.709641 ], [ 1.22301, 43.710056 ], [ 1.223244, 43.710291 ], [ 1.223903090868378, 43.710672420319646 ], [ 1.222869, 43.707246 ], [ 1.223796069055539, 43.705472737803539 ], [ 1.218697, 43.701983 ], [ 1.215226, 43.703183 ], [ 1.214246, 43.703875 ] ] ], [ [ [ 1.399876822257014, 43.66770184170727 ], [ 1.398144024430058, 43.666476875535302 ], [ 1.394133, 43.66652 ], [ 1.393993640770013, 43.668161197134957 ], [ 1.394203, 43.668051 ], [ 1.399876822257014, 43.66770184170727 ] ] ] ] } },
{ "type": "Feature", "properties": { "codgeo": "31032", "value": 1020, "isochrone_group": 17.0, "nb_agences": 1 }, "geometry": { "type": "Polygon", "coordinates": [ [ [ 1.208719499898744, 43.715994462161206 ], [ 1.209647, 43.715552 ], [ 1.211233, 43.71232 ], [ 1.217502201323117, 43.711651200444628 ], [ 1.218359, 43.709805 ], [ 1.21899, 43.707866 ], [ 1.218132275176851, 43.703950427434052 ], [ 1.214246, 43.703875 ], [ 1.211516, 43.70835 ], [ 1.210976, 43.70898 ], [ 1.210248, 43.709695 ], [ 1.209996, 43.709979 ], [ 1.209022, 43.711052 ], [ 1.208644, 43.711445 ], [ 1.206047, 43.708952 ], [ 1.200099, 43.708427 ], [ 1.20002, 43.70843 ], [ 1.198879, 43.708181 ], [ 1.198571, 43.707718 ], [ 1.198397, 43.707392 ], [ 1.199875, 43.704833 ], [ 1.204065, 43.698008 ], [ 1.203904, 43.696661 ], [ 1.202851, 43.691578 ], [ 1.201151592223491, 43.689522705716314 ], [ 1.197188, 43.690534 ], [ 1.194833, 43.687811 ], [ 1.193950066877773, 43.687594124466656 ], [ 1.193816, 43.689401 ], [ 1.193899, 43.689552 ], [ 1.195322, 43.692671 ], [ 1.197183, 43.696018 ], [ 1.197524, 43.697507 ], [ 1.194487, 43.704559 ], [ 1.19185, 43.704564 ], [ 1.189282, 43.70764 ], [ 1.19026, 43.711105 ], [ 1.199008, 43.711696 ], [ 1.201122044606084, 43.714418622902144 ], [ 1.203728, 43.713504 ], [ 1.206475, 43.71583 ], [ 1.208719499898744, 43.715994462161206 ] ] ] } },
{ "type": "Feature", "properties": { "codgeo": "31032", "value": 1080, "isochrone_group": 18.0, "nb_agences": 1 }, "geometry": { "type": "Polygon", "coordinates": [ [ [ 1.194126687988997, 43.71588502933713 ], [ 1.196006677804353, 43.711493235777603 ], [ 1.19026, 43.711105 ], [ 1.189282, 43.70764 ], [ 1.19185, 43.704564 ], [ 1.194487, 43.704559 ], [ 1.197524, 43.697507 ], [ 1.197183, 43.696018 ], [ 1.196070840560308, 43.694017786327443 ], [ 1.195695, 43.695523 ], [ 1.194909, 43.697108 ], [ 1.192535, 43.697013 ], [ 1.192097, 43.695406 ], [ 1.192107, 43.695084 ], [ 1.19121184078736, 43.692977433285414 ], [ 1.190808, 43.696834 ], [ 1.189971, 43.699774 ], [ 1.189732, 43.700373 ], [ 1.189778, 43.701443 ], [ 1.187701, 43.707451 ], [ 1.184286, 43.708591 ], [ 1.180563, 43.710077 ], [ 1.177727, 43.710938 ], [ 1.177106, 43.711058 ], [ 1.174844, 43.711686 ], [ 1.175807, 43.715154 ], [ 1.178069, 43.714526 ], [ 1.181545, 43.713541 ], [ 1.185199, 43.712525 ], [ 1.191866, 43.71438 ], [ 1.193374, 43.714936 ], [ 1.194126687988997, 43.71588502933713 ] ] ] } },
{ "type": "Feature", "properties": { "codgeo": "31032", "value": 1140, "isochrone_group": 19.0, "nb_agences": 1 }, "geometry": { "type": "MultiPolygon", "coordinates": [ [ [ [ 1.180563, 43.710077 ], [ 1.184286, 43.708591 ], [ 1.187591073644935, 43.707487695767135 ], [ 1.18773309996023, 43.707358146576276 ], [ 1.189778, 43.701443 ], [ 1.189774907591741, 43.701371067894804 ], [ 1.189735, 43.701277 ], [ 1.187151841244385, 43.697252223983135 ], [ 1.183784, 43.704791 ], [ 1.180563, 43.710077 ] ] ], [ [ [ 1.175807, 43.715154 ], [ 1.174844, 43.711686 ], [ 1.177106, 43.711058 ], [ 1.177727, 43.710938 ], [ 1.180563, 43.710077 ], [ 1.175931, 43.709319 ], [ 1.17476, 43.709446 ], [ 1.174297, 43.70956 ], [ 1.170674, 43.71024 ], [ 1.1677, 43.712282 ], [ 1.163945, 43.714766 ], [ 1.164936, 43.718227 ], [ 1.167971, 43.718674 ], [ 1.170995, 43.716721 ], [ 1.17822, 43.716159 ], [ 1.18184, 43.716278 ], [ 1.182781, 43.715295 ], [ 1.186124649143611, 43.712782548996771 ], [ 1.185199, 43.712525 ], [ 1.181545, 43.713541 ], [ 1.178069, 43.714526 ], [ 1.175807, 43.715154 ] ] ] ] } },
{ "type": "Feature", "properties": { "codgeo": "31032", "value": 1200, "isochrone_group": 20.0, "nb_agences": 1 }, "geometry": { "type": "MultiPolygon", "coordinates": [ [ [ [ 1.183469972266119, 43.698107600149982 ], [ 1.183887841083615, 43.698182422384285 ], [ 1.183591, 43.697997 ], [ 1.183469972266119, 43.698107600149982 ] ] ], [ [ [ 1.156202, 43.716923 ], [ 1.152698, 43.717568 ], [ 1.15121, 43.718312 ], [ 1.150748, 43.719143 ], [ 1.150794, 43.720762 ], [ 1.151072, 43.721066 ], [ 1.152178, 43.72178 ], [ 1.153163, 43.721813 ], [ 1.155076, 43.721666 ], [ 1.161844, 43.721393 ], [ 1.163567988648001, 43.720692816029192 ], [ 1.164118217004284, 43.71537094858914 ], [ 1.163945, 43.714766 ], [ 1.1677, 43.712282 ], [ 1.170674, 43.71024 ], [ 1.174297, 43.70956 ], [ 1.17476, 43.709446 ], [ 1.175931, 43.709319 ], [ 1.178723605465085, 43.709775993726794 ], [ 1.181271170556776, 43.708914817583647 ], [ 1.181310177148443, 43.708850803661385 ], [ 1.177103, 43.708554 ], [ 1.173794739411064, 43.707822682634706 ], [ 1.173134, 43.708608 ], [ 1.169909, 43.707009 ], [ 1.169926973210323, 43.706883435434086 ], [ 1.163277, 43.709155 ], [ 1.16296, 43.709219 ], [ 1.16143, 43.709476 ], [ 1.15978, 43.711195 ], [ 1.156202, 43.716923 ] ] ] ] } }
]
}
