{
"type": "FeatureCollection",
"name": "Credit_Agricole",
"crs": { "type": "name", "properties": { "name": "urn:ogc:def:crs:OGC:1.3:CRS84" } },
"features": [
{ "type": "Feature", "properties": { "codgeo": "31032", "value": 60, "isochrone_group": 1.0, "nb_agences": 1 }, "geometry": { "type": "Polygon", "coordinates": [ [ [ 1.315303, 43.68004 ], [ 1.318838, 43.679991 ], [ 1.323171, 43.679588 ], [ 1.323531, 43.679581 ], [ 1.324308, 43.680006 ], [ 1.324348, 43.680364 ], [ 1.323662, 43.68393 ], [ 1.323571, 43.684106 ], [ 1.321658, 43.685352 ], [ 1.321597, 43.685356 ], [ 1.317164, 43.68429 ], [ 1.316269, 43.682938 ], [ 1.315906, 43.682211 ], [ 1.315106, 43.680341 ], [ 1.315303, 43.68004 ] ] ] } },
{ "type": "Feature", "properties": { "codgeo": "31032", "value": 120, "isochrone_group": 2.0, "nb_agences": 1 }, "geometry": { "type": "Polygon", "coordinates": [ [ [ 1.308953, 43.677792 ], [ 1.31035, 43.680496 ], [ 1.314323, 43.683981 ], [ 1.314644, 43.685721 ], [ 1.314662, 43.685912 ], [ 1.315109, 43.686305 ], [ 1.315417, 43.686491 ], [ 1.320331, 43.688372 ], [ 1.320387, 43.688387 ], [ 1.320498, 43.688387 ], [ 1.320607, 43.68838 ], [ 1.321052, 43.688248 ], [ 1.325402, 43.68744 ], [ 1.327732, 43.687487 ], [ 1.330564, 43.685532 ], [ 1.330678, 43.68519 ], [ 1.329599, 43.684566 ], [ 1.328419, 43.684014 ], [ 1.328349, 43.678206 ], [ 1.329325, 43.677746 ], [ 1.329172, 43.677421 ], [ 1.328196, 43.67788 ], [ 1.322808, 43.676281 ], [ 1.322107, 43.676381 ], [ 1.321945, 43.676438 ], [ 1.31969, 43.677769 ], [ 1.31592, 43.675746 ], [ 1.315567, 43.675674 ], [ 1.31348, 43.677189 ], [ 1.309171, 43.677478 ], [ 1.309047, 43.677444 ], [ 1.308953, 43.677792 ] ], [ [ 1.318838, 43.679991 ], [ 1.323171, 43.679588 ], [ 1.323531, 43.679581 ], [ 1.324308, 43.680006 ], [ 1.324348, 43.680364 ], [ 1.323662, 43.68393 ], [ 1.323571, 43.684106 ], [ 1.321658, 43.685352 ], [ 1.321597, 43.685356 ], [ 1.317164, 43.68429 ], [ 1.316269, 43.682938 ], [ 1.315906, 43.682211 ], [ 1.315106, 43.680341 ], [ 1.315303, 43.68004 ], [ 1.318838, 43.679991 ] ] ] } },
{ "type": "Feature", "properties": { "codgeo": "31032", "value": 180, "isochrone_group": 3.0, "nb_agences": 1 }, "geometry": { "type": "Polygon", "coordinates": [ [ [ 1.30084, 43.674522 ], [ 1.30147, 43.675549 ], [ 1.304294, 43.682905 ], [ 1.306272, 43.686096 ], [ 1.313035, 43.69029 ], [ 1.31974, 43.694834 ], [ 1.3201, 43.694843 ], [ 1.325142, 43.691305 ], [ 1.333101, 43.689804 ], [ 1.334374, 43.690275 ], [ 1.334865, 43.690441 ], [ 1.335356, 43.690607 ], [ 1.339307, 43.683363 ], [ 1.339207, 43.683017 ], [ 1.33829, 43.683281 ], [ 1.336552, 43.683583 ], [ 1.33202, 43.676209 ], [ 1.331841, 43.675897 ], [ 1.324431, 43.675187 ], [ 1.322723, 43.672956 ], [ 1.322366, 43.672917 ], [ 1.315988, 43.673686 ], [ 1.31563, 43.673727 ], [ 1.309664, 43.67558 ], [ 1.301035, 43.674219 ], [ 1.30084, 43.674522 ] ], [ [ 1.309171, 43.677478 ], [ 1.31348, 43.677189 ], [ 1.315567, 43.675674 ], [ 1.31592, 43.675746 ], [ 1.31969, 43.677769 ], [ 1.321945, 43.676438 ], [ 1.322107, 43.676381 ], [ 1.322808, 43.676281 ], [ 1.328196, 43.67788 ], [ 1.329172, 43.677421 ], [ 1.329325, 43.677746 ], [ 1.328349, 43.678206 ], [ 1.328419, 43.684014 ], [ 1.329599, 43.684566 ], [ 1.330678, 43.68519 ], [ 1.330564, 43.685532 ], [ 1.327732, 43.687487 ], [ 1.325402, 43.68744 ], [ 1.321052, 43.688248 ], [ 1.320607, 43.68838 ], [ 1.320498, 43.688387 ], [ 1.320387, 43.688387 ], [ 1.320331, 43.688372 ], [ 1.315417, 43.686491 ], [ 1.315109, 43.686305 ], [ 1.314662, 43.685912 ], [ 1.314644, 43.685721 ], [ 1.314323, 43.683981 ], [ 1.31035, 43.680496 ], [ 1.308953, 43.677792 ], [ 1.309047, 43.677444 ], [ 1.309171, 43.677478 ] ] ] } },
{ "type": "Feature", "properties": { "codgeo": "31032", "value": 240, "isochrone_group": 4.0, "nb_agences": 1 }, "geometry": { "type": "MultiPolygon", "coordinates": [ [ [ [ 1.30045, 43.672321 ], [ 1.300208, 43.672054 ], [ 1.298701, 43.671752 ], [ 1.293611, 43.671801 ], [ 1.293399, 43.672093 ], [ 1.293158, 43.674508 ], [ 1.293307, 43.674836 ], [ 1.292866, 43.683641 ], [ 1.292956, 43.683989 ], [ 1.29365, 43.683809 ], [ 1.301994, 43.686813 ], [ 1.30842, 43.692008 ], [ 1.310613, 43.694297 ], [ 1.310941, 43.694446 ], [ 1.316463, 43.697082 ], [ 1.319819, 43.699236 ], [ 1.320141, 43.699397 ], [ 1.321597, 43.697514 ], [ 1.324335, 43.695194 ], [ 1.325831, 43.693572 ], [ 1.33389, 43.69419 ], [ 1.33419, 43.694389 ], [ 1.340007, 43.691503 ], [ 1.343331, 43.691712 ], [ 1.343497, 43.691393 ], [ 1.342594, 43.690731 ], [ 1.342443, 43.690619 ], [ 1.341745, 43.681661 ], [ 1.343181, 43.680621 ], [ 1.344236, 43.68004 ], [ 1.345291, 43.679459 ], [ 1.345117, 43.679144 ], [ 1.344062, 43.679725 ], [ 1.343008, 43.680306 ], [ 1.342362, 43.680669 ], [ 1.342145, 43.68083 ], [ 1.341948, 43.680977 ], [ 1.341498, 43.681399 ], [ 1.341065, 43.681808 ], [ 1.338414616450921, 43.683245123508122 ], [ 1.339207, 43.683017 ], [ 1.339307, 43.683363 ], [ 1.335356, 43.690607 ], [ 1.334865, 43.690441 ], [ 1.334374, 43.690275 ], [ 1.333101, 43.689804 ], [ 1.325142, 43.691305 ], [ 1.3201, 43.694843 ], [ 1.31974, 43.694834 ], [ 1.313035, 43.69029 ], [ 1.306272, 43.686096 ], [ 1.304294, 43.682905 ], [ 1.30147, 43.675549 ], [ 1.30084, 43.674522 ], [ 1.301035, 43.674219 ], [ 1.30187770126315, 43.674351914175361 ], [ 1.30045, 43.672321 ] ] ], [ [ [ 1.33216, 43.675934 ], [ 1.32584, 43.671587 ], [ 1.323259, 43.669063 ], [ 1.323051, 43.668989 ], [ 1.322907, 43.668988 ], [ 1.322834, 43.668991 ], [ 1.315416, 43.671877 ], [ 1.309605, 43.673163 ], [ 1.303966761348531, 43.674681408992384 ], [ 1.309664, 43.67558 ], [ 1.31563, 43.673727 ], [ 1.315988, 43.673686 ], [ 1.322366, 43.672917 ], [ 1.322723, 43.672956 ], [ 1.324431, 43.675187 ], [ 1.331841, 43.675897 ], [ 1.33202, 43.676209 ], [ 1.336552, 43.683583 ], [ 1.33216, 43.675934 ] ] ], [ [ [ 1.336552, 43.683583 ], [ 1.33829, 43.683281 ], [ 1.338409150887431, 43.683246697018241 ], [ 1.336552, 43.683583 ] ] ] ] } },
{ "type": "Feature", "properties": { "codgeo": "31032", "value": 300, "isochrone_group": 5.0, "nb_agences": 1 }, "geometry": { "type": "MultiPolygon", "coordinates": [ [ [ [ 1.331727, 43.672085 ], [ 1.330839, 43.671915 ], [ 1.327057, 43.664115 ], [ 1.327061, 43.663755 ], [ 1.325439, 43.661822 ], [ 1.32504, 43.66138 ], [ 1.324989, 43.661348 ], [ 1.324891, 43.66136 ], [ 1.324822, 43.661381 ], [ 1.321777, 43.665619 ], [ 1.315383, 43.669651 ], [ 1.3103, 43.670447 ], [ 1.309956, 43.670447 ], [ 1.301893274162149, 43.669217961316882 ], [ 1.301929, 43.669438 ], [ 1.298824977499807, 43.671776844860617 ], [ 1.300208, 43.672054 ], [ 1.30045, 43.672321 ], [ 1.302405, 43.675102 ], [ 1.309605, 43.673163 ], [ 1.315416, 43.671877 ], [ 1.322834, 43.668991 ], [ 1.322907, 43.668988 ], [ 1.323051, 43.668989 ], [ 1.323259, 43.669063 ], [ 1.32584, 43.671587 ], [ 1.33216, 43.675934 ], [ 1.332094, 43.67241 ], [ 1.331727, 43.672085 ] ] ], [ [ [ 1.28854, 43.676847 ], [ 1.288798, 43.677098 ], [ 1.287598, 43.685752 ], [ 1.286514, 43.686161 ], [ 1.284852, 43.686666 ], [ 1.284405, 43.686728 ], [ 1.284454, 43.687084 ], [ 1.284901, 43.687023 ], [ 1.285347, 43.686962 ], [ 1.28554, 43.686913 ], [ 1.286641, 43.686498 ], [ 1.287725, 43.686089 ], [ 1.288058, 43.685947 ], [ 1.288384, 43.685809 ], [ 1.288666, 43.685678 ], [ 1.288944, 43.68555 ], [ 1.28983, 43.685069 ], [ 1.292412, 43.684105 ], [ 1.292739, 43.684045 ], [ 1.292955968499371, 43.68398887819756 ], [ 1.292866, 43.683641 ], [ 1.293307, 43.674836 ], [ 1.293158, 43.674508 ], [ 1.293316357554548, 43.672921139028077 ], [ 1.288014, 43.672803 ], [ 1.286148549741929, 43.674040798763762 ], [ 1.28854, 43.676847 ] ] ], [ [ [ 1.347624, 43.678187 ], [ 1.350422, 43.677367 ], [ 1.350602, 43.677333 ], [ 1.3507, 43.677289 ], [ 1.350886, 43.677155 ], [ 1.351007, 43.677027 ], [ 1.351391, 43.676612 ], [ 1.351789, 43.676181 ], [ 1.351877, 43.676 ], [ 1.351877, 43.675953 ], [ 1.351517, 43.675953 ], [ 1.34639, 43.676045 ], [ 1.346227, 43.676366 ], [ 1.343008, 43.680306 ], [ 1.344062, 43.679725 ], [ 1.345117, 43.679144 ], [ 1.345290923249141, 43.679458861054478 ], [ 1.34698, 43.678528 ], [ 1.347624, 43.678187 ] ] ], [ [ [ 1.341745, 43.681661 ], [ 1.342147255286779, 43.686823468279322 ], [ 1.343181, 43.680621 ], [ 1.341745, 43.681661 ] ] ], [ [ [ 1.3023, 43.691362 ], [ 1.302283, 43.691721 ], [ 1.306174, 43.697604 ], [ 1.306419, 43.697867 ], [ 1.31429, 43.700561 ], [ 1.315254, 43.704943 ], [ 1.315393, 43.705039 ], [ 1.315528, 43.705117 ], [ 1.315579, 43.705099 ], [ 1.322482, 43.702582 ], [ 1.326339, 43.698841 ], [ 1.333049, 43.698331 ], [ 1.341641, 43.696061 ], [ 1.349597, 43.695434 ], [ 1.349721, 43.695096 ], [ 1.348348, 43.692232 ], [ 1.348075, 43.691997 ], [ 1.342359821458982, 43.689551502334623 ], [ 1.342443, 43.690619 ], [ 1.342594, 43.690731 ], [ 1.343497, 43.691393 ], [ 1.343331, 43.691712 ], [ 1.340007, 43.691503 ], [ 1.33419, 43.694389 ], [ 1.33389, 43.69419 ], [ 1.325831, 43.693572 ], [ 1.324335, 43.695194 ], [ 1.321597, 43.697514 ], [ 1.320141, 43.699397 ], [ 1.319819, 43.699236 ], [ 1.316463, 43.697082 ], [ 1.310941, 43.694446 ], [ 1.310613, 43.694297 ], [ 1.30842, 43.692008 ], [ 1.301994, 43.686813 ], [ 1.296331370056557, 43.684774344636857 ], [ 1.302025, 43.688054 ], [ 1.3023, 43.691362 ] ] ], [ [ [ 1.293650346451728, 43.683809124729258 ], [ 1.29365, 43.683809 ], [ 1.293140949236095, 43.68394103045749 ], [ 1.293547, 43.683836 ], [ 1.293650346451728, 43.683809124729258 ] ] ] ] } },
{ "type": "Feature", "properties": { "codgeo": "31032", "value": 360, "isochrone_group": 6.0, "nb_agences": 1 }, "geometry": { "type": "MultiPolygon", "coordinates": [ [ [ [ 1.309801, 43.708815 ], [ 1.313499, 43.707133 ], [ 1.313695, 43.706945 ], [ 1.314155, 43.706456 ], [ 1.314614, 43.705966 ], [ 1.314876, 43.706212 ], [ 1.313885354160132, 43.711130953689278 ], [ 1.318368, 43.708685 ], [ 1.326505, 43.705201 ], [ 1.327231, 43.705366 ], [ 1.328635, 43.703938 ], [ 1.336343, 43.701239 ], [ 1.337443, 43.701826 ], [ 1.340766, 43.6993 ], [ 1.347627, 43.699297 ], [ 1.349372, 43.700162 ], [ 1.349439, 43.700144 ], [ 1.34997, 43.699906 ], [ 1.353888, 43.696698 ], [ 1.356559, 43.693457 ], [ 1.35603, 43.691768 ], [ 1.355768, 43.691534 ], [ 1.354259, 43.690688 ], [ 1.349701, 43.690104 ], [ 1.349064, 43.689779 ], [ 1.348748, 43.6897 ], [ 1.346726, 43.689778 ], [ 1.345872886589361, 43.681083566922894 ], [ 1.34563, 43.681122 ], [ 1.344848153766047, 43.679702793796409 ], [ 1.343181, 43.680621 ], [ 1.341737, 43.689285 ], [ 1.348075, 43.691997 ], [ 1.348348, 43.692232 ], [ 1.349721, 43.695096 ], [ 1.349597, 43.695434 ], [ 1.341641, 43.696061 ], [ 1.333049, 43.698331 ], [ 1.326339, 43.698841 ], [ 1.322482, 43.702582 ], [ 1.315579, 43.705099 ], [ 1.315528, 43.705117 ], [ 1.315393, 43.705039 ], [ 1.315254, 43.704943 ], [ 1.31429, 43.700561 ], [ 1.306419, 43.697867 ], [ 1.306174, 43.697604 ], [ 1.302283, 43.691721 ], [ 1.3023, 43.691362 ], [ 1.302025, 43.688054 ], [ 1.300058788422766, 43.686921419131828 ], [ 1.300289, 43.693416 ], [ 1.299702, 43.696968 ], [ 1.301962, 43.700206 ], [ 1.302864974929104, 43.701550789269106 ], [ 1.303142, 43.701365 ], [ 1.303643, 43.701028 ], [ 1.303844, 43.701327 ], [ 1.304185344423078, 43.703465586997808 ], [ 1.308205443746263, 43.70849361864888 ], [ 1.309801, 43.708815 ] ] ], [ [ [ 1.329353056282605, 43.660987594062604 ], [ 1.325317960015242, 43.661687915605853 ], [ 1.325439, 43.661822 ], [ 1.327061, 43.663755 ], [ 1.327057, 43.664115 ], [ 1.330839, 43.671915 ], [ 1.331727, 43.672085 ], [ 1.332094, 43.67241 ], [ 1.33216, 43.675934 ], [ 1.336552, 43.683583 ], [ 1.338413, 43.683246 ], [ 1.341065, 43.681808 ], [ 1.341498, 43.681399 ], [ 1.341948, 43.680977 ], [ 1.342145, 43.68083 ], [ 1.342362, 43.680669 ], [ 1.343008, 43.680306 ], [ 1.34430553722785, 43.678717837005991 ], [ 1.343893, 43.677969 ], [ 1.345605, 43.671066 ], [ 1.340657, 43.672684 ], [ 1.336552, 43.670975 ], [ 1.335074, 43.669661 ], [ 1.329558, 43.663517 ], [ 1.329353056282605, 43.660987594062604 ] ] ], [ [ [ 1.280764, 43.685282 ], [ 1.278499, 43.686487 ], [ 1.278192, 43.68664 ], [ 1.275353, 43.688055 ], [ 1.276334, 43.691519 ], [ 1.277721, 43.691468 ], [ 1.27808, 43.691438 ], [ 1.278921, 43.69122 ], [ 1.280083, 43.690816 ], [ 1.285567, 43.688567 ], [ 1.285947, 43.688481 ], [ 1.288297, 43.687604 ], [ 1.289018, 43.687299 ], [ 1.289622, 43.687022 ], [ 1.29148, 43.686016 ], [ 1.292534, 43.685721 ], [ 1.293027, 43.68564 ], [ 1.29475, 43.685197 ], [ 1.295596, 43.685028 ], [ 1.296559777906708, 43.684905912553674 ], [ 1.294343, 43.683629 ], [ 1.293547, 43.683836 ], [ 1.292739, 43.684045 ], [ 1.292412, 43.684105 ], [ 1.28983, 43.685069 ], [ 1.288944, 43.68555 ], [ 1.288666, 43.685678 ], [ 1.288384, 43.685809 ], [ 1.288058, 43.685947 ], [ 1.287725, 43.686089 ], [ 1.286641, 43.686498 ], [ 1.28554, 43.686913 ], [ 1.285347, 43.686962 ], [ 1.284901, 43.687023 ], [ 1.284454, 43.687084 ], [ 1.284405, 43.686728 ], [ 1.284852, 43.686666 ], [ 1.286514, 43.686161 ], [ 1.287598, 43.685752 ], [ 1.288798, 43.677098 ], [ 1.28854, 43.676847 ], [ 1.288083823936186, 43.676311708985715 ], [ 1.286757, 43.676381 ], [ 1.280189130585208, 43.678536865533104 ], [ 1.280764, 43.685282 ] ] ], [ [ [ 1.309956, 43.670447 ], [ 1.3103, 43.670447 ], [ 1.315383, 43.669651 ], [ 1.321777, 43.665619 ], [ 1.324653245428307, 43.661615870894849 ], [ 1.320947, 43.660885 ], [ 1.318241492246948, 43.660402812148817 ], [ 1.313106, 43.663554 ], [ 1.308555689073404, 43.664706548890301 ], [ 1.309536, 43.666241 ], [ 1.309424, 43.666355 ], [ 1.309179, 43.666508 ], [ 1.30658, 43.66756 ], [ 1.304006, 43.6686 ], [ 1.304158515592319, 43.669563262571103 ], [ 1.309956, 43.670447 ] ] ] ] } },
{ "type": "Feature", "properties": { "codgeo": "31032", "value": 420, "isochrone_group": 7.0, "nb_agences": 1 }, "geometry": { "type": "MultiPolygon", "coordinates": [ [ [ [ 1.270268, 43.687917 ], [ 1.26933, 43.688738 ], [ 1.268937, 43.6891 ], [ 1.268369, 43.689778 ], [ 1.267968, 43.690213 ], [ 1.268698391092131, 43.693688261071593 ], [ 1.270038, 43.694018 ], [ 1.271819, 43.694563 ], [ 1.271893039443156, 43.694608256846323 ], [ 1.275847, 43.694343 ], [ 1.280083, 43.690816 ], [ 1.278921, 43.69122 ], [ 1.27808, 43.691438 ], [ 1.277721, 43.691468 ], [ 1.276334, 43.691519 ], [ 1.275353, 43.688055 ], [ 1.278192, 43.68664 ], [ 1.278499, 43.686487 ], [ 1.280764, 43.685282 ], [ 1.28031675506866, 43.680034326138966 ], [ 1.276333, 43.684766 ], [ 1.276506, 43.686186 ], [ 1.276366, 43.686517 ], [ 1.271933, 43.68961 ], [ 1.271666, 43.689591 ], [ 1.271468, 43.68929 ], [ 1.269813806283186, 43.686709483658646 ], [ 1.270268, 43.687917 ] ] ], [ [ [ 1.340278248279591, 43.672526317493251 ], [ 1.340557495373306, 43.668190395716636 ], [ 1.338522, 43.666875 ], [ 1.334264, 43.664476 ], [ 1.331008586150573, 43.665132736277947 ], [ 1.335074, 43.669661 ], [ 1.336552, 43.670975 ], [ 1.340278248279591, 43.672526317493251 ] ] ], [ [ [ 1.343615, 43.706454 ], [ 1.345199, 43.70626 ], [ 1.345556, 43.705759 ], [ 1.346802, 43.704077 ], [ 1.348068, 43.702369 ], [ 1.355146, 43.698708 ], [ 1.356709, 43.697957 ], [ 1.356816, 43.697763 ], [ 1.358270300575491, 43.692362404170389 ], [ 1.357418, 43.692744 ], [ 1.355519, 43.690592 ], [ 1.355324, 43.690065 ], [ 1.355275, 43.689763 ], [ 1.355298, 43.689524 ], [ 1.35674, 43.686597 ], [ 1.35026, 43.681639 ], [ 1.346014078280594, 43.682522510087018 ], [ 1.346726, 43.689778 ], [ 1.348748, 43.6897 ], [ 1.349064, 43.689779 ], [ 1.349701, 43.690104 ], [ 1.354259, 43.690688 ], [ 1.355768, 43.691534 ], [ 1.35603, 43.691768 ], [ 1.356559, 43.693457 ], [ 1.353888, 43.696698 ], [ 1.34997, 43.699906 ], [ 1.349439, 43.700144 ], [ 1.349372, 43.700162 ], [ 1.347627, 43.699297 ], [ 1.340766, 43.6993 ], [ 1.337443, 43.701826 ], [ 1.336343, 43.701239 ], [ 1.328635, 43.703938 ], [ 1.327231261994765, 43.705365733526705 ], [ 1.329644, 43.705913 ], [ 1.331592, 43.706373 ], [ 1.33354, 43.706832 ], [ 1.339558, 43.704487 ], [ 1.343501, 43.706415 ], [ 1.343615, 43.706454 ] ] ], [ [ [ 1.299702, 43.696968 ], [ 1.300289, 43.693416 ], [ 1.299972, 43.684473 ], [ 1.297759, 43.684754 ], [ 1.295596, 43.685028 ], [ 1.29475, 43.685197 ], [ 1.293027, 43.68564 ], [ 1.292534, 43.685721 ], [ 1.29148, 43.686016 ], [ 1.289622, 43.687022 ], [ 1.289018, 43.687299 ], [ 1.288297, 43.687604 ], [ 1.294626, 43.693094 ], [ 1.294207, 43.696669 ], [ 1.29468, 43.696725 ], [ 1.298228054759246, 43.702677969643666 ], [ 1.302641, 43.701701 ], [ 1.302817212797726, 43.701479657724164 ], [ 1.301962, 43.700206 ], [ 1.299702, 43.696968 ] ] ] ] } },
{ "type": "Feature", "properties": { "codgeo": "31032", "value": 480, "isochrone_group": 8.0, "nb_agences": 1 }, "geometry": { "type": "MultiPolygon", "coordinates": [ [ [ [ 1.281676, 43.695075 ], [ 1.282654, 43.695121 ], [ 1.289717, 43.695632 ], [ 1.290305, 43.695726 ], [ 1.296245, 43.702044 ], [ 1.296244929239432, 43.702044696330631 ], [ 1.297794, 43.702202 ], [ 1.297891514137594, 43.70211331767505 ], [ 1.29468, 43.696725 ], [ 1.294207, 43.696669 ], [ 1.294626, 43.693094 ], [ 1.288297, 43.687604 ], [ 1.285947, 43.688481 ], [ 1.285567, 43.688567 ], [ 1.283991, 43.688899 ], [ 1.280083, 43.690816 ], [ 1.276787762970883, 43.693559697120321 ], [ 1.277898, 43.694689 ], [ 1.277902485279186, 43.694717490526884 ], [ 1.280936, 43.695013 ], [ 1.281676, 43.695075 ] ] ], [ [ [ 1.35772358360103, 43.694392656693154 ], [ 1.356816, 43.697763 ], [ 1.356709, 43.697957 ], [ 1.355146, 43.698708 ], [ 1.354491883500519, 43.69904633293369 ], [ 1.355059, 43.698948 ], [ 1.361064, 43.699816 ], [ 1.363077, 43.696832 ], [ 1.362768695940198, 43.691955434045397 ], [ 1.361059, 43.694761 ], [ 1.35772358360103, 43.694392656693154 ] ] ], [ [ [ 1.34864, 43.706824 ], [ 1.349648521767234, 43.701551496441105 ], [ 1.348068, 43.702369 ], [ 1.347815990928998, 43.702708993280623 ], [ 1.347816, 43.702709 ], [ 1.344678, 43.709204 ], [ 1.344626079998891, 43.709379627350685 ], [ 1.348063, 43.70738 ], [ 1.34864, 43.706824 ] ] ] ] } },
{ "type": "Feature", "properties": { "codgeo": "31032", "value": 540, "isochrone_group": 9.0, "nb_agences": 1 }, "geometry": { "type": "MultiPolygon", "coordinates": [ [ [ [ 1.256370685900269, 43.688676204616939 ], [ 1.25634, 43.688647 ], [ 1.256297709407999, 43.688674264190965 ], [ 1.256370685900269, 43.688676204616939 ] ] ], [ [ [ 1.289268, 43.696449 ], [ 1.291556, 43.703243 ], [ 1.291881295260111, 43.704075914722623 ], [ 1.294081, 43.701829 ], [ 1.294816884279317, 43.700525004187988 ], [ 1.290305, 43.695726 ], [ 1.289717, 43.695632 ], [ 1.282654, 43.695121 ], [ 1.281676, 43.695075 ], [ 1.280936, 43.695013 ], [ 1.28079246596593, 43.694999017649273 ], [ 1.280792, 43.695 ], [ 1.280418292824598, 43.695111618227614 ], [ 1.280381, 43.695294 ], [ 1.280743214870816, 43.696829137317124 ], [ 1.281354, 43.696744 ], [ 1.289268, 43.696449 ] ] ], [ [ [ 1.364017, 43.689907 ], [ 1.364863, 43.686596 ], [ 1.365385880842932, 43.685141571419543 ], [ 1.363380471116514, 43.686753290623528 ], [ 1.362784387844265, 43.687989495617309 ], [ 1.362617, 43.689556 ], [ 1.36274877612212, 43.691640354488136 ], [ 1.364017, 43.689907 ] ] ], [ [ [ 1.355059, 43.698948 ], [ 1.350969150025643, 43.699657143441712 ], [ 1.349756, 43.705135 ], [ 1.349176, 43.70619 ], [ 1.348964, 43.706512 ], [ 1.347827, 43.707687 ], [ 1.347399116960582, 43.707766252424513 ], [ 1.347115109434357, 43.707931490258694 ], [ 1.35076, 43.708406 ], [ 1.351055, 43.708115 ], [ 1.351296, 43.707824 ], [ 1.351617, 43.707303 ], [ 1.357968, 43.701146 ], [ 1.361895472370064, 43.700377228413416 ], [ 1.361063294233711, 43.699815897984166 ], [ 1.355059, 43.698948 ] ] ], [ [ [ 1.362927561278686, 43.69446826926896 ], [ 1.36295934558568, 43.694971014090008 ], [ 1.363196118668832, 43.695207873982731 ], [ 1.362927561278686, 43.69446826926896 ] ] ], [ [ [ 1.333779, 43.700316 ], [ 1.333462754911794, 43.700528380706061 ], [ 1.336409770245972, 43.70148894317542 ], [ 1.336343, 43.701239 ], [ 1.333779, 43.700316 ] ] ] ] } },
{ "type": "Feature", "properties": { "codgeo": "31032", "value": 600, "isochrone_group": 10.0, "nb_agences": 1 }, "geometry": { "type": "MultiPolygon", "coordinates": [ [ [ [ 1.249661, 43.672223 ], [ 1.249434569601673, 43.672516830439015 ], [ 1.253015, 43.673321 ], [ 1.255712357267381, 43.672363614969399 ], [ 1.256218322151679, 43.671871665296671 ], [ 1.250556, 43.671775 ], [ 1.250002, 43.672011 ], [ 1.249661, 43.672223 ] ] ], [ [ [ 1.366494042178273, 43.684491395208468 ], [ 1.36814, 43.683425 ], [ 1.368686, 43.680782 ], [ 1.371849, 43.674931 ], [ 1.367916, 43.681639 ], [ 1.366494042178273, 43.684491395208468 ] ] ], [ [ [ 1.261347, 43.668933 ], [ 1.258896460031012, 43.670620210195494 ], [ 1.259865, 43.670374 ], [ 1.261452352719785, 43.669876006989888 ], [ 1.268071, 43.667055 ], [ 1.268378, 43.666184 ], [ 1.271986, 43.660007 ], [ 1.271164252384332, 43.659062077160009 ], [ 1.269463, 43.663299 ], [ 1.262664, 43.668785 ], [ 1.261347, 43.668933 ] ] ], [ [ [ 1.331511, 43.721137 ], [ 1.326996011128007, 43.723538562995877 ], [ 1.328324, 43.724791 ], [ 1.332118, 43.723812 ], [ 1.334139252683593, 43.722562297636564 ], [ 1.331511, 43.721137 ] ] ] ] } },
{ "type": "Feature", "properties": { "codgeo": "31032", "value": 660, "isochrone_group": 11.0, "nb_agences": 1 }, "geometry": { "type": "MultiPolygon", "coordinates": [ [ [ [ 1.248856633579112, 43.673266796859082 ], [ 1.247502767140827, 43.673249149589459 ], [ 1.248395300984316, 43.673865451279404 ], [ 1.248856633579112, 43.673266796859082 ] ] ], [ [ [ 1.328245, 43.724875 ], [ 1.326304561306611, 43.728878028235442 ], [ 1.331171, 43.727987 ], [ 1.331505, 43.727485 ], [ 1.331832, 43.726426 ], [ 1.332389527273332, 43.723644119814622 ], [ 1.332118, 43.723812 ], [ 1.32832426142302, 43.724790932542668 ], [ 1.328245, 43.724875 ] ] ], [ [ [ 1.372047255140685, 43.694736772109692 ], [ 1.372098068204064, 43.694709060473727 ], [ 1.372722637437277, 43.692024493340526 ], [ 1.372705, 43.692027 ], [ 1.372447, 43.693054 ], [ 1.372047255140685, 43.694736772109692 ] ] ], [ [ [ 1.34027, 43.720711 ], [ 1.341819, 43.718442 ], [ 1.34213, 43.717823 ], [ 1.342232, 43.717254 ], [ 1.341931, 43.716093 ], [ 1.343228722442445, 43.709861687913794 ], [ 1.34113203097052, 43.711036008897025 ], [ 1.340954187033427, 43.711168335855973 ], [ 1.339805, 43.714995 ], [ 1.340136, 43.718646 ], [ 1.339652, 43.719134 ], [ 1.339076, 43.71951 ], [ 1.334167302482476, 43.722544954975618 ], [ 1.34027, 43.720711 ] ] ] ] } },
{ "type": "Feature", "properties": { "codgeo": "31032", "value": 720, "isochrone_group": 12.0, "nb_agences": 1 }, "geometry": { "type": "MultiPolygon", "coordinates": [ [ [ [ 1.359386760607906, 43.640835640236467 ], [ 1.354880292320102, 43.643564135619002 ], [ 1.356744205645924, 43.643217687678991 ], [ 1.359386760607906, 43.640835640236467 ] ] ], [ [ [ 1.265389, 43.65536 ], [ 1.265266730819919, 43.655047680305508 ], [ 1.265177, 43.655277 ], [ 1.265389, 43.65536 ] ] ], [ [ [ 1.242046, 43.670691 ], [ 1.242591763654366, 43.67098189394622 ], [ 1.242785, 43.668593 ], [ 1.242777, 43.668585 ], [ 1.241262456609592, 43.668359616299178 ], [ 1.241859, 43.670367 ], [ 1.242046, 43.670691 ] ] ], [ [ [ 1.238128600298868, 43.676470821517526 ], [ 1.238121374386777, 43.675333278462801 ], [ 1.237836930733206, 43.67644973917934 ], [ 1.238128600298868, 43.676470821517526 ] ] ], [ [ [ 1.323997, 43.734152 ], [ 1.324182, 43.733864 ], [ 1.324401, 43.733388 ], [ 1.324496, 43.732609 ], [ 1.325799030527911, 43.728970589187313 ], [ 1.324202, 43.729263 ], [ 1.324126964441787, 43.729344429411604 ], [ 1.323717805246476, 43.734285558070553 ], [ 1.323997, 43.734152 ] ] ], [ [ [ 1.336147, 43.723036 ], [ 1.339452, 43.722099 ], [ 1.340085, 43.721001 ], [ 1.341819, 43.718442 ], [ 1.34027, 43.720711 ], [ 1.33251, 43.723043 ], [ 1.332334730277448, 43.723917539043349 ], [ 1.336147, 43.723036 ] ] ], [ [ [ 1.369485106907138, 43.683117011808207 ], [ 1.367916, 43.681639 ], [ 1.365007465649924, 43.683986331277367 ], [ 1.369485106907138, 43.683117011808207 ] ] ], [ [ [ 1.37276222045255, 43.674395392084513 ], [ 1.372535121838585, 43.675604971078471 ], [ 1.372999, 43.674999 ], [ 1.374677, 43.674086 ], [ 1.376181, 43.672726 ], [ 1.377200244323972, 43.67184002611409 ], [ 1.375544, 43.67266 ], [ 1.374398, 43.673436 ], [ 1.37276222045255, 43.674395392084513 ] ] ], [ [ [ 1.367916, 43.681639 ], [ 1.370481402738641, 43.678287775489942 ], [ 1.36934533561784, 43.679201170525182 ], [ 1.367916, 43.681639 ] ] ] ] } },
{ "type": "Feature", "properties": { "codgeo": "31032", "value": 780, "isochrone_group": 13.0, "nb_agences": 1 }, "geometry": { "type": "MultiPolygon", "coordinates": [ [ [ [ 1.363735, 43.636589 ], [ 1.365284176559614, 43.635407829413637 ], [ 1.364547, 43.635605 ], [ 1.360612, 43.637354 ], [ 1.358805, 43.640381 ], [ 1.354874949522962, 43.643565128691485 ], [ 1.354880292320102, 43.643564135619002 ], [ 1.359386760607906, 43.640835640236467 ], [ 1.362436, 43.638087 ], [ 1.362614025750378, 43.637751475577375 ], [ 1.3628, 43.637327 ], [ 1.362883416161293, 43.637243756542986 ], [ 1.362913, 43.637188 ], [ 1.363135783612964, 43.63699191159121 ], [ 1.363283, 43.636845 ], [ 1.363338243364454, 43.636813711722773 ], [ 1.363372, 43.636784 ], [ 1.3634704681777, 43.63673882333299 ], [ 1.363735, 43.636589 ] ] ], [ [ [ 1.315763, 43.741837 ], [ 1.320098, 43.739494 ], [ 1.320249, 43.739396 ], [ 1.320324171675306, 43.73590896662769 ], [ 1.318520127959696, 43.736771964928444 ], [ 1.316755, 43.739454 ], [ 1.312352, 43.742165 ], [ 1.312081112690139, 43.744456876128631 ], [ 1.315763, 43.741837 ] ] ], [ [ [ 1.381394479052309, 43.669709570036581 ], [ 1.377242113042355, 43.671803631904922 ], [ 1.37690190574513, 43.672099355681873 ], [ 1.378884, 43.671281 ], [ 1.380446196027548, 43.671024474201985 ], [ 1.381244, 43.669932 ], [ 1.381394479052309, 43.669709570036581 ] ] ], [ [ [ 1.384078, 43.668528 ], [ 1.383747626230222, 43.668664545610497 ], [ 1.383877914731894, 43.668673522983788 ], [ 1.384078, 43.668528 ] ] ], [ [ [ 1.384412, 43.668353 ], [ 1.385258, 43.667786 ], [ 1.38533, 43.66773 ], [ 1.385312235195093, 43.667635323229668 ], [ 1.384412, 43.668353 ] ] ] ] } },
{ "type": "Feature", "properties": { "codgeo": "31032", "value": 840, "isochrone_group": 14.0, "nb_agences": 1 }, "geometry": { "type": "MultiPolygon", "coordinates": [ [ [ [ 1.239366, 43.661583 ], [ 1.239053695665235, 43.661613864247499 ], [ 1.239379, 43.661839 ], [ 1.239644584329444, 43.664231794376256 ], [ 1.240681, 43.666403 ], [ 1.239371, 43.661625 ], [ 1.239366, 43.661583 ] ] ], [ [ [ 1.324062561824645, 43.729555195791633 ], [ 1.323821, 43.729677 ], [ 1.323820580976291, 43.729676613890561 ], [ 1.321612, 43.732074 ], [ 1.320366031390211, 43.733967195046397 ], [ 1.320249, 43.739396 ], [ 1.320098, 43.739494 ], [ 1.320982, 43.739182 ], [ 1.322163, 43.735781 ], [ 1.324062561824645, 43.729555195791633 ] ] ], [ [ [ 1.375594, 43.677099 ], [ 1.375946997746214, 43.676974820435717 ], [ 1.37514023914855, 43.675131710063802 ], [ 1.374424, 43.675236 ], [ 1.371849, 43.674931 ], [ 1.370018423325703, 43.678309577167489 ], [ 1.375594, 43.677099 ] ] ] ] } },
{ "type": "Feature", "properties": { "codgeo": "31032", "value": 900, "isochrone_group": 15.0, "nb_agences": 1 }, "geometry": { "type": "MultiPolygon", "coordinates": [ [ [ [ 1.236429932901151, 43.659798017542791 ], [ 1.23624, 43.659503 ], [ 1.236429932901148, 43.659798017542791 ], [ 1.236429932901151, 43.659798017542791 ] ] ], [ [ [ 1.388988810646039, 43.665070737972528 ], [ 1.388667366596761, 43.664960577916943 ], [ 1.387485901704367, 43.665902453898781 ], [ 1.387021427241259, 43.666481647958179 ], [ 1.388988810646039, 43.665070737972528 ] ] ], [ [ [ 1.374899491352931, 43.674510396773599 ], [ 1.375981888075462, 43.676829327179149 ], [ 1.376154, 43.676902 ], [ 1.377032772934876, 43.675698650814134 ], [ 1.375863846717958, 43.67331282117047 ], [ 1.374899491352931, 43.674510396773599 ] ] ] ] } },
{ "type": "Feature", "properties": { "codgeo": "31032", "value": 960, "isochrone_group": 16.0, "nb_agences": 1 }, "geometry": { "type": "Polygon", "coordinates": [ [ [ 1.395174728082951, 43.66778841211184 ], [ 1.395209437140101, 43.668000776408114 ], [ 1.395265577289199, 43.66799721790629 ], [ 1.395174728082951, 43.66778841211184 ] ] ] } }
]
}
