{
"type": "FeatureCollection",
"name": "Credit_Agricole",
"crs": { "type": "name", "properties": { "name": "urn:ogc:def:crs:OGC:1.3:CRS84" } },
"features": [
{ "type": "Feature", "properties": { "codgeo": "31232", "value": 60, "isochrone_group": 1.0, "nb_agences": 2 }, "geometry": { "type": "Polygon", "coordinates": [ [ [ 1.291018, 43.774328 ], [ 1.291206, 43.774388 ], [ 1.292105, 43.774563 ], [ 1.294369, 43.774169 ], [ 1.294999, 43.774073 ], [ 1.295439, 43.773893 ], [ 1.295698, 43.773601 ], [ 1.295557, 43.772824 ], [ 1.29525, 43.772044 ], [ 1.294975, 43.771812 ], [ 1.29163, 43.772713 ], [ 1.291479, 43.77304 ], [ 1.291126, 43.773985 ], [ 1.291018, 43.774328 ] ] ] } },
{ "type": "Feature", "properties": { "codgeo": "31232", "value": 120, "isochrone_group": 2.0, "nb_agences": 2 }, "geometry": { "type": "Polygon", "coordinates": [ [ [ 1.285607, 43.78107 ], [ 1.290052, 43.777983 ], [ 1.295113, 43.776206 ], [ 1.29534, 43.775927 ], [ 1.296192, 43.774848 ], [ 1.298117, 43.77203 ], [ 1.298158, 43.771673 ], [ 1.297408, 43.76943 ], [ 1.297135, 43.769195 ], [ 1.292975, 43.76951 ], [ 1.289, 43.771508 ], [ 1.288255, 43.772669 ], [ 1.288108, 43.772998 ], [ 1.286906, 43.776945 ], [ 1.285334, 43.780836 ], [ 1.285607, 43.78107 ] ], [ [ 1.291126, 43.773985 ], [ 1.291479, 43.77304 ], [ 1.29163, 43.772713 ], [ 1.294975, 43.771812 ], [ 1.29525, 43.772044 ], [ 1.295557, 43.772824 ], [ 1.295698, 43.773601 ], [ 1.295439, 43.773893 ], [ 1.294999, 43.774073 ], [ 1.294369, 43.774169 ], [ 1.292105, 43.774563 ], [ 1.291206, 43.774388 ], [ 1.291018, 43.774328 ], [ 1.291126, 43.773985 ] ] ] } },
{ "type": "Feature", "properties": { "codgeo": "31232", "value": 180, "isochrone_group": 3.0, "nb_agences": 2 }, "geometry": { "type": "Polygon", "coordinates": [ [ [ 1.276248, 43.783739 ], [ 1.276105, 43.78407 ], [ 1.276352, 43.784177 ], [ 1.276405826906146, 43.784174862443955 ], [ 1.276402, 43.784191 ], [ 1.27673, 43.784269 ], [ 1.277087, 43.784285 ], [ 1.27731, 43.784267 ], [ 1.283982, 43.783874 ], [ 1.284129, 43.783795 ], [ 1.288078, 43.781418 ], [ 1.293453, 43.778825 ], [ 1.296101, 43.777158 ], [ 1.302546, 43.773629 ], [ 1.305868, 43.776507 ], [ 1.306043, 43.77688 ], [ 1.306369, 43.776726 ], [ 1.306584, 43.775902 ], [ 1.305694, 43.773788 ], [ 1.305508, 43.77348 ], [ 1.299956, 43.767892 ], [ 1.298085, 43.766917 ], [ 1.290196, 43.766115 ], [ 1.288686, 43.766884 ], [ 1.286835, 43.770243 ], [ 1.28485, 43.775202 ], [ 1.284693, 43.775526 ], [ 1.282957, 43.78166 ], [ 1.277708, 43.783389 ], [ 1.276248, 43.783739 ] ], [ [ 1.286906, 43.776945 ], [ 1.288108, 43.772998 ], [ 1.288255, 43.772669 ], [ 1.289, 43.771508 ], [ 1.292975, 43.76951 ], [ 1.297135, 43.769195 ], [ 1.297408, 43.76943 ], [ 1.298158, 43.771673 ], [ 1.298117, 43.77203 ], [ 1.296192, 43.774848 ], [ 1.29534, 43.775927 ], [ 1.295113, 43.776206 ], [ 1.290052, 43.777983 ], [ 1.285607, 43.78107 ], [ 1.285334, 43.780836 ], [ 1.286906, 43.776945 ] ] ] } },
{ "type": "Feature", "properties": { "codgeo": "31232", "value": 240, "isochrone_group": 4.0, "nb_agences": 2 }, "geometry": { "type": "MultiPolygon", "coordinates": [ [ [ [ 1.273042, 43.782624 ], [ 1.27304186526758, 43.782624388212056 ], [ 1.272682, 43.7825 ], [ 1.272564, 43.78284 ], [ 1.271938, 43.785758 ], [ 1.27225, 43.785938 ], [ 1.274026, 43.785381 ], [ 1.278002243135523, 43.784226224887242 ], [ 1.27731, 43.784267 ], [ 1.277087, 43.784285 ], [ 1.27673, 43.784269 ], [ 1.276402, 43.784191 ], [ 1.276405826906146, 43.784174862443955 ], [ 1.276352, 43.784177 ], [ 1.276105, 43.78407 ], [ 1.276248, 43.783739 ], [ 1.277708, 43.783389 ], [ 1.282957, 43.78166 ], [ 1.284693, 43.775526 ], [ 1.28485, 43.775202 ], [ 1.286835, 43.770243 ], [ 1.288686, 43.766884 ], [ 1.290196, 43.766115 ], [ 1.298085, 43.766917 ], [ 1.299956, 43.767892 ], [ 1.305508, 43.77348 ], [ 1.305694, 43.773788 ], [ 1.306584, 43.775902 ], [ 1.306369, 43.776726 ], [ 1.306043, 43.77688 ], [ 1.305868, 43.776507 ], [ 1.305560584951899, 43.776240672333415 ], [ 1.306196, 43.777205 ], [ 1.306626, 43.778115 ], [ 1.307631, 43.781252 ], [ 1.307955, 43.78141 ], [ 1.308835, 43.78088 ], [ 1.308988, 43.780739 ], [ 1.308439, 43.773025 ], [ 1.308372, 43.772672 ], [ 1.305416, 43.768591 ], [ 1.299051, 43.762678 ], [ 1.298972, 43.762621 ], [ 1.2911, 43.761841 ], [ 1.289181, 43.761923 ], [ 1.288828, 43.761991 ], [ 1.285641, 43.763019 ], [ 1.280539, 43.7669 ], [ 1.278644, 43.769825 ], [ 1.278622, 43.770184 ], [ 1.279349, 43.773531 ], [ 1.279498, 43.773859 ], [ 1.279696537031762, 43.781821327658861 ], [ 1.279693602791927, 43.781880785377247 ], [ 1.273864, 43.782922 ], [ 1.273602, 43.782818 ], [ 1.273322, 43.782721 ], [ 1.273042, 43.782624 ] ] ], [ [ [ 1.28771, 43.781793 ], [ 1.293228, 43.779443 ], [ 1.296101, 43.777158 ], [ 1.293453, 43.778825 ], [ 1.288078, 43.781418 ], [ 1.284129, 43.783795 ], [ 1.28771, 43.781793 ] ] ], [ [ [ 1.303697375052806, 43.774626488682102 ], [ 1.302546, 43.773629 ], [ 1.296101, 43.777158 ], [ 1.303697375052806, 43.774626488682102 ] ] ] ] } },
{ "type": "Feature", "properties": { "codgeo": "31232", "value": 300, "isochrone_group": 5.0, "nb_agences": 2 }, "geometry": { "type": "Polygon", "coordinates": [ [ [ 1.271561, 43.764039 ], [ 1.271376, 43.76399 ], [ 1.268821, 43.769093 ], [ 1.268719, 43.769438 ], [ 1.270286, 43.770878 ], [ 1.268131, 43.779523 ], [ 1.267895, 43.779795 ], [ 1.26862, 43.783046 ], [ 1.266267, 43.789389 ], [ 1.26712, 43.793524 ], [ 1.267416, 43.79373 ], [ 1.269198, 43.792251 ], [ 1.276659, 43.78736 ], [ 1.283982, 43.783874 ], [ 1.283539, 43.783837 ], [ 1.283185, 43.78379 ], [ 1.279735, 43.783723 ], [ 1.274026, 43.785381 ], [ 1.27225, 43.785938 ], [ 1.271938, 43.785758 ], [ 1.272564, 43.78284 ], [ 1.272682, 43.7825 ], [ 1.27304186526758, 43.782624388212056 ], [ 1.273042, 43.782624 ], [ 1.273322, 43.782721 ], [ 1.273602, 43.782818 ], [ 1.273864, 43.782922 ], [ 1.279693602791927, 43.781880785377247 ], [ 1.279696537031762, 43.781821327658861 ], [ 1.279498, 43.773859 ], [ 1.279349, 43.773531 ], [ 1.278622, 43.770184 ], [ 1.278644, 43.769825 ], [ 1.280539, 43.7669 ], [ 1.285641, 43.763019 ], [ 1.288828, 43.761991 ], [ 1.289181, 43.761923 ], [ 1.2911, 43.761841 ], [ 1.298972, 43.762621 ], [ 1.299051, 43.762678 ], [ 1.305416, 43.768591 ], [ 1.308372, 43.772672 ], [ 1.308439, 43.773025 ], [ 1.308988, 43.780739 ], [ 1.308835, 43.78088 ], [ 1.307955, 43.78141 ], [ 1.307631, 43.781252 ], [ 1.306626, 43.778115 ], [ 1.306196, 43.777205 ], [ 1.304353, 43.774408 ], [ 1.296101, 43.777158 ], [ 1.301591, 43.783917 ], [ 1.30146, 43.784157 ], [ 1.301387, 43.784344 ], [ 1.301313, 43.784532 ], [ 1.30131391076039, 43.784532480197633 ], [ 1.301292, 43.784589 ], [ 1.301234, 43.78482 ], [ 1.306018, 43.787517 ], [ 1.306374, 43.787464 ], [ 1.313477, 43.785344 ], [ 1.316387, 43.782612 ], [ 1.316501, 43.78227 ], [ 1.316482, 43.782264 ], [ 1.316374928088122, 43.782228215735636 ], [ 1.316375, 43.782228 ], [ 1.316312, 43.782207 ], [ 1.314576, 43.781627 ], [ 1.310612, 43.778541 ], [ 1.309214, 43.772878 ], [ 1.309147, 43.772525 ], [ 1.30816, 43.767755 ], [ 1.304977, 43.765221 ], [ 1.301137, 43.759061 ], [ 1.300993, 43.758829 ], [ 1.300981, 43.758827 ], [ 1.300813, 43.758905 ], [ 1.300285, 43.759201 ], [ 1.297131, 43.760839 ], [ 1.296434750206879, 43.761007431736161 ], [ 1.296064954061525, 43.760828778657178 ], [ 1.288901, 43.757152 ], [ 1.288566, 43.75702 ], [ 1.284817, 43.755694 ], [ 1.284566, 43.755952 ], [ 1.280035, 43.760373 ], [ 1.280008948294793, 43.760426422484102 ], [ 1.277361332537907, 43.761746148734957 ], [ 1.271746, 43.764088 ], [ 1.271561, 43.764039 ] ] ] } },
{ "type": "Feature", "properties": { "codgeo": "31232", "value": 360, "isochrone_group": 6.0, "nb_agences": 2 }, "geometry": { "type": "MultiPolygon", "coordinates": [ [ [ [ 1.263578, 43.77807 ], [ 1.259852, 43.782362 ], [ 1.261725, 43.78824 ], [ 1.26254, 43.790116 ], [ 1.262704, 43.790436 ], [ 1.263997, 43.793127 ], [ 1.262272, 43.800595 ], [ 1.262112, 43.800917 ], [ 1.261939, 43.801521 ], [ 1.262192, 43.801778 ], [ 1.264233, 43.800071 ], [ 1.264451, 43.799837 ], [ 1.264974, 43.799035 ], [ 1.26548, 43.798256 ], [ 1.26559, 43.798027 ], [ 1.267921, 43.794257 ], [ 1.269151, 43.792682 ], [ 1.269239, 43.79251 ], [ 1.269311830437408, 43.792176379350032 ], [ 1.269198, 43.792251 ], [ 1.267416, 43.79373 ], [ 1.26712, 43.793524 ], [ 1.266267, 43.789389 ], [ 1.26862, 43.783046 ], [ 1.267895, 43.779795 ], [ 1.268131, 43.779523 ], [ 1.270286, 43.770878 ], [ 1.268719, 43.769438 ], [ 1.268821, 43.769093 ], [ 1.271376, 43.76399 ], [ 1.271561, 43.764039 ], [ 1.271746, 43.764088 ], [ 1.277361332537907, 43.761746148734957 ], [ 1.280008948294793, 43.760426422484102 ], [ 1.280035, 43.760373 ], [ 1.284566, 43.755952 ], [ 1.284817, 43.755694 ], [ 1.288566, 43.75702 ], [ 1.288901, 43.757152 ], [ 1.296064954061525, 43.760828778657178 ], [ 1.296434750206879, 43.761007431736161 ], [ 1.297131, 43.760839 ], [ 1.300285, 43.759201 ], [ 1.300813, 43.758905 ], [ 1.300981, 43.758827 ], [ 1.300993, 43.758829 ], [ 1.301137, 43.759061 ], [ 1.304977, 43.765221 ], [ 1.30816, 43.767755 ], [ 1.309147, 43.772525 ], [ 1.309214, 43.772878 ], [ 1.310612, 43.778541 ], [ 1.311095, 43.770182 ], [ 1.308847, 43.766781 ], [ 1.306781, 43.763642 ], [ 1.306506, 43.76341 ], [ 1.304090814936173, 43.758262331407131 ], [ 1.303178801162608, 43.755327736316062 ], [ 1.303572, 43.754023 ], [ 1.303247, 43.753869 ], [ 1.298634, 43.756474 ], [ 1.292586988139546, 43.756449421589558 ], [ 1.290156051959538, 43.756302476294813 ], [ 1.288688, 43.754515 ], [ 1.287038, 43.750512 ], [ 1.28697892521487, 43.75041973371188 ], [ 1.286769, 43.750684 ], [ 1.285914, 43.751846 ], [ 1.285555, 43.75182 ], [ 1.285576, 43.751522 ], [ 1.28519, 43.748289 ], [ 1.285044526642929, 43.748154862229192 ], [ 1.279221, 43.751246 ], [ 1.276453, 43.751305 ], [ 1.276079, 43.751271 ], [ 1.274267, 43.751038 ], [ 1.274181, 43.751387 ], [ 1.275548, 43.758236 ], [ 1.271495, 43.762095 ], [ 1.26478, 43.761384 ], [ 1.264455, 43.761228 ], [ 1.262357, 43.761187 ], [ 1.26153, 43.761446 ], [ 1.258691, 43.766206 ], [ 1.258592, 43.766553 ], [ 1.260173, 43.767004 ], [ 1.260465312641074, 43.767087385832461 ], [ 1.265285005442954, 43.773035401359721 ], [ 1.265703, 43.773696 ], [ 1.263822, 43.777805 ], [ 1.263578, 43.77807 ] ] ], [ [ [ 1.283982, 43.783874 ], [ 1.276659, 43.78736 ], [ 1.275117720764289, 43.788370373507838 ], [ 1.277195, 43.787588 ], [ 1.283982, 43.783874 ] ] ], [ [ [ 1.296494, 43.787213 ], [ 1.296809, 43.792249 ], [ 1.297145, 43.792378 ], [ 1.305698, 43.794799 ], [ 1.306058, 43.794794 ], [ 1.312734, 43.792298 ], [ 1.317507, 43.788234 ], [ 1.321805, 43.785025 ], [ 1.322287, 43.78379 ], [ 1.319095, 43.780224 ], [ 1.310612, 43.778541 ], [ 1.314576, 43.781627 ], [ 1.316312, 43.782207 ], [ 1.316375, 43.782228 ], [ 1.316374928088122, 43.782228215735636 ], [ 1.316482, 43.782264 ], [ 1.316501, 43.78227 ], [ 1.316387, 43.782612 ], [ 1.313477, 43.785344 ], [ 1.306374, 43.787464 ], [ 1.306018, 43.787517 ], [ 1.301234, 43.78482 ], [ 1.301292, 43.784589 ], [ 1.30131391076039, 43.784532480197633 ], [ 1.301313, 43.784532 ], [ 1.301387, 43.784344 ], [ 1.30146, 43.784157 ], [ 1.301591, 43.783917 ], [ 1.296101, 43.777158 ], [ 1.29431, 43.778165 ], [ 1.293228, 43.779443 ], [ 1.296635, 43.786882 ], [ 1.296494, 43.787213 ] ] ] ] } },
{ "type": "Feature", "properties": { "codgeo": "31232", "value": 420, "isochrone_group": 7.0, "nb_agences": 2 }, "geometry": { "type": "MultiPolygon", "coordinates": [ [ [ [ 1.250154393913102, 43.789075163958202 ], [ 1.258338725928021, 43.790884051041076 ], [ 1.259881, 43.797585 ], [ 1.257974, 43.800638 ], [ 1.255268, 43.806834 ], [ 1.257323, 43.80979 ], [ 1.25809, 43.809256 ], [ 1.258139147942517, 43.809219846396246 ], [ 1.25814, 43.809221 ], [ 1.260229, 43.807754 ], [ 1.260742, 43.8073 ], [ 1.261039, 43.806981 ], [ 1.261365, 43.806561 ], [ 1.262021, 43.805627 ], [ 1.262571, 43.804788 ], [ 1.265648, 43.800928 ], [ 1.268965, 43.796921 ], [ 1.270296, 43.793829 ], [ 1.270729, 43.793145 ], [ 1.271659, 43.790156 ], [ 1.272065431688091, 43.789519968646694 ], [ 1.269697, 43.790412 ], [ 1.269239, 43.79251 ], [ 1.269151, 43.792682 ], [ 1.267921, 43.794257 ], [ 1.26559, 43.798027 ], [ 1.26548, 43.798256 ], [ 1.264974, 43.799035 ], [ 1.264451, 43.799837 ], [ 1.264233, 43.800071 ], [ 1.262192, 43.801778 ], [ 1.261939, 43.801521 ], [ 1.262112, 43.800917 ], [ 1.262272, 43.800595 ], [ 1.263997, 43.793127 ], [ 1.262704, 43.790436 ], [ 1.26254, 43.790116 ], [ 1.261725, 43.78824 ], [ 1.259852, 43.782362 ], [ 1.263578, 43.77807 ], [ 1.263822, 43.777805 ], [ 1.265703, 43.773696 ], [ 1.265285005442954, 43.773035401359721 ], [ 1.260465312641074, 43.767087385832461 ], [ 1.260173, 43.767004 ], [ 1.258592, 43.766553 ], [ 1.258691, 43.766206 ], [ 1.26153, 43.761446 ], [ 1.262357, 43.761187 ], [ 1.264455, 43.761228 ], [ 1.26478, 43.761384 ], [ 1.271495, 43.762095 ], [ 1.275548, 43.758236 ], [ 1.274181, 43.751387 ], [ 1.274267, 43.751038 ], [ 1.276079, 43.751271 ], [ 1.276453, 43.751305 ], [ 1.279221, 43.751246 ], [ 1.279489207310485, 43.751103635106929 ], [ 1.27693582944559, 43.747470637732377 ], [ 1.273496, 43.746194 ], [ 1.266969, 43.745927 ], [ 1.263588, 43.747162 ], [ 1.258011, 43.753561 ], [ 1.25694, 43.754516 ], [ 1.255462, 43.756103 ], [ 1.249667, 43.761956 ], [ 1.248746, 43.765436 ], [ 1.249395, 43.766211 ], [ 1.252947, 43.766797 ], [ 1.254344, 43.76702 ], [ 1.258685, 43.768264 ], [ 1.259975, 43.775241 ], [ 1.259058, 43.778232 ], [ 1.254561, 43.782978 ], [ 1.250302, 43.783732 ], [ 1.244767, 43.78742 ], [ 1.246253, 43.790699 ], [ 1.249378, 43.789283 ], [ 1.250154393913102, 43.789075163958202 ] ] ], [ [ [ 1.292586988139546, 43.756449421589558 ], [ 1.298634, 43.756474 ], [ 1.300592113803827, 43.755368236622814 ], [ 1.299838, 43.753064 ], [ 1.299944, 43.752356 ], [ 1.299839822490024, 43.750390007908088 ], [ 1.298587, 43.751829 ], [ 1.294394, 43.754669 ], [ 1.288564810552501, 43.750662181232933 ], [ 1.288928, 43.753163 ], [ 1.288848796811778, 43.754710783594348 ], [ 1.290156051959538, 43.756302476294813 ], [ 1.292586988139546, 43.756449421589558 ] ] ], [ [ [ 1.306506, 43.76341 ], [ 1.306781, 43.763642 ], [ 1.308847, 43.766781 ], [ 1.309030874366441, 43.767059183594412 ], [ 1.311567, 43.761508 ], [ 1.308794, 43.759211 ], [ 1.308601733105066, 43.755526306151665 ], [ 1.304109, 43.756898 ], [ 1.303728055242993, 43.75709507621243 ], [ 1.304090814936173, 43.758262331407131 ], [ 1.306506, 43.76341 ] ] ], [ [ [ 1.293489, 43.796056 ], [ 1.292973771501464, 43.797366819070632 ], [ 1.294862, 43.794316 ], [ 1.296780309019819, 43.791790308646995 ], [ 1.296494, 43.787213 ], [ 1.296635, 43.786882 ], [ 1.293228, 43.779443 ], [ 1.288337, 43.78113 ], [ 1.287845, 43.781678 ], [ 1.28771, 43.781793 ], [ 1.287649, 43.781819 ], [ 1.286771319340173, 43.782311698006758 ], [ 1.292832, 43.786572 ], [ 1.294227, 43.792532 ], [ 1.293489, 43.796056 ] ] ], [ [ [ 1.305361, 43.798366 ], [ 1.306033, 43.800991 ], [ 1.306099, 43.801414 ], [ 1.306104594658341, 43.801413138315709 ], [ 1.306139, 43.801616 ], [ 1.30628, 43.80216 ], [ 1.309765, 43.801258 ], [ 1.309591, 43.800442 ], [ 1.3095, 43.79899 ], [ 1.30893, 43.797294 ], [ 1.308788937384909, 43.79377296649001 ], [ 1.306058, 43.794794 ], [ 1.305698, 43.794799 ], [ 1.298267466692271, 43.792695723823456 ], [ 1.299904, 43.795639 ], [ 1.3000555718764, 43.798579896805393 ], [ 1.305361, 43.798366 ] ] ], [ [ [ 1.330714156441948, 43.789425246033858 ], [ 1.330455, 43.788408 ], [ 1.328219, 43.787488 ], [ 1.32959, 43.784159 ], [ 1.331825, 43.785079 ], [ 1.33297500785598, 43.785020416932788 ], [ 1.32853, 43.778148 ], [ 1.325611, 43.776041 ], [ 1.320819, 43.777098 ], [ 1.319962, 43.777084 ], [ 1.319412711140777, 43.777180366466553 ], [ 1.319048, 43.77717 ], [ 1.311021, 43.776917 ], [ 1.310740266695161, 43.776321162929911 ], [ 1.310612, 43.778541 ], [ 1.319095, 43.780224 ], [ 1.322287, 43.78379 ], [ 1.321805, 43.785025 ], [ 1.317507, 43.788234 ], [ 1.316168543250269, 43.789373637173881 ], [ 1.32018, 43.792191 ], [ 1.32365, 43.791229 ], [ 1.330714156441948, 43.789425246033858 ] ] ] ] } },
{ "type": "Feature", "properties": { "codgeo": "31232", "value": 480, "isochrone_group": 8.0, "nb_agences": 2 }, "geometry": { "type": "MultiPolygon", "coordinates": [ [ [ [ 1.237278, 43.794765 ], [ 1.23763, 43.794606 ], [ 1.240569, 43.793274 ], [ 1.248853, 43.793816 ], [ 1.254215, 43.799358 ], [ 1.25154820046253, 43.806584733691651 ], [ 1.255421441860097, 43.806482660101572 ], [ 1.257974, 43.800638 ], [ 1.259881, 43.797585 ], [ 1.258338725928021, 43.790884051041076 ], [ 1.250154393913102, 43.789075163958202 ], [ 1.249378, 43.789283 ], [ 1.246253, 43.790699 ], [ 1.244767, 43.78742 ], [ 1.250302, 43.783732 ], [ 1.254561, 43.782978 ], [ 1.249242, 43.783088 ], [ 1.24753559453661, 43.781928910025222 ], [ 1.246213, 43.78103 ], [ 1.244189, 43.784007 ], [ 1.239084, 43.789995 ], [ 1.236151, 43.791324 ], [ 1.234905, 43.791885 ], [ 1.235177, 43.793847 ], [ 1.236384, 43.795167 ], [ 1.237277432236319, 43.794764740381574 ], [ 1.237278, 43.794765 ] ] ], [ [ [ 1.256383, 43.813437 ], [ 1.257097531737049, 43.812731712585254 ], [ 1.253984335116965, 43.813348679791439 ], [ 1.253894801399282, 43.813721096777861 ], [ 1.256383, 43.813437 ] ] ], [ [ [ 1.26111, 43.808946 ], [ 1.262571, 43.804788 ], [ 1.262021, 43.805627 ], [ 1.261365, 43.806561 ], [ 1.261039, 43.806981 ], [ 1.260742, 43.8073 ], [ 1.260229, 43.807754 ], [ 1.258259428953142, 43.809137131031939 ], [ 1.260050280222781, 43.809817165563977 ], [ 1.260325, 43.809546 ], [ 1.26111, 43.808946 ] ] ], [ [ [ 1.270296, 43.793829 ], [ 1.268965, 43.796921 ], [ 1.265648, 43.800928 ], [ 1.262571, 43.804788 ], [ 1.267652, 43.79996 ], [ 1.268745, 43.797537 ], [ 1.268941, 43.7971 ], [ 1.270296, 43.793829 ] ] ], [ [ [ 1.290387, 43.795189 ], [ 1.290267, 43.79622 ], [ 1.290265704200849, 43.79636856440122 ], [ 1.292619, 43.794153 ], [ 1.294004064055668, 43.791579528151829 ], [ 1.292832, 43.786572 ], [ 1.286712, 43.78227 ], [ 1.291144, 43.788355 ], [ 1.291304, 43.793207 ], [ 1.290416, 43.794993 ], [ 1.290387, 43.795189 ] ] ], [ [ [ 1.313631970518015, 43.800246241752284 ], [ 1.313632, 43.800246 ], [ 1.313055, 43.799824 ], [ 1.312929, 43.799713 ], [ 1.312659, 43.799466 ], [ 1.312229, 43.799132 ], [ 1.31172, 43.798853 ], [ 1.308726, 43.792202 ], [ 1.30893, 43.797294 ], [ 1.3095, 43.79899 ], [ 1.309591, 43.800442 ], [ 1.309765, 43.801258 ], [ 1.309059840916751, 43.801440511762706 ], [ 1.309198, 43.80164 ], [ 1.31007, 43.805477 ], [ 1.313088151659696, 43.805329664194133 ], [ 1.313674, 43.800277 ], [ 1.313631970518015, 43.800246241752284 ] ] ], [ [ [ 1.321209, 43.794318 ], [ 1.321696, 43.794777 ], [ 1.322073, 43.795054 ], [ 1.322275, 43.795176 ], [ 1.323115, 43.795813 ], [ 1.324061, 43.796483 ], [ 1.325664, 43.797534 ], [ 1.326506, 43.798125 ], [ 1.326771, 43.798275 ], [ 1.326771990869485, 43.798273257205942 ], [ 1.326872, 43.798329 ], [ 1.327365, 43.798613 ], [ 1.329307, 43.795582 ], [ 1.329954103700789, 43.795168360816092 ], [ 1.330373178135954, 43.789512311060932 ], [ 1.32365, 43.791229 ], [ 1.32018, 43.792191 ], [ 1.314899, 43.788482 ], [ 1.320276, 43.792516 ], [ 1.320556, 43.793256 ], [ 1.320788, 43.79372 ], [ 1.321209, 43.794318 ] ] ], [ [ [ 1.333196, 43.77519 ], [ 1.334758, 43.772444 ], [ 1.331629, 43.770664 ], [ 1.327032, 43.774336 ], [ 1.319441, 43.775025 ], [ 1.311021, 43.776917 ], [ 1.319048, 43.77717 ], [ 1.319412711140777, 43.777180366466553 ], [ 1.319962, 43.777084 ], [ 1.320819, 43.777098 ], [ 1.325611, 43.776041 ], [ 1.32853, 43.778148 ], [ 1.331683431545011, 43.783023513620805 ], [ 1.333457, 43.78336 ], [ 1.33552942894398, 43.783034185959288 ], [ 1.333034344285566, 43.775997669699414 ], [ 1.333196, 43.77519 ] ] ], [ [ [ 1.311943211891793, 43.759917756419235 ], [ 1.311887828058574, 43.757636824223226 ], [ 1.308769183664561, 43.758735407992575 ], [ 1.308794, 43.759211 ], [ 1.311567, 43.761508 ], [ 1.308591, 43.768022 ], [ 1.311391, 43.766111 ], [ 1.313543, 43.763225 ], [ 1.312003, 43.760981 ], [ 1.311943211891793, 43.759917756419235 ] ] ], [ [ [ 1.251458, 43.748532 ], [ 1.248488, 43.750568 ], [ 1.249206, 43.751962 ], [ 1.24902, 43.758466 ], [ 1.244737, 43.761138 ], [ 1.241497, 43.760848 ], [ 1.240291, 43.76075 ], [ 1.240290959072345, 43.760750065849493 ], [ 1.239502, 43.760686 ], [ 1.23921, 43.764275 ], [ 1.241205, 43.764437 ], [ 1.2485, 43.768678 ], [ 1.251417, 43.770789 ], [ 1.257107, 43.777338 ], [ 1.254561, 43.782978 ], [ 1.259058, 43.778232 ], [ 1.259975, 43.775241 ], [ 1.258685, 43.768264 ], [ 1.254344, 43.76702 ], [ 1.252947, 43.766797 ], [ 1.249395, 43.766211 ], [ 1.248746, 43.765436 ], [ 1.249667, 43.761956 ], [ 1.255462, 43.756103 ], [ 1.25694, 43.754516 ], [ 1.258011, 43.753561 ], [ 1.263587543935504, 43.747162523284338 ], [ 1.263569, 43.747112 ], [ 1.263305, 43.746192 ], [ 1.263122465992384, 43.745841022677389 ], [ 1.256262, 43.751023 ], [ 1.252199441874803, 43.749209665445335 ], [ 1.251458, 43.748532 ] ] ] ] } },
{ "type": "Feature", "properties": { "codgeo": "31232", "value": 540, "isochrone_group": 9.0, "nb_agences": 2 }, "geometry": { "type": "MultiPolygon", "coordinates": [ [ [ [ 1.228056, 43.799028 ], [ 1.229705, 43.799102 ], [ 1.237415, 43.799062 ], [ 1.23768, 43.79838 ], [ 1.237821, 43.797873 ], [ 1.240569, 43.793274 ], [ 1.23763, 43.794606 ], [ 1.237278, 43.794765 ], [ 1.237277432236319, 43.794764740381574 ], [ 1.236384, 43.795167 ], [ 1.235177, 43.793847 ], [ 1.234905, 43.791885 ], [ 1.236151, 43.791324 ], [ 1.239084, 43.789995 ], [ 1.244189, 43.784007 ], [ 1.246213, 43.78103 ], [ 1.24753559453661, 43.781928910025222 ], [ 1.249242, 43.783088 ], [ 1.254561, 43.782978 ], [ 1.257107, 43.777338 ], [ 1.251417, 43.770789 ], [ 1.2485, 43.768678 ], [ 1.245349491413884, 43.766846429484076 ], [ 1.247145, 43.770896 ], [ 1.246347, 43.772772 ], [ 1.246081, 43.773136 ], [ 1.242885, 43.777713 ], [ 1.241529, 43.780256 ], [ 1.238207142109148, 43.787865967099492 ], [ 1.238104023212238, 43.788019417838939 ], [ 1.233836, 43.790583 ], [ 1.233028, 43.790892 ], [ 1.233024352246248, 43.790893786320794 ], [ 1.232935, 43.790928 ], [ 1.225136, 43.79454 ], [ 1.224194, 43.794799 ], [ 1.222822, 43.796122 ], [ 1.224766, 43.799152 ], [ 1.228056, 43.799028 ] ] ], [ [ [ 1.254215, 43.799358 ], [ 1.248853, 43.793816 ], [ 1.245768844813763, 43.793614211961511 ], [ 1.249852, 43.796628 ], [ 1.250945, 43.79873 ], [ 1.250150568418084, 43.801522989524834 ], [ 1.248916571809113, 43.804262927958995 ], [ 1.250404, 43.803337 ], [ 1.250949, 43.803432 ], [ 1.252730747964975, 43.803380159910304 ], [ 1.254215, 43.799358 ] ] ], [ [ [ 1.266993, 43.810156 ], [ 1.26699347116056, 43.810156028821218 ], [ 1.266992950402353, 43.81015589971237 ], [ 1.266993, 43.810156 ] ] ], [ [ [ 1.263773258662639, 43.803645605821046 ], [ 1.265590389396234, 43.807319887730962 ], [ 1.265257567314059, 43.802235205866538 ], [ 1.263773258662639, 43.803645605821046 ] ] ], [ [ [ 1.270296, 43.793829 ], [ 1.268941, 43.7971 ], [ 1.268745, 43.797537 ], [ 1.267652, 43.79996 ], [ 1.266275435690479, 43.801268020564137 ], [ 1.269437, 43.800965 ], [ 1.269661007394536, 43.800415448378672 ], [ 1.271614, 43.798272 ], [ 1.270729, 43.793145 ], [ 1.270296, 43.793829 ] ] ], [ [ [ 1.284995394236774, 43.813515382614192 ], [ 1.2862, 43.808079 ], [ 1.285535349708104, 43.807436465917462 ], [ 1.284435, 43.812982 ], [ 1.284995394236774, 43.813515382614192 ] ] ], [ [ [ 1.322963002690977, 43.797755647444589 ], [ 1.322516593447843, 43.795359208364609 ], [ 1.322275, 43.795176 ], [ 1.322073, 43.795054 ], [ 1.321696, 43.794777 ], [ 1.321209, 43.794318 ], [ 1.321098249571295, 43.794160687039501 ], [ 1.315349, 43.793145 ], [ 1.3151248245425, 43.793247412787956 ], [ 1.315042, 43.793292 ], [ 1.314967078678025, 43.793319477740795 ], [ 1.314874, 43.793362 ], [ 1.314436172210384, 43.793514190139199 ], [ 1.313905, 43.793709 ], [ 1.313788633696713, 43.793739276300656 ], [ 1.313706, 43.793768 ], [ 1.313553989032182, 43.793800326383035 ], [ 1.313463, 43.793824 ], [ 1.313384984487212, 43.793836266590063 ], [ 1.313311, 43.793852 ], [ 1.313166916407316, 43.793870554023997 ], [ 1.312986, 43.793899 ], [ 1.311339246952204, 43.798007178850725 ], [ 1.31172, 43.798853 ], [ 1.312229, 43.799132 ], [ 1.312659, 43.799466 ], [ 1.312929, 43.799713 ], [ 1.313055, 43.799824 ], [ 1.313632, 43.800246 ], [ 1.313631970518015, 43.800246241752284 ], [ 1.313674, 43.800277 ], [ 1.313289945484635, 43.803589288121167 ], [ 1.317596980958707, 43.804227148705579 ], [ 1.318472, 43.802961 ], [ 1.322963002690977, 43.797755647444589 ] ] ], [ [ [ 1.286712, 43.78227 ], [ 1.283209, 43.783612 ], [ 1.281974, 43.784877 ], [ 1.287928, 43.791555 ], [ 1.287572944114464, 43.795217170956057 ], [ 1.290968, 43.792527 ], [ 1.291251076504977, 43.791602095013431 ], [ 1.291144, 43.788355 ], [ 1.286712, 43.78227 ] ] ], [ [ [ 1.338009, 43.767328 ], [ 1.336172708833523, 43.765431802642333 ], [ 1.335944, 43.765569 ], [ 1.333394, 43.767047 ], [ 1.333031, 43.767286 ], [ 1.331045, 43.764284 ], [ 1.330980934555936, 43.764045045002483 ], [ 1.329998, 43.765383 ], [ 1.330094, 43.765674 ], [ 1.330388, 43.766858 ], [ 1.330567, 43.767463 ], [ 1.330793, 43.768108 ], [ 1.324396806226659, 43.774185466184512 ], [ 1.317616226705317, 43.774689240190554 ], [ 1.317543151117402, 43.774514303987964 ], [ 1.315234, 43.768059 ], [ 1.316467, 43.764677 ], [ 1.315543, 43.760109 ], [ 1.313934, 43.752754 ], [ 1.312955493591179, 43.750245808383767 ], [ 1.315354644444247, 43.742407161692661 ], [ 1.315901, 43.741679 ], [ 1.317637, 43.739702 ], [ 1.321106, 43.733155 ], [ 1.321791210949497, 43.731879468830172 ], [ 1.321612, 43.732074 ], [ 1.316755, 43.739454 ], [ 1.312352, 43.742165 ], [ 1.311425, 43.750008 ], [ 1.311623, 43.750551 ], [ 1.311998, 43.752085 ], [ 1.311952, 43.752278 ], [ 1.311808, 43.752709 ], [ 1.311770965966512, 43.752823966521333 ], [ 1.311943211891793, 43.759917756419235 ], [ 1.312003, 43.760981 ], [ 1.313543, 43.763225 ], [ 1.311391, 43.766111 ], [ 1.308591, 43.768022 ], [ 1.307615, 43.769688 ], [ 1.311021, 43.776917 ], [ 1.319441, 43.775025 ], [ 1.327032, 43.774336 ], [ 1.331629, 43.770664 ], [ 1.334758, 43.772444 ], [ 1.333196, 43.77519 ], [ 1.333034344285566, 43.775997669699414 ], [ 1.335090708837498, 43.781796928877696 ], [ 1.338583, 43.780878 ], [ 1.344523619380018, 43.778676796452636 ], [ 1.340214, 43.775202 ], [ 1.339464, 43.770621 ], [ 1.338009, 43.767328 ] ] ], [ [ [ 1.254301, 43.729013 ], [ 1.254300838437657, 43.729013168965118 ], [ 1.253968, 43.728695 ], [ 1.25148, 43.731297 ], [ 1.252577446933572, 43.732346078218221 ], [ 1.253325, 43.733061 ], [ 1.254837, 43.734507 ], [ 1.256435, 43.735982 ], [ 1.250211, 43.742471 ], [ 1.249426, 43.741791 ], [ 1.247976, 43.742154 ], [ 1.247927, 43.742168 ], [ 1.246266, 43.742621 ], [ 1.246337, 43.74364 ], [ 1.246566, 43.745139 ], [ 1.246737, 43.746021 ], [ 1.247039, 43.750581 ], [ 1.243942, 43.75649 ], [ 1.239626, 43.758479 ], [ 1.239169570744474, 43.758601806077721 ], [ 1.231222, 43.759869 ], [ 1.231067, 43.759855 ], [ 1.231066198649345, 43.759855617275299 ], [ 1.230279, 43.759788 ], [ 1.226593, 43.764896 ], [ 1.227509, 43.768378 ], [ 1.228687, 43.768068 ], [ 1.228779958405675, 43.76804085771446 ], [ 1.22878, 43.768041 ], [ 1.229872, 43.767722 ], [ 1.230403, 43.767612 ], [ 1.231621, 43.767406 ], [ 1.232191, 43.767264 ], [ 1.233009, 43.766971 ], [ 1.23485, 43.766201 ], [ 1.236787, 43.765876 ], [ 1.240109, 43.764489 ], [ 1.241416902051119, 43.764560190760626 ], [ 1.241205, 43.764437 ], [ 1.23921, 43.764275 ], [ 1.239502, 43.760686 ], [ 1.240290959072345, 43.760750065849493 ], [ 1.240291, 43.76075 ], [ 1.241497, 43.760848 ], [ 1.244737, 43.761138 ], [ 1.24902, 43.758466 ], [ 1.249206, 43.751962 ], [ 1.248488, 43.750568 ], [ 1.251458, 43.748532 ], [ 1.252199441874803, 43.749209665445335 ], [ 1.256262, 43.751023 ], [ 1.263239, 43.745753 ], [ 1.262172306850758, 43.742518556341672 ], [ 1.259626, 43.739118 ], [ 1.26047, 43.736067 ], [ 1.260255843351741, 43.732392131403827 ], [ 1.257325, 43.731905 ], [ 1.255647, 43.7303 ], [ 1.255065446922593, 43.72974407820773 ], [ 1.254301, 43.729013 ] ] ] ] } },
{ "type": "Feature", "properties": { "codgeo": "31232", "value": 600, "isochrone_group": 10.0, "nb_agences": 2 }, "geometry": { "type": "MultiPolygon", "coordinates": [ [ [ [ 1.217107, 43.798194 ], [ 1.21458, 43.801366 ], [ 1.214527, 43.804145 ], [ 1.214594, 43.804197 ], [ 1.216542, 43.804385 ], [ 1.221194, 43.803493 ], [ 1.222863, 43.802781 ], [ 1.222974, 43.802599 ], [ 1.227385955126102, 43.799053253970939 ], [ 1.224766, 43.799152 ], [ 1.222822, 43.796122 ], [ 1.224194, 43.794799 ], [ 1.225136, 43.79454 ], [ 1.232935, 43.790928 ], [ 1.233024352246248, 43.790893786320794 ], [ 1.233028, 43.790892 ], [ 1.233836, 43.790583 ], [ 1.238104023212238, 43.788019417838939 ], [ 1.238207142109148, 43.787865967099492 ], [ 1.241529, 43.780256 ], [ 1.242885, 43.777713 ], [ 1.246081, 43.773136 ], [ 1.246347, 43.772772 ], [ 1.247145, 43.770896 ], [ 1.244408, 43.764723 ], [ 1.240109, 43.764489 ], [ 1.236787, 43.765876 ], [ 1.23485, 43.766201 ], [ 1.233009, 43.766971 ], [ 1.238656, 43.76773 ], [ 1.237211613447482, 43.776577117355245 ], [ 1.235242, 43.776242 ], [ 1.234637, 43.77979 ], [ 1.2334, 43.786205 ], [ 1.22774, 43.79148 ], [ 1.224195, 43.790856 ], [ 1.220519, 43.793223 ], [ 1.217107, 43.798194 ] ] ], [ [ [ 1.244654, 43.830097 ], [ 1.244430342974622, 43.830492425620875 ], [ 1.244074520446939, 43.831122356875845 ], [ 1.244654, 43.830097 ] ] ], [ [ [ 1.245427381676489, 43.827903071659378 ], [ 1.245215, 43.828833 ], [ 1.245190532517555, 43.828913721779706 ], [ 1.245175, 43.82898 ], [ 1.24669913227036, 43.826313754240459 ], [ 1.245497361392829, 43.827604463849006 ], [ 1.245427381676489, 43.827903071659378 ] ] ], [ [ [ 1.249852, 43.796628 ], [ 1.243506, 43.791944 ], [ 1.240569, 43.793274 ], [ 1.237821, 43.797873 ], [ 1.23768, 43.79838 ], [ 1.237415, 43.799062 ], [ 1.229705, 43.799102 ], [ 1.228056, 43.799028 ], [ 1.227737145185794, 43.799040017628272 ], [ 1.231831574349448, 43.804344527622995 ], [ 1.23619, 43.804745 ], [ 1.244523, 43.802029 ], [ 1.245193, 43.802077 ], [ 1.25038375841253, 43.800703161579158 ], [ 1.250945, 43.79873 ], [ 1.249852, 43.796628 ] ] ], [ [ [ 1.27633, 43.810982 ], [ 1.275263, 43.810154 ], [ 1.271591, 43.802446 ], [ 1.272204, 43.800861 ], [ 1.272054, 43.799212 ], [ 1.271575584155389, 43.79831416215648 ], [ 1.269661007394536, 43.800415448378672 ], [ 1.269437, 43.800965 ], [ 1.265201, 43.801371 ], [ 1.265522083103926, 43.806276339888605 ], [ 1.2669929631783, 43.810155902879842 ], [ 1.267312, 43.810235 ], [ 1.267311992838698, 43.810235028893295 ], [ 1.270289974349078, 43.810972809038979 ], [ 1.272682, 43.810504 ], [ 1.275304, 43.812971 ], [ 1.276286773692974, 43.813706867966658 ], [ 1.276334, 43.813616 ], [ 1.27633, 43.810982 ] ] ], [ [ [ 1.285871875182437, 43.794607892621748 ], [ 1.285833, 43.794701 ], [ 1.285814618216532, 43.794839334703802 ], [ 1.287850109638205, 43.792358388515296 ], [ 1.287922637065372, 43.791610315189068 ], [ 1.287369, 43.792148 ], [ 1.286993, 43.792549 ], [ 1.286276, 43.79364 ], [ 1.285872, 43.794607 ], [ 1.285871875182437, 43.794607892621748 ] ] ], [ [ [ 1.284044, 43.805822 ], [ 1.284151260326703, 43.803735801179542 ], [ 1.283819, 43.804415 ], [ 1.284044, 43.805822 ] ] ], [ [ [ 1.285535349708104, 43.807436465917462 ], [ 1.284487, 43.806423 ], [ 1.285535349708104, 43.807436465917462 ], [ 1.285535349708104, 43.807436465917462 ] ] ], [ [ [ 1.342141, 43.761743 ], [ 1.342140864700334, 43.761742787606124 ], [ 1.339195, 43.763619 ], [ 1.337963898285428, 43.767281426910955 ], [ 1.338009, 43.767328 ], [ 1.339464, 43.770621 ], [ 1.340214, 43.775202 ], [ 1.342335279632334, 43.776912363327121 ], [ 1.343955, 43.776346 ], [ 1.347552404188272, 43.774290741750846 ], [ 1.34514, 43.76818 ], [ 1.344149, 43.764719 ], [ 1.342141, 43.761743 ] ] ], [ [ [ 1.315653, 43.75696 ], [ 1.316115, 43.755635 ], [ 1.315869, 43.754354 ], [ 1.315395, 43.753805 ], [ 1.314078, 43.752847 ], [ 1.313893083377152, 43.752649119000267 ], [ 1.313934, 43.752754 ], [ 1.315543, 43.760109 ], [ 1.316467, 43.764677 ], [ 1.315234, 43.768059 ], [ 1.317543151117402, 43.774514303987964 ], [ 1.317616226705317, 43.774689240190554 ], [ 1.324396806226659, 43.774185466184512 ], [ 1.329507515435053, 43.769329427813346 ], [ 1.327876, 43.764818 ], [ 1.327780774819564, 43.764514376855658 ], [ 1.319295, 43.765502 ], [ 1.318449, 43.765255 ], [ 1.315653, 43.75696 ] ] ], [ [ [ 1.321006, 43.738759 ], [ 1.321316, 43.738531 ], [ 1.324002, 43.734144 ], [ 1.324182, 43.733864 ], [ 1.324401, 43.733388 ], [ 1.324496, 43.732609 ], [ 1.328245, 43.724875 ], [ 1.329284, 43.723773 ], [ 1.328299985064657, 43.722844967586752 ], [ 1.32435, 43.724946 ], [ 1.324127, 43.729344 ], [ 1.321791210949497, 43.731879468830172 ], [ 1.321106, 43.733155 ], [ 1.317637, 43.739702 ], [ 1.316897336678393, 43.740544346997012 ], [ 1.318769, 43.739877 ], [ 1.319428, 43.739777 ], [ 1.320098, 43.739494 ], [ 1.32066, 43.739032 ], [ 1.321006, 43.738759 ] ] ], [ [ [ 1.257325, 43.731905 ], [ 1.259852992812832, 43.732325174175152 ], [ 1.259805993344846, 43.732040146987877 ], [ 1.257325, 43.731905 ] ] ], [ [ [ 1.245397556155735, 43.735692506585792 ], [ 1.245908, 43.737185 ], [ 1.248158, 43.739663 ], [ 1.248181, 43.739695 ], [ 1.247231, 43.741433 ], [ 1.246763, 43.741643 ], [ 1.245274, 43.741818 ], [ 1.240953235040982, 43.739125596882388 ], [ 1.240609, 43.739356 ], [ 1.240049, 43.742912 ], [ 1.241108, 43.747039 ], [ 1.237448, 43.754936 ], [ 1.237147, 43.755266 ], [ 1.236938, 43.75554 ], [ 1.236648011059544, 43.756400876258965 ], [ 1.236624, 43.756429 ], [ 1.236268138884608, 43.757050239266434 ], [ 1.235375, 43.758484 ], [ 1.233032927468656, 43.759580258149732 ], [ 1.239169570744474, 43.758601806077721 ], [ 1.239626, 43.758479 ], [ 1.243942, 43.75649 ], [ 1.247039, 43.750581 ], [ 1.246737, 43.746021 ], [ 1.246566, 43.745139 ], [ 1.246337, 43.74364 ], [ 1.246266, 43.742621 ], [ 1.247927, 43.742168 ], [ 1.247976, 43.742154 ], [ 1.249426, 43.741791 ], [ 1.250211, 43.742471 ], [ 1.256435, 43.735982 ], [ 1.254837, 43.734507 ], [ 1.253325, 43.733061 ], [ 1.252577446933572, 43.732346078218221 ], [ 1.25148, 43.731297 ], [ 1.253967793908872, 43.728695215534202 ], [ 1.252009, 43.726822 ], [ 1.252001183967105, 43.726814285852072 ], [ 1.248427044517878, 43.728344980934359 ], [ 1.248448, 43.728365 ], [ 1.245397556155735, 43.735692506585792 ] ] ], [ [ [ 1.219056, 43.760042 ], [ 1.213661, 43.767035 ], [ 1.213482, 43.767167 ], [ 1.213495734761718, 43.767185487872077 ], [ 1.213113, 43.767534 ], [ 1.21281, 43.767908 ], [ 1.213522, 43.770419 ], [ 1.21418, 43.770777 ], [ 1.215287, 43.770521 ], [ 1.219435, 43.769393 ], [ 1.224172, 43.770025 ], [ 1.227738, 43.769531 ], [ 1.231621, 43.767406 ], [ 1.230403, 43.767612 ], [ 1.229872, 43.767722 ], [ 1.22878, 43.768041 ], [ 1.228779958405675, 43.76804085771446 ], [ 1.228687, 43.768068 ], [ 1.227509, 43.768378 ], [ 1.226593, 43.764896 ], [ 1.229100750484443, 43.761420799382918 ], [ 1.22897, 43.761482 ], [ 1.225455, 43.759327 ], [ 1.222258, 43.757917 ], [ 1.221275, 43.757207 ], [ 1.219056, 43.760042 ] ] ] ] } },
{ "type": "Feature", "properties": { "codgeo": "31232", "value": 660, "isochrone_group": 11.0, "nb_agences": 2 }, "geometry": { "type": "MultiPolygon", "coordinates": [ [ [ [ 1.217107, 43.798194 ], [ 1.217493395480659, 43.797631053946567 ], [ 1.216841, 43.798067 ], [ 1.213929, 43.795425 ], [ 1.212077, 43.795791 ], [ 1.210615, 43.79683 ], [ 1.206277, 43.798495 ], [ 1.205875, 43.802072 ], [ 1.20712861880065, 43.804571780516568 ], [ 1.209661, 43.802995 ], [ 1.210872, 43.801954 ], [ 1.214008, 43.800004 ], [ 1.215787209095139, 43.799850658785232 ], [ 1.217107, 43.798194 ] ] ], [ [ [ 1.224262416731461, 43.801563541030262 ], [ 1.22533, 43.801839 ], [ 1.226225, 43.801548 ], [ 1.229180500180865, 43.800909946424497 ], [ 1.227609, 43.798874 ], [ 1.224262416731461, 43.801563541030262 ] ] ], [ [ [ 1.284044, 43.805822 ], [ 1.283819, 43.804415 ], [ 1.284151260326703, 43.803735801179542 ], [ 1.284413, 43.798645 ], [ 1.283716, 43.796586 ], [ 1.284746, 43.793136 ], [ 1.286827101777113, 43.792801433697598 ], [ 1.286993, 43.792549 ], [ 1.287369, 43.792148 ], [ 1.289729, 43.789856 ], [ 1.286712, 43.78227 ], [ 1.283209, 43.783612 ], [ 1.281974, 43.784877 ], [ 1.280092, 43.785303 ], [ 1.272692277587212, 43.78856629353173 ], [ 1.270729, 43.793145 ], [ 1.271462, 43.798101 ], [ 1.272054, 43.799212 ], [ 1.272204, 43.800861 ], [ 1.271591, 43.802446 ], [ 1.275044362587695, 43.809695051967857 ], [ 1.27824, 43.812054 ], [ 1.279905985015695, 43.816008688839958 ], [ 1.284315, 43.816586 ], [ 1.2862, 43.808079 ], [ 1.284487, 43.806423 ], [ 1.284044, 43.805822 ] ] ], [ [ [ 1.317995, 43.763255 ], [ 1.317757250105551, 43.763202759165083 ], [ 1.318449, 43.765255 ], [ 1.319295, 43.765502 ], [ 1.327260558274697, 43.764574922640897 ], [ 1.327328, 43.764325 ], [ 1.327017571953535, 43.763538652356345 ], [ 1.327205, 43.764292 ], [ 1.319118, 43.76452 ], [ 1.317995, 43.763255 ] ] ], [ [ [ 1.323686912579384, 43.734658627146025 ], [ 1.321316, 43.738531 ], [ 1.321006, 43.738759 ], [ 1.32066, 43.739032 ], [ 1.320098, 43.739494 ], [ 1.319428, 43.739777 ], [ 1.323106, 43.739704 ], [ 1.323445, 43.73927 ], [ 1.323689, 43.738878 ], [ 1.323894, 43.737689 ], [ 1.323511, 43.736783 ], [ 1.323686912579384, 43.734658627146025 ] ] ], [ [ [ 1.328245, 43.724875 ], [ 1.328324268423143, 43.724790930736368 ], [ 1.32832426142302, 43.724790932542668 ], [ 1.328245, 43.724875 ] ] ], [ [ [ 1.256361, 43.726364 ], [ 1.253907, 43.72644 ], [ 1.253579, 43.726476 ], [ 1.252541696314846, 43.727331423174867 ], [ 1.254687, 43.729383 ], [ 1.257325, 43.731905 ], [ 1.256363194553413, 43.726364723564359 ], [ 1.256361, 43.726364 ] ] ], [ [ [ 1.223274, 43.75446 ], [ 1.221693, 43.753238 ], [ 1.218094, 43.753334 ], [ 1.212367, 43.753863 ], [ 1.211762, 43.754626 ], [ 1.211405, 43.7554 ], [ 1.213013, 43.75761 ], [ 1.212295029689081, 43.7642960386097 ], [ 1.212252281131537, 43.764604467045864 ], [ 1.210505, 43.767507 ], [ 1.210174, 43.767912 ], [ 1.209742, 43.768494 ], [ 1.203405, 43.773197 ], [ 1.202208, 43.774329 ], [ 1.202586, 43.775619 ], [ 1.202852741676904, 43.776197921999099 ], [ 1.202862, 43.776248 ], [ 1.202903, 43.776307 ], [ 1.203765, 43.777575 ], [ 1.204039398645378, 43.777443398645374 ], [ 1.20404, 43.777444 ], [ 1.205162, 43.776905 ], [ 1.206439, 43.77636 ], [ 1.207256, 43.775963 ], [ 1.207836, 43.775609 ], [ 1.208467, 43.775176 ], [ 1.209436, 43.774384 ], [ 1.209924, 43.773937 ], [ 1.213062, 43.772126 ], [ 1.216133, 43.771547 ], [ 1.224034, 43.773538 ], [ 1.230397, 43.776953 ], [ 1.231292251066384, 43.777860999894855 ], [ 1.231376, 43.778022 ], [ 1.231817, 43.778598 ], [ 1.232533931068994, 43.779120362049404 ], [ 1.232925, 43.779517 ], [ 1.234128666442033, 43.782426184134501 ], [ 1.234637, 43.77979 ], [ 1.235242, 43.776242 ], [ 1.237211613447482, 43.776577117355245 ], [ 1.238656, 43.76773 ], [ 1.233009, 43.766971 ], [ 1.232191, 43.767264 ], [ 1.231621, 43.767406 ], [ 1.227738, 43.769531 ], [ 1.224172, 43.770025 ], [ 1.219435, 43.769393 ], [ 1.215287, 43.770521 ], [ 1.21418, 43.770777 ], [ 1.213522, 43.770419 ], [ 1.21281, 43.767908 ], [ 1.213113, 43.767534 ], [ 1.213495734761718, 43.767185487872077 ], [ 1.213482, 43.767167 ], [ 1.213661, 43.767035 ], [ 1.219056, 43.760042 ], [ 1.221275, 43.757207 ], [ 1.222258, 43.757917 ], [ 1.225455, 43.759327 ], [ 1.22897, 43.761482 ], [ 1.235375, 43.758484 ], [ 1.236268138884608, 43.757050239266434 ], [ 1.236624, 43.756429 ], [ 1.236648011059544, 43.756400876258965 ], [ 1.236938, 43.75554 ], [ 1.237147, 43.755266 ], [ 1.237448, 43.754936 ], [ 1.241108, 43.747039 ], [ 1.240049, 43.742912 ], [ 1.240093514758386, 43.742629331284235 ], [ 1.233003, 43.740447 ], [ 1.232140375851065, 43.740830952317282 ], [ 1.232217, 43.741005 ], [ 1.235777, 43.747879 ], [ 1.231969, 43.753871 ], [ 1.223274, 43.75446 ] ] ], [ [ [ 1.246963116110814, 43.731931856835487 ], [ 1.246661, 43.732181 ], [ 1.246738396712995, 43.732471657910821 ], [ 1.246963116110814, 43.731931856835487 ] ] ], [ [ [ 1.223742, 43.787618 ], [ 1.223618, 43.788089 ], [ 1.223558, 43.78856 ], [ 1.223583, 43.789111 ], [ 1.22357555403472, 43.791254865233903 ], [ 1.224195, 43.790856 ], [ 1.22774, 43.79148 ], [ 1.2334, 43.786205 ], [ 1.233414322912018, 43.786130722327741 ], [ 1.227564, 43.787952 ], [ 1.224354, 43.786324 ], [ 1.224330141088121, 43.786371071532713 ], [ 1.22433, 43.786371 ], [ 1.223911, 43.787198 ], [ 1.223742, 43.787618 ] ] ] ] } },
{ "type": "Feature", "properties": { "codgeo": "31232", "value": 720, "isochrone_group": 12.0, "nb_agences": 2 }, "geometry": { "type": "MultiPolygon", "coordinates": [ [ [ [ 1.223478, 43.793632 ], [ 1.22357, 43.792854 ], [ 1.223583, 43.789111 ], [ 1.223558, 43.78856 ], [ 1.223618, 43.788089 ], [ 1.223742, 43.787618 ], [ 1.223911, 43.787198 ], [ 1.22433, 43.786371 ], [ 1.224330141088121, 43.786371071532713 ], [ 1.224354, 43.786324 ], [ 1.227564, 43.787952 ], [ 1.235405, 43.785511 ], [ 1.232925, 43.779517 ], [ 1.232533931068994, 43.779120362049404 ], [ 1.231817, 43.778598 ], [ 1.231376, 43.778022 ], [ 1.231292251066384, 43.777860999894855 ], [ 1.230397, 43.776953 ], [ 1.224034, 43.773538 ], [ 1.216133, 43.771547 ], [ 1.213062, 43.772126 ], [ 1.209924, 43.773937 ], [ 1.209436, 43.774384 ], [ 1.208467, 43.775176 ], [ 1.207836, 43.775609 ], [ 1.207256, 43.775963 ], [ 1.206439, 43.77636 ], [ 1.205162, 43.776905 ], [ 1.20404, 43.777444 ], [ 1.204039398645378, 43.777443398645374 ], [ 1.203765, 43.777575 ], [ 1.202903, 43.776307 ], [ 1.202862, 43.776248 ], [ 1.202852741676904, 43.776197921999099 ], [ 1.202586, 43.775619 ], [ 1.202208, 43.774329 ], [ 1.203405, 43.773197 ], [ 1.209016048217118, 43.769032764594435 ], [ 1.205901, 43.768859 ], [ 1.202762648891574, 43.770256897346883 ], [ 1.20261, 43.770317 ], [ 1.202399792731474, 43.770494506012142 ], [ 1.198541, 43.773595 ], [ 1.196108, 43.776248 ], [ 1.195596174900277, 43.777574457719183 ], [ 1.193887, 43.78008 ], [ 1.194296329369597, 43.781264148409143 ], [ 1.193742, 43.783328 ], [ 1.193844, 43.783417 ], [ 1.194644, 43.783708 ], [ 1.194769, 43.783732 ], [ 1.195118, 43.783768 ], [ 1.195199, 43.783755 ], [ 1.198205, 43.782769 ], [ 1.207055, 43.781244 ], [ 1.208574, 43.789691 ], [ 1.207528, 43.793135 ], [ 1.199703, 43.797478 ], [ 1.198226, 43.797278 ], [ 1.196083, 43.797056 ], [ 1.195713, 43.800637 ], [ 1.196191049325554, 43.800686522608629 ], [ 1.196191, 43.800687 ], [ 1.197856, 43.800859 ], [ 1.19954176589567, 43.809513726088909 ], [ 1.202744, 43.801591 ], [ 1.203294, 43.798033 ], [ 1.21057, 43.79463 ], [ 1.211518, 43.792893 ], [ 1.214678, 43.794619 ], [ 1.219613465159281, 43.796214373364265 ], [ 1.223478, 43.793632 ] ] ], [ [ [ 1.19951485156302, 43.809575267511384 ], [ 1.199517, 43.809575 ], [ 1.199517472602888, 43.809573830721575 ], [ 1.19951485156302, 43.809575267511384 ] ] ], [ [ [ 1.324458034202034, 43.75736288423311 ], [ 1.324287, 43.756075 ], [ 1.323045252444378, 43.755515350704577 ], [ 1.324458034202034, 43.75736288423311 ] ] ], [ [ [ 1.323774558568644, 43.764388715796507 ], [ 1.32508484125828, 43.764351774476694 ], [ 1.325242631252501, 43.764023862406717 ], [ 1.323774558568644, 43.764388715796507 ] ] ], [ [ [ 1.205699, 43.753612 ], [ 1.205189, 43.75612 ], [ 1.205837990046636, 43.756335804942701 ], [ 1.205838, 43.756336 ], [ 1.206425, 43.756531 ], [ 1.20824, 43.757231 ], [ 1.212273, 43.761582 ], [ 1.2108980346103, 43.766854102256239 ], [ 1.212252281131537, 43.764604467045864 ], [ 1.212295029689081, 43.7642960386097 ], [ 1.213013, 43.75761 ], [ 1.211405, 43.7554 ], [ 1.211762, 43.754626 ], [ 1.212367, 43.753863 ], [ 1.218094, 43.753334 ], [ 1.221693, 43.753238 ], [ 1.223274, 43.75446 ], [ 1.231969, 43.753871 ], [ 1.235777, 43.747879 ], [ 1.233676491738209, 43.743823130957438 ], [ 1.230531, 43.744661 ], [ 1.227581, 43.748478 ], [ 1.22432, 43.746954 ], [ 1.225363, 43.744721 ], [ 1.223918095537925, 43.741883491553367 ], [ 1.220246, 43.745958 ], [ 1.21959, 43.746076 ], [ 1.213374, 43.752483 ], [ 1.207874, 43.75196 ], [ 1.206325, 43.752704 ], [ 1.205699, 43.753612 ] ] ], [ [ [ 1.33303700451607, 43.722884626993363 ], [ 1.33251, 43.723043 ], [ 1.332353122812687, 43.723825766260582 ], [ 1.33303700451607, 43.722884626993363 ] ] ] ] } },
{ "type": "Feature", "properties": { "codgeo": "31232", "value": 780, "isochrone_group": 13.0, "nb_agences": 2 }, "geometry": { "type": "MultiPolygon", "coordinates": [ [ [ [ 1.207055, 43.781244 ], [ 1.198205, 43.782769 ], [ 1.195199, 43.783755 ], [ 1.195118, 43.783768 ], [ 1.194769, 43.783732 ], [ 1.194644, 43.783708 ], [ 1.193844, 43.783417 ], [ 1.193742, 43.783328 ], [ 1.194296329369597, 43.781264148409143 ], [ 1.193887, 43.78008 ], [ 1.195596174900277, 43.777574457719183 ], [ 1.196108, 43.776248 ], [ 1.198541, 43.773595 ], [ 1.202399792731474, 43.770494506012142 ], [ 1.20261, 43.770317 ], [ 1.202762648891574, 43.770256897346883 ], [ 1.205901, 43.768859 ], [ 1.210311, 43.769105 ], [ 1.212273, 43.761582 ], [ 1.20824, 43.757231 ], [ 1.206425, 43.756531 ], [ 1.205838, 43.756336 ], [ 1.205837990046636, 43.756335804942701 ], [ 1.205189, 43.75612 ], [ 1.205699, 43.753612 ], [ 1.206325, 43.752704 ], [ 1.206689291304573, 43.752529027288183 ], [ 1.203894, 43.75065 ], [ 1.201662, 43.749948 ], [ 1.197922, 43.750657 ], [ 1.196702, 43.754044 ], [ 1.197158, 43.754208 ], [ 1.197603, 43.754318 ], [ 1.197837650699618, 43.754341776898123 ], [ 1.197837, 43.75435 ], [ 1.198205, 43.754379 ], [ 1.198969, 43.754338 ], [ 1.201217, 43.754295 ], [ 1.204632, 43.755935 ], [ 1.20328, 43.763856 ], [ 1.202315, 43.764276 ], [ 1.200435, 43.764708 ], [ 1.194944, 43.769368 ], [ 1.195056, 43.772091 ], [ 1.190669, 43.777482 ], [ 1.187408, 43.77841 ], [ 1.185965, 43.779244 ], [ 1.185693, 43.779514 ], [ 1.184966, 43.781055 ], [ 1.187733, 43.7849 ], [ 1.192019, 43.7867 ], [ 1.191284, 43.795623 ], [ 1.18856, 43.795411 ], [ 1.187680648734206, 43.795342377270238 ], [ 1.187182, 43.79525 ], [ 1.186327, 43.796994 ], [ 1.186308, 43.798742 ], [ 1.19031354299105, 43.801930085237778 ], [ 1.191643, 43.799066 ], [ 1.191577, 43.797895 ], [ 1.191726, 43.797361 ], [ 1.194026, 43.796832 ], [ 1.198857, 43.796258 ], [ 1.205076, 43.792318 ], [ 1.206402, 43.788972 ], [ 1.208568894497751, 43.789662608836402 ], [ 1.207055, 43.781244 ] ] ], [ [ [ 1.3317, 43.74039 ], [ 1.331888370566944, 43.737639789722607 ], [ 1.331885, 43.737642 ], [ 1.331801, 43.738089 ], [ 1.330329806323705, 43.741455625426759 ], [ 1.3317, 43.74039 ] ] ], [ [ [ 1.313124, 43.758624 ], [ 1.315664, 43.760183 ], [ 1.317432916853592, 43.764982774390752 ], [ 1.317868, 43.765086 ], [ 1.318449, 43.765255 ], [ 1.319295, 43.765502 ], [ 1.325568, 43.763943 ], [ 1.324647, 43.75761 ], [ 1.323876427409161, 43.756602301047195 ], [ 1.319721, 43.756359 ], [ 1.317889, 43.75326 ], [ 1.316542, 43.75086 ], [ 1.316559261832584, 43.750826420177454 ], [ 1.311425, 43.750008 ], [ 1.311623, 43.750551 ], [ 1.311667, 43.750785 ], [ 1.313124, 43.758624 ] ] ], [ [ [ 1.213374, 43.752483 ], [ 1.217806242594633, 43.747914567196936 ], [ 1.215457032789249, 43.74381552356018 ], [ 1.215438, 43.743895 ], [ 1.214919, 43.744697 ], [ 1.214893, 43.74539 ], [ 1.215935, 43.748836 ], [ 1.211837186945556, 43.752336863049557 ], [ 1.213374, 43.752483 ] ] ] ] } },
{ "type": "Feature", "properties": { "codgeo": "31232", "value": 840, "isochrone_group": 14.0, "nb_agences": 2 }, "geometry": { "type": "MultiPolygon", "coordinates": [ [ [ [ 1.192019, 43.7867 ], [ 1.187733, 43.7849 ], [ 1.184966, 43.781055 ], [ 1.185693, 43.779514 ], [ 1.185965, 43.779244 ], [ 1.187408, 43.77841 ], [ 1.190669, 43.777482 ], [ 1.193685536652707, 43.773775104833653 ], [ 1.188444, 43.774977 ], [ 1.179687, 43.773139 ], [ 1.177458, 43.775966 ], [ 1.178046, 43.77643 ], [ 1.179692, 43.785085 ], [ 1.177887, 43.793015 ], [ 1.177069, 43.796521 ], [ 1.180041, 43.797548 ], [ 1.18173, 43.797884 ], [ 1.18260772248978, 43.798168798389639 ], [ 1.183701, 43.798002 ], [ 1.184273, 43.794448 ], [ 1.18784, 43.794485 ], [ 1.188306, 43.794475 ], [ 1.191284, 43.795623 ], [ 1.192019, 43.7867 ] ] ], [ [ [ 1.326045, 43.744788 ], [ 1.330329806323705, 43.741455625426759 ], [ 1.331801, 43.738089 ], [ 1.331885, 43.737642 ], [ 1.331888370566944, 43.737639789722607 ], [ 1.33189, 43.737616 ], [ 1.332072, 43.73695 ], [ 1.332092011732913, 43.736883004198518 ], [ 1.332092, 43.736883 ], [ 1.33221, 43.736488 ], [ 1.332426, 43.735943 ], [ 1.33253533772977, 43.735724692680961 ], [ 1.332486, 43.735812 ], [ 1.329568, 43.738088 ], [ 1.326525, 43.740013 ], [ 1.325398, 43.745247 ], [ 1.326045, 43.744788 ] ] ], [ [ [ 1.312601258578373, 43.750195499933923 ], [ 1.312463, 43.749856 ], [ 1.312323, 43.748409 ], [ 1.312363, 43.748286 ], [ 1.315327, 43.747452 ], [ 1.316093, 43.747195 ], [ 1.317388, 43.74735 ], [ 1.318165725115156, 43.747145810746922 ], [ 1.317063173023889, 43.741134276725489 ], [ 1.315763, 43.741837 ], [ 1.312081112690139, 43.744456876128631 ], [ 1.311425, 43.750008 ], [ 1.312601258578373, 43.750195499933923 ] ] ], [ [ [ 1.190003, 43.746791 ], [ 1.18943, 43.747312 ], [ 1.18911, 43.747689 ], [ 1.189065114435902, 43.747802032265838 ], [ 1.187736, 43.749587 ], [ 1.188205137876016, 43.749967652796187 ], [ 1.188205, 43.749968 ], [ 1.188579, 43.750271 ], [ 1.189489, 43.751019 ], [ 1.192997, 43.752628 ], [ 1.194335, 43.753095 ], [ 1.197110872699381, 43.757598331907452 ], [ 1.197766, 43.76242 ], [ 1.196888, 43.765575 ], [ 1.196513495481119, 43.768036029695516 ], [ 1.200435, 43.764708 ], [ 1.202315, 43.764276 ], [ 1.20328, 43.763856 ], [ 1.204632, 43.755935 ], [ 1.201217, 43.754295 ], [ 1.198969, 43.754338 ], [ 1.198205, 43.754379 ], [ 1.197837, 43.75435 ], [ 1.197837650699618, 43.754341776898123 ], [ 1.197603, 43.754318 ], [ 1.197158, 43.754208 ], [ 1.196702, 43.754044 ], [ 1.197922, 43.750657 ], [ 1.201662, 43.749948 ], [ 1.203894, 43.75065 ], [ 1.207561, 43.753115 ], [ 1.209269, 43.753781 ], [ 1.209462, 43.75382 ], [ 1.210004, 43.753903 ], [ 1.215069651248007, 43.749575288842735 ], [ 1.21491, 43.749176 ], [ 1.213771, 43.745761 ], [ 1.209513874517504, 43.739310222349587 ], [ 1.212765, 43.746371 ], [ 1.207221, 43.748745 ], [ 1.206512028058979, 43.748575294814465 ], [ 1.199893, 43.746475 ], [ 1.198625, 43.746241 ], [ 1.19689, 43.746587 ], [ 1.190003, 43.746791 ] ] ], [ [ [ 1.340284, 43.720686 ], [ 1.341148014926814, 43.719422905865954 ], [ 1.34108333940387, 43.719293216457842 ], [ 1.340898, 43.719521 ], [ 1.338165, 43.719697 ], [ 1.340284, 43.720686 ] ] ] ] } },
{ "type": "Feature", "properties": { "codgeo": "31232", "value": 900, "isochrone_group": 15.0, "nb_agences": 2 }, "geometry": { "type": "MultiPolygon", "coordinates": [ [ [ [ 1.318769, 43.739877 ], [ 1.316951438379421, 43.740525056878269 ], [ 1.317910443155399, 43.745753916252042 ], [ 1.323499787292176, 43.746130573185724 ], [ 1.323967458708848, 43.745998248351221 ], [ 1.324928365642093, 43.745711726997833 ], [ 1.325398, 43.745247 ], [ 1.326525, 43.740013 ], [ 1.329568, 43.738088 ], [ 1.332486, 43.735812 ], [ 1.33253533772977, 43.735724692680961 ], [ 1.332723, 43.73535 ], [ 1.334033, 43.729644 ], [ 1.331203912455312, 43.722862589584118 ], [ 1.329678286348986, 43.723354907595471 ], [ 1.328252874798578, 43.724866648269355 ], [ 1.326643, 43.726614 ], [ 1.323651216420432, 43.730903378259526 ], [ 1.322163, 43.735781 ], [ 1.320982, 43.739182 ], [ 1.320098, 43.739494 ], [ 1.319428, 43.739777 ], [ 1.318769, 43.739877 ] ] ], [ [ [ 1.18261520294673, 43.748211574887875 ], [ 1.182617, 43.748215 ], [ 1.183509, 43.748372 ], [ 1.188817626744061, 43.750467145939083 ], [ 1.188579, 43.750271 ], [ 1.188205, 43.749968 ], [ 1.188205137876016, 43.749967652796187 ], [ 1.187736, 43.749587 ], [ 1.189065114435902, 43.747802032265838 ], [ 1.18911, 43.747689 ], [ 1.18943, 43.747312 ], [ 1.190003, 43.746791 ], [ 1.194389615953572, 43.746661063938653 ], [ 1.192214350839259, 43.745103531035369 ], [ 1.190389, 43.745864 ], [ 1.187407, 43.744428 ], [ 1.187371139326475, 43.744405838909614 ], [ 1.186873, 43.744504 ], [ 1.18648918566106, 43.74453721885061 ], [ 1.184916627917377, 43.745366208336968 ], [ 1.181828611316133, 43.747839798589766 ], [ 1.181877, 43.748124 ], [ 1.182573, 43.748204 ], [ 1.18261520294673, 43.748211574887875 ] ] ], [ [ [ 1.206714, 43.742828 ], [ 1.200868, 43.746305 ], [ 1.200752521892029, 43.746747736322725 ], [ 1.206512028058979, 43.748575294814465 ], [ 1.207221, 43.748745 ], [ 1.210765693240678, 43.747227124503361 ], [ 1.206714, 43.742828 ] ] ], [ [ [ 1.171347, 43.773813 ], [ 1.175501180271055, 43.779562848923661 ], [ 1.175898400811894, 43.781560074973882 ], [ 1.175831, 43.782004 ], [ 1.174091073551394, 43.787967629965131 ], [ 1.17637, 43.787398 ], [ 1.177412, 43.788776 ], [ 1.177836, 43.789287 ], [ 1.178527823241707, 43.790199638057217 ], [ 1.179692, 43.785085 ], [ 1.178046, 43.77643 ], [ 1.177458, 43.775966 ], [ 1.179687, 43.773139 ], [ 1.188444, 43.774977 ], [ 1.195522, 43.773354 ], [ 1.196307, 43.769393 ], [ 1.196888, 43.765575 ], [ 1.197766, 43.76242 ], [ 1.197110872699381, 43.757598331907452 ], [ 1.194335, 43.753095 ], [ 1.192997, 43.752628 ], [ 1.195982, 43.760198 ], [ 1.194264, 43.76596 ], [ 1.190195, 43.772464 ], [ 1.186853, 43.771757 ], [ 1.184761, 43.770405 ], [ 1.179316, 43.769096 ], [ 1.176144, 43.76897 ], [ 1.172, 43.769787 ], [ 1.170636, 43.7707 ], [ 1.170465, 43.770893 ], [ 1.170069, 43.772826 ], [ 1.171347, 43.773813 ] ] ] ] } },
{ "type": "Feature", "properties": { "codgeo": "31232", "value": 960, "isochrone_group": 16.0, "nb_agences": 2 }, "geometry": { "type": "MultiPolygon", "coordinates": [ [ [ [ 1.192997, 43.752628 ], [ 1.19077308194551, 43.751474517769502 ], [ 1.19071, 43.751544 ], [ 1.190403, 43.751385 ], [ 1.185423500269296, 43.75258113379774 ], [ 1.192857, 43.756415 ], [ 1.192228, 43.75996 ], [ 1.191089, 43.767233 ], [ 1.191038, 43.767335 ], [ 1.191076, 43.767744 ], [ 1.19117, 43.768614 ], [ 1.190195, 43.772464 ], [ 1.194264, 43.76596 ], [ 1.195982, 43.760198 ], [ 1.192997, 43.752628 ] ] ], [ [ [ 1.170346, 43.780165 ], [ 1.170312577977882, 43.78255320401243 ], [ 1.174866937757958, 43.785308341099856 ], [ 1.175831, 43.782004 ], [ 1.175898400811894, 43.781560074973882 ], [ 1.175501180271055, 43.779562848923661 ], [ 1.171347, 43.773813 ], [ 1.170069, 43.772826 ], [ 1.170465, 43.770893 ], [ 1.170636, 43.7707 ], [ 1.172, 43.769787 ], [ 1.176144, 43.76897 ], [ 1.179316, 43.769096 ], [ 1.179391371402693, 43.769114119589737 ], [ 1.178159, 43.765865 ], [ 1.178767, 43.764522 ], [ 1.178809, 43.764349 ], [ 1.178800031221167, 43.764346823186607 ], [ 1.178856, 43.76405 ], [ 1.178876, 43.763735 ], [ 1.178905, 43.762249 ], [ 1.175305, 43.76218 ], [ 1.173882, 43.7644 ], [ 1.167232, 43.767328 ], [ 1.165649, 43.770561 ], [ 1.17033, 43.776152 ], [ 1.170346, 43.780165 ] ] ] ] } },
{ "type": "Feature", "properties": { "codgeo": "31232", "value": 1020, "isochrone_group": 17.0, "nb_agences": 2 }, "geometry": { "type": "Polygon", "coordinates": [ [ [ 1.173882, 43.7644 ], [ 1.175305, 43.76218 ], [ 1.178905, 43.762249 ], [ 1.178876, 43.763735 ], [ 1.178856, 43.76405 ], [ 1.178800031221167, 43.764346823186607 ], [ 1.178809, 43.764349 ], [ 1.178767, 43.764522 ], [ 1.178159, 43.765865 ], [ 1.18135, 43.774278 ], [ 1.187539, 43.774894 ], [ 1.190195, 43.772464 ], [ 1.19117, 43.768614 ], [ 1.191076, 43.767744 ], [ 1.191038, 43.767335 ], [ 1.191089, 43.767233 ], [ 1.192228, 43.75996 ], [ 1.192857, 43.756415 ], [ 1.186468665873175, 43.753120183401521 ], [ 1.184278535641047, 43.754195882414244 ], [ 1.181527, 43.756499 ], [ 1.181386, 43.760097 ], [ 1.178929, 43.761883 ], [ 1.175448, 43.760964 ], [ 1.175312732818045, 43.760963761883509 ], [ 1.175416, 43.761087 ], [ 1.170015, 43.763847 ], [ 1.163654379091324, 43.763823313687269 ], [ 1.161305091045274, 43.765580904883741 ], [ 1.161157, 43.7658 ], [ 1.160411, 43.769322 ], [ 1.160582661904463, 43.76985240025175 ], [ 1.161402, 43.768463 ], [ 1.164971, 43.768934 ], [ 1.166524352131129, 43.773609457901777 ], [ 1.17033, 43.776152 ], [ 1.165649, 43.770561 ], [ 1.167232, 43.767328 ], [ 1.173882, 43.7644 ] ] ] } }
]
}
