{
"type": "FeatureCollection",
"name": "Credit_Agricole",
"crs": { "type": "name", "properties": { "name": "urn:ogc:def:crs:OGC:1.3:CRS84" } },
"features": [
{ "type": "Feature", "properties": { "codgeo": "31588", "value": 60, "isochrone_group": 1.0, "nb_agences": 1 }, "geometry": { "type": "Polygon", "coordinates": [ [ [ 1.339777, 43.52418 ], [ 1.341135, 43.523781 ], [ 1.342643, 43.523344 ], [ 1.343238, 43.52382 ], [ 1.343451, 43.525603 ], [ 1.342555, 43.528728 ], [ 1.342345, 43.529134 ], [ 1.342019, 43.529288 ], [ 1.339771, 43.528308 ], [ 1.338754, 43.527636 ], [ 1.338614, 43.527304 ], [ 1.338056, 43.525756 ], [ 1.339777, 43.52418 ] ] ] } },
{ "type": "Feature", "properties": { "codgeo": "31588", "value": 120, "isochrone_group": 2.0, "nb_agences": 1 }, "geometry": { "type": "Polygon", "coordinates": [ [ [ 1.346314, 43.521726 ], [ 1.344537, 43.519477 ], [ 1.344213, 43.519319 ], [ 1.341237, 43.5207 ], [ 1.33596, 43.518851 ], [ 1.335817, 43.518715 ], [ 1.335675, 43.51858 ], [ 1.335427, 43.51884 ], [ 1.335569, 43.518976 ], [ 1.335711, 43.519112 ], [ 1.337182, 43.521368 ], [ 1.335051, 43.525978 ], [ 1.334779, 43.526214 ], [ 1.33322, 43.527738 ], [ 1.333105, 43.527881 ], [ 1.333345, 43.528076 ], [ 1.337763, 43.529582 ], [ 1.342384, 43.532467 ], [ 1.343263, 43.532862 ], [ 1.343549, 43.532644 ], [ 1.343664, 43.532173 ], [ 1.343509, 43.531848 ], [ 1.345328617974745, 43.530061982925375 ], [ 1.346987, 43.527322 ], [ 1.347174, 43.527015 ], [ 1.348438101804933, 43.526971949299984 ], [ 1.347563, 43.526 ], [ 1.346314, 43.521726 ] ], [ [ 1.341135, 43.523781 ], [ 1.342643, 43.523344 ], [ 1.343238, 43.52382 ], [ 1.343451, 43.525603 ], [ 1.342555, 43.528728 ], [ 1.342345, 43.529134 ], [ 1.342019, 43.529288 ], [ 1.339771, 43.528308 ], [ 1.338754, 43.527636 ], [ 1.338614, 43.527304 ], [ 1.338056, 43.525756 ], [ 1.339777, 43.52418 ], [ 1.341135, 43.523781 ] ] ] } },
{ "type": "Feature", "properties": { "codgeo": "31588", "value": 180, "isochrone_group": 3.0, "nb_agences": 1 }, "geometry": { "type": "Polygon", "coordinates": [ [ [ 1.347461, 43.51708 ], [ 1.347284, 43.517113 ], [ 1.342446, 43.517741 ], [ 1.334195, 43.515944 ], [ 1.331621, 43.514795 ], [ 1.328298, 43.517068 ], [ 1.328297, 43.517428 ], [ 1.33051, 43.521302 ], [ 1.327554, 43.529293 ], [ 1.327323, 43.529569 ], [ 1.327741, 43.530408 ], [ 1.328738, 43.53111 ], [ 1.328977, 43.531088 ], [ 1.336110267133358, 43.536287721954245 ], [ 1.336462, 43.535891 ], [ 1.336829334331487, 43.535663844890713 ], [ 1.33844, 43.530452 ], [ 1.338698, 43.530201 ], [ 1.338740267187755, 43.53019213110511 ], [ 1.337763, 43.529582 ], [ 1.333345, 43.528076 ], [ 1.333105, 43.527881 ], [ 1.33322, 43.527738 ], [ 1.334779, 43.526214 ], [ 1.335051, 43.525978 ], [ 1.337182, 43.521368 ], [ 1.335711, 43.519112 ], [ 1.335569, 43.518976 ], [ 1.335427, 43.51884 ], [ 1.335675, 43.51858 ], [ 1.335817, 43.518715 ], [ 1.33596, 43.518851 ], [ 1.341237, 43.5207 ], [ 1.344213, 43.519319 ], [ 1.344537, 43.519477 ], [ 1.346314, 43.521726 ], [ 1.347366869457407, 43.525328853531605 ], [ 1.349479, 43.52569 ], [ 1.352485, 43.524259 ], [ 1.353238955831448, 43.523737030578239 ], [ 1.353024, 43.523097 ], [ 1.347461, 43.51708 ] ] ] } },
{ "type": "Feature", "properties": { "codgeo": "31588", "value": 240, "isochrone_group": 4.0, "nb_agences": 1 }, "geometry": { "type": "Polygon", "coordinates": [ [ [ 1.354363, 43.51481 ], [ 1.35099, 43.513415 ], [ 1.34872, 43.513221 ], [ 1.34126, 43.515094 ], [ 1.335606, 43.511566 ], [ 1.335497, 43.511427 ], [ 1.33408, 43.510772 ], [ 1.329852, 43.509654 ], [ 1.327767, 43.509503 ], [ 1.326573, 43.509691 ], [ 1.326398, 43.509786 ], [ 1.32302, 43.512933 ], [ 1.322116, 43.515509 ], [ 1.321544, 43.518258 ], [ 1.321392, 43.52633 ], [ 1.321482, 43.526949 ], [ 1.321523, 43.527073 ], [ 1.325774, 43.533054 ], [ 1.330483282505172, 43.539060298953665 ], [ 1.332299, 43.534376 ], [ 1.332691053568391, 43.533795321276173 ], [ 1.328977, 43.531088 ], [ 1.328738, 43.53111 ], [ 1.327741, 43.530408 ], [ 1.327323, 43.529569 ], [ 1.327554, 43.529293 ], [ 1.33051, 43.521302 ], [ 1.328297, 43.517428 ], [ 1.328298, 43.517068 ], [ 1.331621, 43.514795 ], [ 1.334195, 43.515944 ], [ 1.342446, 43.517741 ], [ 1.347284, 43.517113 ], [ 1.347461, 43.51708 ], [ 1.351612363633485, 43.52157015908373 ], [ 1.352069, 43.52175 ], [ 1.356004, 43.521873 ], [ 1.359326789140342, 43.522332563726138 ], [ 1.359186, 43.520998 ], [ 1.354363, 43.51481 ] ] ] } },
{ "type": "Feature", "properties": { "codgeo": "31588", "value": 300, "isochrone_group": 5.0, "nb_agences": 1 }, "geometry": { "type": "MultiPolygon", "coordinates": [ [ [ [ 1.362132, 43.513682 ], [ 1.354939, 43.511064 ], [ 1.352772, 43.510913 ], [ 1.351947, 43.511306 ], [ 1.351013, 43.511788 ], [ 1.349593, 43.512576 ], [ 1.342792, 43.511335 ], [ 1.341343, 43.508039 ], [ 1.336566, 43.508902 ], [ 1.332101, 43.507857 ], [ 1.330321, 43.507254 ], [ 1.323781, 43.504129 ], [ 1.322255, 43.504251 ], [ 1.322018, 43.504365 ], [ 1.321382, 43.506812 ], [ 1.32038, 43.510437 ], [ 1.315481, 43.514746 ], [ 1.315476, 43.514755 ], [ 1.313719, 43.520451 ], [ 1.314964, 43.522268 ], [ 1.315232, 43.522406 ], [ 1.316295, 43.522965 ], [ 1.319574, 43.526212 ], [ 1.321049, 43.531266 ], [ 1.32265, 43.534491 ], [ 1.325887464981003, 43.537456304747671 ], [ 1.326609115179482, 43.534119120094886 ], [ 1.325774, 43.533054 ], [ 1.321523, 43.527073 ], [ 1.321482, 43.526949 ], [ 1.321392, 43.52633 ], [ 1.321544, 43.518258 ], [ 1.322116, 43.515509 ], [ 1.32302, 43.512933 ], [ 1.326398, 43.509786 ], [ 1.326573, 43.509691 ], [ 1.327767, 43.509503 ], [ 1.329852, 43.509654 ], [ 1.33408, 43.510772 ], [ 1.335497, 43.511427 ], [ 1.335606, 43.511566 ], [ 1.34126, 43.515094 ], [ 1.34872, 43.513221 ], [ 1.35099, 43.513415 ], [ 1.354363, 43.51481 ], [ 1.35778594229535, 43.519201699548759 ], [ 1.361923, 43.518986 ], [ 1.362401, 43.518711 ], [ 1.363941, 43.518563 ], [ 1.367114101370806, 43.520702305826831 ], [ 1.36421, 43.515038 ], [ 1.362132, 43.513682 ] ] ], [ [ [ 1.364024336552855, 43.538562703644722 ], [ 1.363776224173512, 43.538752607415532 ], [ 1.364899611031329, 43.538831092957018 ], [ 1.364024336552855, 43.538562703644722 ] ] ] ] } },
{ "type": "Feature", "properties": { "codgeo": "31588", "value": 360, "isochrone_group": 6.0, "nb_agences": 1 }, "geometry": { "type": "MultiPolygon", "coordinates": [ [ [ [ 1.362942, 43.510504 ], [ 1.356244, 43.508306 ], [ 1.35135, 43.506126 ], [ 1.348342, 43.505561 ], [ 1.345602, 43.505284 ], [ 1.345413, 43.50537 ], [ 1.344166, 43.505874 ], [ 1.34401, 43.505944 ], [ 1.340444514700432, 43.508201317942934 ], [ 1.341343, 43.508039 ], [ 1.342792, 43.511335 ], [ 1.349593, 43.512576 ], [ 1.350519, 43.512062 ], [ 1.350519113395795, 43.512062072284586 ], [ 1.351013, 43.511788 ], [ 1.351947, 43.511306 ], [ 1.352772, 43.510913 ], [ 1.354939, 43.511064 ], [ 1.362132, 43.513682 ], [ 1.36421, 43.515038 ], [ 1.364542648920077, 43.515686815235995 ], [ 1.364664, 43.515695 ], [ 1.371056, 43.520641 ], [ 1.372466162110911, 43.520994942589034 ], [ 1.372304455957765, 43.520085198364995 ], [ 1.368691, 43.517841 ], [ 1.3684, 43.513402 ], [ 1.365569, 43.511179 ], [ 1.362942, 43.510504 ] ] ], [ [ [ 1.332588, 43.505131 ], [ 1.332554, 43.50514 ], [ 1.327369482074507, 43.505843679890347 ], [ 1.330321, 43.507254 ], [ 1.332101, 43.507857 ], [ 1.336566, 43.508902 ], [ 1.338524225627759, 43.50854823221335 ], [ 1.332588, 43.505131 ] ] ], [ [ [ 1.323030077486535, 43.503037769982065 ], [ 1.323040604871291, 43.504188192795354 ], [ 1.323781, 43.504129 ], [ 1.323886201072388, 43.504179268096493 ], [ 1.323030077486535, 43.503037769982065 ] ] ], [ [ [ 1.316370263691836, 43.506025982505072 ], [ 1.315867, 43.508352 ], [ 1.309888, 43.514652 ], [ 1.308658, 43.516394 ], [ 1.308699, 43.516676 ], [ 1.310154, 43.518243 ], [ 1.309523, 43.525825 ], [ 1.308474, 43.527151 ], [ 1.310236, 43.529121 ], [ 1.311298, 43.529384 ], [ 1.319237, 43.532221 ], [ 1.318443, 43.534972 ], [ 1.318452, 43.534985 ], [ 1.322791833818888, 43.5391368093495 ], [ 1.321713, 43.53597 ], [ 1.322086704408856, 43.533356316501283 ], [ 1.321049, 43.531266 ], [ 1.319574, 43.526212 ], [ 1.316295, 43.522965 ], [ 1.315232, 43.522406 ], [ 1.314964, 43.522268 ], [ 1.313719, 43.520451 ], [ 1.315476, 43.514755 ], [ 1.315481, 43.514746 ], [ 1.32038, 43.510437 ], [ 1.321382, 43.506812 ], [ 1.321608687288378, 43.505939824222231 ], [ 1.316370263691836, 43.506025982505072 ] ] ], [ [ [ 1.373475, 43.541659 ], [ 1.37356502946549, 43.541628373153799 ], [ 1.370793, 43.540733 ], [ 1.36944, 43.539938 ], [ 1.365920204486982, 43.538902396826565 ], [ 1.365416659598995, 43.538867216609816 ], [ 1.369591, 43.540393 ], [ 1.369821, 43.540498 ], [ 1.373301, 43.541643 ], [ 1.373475, 43.541659 ] ] ] ] } },
{ "type": "Feature", "properties": { "codgeo": "31588", "value": 420, "isochrone_group": 7.0, "nb_agences": 1 }, "geometry": { "type": "MultiPolygon", "coordinates": [ [ [ [ 1.358070754716903, 43.506247022581157 ], [ 1.358859572639016, 43.506788381222407 ], [ 1.358197040420662, 43.506127741352515 ], [ 1.358070754716903, 43.506247022581157 ] ] ], [ [ [ 1.346261, 43.504479 ], [ 1.346236474655511, 43.504443155265754 ], [ 1.3457, 43.504173 ], [ 1.344818517943505, 43.503710421070998 ], [ 1.34427, 43.503702 ], [ 1.342398, 43.506109 ], [ 1.334315, 43.503921 ], [ 1.329673563308225, 43.499309379818023 ], [ 1.329554, 43.499368 ], [ 1.326536189689245, 43.504892878972768 ], [ 1.328603680471932, 43.505676165647863 ], [ 1.332554, 43.50514 ], [ 1.332588, 43.505131 ], [ 1.33784679463999, 43.508158264051957 ], [ 1.341472725605766, 43.507550354965758 ], [ 1.34401, 43.505944 ], [ 1.344166, 43.505874 ], [ 1.345413, 43.50537 ], [ 1.345602, 43.505284 ], [ 1.346424820408774, 43.505367182939139 ], [ 1.346261, 43.504479 ] ] ], [ [ [ 1.368923258365113, 43.513742958138401 ], [ 1.369139004180376, 43.513364962749648 ], [ 1.368447, 43.513013 ], [ 1.367227702479336, 43.512481471074373 ], [ 1.3684, 43.513402 ], [ 1.368416883575764, 43.513659547054367 ], [ 1.368923258365113, 43.513742958138401 ] ] ], [ [ [ 1.361065522413333, 43.508811999851282 ], [ 1.360591523754241, 43.509732673217655 ], [ 1.362942, 43.510504 ], [ 1.363312434255409, 43.510599182003205 ], [ 1.361065522413333, 43.508811999851282 ] ] ], [ [ [ 1.29886, 43.515525 ], [ 1.298094, 43.51554 ], [ 1.297163, 43.517734 ], [ 1.297291, 43.518032 ], [ 1.298037, 43.51914 ], [ 1.298428, 43.519146 ], [ 1.305132, 43.522317 ], [ 1.307033, 43.527103 ], [ 1.304609, 43.532043 ], [ 1.304589, 43.532084 ], [ 1.304552, 43.532163 ], [ 1.304525, 43.532225 ], [ 1.30434098630094, 43.53275921562706 ], [ 1.305259, 43.531712 ], [ 1.305456, 43.531396 ], [ 1.30703, 43.531346 ], [ 1.307398, 43.531504 ], [ 1.307549, 43.531614 ], [ 1.308511, 43.533301 ], [ 1.308327379964415, 43.533717044343788 ], [ 1.311614, 43.531213 ], [ 1.316792906455497, 43.537231809907212 ], [ 1.317340834467105, 43.536694517303054 ], [ 1.318503007205445, 43.535033797304528 ], [ 1.318452, 43.534985 ], [ 1.318443, 43.534972 ], [ 1.319237, 43.532221 ], [ 1.311298, 43.529384 ], [ 1.310236, 43.529121 ], [ 1.308474, 43.527151 ], [ 1.309523, 43.525825 ], [ 1.310154, 43.518243 ], [ 1.308699, 43.516676 ], [ 1.308658, 43.516394 ], [ 1.309888, 43.514652 ], [ 1.314818986776518, 43.509456278860668 ], [ 1.311119, 43.509001 ], [ 1.30955628403315, 43.508707457229846 ], [ 1.307281, 43.512155 ], [ 1.30282, 43.514969 ], [ 1.29886, 43.515525 ] ] ], [ [ [ 1.308079309361259, 43.534263264254754 ], [ 1.307925795522318, 43.534564004676419 ], [ 1.308036, 43.534369 ], [ 1.308079309361259, 43.534263264254754 ] ] ] ] } },
{ "type": "Feature", "properties": { "codgeo": "31588", "value": 480, "isochrone_group": 8.0, "nb_agences": 1 }, "geometry": { "type": "MultiPolygon", "coordinates": [ [ [ [ 1.29404, 43.515869 ], [ 1.291255, 43.515872 ], [ 1.290676, 43.515896 ], [ 1.289805522772996, 43.516019642618502 ], [ 1.289324, 43.516358 ], [ 1.288998, 43.516544 ], [ 1.287966, 43.516942 ], [ 1.287682, 43.51701 ], [ 1.287189139747694, 43.516554264286157 ], [ 1.287091, 43.516579 ], [ 1.285631, 43.516995 ], [ 1.286615, 43.520457 ], [ 1.288076, 43.520042 ], [ 1.29422, 43.520273 ], [ 1.299749, 43.523177 ], [ 1.30226, 43.526191 ], [ 1.302579, 43.526661 ], [ 1.304169, 43.528725 ], [ 1.303024374942843, 43.53228599854787 ], [ 1.304984668454852, 43.531277405046637 ], [ 1.307033, 43.527103 ], [ 1.305132, 43.522317 ], [ 1.298428, 43.519146 ], [ 1.298037, 43.51914 ], [ 1.297291, 43.518032 ], [ 1.297163, 43.517734 ], [ 1.297863111331156, 43.51608411357622 ], [ 1.296616, 43.516834 ], [ 1.29404, 43.515869 ] ] ], [ [ [ 1.303300809288163, 43.512458120960943 ], [ 1.302776, 43.51313 ], [ 1.298790697704519, 43.515526357094572 ], [ 1.29886, 43.515525 ], [ 1.30282, 43.514969 ], [ 1.307281, 43.512155 ], [ 1.307427116309905, 43.511933602486344 ], [ 1.303300809288163, 43.512458120960943 ] ] ], [ [ [ 1.346829, 43.505115 ], [ 1.348003273511907, 43.505336132632756 ], [ 1.347658, 43.505159 ], [ 1.346236474655511, 43.504443155265754 ], [ 1.346261, 43.504479 ], [ 1.346367722050204, 43.505057613525189 ], [ 1.346829, 43.505115 ] ] ], [ [ [ 1.342491, 43.502489 ], [ 1.341632, 43.502018 ], [ 1.340287, 43.501233 ], [ 1.338953, 43.500384 ], [ 1.337857758971684, 43.499628890052293 ], [ 1.333386, 43.498106 ], [ 1.332872701951199, 43.49726064573921 ], [ 1.333746, 43.498807 ], [ 1.333843, 43.499178 ], [ 1.333594373098272, 43.50320500239313 ], [ 1.334315, 43.503921 ], [ 1.342398, 43.506109 ], [ 1.34427, 43.503702 ], [ 1.344818517943505, 43.503710421070998 ], [ 1.342491, 43.502489 ] ] ], [ [ [ 1.308131, 43.534162 ], [ 1.307802557045405, 43.536896871440391 ], [ 1.312909734406781, 43.53271887371131 ], [ 1.311614, 43.531213 ], [ 1.308426146922622, 43.533641794743779 ], [ 1.308131, 43.534162 ] ] ], [ [ [ 1.3637939747944, 43.538319661408046 ], [ 1.363793974794397, 43.538319661408046 ], [ 1.359059199067527, 43.542262037626905 ], [ 1.3637939747944, 43.538319661408046 ] ] ] ] } },
{ "type": "Feature", "properties": { "codgeo": "31588", "value": 540, "isochrone_group": 9.0, "nb_agences": 1 }, "geometry": { "type": "MultiPolygon", "coordinates": [ [ [ [ 1.332228, 43.494717 ], [ 1.332226311324105, 43.49471742785596 ], [ 1.332413, 43.495444 ], [ 1.332228, 43.494717 ] ] ], [ [ [ 1.285076084849793, 43.5212768216999 ], [ 1.284465388923215, 43.521949428398059 ], [ 1.291851, 43.520927 ], [ 1.293059238338572, 43.520229358082069 ], [ 1.288754281570405, 43.5200675017973 ], [ 1.285076084849793, 43.5212768216999 ] ] ], [ [ [ 1.299271, 43.526807 ], [ 1.2993, 43.527028 ], [ 1.299313, 43.527086 ], [ 1.299602, 43.528342 ], [ 1.299959, 43.528931 ], [ 1.296367, 43.536905 ], [ 1.296666115219079, 43.539037691512021 ], [ 1.297397, 43.538404 ], [ 1.297372, 43.5383 ], [ 1.297345, 43.537742 ], [ 1.297363, 43.536705 ], [ 1.3009, 43.536037 ], [ 1.302272799125725, 43.534624196874589 ], [ 1.304169, 43.528725 ], [ 1.302579, 43.526661 ], [ 1.30226, 43.526191 ], [ 1.299749, 43.523177 ], [ 1.295342533811731, 43.520862589110024 ], [ 1.299271, 43.526807 ] ] ], [ [ [ 1.295374, 43.515713 ], [ 1.295925, 43.515646 ], [ 1.300083463151932, 43.514749018909939 ], [ 1.301719277134374, 43.513765406086712 ], [ 1.298551916646099, 43.513076634491611 ], [ 1.29404, 43.515869 ], [ 1.295133578760481, 43.516278667509262 ], [ 1.295374, 43.515713 ] ] ], [ [ [ 1.29309140380548, 43.515347066413014 ], [ 1.292731227337768, 43.515870409808976 ], [ 1.29404, 43.515869 ], [ 1.29309140380548, 43.515347066413014 ] ] ], [ [ [ 1.281864867862321, 43.518369206655152 ], [ 1.281315834056971, 43.519004773608444 ], [ 1.281343, 43.518995 ], [ 1.282015837273156, 43.518629981356625 ], [ 1.281864867862321, 43.518369206655152 ] ] ], [ [ [ 1.316494617794569, 43.547197922694608 ], [ 1.317277285121899, 43.546745050682048 ], [ 1.319291, 43.541724 ], [ 1.320486076019204, 43.54062366386907 ], [ 1.320747, 43.539998 ], [ 1.31755, 43.536686 ], [ 1.313511, 43.532227 ], [ 1.306935040020759, 43.537606555851639 ], [ 1.306814440891074, 43.537989946639023 ], [ 1.309177, 43.544124 ], [ 1.316494617794569, 43.547197922694608 ] ] ] ] } },
{ "type": "Feature", "properties": { "codgeo": "31588", "value": 600, "isochrone_group": 10.0, "nb_agences": 1 }, "geometry": { "type": "MultiPolygon", "coordinates": [ [ [ [ 1.335398, 43.49769 ], [ 1.335313495461471, 43.498379516794138 ], [ 1.336727676352299, 43.49877669030252 ], [ 1.336447, 43.498564 ], [ 1.335458, 43.497742 ], [ 1.335399019730426, 43.497688869456901 ], [ 1.335398, 43.49769 ] ] ], [ [ [ 1.297158, 43.529665 ], [ 1.296576275909443, 43.531012088168978 ], [ 1.298774813285413, 43.531559815384767 ], [ 1.299959, 43.528931 ], [ 1.299602, 43.528342 ], [ 1.299313, 43.527086 ], [ 1.2993, 43.527028 ], [ 1.299294607877165, 43.526986908305282 ], [ 1.297158, 43.529665 ] ] ] ] } },
{ "type": "Feature", "properties": { "codgeo": "31588", "value": 660, "isochrone_group": 11.0, "nb_agences": 1 }, "geometry": { "type": "MultiPolygon", "coordinates": [ [ [ [ 1.354212881042748, 43.495734251623965 ], [ 1.355709, 43.496487 ], [ 1.354621, 43.495794 ], [ 1.354169047972607, 43.495699187059657 ], [ 1.354212881042748, 43.495734251623965 ] ] ], [ [ [ 1.405328, 43.518821 ], [ 1.404977, 43.518738 ], [ 1.404908712444, 43.518726993067794 ], [ 1.405328, 43.518821 ] ] ] ] } },
{ "type": "Feature", "properties": { "codgeo": "31588", "value": 720, "isochrone_group": 12.0, "nb_agences": 1 }, "geometry": { "type": "MultiPolygon", "coordinates": [ [ [ [ 1.409953, 43.520172 ], [ 1.409511, 43.520053 ], [ 1.40518188817187, 43.518177318276315 ], [ 1.406801204819449, 43.519587464669598 ], [ 1.406956, 43.519668 ], [ 1.408512091345005, 43.520787433059439 ], [ 1.410885843253659, 43.520911004309028 ], [ 1.410883, 43.520551 ], [ 1.409953, 43.520172 ] ] ], [ [ [ 1.396734478509573, 43.514365350380409 ], [ 1.395480935935659, 43.512788678965116 ], [ 1.396037246885501, 43.514193244615086 ], [ 1.396734478509573, 43.514365350380409 ] ] ] ] } },
{ "type": "Feature", "properties": { "codgeo": "31588", "value": 780, "isochrone_group": 13.0, "nb_agences": 1 }, "geometry": { "type": "Polygon", "coordinates": [ [ [ 1.415928969629929, 43.5274801777026 ], [ 1.415953139751799, 43.527543251218525 ], [ 1.415995255073213, 43.527601890625341 ], [ 1.415928969629929, 43.5274801777026 ] ] ] } }
]
}
