{
"type": "FeatureCollection",
"name": "Others",
"crs": { "type": "name", "properties": { "name": "urn:ogc:def:crs:OGC:1.3:CRS84" } },
"features": [
{ "type": "Feature", "properties": { "codgeo": "31022", "value": 60, "isochrone_group": 1.0, "nb_agences": 1 }, "geometry": { "type": "Polygon", "coordinates": [ [ [ 1.4267, 43.670158 ], [ 1.426922, 43.667254 ], [ 1.427061, 43.666922 ], [ 1.429774, 43.663547 ], [ 1.430868, 43.662653 ], [ 1.431047, 43.662611 ], [ 1.431059, 43.662613 ], [ 1.431209, 43.662768 ], [ 1.431612, 43.663591 ], [ 1.431539, 43.66727 ], [ 1.432076, 43.670176 ], [ 1.431942, 43.67051 ], [ 1.426978, 43.672002 ], [ 1.426781, 43.672066 ], [ 1.426773, 43.672063 ], [ 1.426669, 43.671815 ], [ 1.4267, 43.670158 ] ] ] } },
{ "type": "Feature", "properties": { "codgeo": "31022", "value": 120, "isochrone_group": 2.0, "nb_agences": 1 }, "geometry": { "type": "Polygon", "coordinates": [ [ [ 1.424598, 43.675203 ], [ 1.424902, 43.675396 ], [ 1.42492504599777, 43.675594481422678 ], [ 1.427172, 43.675 ], [ 1.4323, 43.672126 ], [ 1.433278, 43.671937 ], [ 1.434786, 43.671653 ], [ 1.434915, 43.671317 ], [ 1.434272, 43.670157 ], [ 1.436248, 43.665214 ], [ 1.436357, 43.664871 ], [ 1.435616, 43.664041 ], [ 1.432189, 43.6593 ], [ 1.431959, 43.659271 ], [ 1.43173, 43.659242 ], [ 1.431543, 43.659293 ], [ 1.426448, 43.660912 ], [ 1.424823, 43.662375 ], [ 1.424759, 43.662729 ], [ 1.424515, 43.666647 ], [ 1.424098, 43.669482 ], [ 1.424148, 43.67466 ], [ 1.424357027713684, 43.675219518627522 ], [ 1.424598, 43.675203 ] ], [ [ 1.428367470139593, 43.665296737662693 ], [ 1.427686, 43.663455 ], [ 1.427353, 43.661411 ], [ 1.427399, 43.661054 ], [ 1.431508, 43.659646 ], [ 1.431867, 43.659676 ], [ 1.433481, 43.661695 ], [ 1.433886, 43.66408 ], [ 1.433775, 43.664422 ], [ 1.431562167101815, 43.666102441540019 ], [ 1.431539, 43.66727 ], [ 1.432076, 43.670176 ], [ 1.431942, 43.67051 ], [ 1.426978, 43.672002 ], [ 1.426781, 43.672066 ], [ 1.426773, 43.672063 ], [ 1.426669, 43.671815 ], [ 1.4267, 43.670158 ], [ 1.426922, 43.667254 ], [ 1.427061, 43.666922 ], [ 1.428367470139593, 43.665296737662693 ] ] ] } },
{ "type": "Feature", "properties": { "codgeo": "31022", "value": 180, "isochrone_group": 3.0, "nb_agences": 1 }, "geometry": { "type": "MultiPolygon", "coordinates": [ [ [ [ 1.437594, 43.672783 ], [ 1.437728, 43.672448 ], [ 1.440392, 43.665884 ], [ 1.44014, 43.665035 ], [ 1.436206, 43.658837 ], [ 1.43272306042938, 43.656410617877029 ], [ 1.436073, 43.658796 ], [ 1.435968, 43.661094 ], [ 1.438587, 43.66451 ], [ 1.438752, 43.66466 ], [ 1.438928, 43.664907 ], [ 1.439142, 43.665547 ], [ 1.438636, 43.665908 ], [ 1.435983, 43.666496 ], [ 1.435618352548435, 43.666789074571398 ], [ 1.434272, 43.670157 ], [ 1.434915, 43.671317 ], [ 1.434786, 43.671653 ], [ 1.433278, 43.671937 ], [ 1.4323, 43.672126 ], [ 1.427476934889573, 43.674829098503785 ], [ 1.427497, 43.676286 ], [ 1.427798944199599, 43.676907602989694 ], [ 1.4298, 43.675702 ], [ 1.437594, 43.672783 ] ] ], [ [ [ 1.43197, 43.655886 ], [ 1.431764, 43.655872 ], [ 1.429996, 43.657543 ], [ 1.421598330215865, 43.659634041455284 ], [ 1.422137, 43.659838 ], [ 1.427471, 43.659584 ], [ 1.430232, 43.657552 ], [ 1.432081, 43.655977 ], [ 1.432119742369758, 43.6559903176896 ], [ 1.43197, 43.655886 ] ] ], [ [ [ 1.419378, 43.658908 ], [ 1.419131, 43.658814 ], [ 1.419003, 43.65915 ], [ 1.419078, 43.659229 ], [ 1.420408, 43.660303 ], [ 1.421525, 43.668213 ], [ 1.421383, 43.668544 ], [ 1.420917779304238, 43.674083554221525 ], [ 1.421123, 43.674022 ], [ 1.424129119458739, 43.672704731146958 ], [ 1.424098, 43.669482 ], [ 1.424515, 43.666647 ], [ 1.424667496173179, 43.664198311448693 ], [ 1.423858, 43.663066 ], [ 1.419451, 43.659305 ], [ 1.419549641472849, 43.658973641265959 ], [ 1.419378, 43.658908 ] ] ] ] } },
{ "type": "Feature", "properties": { "codgeo": "31022", "value": 240, "isochrone_group": 4.0, "nb_agences": 1 }, "geometry": { "type": "MultiPolygon", "coordinates": [ [ [ [ 1.438096, 43.675831 ], [ 1.438189, 43.675651 ], [ 1.444458, 43.669433 ], [ 1.444665, 43.669139 ], [ 1.446038, 43.661975 ], [ 1.445782, 43.661722 ], [ 1.437956, 43.657428 ], [ 1.437502, 43.656417 ], [ 1.437674, 43.657394 ], [ 1.443794, 43.663803 ], [ 1.444093, 43.664004 ], [ 1.442556, 43.667724 ], [ 1.442355, 43.668022 ], [ 1.43897463307744, 43.669376341020893 ], [ 1.437728, 43.672448 ], [ 1.437594, 43.672783 ], [ 1.431073617655679, 43.675225006166677 ], [ 1.431952078568755, 43.677494490177843 ], [ 1.43492, 43.676009 ], [ 1.438096, 43.675831 ] ] ], [ [ [ 1.437042, 43.654849 ], [ 1.432784, 43.651373 ], [ 1.432658, 43.651272 ], [ 1.432605, 43.651268 ], [ 1.431597, 43.65146 ], [ 1.423353, 43.653591 ], [ 1.418591, 43.656317 ], [ 1.415149, 43.662604 ], [ 1.414974, 43.663053 ], [ 1.415241, 43.663294 ], [ 1.418528, 43.667329 ], [ 1.41928, 43.671867 ], [ 1.418858081029258, 43.672645830545392 ], [ 1.420604, 43.672501 ], [ 1.421076499689582, 43.672193612117283 ], [ 1.421383, 43.668544 ], [ 1.421525, 43.668213 ], [ 1.420968970187568, 43.664275492554772 ], [ 1.417364, 43.662634 ], [ 1.417005, 43.662651 ], [ 1.41571, 43.662774 ], [ 1.415535, 43.662763 ], [ 1.41552, 43.662755 ], [ 1.415442, 43.662533 ], [ 1.418729, 43.656338 ], [ 1.422998, 43.654061 ], [ 1.423267, 43.6543 ], [ 1.430908, 43.654165 ], [ 1.432361, 43.651891 ], [ 1.432721, 43.651898 ], [ 1.436914, 43.655132 ], [ 1.437502, 43.656417 ], [ 1.437042, 43.654849 ] ] ] ] } },
{ "type": "Feature", "properties": { "codgeo": "31022", "value": 300, "isochrone_group": 5.0, "nb_agences": 1 }, "geometry": { "type": "MultiPolygon", "coordinates": [ [ [ [ 1.448332, 43.67286 ], [ 1.448341, 43.67285 ], [ 1.4487, 43.668842 ], [ 1.44995, 43.662123 ], [ 1.450767, 43.658583 ], [ 1.450372, 43.658016 ], [ 1.450285, 43.657931 ], [ 1.449685, 43.65764 ], [ 1.449655, 43.657632 ], [ 1.448501, 43.657726 ], [ 1.44266, 43.657379 ], [ 1.440518, 43.653478 ], [ 1.440512, 43.653466 ], [ 1.439892, 43.652199 ], [ 1.438496, 43.650868 ], [ 1.436338673081639, 43.649148765066762 ], [ 1.434715651964503, 43.649596543944526 ], [ 1.438221, 43.652148 ], [ 1.440073, 43.656118 ], [ 1.446592, 43.660007 ], [ 1.448335, 43.659772 ], [ 1.448525, 43.660078 ], [ 1.447684, 43.667386 ], [ 1.446064, 43.67105 ], [ 1.445906, 43.671373 ], [ 1.445766, 43.671368 ], [ 1.442282292752588, 43.671591007284178 ], [ 1.438189, 43.675651 ], [ 1.438096, 43.675831 ], [ 1.436113685449647, 43.675942099493064 ], [ 1.436371, 43.676769 ], [ 1.437098, 43.678997 ], [ 1.437098985408964, 43.679059225677833 ], [ 1.43938, 43.676832 ], [ 1.447293, 43.673288 ], [ 1.448332, 43.67286 ] ] ], [ [ [ 1.434394, 43.647599 ], [ 1.433156162630368, 43.646999048178102 ], [ 1.432917, 43.647067 ], [ 1.432883616181106, 43.647064588648725 ], [ 1.429712, 43.648058 ], [ 1.42356, 43.649563 ], [ 1.416348, 43.654169 ], [ 1.41534, 43.6557 ], [ 1.415108, 43.656104 ], [ 1.414783, 43.657536 ], [ 1.41293, 43.662903 ], [ 1.410568, 43.66555 ], [ 1.410392991028903, 43.665878084100179 ], [ 1.411079, 43.665879 ], [ 1.411455, 43.666 ], [ 1.412116548149707, 43.666238754219442 ], [ 1.413009, 43.665242 ], [ 1.413884, 43.664244 ], [ 1.41615, 43.656158 ], [ 1.416235, 43.655809 ], [ 1.424068, 43.651823 ], [ 1.425186, 43.649842 ], [ 1.432735, 43.64836 ], [ 1.433091, 43.648414 ], [ 1.434005682316494, 43.64907977461398 ], [ 1.434122, 43.649034 ], [ 1.434681, 43.648855 ], [ 1.435229, 43.64868 ], [ 1.43561388922762, 43.648571164282082 ], [ 1.434394, 43.647599 ] ] ], [ [ [ 1.41518, 43.666735 ], [ 1.414496822687436, 43.666959997376281 ], [ 1.416470852386496, 43.667465220820326 ], [ 1.41518, 43.666735 ] ] ] ] } },
{ "type": "Feature", "properties": { "codgeo": "31022", "value": 360, "isochrone_group": 6.0, "nb_agences": 1 }, "geometry": { "type": "MultiPolygon", "coordinates": [ [ [ [ 1.405230578812827, 43.678019323960847 ], [ 1.404550295725824, 43.679249018978368 ], [ 1.405323, 43.678219 ], [ 1.405230578812827, 43.678019323960847 ] ] ], [ [ [ 1.446228, 43.679651 ], [ 1.448338, 43.680196 ], [ 1.448375, 43.680181 ], [ 1.452806, 43.672854 ], [ 1.45295, 43.672615 ], [ 1.452078, 43.670512 ], [ 1.452322, 43.661798 ], [ 1.453029, 43.661269 ], [ 1.454541, 43.659415 ], [ 1.45411, 43.658238 ], [ 1.453813, 43.657939 ], [ 1.453715, 43.657861 ], [ 1.447343, 43.654074 ], [ 1.443422391867115, 43.650183221171453 ], [ 1.442927666828794, 43.65050216574172 ], [ 1.445462, 43.654636 ], [ 1.448072, 43.655778 ], [ 1.451856, 43.657638 ], [ 1.45218, 43.660603 ], [ 1.45217, 43.660683 ], [ 1.451794, 43.661237 ], [ 1.450364, 43.669111 ], [ 1.451168, 43.67031 ], [ 1.451792, 43.67166 ], [ 1.451778, 43.671736 ], [ 1.451528, 43.672635 ], [ 1.451233, 43.673128 ], [ 1.450878, 43.673557 ], [ 1.448592, 43.676328 ], [ 1.445064, 43.677044 ], [ 1.442930848070812, 43.676678899278841 ], [ 1.446217, 43.679637 ], [ 1.446228, 43.679651 ] ] ], [ [ [ 1.412438, 43.655123 ], [ 1.412699, 43.654614 ], [ 1.414029, 43.652256 ], [ 1.414401040079001, 43.65200477767393 ], [ 1.413829, 43.652211 ], [ 1.412438, 43.655123 ] ] ], [ [ [ 1.412854385451664, 43.662268527741773 ], [ 1.41285718535113, 43.662266450083564 ], [ 1.412143139489779, 43.656024219427799 ], [ 1.412119, 43.656098 ], [ 1.412854385451664, 43.662268527741773 ] ] ], [ [ [ 1.440726831678688, 43.677984775776835 ], [ 1.442554846205628, 43.676614544485254 ], [ 1.440609104792914, 43.676281520107921 ], [ 1.43985185858345, 43.676620668416568 ], [ 1.440726831678688, 43.677984775776835 ] ] ] ] } },
{ "type": "Feature", "properties": { "codgeo": "31022", "value": 420, "isochrone_group": 7.0, "nb_agences": 1 }, "geometry": { "type": "MultiPolygon", "coordinates": [ [ [ [ 1.454545, 43.671299 ], [ 1.454634, 43.671375 ], [ 1.455003, 43.673406 ], [ 1.451213, 43.680233 ], [ 1.450694, 43.680678 ], [ 1.450644, 43.680715 ], [ 1.450105821028532, 43.681100274054906 ], [ 1.450141, 43.681146 ], [ 1.450444560701509, 43.682095157363101 ], [ 1.451824, 43.681257 ], [ 1.45427, 43.675153 ], [ 1.455765, 43.671878 ], [ 1.45539, 43.671707 ], [ 1.453533, 43.662955 ], [ 1.454352889275873, 43.662458861874079 ], [ 1.454295, 43.662357 ], [ 1.454084165083541, 43.661578278386926 ], [ 1.452303054711789, 43.662474595251943 ], [ 1.452094688791946, 43.669915991258122 ], [ 1.454545, 43.671299 ] ] ], [ [ [ 1.418036, 43.644232 ], [ 1.419681428428182, 43.64313752530299 ], [ 1.419395065350865, 43.642334461021676 ], [ 1.418012090138767, 43.644253935238424 ], [ 1.418036, 43.644232 ] ] ], [ [ [ 1.409464, 43.65183 ], [ 1.409356, 43.656626 ], [ 1.410198, 43.658278 ], [ 1.407816027386257, 43.660640597338492 ], [ 1.409706, 43.661379 ], [ 1.410632437768046, 43.661131242644707 ], [ 1.410278, 43.658259 ], [ 1.40948, 43.656377 ], [ 1.409703, 43.651807 ], [ 1.411679, 43.650064 ], [ 1.417317363288607, 43.644891287289738 ], [ 1.411855, 43.64936 ], [ 1.409464, 43.65183 ] ] ], [ [ [ 1.444018, 43.680787 ], [ 1.445621627263933, 43.680506852033012 ], [ 1.441182570454496, 43.677769880884703 ], [ 1.443588, 43.680817 ], [ 1.444018, 43.680787 ] ] ], [ [ [ 1.401238, 43.667897 ], [ 1.403686593411883, 43.664739100257179 ], [ 1.400816, 43.667602 ], [ 1.399579985065731, 43.669723871112332 ], [ 1.401238, 43.667897 ] ] ] ] } },
{ "type": "Feature", "properties": { "codgeo": "31022", "value": 480, "isochrone_group": 8.0, "nb_agences": 1 }, "geometry": { "type": "MultiPolygon", "coordinates": [ [ [ [ 1.399579985065726, 43.669723871112332 ], [ 1.399579985065731, 43.669723871112332 ], [ 1.399284, 43.67005 ], [ 1.399579985065726, 43.669723871112332 ] ] ], [ [ [ 1.408955, 43.648944 ], [ 1.408926, 43.649073 ], [ 1.409421582708805, 43.653713641931212 ], [ 1.409445268073635, 43.652661836285596 ], [ 1.409218, 43.649147 ], [ 1.409257, 43.648984 ], [ 1.413832, 43.642691 ], [ 1.414074637226693, 43.642297489540368 ], [ 1.41392553819287, 43.641676693936311 ], [ 1.413587, 43.642086 ], [ 1.408955, 43.648944 ] ] ], [ [ [ 1.460106, 43.676487 ], [ 1.460832, 43.674673 ], [ 1.460714, 43.674081 ], [ 1.460613050938773, 43.67396243566634 ], [ 1.459206265945645, 43.674819770048998 ], [ 1.459392, 43.675351 ], [ 1.459387, 43.675362 ], [ 1.459381, 43.675374 ], [ 1.459378, 43.675381 ], [ 1.457641, 43.676402 ], [ 1.454547551923493, 43.680982738482534 ], [ 1.454643, 43.681295 ], [ 1.452803, 43.685436 ], [ 1.452726759470237, 43.685495413677401 ], [ 1.452805, 43.68548 ], [ 1.454669, 43.681261 ], [ 1.460106, 43.676487 ] ] ] ] } },
{ "type": "Feature", "properties": { "codgeo": "31022", "value": 540, "isochrone_group": 9.0, "nb_agences": 1 }, "geometry": { "type": "MultiPolygon", "coordinates": [ [ [ [ 1.459017, 43.682655 ], [ 1.460465, 43.681266 ], [ 1.464322388785867, 43.677477926376511 ], [ 1.460998, 43.678931 ], [ 1.460142, 43.679404 ], [ 1.459185, 43.679738 ], [ 1.45595542340756, 43.682693548842046 ], [ 1.455062, 43.686493 ], [ 1.453705, 43.689828 ], [ 1.453358, 43.690284 ], [ 1.453325680549387, 43.690309509047168 ], [ 1.453359, 43.690309 ], [ 1.453726, 43.689836 ], [ 1.459017, 43.682655 ] ] ], [ [ [ 1.409476523806057, 43.654444673484946 ], [ 1.409489334763018, 43.65442203499321 ], [ 1.408785, 43.648143 ], [ 1.40906, 43.646766 ], [ 1.411762482018023, 43.641941105188252 ], [ 1.411418838850324, 43.640336368069896 ], [ 1.408589, 43.647468 ], [ 1.408586, 43.647542 ], [ 1.408722, 43.6483 ], [ 1.409476523806057, 43.654444673484946 ] ] ] ] } },
{ "type": "Feature", "properties": { "codgeo": "31022", "value": 600, "isochrone_group": 10.0, "nb_agences": 1 }, "geometry": { "type": "MultiPolygon", "coordinates": [ [ [ [ 1.46181, 43.687132 ], [ 1.458166118379653, 43.688889344481183 ], [ 1.458148, 43.689638 ], [ 1.45780130619657, 43.69003219235308 ], [ 1.461777, 43.688063 ], [ 1.462182, 43.686105 ], [ 1.46181, 43.687132 ] ] ], [ [ [ 1.465411993655474, 43.678794731992163 ], [ 1.464267, 43.679559 ], [ 1.462246, 43.685056 ], [ 1.462182, 43.686105 ], [ 1.464845, 43.679232 ], [ 1.465411993655474, 43.678794731992163 ] ] ], [ [ [ 1.409719392959117, 43.642504647624648 ], [ 1.409840869842192, 43.641416612571334 ], [ 1.409785, 43.640781 ], [ 1.409857834346594, 43.640702111037363 ], [ 1.409746475907205, 43.640213823896637 ], [ 1.409482, 43.64052 ], [ 1.409719392959117, 43.642504647624648 ] ] ] ] } },
{ "type": "Feature", "properties": { "codgeo": "31022", "value": 660, "isochrone_group": 11.0, "nb_agences": 1 }, "geometry": { "type": "MultiPolygon", "coordinates": [ [ [ [ 1.407701499642569, 43.639113990632602 ], [ 1.407621000434115, 43.639061242396714 ], [ 1.40946381581717, 43.644700749595678 ], [ 1.409471891891439, 43.644659445825631 ], [ 1.407701499642569, 43.639113990632602 ] ] ], [ [ [ 1.466332216904622, 43.681811158109795 ], [ 1.465911177122239, 43.681576517297664 ], [ 1.462182, 43.686105 ], [ 1.465927, 43.681998 ], [ 1.466161, 43.681923 ], [ 1.466332216904622, 43.681811158109795 ] ] ], [ [ [ 1.455897187059605, 43.701813776528894 ], [ 1.457115, 43.701666 ], [ 1.457329, 43.701616 ], [ 1.458218605006031, 43.700821387890187 ], [ 1.455897187059605, 43.701813776528894 ] ] ], [ [ [ 1.464483735014662, 43.691568335148993 ], [ 1.464634, 43.691925 ], [ 1.461963, 43.694339 ], [ 1.458713836837778, 43.696225898319099 ], [ 1.458679614128189, 43.700426859916639 ], [ 1.466179, 43.695642 ], [ 1.46571, 43.693894 ], [ 1.465328, 43.692144 ], [ 1.464483735014662, 43.691568335148993 ] ] ] ] } },
{ "type": "Feature", "properties": { "codgeo": "31022", "value": 720, "isochrone_group": 12.0, "nb_agences": 1 }, "geometry": { "type": "MultiPolygon", "coordinates": [ [ [ [ 1.381244, 43.669932 ], [ 1.381318702220139, 43.669821579234871 ], [ 1.381318702220136, 43.669821579234871 ], [ 1.381244, 43.669932 ] ] ], [ [ [ 1.471212, 43.695858 ], [ 1.469002, 43.698439 ], [ 1.467918, 43.699434 ], [ 1.465607490316365, 43.701387618154229 ], [ 1.465681, 43.70154 ], [ 1.466113, 43.701657 ], [ 1.466607, 43.701849 ], [ 1.466664, 43.701877 ], [ 1.467001831317708, 43.702929541988553 ], [ 1.468426, 43.701373 ], [ 1.473258, 43.697059 ], [ 1.473440780033141, 43.695946753369768 ], [ 1.471339854477603, 43.695499754285542 ], [ 1.471212, 43.695858 ] ] ] ] } },
{ "type": "Feature", "properties": { "codgeo": "31022", "value": 780, "isochrone_group": 13.0, "nb_agences": 1 }, "geometry": { "type": "MultiPolygon", "coordinates": [ [ [ [ 1.445798763480449, 43.701946172244732 ], [ 1.446455290765886, 43.703098485045807 ], [ 1.447225003622399, 43.702852255473857 ], [ 1.446445, 43.702283 ], [ 1.445933, 43.701918 ], [ 1.445798763480449, 43.701946172244732 ] ] ], [ [ [ 1.469845, 43.703223 ], [ 1.469819874443695, 43.703324179099042 ], [ 1.470445, 43.703855 ], [ 1.470575307939018, 43.704030986740371 ], [ 1.474332726926477, 43.700853897564237 ], [ 1.473399, 43.701067 ], [ 1.469872504730737, 43.703135661819161 ], [ 1.469845, 43.703223 ] ] ] ] } },
{ "type": "Feature", "properties": { "codgeo": "31022", "value": 840, "isochrone_group": 14.0, "nb_agences": 1 }, "geometry": { "type": "MultiPolygon", "coordinates": [ [ [ [ 1.372124716602018, 43.688690665973347 ], [ 1.368025063348556, 43.683794075662959 ], [ 1.367982, 43.683901 ], [ 1.372211638257604, 43.689112404302278 ], [ 1.372124716602018, 43.688690665973347 ] ] ], [ [ [ 1.371176291034648, 43.679708170438047 ], [ 1.370628, 43.680032 ], [ 1.370533432667518, 43.680112949636616 ], [ 1.371176291034648, 43.679708170438047 ] ] ], [ [ [ 1.372223, 43.693954 ], [ 1.372404, 43.693232 ], [ 1.372577751490061, 43.691210549737598 ], [ 1.372517227733299, 43.690596311201027 ], [ 1.372198, 43.694055 ], [ 1.372135, 43.694308 ], [ 1.372155023476643, 43.694356312822862 ], [ 1.37224068043633, 43.69397425417074 ], [ 1.372223, 43.693954 ] ] ], [ [ [ 1.478284, 43.700725 ], [ 1.479679935504153, 43.700293224841609 ], [ 1.478890009412676, 43.700300003559853 ], [ 1.473793049951069, 43.702760627287589 ], [ 1.474256175830954, 43.707318190548605 ], [ 1.474376960728219, 43.707546299074586 ], [ 1.478284, 43.700725 ] ] ] ] } },
{ "type": "Feature", "properties": { "codgeo": "31022", "value": 900, "isochrone_group": 15.0, "nb_agences": 1 }, "geometry": { "type": "MultiPolygon", "coordinates": [ [ [ [ 1.36930438843805, 43.691512572943473 ], [ 1.369735472782477, 43.6910165176105 ], [ 1.367409692609697, 43.688423837718823 ], [ 1.367462, 43.688682 ], [ 1.367504, 43.688823 ], [ 1.36930438843805, 43.691512572943473 ] ] ], [ [ [ 1.367982742890615, 43.683901915327304 ], [ 1.367982742890613, 43.683901915327304 ], [ 1.367875, 43.68417 ], [ 1.367982742890615, 43.683901915327304 ] ] ], [ [ [ 1.476480344467641, 43.705942814892133 ], [ 1.476556902539128, 43.706198008463751 ], [ 1.477737383875125, 43.702414192902573 ], [ 1.477283745446187, 43.702964013858001 ], [ 1.476480344467641, 43.705942814892133 ] ] ] ] } }
]
}
