{
"type": "FeatureCollection",
"name": "Others",
"crs": { "type": "name", "properties": { "name": "urn:ogc:def:crs:OGC:1.3:CRS84" } },
"features": [
{ "type": "Feature", "properties": { "codgeo": "34073", "value": 60, "isochrone_group": 1.0, "nb_agences": 1 }, "geometry": { "type": "Polygon", "coordinates": [ [ [ 3.301927, 43.318533 ], [ 3.302224, 43.31833 ], [ 3.304578, 43.319469 ], [ 3.306745, 43.321287 ], [ 3.307743, 43.322883 ], [ 3.307809, 43.322991 ], [ 3.306978, 43.323927 ], [ 3.30668, 43.324104 ], [ 3.304506, 43.323706 ], [ 3.302007, 43.321499 ], [ 3.302005, 43.321497 ], [ 3.301927, 43.318533 ] ] ] } },
{ "type": "Feature", "properties": { "codgeo": "34073", "value": 120, "isochrone_group": 2.0, "nb_agences": 1 }, "geometry": { "type": "Polygon", "coordinates": [ [ [ 3.291607, 43.323779 ], [ 3.291949, 43.323892 ], [ 3.292018, 43.323683 ], [ 3.292533, 43.32265 ], [ 3.292701, 43.322409 ], [ 3.292898, 43.322167 ], [ 3.293439, 43.321626 ], [ 3.294122, 43.3211 ], [ 3.299324, 43.323683 ], [ 3.29942, 43.32422 ], [ 3.299515, 43.324567 ], [ 3.303087, 43.325831 ], [ 3.304295, 43.325891 ], [ 3.306347, 43.325883 ], [ 3.307793, 43.32573 ], [ 3.309041, 43.325599 ], [ 3.310993, 43.324279 ], [ 3.312655, 43.322279 ], [ 3.312616, 43.321921 ], [ 3.311965, 43.31993 ], [ 3.306885, 43.318373 ], [ 3.301227, 43.316764 ], [ 3.300885, 43.316652 ], [ 3.297872, 43.319199 ], [ 3.295478, 43.319965 ], [ 3.294097, 43.32049 ], [ 3.292174, 43.321221 ], [ 3.292077, 43.321568 ], [ 3.291607, 43.323779 ] ], [ [ 3.302224, 43.31833 ], [ 3.304578, 43.319469 ], [ 3.306745, 43.321287 ], [ 3.307743, 43.322883 ], [ 3.307809, 43.322991 ], [ 3.306978, 43.323927 ], [ 3.30668, 43.324104 ], [ 3.304506, 43.323706 ], [ 3.302007, 43.321499 ], [ 3.302005, 43.321497 ], [ 3.301927, 43.318533 ], [ 3.302224, 43.31833 ] ] ] } },
{ "type": "Feature", "properties": { "codgeo": "34073", "value": 180, "isochrone_group": 3.0, "nb_agences": 1 }, "geometry": { "type": "Polygon", "coordinates": [ [ [ 3.288742, 43.330525 ], [ 3.289047, 43.330336 ], [ 3.289211, 43.330027 ], [ 3.29004, 43.32875 ], [ 3.290217, 43.328469 ], [ 3.290354, 43.328222 ], [ 3.290485, 43.327984 ], [ 3.296285, 43.325023 ], [ 3.300642, 43.328469 ], [ 3.301902, 43.329607 ], [ 3.307987, 43.329163 ], [ 3.308329, 43.329049 ], [ 3.3099, 43.328254 ], [ 3.316347, 43.322207 ], [ 3.318316, 43.319844 ], [ 3.317766, 43.31398 ], [ 3.314874, 43.313573 ], [ 3.312671, 43.314846 ], [ 3.311789, 43.315275 ], [ 3.3034, 43.313631 ], [ 3.301437, 43.31265 ], [ 3.299372, 43.311838 ], [ 3.293685, 43.313505 ], [ 3.28993, 43.319328 ], [ 3.287440289620177, 43.32047120995346 ], [ 3.2878, 43.320606 ], [ 3.287881, 43.320957 ], [ 3.287752, 43.321018 ], [ 3.287395, 43.321095 ], [ 3.287188, 43.321099 ], [ 3.286793592138436, 43.321083788677512 ], [ 3.286792, 43.321122 ], [ 3.289037, 43.329581 ], [ 3.288589, 43.330148 ], [ 3.288466, 43.330293 ], [ 3.288742, 43.330525 ] ], [ [ 3.294097, 43.32049 ], [ 3.295478, 43.319965 ], [ 3.297872, 43.319199 ], [ 3.300885, 43.316652 ], [ 3.301227, 43.316764 ], [ 3.306885, 43.318373 ], [ 3.311965, 43.31993 ], [ 3.312616, 43.321921 ], [ 3.312655, 43.322279 ], [ 3.310993, 43.324279 ], [ 3.309041, 43.325599 ], [ 3.307793, 43.32573 ], [ 3.306347, 43.325883 ], [ 3.304295, 43.325891 ], [ 3.303087, 43.325831 ], [ 3.299515, 43.324567 ], [ 3.29942, 43.32422 ], [ 3.299324, 43.323683 ], [ 3.294122, 43.3211 ], [ 3.293439, 43.321626 ], [ 3.292898, 43.322167 ], [ 3.292701, 43.322409 ], [ 3.292533, 43.32265 ], [ 3.292018, 43.323683 ], [ 3.291949, 43.323892 ], [ 3.291607, 43.323779 ], [ 3.292077, 43.321568 ], [ 3.292174, 43.321221 ], [ 3.294097, 43.32049 ] ] ] } },
{ "type": "Feature", "properties": { "codgeo": "34073", "value": 240, "isochrone_group": 4.0, "nb_agences": 1 }, "geometry": { "type": "Polygon", "coordinates": [ [ [ 3.27796, 43.337236 ], [ 3.281876, 43.336644 ], [ 3.28898, 43.334041 ], [ 3.289172, 43.333736 ], [ 3.292232, 43.329776 ], [ 3.300279, 43.33195 ], [ 3.300644, 43.332028 ], [ 3.304312, 43.333345 ], [ 3.307687, 43.333185 ], [ 3.308046, 43.333151 ], [ 3.31482, 43.330702 ], [ 3.315107, 43.330485 ], [ 3.318606, 43.327478 ], [ 3.318743, 43.327145 ], [ 3.319503, 43.324075 ], [ 3.323741, 43.318088 ], [ 3.331078, 43.313321 ], [ 3.331091, 43.312961 ], [ 3.330576, 43.312943 ], [ 3.330062, 43.312925 ], [ 3.32984, 43.312927 ], [ 3.329625, 43.312929 ], [ 3.329309, 43.31295 ], [ 3.329003, 43.312971 ], [ 3.327123, 43.31315 ], [ 3.320066, 43.310528 ], [ 3.319633, 43.310779 ], [ 3.3192, 43.31103 ], [ 3.315322, 43.312493 ], [ 3.307026, 43.311062 ], [ 3.305193, 43.310874 ], [ 3.297699, 43.30748 ], [ 3.292752, 43.300679 ], [ 3.292399, 43.300751 ], [ 3.292901, 43.303183 ], [ 3.293403, 43.305615 ], [ 3.29369, 43.307023 ], [ 3.287493, 43.313151 ], [ 3.286879, 43.313149 ], [ 3.286265, 43.313147 ], [ 3.286264, 43.313507 ], [ 3.284434384590872, 43.316210070587069 ], [ 3.284797, 43.316378 ], [ 3.290845550443976, 43.317908226302187 ], [ 3.293685, 43.313505 ], [ 3.299372, 43.311838 ], [ 3.301437, 43.31265 ], [ 3.3034, 43.313631 ], [ 3.311789, 43.315275 ], [ 3.312671, 43.314846 ], [ 3.314874, 43.313573 ], [ 3.317766, 43.31398 ], [ 3.318316, 43.319844 ], [ 3.316347, 43.322207 ], [ 3.3099, 43.328254 ], [ 3.308329, 43.329049 ], [ 3.307987, 43.329163 ], [ 3.301902, 43.329607 ], [ 3.300642, 43.328469 ], [ 3.296285, 43.325023 ], [ 3.290485, 43.327984 ], [ 3.290354, 43.328222 ], [ 3.290217, 43.328469 ], [ 3.29004, 43.32875 ], [ 3.289211, 43.330027 ], [ 3.289047, 43.330336 ], [ 3.288742, 43.330525 ], [ 3.288466, 43.330293 ], [ 3.288589, 43.330148 ], [ 3.289037, 43.329581 ], [ 3.287150754818098, 43.322473762586341 ], [ 3.282756939902432, 43.323948239714966 ], [ 3.283675, 43.324755 ], [ 3.284356, 43.333448 ], [ 3.282939, 43.334033 ], [ 3.282696, 43.334182 ], [ 3.282447, 43.334334 ], [ 3.281642, 43.334867 ], [ 3.279787, 43.335976 ], [ 3.278797, 43.336443 ], [ 3.277806, 43.336911 ], [ 3.27796, 43.337236 ] ] ] } },
{ "type": "Feature", "properties": { "codgeo": "34073", "value": 300, "isochrone_group": 5.0, "nb_agences": 1 }, "geometry": { "type": "MultiPolygon", "coordinates": [ [ [ [ 3.271811, 43.33975 ], [ 3.279052, 43.343472 ], [ 3.279427, 43.344637 ], [ 3.279721, 43.345907 ], [ 3.279792, 43.346104 ], [ 3.279924, 43.346383 ], [ 3.280249, 43.346229 ], [ 3.280261, 43.346031 ], [ 3.283621, 43.338587 ], [ 3.285506, 43.33818 ], [ 3.29361, 43.336724 ], [ 3.293731, 43.336385 ], [ 3.300953408204691, 43.332139093403924 ], [ 3.300644, 43.332028 ], [ 3.300279, 43.33195 ], [ 3.292232, 43.329776 ], [ 3.289172, 43.333736 ], [ 3.28898, 43.334041 ], [ 3.281876, 43.336644 ], [ 3.27796, 43.337236 ], [ 3.277925377666005, 43.337162933386033 ], [ 3.276706, 43.337738 ], [ 3.276698, 43.337742 ], [ 3.276526830417321, 43.337823644423437 ], [ 3.276527, 43.337824 ], [ 3.27607, 43.338042 ], [ 3.275612, 43.33826 ], [ 3.275203, 43.338446 ], [ 3.274797, 43.33863 ], [ 3.274483, 43.338761 ], [ 3.274174, 43.33889 ], [ 3.273846, 43.33901 ], [ 3.273525, 43.339126 ], [ 3.272018, 43.339615 ], [ 3.271482, 43.339765 ], [ 3.270958, 43.33991 ], [ 3.269889, 43.340189 ], [ 3.268822, 43.340468 ], [ 3.268602529195686, 43.340582059641299 ], [ 3.269508, 43.340353 ], [ 3.270435, 43.340119 ], [ 3.271124, 43.339934 ], [ 3.271811, 43.33975 ] ] ], [ [ [ 3.307202, 43.337167 ], [ 3.307548, 43.337266 ], [ 3.310341, 43.337666 ], [ 3.317144, 43.334843 ], [ 3.319487, 43.334026 ], [ 3.323041, 43.330175 ], [ 3.325153, 43.323996 ], [ 3.330131, 43.317358 ], [ 3.333569, 43.315117 ], [ 3.340249, 43.313634 ], [ 3.340266, 43.313275 ], [ 3.337767, 43.312503 ], [ 3.335751, 43.311794 ], [ 3.335586, 43.311767 ], [ 3.331096, 43.311265 ], [ 3.327157, 43.306548 ], [ 3.32695, 43.306254 ], [ 3.326092, 43.306856 ], [ 3.325235, 43.307459 ], [ 3.324679, 43.307815 ], [ 3.324116, 43.308175 ], [ 3.32351, 43.30855 ], [ 3.322902, 43.308926 ], [ 3.322309, 43.309278 ], [ 3.321714, 43.309632 ], [ 3.320931, 43.310057 ], [ 3.320142, 43.310485 ], [ 3.317479, 43.311476 ], [ 3.31699, 43.311733 ], [ 3.316506, 43.311973 ], [ 3.308934, 43.307384 ], [ 3.308576, 43.307348 ], [ 3.30483, 43.31045 ], [ 3.302377768881167, 43.309598994072957 ], [ 3.305193, 43.310874 ], [ 3.307026, 43.311062 ], [ 3.315322, 43.312493 ], [ 3.3192, 43.31103 ], [ 3.319633, 43.310779 ], [ 3.320066, 43.310528 ], [ 3.327123, 43.31315 ], [ 3.329003, 43.312971 ], [ 3.329309, 43.31295 ], [ 3.329625, 43.312929 ], [ 3.32984, 43.312927 ], [ 3.330062, 43.312925 ], [ 3.330576, 43.312943 ], [ 3.331091, 43.312961 ], [ 3.331078, 43.313321 ], [ 3.323741, 43.318088 ], [ 3.319503, 43.324075 ], [ 3.318743, 43.327145 ], [ 3.318606, 43.327478 ], [ 3.315107, 43.330485 ], [ 3.31482, 43.330702 ], [ 3.308046, 43.333151 ], [ 3.307687, 43.333185 ], [ 3.304312, 43.333345 ], [ 3.301255385053813, 43.332247518570313 ], [ 3.30511, 43.334437 ], [ 3.305633, 43.335061 ], [ 3.307202, 43.337167 ] ] ], [ [ [ 3.292235, 43.298174 ], [ 3.291866671322028, 43.296387867137859 ], [ 3.29162, 43.296685 ], [ 3.291562868166178, 43.296697335282296 ], [ 3.291883, 43.298247 ], [ 3.292399545973499, 43.300750888639953 ], [ 3.292752, 43.300679 ], [ 3.297580860310651, 43.307317584793346 ], [ 3.296138, 43.303876 ], [ 3.2959, 43.303605 ], [ 3.292235, 43.298174 ] ] ], [ [ [ 3.293403, 43.305615 ], [ 3.29062079159658, 43.310058034548362 ], [ 3.29369, 43.307023 ], [ 3.293403, 43.305615 ] ] ], [ [ [ 3.271303, 43.321599 ], [ 3.271303000642225, 43.321599002898246 ], [ 3.271634, 43.321525 ], [ 3.271634001429684, 43.321524997250229 ], [ 3.271303, 43.321599 ] ] ], [ [ [ 3.280243737551809, 43.333282138969587 ], [ 3.284295871644581, 43.332680458452785 ], [ 3.28391261545669, 43.3277881735169 ], [ 3.282279432971396, 43.32745019161807 ], [ 3.280243737551809, 43.333282138969587 ] ] ], [ [ [ 3.286264, 43.313507 ], [ 3.286265, 43.313147 ], [ 3.286879, 43.313149 ], [ 3.287493, 43.313151 ], [ 3.287790772410304, 43.312856543112737 ], [ 3.28543606516671, 43.31210559522922 ], [ 3.286054314996208, 43.313816788255743 ], [ 3.286264, 43.313507 ] ] ] ] } },
{ "type": "Feature", "properties": { "codgeo": "34073", "value": 360, "isochrone_group": 6.0, "nb_agences": 1 }, "geometry": { "type": "MultiPolygon", "coordinates": [ [ [ [ 3.282242, 43.349767 ], [ 3.286999, 43.34593 ], [ 3.286004, 43.344414 ], [ 3.291247, 43.337603 ], [ 3.294487, 43.339317 ], [ 3.295081, 43.339988 ], [ 3.295369, 43.340187 ], [ 3.296322, 43.340673 ], [ 3.297419, 43.340938 ], [ 3.298349, 43.341119 ], [ 3.306946, 43.342209 ], [ 3.308359, 43.342392 ], [ 3.312959, 43.340978 ], [ 3.319187, 43.340285 ], [ 3.319259, 43.340278 ], [ 3.323835, 43.33746 ], [ 3.326787, 43.334263 ], [ 3.328941, 43.331379 ], [ 3.329581, 43.323517 ], [ 3.333282, 43.319377 ], [ 3.340127, 43.317633 ], [ 3.342311, 43.316463 ], [ 3.34908, 43.315581 ], [ 3.350914, 43.315641 ], [ 3.352748, 43.3157 ], [ 3.352864, 43.312102 ], [ 3.347027, 43.311097 ], [ 3.34164, 43.309906 ], [ 3.340834, 43.309646 ], [ 3.340317, 43.309606 ], [ 3.336317, 43.309897 ], [ 3.331776, 43.304321 ], [ 3.331266, 43.30299 ], [ 3.330821, 43.302833 ], [ 3.329691, 43.30255 ], [ 3.329033, 43.302393 ], [ 3.328019, 43.30275 ], [ 3.327194, 43.303322 ], [ 3.324304, 43.306133 ], [ 3.323242, 43.306812 ], [ 3.322051, 43.307548 ], [ 3.320886, 43.30824 ], [ 3.313478, 43.304348 ], [ 3.309863, 43.301839 ], [ 3.305652, 43.298342 ], [ 3.304612, 43.298473 ], [ 3.301237, 43.299264 ], [ 3.295827, 43.298534 ], [ 3.293337269806745, 43.294597254826442 ], [ 3.293686, 43.29634 ], [ 3.294072, 43.298263 ], [ 3.292506894211909, 43.298576907903112 ], [ 3.2959, 43.303605 ], [ 3.296138, 43.303876 ], [ 3.297589, 43.307337 ], [ 3.298139, 43.308128 ], [ 3.30483, 43.31045 ], [ 3.308576, 43.307348 ], [ 3.308934, 43.307384 ], [ 3.316506, 43.311973 ], [ 3.31699, 43.311733 ], [ 3.317479, 43.311476 ], [ 3.320142, 43.310485 ], [ 3.320931, 43.310057 ], [ 3.321714, 43.309632 ], [ 3.322309, 43.309278 ], [ 3.322902, 43.308926 ], [ 3.32351, 43.30855 ], [ 3.324116, 43.308175 ], [ 3.324679, 43.307815 ], [ 3.325235, 43.307459 ], [ 3.326092, 43.306856 ], [ 3.32695, 43.306254 ], [ 3.327157, 43.306548 ], [ 3.331096, 43.311265 ], [ 3.335586, 43.311767 ], [ 3.335751, 43.311794 ], [ 3.337767, 43.312503 ], [ 3.340266, 43.313275 ], [ 3.340249, 43.313634 ], [ 3.333569, 43.315117 ], [ 3.330131, 43.317358 ], [ 3.325153, 43.323996 ], [ 3.323041, 43.330175 ], [ 3.319487, 43.334026 ], [ 3.317144, 43.334843 ], [ 3.310341, 43.337666 ], [ 3.307548, 43.337266 ], [ 3.307202, 43.337167 ], [ 3.305633, 43.335061 ], [ 3.30511, 43.334437 ], [ 3.301008, 43.332107 ], [ 3.293731, 43.336385 ], [ 3.29361, 43.336724 ], [ 3.285506, 43.33818 ], [ 3.284791653700235, 43.338334238166595 ], [ 3.284748, 43.338523 ], [ 3.282640368018845, 43.340759566805858 ], [ 3.280261, 43.346031 ], [ 3.280249, 43.346229 ], [ 3.279924, 43.346383 ], [ 3.279792, 43.346104 ], [ 3.279721, 43.345907 ], [ 3.279427, 43.344637 ], [ 3.279052, 43.343472 ], [ 3.275477987796281, 43.341634895536203 ], [ 3.272564, 43.34114 ], [ 3.272393608684859, 43.341768417209359 ], [ 3.275204, 43.349557 ], [ 3.274634, 43.350257 ], [ 3.274158, 43.350914 ], [ 3.273790539651234, 43.351498483910447 ], [ 3.274789, 43.352036 ], [ 3.275326, 43.352202 ], [ 3.275104748177334, 43.35340605883205 ], [ 3.276441, 43.354137 ], [ 3.281367, 43.350503 ], [ 3.281828, 43.350185 ], [ 3.282242, 43.349767 ] ] ], [ [ [ 3.279475678971312, 43.305375783563278 ], [ 3.281604, 43.307897 ], [ 3.288664, 43.305868 ], [ 3.292121922420474, 43.299405144996072 ], [ 3.291973143836485, 43.298683960386327 ], [ 3.290542, 43.298971 ], [ 3.290142853039033, 43.298939556782393 ], [ 3.287058, 43.306303 ], [ 3.279475678971312, 43.305375783563278 ] ] ], [ [ [ 3.275159610748295, 43.307056639461486 ], [ 3.275159, 43.307057 ], [ 3.271466, 43.313003 ], [ 3.271176643612291, 43.313283505486453 ], [ 3.272298, 43.312741 ], [ 3.275321214780885, 43.307321452792202 ], [ 3.275159610748295, 43.307056639461486 ] ] ], [ [ [ 3.261854, 43.321944 ], [ 3.261881725546087, 43.322184131424578 ], [ 3.262066886505187, 43.321910699317634 ], [ 3.261854, 43.321944 ] ] ], [ [ [ 3.262267, 43.325521 ], [ 3.262738, 43.325466 ], [ 3.269344981418452, 43.331170684702364 ], [ 3.269525, 43.331181 ], [ 3.271253, 43.331279 ], [ 3.273184, 43.331309 ], [ 3.273775, 43.331334 ], [ 3.274955, 43.331432 ], [ 3.280441654675719, 43.329707622816194 ], [ 3.279976, 43.329264 ], [ 3.276451, 43.32757 ], [ 3.272515, 43.326508 ], [ 3.267289, 43.324469 ], [ 3.262088431294201, 43.323974413412479 ], [ 3.262267, 43.325521 ] ] ] ] } },
{ "type": "Feature", "properties": { "codgeo": "34073", "value": 420, "isochrone_group": 7.0, "nb_agences": 1 }, "geometry": { "type": "MultiPolygon", "coordinates": [ [ [ [ 3.294353, 43.342553 ], [ 3.302224, 43.343723 ], [ 3.303234, 43.344734 ], [ 3.303457, 43.3448 ], [ 3.308388, 43.346022 ], [ 3.313248, 43.342818 ], [ 3.316715, 43.341758 ], [ 3.319805, 43.341174 ], [ 3.325584, 43.340685 ], [ 3.328107, 43.339897 ], [ 3.333974, 43.336242 ], [ 3.333445, 43.332681 ], [ 3.331011, 43.327545 ], [ 3.33786, 43.323367 ], [ 3.34082, 43.322406 ], [ 3.347024, 43.318382 ], [ 3.351801054859076, 43.315669536661233 ], [ 3.350914, 43.315641 ], [ 3.34908, 43.315581 ], [ 3.342311, 43.316463 ], [ 3.340127, 43.317633 ], [ 3.333282, 43.319377 ], [ 3.329581, 43.323517 ], [ 3.328941, 43.331379 ], [ 3.326787, 43.334263 ], [ 3.323835, 43.33746 ], [ 3.319259, 43.340278 ], [ 3.319187, 43.340285 ], [ 3.312959, 43.340978 ], [ 3.308359, 43.342392 ], [ 3.306946, 43.342209 ], [ 3.298349, 43.341119 ], [ 3.297419, 43.340938 ], [ 3.296322, 43.340673 ], [ 3.295369, 43.340187 ], [ 3.295081, 43.339988 ], [ 3.294487, 43.339317 ], [ 3.291247, 43.337603 ], [ 3.286004, 43.344414 ], [ 3.286999, 43.34593 ], [ 3.286815995698399, 43.346077611415851 ], [ 3.290841, 43.344039 ], [ 3.292615, 43.343322 ], [ 3.293389, 43.342986 ], [ 3.294353, 43.342553 ] ] ], [ [ [ 3.360831, 43.316026 ], [ 3.363932, 43.316066 ], [ 3.36415, 43.312473 ], [ 3.360893, 43.31177 ], [ 3.360545, 43.311704 ], [ 3.360295, 43.311675 ], [ 3.352007, 43.310452 ], [ 3.349917, 43.310125 ], [ 3.348926, 43.310434 ], [ 3.347096169174713, 43.311108909374759 ], [ 3.352864, 43.312102 ], [ 3.352748, 43.3157 ], [ 3.352007572169626, 43.315676180347886 ], [ 3.356984, 43.31585 ], [ 3.358318, 43.315851 ], [ 3.360831, 43.316026 ] ] ], [ [ [ 3.335069, 43.300015 ], [ 3.328756, 43.29701 ], [ 3.328053, 43.297882 ], [ 3.326509, 43.299823 ], [ 3.323855, 43.30172 ], [ 3.316498, 43.299345 ], [ 3.315716, 43.295831 ], [ 3.313831, 43.296251 ], [ 3.312389, 43.296638 ], [ 3.309719, 43.297375 ], [ 3.301524, 43.294349 ], [ 3.299844, 43.295504 ], [ 3.297841, 43.296142 ], [ 3.295047489807493, 43.293267941667153 ], [ 3.293301, 43.294416 ], [ 3.293337290282349, 43.294597287202336 ], [ 3.293353695781417, 43.294623227470645 ], [ 3.298820759773155, 43.298937963888051 ], [ 3.301237, 43.299264 ], [ 3.304612, 43.298473 ], [ 3.305652, 43.298342 ], [ 3.309863, 43.301839 ], [ 3.313478, 43.304348 ], [ 3.320886, 43.30824 ], [ 3.322051, 43.307548 ], [ 3.323157, 43.306864 ], [ 3.323157419844864, 43.306864267837263 ], [ 3.323242, 43.306812 ], [ 3.324304, 43.306133 ], [ 3.327194, 43.303322 ], [ 3.328019, 43.30275 ], [ 3.329033, 43.302393 ], [ 3.329691, 43.30255 ], [ 3.330821, 43.302833 ], [ 3.331266, 43.30299 ], [ 3.331776, 43.304321 ], [ 3.336317, 43.309897 ], [ 3.340317, 43.309606 ], [ 3.340834, 43.309646 ], [ 3.34164, 43.309906 ], [ 3.344404591139957, 43.31051721738401 ], [ 3.338637, 43.307743 ], [ 3.335424, 43.300501 ], [ 3.335069, 43.300015 ] ] ], [ [ [ 3.259707, 43.326641 ], [ 3.26024, 43.326513 ], [ 3.260345, 43.326517 ], [ 3.263106, 43.326541 ], [ 3.263248, 43.326539 ], [ 3.26455, 43.327031 ], [ 3.265061, 43.32799 ], [ 3.266236188797055, 43.328486451073282 ], [ 3.262738, 43.325466 ], [ 3.262267, 43.325521 ], [ 3.262266640468087, 43.325517886088008 ], [ 3.262093, 43.325537 ], [ 3.261333, 43.325572 ], [ 3.260498, 43.325575 ], [ 3.259560731025034, 43.326684949363361 ], [ 3.259707, 43.326641 ] ] ] ] } },
{ "type": "Feature", "properties": { "codgeo": "34073", "value": 480, "isochrone_group": 8.0, "nb_agences": 1 }, "geometry": { "type": "MultiPolygon", "coordinates": [ [ [ [ 3.303941, 43.346307 ], [ 3.304897, 43.34658 ], [ 3.310609, 43.348756 ], [ 3.312405, 43.348969 ], [ 3.313037, 43.348776 ], [ 3.313163, 43.348716 ], [ 3.313804, 43.347265 ], [ 3.316979, 43.342297 ], [ 3.324811, 43.342306 ], [ 3.326014, 43.34283 ], [ 3.331048, 43.343291 ], [ 3.331744, 43.343178 ], [ 3.333274, 43.342571 ], [ 3.333409, 43.342515 ], [ 3.339023, 43.337294 ], [ 3.338682, 43.33371 ], [ 3.339935, 43.32516 ], [ 3.3411, 43.323967 ], [ 3.343843099115044, 43.320445176202625 ], [ 3.34082, 43.322406 ], [ 3.33786, 43.323367 ], [ 3.331011, 43.327545 ], [ 3.333445, 43.332681 ], [ 3.333974, 43.336242 ], [ 3.328107, 43.339897 ], [ 3.325584, 43.340685 ], [ 3.319805, 43.341174 ], [ 3.316715, 43.341758 ], [ 3.313248, 43.342818 ], [ 3.308388, 43.346022 ], [ 3.303457, 43.3448 ], [ 3.303234, 43.344734 ], [ 3.302224, 43.343723 ], [ 3.294353, 43.342553 ], [ 3.293389, 43.342986 ], [ 3.292615, 43.343322 ], [ 3.290841, 43.344039 ], [ 3.296401, 43.345665 ], [ 3.298007, 43.345871 ], [ 3.298567, 43.345908 ], [ 3.303941, 43.346307 ] ] ], [ [ [ 3.352445, 43.320217 ], [ 3.360029, 43.319508 ], [ 3.360138, 43.319518 ], [ 3.361881, 43.319207 ], [ 3.362114, 43.319028 ], [ 3.367784, 43.316204 ], [ 3.375081, 43.316154 ], [ 3.376492, 43.316455 ], [ 3.37672, 43.316462 ], [ 3.37705, 43.316441 ], [ 3.376935, 43.312842 ], [ 3.375026, 43.312751 ], [ 3.373879, 43.312761 ], [ 3.367909, 43.312606 ], [ 3.364244, 43.312479 ], [ 3.359371, 43.30865 ], [ 3.356809, 43.308348 ], [ 3.348074, 43.307812 ], [ 3.347334, 43.307802 ], [ 3.34625, 43.308377 ], [ 3.339301, 43.30614 ], [ 3.340683, 43.300848 ], [ 3.339437, 43.297471 ], [ 3.334976, 43.294494 ], [ 3.329337, 43.293716 ], [ 3.326958, 43.294922 ], [ 3.318532, 43.294643 ], [ 3.317067, 43.294039 ], [ 3.316351, 43.293678 ], [ 3.312780513475926, 43.293783256366034 ], [ 3.312183, 43.294449 ], [ 3.309107, 43.296164 ], [ 3.307283, 43.296436 ], [ 3.307186236372084, 43.296439778189367 ], [ 3.309719, 43.297375 ], [ 3.312389, 43.296638 ], [ 3.313831, 43.296251 ], [ 3.315716, 43.295831 ], [ 3.316498, 43.299345 ], [ 3.323855, 43.30172 ], [ 3.326509, 43.299823 ], [ 3.328053, 43.297882 ], [ 3.328756, 43.29701 ], [ 3.335069, 43.300015 ], [ 3.335424, 43.300501 ], [ 3.338637, 43.307743 ], [ 3.346269, 43.311414 ], [ 3.348926, 43.310434 ], [ 3.349917, 43.310125 ], [ 3.352007, 43.310452 ], [ 3.360295, 43.311675 ], [ 3.360545, 43.311704 ], [ 3.360893, 43.31177 ], [ 3.36415, 43.312473 ], [ 3.363932, 43.316066 ], [ 3.360831, 43.316026 ], [ 3.358318, 43.315851 ], [ 3.356984, 43.31585 ], [ 3.351802, 43.315669 ], [ 3.347024, 43.318382 ], [ 3.346421867394085, 43.318772551516147 ], [ 3.349167, 43.31905 ], [ 3.35045, 43.319743 ], [ 3.351628, 43.320086 ], [ 3.352445, 43.320217 ] ] ], [ [ [ 3.301525188804434, 43.29434943896549 ], [ 3.303485126506765, 43.295073145065196 ], [ 3.302634378558754, 43.293570668559504 ], [ 3.302614, 43.293582 ], [ 3.301935, 43.294068 ], [ 3.301525188804434, 43.29434943896549 ] ] ], [ [ [ 3.295508666979742, 43.293216721261281 ], [ 3.29860697999674, 43.295898018353498 ], [ 3.299844, 43.295504 ], [ 3.295508666979742, 43.293216721261281 ] ] ], [ [ [ 3.290621798375025, 43.344176451335024 ], [ 3.290841, 43.344039 ], [ 3.290626480234953, 43.344147651422254 ], [ 3.290621798375025, 43.344176451335024 ] ] ] ] } },
{ "type": "Feature", "properties": { "codgeo": "34073", "value": 540, "isochrone_group": 9.0, "nb_agences": 1 }, "geometry": { "type": "MultiPolygon", "coordinates": [ [ [ [ 3.257836, 43.308867 ], [ 3.254868, 43.311275 ], [ 3.2542328260536, 43.312299582117021 ], [ 3.258253, 43.312771 ], [ 3.260769117511528, 43.313204207250195 ], [ 3.265007800543361, 43.309263807578596 ], [ 3.264505, 43.309073 ], [ 3.262805, 43.308905 ], [ 3.259785, 43.308838 ], [ 3.257836, 43.308867 ] ] ], [ [ [ 3.315556, 43.350589 ], [ 3.31739, 43.350175 ], [ 3.317386, 43.349994 ], [ 3.323383, 43.344157 ], [ 3.325603, 43.344794 ], [ 3.331541, 43.344442 ], [ 3.334819, 43.343525 ], [ 3.337456, 43.342133 ], [ 3.344544, 43.336832 ], [ 3.344892, 43.335905 ], [ 3.344904, 43.33572 ], [ 3.344818, 43.33496 ], [ 3.344427, 43.334148 ], [ 3.341948, 43.325736 ], [ 3.346148, 43.320123 ], [ 3.35045, 43.319743 ], [ 3.349167, 43.31905 ], [ 3.345239, 43.318653 ], [ 3.3411, 43.323967 ], [ 3.339935, 43.32516 ], [ 3.338682, 43.33371 ], [ 3.339023, 43.337294 ], [ 3.333409, 43.342515 ], [ 3.333274, 43.342571 ], [ 3.331744, 43.343178 ], [ 3.331048, 43.343291 ], [ 3.326014, 43.34283 ], [ 3.324811, 43.342306 ], [ 3.316979, 43.342297 ], [ 3.313804, 43.347265 ], [ 3.313163, 43.348716 ], [ 3.313037, 43.348776 ], [ 3.312405, 43.348969 ], [ 3.310609, 43.348756 ], [ 3.304897, 43.34658 ], [ 3.303941, 43.346307 ], [ 3.298567, 43.345908 ], [ 3.298007, 43.345871 ], [ 3.302968, 43.348466 ], [ 3.311461, 43.351395 ], [ 3.313062, 43.351152 ], [ 3.315556, 43.350589 ] ] ], [ [ [ 3.359752, 43.32171 ], [ 3.360371, 43.321523 ], [ 3.362857, 43.320925 ], [ 3.367784, 43.316204 ], [ 3.362114, 43.319028 ], [ 3.361881, 43.319207 ], [ 3.360138, 43.319518 ], [ 3.360029, 43.319508 ], [ 3.352445, 43.320217 ], [ 3.351628, 43.320086 ], [ 3.355008, 43.321742 ], [ 3.357904, 43.321809 ], [ 3.35911, 43.321806 ], [ 3.359752, 43.32171 ] ] ], [ [ [ 3.383553, 43.316544 ], [ 3.38589, 43.316027 ], [ 3.388227, 43.31551 ], [ 3.38745, 43.311995 ], [ 3.385113, 43.312512 ], [ 3.379964, 43.312211 ], [ 3.376246, 43.309036 ], [ 3.372058, 43.30812 ], [ 3.364019, 43.308226 ], [ 3.35925, 43.30666 ], [ 3.358692, 43.306711 ], [ 3.353227, 43.306221 ], [ 3.352582, 43.306012 ], [ 3.352381, 43.305985 ], [ 3.351784, 43.305863 ], [ 3.350041, 43.297259 ], [ 3.350041, 43.297226 ], [ 3.349648, 43.296136 ], [ 3.348268, 43.295384 ], [ 3.346238, 43.294616 ], [ 3.344983, 43.295283 ], [ 3.342447, 43.296198 ], [ 3.337092, 43.295711 ], [ 3.333462, 43.292608 ], [ 3.330029, 43.291524 ], [ 3.326006, 43.293272 ], [ 3.325119, 43.293624 ], [ 3.324561, 43.29389 ], [ 3.32083599682591, 43.293474287457812 ], [ 3.320297109230901, 43.294701445938202 ], [ 3.326958, 43.294922 ], [ 3.329337, 43.293716 ], [ 3.334976, 43.294494 ], [ 3.339437, 43.297471 ], [ 3.340683, 43.300848 ], [ 3.339301, 43.30614 ], [ 3.34625, 43.308377 ], [ 3.347334, 43.307802 ], [ 3.348074, 43.307812 ], [ 3.356809, 43.308348 ], [ 3.359371, 43.30865 ], [ 3.364244, 43.312479 ], [ 3.367909, 43.312606 ], [ 3.373879, 43.312761 ], [ 3.375026, 43.312751 ], [ 3.376935, 43.312842 ], [ 3.37705, 43.316441 ], [ 3.37672, 43.316462 ], [ 3.376492, 43.316455 ], [ 3.375081, 43.316154 ], [ 3.367784, 43.316204 ], [ 3.373645, 43.318653 ], [ 3.374719, 43.319806 ], [ 3.382776, 43.316646 ], [ 3.383553, 43.316544 ] ] ], [ [ [ 3.292353863110906, 43.344481430830633 ], [ 3.291772491904222, 43.347062681236942 ], [ 3.298007, 43.345871 ], [ 3.296401, 43.345665 ], [ 3.292353863110906, 43.344481430830633 ] ] ] ] } },
{ "type": "Feature", "properties": { "codgeo": "34073", "value": 600, "isochrone_group": 10.0, "nb_agences": 1 }, "geometry": { "type": "MultiPolygon", "coordinates": [ [ [ [ 3.373906, 43.306285 ], [ 3.373049, 43.306785 ], [ 3.366918662847777, 43.308187765858698 ], [ 3.372058, 43.30812 ], [ 3.376246, 43.309036 ], [ 3.379964, 43.312211 ], [ 3.385113, 43.312512 ], [ 3.385486102026499, 43.312429460955222 ], [ 3.385486, 43.312429 ], [ 3.389263, 43.311032 ], [ 3.389347, 43.311 ], [ 3.392184256052836, 43.310848336734885 ], [ 3.394976024173245, 43.310026336082849 ], [ 3.397428322461823, 43.30921631477851 ], [ 3.39252, 43.30996 ], [ 3.389128, 43.308755 ], [ 3.388241, 43.308887 ], [ 3.382277, 43.309442 ], [ 3.378691, 43.305357 ], [ 3.377077, 43.304873 ], [ 3.375712, 43.305005 ], [ 3.374679, 43.305811 ], [ 3.373906, 43.306285 ] ] ], [ [ [ 3.354711, 43.304108 ], [ 3.356393, 43.296336 ], [ 3.35793, 43.295992 ], [ 3.360156, 43.295315 ], [ 3.360659, 43.295122 ], [ 3.361095, 43.294905 ], [ 3.361345, 43.294761 ], [ 3.361274, 43.291905 ], [ 3.361236, 43.291878 ], [ 3.359544, 43.291644 ], [ 3.356886, 43.292546 ], [ 3.349788, 43.293136 ], [ 3.348029, 43.293985 ], [ 3.346579, 43.294461 ], [ 3.346261090083293, 43.2946247355586 ], [ 3.348268, 43.295384 ], [ 3.349648, 43.296136 ], [ 3.350041, 43.297226 ], [ 3.350041, 43.297259 ], [ 3.351784, 43.305863 ], [ 3.352381, 43.305985 ], [ 3.352582, 43.306012 ], [ 3.353227, 43.306221 ], [ 3.358692, 43.306711 ], [ 3.35925, 43.30666 ], [ 3.364019, 43.308226 ], [ 3.365152770432783, 43.308211050420972 ], [ 3.36295, 43.305967 ], [ 3.362822, 43.305864 ], [ 3.36214, 43.305518 ], [ 3.359952, 43.304979 ], [ 3.359649, 43.304925 ], [ 3.358614, 43.305093 ], [ 3.354711, 43.304108 ] ] ], [ [ [ 3.330029, 43.291524 ], [ 3.333462, 43.292608 ], [ 3.337092, 43.295711 ], [ 3.342447, 43.296198 ], [ 3.335793, 43.292675 ], [ 3.335263, 43.290745 ], [ 3.33528, 43.289112 ], [ 3.331031, 43.289176 ], [ 3.330429129585344, 43.289381216649957 ], [ 3.329486893233084, 43.291759546266121 ], [ 3.330029, 43.291524 ] ] ], [ [ [ 3.310254977842708, 43.35345735926262 ], [ 3.312716500838915, 43.351204439910134 ], [ 3.311461, 43.351395 ], [ 3.302968, 43.348466 ], [ 3.298007, 43.345871 ], [ 3.295678490459655, 43.346316077797084 ], [ 3.296026257345127, 43.349412469038626 ], [ 3.299690275926934, 43.350938091558064 ], [ 3.30108, 43.351132 ], [ 3.301121785637178, 43.351162158842648 ], [ 3.30704, 43.351826 ], [ 3.307841, 43.352164 ], [ 3.310254977842708, 43.35345735926262 ] ] ], [ [ [ 3.335421, 43.345065 ], [ 3.338084, 43.344077 ], [ 3.339942, 43.342065 ], [ 3.342673, 43.339316 ], [ 3.345232, 43.336752 ], [ 3.347066, 43.334184 ], [ 3.347583, 43.329647 ], [ 3.348109, 43.32778 ], [ 3.348018, 43.327488 ], [ 3.3527045399011, 43.320613440850948 ], [ 3.351628, 43.320086 ], [ 3.35045, 43.319743 ], [ 3.346172100163472, 43.32012087120826 ], [ 3.346120072124005, 43.320160323611425 ], [ 3.341948, 43.325736 ], [ 3.344427, 43.334148 ], [ 3.344818, 43.33496 ], [ 3.344904, 43.33572 ], [ 3.344892, 43.335905 ], [ 3.344544, 43.336832 ], [ 3.337456, 43.342133 ], [ 3.334819, 43.343525 ], [ 3.331541, 43.344442 ], [ 3.325603, 43.344794 ], [ 3.323383, 43.344157 ], [ 3.317386, 43.349994 ], [ 3.31739, 43.350175 ], [ 3.315556, 43.350589 ], [ 3.314201467174558, 43.350894774651458 ], [ 3.317070481444517, 43.35127839681693 ], [ 3.323904, 43.347575 ], [ 3.324718, 43.347869 ], [ 3.325618, 43.348233 ], [ 3.326814, 43.348784 ], [ 3.327874, 43.349321 ], [ 3.335421, 43.345065 ] ] ], [ [ [ 3.378326, 43.321855 ], [ 3.383553, 43.316544 ], [ 3.382776, 43.316646 ], [ 3.374719, 43.319806 ], [ 3.373645, 43.318653 ], [ 3.367784, 43.316204 ], [ 3.362857, 43.320925 ], [ 3.360371, 43.321523 ], [ 3.359752, 43.32171 ], [ 3.364706, 43.321151 ], [ 3.365634, 43.321189 ], [ 3.366077, 43.321149 ], [ 3.374873, 43.322871 ], [ 3.377162, 43.322784 ], [ 3.378117, 43.322235 ], [ 3.378326, 43.321855 ] ] ], [ [ [ 3.38589, 43.316027 ], [ 3.383553, 43.316544 ], [ 3.386344, 43.315927 ], [ 3.387830877893987, 43.31559763163407 ], [ 3.38589, 43.316027 ] ] ], [ [ [ 3.248115, 43.311661 ], [ 3.247317519704292, 43.310882794152548 ], [ 3.247157, 43.310809 ], [ 3.245022491749765, 43.310789062970208 ], [ 3.242722085393973, 43.316155596274157 ], [ 3.243456, 43.315394 ], [ 3.244275, 43.314908 ], [ 3.244927, 43.314597 ], [ 3.246504, 43.313861 ], [ 3.247005, 43.313642 ], [ 3.247731, 43.313357 ], [ 3.248342, 43.313159 ], [ 3.248661147840114, 43.313062749064095 ], [ 3.248115, 43.311661 ] ] ], [ [ [ 3.392058984674785, 43.314629932233217 ], [ 3.392058959167311, 43.31462981944135 ], [ 3.390047, 43.315085 ], [ 3.390031413161525, 43.315088832548668 ], [ 3.392058984674785, 43.314629932233217 ] ] ], [ [ [ 3.389155484618164, 43.315304209051078 ], [ 3.389179, 43.315299 ], [ 3.389691174115734, 43.315172491765161 ], [ 3.389155484618164, 43.315304209051078 ] ] ] ] } },
{ "type": "Feature", "properties": { "codgeo": "34073", "value": 660, "isochrone_group": 11.0, "nb_agences": 1 }, "geometry": { "type": "MultiPolygon", "coordinates": [ [ [ [ 3.383115196256164, 43.309363998839331 ], [ 3.387103, 43.307285 ], [ 3.389391, 43.307332 ], [ 3.392922, 43.30803 ], [ 3.399968, 43.308489 ], [ 3.39305, 43.306873 ], [ 3.389913, 43.305203 ], [ 3.383593, 43.304068 ], [ 3.382993, 43.304039 ], [ 3.380395, 43.30483 ], [ 3.377317154668736, 43.304945016641682 ], [ 3.378691, 43.305357 ], [ 3.382277, 43.309442 ], [ 3.383115196256164, 43.309363998839331 ] ] ], [ [ [ 3.362313, 43.294033 ], [ 3.362616, 43.293718 ], [ 3.363161, 43.293231 ], [ 3.363356, 43.292856 ], [ 3.363501, 43.292534 ], [ 3.364064, 43.28993 ], [ 3.364372, 43.289076 ], [ 3.36438, 43.288098 ], [ 3.364019, 43.287968 ], [ 3.360781, 43.288026 ], [ 3.356886, 43.292546 ], [ 3.359544, 43.291644 ], [ 3.361236, 43.291878 ], [ 3.361274, 43.291905 ], [ 3.361345, 43.294761 ], [ 3.361095, 43.294905 ], [ 3.360659, 43.295122 ], [ 3.360156, 43.295315 ], [ 3.35793, 43.295992 ], [ 3.356393, 43.296336 ], [ 3.354711, 43.304108 ], [ 3.358614, 43.305093 ], [ 3.359649, 43.304925 ], [ 3.359952, 43.304979 ], [ 3.36214, 43.305518 ], [ 3.362822, 43.305864 ], [ 3.36295, 43.305967 ], [ 3.365458, 43.308522 ], [ 3.373049, 43.306785 ], [ 3.364178, 43.305862 ], [ 3.363357, 43.304972 ], [ 3.358663, 43.298875 ], [ 3.360101, 43.2961 ], [ 3.361476, 43.29468 ], [ 3.361878, 43.294397 ], [ 3.362313, 43.294033 ] ] ], [ [ [ 3.346579, 43.294461 ], [ 3.348029, 43.293985 ], [ 3.349788, 43.293136 ], [ 3.351616110361463, 43.292984043799208 ], [ 3.348606, 43.291918 ], [ 3.346579, 43.294461 ] ] ], [ [ [ 3.33528, 43.289112 ], [ 3.335263, 43.290745 ], [ 3.335793, 43.292675 ], [ 3.340990182504064, 43.295426679284873 ], [ 3.342889, 43.296086 ], [ 3.342892052526892, 43.296098064913778 ], [ 3.343164, 43.296037 ], [ 3.344983, 43.295283 ], [ 3.337755, 43.291178 ], [ 3.338172, 43.289137 ], [ 3.334707, 43.288161 ], [ 3.330232, 43.287843 ], [ 3.329747763441462, 43.288503724033816 ], [ 3.331421154435517, 43.289170123350473 ], [ 3.33528, 43.289112 ] ] ], [ [ [ 3.330441, 43.353633 ], [ 3.330440805776043, 43.353633173535655 ], [ 3.331333, 43.354632 ], [ 3.330134558040489, 43.355702340342255 ], [ 3.335406852539897, 43.35579237708653 ], [ 3.335257, 43.355652 ], [ 3.333909, 43.354327 ], [ 3.332609, 43.353041 ], [ 3.332143, 43.35261 ], [ 3.331137, 43.35174 ], [ 3.330353, 43.351116 ], [ 3.332598, 43.348301 ], [ 3.333381, 43.348926 ], [ 3.334494, 43.349884 ], [ 3.335051, 43.350396 ], [ 3.336439, 43.351767 ], [ 3.337769, 43.353073 ], [ 3.338999, 43.354225 ], [ 3.342996, 43.357025 ], [ 3.344946, 43.358001 ], [ 3.345553038422898, 43.358250651582324 ], [ 3.345604, 43.358137 ], [ 3.343426, 43.35699 ], [ 3.343022, 43.356791 ], [ 3.340992, 43.355601 ], [ 3.340361, 43.355139 ], [ 3.339329, 43.354321 ], [ 3.33807, 43.353159 ], [ 3.339227, 43.345275 ], [ 3.341001, 43.344207 ], [ 3.345105, 43.341045 ], [ 3.34624, 43.340006 ], [ 3.347647, 43.335532 ], [ 3.353144, 43.330295 ], [ 3.353268, 43.330224 ], [ 3.352968, 43.327604 ], [ 3.35911, 43.321806 ], [ 3.357904, 43.321809 ], [ 3.357061, 43.321616 ], [ 3.354576432398761, 43.320706769368186 ], [ 3.353929, 43.320559 ], [ 3.353813823375046, 43.320531268152429 ], [ 3.352863, 43.320381 ], [ 3.348018, 43.327488 ], [ 3.348109, 43.32778 ], [ 3.347583, 43.329647 ], [ 3.347066, 43.334184 ], [ 3.345232, 43.336752 ], [ 3.342673, 43.339316 ], [ 3.339942, 43.342065 ], [ 3.338084, 43.344077 ], [ 3.335421, 43.345065 ], [ 3.327874, 43.349321 ], [ 3.326814, 43.348784 ], [ 3.325618, 43.348233 ], [ 3.324718, 43.347869 ], [ 3.324390392975281, 43.347750675104074 ], [ 3.32607770283518, 43.350041213455775 ], [ 3.32675, 43.350249 ], [ 3.327476, 43.350558 ], [ 3.328187, 43.351111 ], [ 3.32976, 43.352871 ], [ 3.329807448814641, 43.35292411974735 ], [ 3.330441, 43.353633 ] ] ], [ [ [ 3.381439, 43.319867 ], [ 3.386344, 43.315927 ], [ 3.383553, 43.316544 ], [ 3.378326, 43.321855 ], [ 3.378117, 43.322235 ], [ 3.377162, 43.322784 ], [ 3.374873, 43.322871 ], [ 3.366077, 43.321149 ], [ 3.365634, 43.321189 ], [ 3.364706, 43.321151 ], [ 3.359752, 43.32171 ], [ 3.364557, 43.322622 ], [ 3.371326, 43.325411 ], [ 3.37392, 43.327162 ], [ 3.378167, 43.327698 ], [ 3.378883, 43.32738 ], [ 3.381691, 43.325774 ], [ 3.381439, 43.319867 ] ] ], [ [ [ 3.239312, 43.31808 ], [ 3.238893733743733, 43.318540058342961 ], [ 3.238761, 43.319046 ], [ 3.238023835607402, 43.319496874459901 ], [ 3.23689, 43.320744 ], [ 3.232051, 43.32395 ], [ 3.230872, 43.32465 ], [ 3.233786, 43.32292 ], [ 3.237852147251527, 43.320224573411053 ], [ 3.240469778056239, 43.318137254752074 ], [ 3.239312, 43.31808 ] ] ], [ [ [ 3.390031413161525, 43.315088832548668 ], [ 3.39334, 43.31434 ], [ 3.390031413161627, 43.315088832548618 ], [ 3.390031413161525, 43.315088832548668 ] ] ], [ [ [ 3.389155484618164, 43.315304209051078 ], [ 3.389179, 43.315299 ], [ 3.389155484618219, 43.315304209051071 ], [ 3.389155484618164, 43.315304209051078 ] ] ] ] } },
{ "type": "Feature", "properties": { "codgeo": "34073", "value": 720, "isochrone_group": 12.0, "nb_agences": 1 }, "geometry": { "type": "MultiPolygon", "coordinates": [ [ [ [ 3.382346, 43.303315 ], [ 3.382823, 43.303571 ], [ 3.38652594470505, 43.304594723455736 ], [ 3.389913, 43.305203 ], [ 3.390229495501294, 43.305371488201196 ], [ 3.393218, 43.304894 ], [ 3.39733260987879, 43.305292734264121 ], [ 3.393709, 43.302549 ], [ 3.391376, 43.301839 ], [ 3.390899, 43.301723 ], [ 3.390533, 43.301677 ], [ 3.383989, 43.302534 ], [ 3.379751, 43.301336 ], [ 3.377364, 43.304031 ], [ 3.375712, 43.305005 ], [ 3.380395, 43.30483 ], [ 3.380540756540825, 43.304785622238732 ], [ 3.382346, 43.303315 ] ] ], [ [ [ 3.361878, 43.294397 ], [ 3.361476, 43.29468 ], [ 3.360101, 43.2961 ], [ 3.358663, 43.298875 ], [ 3.363357, 43.304972 ], [ 3.364178, 43.305862 ], [ 3.373049, 43.306785 ], [ 3.373906, 43.306285 ], [ 3.365224, 43.305224 ], [ 3.36373, 43.303039 ], [ 3.363059, 43.301936 ], [ 3.363161, 43.293231 ], [ 3.362616, 43.293718 ], [ 3.362313, 43.294033 ], [ 3.361878, 43.294397 ] ] ], [ [ [ 3.363211, 43.282039 ], [ 3.362926, 43.281894 ], [ 3.360068, 43.28388 ], [ 3.359104, 43.287349 ], [ 3.351915, 43.289373 ], [ 3.35158, 43.289433 ], [ 3.350496, 43.289702 ], [ 3.349537, 43.290085 ], [ 3.348893, 43.290544 ], [ 3.348379, 43.292063 ], [ 3.346579, 43.294461 ], [ 3.348606, 43.291918 ], [ 3.352, 43.29312 ], [ 3.356886, 43.292546 ], [ 3.360781, 43.288026 ], [ 3.364019, 43.287968 ], [ 3.36438, 43.288098 ], [ 3.364372, 43.289076 ], [ 3.364064, 43.28993 ], [ 3.363501, 43.292534 ], [ 3.363356, 43.292856 ], [ 3.363161, 43.293231 ], [ 3.367422, 43.290131 ], [ 3.369839, 43.289556 ], [ 3.370098, 43.28949 ], [ 3.371202, 43.287653 ], [ 3.37115, 43.287422 ], [ 3.369206, 43.286003 ], [ 3.363211, 43.282039 ] ] ], [ [ [ 3.337755, 43.291178 ], [ 3.33825, 43.288823 ], [ 3.338383, 43.288489 ], [ 3.334098, 43.286189 ], [ 3.332631483622301, 43.285951733000225 ], [ 3.331900562858324, 43.287961570500322 ], [ 3.334707, 43.288161 ], [ 3.338172, 43.289137 ], [ 3.337755, 43.291178 ] ] ], [ [ [ 3.338789, 43.358629 ], [ 3.337647181200901, 43.357781134551985 ], [ 3.332779465214355, 43.360216102038351 ], [ 3.340365384146259, 43.359781903272598 ], [ 3.339732, 43.359278 ], [ 3.338789, 43.358629 ] ] ], [ [ [ 3.346239, 43.356902 ], [ 3.340992, 43.355601 ], [ 3.343022, 43.356791 ], [ 3.343426, 43.35699 ], [ 3.345604, 43.358137 ], [ 3.345553038422898, 43.358250651582324 ], [ 3.346349, 43.358578 ], [ 3.34725, 43.358907 ], [ 3.348301, 43.359226 ], [ 3.349496, 43.359553 ], [ 3.35082, 43.359859 ], [ 3.353193, 43.360244 ], [ 3.353297129074142, 43.360119164139149 ], [ 3.353033, 43.360091 ], [ 3.352058, 43.359948 ], [ 3.346522, 43.3569 ], [ 3.346239, 43.356902 ] ] ], [ [ [ 3.352123, 43.334001 ], [ 3.358028, 43.328253 ], [ 3.358165, 43.327775 ], [ 3.363454, 43.32268 ], [ 3.368562, 43.327628 ], [ 3.369181, 43.32814 ], [ 3.371641, 43.330391 ], [ 3.374893, 43.329106 ], [ 3.383038, 43.331278 ], [ 3.38513, 43.328348 ], [ 3.38288, 43.325118 ], [ 3.385418, 43.319267 ], [ 3.385516, 43.319171 ], [ 3.389668903331452, 43.315405036071674 ], [ 3.389136, 43.315309 ], [ 3.386344, 43.315927 ], [ 3.381439, 43.319867 ], [ 3.381691, 43.325774 ], [ 3.378883, 43.32738 ], [ 3.378167, 43.327698 ], [ 3.37392, 43.327162 ], [ 3.371326, 43.325411 ], [ 3.364557, 43.322622 ], [ 3.359752, 43.32171 ], [ 3.35911, 43.321806 ], [ 3.352968, 43.327604 ], [ 3.353268, 43.330224 ], [ 3.353144, 43.330295 ], [ 3.347647, 43.335532 ], [ 3.34624, 43.340006 ], [ 3.345105, 43.341045 ], [ 3.341001, 43.344207 ], [ 3.339227, 43.345275 ], [ 3.33807, 43.353159 ], [ 3.339329, 43.354321 ], [ 3.340361, 43.355139 ], [ 3.340992, 43.355601 ], [ 3.340901, 43.347389 ], [ 3.341769, 43.345768 ], [ 3.347615, 43.340358 ], [ 3.350191, 43.340207 ], [ 3.350268, 43.34013 ], [ 3.35037, 43.339856 ], [ 3.352123, 43.334001 ] ] ] ] } },
{ "type": "Feature", "properties": { "codgeo": "34073", "value": 780, "isochrone_group": 13.0, "nb_agences": 1 }, "geometry": { "type": "MultiPolygon", "coordinates": [ [ [ [ 3.338419, 43.288391 ], [ 3.338783, 43.287294 ], [ 3.339377, 43.285317 ], [ 3.335929, 43.284281 ], [ 3.33284, 43.284094 ], [ 3.330050042146373, 43.283049020692722 ], [ 3.331024133816165, 43.285691680625845 ], [ 3.334098, 43.286189 ], [ 3.338381067768839, 43.28848796286308 ], [ 3.338419, 43.288391 ] ] ], [ [ [ 3.351915, 43.289373 ], [ 3.359104, 43.287349 ], [ 3.360068, 43.28388 ], [ 3.362926, 43.281894 ], [ 3.363211, 43.282039 ], [ 3.369206, 43.286003 ], [ 3.37115, 43.287422 ], [ 3.371202, 43.287653 ], [ 3.370098, 43.28949 ], [ 3.369839, 43.289556 ], [ 3.367422, 43.290131 ], [ 3.36328313314615, 43.293142144624973 ], [ 3.363223, 43.293388 ], [ 3.363156992568887, 43.293573006743529 ], [ 3.363059, 43.301936 ], [ 3.36373, 43.303039 ], [ 3.365224, 43.305224 ], [ 3.371852223009023, 43.306034014352974 ], [ 3.366018, 43.302373 ], [ 3.365965, 43.301476 ], [ 3.365393, 43.293775 ], [ 3.369482, 43.291431 ], [ 3.373469, 43.29159 ], [ 3.373479, 43.29159 ], [ 3.375395, 43.289588 ], [ 3.377608, 43.288223 ], [ 3.377609, 43.288217 ], [ 3.376579, 43.286189 ], [ 3.374524, 43.284609 ], [ 3.373714, 43.284173 ], [ 3.370566, 43.28511 ], [ 3.36507, 43.281244 ], [ 3.362099, 43.279211 ], [ 3.355107, 43.282964 ], [ 3.350496, 43.289702 ], [ 3.35158, 43.289433 ], [ 3.351915, 43.289373 ] ] ], [ [ [ 3.395502695676827, 43.301975530714792 ], [ 3.390899, 43.301723 ], [ 3.391376, 43.301839 ], [ 3.394777881427062, 43.302315496905173 ], [ 3.395502695676827, 43.301975530714792 ] ] ], [ [ [ 3.378132158743206, 43.302943659483482 ], [ 3.379642, 43.301239 ], [ 3.384056, 43.302494 ], [ 3.385763276393664, 43.302301641370789 ], [ 3.390011943917095, 43.301745237326266 ], [ 3.385075, 43.301869 ], [ 3.378351, 43.299731 ], [ 3.375531, 43.301969 ], [ 3.373342192024667, 43.306216098794991 ], [ 3.373654332802408, 43.306254244540831 ], [ 3.374876863832557, 43.305656616409443 ], [ 3.375211783859323, 43.30539529449117 ], [ 3.375568863855388, 43.305116682219328 ], [ 3.378132158743206, 43.302943659483482 ] ] ], [ [ [ 3.386355, 43.333871 ], [ 3.38654, 43.333806 ], [ 3.386249, 43.330344 ], [ 3.386296, 43.323233 ], [ 3.387418, 43.318334 ], [ 3.38875070364662, 43.318069474378689 ], [ 3.387731364965151, 43.317162047736737 ], [ 3.385516, 43.319171 ], [ 3.385418, 43.319267 ], [ 3.38288, 43.325118 ], [ 3.38513, 43.328348 ], [ 3.383038, 43.331278 ], [ 3.374893, 43.329106 ], [ 3.371641, 43.330391 ], [ 3.369181, 43.32814 ], [ 3.368562, 43.327628 ], [ 3.363454, 43.32268 ], [ 3.358165, 43.327775 ], [ 3.358028, 43.328253 ], [ 3.352123, 43.334001 ], [ 3.350579928703251, 43.33915484052622 ], [ 3.351755, 43.338678 ], [ 3.353161, 43.33726 ], [ 3.356241, 43.332492 ], [ 3.358995, 43.329977 ], [ 3.366658, 43.332737 ], [ 3.370148, 43.333384 ], [ 3.372217, 43.332881 ], [ 3.372907, 43.332732 ], [ 3.373621, 43.332283 ], [ 3.382465, 43.332476 ], [ 3.382933, 43.332912 ], [ 3.384267, 43.333743 ], [ 3.385035, 43.333974 ], [ 3.385302, 43.333997 ], [ 3.38585, 43.333982 ], [ 3.386355, 43.333871 ] ] ], [ [ [ 3.341769, 43.345768 ], [ 3.340901, 43.347389 ], [ 3.340951320423835, 43.351930003522334 ], [ 3.344364796003858, 43.351650438042206 ], [ 3.344858, 43.34454 ], [ 3.347615, 43.340358 ], [ 3.341769, 43.345768 ] ] ] ] } },
{ "type": "Feature", "properties": { "codgeo": "34073", "value": 840, "isochrone_group": 14.0, "nb_agences": 1 }, "geometry": { "type": "MultiPolygon", "coordinates": [ [ [ [ 3.362336, 43.276854 ], [ 3.361896, 43.276974 ], [ 3.359443, 43.278831 ], [ 3.355831, 43.281338 ], [ 3.352406, 43.282432 ], [ 3.351511, 43.283218 ], [ 3.351395, 43.283868 ], [ 3.350833, 43.289157 ], [ 3.350310060217486, 43.289776259579476 ], [ 3.350496, 43.289702 ], [ 3.355107, 43.282964 ], [ 3.362099, 43.279211 ], [ 3.36507, 43.281244 ], [ 3.370566, 43.28511 ], [ 3.373714, 43.284173 ], [ 3.374524, 43.284609 ], [ 3.376579, 43.286189 ], [ 3.377609, 43.288217 ], [ 3.377608, 43.288223 ], [ 3.375395, 43.289588 ], [ 3.373479, 43.29159 ], [ 3.373469, 43.29159 ], [ 3.369482, 43.291431 ], [ 3.365393, 43.293775 ], [ 3.365965, 43.301476 ], [ 3.366018, 43.302373 ], [ 3.372836664914975, 43.306651758299658 ], [ 3.375427, 43.301838 ], [ 3.378247, 43.2996 ], [ 3.38388503345182, 43.301489193359281 ], [ 3.384552888079945, 43.301702355336971 ], [ 3.386484405192896, 43.300041051933285 ], [ 3.38642, 43.300011 ], [ 3.382858, 43.292781 ], [ 3.383446, 43.290722 ], [ 3.383004, 43.289184 ], [ 3.38271, 43.288335 ], [ 3.382552, 43.288098 ], [ 3.377944, 43.282647 ], [ 3.37747, 43.282113 ], [ 3.374148, 43.280819 ], [ 3.371805, 43.280303 ], [ 3.365815, 43.278623 ], [ 3.362336, 43.276854 ] ] ], [ [ [ 3.339461, 43.285037 ], [ 3.340145, 43.282975 ], [ 3.336728, 43.281841 ], [ 3.336146510067761, 43.281279878190404 ], [ 3.335918000767558, 43.284280334135168 ], [ 3.335929, 43.284281 ], [ 3.339376897590726, 43.285316969229704 ], [ 3.339461, 43.285037 ] ] ], [ [ [ 3.291534, 43.242748 ], [ 3.290005, 43.24211 ], [ 3.284257839433459, 43.241581143368386 ], [ 3.285399, 43.242049 ], [ 3.29089, 43.244348 ], [ 3.296037, 43.246671 ], [ 3.296964017024884, 43.24821126866032 ], [ 3.295526, 43.245015 ], [ 3.295486, 43.244946 ], [ 3.292871, 43.243314 ], [ 3.291534, 43.242748 ] ] ], [ [ [ 3.330915752631327, 43.367283488842446 ], [ 3.325918, 43.366677 ], [ 3.325414788400482, 43.367020996843998 ], [ 3.325433, 43.367045 ], [ 3.330915752631327, 43.367283488842446 ] ] ], [ [ [ 3.358995, 43.329977 ], [ 3.356241, 43.332492 ], [ 3.354558821523971, 43.335096099666799 ], [ 3.355369, 43.334874 ], [ 3.363314, 43.33641 ], [ 3.366975, 43.336431 ], [ 3.367549, 43.336444 ], [ 3.368077, 43.336336 ], [ 3.36985210243758, 43.333329144492005 ], [ 3.366658, 43.332737 ], [ 3.358995, 43.329977 ] ] ], [ [ [ 3.38654, 43.333806 ], [ 3.386355, 43.333871 ], [ 3.38585, 43.333982 ], [ 3.388144, 43.333789 ], [ 3.39124, 43.331818 ], [ 3.392033, 43.331411 ], [ 3.390388, 43.328208 ], [ 3.389607285859054, 43.322647622505855 ], [ 3.386291281499135, 43.323946899141554 ], [ 3.386249, 43.330344 ], [ 3.38654, 43.333806 ] ] ], [ [ [ 3.346246, 43.349829 ], [ 3.349979566568154, 43.348810911309862 ], [ 3.35064660929735, 43.348526497746256 ], [ 3.34757, 43.342878 ], [ 3.347615, 43.340358 ], [ 3.344858, 43.34454 ], [ 3.344453383346154, 43.350373289410705 ], [ 3.346246, 43.349829 ] ] ] ] } },
{ "type": "Feature", "properties": { "codgeo": "34073", "value": 900, "isochrone_group": 15.0, "nb_agences": 1 }, "geometry": { "type": "MultiPolygon", "coordinates": [ [ [ [ 3.34757, 43.342878 ], [ 3.350620967674927, 43.348479421035343 ], [ 3.35099890018318, 43.348174534306011 ], [ 3.349179, 43.341186 ], [ 3.35427, 43.33729 ], [ 3.360259, 43.338964 ], [ 3.360426, 43.338776 ], [ 3.364178843726688, 43.336414960862676 ], [ 3.363314, 43.33641 ], [ 3.355369, 43.334874 ], [ 3.351119049966211, 43.336039067345411 ], [ 3.350205, 43.337048 ], [ 3.348252667291341, 43.336933562148609 ], [ 3.347615, 43.340358 ], [ 3.34757, 43.342878 ] ] ], [ [ [ 3.378616, 43.281445 ], [ 3.378594, 43.281447 ], [ 3.376309415810652, 43.281660924159837 ], [ 3.37747, 43.282113 ], [ 3.377944, 43.282647 ], [ 3.382552, 43.288098 ], [ 3.38271, 43.288335 ], [ 3.383004, 43.289184 ], [ 3.383446, 43.290722 ], [ 3.382858, 43.292781 ], [ 3.385379060535168, 43.297898144208098 ], [ 3.387144, 43.292836 ], [ 3.386898, 43.289245 ], [ 3.388183, 43.288453 ], [ 3.388648068883605, 43.288559997624702 ], [ 3.388061, 43.288195 ], [ 3.382978, 43.284572 ], [ 3.380322, 43.282366 ], [ 3.378616, 43.281445 ] ] ], [ [ [ 3.35025, 43.282497 ], [ 3.349737, 43.282544 ], [ 3.348793, 43.283507 ], [ 3.348603, 43.284747 ], [ 3.339902979047284, 43.283704601176176 ], [ 3.339461, 43.285037 ], [ 3.338783, 43.287294 ], [ 3.338756509108265, 43.287373836561066 ], [ 3.338757, 43.287374 ], [ 3.338419, 43.288391 ], [ 3.33825, 43.288823 ], [ 3.338247169903184, 43.288836464400006 ], [ 3.338251, 43.288854 ], [ 3.337755, 43.291178 ], [ 3.344983, 43.295283 ], [ 3.34618, 43.294646 ], [ 3.346202947750745, 43.294654681045657 ], [ 3.346579, 43.294461 ], [ 3.348379, 43.292063 ], [ 3.348893, 43.290544 ], [ 3.349537, 43.290085 ], [ 3.350310060217486, 43.289776259579476 ], [ 3.350833, 43.289157 ], [ 3.351395, 43.283868 ], [ 3.351511, 43.283218 ], [ 3.352406, 43.282432 ], [ 3.355831, 43.281338 ], [ 3.359443, 43.278831 ], [ 3.361896, 43.276974 ], [ 3.362336, 43.276854 ], [ 3.364800147386586, 43.278106968303213 ], [ 3.364457, 43.277844 ], [ 3.362307, 43.275223 ], [ 3.3622, 43.275187 ], [ 3.361172, 43.275619 ], [ 3.358943, 43.276911 ], [ 3.356985, 43.27838 ], [ 3.356168, 43.279295 ], [ 3.35025, 43.282497 ] ] ], [ [ [ 3.341569, 43.268129 ], [ 3.341553, 43.268096 ], [ 3.339025, 43.267251 ], [ 3.340215, 43.268493 ], [ 3.340851, 43.27016 ], [ 3.340694662448117, 43.270376295464899 ], [ 3.340938, 43.27027 ], [ 3.341039, 43.270194 ], [ 3.341569, 43.268129 ] ] ], [ [ [ 3.339405, 43.280569 ], [ 3.339087, 43.280455 ], [ 3.338482, 43.280452 ], [ 3.336795854150312, 43.278881673792014 ], [ 3.336658, 43.279237 ], [ 3.336340579183174, 43.279729502499457 ], [ 3.336337, 43.280091 ], [ 3.336716890612069, 43.281830279745833 ], [ 3.336728, 43.281841 ], [ 3.339620890484117, 43.282801063742745 ], [ 3.339405, 43.280569 ] ] ], [ [ [ 3.295526, 43.245015 ], [ 3.296964017024884, 43.24821126866032 ], [ 3.298504, 43.25077 ], [ 3.29897139272502, 43.251048114020897 ], [ 3.297001, 43.245107 ], [ 3.296653, 43.24498 ], [ 3.295303312782553, 43.244831986409622 ], [ 3.295486, 43.244946 ], [ 3.295526, 43.245015 ] ] ], [ [ [ 3.281058, 43.238401 ], [ 3.281036, 43.238391 ], [ 3.276979, 43.236678 ], [ 3.275923827801789, 43.237123042540958 ], [ 3.279578, 43.239688 ], [ 3.283616, 43.241318 ], [ 3.284257839433461, 43.241581143368386 ], [ 3.286525318182509, 43.241789797913462 ], [ 3.286425, 43.241731 ], [ 3.281058, 43.238401 ] ] ], [ [ [ 3.395286589772478, 43.323112925019707 ], [ 3.395282, 43.323111 ], [ 3.394817271949929, 43.322241322196753 ], [ 3.394167, 43.323065 ], [ 3.392952, 43.324655 ], [ 3.390092, 43.322469 ], [ 3.389608652737365, 43.322657357643237 ], [ 3.390388, 43.328208 ], [ 3.392033, 43.331411 ], [ 3.39124, 43.331818 ], [ 3.388144, 43.333789 ], [ 3.38585, 43.333982 ], [ 3.385302, 43.333997 ], [ 3.385035, 43.333974 ], [ 3.38875, 43.335124 ], [ 3.391989, 43.333552 ], [ 3.395879, 43.329433 ], [ 3.39417, 43.326264 ], [ 3.395753433442782, 43.323587243465774 ], [ 3.395446, 43.323452 ], [ 3.395292, 43.323123 ], [ 3.395286589772478, 43.323112925019707 ] ] ] ] } },
{ "type": "Feature", "properties": { "codgeo": "34073", "value": 960, "isochrone_group": 16.0, "nb_agences": 1 }, "geometry": { "type": "MultiPolygon", "coordinates": [ [ [ [ 3.146503769536294, 43.243785984105834 ], [ 3.14574219000735, 43.243077795734351 ], [ 3.145742, 43.243078 ], [ 3.146503769536294, 43.243785984105834 ] ] ], [ [ [ 3.349179, 43.341186 ], [ 3.350943478466865, 43.347961711334001 ], [ 3.351668, 43.347282 ], [ 3.351700301680413, 43.347287456969816 ], [ 3.351989, 43.346942 ], [ 3.35244, 43.34629 ], [ 3.355057719038925, 43.346645213678883 ], [ 3.35733, 43.344109 ], [ 3.358116, 43.344813 ], [ 3.361472847205709, 43.346197326563541 ], [ 3.36048, 43.341023 ], [ 3.362978, 43.33843 ], [ 3.368447, 43.334843 ], [ 3.36767, 43.335044 ], [ 3.366343, 43.335461 ], [ 3.366342713984586, 43.335460495907739 ], [ 3.365981, 43.335574 ], [ 3.365980757269742, 43.335573945846974 ], [ 3.365053, 43.335865 ], [ 3.360426, 43.338776 ], [ 3.360259, 43.338964 ], [ 3.35427, 43.33729 ], [ 3.349179, 43.341186 ] ] ], [ [ [ 3.383918562687165, 43.285242403032775 ], [ 3.383943, 43.285232 ], [ 3.384981, 43.285285 ], [ 3.390104464642976, 43.286728277533271 ], [ 3.387539, 43.285163 ], [ 3.382677, 43.282271 ], [ 3.382358, 43.282274 ], [ 3.380520939057272, 43.282531233268195 ], [ 3.382978, 43.284572 ], [ 3.383918562687165, 43.285242403032775 ] ] ], [ [ [ 3.364457, 43.277844 ], [ 3.365734667484034, 43.278823130436329 ], [ 3.366591000676733, 43.279173443621595 ], [ 3.364457, 43.277844 ] ] ], [ [ [ 3.356168, 43.279295 ], [ 3.356985, 43.27838 ], [ 3.358943, 43.276911 ], [ 3.361172, 43.275619 ], [ 3.36134994298718, 43.275544222402274 ], [ 3.359646, 43.274283 ], [ 3.358538, 43.274047 ], [ 3.35718, 43.274717 ], [ 3.357138, 43.274769 ], [ 3.353918, 43.27811 ], [ 3.352384, 43.279396 ], [ 3.352343, 43.279658 ], [ 3.351425585437096, 43.28186093636878 ], [ 3.356168, 43.279295 ] ] ], [ [ [ 3.338883541066348, 43.274758553347262 ], [ 3.338082, 43.276632 ], [ 3.337178764544058, 43.279238282460661 ], [ 3.338482, 43.280452 ], [ 3.339087, 43.280455 ], [ 3.339405, 43.280569 ], [ 3.338883541066348, 43.274758553347262 ] ] ], [ [ [ 3.272209, 43.233932 ], [ 3.270602206353699, 43.233867178682111 ], [ 3.272308, 43.234585 ], [ 3.275923827801789, 43.237123042540958 ], [ 3.276338798409148, 43.236948019379938 ], [ 3.273268, 43.234526 ], [ 3.272209, 43.233932 ] ] ], [ [ [ 3.384521, 43.333847 ], [ 3.384267, 43.333743 ], [ 3.389353744010824, 43.33747871411898 ], [ 3.391147, 43.335634 ], [ 3.393321, 43.333068 ], [ 3.3967, 43.331824 ], [ 3.397105730857419, 43.331528892739783 ], [ 3.397127467589764, 43.32937576518372 ], [ 3.395175636426112, 43.328128752389915 ], [ 3.395879, 43.329433 ], [ 3.391989, 43.333552 ], [ 3.38875, 43.335124 ], [ 3.385035, 43.333974 ], [ 3.384533951522184, 43.333823294012525 ], [ 3.384521, 43.333847 ] ] ], [ [ [ 3.417781479155242, 43.289691027356881 ], [ 3.422294917990885, 43.28917087605732 ], [ 3.420945, 43.288519 ], [ 3.416422, 43.288642 ], [ 3.416001, 43.288681 ], [ 3.415186, 43.28895 ], [ 3.415109119894707, 43.288980086050593 ], [ 3.417781479155242, 43.289691027356881 ] ] ] ] } },
{ "type": "Feature", "properties": { "codgeo": "34073", "value": 1020, "isochrone_group": 17.0, "nb_agences": 1 }, "geometry": { "type": "MultiPolygon", "coordinates": [ [ [ [ 3.131409, 43.234704 ], [ 3.130533558051328, 43.234434931482561 ], [ 3.130532156313571, 43.234435181141393 ], [ 3.131409, 43.234704 ] ] ], [ [ [ 3.13243, 43.235043 ], [ 3.131409, 43.234704 ], [ 3.13336, 43.235382 ], [ 3.13243, 43.235043 ] ] ], [ [ [ 3.134219, 43.23571 ], [ 3.13336, 43.235382 ], [ 3.135044, 43.236051 ], [ 3.134219, 43.23571 ] ] ], [ [ [ 3.14419, 43.241676 ], [ 3.142847, 43.240579 ], [ 3.141553, 43.239632 ], [ 3.140874, 43.239173 ], [ 3.140192, 43.238735 ], [ 3.139132, 43.238101 ], [ 3.137959, 43.237446 ], [ 3.145166, 43.242542 ], [ 3.14419, 43.241676 ] ] ], [ [ [ 3.147434, 43.244651 ], [ 3.146503769541953, 43.243785984111092 ], [ 3.146503769536294, 43.243785984105834 ], [ 3.147434, 43.244651 ] ] ], [ [ [ 3.382465, 43.332476 ], [ 3.38216, 43.331974 ], [ 3.377342304207954, 43.330072644346835 ], [ 3.373947566685553, 43.329983441829974 ], [ 3.370054, 43.333597 ], [ 3.369975, 43.333806 ], [ 3.369868572579272, 43.333878228557133 ], [ 3.369071, 43.335631 ], [ 3.369002, 43.33573 ], [ 3.368077, 43.336336 ], [ 3.367916, 43.336381 ], [ 3.36786416974718, 43.336379533460814 ], [ 3.367549, 43.336444 ], [ 3.366975, 43.336431 ], [ 3.365879019879676, 43.33652728317638 ], [ 3.362978, 43.33843 ], [ 3.36048, 43.341023 ], [ 3.361498164468053, 43.346329270111674 ], [ 3.36265, 43.346363 ], [ 3.363146955035616, 43.347337525300318 ], [ 3.367802, 43.346302 ], [ 3.36997, 43.349175 ], [ 3.376892, 43.350163 ], [ 3.378976, 43.344889 ], [ 3.380417, 43.343748 ], [ 3.383262, 43.341542 ], [ 3.390486, 43.338579 ], [ 3.390592814614977, 43.337310390142591 ], [ 3.389508, 43.337592 ], [ 3.384267, 43.333743 ], [ 3.382933, 43.332912 ], [ 3.382465, 43.332476 ] ] ], [ [ [ 3.356060285541861, 43.275887212423804 ], [ 3.354596, 43.27591 ], [ 3.352731, 43.277162 ], [ 3.349957, 43.278353 ], [ 3.349813, 43.27939 ], [ 3.350414, 43.28429 ], [ 3.352343, 43.279658 ], [ 3.352384, 43.279396 ], [ 3.353918, 43.27811 ], [ 3.356060285541861, 43.275887212423804 ] ] ], [ [ [ 3.339394491962305, 43.280451912366594 ], [ 3.339400357829631, 43.280451853465379 ], [ 3.339116, 43.273276 ], [ 3.340851, 43.27016 ], [ 3.338965557224671, 43.27276853977002 ], [ 3.339021240496546, 43.276292893142106 ], [ 3.339394491962305, 43.280451912366594 ] ] ], [ [ [ 3.323576, 43.260708 ], [ 3.323635621304267, 43.260735311435816 ], [ 3.323491, 43.26004 ], [ 3.321709, 43.259444 ], [ 3.314931058492212, 43.258425299736189 ], [ 3.318612, 43.260719 ], [ 3.318717, 43.260703 ], [ 3.318820866534239, 43.260718537161196 ], [ 3.323576, 43.260708 ] ] ], [ [ [ 3.246883, 43.228383 ], [ 3.24764140783461, 43.228125011957161 ], [ 3.247429, 43.227926 ], [ 3.246729, 43.227489 ], [ 3.246129, 43.227249 ], [ 3.245631284498252, 43.227295400279822 ], [ 3.246883, 43.228383 ] ] ], [ [ [ 3.338419, 43.288391 ], [ 3.33829404696798, 43.288710406567041 ], [ 3.33829404696798, 43.288710406567041 ], [ 3.338294046967979, 43.288710406567041 ], [ 3.338294046967979, 43.288710406567063 ], [ 3.338419, 43.288391 ] ] ], [ [ [ 3.427109, 43.289194 ], [ 3.423526, 43.289029 ], [ 3.428023111110474, 43.290422726779887 ], [ 3.428019, 43.289958 ], [ 3.427456, 43.289428 ], [ 3.427109, 43.289194 ] ] ], [ [ [ 3.412046, 43.288282 ], [ 3.407785788656468, 43.287827936308808 ], [ 3.412919378492784, 43.28983701347488 ], [ 3.413992349260789, 43.28941712002274 ], [ 3.412046, 43.288282 ] ] ], [ [ [ 3.389301, 43.284712 ], [ 3.391538194859828, 43.285223813294998 ], [ 3.390371, 43.284411 ], [ 3.389595, 43.284117 ], [ 3.386322654351866, 43.284038189581253 ], [ 3.387415, 43.2843 ], [ 3.388089912133601, 43.284451330543874 ], [ 3.389301, 43.284712 ] ] ] ] } },
{ "type": "Feature", "properties": { "codgeo": "34073", "value": 1080, "isochrone_group": 18.0, "nb_agences": 1 }, "geometry": { "type": "MultiPolygon", "coordinates": [ [ [ [ 3.358654, 43.275843 ], [ 3.358987665135261, 43.275909654146403 ], [ 3.359144415102034, 43.275811440862178 ], [ 3.354521, 43.274001 ], [ 3.354054, 43.273959 ], [ 3.349673, 43.275659 ], [ 3.349511, 43.27653 ], [ 3.349632, 43.27759 ], [ 3.349813, 43.27939 ], [ 3.349957, 43.278353 ], [ 3.352731, 43.277162 ], [ 3.354596, 43.27591 ], [ 3.35858, 43.275848 ], [ 3.358654, 43.275843 ] ] ], [ [ [ 3.323635621304267, 43.260735311435816 ], [ 3.324450029429257, 43.261108376995423 ], [ 3.323815, 43.25977 ], [ 3.322871608608205, 43.25983284103841 ], [ 3.323491, 43.26004 ], [ 3.323635621304267, 43.260735311435816 ] ] ], [ [ [ 3.294299768135436, 43.245886933627091 ], [ 3.294299768135436, 43.245886933627091 ], [ 3.294299768135436, 43.245886933627091 ], [ 3.294299768135438, 43.245886933627091 ], [ 3.296037, 43.246671 ], [ 3.294299768135434, 43.245886933627084 ], [ 3.294299768135436, 43.245886933627091 ] ] ], [ [ [ 3.245631284498252, 43.227295400279822 ], [ 3.246129, 43.227249 ], [ 3.246729, 43.227489 ], [ 3.247429, 43.227926 ], [ 3.24764140783461, 43.228125011957161 ], [ 3.24828818570198, 43.227904997146489 ], [ 3.249411801018748, 43.227522776257842 ], [ 3.248829, 43.226884 ], [ 3.241239, 43.223479 ], [ 3.245631284498252, 43.227295400279822 ] ] ], [ [ [ 3.268906, 43.231667 ], [ 3.266914, 43.231049 ], [ 3.266598, 43.231034 ], [ 3.265435, 43.231393 ], [ 3.263626187461273, 43.231684235783938 ], [ 3.265657, 43.232178 ], [ 3.266581, 43.232175 ], [ 3.268909869044693, 43.233155019975158 ], [ 3.270726479572855, 43.233173952392569 ], [ 3.26933, 43.231928 ], [ 3.269026, 43.231741 ], [ 3.268906, 43.231667 ] ] ], [ [ [ 3.238576, 43.257817 ], [ 3.238146, 43.259029 ], [ 3.238073136867364, 43.259142910144952 ], [ 3.238116, 43.259115 ], [ 3.238576, 43.257817 ] ] ], [ [ [ 3.240128, 43.248294 ], [ 3.240125, 43.248317 ], [ 3.24008, 43.248772 ], [ 3.238898, 43.257238 ], [ 3.24050899522087, 43.254920204504337 ], [ 3.241917, 43.248496 ], [ 3.241377083393853, 43.246416205964806 ], [ 3.240201, 43.247647 ], [ 3.240128, 43.248294 ] ] ], [ [ [ 3.440829597275028, 43.285971023443743 ], [ 3.440684, 43.286097 ], [ 3.440414803956895, 43.286999131511728 ], [ 3.440719, 43.286641 ], [ 3.440829597275028, 43.285971023443743 ] ] ], [ [ [ 3.107855279194264, 43.230902608366463 ], [ 3.107855, 43.230904 ], [ 3.109578, 43.23125 ], [ 3.107855279194264, 43.230902608366463 ] ] ], [ [ [ 3.117446388194396, 43.232236470328964 ], [ 3.116926, 43.232179 ], [ 3.117446388194396, 43.232236470328964 ], [ 3.117446388194396, 43.232236470328964 ] ] ] ] } },
{ "type": "Feature", "properties": { "codgeo": "34073", "value": 1140, "isochrone_group": 19.0, "nb_agences": 1 }, "geometry": { "type": "MultiPolygon", "coordinates": [ [ [ [ 3.349995, 43.273959 ], [ 3.349675124044717, 43.275658175787257 ], [ 3.354054, 43.273959 ], [ 3.354521, 43.274001 ], [ 3.357603748960221, 43.275208145489266 ], [ 3.357617599367795, 43.27520038871841 ], [ 3.352668, 43.272674 ], [ 3.352372, 43.27264 ], [ 3.350089, 43.273569 ], [ 3.349995, 43.273959 ] ] ], [ [ [ 3.309698, 43.255485 ], [ 3.303882689527716, 43.253856035117039 ], [ 3.304171, 43.254138 ], [ 3.309698, 43.255485 ] ] ], [ [ [ 3.251807, 43.226708 ], [ 3.25185241406148, 43.226687899240112 ], [ 3.25183, 43.226677 ], [ 3.246186, 43.222605 ], [ 3.244043, 43.219712 ], [ 3.240570175606731, 43.219400066737585 ], [ 3.241239, 43.223479 ], [ 3.248829, 43.226884 ], [ 3.249411801018748, 43.227522776257842 ], [ 3.251807, 43.226708 ] ] ], [ [ [ 3.261133, 43.230249 ], [ 3.260745, 43.230228 ], [ 3.260688666811946, 43.230239938823459 ], [ 3.261614, 43.231195 ], [ 3.263626187461261, 43.231684235783923 ], [ 3.264896129170007, 43.231479763257809 ], [ 3.262323, 43.230418 ], [ 3.261133, 43.230249 ] ] ], [ [ [ 3.463975, 43.277404 ], [ 3.463202768936341, 43.277713849489537 ], [ 3.46735103143758, 43.276863051423305 ], [ 3.463975, 43.277404 ] ] ], [ [ [ 3.441481, 43.283035 ], [ 3.439232, 43.285203 ], [ 3.436969, 43.289722 ], [ 3.429776110605552, 43.290648209891643 ], [ 3.431275393102911, 43.291237142430582 ], [ 3.43663, 43.291455 ], [ 3.436701529095513, 43.291370788440751 ], [ 3.437085, 43.289704 ], [ 3.441601, 43.284552 ], [ 3.444895, 43.283101 ], [ 3.442369, 43.282094 ], [ 3.442224, 43.282149 ], [ 3.441481, 43.283035 ] ] ], [ [ [ 3.405328, 43.286825 ], [ 3.399312, 43.28657 ], [ 3.394429328635802, 43.286316820024652 ], [ 3.398472, 43.287865 ], [ 3.399188283670876, 43.288021912349443 ], [ 3.401777, 43.287738 ], [ 3.404832, 43.288205 ], [ 3.406570619837458, 43.28855894245099 ], [ 3.407139, 43.287759 ], [ 3.407254, 43.287715 ], [ 3.408067085092545, 43.287875779538069 ], [ 3.406826, 43.287463 ], [ 3.405676, 43.286865 ], [ 3.405572, 43.286851 ], [ 3.405328, 43.286825 ] ] ] ] } },
{ "type": "Feature", "properties": { "codgeo": "34073", "value": 1200, "isochrone_group": 20.0, "nb_agences": 1 }, "geometry": { "type": "MultiPolygon", "coordinates": [ [ [ [ 3.250830458476606, 43.225955856647204 ], [ 3.251204, 43.226042 ], [ 3.251624, 43.22634 ], [ 3.251636206194399, 43.226537182782344 ], [ 3.25183, 43.226677 ], [ 3.25185241406148, 43.226687899240112 ], [ 3.254534, 43.225501 ], [ 3.255537, 43.225833 ], [ 3.256529458570586, 43.226215745031112 ], [ 3.256495, 43.226182 ], [ 3.254231, 43.224715 ], [ 3.248722, 43.220362 ], [ 3.246229, 43.217765 ], [ 3.240279117625064, 43.217625002767662 ], [ 3.240337394242215, 43.217980412101575 ], [ 3.240570175606731, 43.219400066737585 ], [ 3.244043, 43.219712 ], [ 3.246186, 43.222605 ], [ 3.250830458476606, 43.225955856647204 ] ] ], [ [ [ 3.519996, 43.309134 ], [ 3.52216288409011, 43.309821365627528 ], [ 3.522163, 43.309821 ], [ 3.519996, 43.309134 ] ] ], [ [ [ 3.470821, 43.275513 ], [ 3.470612, 43.275464 ], [ 3.470859892555883, 43.275544899665697 ], [ 3.470821, 43.275513 ] ] ], [ [ [ 3.46753967291147, 43.276832825005478 ], [ 3.467539672911477, 43.276832825005478 ], [ 3.470612, 43.275464 ], [ 3.46753967291147, 43.276832825005478 ] ] ], [ [ [ 3.455355507913661, 43.280773828115436 ], [ 3.455467971567288, 43.280726331934034 ], [ 3.457962, 43.27918 ], [ 3.458834, 43.278922 ], [ 3.462938882023833, 43.278712908986236 ], [ 3.462937917138711, 43.278709976079718 ], [ 3.458871, 43.278889 ], [ 3.457503, 43.279284 ], [ 3.455355507913661, 43.280773828115436 ] ] ], [ [ [ 3.428840127192772, 43.29067593315294 ], [ 3.429051671344233, 43.290741494074538 ], [ 3.436969, 43.289722 ], [ 3.438122730459653, 43.287418107844829 ], [ 3.435527, 43.289557 ], [ 3.428840127192772, 43.29067593315294 ] ] ] ] } }
]
}
