{
"type": "FeatureCollection",
"name": "Credit_Agricole",
"crs": { "type": "name", "properties": { "name": "urn:ogc:def:crs:OGC:1.3:CRS84" } },
"features": [
{ "type": "Feature", "properties": { "codgeo": "34324", "value": 60, "isochrone_group": 1.0, "nb_agences": 1 }, "geometry": { "type": "Polygon", "coordinates": [ [ [ 3.291732, 43.246145 ], [ 3.292421, 43.246066 ], [ 3.293804, 43.24587 ], [ 3.294136, 43.24601 ], [ 3.294105, 43.246083 ], [ 3.293565, 43.247279 ], [ 3.29323, 43.247595 ], [ 3.292368, 43.247646 ], [ 3.291563, 43.246672 ], [ 3.291412, 43.246346 ], [ 3.291732, 43.246145 ] ] ] } },
{ "type": "Feature", "properties": { "codgeo": "34324", "value": 120, "isochrone_group": 2.0, "nb_agences": 1 }, "geometry": { "type": "Polygon", "coordinates": [ [ [ 3.286109, 43.245434 ], [ 3.287363, 43.248406 ], [ 3.28764, 43.248636 ], [ 3.291271, 43.248507 ], [ 3.295733, 43.249439 ], [ 3.296057, 43.249282 ], [ 3.296419, 43.246619 ], [ 3.29091, 43.244243 ], [ 3.290401, 43.24403 ], [ 3.289891, 43.243818 ], [ 3.286257, 43.245106 ], [ 3.286109, 43.245434 ] ], [ [ 3.292421, 43.246066 ], [ 3.293804, 43.24587 ], [ 3.294136, 43.24601 ], [ 3.294105, 43.246083 ], [ 3.293565, 43.247279 ], [ 3.29323, 43.247595 ], [ 3.292368, 43.247646 ], [ 3.291563, 43.246672 ], [ 3.291412, 43.246346 ], [ 3.291732, 43.246145 ], [ 3.292421, 43.246066 ] ] ] } },
{ "type": "Feature", "properties": { "codgeo": "34324", "value": 180, "isochrone_group": 3.0, "nb_agences": 1 }, "geometry": { "type": "Polygon", "coordinates": [ [ [ 3.287433, 43.242794 ], [ 3.28422, 43.241358 ], [ 3.283995, 43.241263 ], [ 3.283769, 43.241168 ], [ 3.28365, 43.241141 ], [ 3.2817, 43.240908 ], [ 3.28155, 43.241236 ], [ 3.280694, 43.243115 ], [ 3.284583, 43.249323 ], [ 3.285842, 43.250381 ], [ 3.286122, 43.250576 ], [ 3.286441, 43.250743 ], [ 3.289923, 43.251578 ], [ 3.29424, 43.252724 ], [ 3.295789, 43.252958 ], [ 3.297286, 43.253009 ], [ 3.297625, 43.252886 ], [ 3.29691, 43.248676 ], [ 3.296588, 43.246872 ], [ 3.296396159619336, 43.246787021916333 ], [ 3.296057, 43.249282 ], [ 3.295733, 43.249439 ], [ 3.291271, 43.248507 ], [ 3.28764, 43.248636 ], [ 3.287363, 43.248406 ], [ 3.286109, 43.245434 ], [ 3.286257, 43.245106 ], [ 3.289790338883771, 43.24385367735762 ], [ 3.287433, 43.242794 ] ] ] } },
{ "type": "Feature", "properties": { "codgeo": "34324", "value": 240, "isochrone_group": 4.0, "nb_agences": 1 }, "geometry": { "type": "Polygon", "coordinates": [ [ [ 3.279192, 43.239482 ], [ 3.275428, 43.237319 ], [ 3.272453, 43.236332 ], [ 3.272313, 43.236381 ], [ 3.272285, 43.236463 ], [ 3.272336, 43.236673 ], [ 3.274142, 43.23797 ], [ 3.278471, 43.243665 ], [ 3.281979, 43.249904 ], [ 3.284637, 43.256636 ], [ 3.284845, 43.256929 ], [ 3.284989, 43.256827 ], [ 3.288368, 43.254661 ], [ 3.297219, 43.254648 ], [ 3.297546, 43.254715 ], [ 3.298455, 43.254348 ], [ 3.296588, 43.246872 ], [ 3.29691, 43.248676 ], [ 3.297625, 43.252886 ], [ 3.297286, 43.253009 ], [ 3.295789, 43.252958 ], [ 3.29424, 43.252724 ], [ 3.289923, 43.251578 ], [ 3.286441, 43.250743 ], [ 3.286122, 43.250576 ], [ 3.285842, 43.250381 ], [ 3.284583, 43.249323 ], [ 3.280694, 43.243115 ], [ 3.28155, 43.241236 ], [ 3.2817, 43.240908 ], [ 3.283003312455278, 43.24106372912928 ], [ 3.279192, 43.239482 ] ] ] } },
{ "type": "Feature", "properties": { "codgeo": "34324", "value": 300, "isochrone_group": 5.0, "nb_agences": 1 }, "geometry": { "type": "MultiPolygon", "coordinates": [ [ [ [ 3.297613, 43.256364 ], [ 3.299569, 43.255829 ], [ 3.299815, 43.255566 ], [ 3.297225232109237, 43.249423658944096 ], [ 3.298455, 43.254348 ], [ 3.297546, 43.254715 ], [ 3.297219, 43.254648 ], [ 3.288368, 43.254661 ], [ 3.286548524113283, 43.2558273168898 ], [ 3.285838, 43.256909 ], [ 3.286813081961384, 43.257868475753938 ], [ 3.29123, 43.255684 ], [ 3.297613, 43.256364 ] ] ], [ [ [ 3.273666, 43.236106 ], [ 3.272505, 43.235371 ], [ 3.270544, 43.234482 ], [ 3.26808, 43.234599 ], [ 3.264927, 43.235966 ], [ 3.264576, 43.236139 ], [ 3.264201, 43.236437 ], [ 3.264005, 43.236733 ], [ 3.264049, 43.236763 ], [ 3.26416, 43.236799 ], [ 3.264309, 43.236782 ], [ 3.269787, 43.237385 ], [ 3.272984, 43.239432 ], [ 3.275431, 43.242503 ], [ 3.275633, 43.242801 ], [ 3.278546, 43.247732 ], [ 3.279632295970281, 43.252880251838349 ], [ 3.28333753197139, 43.253344796550572 ], [ 3.281979, 43.249904 ], [ 3.278471, 43.243665 ], [ 3.274142, 43.23797 ], [ 3.272336, 43.236673 ], [ 3.272285, 43.236463 ], [ 3.272313, 43.236381 ], [ 3.272453, 43.236332 ], [ 3.275428, 43.237319 ], [ 3.279192, 43.239482 ], [ 3.273666, 43.236106 ] ] ] ] } },
{ "type": "Feature", "properties": { "codgeo": "34324", "value": 360, "isochrone_group": 6.0, "nb_agences": 1 }, "geometry": { "type": "MultiPolygon", "coordinates": [ [ [ [ 3.30186, 43.2573 ], [ 3.302083, 43.257018 ], [ 3.301876, 43.256854 ], [ 3.301575, 43.256678 ], [ 3.301296, 43.256517 ], [ 3.29691, 43.248676 ], [ 3.299815, 43.255566 ], [ 3.299569, 43.255829 ], [ 3.297613, 43.256364 ], [ 3.295626013507399, 43.256152320411282 ], [ 3.296557897079436, 43.258038159758613 ], [ 3.297509, 43.2577 ], [ 3.30186, 43.2573 ] ] ], [ [ [ 3.2708, 43.234524 ], [ 3.270566152779636, 43.234492042744044 ], [ 3.272505, 43.235371 ], [ 3.2708, 43.234524 ] ] ], [ [ [ 3.267873, 43.234124 ], [ 3.267028, 43.234078 ], [ 3.261963, 43.234864 ], [ 3.255732, 43.238611 ], [ 3.255837, 43.238955 ], [ 3.261003, 43.239108 ], [ 3.261716, 43.239163 ], [ 3.263736, 43.238526 ], [ 3.2663, 43.238264 ], [ 3.273022, 43.243417 ], [ 3.2733905928293, 43.248455721870677 ], [ 3.274512, 43.248691 ], [ 3.277653, 43.24909 ], [ 3.278796400541967, 43.248918716222633 ], [ 3.278546, 43.247732 ], [ 3.275633, 43.242801 ], [ 3.275431, 43.242503 ], [ 3.272984, 43.239432 ], [ 3.269787, 43.237385 ], [ 3.264309, 43.236782 ], [ 3.26416, 43.236799 ], [ 3.264049, 43.236763 ], [ 3.264005, 43.236733 ], [ 3.264201, 43.236437 ], [ 3.264576, 43.236139 ], [ 3.264927, 43.235966 ], [ 3.26808, 43.234599 ], [ 3.270505902463668, 43.234483809014499 ], [ 3.267873, 43.234124 ] ] ] ] } },
{ "type": "Feature", "properties": { "codgeo": "34324", "value": 420, "isochrone_group": 7.0, "nb_agences": 1 }, "geometry": { "type": "MultiPolygon", "coordinates": [ [ [ [ 3.272308, 43.234585 ], [ 3.270228, 43.232476 ], [ 3.270021, 43.232368 ], [ 3.266118, 43.230401 ], [ 3.259328, 43.231804 ], [ 3.255497, 43.236989 ], [ 3.251506, 43.237039 ], [ 3.249448, 43.239992 ], [ 3.249693, 43.240163 ], [ 3.251141, 43.24097 ], [ 3.251473, 43.241132 ], [ 3.25211, 43.241364 ], [ 3.258562, 43.245023 ], [ 3.259291012463638, 43.245762525228578 ], [ 3.261817, 43.243024 ], [ 3.265845, 43.245068 ], [ 3.273245457016527, 43.246471692513872 ], [ 3.273022, 43.243417 ], [ 3.2663, 43.238264 ], [ 3.263736, 43.238526 ], [ 3.261716, 43.239163 ], [ 3.261003, 43.239108 ], [ 3.255837, 43.238955 ], [ 3.255732, 43.238611 ], [ 3.261963, 43.234864 ], [ 3.267028, 43.234078 ], [ 3.267873, 43.234124 ], [ 3.2708, 43.234524 ], [ 3.272505, 43.235371 ], [ 3.273666, 43.236106 ], [ 3.279192, 43.239482 ], [ 3.279418349087212, 43.239575936917738 ], [ 3.272308, 43.234585 ] ] ], [ [ [ 3.304409, 43.26041 ], [ 3.303733, 43.257037 ], [ 3.298504, 43.25077 ], [ 3.296769302439476, 43.247887744101902 ], [ 3.29691, 43.248676 ], [ 3.301296, 43.256517 ], [ 3.301575, 43.256678 ], [ 3.301876, 43.256854 ], [ 3.302083, 43.257018 ], [ 3.30186, 43.2573 ], [ 3.299322989734473, 43.257533234683095 ], [ 3.3011, 43.260687 ], [ 3.30226, 43.261128 ], [ 3.302608676394672, 43.261303186558393 ], [ 3.303366, 43.260992 ], [ 3.304409, 43.26041 ] ] ] ] } },
{ "type": "Feature", "properties": { "codgeo": "34324", "value": 480, "isochrone_group": 8.0, "nb_agences": 1 }, "geometry": { "type": "MultiPolygon", "coordinates": [ [ [ [ 3.26206, 43.229399 ], [ 3.260472, 43.229497 ], [ 3.257509, 43.230884 ], [ 3.250585, 43.230914 ], [ 3.249051, 43.23049 ], [ 3.249007, 43.230497 ], [ 3.247709, 43.23308 ], [ 3.247637, 43.236406 ], [ 3.247661, 43.237069 ], [ 3.247824, 43.237809 ], [ 3.248151, 43.238554 ], [ 3.248448, 43.239011 ], [ 3.248858, 43.239483 ], [ 3.249312, 43.239889 ], [ 3.249450411378432, 43.239988539941443 ], [ 3.251506, 43.237039 ], [ 3.255497, 43.236989 ], [ 3.259328, 43.231804 ], [ 3.264327392731968, 43.230770988512084 ], [ 3.262443, 43.229597 ], [ 3.26206, 43.229399 ] ] ], [ [ [ 3.253825515818176, 43.242336887845426 ], [ 3.25211, 43.241364 ], [ 3.253784, 43.25013 ], [ 3.253825515818176, 43.242336887845426 ] ] ], [ [ [ 3.303366, 43.260992 ], [ 3.302664120653213, 43.261280404344973 ], [ 3.304551423405385, 43.261992155000243 ], [ 3.304553, 43.261987 ], [ 3.303885652869916, 43.26070203070919 ], [ 3.303366, 43.260992 ] ] ] ] } },
{ "type": "Feature", "properties": { "codgeo": "34324", "value": 540, "isochrone_group": 9.0, "nb_agences": 1 }, "geometry": { "type": "MultiPolygon", "coordinates": [ [ [ [ 3.256261, 43.229269 ], [ 3.248394, 43.228147 ], [ 3.244162, 43.225706 ], [ 3.242343, 43.226076 ], [ 3.24234, 43.226079 ], [ 3.241956, 43.228551 ], [ 3.242389, 43.228887 ], [ 3.247389, 43.236236 ], [ 3.247824, 43.237809 ], [ 3.247661, 43.237069 ], [ 3.247637, 43.236406 ], [ 3.247709, 43.23308 ], [ 3.249007, 43.230497 ], [ 3.249051, 43.23049 ], [ 3.250585, 43.230914 ], [ 3.257509, 43.230884 ], [ 3.258917191076547, 43.230224816394468 ], [ 3.256605, 43.229393 ], [ 3.256261, 43.229269 ] ] ], [ [ [ 3.283616, 43.241318 ], [ 3.280258803735264, 43.240004145122974 ], [ 3.280258803735271, 43.240004145122974 ], [ 3.283616, 43.241318 ] ] ], [ [ [ 3.306539, 43.262246 ], [ 3.308167595534888, 43.262236886034465 ], [ 3.302606295830996, 43.257675706283628 ], [ 3.304726, 43.262044 ], [ 3.306539, 43.262246 ] ] ], [ [ [ 3.31068, 43.265047 ], [ 3.310741, 43.264944 ], [ 3.310321079511142, 43.264491443203724 ], [ 3.31068, 43.265047 ] ] ] ] } },
{ "type": "Feature", "properties": { "codgeo": "34324", "value": 600, "isochrone_group": 10.0, "nb_agences": 1 }, "geometry": { "type": "MultiPolygon", "coordinates": [ [ [ [ 3.251624, 43.22634 ], [ 3.251417, 43.226193 ], [ 3.243532, 43.224578 ], [ 3.241362, 43.221705 ], [ 3.237183, 43.220422 ], [ 3.235096, 43.223356 ], [ 3.238193, 43.227993 ], [ 3.240267, 43.230935 ], [ 3.246290556876653, 43.234621508297302 ], [ 3.242389, 43.228887 ], [ 3.241956, 43.228551 ], [ 3.24234, 43.226079 ], [ 3.242343, 43.226076 ], [ 3.244162, 43.225706 ], [ 3.248394, 43.228147 ], [ 3.256261, 43.229269 ], [ 3.256605, 43.229393 ], [ 3.261614, 43.231195 ], [ 3.25442, 43.228202 ], [ 3.251624, 43.22634 ] ] ], [ [ [ 3.247641268558347, 43.237148226304086 ], [ 3.247529906620362, 43.236745531296144 ], [ 3.247367120293367, 43.236343861262618 ], [ 3.247272, 43.236655 ], [ 3.247359684007199, 43.238278853435652 ], [ 3.247641268558347, 43.237148226304086 ] ] ], [ [ [ 3.239679620306196, 43.262320846345013 ], [ 3.239814, 43.262156 ], [ 3.241297, 43.260338 ], [ 3.239936, 43.262006 ], [ 3.239678538050922, 43.262321958818411 ], [ 3.239679620306196, 43.262320846345013 ] ] ] ] } },
{ "type": "Feature", "properties": { "codgeo": "34324", "value": 660, "isochrone_group": 11.0, "nb_agences": 1 }, "geometry": { "type": "MultiPolygon", "coordinates": [ [ [ [ 3.24042117757612, 43.231029359018315 ], [ 3.240267, 43.230935 ], [ 3.238193, 43.227993 ], [ 3.235096, 43.223356 ], [ 3.237183, 43.220422 ], [ 3.241362, 43.221705 ], [ 3.243532, 43.224578 ], [ 3.251417, 43.226193 ], [ 3.251624, 43.22634 ], [ 3.25442, 43.228202 ], [ 3.261614, 43.231195 ], [ 3.258078, 43.228731 ], [ 3.256282, 43.227211 ], [ 3.252238, 43.22628 ], [ 3.246761, 43.222178 ], [ 3.244618, 43.219286 ], [ 3.236963, 43.217632 ], [ 3.233365, 43.217501 ], [ 3.23095972646046, 43.218807686093768 ], [ 3.230932, 43.218852 ], [ 3.230579751503525, 43.219070076590619 ], [ 3.230323, 43.220487 ], [ 3.231578, 43.22247 ], [ 3.23703, 43.229441 ], [ 3.236989, 43.230069 ], [ 3.237002, 43.230193 ], [ 3.240169, 43.23096 ], [ 3.24042117757612, 43.231029359018315 ] ] ], [ [ [ 3.261614, 43.231195 ], [ 3.265382429268594, 43.231938519364441 ], [ 3.265382429268596, 43.231938519364441 ], [ 3.261614, 43.231195 ] ] ], [ [ [ 3.31068, 43.265047 ], [ 3.310269003995147, 43.26585605149922 ], [ 3.309513517391876, 43.271649408213605 ], [ 3.309735, 43.270507 ], [ 3.310081, 43.269232 ], [ 3.31068, 43.265047 ] ] ] ] } },
{ "type": "Feature", "properties": { "codgeo": "34324", "value": 720, "isochrone_group": 12.0, "nb_agences": 1 }, "geometry": { "type": "MultiPolygon", "coordinates": [ [ [ [ 3.241418, 43.233296 ], [ 3.247247851576007, 43.236819310907613 ], [ 3.247701, 43.235889 ], [ 3.247597, 43.233003 ], [ 3.240062, 43.23108 ], [ 3.239937886310774, 43.230904027723511 ], [ 3.237007696976141, 43.230194379722349 ], [ 3.23704, 43.230411 ], [ 3.237477, 43.232266 ], [ 3.237914, 43.234122 ], [ 3.241418, 43.233296 ] ] ], [ [ [ 3.237521, 43.213539 ], [ 3.234888851927756, 43.214782674300722 ], [ 3.234936, 43.215364 ], [ 3.234912, 43.216679 ], [ 3.234859, 43.216721 ], [ 3.233453644648179, 43.217504227473292 ], [ 3.236963, 43.217632 ], [ 3.239838426896718, 43.21825328753588 ], [ 3.239398, 43.21661 ], [ 3.237521, 43.213539 ] ] ], [ [ [ 3.226482761886392, 43.221821171302004 ], [ 3.228153, 43.223757 ], [ 3.232784982043077, 43.224013263356973 ], [ 3.231578, 43.22247 ], [ 3.230323, 43.220487 ], [ 3.230572531995908, 43.219109918574844 ], [ 3.23, 43.219429 ], [ 3.226482761886392, 43.221821171302004 ] ] ], [ [ [ 3.23703, 43.229441 ], [ 3.235375357705005, 43.22732535226735 ], [ 3.236989, 43.230069 ], [ 3.23703, 43.229441 ] ] ], [ [ [ 3.24006, 43.248845 ], [ 3.238898, 43.257238 ], [ 3.240669, 43.25469 ], [ 3.241917, 43.248496 ], [ 3.245990085122945, 43.243310125045518 ], [ 3.246531723064845, 43.241287023706725 ], [ 3.246434507659619, 43.240459535436031 ], [ 3.246239, 43.241 ], [ 3.240175, 43.247635 ], [ 3.24006, 43.248845 ] ] ], [ [ [ 3.253574, 43.225264 ], [ 3.252895, 43.225766 ], [ 3.252288032002481, 43.226291518247862 ], [ 3.256282, 43.227211 ], [ 3.258078, 43.228731 ], [ 3.260802037894786, 43.230629198352034 ], [ 3.261076, 43.230588 ], [ 3.261351128542156, 43.230667314985702 ], [ 3.262798, 43.2305 ], [ 3.263796747698498, 43.230942215806238 ], [ 3.258302, 43.227292 ], [ 3.25465, 43.224364 ], [ 3.253574, 43.225264 ] ] ] ] } },
{ "type": "Feature", "properties": { "codgeo": "34324", "value": 780, "isochrone_group": 13.0, "nb_agences": 1 }, "geometry": { "type": "MultiPolygon", "coordinates": [ [ [ [ 3.237914419692054, 43.234121901065727 ], [ 3.238136, 43.235062 ], [ 3.2389984906672, 43.235621962781828 ], [ 3.238070693920181, 43.234085062449203 ], [ 3.237914419692054, 43.234121901065727 ] ] ], [ [ [ 3.238371646616072, 43.214930761192306 ], [ 3.239051686313347, 43.216043388741745 ], [ 3.240065016760799, 43.216319274170488 ], [ 3.23982, 43.214825 ], [ 3.239551, 43.214704 ], [ 3.238856217056514, 43.214470399750496 ], [ 3.238371646616072, 43.214930761192306 ] ] ], [ [ [ 3.234676982534496, 43.226137917196361 ], [ 3.233449, 43.22405 ], [ 3.228153, 43.223757 ], [ 3.228145586809814, 43.223748408011716 ], [ 3.222257776774061, 43.224198634474284 ], [ 3.226198, 43.225443 ], [ 3.234676982534496, 43.226137917196361 ] ] ], [ [ [ 3.236310918177484, 43.228916069353176 ], [ 3.23704, 43.230411 ], [ 3.236989, 43.230069 ], [ 3.236310918177484, 43.228916069353176 ] ] ] ] } },
{ "type": "Feature", "properties": { "codgeo": "34324", "value": 840, "isochrone_group": 14.0, "nb_agences": 1 }, "geometry": { "type": "MultiPolygon", "coordinates": [ [ [ [ 3.238136, 43.235062 ], [ 3.238021702586972, 43.234577070282313 ], [ 3.238021246684109, 43.234576375784982 ], [ 3.238179, 43.235246 ], [ 3.239129667036118, 43.2362648823282 ], [ 3.238491580940424, 43.235292857098088 ], [ 3.238136, 43.235062 ] ] ], [ [ [ 3.217133, 43.225783 ], [ 3.223078, 43.22765 ], [ 3.225416, 43.2273 ], [ 3.225502, 43.227212 ], [ 3.225879, 43.226668 ], [ 3.234606649192036, 43.226150842457571 ], [ 3.234594689389465, 43.226131172646376 ], [ 3.226198, 43.225443 ], [ 3.22615395915928, 43.225429091421553 ], [ 3.21883, 43.224909 ], [ 3.217130451089921, 43.225778948602496 ], [ 3.217133, 43.225783 ] ] ], [ [ [ 3.235241260121325, 43.260727179269786 ], [ 3.236460517197672, 43.260056876801272 ], [ 3.238576, 43.257817 ], [ 3.235241260121325, 43.260727179269786 ] ] ] ] } },
{ "type": "Feature", "properties": { "codgeo": "34324", "value": 900, "isochrone_group": 15.0, "nb_agences": 1 }, "geometry": { "type": "MultiPolygon", "coordinates": [ [ [ [ 3.238179, 43.235246 ], [ 3.237607, 43.232818 ], [ 3.23704, 43.230411 ], [ 3.235918510533973, 43.227918269574211 ], [ 3.234739, 43.226143 ], [ 3.23032171684591, 43.226404746462279 ], [ 3.234494, 43.228546 ], [ 3.234941, 43.229765 ], [ 3.235047, 43.229867 ], [ 3.238179, 43.235246 ] ] ], [ [ [ 3.333909, 43.265985 ], [ 3.331584059415831, 43.265968245447269 ], [ 3.332222, 43.266308 ], [ 3.336358462721805, 43.266484380125696 ], [ 3.333909, 43.265985 ] ] ], [ [ [ 3.226825482926781, 43.263115139313754 ], [ 3.226957, 43.26313 ], [ 3.22758242048901, 43.263255461425395 ], [ 3.227638784909476, 43.263265910338077 ], [ 3.227666661614812, 43.263270229264251 ], [ 3.226743, 43.263078 ], [ 3.226582253921544, 43.263081537199767 ], [ 3.22676, 43.263103 ], [ 3.226825482926781, 43.263115139313754 ] ] ], [ [ [ 3.222255, 43.228292 ], [ 3.223076007457189, 43.227649374251044 ], [ 3.223035617190249, 43.227636689872867 ], [ 3.215882, 43.226408 ], [ 3.212746, 43.228389 ], [ 3.215616, 43.226601 ], [ 3.221915, 43.22859 ], [ 3.222255, 43.228292 ] ] ], [ [ [ 3.212403137665612, 43.228535339399642 ], [ 3.212485, 43.22855 ], [ 3.212746, 43.228389 ], [ 3.212403137665612, 43.228535339399642 ] ] ] ] } },
{ "type": "Feature", "properties": { "codgeo": "34324", "value": 960, "isochrone_group": 16.0, "nb_agences": 1 }, "geometry": { "type": "MultiPolygon", "coordinates": [ [ [ [ 3.341152, 43.26712 ], [ 3.341019, 43.266883 ], [ 3.340965, 43.266855 ], [ 3.336373, 43.266485 ], [ 3.336400586433124, 43.266492968027073 ], [ 3.33773, 43.266764 ], [ 3.337796928276971, 43.266896285467652 ], [ 3.339025, 43.267251 ], [ 3.340215, 43.268493 ], [ 3.340851, 43.27016 ], [ 3.340422758769066, 43.270752478486578 ], [ 3.340695, 43.270609 ], [ 3.340772, 43.270568 ], [ 3.34169, 43.269361 ], [ 3.341553, 43.268096 ], [ 3.341152, 43.26712 ] ] ], [ [ [ 3.224466, 43.262826 ], [ 3.22417831162673, 43.262912123270979 ], [ 3.22650947234978, 43.263083138750247 ], [ 3.226582253921554, 43.263081537199767 ], [ 3.224466, 43.262826 ] ] ], [ [ [ 3.223995, 43.262967 ], [ 3.223960702386928, 43.262985140486478 ], [ 3.224077984600087, 43.262942157476409 ], [ 3.223995, 43.262967 ] ] ], [ [ [ 3.223286, 43.263342 ], [ 3.223256080624413, 43.263366951471781 ], [ 3.22338111962162, 43.263291689903951 ], [ 3.223286, 43.263342 ] ] ], [ [ [ 3.222689, 43.264205 ], [ 3.223255970948518, 43.263367042936778 ], [ 3.220213429689044, 43.265904391423959 ], [ 3.220876093200125, 43.265723657802418 ], [ 3.222689, 43.264205 ] ] ] ] } },
{ "type": "Feature", "properties": { "codgeo": "34324", "value": 1080, "isochrone_group": 18.0, "nb_agences": 1 }, "geometry": { "type": "MultiPolygon", "coordinates": [ [ [ [ 3.319337, 43.260372 ], [ 3.319472942409769, 43.260559735966261 ], [ 3.322369, 43.260024 ], [ 3.323001129478428, 43.259698357541424 ], [ 3.322331, 43.259231 ], [ 3.32158, 43.259488 ], [ 3.314503043171094, 43.25815859110935 ], [ 3.318146834404238, 43.260429141971152 ], [ 3.319337, 43.260372 ] ] ], [ [ [ 3.339116, 43.273276 ], [ 3.340851, 43.27016 ], [ 3.339044362645199, 43.273402529378686 ], [ 3.339054535259068, 43.273604676320652 ], [ 3.339116, 43.273276 ] ] ], [ [ [ 3.213947, 43.266687 ], [ 3.212707, 43.266714 ], [ 3.212703833844146, 43.266717102845412 ], [ 3.213947, 43.266687 ] ] ], [ [ [ 3.202657070828451, 43.237398843127565 ], [ 3.207922, 43.231177 ], [ 3.207379, 43.231524 ], [ 3.202634, 43.237231 ], [ 3.202657070828451, 43.237398843127565 ] ] ] ] } },
{ "type": "Feature", "properties": { "codgeo": "34324", "value": 1140, "isochrone_group": 19.0, "nb_agences": 1 }, "geometry": { "type": "MultiPolygon", "coordinates": [ [ [ [ 3.323001129478428, 43.259698357541424 ], [ 3.323491, 43.26004 ], [ 3.323731404617951, 43.260779188030888 ], [ 3.323731404617951, 43.260779188030888 ], [ 3.325067, 43.261391 ], [ 3.331821225150365, 43.266032582818234 ], [ 3.331978670345078, 43.266048907398961 ], [ 3.326603, 43.260325 ], [ 3.326558, 43.26027 ], [ 3.325436, 43.25963 ], [ 3.323525, 43.259483 ], [ 3.323359, 43.259514 ], [ 3.323001129478428, 43.259698357541424 ] ] ], [ [ [ 3.233765, 43.212966 ], [ 3.234564465377928, 43.213329801660734 ], [ 3.234688, 43.213351 ], [ 3.235169990400018, 43.212933243729175 ], [ 3.234958, 43.212847 ], [ 3.232638064797979, 43.212999234469471 ], [ 3.232886292291195, 43.213041829901627 ], [ 3.233765, 43.212966 ] ] ] ] } },
{ "type": "Feature", "properties": { "codgeo": "34324", "value": 1200, "isochrone_group": 20.0, "nb_agences": 1 }, "geometry": { "type": "MultiPolygon", "coordinates": [ [ [ [ 3.309698, 43.255485 ], [ 3.303724613451696, 43.253701438227388 ], [ 3.304171, 43.254138 ], [ 3.309698, 43.255485 ] ] ], [ [ [ 3.231085637277417, 43.212732840444041 ], [ 3.235716, 43.21246 ], [ 3.230884497719421, 43.212698325224608 ], [ 3.231085637277417, 43.212732840444041 ] ] ] ] } }
]
}
