{
"type": "FeatureCollection",
"name": "Others",
"crs": { "type": "name", "properties": { "name": "urn:ogc:def:crs:OGC:1.3:CRS84" } },
"features": [
{ "type": "Feature", "properties": { "codgeo": "34270", "value": 60, "isochrone_group": 1.0, "nb_agences": 3 }, "geometry": { "type": "MultiPolygon", "coordinates": [ [ [ [ 3.82958, 43.574918 ], [ 3.826435, 43.574485 ], [ 3.821799, 43.573797 ], [ 3.820199, 43.573725 ], [ 3.820118, 43.574076 ], [ 3.82437, 43.576293 ], [ 3.825279, 43.576786 ], [ 3.825634, 43.57673 ], [ 3.828951568090692, 43.575547437193102 ], [ 3.82894, 43.575728 ], [ 3.830186, 43.577344 ], [ 3.830298, 43.577377 ], [ 3.830397, 43.577383 ], [ 3.833877, 43.577069 ], [ 3.834108, 43.576793 ], [ 3.833933, 43.576646 ], [ 3.833427, 43.576265 ], [ 3.831856, 43.575148 ], [ 3.829668025367121, 43.575259342812494 ], [ 3.82958, 43.574918 ] ] ], [ [ [ 3.849086, 43.576538 ], [ 3.850155, 43.575982 ], [ 3.850315, 43.57588 ], [ 3.850154, 43.575699 ], [ 3.848522, 43.575033 ], [ 3.848457, 43.575077 ], [ 3.848426, 43.575456 ], [ 3.848469, 43.575834 ], [ 3.849086, 43.576538 ] ] ] ] } },
{ "type": "Feature", "properties": { "codgeo": "34270", "value": 120, "isochrone_group": 2.0, "nb_agences": 3 }, "geometry": { "type": "MultiPolygon", "coordinates": [ [ [ [ 3.836042, 43.571274 ], [ 3.834071, 43.57178 ], [ 3.830812, 43.572606 ], [ 3.82702, 43.572529 ], [ 3.824573, 43.572483 ], [ 3.823134, 43.572525 ], [ 3.817514, 43.572667 ], [ 3.813244, 43.571029 ], [ 3.81205, 43.570221 ], [ 3.810856, 43.569413 ], [ 3.810655, 43.569712 ], [ 3.811578, 43.572016 ], [ 3.811871, 43.572226 ], [ 3.815612, 43.57412 ], [ 3.81875, 43.575916 ], [ 3.819683, 43.576152 ], [ 3.822858, 43.576638 ], [ 3.825662, 43.577201 ], [ 3.826002418670607, 43.577196280900608 ], [ 3.826208, 43.577382 ], [ 3.826361, 43.5775 ], [ 3.827322, 43.577832 ], [ 3.830298, 43.578385 ], [ 3.835143, 43.58019 ], [ 3.838014, 43.581796 ], [ 3.840029, 43.581502 ], [ 3.840127, 43.581156 ], [ 3.837584, 43.576274 ], [ 3.835967366062437, 43.571972703205816 ], [ 3.83626, 43.57156 ], [ 3.836042, 43.571274 ] ], [ [ 3.829668025367121, 43.575259342812494 ], [ 3.831856, 43.575148 ], [ 3.833427, 43.576265 ], [ 3.833933, 43.576646 ], [ 3.834108, 43.576793 ], [ 3.833877, 43.577069 ], [ 3.830397, 43.577383 ], [ 3.830298, 43.577377 ], [ 3.830186, 43.577344 ], [ 3.82894, 43.575728 ], [ 3.828951568090692, 43.575547437193102 ], [ 3.825634, 43.57673 ], [ 3.825279, 43.576786 ], [ 3.82437, 43.576293 ], [ 3.820118, 43.574076 ], [ 3.820199, 43.573725 ], [ 3.821799, 43.573797 ], [ 3.826435, 43.574485 ], [ 3.82958, 43.574918 ], [ 3.829668025367121, 43.575259342812494 ] ] ], [ [ [ 3.847975, 43.582265 ], [ 3.848331, 43.582212 ], [ 3.849162, 43.57974 ], [ 3.850315, 43.57588 ], [ 3.849213, 43.571621 ], [ 3.848809, 43.570948 ], [ 3.847861, 43.571034 ], [ 3.847709, 43.57136 ], [ 3.843661, 43.575677 ], [ 3.842989, 43.578735 ], [ 3.843174, 43.579044 ], [ 3.847975, 43.582265 ] ], [ [ 3.850155, 43.575982 ], [ 3.849086, 43.576538 ], [ 3.848469, 43.575834 ], [ 3.848426, 43.575456 ], [ 3.848457, 43.575077 ], [ 3.848522, 43.575033 ], [ 3.850154, 43.575699 ], [ 3.850315, 43.57588 ], [ 3.850155, 43.575982 ] ] ] ] } },
{ "type": "Feature", "properties": { "codgeo": "34270", "value": 180, "isochrone_group": 3.0, "nb_agences": 3 }, "geometry": { "type": "Polygon", "coordinates": [ [ [ 3.810825, 43.569392 ], [ 3.808419, 43.567047 ], [ 3.804184, 43.564936 ], [ 3.803983, 43.565234 ], [ 3.804224, 43.565396 ], [ 3.804466, 43.565559 ], [ 3.804638, 43.565658 ], [ 3.806955, 43.567218 ], [ 3.809463, 43.575412 ], [ 3.809796, 43.575549 ], [ 3.817693, 43.575407 ], [ 3.820541, 43.577382 ], [ 3.821862, 43.578163 ], [ 3.822688585194763, 43.578245149067904 ], [ 3.823759, 43.579261 ], [ 3.827947, 43.580163 ], [ 3.83499, 43.58284 ], [ 3.835772, 43.583106 ], [ 3.843947, 43.584562 ], [ 3.844440543986952, 43.584578169147775 ], [ 3.846184, 43.58544 ], [ 3.848332, 43.585885 ], [ 3.852105, 43.586204 ], [ 3.852356, 43.585946 ], [ 3.851239, 43.578074 ], [ 3.8511, 43.573253 ], [ 3.850461, 43.565568 ], [ 3.850344, 43.565196 ], [ 3.849985, 43.565167 ], [ 3.843487, 43.569042 ], [ 3.84143, 43.569446 ], [ 3.840322084616517, 43.572004008306109 ], [ 3.838562919851, 43.569588198509997 ], [ 3.838506, 43.569019 ], [ 3.838499, 43.568989 ], [ 3.834971, 43.567869 ], [ 3.829765, 43.570442 ], [ 3.825631, 43.57043 ], [ 3.823038973041745, 43.57175404968909 ], [ 3.817515, 43.572487 ], [ 3.815591743954359, 43.571929609975946 ], [ 3.817514, 43.572667 ], [ 3.823134, 43.572525 ], [ 3.824573, 43.572483 ], [ 3.82702, 43.572529 ], [ 3.830812, 43.572606 ], [ 3.834071, 43.57178 ], [ 3.836042, 43.571274 ], [ 3.83626, 43.57156 ], [ 3.835967366062437, 43.571972703205816 ], [ 3.837584, 43.576274 ], [ 3.840127, 43.581156 ], [ 3.840029, 43.581502 ], [ 3.838014, 43.581796 ], [ 3.835143, 43.58019 ], [ 3.830298, 43.578385 ], [ 3.827322, 43.577832 ], [ 3.826361, 43.5775 ], [ 3.826208, 43.577382 ], [ 3.826002418670607, 43.577196280900608 ], [ 3.825662, 43.577201 ], [ 3.822858, 43.576638 ], [ 3.819683, 43.576152 ], [ 3.81875, 43.575916 ], [ 3.815612, 43.57412 ], [ 3.811871, 43.572226 ], [ 3.811578, 43.572016 ], [ 3.810655, 43.569712 ], [ 3.810856, 43.569413 ], [ 3.81205, 43.570221 ], [ 3.813244, 43.571029 ], [ 3.810825, 43.569392 ] ], [ [ 3.842989, 43.578735 ], [ 3.843661, 43.575677 ], [ 3.847709, 43.57136 ], [ 3.847861, 43.571034 ], [ 3.848809, 43.570948 ], [ 3.849213, 43.571621 ], [ 3.850315, 43.57588 ], [ 3.849162, 43.57974 ], [ 3.848331, 43.582212 ], [ 3.847975, 43.582265 ], [ 3.843174, 43.579044 ], [ 3.842989, 43.578735 ] ] ] } },
{ "type": "Feature", "properties": { "codgeo": "34270", "value": 240, "isochrone_group": 4.0, "nb_agences": 3 }, "geometry": { "type": "Polygon", "coordinates": [ [ [ 3.798408, 43.56004 ], [ 3.798163, 43.560304 ], [ 3.798213, 43.560541 ], [ 3.800856, 43.56789 ], [ 3.801489, 43.57082 ], [ 3.80494, 43.579001 ], [ 3.805103, 43.579322 ], [ 3.811145, 43.579526 ], [ 3.8115, 43.57947 ], [ 3.818892, 43.578385 ], [ 3.819785457633034, 43.578984953188218 ], [ 3.820775, 43.580677 ], [ 3.820958, 43.580987 ], [ 3.821566, 43.581143 ], [ 3.823338, 43.581382 ], [ 3.831611, 43.583625 ], [ 3.836606736643863, 43.585068597328082 ], [ 3.837487, 43.586282 ], [ 3.839217, 43.585973 ], [ 3.846546, 43.587648 ], [ 3.850906, 43.588673 ], [ 3.855134626563174, 43.589580044379559 ], [ 3.85536, 43.589323 ], [ 3.855608, 43.589061 ], [ 3.856992223994363, 43.5893528018767 ], [ 3.857206, 43.589178 ], [ 3.857252, 43.589085 ], [ 3.85667, 43.588194 ], [ 3.855045, 43.586246 ], [ 3.853566, 43.584954 ], [ 3.852256, 43.578195 ], [ 3.854108, 43.575391 ], [ 3.854168, 43.575036 ], [ 3.853325, 43.567874 ], [ 3.855187, 43.5632 ], [ 3.855095, 43.562852 ], [ 3.850165, 43.559524 ], [ 3.848849, 43.559433 ], [ 3.848532, 43.559603 ], [ 3.848275, 43.561428 ], [ 3.843104130379344, 43.56719304676902 ], [ 3.837329, 43.563861 ], [ 3.836449, 43.563162 ], [ 3.829672, 43.561717 ], [ 3.829472, 43.562016 ], [ 3.823925, 43.568747 ], [ 3.821548, 43.569171 ], [ 3.821292, 43.569425 ], [ 3.821115, 43.569595 ], [ 3.813244, 43.571029 ], [ 3.814380156909208, 43.571578472885378 ], [ 3.817515, 43.572487 ], [ 3.823038973041745, 43.57175404968909 ], [ 3.825631, 43.57043 ], [ 3.829765, 43.570442 ], [ 3.834971, 43.567869 ], [ 3.838499, 43.568989 ], [ 3.838506, 43.569019 ], [ 3.838562919851, 43.569588198509997 ], [ 3.840322084616517, 43.572004008306109 ], [ 3.84143, 43.569446 ], [ 3.843487, 43.569042 ], [ 3.849985, 43.565167 ], [ 3.850344, 43.565196 ], [ 3.850461, 43.565568 ], [ 3.8511, 43.573253 ], [ 3.851239, 43.578074 ], [ 3.852356, 43.585946 ], [ 3.852105, 43.586204 ], [ 3.848332, 43.585885 ], [ 3.846184, 43.58544 ], [ 3.844440543986952, 43.584578169147775 ], [ 3.843947, 43.584562 ], [ 3.835772, 43.583106 ], [ 3.83499, 43.58284 ], [ 3.827947, 43.580163 ], [ 3.823759, 43.579261 ], [ 3.822688585194763, 43.578245149067904 ], [ 3.821862, 43.578163 ], [ 3.820541, 43.577382 ], [ 3.817693, 43.575407 ], [ 3.809796, 43.575549 ], [ 3.809463, 43.575412 ], [ 3.806955, 43.567218 ], [ 3.804638, 43.565658 ], [ 3.804466, 43.565559 ], [ 3.804224, 43.565396 ], [ 3.803983, 43.565234 ], [ 3.804184, 43.564936 ], [ 3.808419, 43.567047 ], [ 3.801827, 43.562491 ], [ 3.798645, 43.560202 ], [ 3.798408, 43.56004 ] ] ] } },
{ "type": "Feature", "properties": { "codgeo": "34270", "value": 300, "isochrone_group": 5.0, "nb_agences": 3 }, "geometry": { "type": "Polygon", "coordinates": [ [ [ 3.80021, 43.557797 ], [ 3.797546, 43.556429 ], [ 3.794532, 43.555058 ], [ 3.792451, 43.553983 ], [ 3.790799, 43.557182 ], [ 3.791437, 43.56151 ], [ 3.793428, 43.56451 ], [ 3.797387, 43.567539 ], [ 3.796427, 43.573257 ], [ 3.795434, 43.574153 ], [ 3.79943, 43.581879 ], [ 3.7997, 43.582331 ], [ 3.799761, 43.58239 ], [ 3.799866, 43.582477 ], [ 3.804658, 43.581365 ], [ 3.811986, 43.582797 ], [ 3.81760605034403, 43.583646278737874 ], [ 3.817594, 43.583789 ], [ 3.820851, 43.585323 ], [ 3.8239059802847, 43.586726938625816 ], [ 3.823687, 43.586808 ], [ 3.824936, 43.590184 ], [ 3.833711, 43.589329 ], [ 3.834308, 43.589253 ], [ 3.834984, 43.58909 ], [ 3.835742, 43.58882 ], [ 3.839240280539002, 43.587988537877862 ], [ 3.841542321913825, 43.587685215466379 ], [ 3.849318, 43.590104 ], [ 3.849842, 43.590383 ], [ 3.85042, 43.5905 ], [ 3.850774305458275, 43.590540614698384 ], [ 3.851391336905073, 43.59111820121251 ], [ 3.85088564577811, 43.588668214890475 ], [ 3.846546, 43.587648 ], [ 3.839217, 43.585973 ], [ 3.837487, 43.586282 ], [ 3.836606736643863, 43.585068597328082 ], [ 3.831611, 43.583625 ], [ 3.823338, 43.581382 ], [ 3.821566, 43.581143 ], [ 3.820958, 43.580987 ], [ 3.820775, 43.580677 ], [ 3.819785457633034, 43.578984953188218 ], [ 3.818892, 43.578385 ], [ 3.8115, 43.57947 ], [ 3.811145, 43.579526 ], [ 3.805103, 43.579322 ], [ 3.80494, 43.579001 ], [ 3.801489, 43.57082 ], [ 3.800856, 43.56789 ], [ 3.798213, 43.560541 ], [ 3.798163, 43.560304 ], [ 3.798408, 43.56004 ], [ 3.798645, 43.560202 ], [ 3.801827, 43.562491 ], [ 3.808419, 43.567047 ], [ 3.810825, 43.569392 ], [ 3.813244, 43.571029 ], [ 3.821115, 43.569595 ], [ 3.821292, 43.569425 ], [ 3.821548, 43.569171 ], [ 3.823925, 43.568747 ], [ 3.829472, 43.562016 ], [ 3.829672, 43.561717 ], [ 3.836449, 43.563162 ], [ 3.837329, 43.563861 ], [ 3.843104130379344, 43.56719304676902 ], [ 3.848275, 43.561428 ], [ 3.848532, 43.559603 ], [ 3.848849, 43.559433 ], [ 3.850165, 43.559524 ], [ 3.855095, 43.562852 ], [ 3.855187, 43.5632 ], [ 3.853325, 43.567874 ], [ 3.854168, 43.575036 ], [ 3.854108, 43.575391 ], [ 3.852256, 43.578195 ], [ 3.853566, 43.584954 ], [ 3.854115594450168, 43.585434105496716 ], [ 3.859232, 43.585824 ], [ 3.861389245664187, 43.587023751599347 ], [ 3.861513, 43.586402 ], [ 3.861533, 43.586194 ], [ 3.860746, 43.583578 ], [ 3.861652, 43.575613 ], [ 3.861895, 43.574923 ], [ 3.861868, 43.574164 ], [ 3.861847, 43.574085 ], [ 3.860458, 43.572928 ], [ 3.861696, 43.56476 ], [ 3.859625, 43.559088 ], [ 3.857008, 43.554878 ], [ 3.855333, 43.554675 ], [ 3.846448, 43.55329 ], [ 3.845492, 43.556761 ], [ 3.845181, 43.55796 ], [ 3.845113, 43.560156 ], [ 3.842593855399154, 43.563228337072871 ], [ 3.84007, 43.56122 ], [ 3.836151305208826, 43.561207584592111 ], [ 3.83383, 43.561036 ], [ 3.826299, 43.556673 ], [ 3.824812, 43.555034 ], [ 3.824474, 43.554704 ], [ 3.823426, 43.553749 ], [ 3.822921, 43.553378 ], [ 3.820173, 43.551709 ], [ 3.819203, 43.551248 ], [ 3.818614, 43.550988 ], [ 3.817966, 43.550721 ], [ 3.817287, 43.55047 ], [ 3.816375, 43.550163 ], [ 3.816373762996716, 43.550166669059315 ], [ 3.816161, 43.550096 ], [ 3.815175, 43.549845 ], [ 3.814287, 43.553334 ], [ 3.815225378515707, 43.553572877289518 ], [ 3.815225, 43.553574 ], [ 3.816137, 43.553882 ], [ 3.816716, 43.554097 ], [ 3.817236, 43.554314 ], [ 3.817748, 43.554541 ], [ 3.818623, 43.554959 ], [ 3.8209, 43.556357 ], [ 3.821288, 43.556645 ], [ 3.822027, 43.557345 ], [ 3.822294, 43.557607 ], [ 3.822159955122715, 43.564445866527613 ], [ 3.821658765705508, 43.565761054978509 ], [ 3.818374, 43.567098 ], [ 3.818037, 43.567142 ], [ 3.817621, 43.567231 ], [ 3.817616385092119, 43.567232057653904 ], [ 3.815596435144078, 43.567512882820637 ], [ 3.809307, 43.566409 ], [ 3.803912, 43.562689 ], [ 3.803586, 43.562463 ], [ 3.801921601007204, 43.561106466716865 ], [ 3.801498, 43.560443 ], [ 3.800231, 43.557846 ], [ 3.80021, 43.557797 ] ] ] } },
{ "type": "Feature", "properties": { "codgeo": "34270", "value": 360, "isochrone_group": 6.0, "nb_agences": 3 }, "geometry": { "type": "MultiPolygon", "coordinates": [ [ [ [ 3.784862, 43.554114 ], [ 3.784889, 43.554128 ], [ 3.789377, 43.560755 ], [ 3.78724, 43.56457 ], [ 3.786321, 43.56528 ], [ 3.786053895899091, 43.565475641071423 ], [ 3.788151, 43.568397 ], [ 3.788602, 43.570415 ], [ 3.792432, 43.577094 ], [ 3.795072, 43.579541 ], [ 3.799975737991342, 43.585250974666501 ], [ 3.802544, 43.586064 ], [ 3.80271, 43.586094 ], [ 3.803699, 43.585898 ], [ 3.803875, 43.585777 ], [ 3.809905, 43.584355 ], [ 3.816682, 43.590177 ], [ 3.816703711957341, 43.590178147821895 ], [ 3.816687, 43.590716 ], [ 3.816853, 43.591434 ], [ 3.820851, 43.593987 ], [ 3.820933, 43.593984 ], [ 3.821097436693025, 43.593854275408439 ], [ 3.821846, 43.594161 ], [ 3.822075, 43.594108 ], [ 3.82329, 43.592222 ], [ 3.825668106680749, 43.590272940903652 ], [ 3.829743418389516, 43.589715584874874 ], [ 3.824936, 43.590184 ], [ 3.823687, 43.586808 ], [ 3.8239059802847, 43.586726938625816 ], [ 3.820851, 43.585323 ], [ 3.817594, 43.583789 ], [ 3.81760605034403, 43.583646278737874 ], [ 3.811986, 43.582797 ], [ 3.804658, 43.581365 ], [ 3.799866, 43.582477 ], [ 3.799761, 43.58239 ], [ 3.7997, 43.582331 ], [ 3.79943, 43.581879 ], [ 3.795434, 43.574153 ], [ 3.796427, 43.573257 ], [ 3.797387, 43.567539 ], [ 3.793428, 43.56451 ], [ 3.791437, 43.56151 ], [ 3.790799, 43.557182 ], [ 3.792451, 43.553983 ], [ 3.794532, 43.555058 ], [ 3.797546, 43.556429 ], [ 3.80021, 43.557797 ], [ 3.800231, 43.557846 ], [ 3.801498, 43.560443 ], [ 3.801921601007204, 43.561106466716865 ], [ 3.803586, 43.562463 ], [ 3.803912, 43.562689 ], [ 3.809307, 43.566409 ], [ 3.815596435144078, 43.567512882820637 ], [ 3.817616385092119, 43.567232057653904 ], [ 3.817621, 43.567231 ], [ 3.818037, 43.567142 ], [ 3.818374, 43.567098 ], [ 3.821658765705508, 43.565761054978509 ], [ 3.822159955122715, 43.564445866527613 ], [ 3.822294, 43.557607 ], [ 3.822027, 43.557345 ], [ 3.821288, 43.556645 ], [ 3.8209, 43.556357 ], [ 3.818623, 43.554959 ], [ 3.817748, 43.554541 ], [ 3.817236, 43.554314 ], [ 3.816716, 43.554097 ], [ 3.816137, 43.553882 ], [ 3.815225, 43.553574 ], [ 3.815225378515707, 43.553572877289518 ], [ 3.814287, 43.553334 ], [ 3.815174514951726, 43.549846905780889 ], [ 3.815064, 43.549819 ], [ 3.813645, 43.549532 ], [ 3.812927, 43.549416 ], [ 3.811287, 43.549227 ], [ 3.810456, 43.549159 ], [ 3.808627, 43.549077 ], [ 3.806862, 43.548999 ], [ 3.805899, 43.548923 ], [ 3.797704011538849, 43.546193953088491 ], [ 3.795874440906742, 43.544989581645105 ], [ 3.795212, 43.544533 ], [ 3.793169, 43.547497 ], [ 3.786562, 43.550941 ], [ 3.784862, 43.554114 ] ] ], [ [ [ 3.834679, 43.589286 ], [ 3.835138, 43.589172 ], [ 3.835636, 43.589012 ], [ 3.836556408910738, 43.58862643343106 ], [ 3.835742, 43.58882 ], [ 3.834984, 43.58909 ], [ 3.834308, 43.589253 ], [ 3.833711, 43.589329 ], [ 3.834679, 43.589286 ] ] ], [ [ [ 3.843675923575052, 43.590456422507096 ], [ 3.844331461911314, 43.588552834806222 ], [ 3.841542321913825, 43.587685215466379 ], [ 3.841254115187324, 43.587723190265706 ], [ 3.843675923575052, 43.590456422507096 ] ] ], [ [ [ 3.861102, 43.581539 ], [ 3.861235, 43.581457 ], [ 3.862525, 43.581737 ], [ 3.86259, 43.581784 ], [ 3.864941164034376, 43.583828848958532 ], [ 3.865029, 43.583372 ], [ 3.866376, 43.576622 ], [ 3.866397, 43.573022 ], [ 3.866292, 43.573021 ], [ 3.865621, 43.573079 ], [ 3.862306877767447, 43.572056410902164 ], [ 3.863422, 43.568946 ], [ 3.862527, 43.568626 ], [ 3.86229, 43.568543 ], [ 3.862135284694859, 43.568498509728173 ], [ 3.862136, 43.568496 ], [ 3.861285, 43.568254 ], [ 3.861170249709298, 43.568228762822677 ], [ 3.860458, 43.572928 ], [ 3.861847, 43.574085 ], [ 3.861868, 43.574164 ], [ 3.861895, 43.574923 ], [ 3.861652, 43.575613 ], [ 3.860969257873093, 43.581615252804433 ], [ 3.861102, 43.581539 ] ] ], [ [ [ 3.861633, 43.562197 ], [ 3.863203, 43.5597 ], [ 3.865423, 43.556866 ], [ 3.863931, 43.554116 ], [ 3.86073, 43.552306 ], [ 3.852005, 43.553382 ], [ 3.851443, 43.553275 ], [ 3.846561, 43.551674 ], [ 3.839431, 43.551284 ], [ 3.838309, 43.554705 ], [ 3.835955507250563, 43.558609321850355 ], [ 3.831394504260346, 43.559259376658744 ], [ 3.826299, 43.556673 ], [ 3.83383, 43.561036 ], [ 3.836151305208826, 43.561207584592111 ], [ 3.84007, 43.56122 ], [ 3.842593855399154, 43.563228337072871 ], [ 3.845113, 43.560156 ], [ 3.845181, 43.55796 ], [ 3.845492, 43.556761 ], [ 3.846448, 43.55329 ], [ 3.855333, 43.554675 ], [ 3.857008, 43.554878 ], [ 3.859625, 43.559088 ], [ 3.861103643944611, 43.56313767090964 ], [ 3.861633, 43.562197 ] ] ], [ [ [ 3.823026, 43.553454 ], [ 3.823025454997565, 43.55345473822593 ], [ 3.823426, 43.553749 ], [ 3.823026, 43.553454 ] ] ] ] } },
{ "type": "Feature", "properties": { "codgeo": "34270", "value": 420, "isochrone_group": 7.0, "nb_agences": 3 }, "geometry": { "type": "MultiPolygon", "coordinates": [ [ [ [ 3.778338, 43.551314 ], [ 3.778356, 43.551338 ], [ 3.780135, 43.55216 ], [ 3.783194, 43.553557 ], [ 3.785205252913662, 43.561204270607597 ], [ 3.788409125363888, 43.562482862300769 ], [ 3.789377, 43.560755 ], [ 3.784889, 43.554128 ], [ 3.784862, 43.554114 ], [ 3.786562, 43.550941 ], [ 3.793169, 43.547497 ], [ 3.795211578730755, 43.54453361118064 ], [ 3.79427, 43.543885 ], [ 3.792099, 43.542383 ], [ 3.789937, 43.540876 ], [ 3.78781, 43.539395 ], [ 3.782266, 43.534387 ], [ 3.78149, 43.533643 ], [ 3.780899, 43.533117 ], [ 3.780898265885108, 43.533117824575996 ], [ 3.780841, 43.533067 ], [ 3.780137, 43.532487 ], [ 3.779348, 43.53189 ], [ 3.777175, 43.53476 ], [ 3.777964, 43.535357 ], [ 3.778506337102334, 43.535807242122701 ], [ 3.779772, 43.536983 ], [ 3.782246, 43.539456 ], [ 3.778427, 43.547003 ], [ 3.778413, 43.547012 ], [ 3.778204, 43.550287 ], [ 3.778338, 43.551314 ] ] ], [ [ [ 3.808692, 43.5862 ], [ 3.808906122658239, 43.586767399774125 ], [ 3.811574, 43.586653 ], [ 3.812795535529688, 43.587759300694692 ], [ 3.812764, 43.587748 ], [ 3.811411, 43.589119 ], [ 3.810103, 43.590173 ], [ 3.810589, 43.590706 ], [ 3.81112, 43.591263 ], [ 3.811465, 43.591576 ], [ 3.811951, 43.591939 ], [ 3.812484, 43.592268 ], [ 3.812789113298756, 43.592411157424536 ], [ 3.812786, 43.592418 ], [ 3.813328, 43.592664 ], [ 3.815846363192151, 43.596615514114021 ], [ 3.818089, 43.600718 ], [ 3.817964, 43.601929 ], [ 3.821545, 43.602299 ], [ 3.82167, 43.601087 ], [ 3.821719854112455, 43.600520987144321 ], [ 3.82172, 43.600521 ], [ 3.827472527022723, 43.594917598758819 ], [ 3.828284, 43.594456 ], [ 3.828316, 43.59446 ], [ 3.828439993011573, 43.594158459911334 ], [ 3.834389, 43.590353 ], [ 3.836693068801788, 43.588625414055258 ], [ 3.83668511994513, 43.588572515361207 ], [ 3.835636, 43.589012 ], [ 3.835138, 43.589172 ], [ 3.834679, 43.589286 ], [ 3.833711, 43.589329 ], [ 3.833179, 43.589341 ], [ 3.832709, 43.58931 ], [ 3.825668106680749, 43.590272940903652 ], [ 3.82329, 43.592222 ], [ 3.822075, 43.594108 ], [ 3.821846, 43.594161 ], [ 3.821097436693025, 43.593854275408439 ], [ 3.820933, 43.593984 ], [ 3.820851, 43.593987 ], [ 3.816853, 43.591434 ], [ 3.816687, 43.590716 ], [ 3.816703711957341, 43.590178147821895 ], [ 3.816682, 43.590177 ], [ 3.809905, 43.584355 ], [ 3.806987394615894, 43.585043032314452 ], [ 3.808692, 43.5862 ] ] ], [ [ [ 3.867531, 43.578351 ], [ 3.868941, 43.581663 ], [ 3.869219592612933, 43.582580202249837 ], [ 3.870453, 43.581263 ], [ 3.871916, 43.580262 ], [ 3.871776106128491, 43.574521560382173 ], [ 3.872181, 43.574649 ], [ 3.873531, 43.575135 ], [ 3.873683, 43.575196 ], [ 3.874535, 43.575594 ], [ 3.875718, 43.576203 ], [ 3.876508, 43.576687 ], [ 3.876508328127114, 43.576686463255342 ], [ 3.876895, 43.576923 ], [ 3.878773, 43.573852 ], [ 3.878385883189769, 43.573615191076165 ], [ 3.878386, 43.573615 ], [ 3.877596, 43.573132 ], [ 3.875913, 43.572167 ], [ 3.874885, 43.571803 ], [ 3.873394, 43.571259 ], [ 3.872708, 43.571041 ], [ 3.871871, 43.570795 ], [ 3.870762, 43.570517 ], [ 3.868345818353343, 43.570133213519014 ], [ 3.868834, 43.565033 ], [ 3.8699, 43.563228 ], [ 3.871855, 43.55722 ], [ 3.871402, 43.554705 ], [ 3.869811, 43.554257 ], [ 3.868153, 43.553634 ], [ 3.866078, 43.553877 ], [ 3.860399, 43.547243 ], [ 3.856885, 43.546457 ], [ 3.849065, 43.542964 ], [ 3.846664, 43.544237 ], [ 3.845877, 43.544637 ], [ 3.845457, 43.546354 ], [ 3.837763, 43.549455 ], [ 3.836304, 43.549064 ], [ 3.832346, 43.548665 ], [ 3.828327, 43.547152 ], [ 3.826994, 43.546556 ], [ 3.82533, 43.549748 ], [ 3.818614, 43.550988 ], [ 3.819203, 43.551248 ], [ 3.820173, 43.551709 ], [ 3.822921, 43.553378 ], [ 3.823025454997565, 43.55345473822593 ], [ 3.823026, 43.553454 ], [ 3.823426, 43.553749 ], [ 3.824474, 43.554704 ], [ 3.824812, 43.555034 ], [ 3.826299, 43.556673 ], [ 3.831394504260346, 43.559259376658744 ], [ 3.835955507250563, 43.558609321850355 ], [ 3.838309, 43.554705 ], [ 3.839431, 43.551284 ], [ 3.846561, 43.551674 ], [ 3.851443, 43.553275 ], [ 3.852005, 43.553382 ], [ 3.86073, 43.552306 ], [ 3.863931, 43.554116 ], [ 3.865423, 43.556866 ], [ 3.863203, 43.5597 ], [ 3.861633, 43.562197 ], [ 3.858884, 43.567082 ], [ 3.859072566894985, 43.56739469756544 ], [ 3.860412, 43.568062 ], [ 3.861285, 43.568254 ], [ 3.862136, 43.568496 ], [ 3.862135284694859, 43.568498509728173 ], [ 3.86229, 43.568543 ], [ 3.862527, 43.568626 ], [ 3.863422, 43.568946 ], [ 3.862306877767447, 43.572056410902164 ], [ 3.865621, 43.573079 ], [ 3.866292, 43.573021 ], [ 3.866397, 43.573022 ], [ 3.866376, 43.576622 ], [ 3.865948216827815, 43.57876567959336 ], [ 3.867531, 43.578351 ] ] ], [ [ [ 3.8052311388948, 43.548700592818413 ], [ 3.805899, 43.548923 ], [ 3.806862, 43.548999 ], [ 3.808627, 43.549077 ], [ 3.8052311388948, 43.548700592818413 ] ] ] ] } },
{ "type": "Feature", "properties": { "codgeo": "34270", "value": 480, "isochrone_group": 8.0, "nb_agences": 3 }, "geometry": { "type": "MultiPolygon", "coordinates": [ [ [ [ 3.757219, 43.52352 ], [ 3.759381, 43.524567 ], [ 3.760879, 43.525312 ], [ 3.763133, 43.526444 ], [ 3.764923, 43.52739 ], [ 3.766978, 43.528536 ], [ 3.768597, 43.529466 ], [ 3.769835, 43.530189 ], [ 3.772306, 43.531695 ], [ 3.774806, 43.53322 ], [ 3.775828, 43.533859 ], [ 3.777206431807523, 43.534783783002659 ], [ 3.777175, 43.53476 ], [ 3.779346541793755, 43.531891925932769 ], [ 3.779251, 43.53182 ], [ 3.777737, 43.530806 ], [ 3.77668, 43.530146 ], [ 3.77418, 43.528621 ], [ 3.771649, 43.527079 ], [ 3.77039, 43.526345 ], [ 3.768731, 43.525391 ], [ 3.766604, 43.524206 ], [ 3.764756, 43.52323 ], [ 3.762839, 43.522263 ], [ 3.762591, 43.522142 ], [ 3.762590710192081, 43.522142594124603 ], [ 3.762482, 43.522088 ], [ 3.76095, 43.521326 ], [ 3.758788, 43.52028 ], [ 3.756627, 43.519233 ], [ 3.755058, 43.522473 ], [ 3.757219, 43.52352 ] ] ], [ [ [ 3.775503, 43.54379 ], [ 3.774671, 43.545386 ], [ 3.773838, 43.546982 ], [ 3.774651697472341, 43.54982307227845 ], [ 3.77585, 43.550191 ], [ 3.775864, 43.550212 ], [ 3.776021976901577, 43.550705423998494 ], [ 3.77746, 43.550456 ], [ 3.777543, 43.550544 ], [ 3.780467, 43.554623 ], [ 3.78075, 43.555016 ], [ 3.781768, 43.559366 ], [ 3.784855289987179, 43.559873626816717 ], [ 3.783194, 43.553557 ], [ 3.780135, 43.55216 ], [ 3.778356, 43.551338 ], [ 3.778338, 43.551314 ], [ 3.778204, 43.550287 ], [ 3.778413, 43.547012 ], [ 3.778427, 43.547003 ], [ 3.782246, 43.539456 ], [ 3.779772, 43.536983 ], [ 3.778506337102334, 43.535807242122701 ], [ 3.777964, 43.535357 ], [ 3.775503, 43.54379 ] ] ], [ [ [ 3.805376, 43.593393 ], [ 3.80498763999192, 43.593509915848408 ], [ 3.808575, 43.597594 ], [ 3.809498, 43.596891 ], [ 3.812269519503056, 43.596356461751242 ], [ 3.815852196130082, 43.599041577914093 ], [ 3.816283152395191, 43.599541610670315 ], [ 3.817139277756397, 43.598980660237117 ], [ 3.815846363192151, 43.596615514114021 ], [ 3.813424794126056, 43.592815877757921 ], [ 3.805376, 43.593393 ] ] ], [ [ [ 3.822475, 43.606022 ], [ 3.822779141979933, 43.606354687436351 ], [ 3.822527, 43.605906 ], [ 3.82167, 43.601087 ], [ 3.821569223376489, 43.602064130141564 ], [ 3.822475, 43.606022 ] ] ], [ [ [ 3.822007958322594, 43.600240506572369 ], [ 3.82172, 43.600521 ], [ 3.821719854112455, 43.600520987144321 ], [ 3.82167, 43.601087 ], [ 3.822007958322594, 43.600240506572369 ] ] ], [ [ [ 3.830153, 43.596022 ], [ 3.830691, 43.595974 ], [ 3.833465767160499, 43.59569043998961 ], [ 3.833543916340066, 43.595720216818549 ], [ 3.833559254597884, 43.595741895951235 ], [ 3.832510650421109, 43.591554542381097 ], [ 3.828439993011573, 43.594158459911334 ], [ 3.828316, 43.59446 ], [ 3.828284, 43.594456 ], [ 3.827472527022723, 43.594917598758819 ], [ 3.825172745988116, 43.597157761360897 ], [ 3.830153, 43.596022 ] ] ], [ [ [ 3.874491, 43.578162 ], [ 3.878679532852741, 43.580121439858388 ], [ 3.88142, 43.580263 ], [ 3.882706298377254, 43.581215113014551 ], [ 3.887154, 43.580275 ], [ 3.887849858120322, 43.58059795981908 ], [ 3.88713, 43.580048 ], [ 3.885646, 43.578913 ], [ 3.883562, 43.57737 ], [ 3.877451, 43.57194 ], [ 3.877067, 43.571657 ], [ 3.876699, 43.571479 ], [ 3.87627, 43.571353 ], [ 3.875903, 43.571305 ], [ 3.875150210108367, 43.571209781040487 ], [ 3.874417, 43.56831 ], [ 3.873291, 43.564245 ], [ 3.876984, 43.558197 ], [ 3.877025, 43.558147 ], [ 3.876254, 43.555368 ], [ 3.872409, 43.55289 ], [ 3.868981, 43.552254 ], [ 3.866168, 43.55134 ], [ 3.861825, 43.543949 ], [ 3.860367, 43.540657 ], [ 3.858318, 43.541565 ], [ 3.857152, 43.541888 ], [ 3.848649, 43.539906 ], [ 3.841678, 43.541931 ], [ 3.8382, 43.541785 ], [ 3.833432, 43.548133 ], [ 3.828327, 43.547152 ], [ 3.832346, 43.548665 ], [ 3.836304, 43.549064 ], [ 3.837763, 43.549455 ], [ 3.845457, 43.546354 ], [ 3.845877, 43.544637 ], [ 3.846664, 43.544237 ], [ 3.849065, 43.542964 ], [ 3.856885, 43.546457 ], [ 3.860399, 43.547243 ], [ 3.866078, 43.553877 ], [ 3.868153, 43.553634 ], [ 3.869811, 43.554257 ], [ 3.871402, 43.554705 ], [ 3.871855, 43.55722 ], [ 3.8699, 43.563228 ], [ 3.868834, 43.565033 ], [ 3.868345818353343, 43.570133213519014 ], [ 3.870762, 43.570517 ], [ 3.871871, 43.570795 ], [ 3.872708, 43.571041 ], [ 3.873394, 43.571259 ], [ 3.874885, 43.571803 ], [ 3.875913, 43.572167 ], [ 3.877596, 43.573132 ], [ 3.878386, 43.573615 ], [ 3.878385883189769, 43.573615191076165 ], [ 3.878773, 43.573852 ], [ 3.876895, 43.576923 ], [ 3.876508328127114, 43.576686463255342 ], [ 3.876508, 43.576687 ], [ 3.875718, 43.576203 ], [ 3.874535, 43.575594 ], [ 3.873683, 43.575196 ], [ 3.873531, 43.575135 ], [ 3.872181, 43.574649 ], [ 3.871776106128491, 43.574521560382173 ], [ 3.871806793681635, 43.575780801004626 ], [ 3.874491, 43.578162 ] ] ], [ [ [ 3.824657, 43.540126 ], [ 3.824574, 43.536902 ], [ 3.824481, 43.534095 ], [ 3.824365, 43.53155 ], [ 3.820769, 43.531714 ], [ 3.820885, 43.534259 ], [ 3.820976, 43.537021 ], [ 3.819249, 43.544067 ], [ 3.818226, 43.546514 ], [ 3.813269925217345, 43.548451718819038 ], [ 3.80966, 43.546638 ], [ 3.808958, 43.546189 ], [ 3.808012, 43.545886 ], [ 3.807866, 43.545916 ], [ 3.807504, 43.546021 ], [ 3.804338, 43.546834 ], [ 3.797545, 43.546141 ], [ 3.8052311388948, 43.548700592818413 ], [ 3.808627, 43.549077 ], [ 3.810456, 43.549159 ], [ 3.811287, 43.549227 ], [ 3.812927, 43.549416 ], [ 3.813645, 43.549532 ], [ 3.815064, 43.549819 ], [ 3.816161, 43.550096 ], [ 3.817287, 43.55047 ], [ 3.817966, 43.550721 ], [ 3.818614, 43.550988 ], [ 3.82533, 43.549748 ], [ 3.826994, 43.546556 ], [ 3.828327, 43.547152 ], [ 3.824657, 43.540126 ] ] ] ] } },
{ "type": "Feature", "properties": { "codgeo": "34270", "value": 540, "isochrone_group": 9.0, "nb_agences": 3 }, "geometry": { "type": "MultiPolygon", "coordinates": [ [ [ [ 3.751279, 43.520377 ], [ 3.752198, 43.520953 ], [ 3.75351, 43.521697 ], [ 3.754534, 43.522219 ], [ 3.755058106472664, 43.522472780132929 ], [ 3.756627, 43.519233 ], [ 3.758788, 43.52028 ], [ 3.76095, 43.521326 ], [ 3.758542, 43.52016 ], [ 3.756165, 43.519009 ], [ 3.755283, 43.518563 ], [ 3.748734, 43.513445 ], [ 3.748723188113636, 43.513433378886688 ], [ 3.746208, 43.515773 ], [ 3.742528, 43.512115 ], [ 3.74238452060313, 43.512013048587768 ], [ 3.742301, 43.512112 ], [ 3.746096, 43.515895 ], [ 3.74786, 43.517684 ], [ 3.748644, 43.518398 ], [ 3.749345, 43.518975 ], [ 3.750307, 43.519705 ], [ 3.751279, 43.520377 ] ] ], [ [ [ 3.77131, 43.541199 ], [ 3.769353, 43.54053 ], [ 3.769331314688213, 43.540593344915891 ], [ 3.773264, 43.54801 ], [ 3.774166873286949, 43.548130280301258 ], [ 3.773838, 43.546982 ], [ 3.774671, 43.545386 ], [ 3.775503, 43.54379 ], [ 3.777964, 43.535357 ], [ 3.777247, 43.534811 ], [ 3.775828, 43.533859 ], [ 3.774806, 43.53322 ], [ 3.77131, 43.541199 ] ] ], [ [ [ 3.885448251714738, 43.578657703187559 ], [ 3.880892, 43.572435 ], [ 3.880649, 43.570157 ], [ 3.880657, 43.569328 ], [ 3.877784, 43.567977 ], [ 3.875826, 43.563634 ], [ 3.878608, 43.558762 ], [ 3.878846, 43.557611 ], [ 3.879312, 43.555284 ], [ 3.879252, 43.554992 ], [ 3.879155, 43.554886 ], [ 3.878125, 43.554054 ], [ 3.874086, 43.552258 ], [ 3.87018, 43.55015 ], [ 3.868777, 43.550164 ], [ 3.865478, 43.542089 ], [ 3.866215, 43.54144 ], [ 3.86671, 43.540701 ], [ 3.866814840567247, 43.539992152582649 ], [ 3.864949, 43.539791 ], [ 3.863954, 43.539669 ], [ 3.863365, 43.53961 ], [ 3.862945, 43.538697 ], [ 3.862921, 43.538597 ], [ 3.862954, 43.53762 ], [ 3.863620532483213, 43.536234726222865 ], [ 3.856573, 43.536459 ], [ 3.855092, 43.536608 ], [ 3.85339, 43.537426 ], [ 3.850822, 43.538766 ], [ 3.84864909690591, 43.539906022588198 ], [ 3.857152, 43.541888 ], [ 3.858318, 43.541565 ], [ 3.860367, 43.540657 ], [ 3.861825, 43.543949 ], [ 3.866168, 43.55134 ], [ 3.868981, 43.552254 ], [ 3.872409, 43.55289 ], [ 3.876254, 43.555368 ], [ 3.877025, 43.558147 ], [ 3.876984, 43.558197 ], [ 3.873291, 43.564245 ], [ 3.874417, 43.56831 ], [ 3.875150210108367, 43.571209781040487 ], [ 3.875903, 43.571305 ], [ 3.87627, 43.571353 ], [ 3.876699, 43.571479 ], [ 3.877067, 43.571657 ], [ 3.877451, 43.57194 ], [ 3.883562, 43.57737 ], [ 3.885305735325299, 43.578661066989895 ], [ 3.885448251714738, 43.578657703187559 ] ] ], [ [ [ 3.838025, 43.541781 ], [ 3.837441, 43.541793 ], [ 3.836963, 43.54183 ], [ 3.836548, 43.541876 ], [ 3.835079, 43.542097 ], [ 3.832773, 43.542505 ], [ 3.830566, 43.542898 ], [ 3.824574, 43.536902 ], [ 3.824657, 43.540126 ], [ 3.828327, 43.547152 ], [ 3.833432, 43.548133 ], [ 3.838197678674976, 43.541788090556039 ], [ 3.838025, 43.541781 ] ] ], [ [ [ 3.824319, 43.530725 ], [ 3.824166, 43.529685 ], [ 3.823982, 43.528906 ], [ 3.82352, 43.527831 ], [ 3.823141, 43.527208 ], [ 3.822383, 43.52628 ], [ 3.82184, 43.525759 ], [ 3.821337, 43.525349 ], [ 3.820901, 43.525029 ], [ 3.818636, 43.523542 ], [ 3.816581, 43.522202 ], [ 3.815141, 43.521259 ], [ 3.814231, 43.52069 ], [ 3.813623, 43.520357 ], [ 3.812469, 43.51978 ], [ 3.810861, 43.523002 ], [ 3.812015, 43.523578 ], [ 3.813222, 43.524305 ], [ 3.814609, 43.525214 ], [ 3.816116, 43.526269 ], [ 3.816385, 43.526435 ], [ 3.816896, 43.526683 ], [ 3.820885, 43.534259 ], [ 3.820769, 43.531714 ], [ 3.82435867262551, 43.531550288567693 ], [ 3.824319, 43.530725 ] ] ], [ [ [ 3.815899, 43.545237 ], [ 3.815714832586996, 43.545289027501283 ], [ 3.808402, 43.544671 ], [ 3.806064, 43.544859 ], [ 3.801152, 43.544868 ], [ 3.795822, 43.54448 ], [ 3.792099, 43.542383 ], [ 3.79427, 43.543885 ], [ 3.797545, 43.546141 ], [ 3.804338, 43.546834 ], [ 3.807504, 43.546021 ], [ 3.807866, 43.545916 ], [ 3.808012, 43.545886 ], [ 3.808958, 43.546189 ], [ 3.80966, 43.546638 ], [ 3.813269925217345, 43.548451718819038 ], [ 3.818226, 43.546514 ], [ 3.819249, 43.544067 ], [ 3.819920626677442, 43.541326825379713 ], [ 3.815899, 43.545237 ] ] ], [ [ [ 3.768766, 43.525411 ], [ 3.768765945350598, 43.5254110951564 ], [ 3.768731, 43.525391 ], [ 3.77039, 43.526345 ], [ 3.768766, 43.525411 ] ] ], [ [ [ 3.803942225171461, 43.599611977999459 ], [ 3.803985, 43.598921 ], [ 3.804232, 43.597977 ], [ 3.805342, 43.598323 ], [ 3.807714, 43.598888 ], [ 3.808319, 43.599552 ], [ 3.809835, 43.602146 ], [ 3.816667126793523, 43.599987130998613 ], [ 3.815852196130082, 43.599041577914093 ], [ 3.812503657285581, 43.596531941485971 ], [ 3.809459940875256, 43.596919987610718 ], [ 3.808575, 43.597594 ], [ 3.805361878775212, 43.593935973640299 ], [ 3.803656, 43.592691 ], [ 3.799930380977685, 43.594434398645049 ], [ 3.802231717586547, 43.596727877883104 ], [ 3.803926, 43.599407 ], [ 3.803942225171461, 43.599611977999459 ] ] ], [ [ [ 3.829321, 43.609279 ], [ 3.83035, 43.609194 ], [ 3.831278122817304, 43.612525747775265 ], [ 3.832049136926069, 43.612307493159619 ], [ 3.831781, 43.610753 ], [ 3.831415, 43.60899 ], [ 3.83408, 43.601084 ], [ 3.832146, 43.599651 ], [ 3.831906, 43.599536 ], [ 3.831745, 43.598894 ], [ 3.831717, 43.597506 ], [ 3.832008, 43.597192 ], [ 3.832743, 43.596539 ], [ 3.832656477149456, 43.595773143247463 ], [ 3.830691, 43.595974 ], [ 3.830153, 43.596022 ], [ 3.823045, 43.597643 ], [ 3.82167, 43.601087 ], [ 3.822527, 43.605906 ], [ 3.822634949397429, 43.606098096287958 ], [ 3.829321, 43.609279 ] ] ], [ [ [ 3.804037, 43.600371 ], [ 3.803972238870999, 43.599991151070284 ], [ 3.803986, 43.600165 ], [ 3.804080336070432, 43.600743036076352 ], [ 3.804037, 43.600371 ] ] ] ] } },
{ "type": "Feature", "properties": { "codgeo": "34270", "value": 600, "isochrone_group": 10.0, "nb_agences": 3 }, "geometry": { "type": "MultiPolygon", "coordinates": [ [ [ [ 3.734952, 43.507424 ], [ 3.737024, 43.50863 ], [ 3.739097, 43.509837 ], [ 3.740324, 43.510644 ], [ 3.746096, 43.515895 ], [ 3.742301, 43.512112 ], [ 3.742390119028234, 43.512006415828303 ], [ 3.741342, 43.511181 ], [ 3.74039, 43.510504 ], [ 3.739111, 43.509687 ], [ 3.736917, 43.508395 ], [ 3.73455, 43.507029 ], [ 3.732169, 43.505654 ], [ 3.730913, 43.504914 ], [ 3.730018, 43.504381 ], [ 3.729912381457287, 43.504313404132652 ], [ 3.729912, 43.504314 ], [ 3.728068, 43.503133 ], [ 3.727908469636521, 43.503190132774392 ], [ 3.727917, 43.503196 ], [ 3.729862, 43.504446 ], [ 3.730792, 43.505001 ], [ 3.73288, 43.506217 ], [ 3.734952, 43.507424 ] ] ], [ [ [ 3.747938427725823, 43.517755425250307 ], [ 3.747937, 43.517757 ], [ 3.748644, 43.518398 ], [ 3.74786, 43.517684 ], [ 3.747938427725823, 43.517755425250307 ] ] ], [ [ [ 3.888764044990593, 43.574614700551912 ], [ 3.886581, 43.573477 ], [ 3.887325, 43.569955 ], [ 3.887325201054958, 43.569954754811043 ], [ 3.88644, 43.569768 ], [ 3.881644, 43.565285 ], [ 3.880925, 43.55922 ], [ 3.879989, 43.556243 ], [ 3.879299234822689, 43.555347743707301 ], [ 3.878846, 43.557611 ], [ 3.878608, 43.558762 ], [ 3.875826, 43.563634 ], [ 3.877784, 43.567977 ], [ 3.880657, 43.569328 ], [ 3.880649, 43.570157 ], [ 3.880892, 43.572435 ], [ 3.885259791331631, 43.578400313319733 ], [ 3.888764044990593, 43.574614700551912 ] ] ], [ [ [ 3.866215, 43.54144 ], [ 3.865499188034259, 43.542070341880269 ], [ 3.865478070571537, 43.542089172738756 ], [ 3.866039785354238, 43.543464088431485 ], [ 3.866215, 43.54144 ] ] ], [ [ [ 3.866442561536967, 43.541386258763595 ], [ 3.866296, 43.541358 ], [ 3.866230602338789, 43.54141670681139 ], [ 3.866215, 43.54144 ], [ 3.866442561536967, 43.541386258763595 ] ] ], [ [ [ 3.859024, 43.535946 ], [ 3.862104399134254, 43.534595315779676 ], [ 3.860226, 43.533662 ], [ 3.860104, 43.533589 ], [ 3.853499, 43.53257 ], [ 3.851248, 43.531614 ], [ 3.851052, 43.531776 ], [ 3.851042, 43.534046 ], [ 3.846287348877042, 43.540702326133321 ], [ 3.848003, 43.540245 ], [ 3.850822, 43.538766 ], [ 3.85339, 43.537426 ], [ 3.855092, 43.536608 ], [ 3.855195334027267, 43.536597603801468 ], [ 3.859024, 43.535946 ] ] ], [ [ [ 3.829565047073511, 43.541896378880644 ], [ 3.830566, 43.542898 ], [ 3.832773, 43.542505 ], [ 3.829565047073511, 43.541896378880644 ] ] ], [ [ [ 3.821078, 43.524989 ], [ 3.820562, 43.524613 ], [ 3.817591, 43.52267 ], [ 3.814694, 43.520777 ], [ 3.80861, 43.514943 ], [ 3.807433, 43.513158 ], [ 3.807304, 43.513017 ], [ 3.804677, 43.513281 ], [ 3.804621, 43.513362 ], [ 3.804468, 43.515598 ], [ 3.804473, 43.515618 ], [ 3.804625, 43.515818 ], [ 3.806833, 43.519133 ], [ 3.807124, 43.519652 ], [ 3.807489, 43.520196 ], [ 3.807779, 43.520528 ], [ 3.808757, 43.521389 ], [ 3.811773, 43.529163 ], [ 3.812339, 43.529147 ], [ 3.813206, 43.529011 ], [ 3.813753, 43.528857 ], [ 3.820885, 43.534259 ], [ 3.816896, 43.526683 ], [ 3.816385, 43.526435 ], [ 3.816116, 43.526269 ], [ 3.814609, 43.525214 ], [ 3.813222, 43.524305 ], [ 3.812015, 43.523578 ], [ 3.810861, 43.523002 ], [ 3.812469, 43.51978 ], [ 3.813623, 43.520357 ], [ 3.814231, 43.52069 ], [ 3.815141, 43.521259 ], [ 3.816581, 43.522202 ], [ 3.818636, 43.523542 ], [ 3.820901, 43.525029 ], [ 3.821337, 43.525349 ], [ 3.82184, 43.525759 ], [ 3.821078, 43.524989 ] ] ], [ [ [ 3.821010688816084, 43.538357982200658 ], [ 3.82101, 43.538358 ], [ 3.815880248218958, 43.545071420733329 ], [ 3.815455539864719, 43.545203829181879 ], [ 3.814768301412558, 43.545152423745677 ], [ 3.812104, 43.544405 ], [ 3.810086, 43.542778 ], [ 3.809849, 43.542769 ], [ 3.809115, 43.542721 ], [ 3.805394, 43.543737 ], [ 3.798414, 43.540211 ], [ 3.797207, 43.540549 ], [ 3.796491, 43.540697 ], [ 3.78781, 43.539395 ], [ 3.789937, 43.540876 ], [ 3.792099, 43.542383 ], [ 3.795822, 43.54448 ], [ 3.801152, 43.544868 ], [ 3.806064, 43.544859 ], [ 3.808402, 43.544671 ], [ 3.815714832586996, 43.545289027501283 ], [ 3.815899, 43.545237 ], [ 3.821059, 43.54022 ], [ 3.820976, 43.537021 ], [ 3.821010688816084, 43.538357982200658 ] ] ], [ [ [ 3.772141481666602, 43.539301290555542 ], [ 3.774806, 43.53322 ], [ 3.772306, 43.531695 ], [ 3.772141481666602, 43.539301290555542 ] ] ] ] } },
{ "type": "Feature", "properties": { "codgeo": "34270", "value": 660, "isochrone_group": 11.0, "nb_agences": 3 }, "geometry": { "type": "MultiPolygon", "coordinates": [ [ [ [ 3.753103473152174, 43.521466469531418 ], [ 3.753103473152176, 43.521466469531418 ], [ 3.752198, 43.520953 ], [ 3.753103473152174, 43.521466469531418 ] ] ], [ [ [ 3.874213, 43.552202 ], [ 3.871616, 43.550839 ], [ 3.868509545974634, 43.550356788999331 ], [ 3.866122631985173, 43.549058584915208 ], [ 3.866215, 43.54144 ], [ 3.865581, 43.548764 ], [ 3.872816, 43.552699 ], [ 3.874086, 43.552258 ], [ 3.878982, 43.554936 ], [ 3.874637780100877, 43.552559811092749 ], [ 3.874213, 43.552202 ] ] ], [ [ [ 3.870979733335348, 43.540976931287119 ], [ 3.869679805087999, 43.540621747004245 ], [ 3.866215, 43.54144 ], [ 3.870979733335348, 43.540976931287119 ] ] ], [ [ [ 3.850254, 43.532788 ], [ 3.850337, 43.53262 ], [ 3.851048332480637, 43.532608526895473 ], [ 3.851052, 43.531776 ], [ 3.851248, 43.531614 ], [ 3.853397938583345, 43.532527079202879 ], [ 3.86077, 43.531662 ], [ 3.862389318974849, 43.531103090608745 ], [ 3.862178, 43.531034 ], [ 3.862071, 43.531002 ], [ 3.861971, 43.530975 ], [ 3.853691, 43.529821 ], [ 3.850218, 43.528959 ], [ 3.847819, 43.530218 ], [ 3.847361, 43.530684 ], [ 3.846783, 43.531504 ], [ 3.846752, 43.53271 ], [ 3.846895, 43.533151 ], [ 3.844567578978118, 43.541160750172779 ], [ 3.841678, 43.541931 ], [ 3.844589931024097, 43.541629142469894 ], [ 3.845914, 43.541225 ], [ 3.848177159767603, 43.538056664592105 ], [ 3.850254, 43.532788 ] ] ], [ [ [ 3.829433, 43.539344 ], [ 3.824709, 43.534154 ], [ 3.825562, 43.529079 ], [ 3.82556, 43.528906 ], [ 3.82547, 43.528502 ], [ 3.825374, 43.528097 ], [ 3.82398, 43.526844 ], [ 3.820562, 43.524613 ], [ 3.821078, 43.524989 ], [ 3.82184, 43.525759 ], [ 3.822383, 43.52628 ], [ 3.823141, 43.527208 ], [ 3.82352, 43.527831 ], [ 3.823982, 43.528906 ], [ 3.824166, 43.529685 ], [ 3.824319, 43.530725 ], [ 3.824481, 43.534095 ], [ 3.824574, 43.536902 ], [ 3.827402, 43.541486 ], [ 3.832773, 43.542505 ], [ 3.835079, 43.542097 ], [ 3.836548, 43.541876 ], [ 3.836963, 43.54183 ], [ 3.829433, 43.539344 ] ] ], [ [ [ 3.811234, 43.5125 ], [ 3.806134, 43.510616 ], [ 3.798653, 43.507221 ], [ 3.79666, 43.505971 ], [ 3.794666, 43.504721 ], [ 3.792754, 43.50777 ], [ 3.794747, 43.509021 ], [ 3.796741, 43.510271 ], [ 3.799095, 43.511747 ], [ 3.80091, 43.513171 ], [ 3.80387, 43.516495 ], [ 3.807489, 43.520196 ], [ 3.807124, 43.519652 ], [ 3.806833, 43.519133 ], [ 3.804625, 43.515818 ], [ 3.804473, 43.515618 ], [ 3.804468, 43.515598 ], [ 3.804621, 43.513362 ], [ 3.804677, 43.513281 ], [ 3.807304, 43.513017 ], [ 3.807433, 43.513158 ], [ 3.80861, 43.514943 ], [ 3.814694, 43.520777 ], [ 3.811234, 43.5125 ] ] ], [ [ [ 3.812821, 43.541178 ], [ 3.812636, 43.54114 ], [ 3.812441, 43.541109 ], [ 3.811073, 43.541093 ], [ 3.803961, 43.538636 ], [ 3.801973, 43.538317 ], [ 3.801198, 43.538335 ], [ 3.793208755293812, 43.540204720008354 ], [ 3.796491, 43.540697 ], [ 3.797207, 43.540549 ], [ 3.798414, 43.540211 ], [ 3.805394, 43.543737 ], [ 3.809115, 43.542721 ], [ 3.809849, 43.542769 ], [ 3.810086, 43.542778 ], [ 3.812104, 43.544405 ], [ 3.814768301412558, 43.545152423745677 ], [ 3.815455539864719, 43.545203829181879 ], [ 3.815880248218958, 43.545071420733329 ], [ 3.819443706686644, 43.540407843043724 ], [ 3.812821, 43.541178 ] ] ], [ [ [ 3.784791, 43.53691 ], [ 3.78781, 43.539395 ], [ 3.792602709561384, 43.540113823620423 ], [ 3.784791, 43.53691 ] ] ], [ [ [ 3.766898, 43.528571 ], [ 3.767649, 43.537242 ], [ 3.771943, 43.539247 ], [ 3.772142318739696, 43.539262589572864 ], [ 3.772306, 43.531695 ], [ 3.769835, 43.530189 ], [ 3.768597, 43.529466 ], [ 3.766978, 43.528536 ], [ 3.766908281133853, 43.528497120281948 ], [ 3.766898, 43.528571 ] ] ], [ [ [ 3.881711, 43.56531 ], [ 3.882404995632961, 43.565655008772197 ], [ 3.882405, 43.565655 ], [ 3.88363, 43.566264 ], [ 3.88694949749018, 43.564365688158489 ], [ 3.885833, 43.563137 ], [ 3.883882, 43.557882 ], [ 3.882343, 43.554628 ], [ 3.878982, 43.554936 ], [ 3.879989, 43.556243 ], [ 3.880925, 43.55922 ], [ 3.881642344251956, 43.565271033224079 ], [ 3.881711, 43.56531 ] ] ], [ [ [ 3.868419, 43.534601 ], [ 3.872098772498433, 43.535778415153644 ], [ 3.867946019057952, 43.533667080650872 ], [ 3.868419, 43.534601 ] ] ], [ [ [ 3.727433, 43.498256 ], [ 3.728187738386211, 43.498820002870119 ], [ 3.725978196226074, 43.497058893098433 ], [ 3.72624, 43.497292 ], [ 3.727433, 43.498256 ] ] ] ] } },
{ "type": "Feature", "properties": { "codgeo": "34270", "value": 720, "isochrone_group": 12.0, "nb_agences": 3 }, "geometry": { "type": "MultiPolygon", "coordinates": [ [ [ [ 3.870979733335348, 43.540976931287119 ], [ 3.870979733335338, 43.540976931287119 ], [ 3.866215, 43.54144 ], [ 3.870979733335348, 43.540976931287119 ] ] ], [ [ [ 3.887125039170578, 43.559940868778313 ], [ 3.888131380007017, 43.558263094747154 ], [ 3.88912640109413, 43.556257645794808 ], [ 3.887900184158843, 43.558175973643678 ], [ 3.887536983535093, 43.558083246027138 ], [ 3.886301, 43.556692 ], [ 3.884734, 43.553451 ], [ 3.883317, 43.554136 ], [ 3.878982, 43.554936 ], [ 3.882343, 43.554628 ], [ 3.883882, 43.557882 ], [ 3.88499200042908, 43.560871775630339 ], [ 3.887125039170578, 43.559940868778313 ] ] ], [ [ [ 3.891225, 43.541418 ], [ 3.888906056470518, 43.541311737300347 ], [ 3.888976, 43.541315 ], [ 3.891225, 43.541418 ] ] ], [ [ [ 3.877803897446889, 43.537191344627196 ], [ 3.87972260027687, 43.537277190134425 ], [ 3.882731, 43.537019 ], [ 3.885566, 43.536295 ], [ 3.88739, 43.536534 ], [ 3.891389, 43.537822 ], [ 3.893638, 43.537925 ], [ 3.893729106648049, 43.537921132264948 ], [ 3.887376, 43.536509 ], [ 3.880485, 43.535217 ], [ 3.880097, 43.535396 ], [ 3.879911, 43.535508 ], [ 3.875766533662475, 43.536705151806196 ], [ 3.876301, 43.537123 ], [ 3.87716, 43.53714 ], [ 3.877803897446889, 43.537191344627196 ] ] ], [ [ [ 3.841678, 43.541931 ], [ 3.844567578978118, 43.541160750172779 ], [ 3.846895, 43.533151 ], [ 3.846752, 43.53271 ], [ 3.846783, 43.531504 ], [ 3.847361, 43.530684 ], [ 3.847819, 43.530218 ], [ 3.850218, 43.528959 ], [ 3.853195220903182, 43.529697947428311 ], [ 3.860318438093749, 43.529747105872872 ], [ 3.860575618310916, 43.529657511420005 ], [ 3.861147640920837, 43.529251915128008 ], [ 3.861017, 43.529249 ], [ 3.85481, 43.528756 ], [ 3.849508, 43.527288 ], [ 3.846403, 43.527445 ], [ 3.84622, 43.527453 ], [ 3.841762, 43.530339 ], [ 3.842465, 43.533869 ], [ 3.841678, 43.541931 ] ] ], [ [ [ 3.82505, 43.527511 ], [ 3.824166, 43.526511 ], [ 3.820562, 43.524613 ], [ 3.82398, 43.526844 ], [ 3.825374, 43.528097 ], [ 3.82505, 43.527511 ] ] ], [ [ [ 3.81671, 43.514867 ], [ 3.81409, 43.512772 ], [ 3.81161, 43.510836 ], [ 3.810996, 43.510412 ], [ 3.803528, 43.506676 ], [ 3.803401, 43.506656 ], [ 3.796299609521689, 43.505745078185612 ], [ 3.79666, 43.505971 ], [ 3.798653, 43.507221 ], [ 3.806134, 43.510616 ], [ 3.811234, 43.5125 ], [ 3.814694, 43.520777 ], [ 3.817591, 43.52267 ], [ 3.818587019773814, 43.523321385533656 ], [ 3.81671, 43.514867 ] ] ], [ [ [ 3.793942, 43.504266 ], [ 3.791171, 43.501831 ], [ 3.790591, 43.501285 ], [ 3.787818, 43.498876 ], [ 3.787652, 43.498792 ], [ 3.78269, 43.497093 ], [ 3.780932, 43.500234 ], [ 3.784216, 43.503634 ], [ 3.786081, 43.504793 ], [ 3.791445, 43.506946 ], [ 3.792036, 43.50732 ], [ 3.796898, 43.514128 ], [ 3.800186, 43.518572 ], [ 3.800497, 43.519192 ], [ 3.805883, 43.519806 ], [ 3.809724, 43.522353 ], [ 3.808757, 43.521389 ], [ 3.807779, 43.520528 ], [ 3.807489, 43.520196 ], [ 3.80387, 43.516495 ], [ 3.80091, 43.513171 ], [ 3.799095, 43.511747 ], [ 3.796741, 43.510271 ], [ 3.794747, 43.509021 ], [ 3.792754, 43.50777 ], [ 3.794666, 43.504721 ], [ 3.795802358143731, 43.505433360922595 ], [ 3.793942, 43.504266 ] ] ], [ [ [ 3.812831, 43.525343 ], [ 3.814917, 43.528277 ], [ 3.820885, 43.534259 ], [ 3.819389, 43.531009 ], [ 3.815845, 43.526728 ], [ 3.815772, 43.526652 ], [ 3.813222, 43.524305 ], [ 3.812496, 43.523844 ], [ 3.812015, 43.523578 ], [ 3.810411, 43.522771 ], [ 3.809724, 43.522353 ], [ 3.812831, 43.525343 ] ] ], [ [ [ 3.816113056001917, 43.540214863092373 ], [ 3.813118056050333, 43.541091092108523 ], [ 3.812441, 43.541109 ], [ 3.812636, 43.54114 ], [ 3.812821, 43.541178 ], [ 3.821059, 43.54022 ], [ 3.820976, 43.537021 ], [ 3.816113056001917, 43.540214863092373 ] ] ], [ [ [ 3.807486, 43.538987 ], [ 3.804304, 43.538717 ], [ 3.804088341416928, 43.538679992950136 ], [ 3.811073, 43.541093 ], [ 3.812441, 43.541109 ], [ 3.807486, 43.538987 ] ] ], [ [ [ 3.79443, 43.538472 ], [ 3.787878110352093, 43.538176119405385 ], [ 3.792964, 43.540262 ], [ 3.801198, 43.538335 ], [ 3.79443, 43.538472 ] ] ], [ [ [ 3.831687, 43.539067 ], [ 3.829113, 43.537517 ], [ 3.825692, 43.530803 ], [ 3.825643, 43.530307 ], [ 3.82556, 43.528906 ], [ 3.825562, 43.529079 ], [ 3.824709, 43.534154 ], [ 3.829433, 43.539344 ], [ 3.836963, 43.54183 ], [ 3.837441, 43.541793 ], [ 3.831687, 43.539067 ] ] ] ] } },
{ "type": "Feature", "properties": { "codgeo": "34270", "value": 780, "isochrone_group": 13.0, "nb_agences": 3 }, "geometry": { "type": "MultiPolygon", "coordinates": [ [ [ [ 3.89997, 43.541276 ], [ 3.899627545961349, 43.542324846875033 ], [ 3.902347972961415, 43.539431389182383 ], [ 3.89997, 43.541276 ] ] ], [ [ [ 3.893567022856147, 43.537824974477552 ], [ 3.886942, 43.535135 ], [ 3.886293, 43.534615 ], [ 3.886132, 43.534539 ], [ 3.883210065511717, 43.535727925067647 ], [ 3.887376, 43.536509 ], [ 3.893453575998966, 43.537859888885741 ], [ 3.893567022856147, 43.537824974477552 ] ] ], [ [ [ 3.840554, 43.528331 ], [ 3.842002507838612, 43.530183301116594 ], [ 3.84622, 43.527453 ], [ 3.846403, 43.527445 ], [ 3.849508, 43.527288 ], [ 3.853300368773297, 43.528338018362746 ], [ 3.853609, 43.528374 ], [ 3.854095, 43.528489 ], [ 3.85446, 43.528625 ], [ 3.855160556118308, 43.528596046798491 ], [ 3.859799947133445, 43.526479166198676 ], [ 3.854929, 43.525284 ], [ 3.854742, 43.525256 ], [ 3.850098, 43.525492 ], [ 3.842543, 43.52533 ], [ 3.840054, 43.52587 ], [ 3.840052, 43.525872 ], [ 3.840516, 43.528305 ], [ 3.840554, 43.528331 ] ] ], [ [ [ 3.824184, 43.525185 ], [ 3.823789, 43.523975 ], [ 3.821418, 43.518619 ], [ 3.820526, 43.514202 ], [ 3.820144, 43.513954 ], [ 3.817357, 43.512123 ], [ 3.814396, 43.510299 ], [ 3.811734, 43.508816 ], [ 3.80987, 43.507826 ], [ 3.807339, 43.506469 ], [ 3.807202, 43.506401 ], [ 3.803931, 43.505221 ], [ 3.802967, 43.505085 ], [ 3.800728, 43.505222 ], [ 3.797352, 43.504678 ], [ 3.794517, 43.497293 ], [ 3.79457, 43.496435 ], [ 3.794365, 43.495381 ], [ 3.793752, 43.494753 ], [ 3.79284, 43.494107 ], [ 3.792773, 43.494142 ], [ 3.790977, 43.494994 ], [ 3.790474, 43.495183 ], [ 3.789969, 43.495397 ], [ 3.788979, 43.495948 ], [ 3.780465, 43.495788 ], [ 3.776332, 43.491283 ], [ 3.775735, 43.490299 ], [ 3.775721, 43.490276 ], [ 3.775042, 43.489274 ], [ 3.774295, 43.488147 ], [ 3.773651, 43.48849 ], [ 3.771295, 43.490138 ], [ 3.771753, 43.49155 ], [ 3.773279, 43.493221 ], [ 3.773518, 43.493529 ], [ 3.775282, 43.496259 ], [ 3.775888, 43.497059 ], [ 3.776665, 43.497777 ], [ 3.77594237633529, 43.506017879463968 ], [ 3.780835, 43.501855 ], [ 3.781703554136951, 43.501032807571768 ], [ 3.780932, 43.500234 ], [ 3.78269, 43.497093 ], [ 3.787652, 43.498792 ], [ 3.787818, 43.498876 ], [ 3.790591, 43.501285 ], [ 3.791171, 43.501831 ], [ 3.793942, 43.504266 ], [ 3.796299, 43.505745 ], [ 3.803401, 43.506656 ], [ 3.803528, 43.506676 ], [ 3.810996, 43.510412 ], [ 3.81161, 43.510836 ], [ 3.81409, 43.512772 ], [ 3.81671, 43.514867 ], [ 3.818603428035174, 43.523395290864556 ], [ 3.81943316869057, 43.523985285393337 ], [ 3.820562, 43.524613 ], [ 3.824166, 43.526511 ], [ 3.82505, 43.527511 ], [ 3.824184, 43.525185 ] ] ], [ [ [ 3.786363, 43.504968 ], [ 3.785024492374246, 43.506271922433235 ], [ 3.791926, 43.510159 ], [ 3.79214, 43.513475 ], [ 3.79283, 43.514074 ], [ 3.796185, 43.517544 ], [ 3.800927, 43.523265 ], [ 3.801014, 43.523465 ], [ 3.801769, 43.524162 ], [ 3.804313, 43.522845 ], [ 3.81088520465171, 43.523470477279893 ], [ 3.809724, 43.522353 ], [ 3.805883, 43.519806 ], [ 3.800497, 43.519192 ], [ 3.800186, 43.518572 ], [ 3.796898, 43.514128 ], [ 3.792036, 43.50732 ], [ 3.791445, 43.506946 ], [ 3.786393759671421, 43.504918535341638 ], [ 3.786363, 43.504968 ] ] ], [ [ [ 3.808765, 43.537986 ], [ 3.808417, 43.537399 ], [ 3.807841, 43.536188 ], [ 3.805489, 43.534893 ], [ 3.796707, 43.535014 ], [ 3.796537, 43.535177 ], [ 3.791168, 43.537976 ], [ 3.784774, 43.536269 ], [ 3.783187579081539, 43.535078551766937 ], [ 3.785734242477962, 43.537344321435896 ], [ 3.787504019866567, 43.538159225635624 ], [ 3.79443, 43.538472 ], [ 3.801198, 43.538335 ], [ 3.801973, 43.538317 ], [ 3.804304, 43.538717 ], [ 3.807486, 43.538987 ], [ 3.812441, 43.541109 ], [ 3.813118056050333, 43.541091092108523 ], [ 3.813798011917622, 43.540892161534167 ], [ 3.808765, 43.537986 ] ] ], [ [ [ 3.838025, 43.541781 ], [ 3.83189, 43.537592 ], [ 3.831408, 43.537044 ], [ 3.830924, 43.536668 ], [ 3.826319, 43.53162 ], [ 3.82556, 43.528906 ], [ 3.825643, 43.530307 ], [ 3.825692, 43.530803 ], [ 3.829113, 43.537517 ], [ 3.831687, 43.539067 ], [ 3.837441, 43.541793 ], [ 3.838025, 43.541781 ] ] ], [ [ [ 3.773254270188863, 43.508434293572734 ], [ 3.773716, 43.508009 ], [ 3.775334300542518, 43.506539640392369 ], [ 3.775224, 43.50662 ], [ 3.773254, 43.508434 ], [ 3.773254270188863, 43.508434293572734 ] ] ] ] } },
{ "type": "Feature", "properties": { "codgeo": "34270", "value": 840, "isochrone_group": 14.0, "nb_agences": 3 }, "geometry": { "type": "MultiPolygon", "coordinates": [ [ [ [ 3.877013981577726, 43.537109914450738 ], [ 3.87709615493837, 43.53713334215405 ], [ 3.877442, 43.537138 ], [ 3.878305, 43.537155 ], [ 3.878577, 43.537171 ], [ 3.878610463254303, 43.537255660491347 ], [ 3.879317, 43.537312 ], [ 3.87992751843915, 43.537063582152349 ], [ 3.877013981577726, 43.537109914450738 ] ] ], [ [ [ 3.858926634833411, 43.524595366221433 ], [ 3.856078, 43.523802 ], [ 3.855205, 43.524142 ], [ 3.854685, 43.524378 ], [ 3.854223, 43.524689 ], [ 3.854021, 43.524889 ], [ 3.853364713332365, 43.525325991312137 ], [ 3.854742, 43.525256 ], [ 3.854929, 43.525284 ], [ 3.856080431137387, 43.525566522379698 ], [ 3.858926634833411, 43.524595366221433 ] ] ], [ [ [ 3.810341, 43.506135 ], [ 3.809816, 43.505806 ], [ 3.809575, 43.505671 ], [ 3.805216, 43.503674 ], [ 3.805146, 43.503625 ], [ 3.801974, 43.502695 ], [ 3.800015, 43.494054 ], [ 3.800483, 43.493581 ], [ 3.800723, 43.493313 ], [ 3.799894, 43.490708 ], [ 3.799559, 43.490628 ], [ 3.798042, 43.490909 ], [ 3.794361, 43.491477 ], [ 3.794199, 43.491678 ], [ 3.793858, 43.492215 ], [ 3.793704, 43.492431 ], [ 3.793118, 43.493226 ], [ 3.790474, 43.495183 ], [ 3.791543739676481, 43.494725145765955 ], [ 3.792773, 43.494142 ], [ 3.79284, 43.494107 ], [ 3.793752, 43.494753 ], [ 3.794365, 43.495381 ], [ 3.79457, 43.496435 ], [ 3.794562758105871, 43.496552236701184 ], [ 3.794695426714143, 43.497757790576344 ], [ 3.797352, 43.504678 ], [ 3.800728, 43.505222 ], [ 3.802967, 43.505085 ], [ 3.803931, 43.505221 ], [ 3.807202, 43.506401 ], [ 3.807339, 43.506469 ], [ 3.80987, 43.507826 ], [ 3.811734, 43.508816 ], [ 3.814396, 43.510299 ], [ 3.810831, 43.506517 ], [ 3.810341, 43.506135 ] ] ], [ [ [ 3.782122, 43.511348 ], [ 3.781555, 43.519061 ], [ 3.781507, 43.522566 ], [ 3.781686, 43.523828 ], [ 3.78106, 43.525916 ], [ 3.780655, 43.525928 ], [ 3.776073310005322, 43.529611849772913 ], [ 3.776818, 43.530064 ], [ 3.777927, 43.530754 ], [ 3.778674, 43.531249 ], [ 3.779476, 43.531806 ], [ 3.780335, 43.532461 ], [ 3.781031, 43.53304 ], [ 3.781673, 43.533614 ], [ 3.783142, 43.535038 ], [ 3.783187579081559, 43.535078551766958 ], [ 3.784774, 43.536269 ], [ 3.791168, 43.537976 ], [ 3.796537, 43.535177 ], [ 3.796707, 43.535014 ], [ 3.805489, 43.534893 ], [ 3.807841, 43.536188 ], [ 3.808417, 43.537399 ], [ 3.808765, 43.537986 ], [ 3.814106, 43.54107 ], [ 3.814674, 43.54116 ], [ 3.820976, 43.537021 ], [ 3.820885, 43.534259 ], [ 3.815976, 43.526794 ], [ 3.815845, 43.526728 ], [ 3.815772, 43.526652 ], [ 3.813222, 43.524305 ], [ 3.812496, 43.523844 ], [ 3.812015, 43.523578 ], [ 3.804313, 43.522845 ], [ 3.801769, 43.524162 ], [ 3.801014, 43.523465 ], [ 3.800927, 43.523265 ], [ 3.796185, 43.517544 ], [ 3.79283, 43.514074 ], [ 3.79214, 43.513475 ], [ 3.791926, 43.510159 ], [ 3.787152383865929, 43.507470396698629 ], [ 3.782122, 43.511348 ] ] ], [ [ [ 3.841678, 43.541931 ], [ 3.845056, 43.534088 ], [ 3.840554, 43.528331 ], [ 3.840516, 43.528305 ], [ 3.840052, 43.525872 ], [ 3.840054, 43.52587 ], [ 3.842543, 43.52533 ], [ 3.847459122811807, 43.525435415207866 ], [ 3.84449, 43.523456 ], [ 3.837551, 43.520917 ], [ 3.830344, 43.52016 ], [ 3.825034, 43.519686 ], [ 3.82120220355799, 43.517550420533233 ], [ 3.821418, 43.518619 ], [ 3.823789, 43.523975 ], [ 3.824184, 43.525185 ], [ 3.82505, 43.527511 ], [ 3.825374, 43.528097 ], [ 3.82556, 43.528906 ], [ 3.826319, 43.53162 ], [ 3.830924, 43.536668 ], [ 3.831408, 43.537044 ], [ 3.83189, 43.537592 ], [ 3.838025, 43.541781 ], [ 3.841678, 43.541931 ] ] ], [ [ [ 3.901846, 43.535068 ], [ 3.901845973689578, 43.535067790310038 ], [ 3.901845263036504, 43.535068256518606 ], [ 3.901846, 43.535068 ] ] ], [ [ [ 3.770005, 43.478223 ], [ 3.770886, 43.483843 ], [ 3.768899, 43.489371 ], [ 3.769504, 43.492911 ], [ 3.769704, 43.494264 ], [ 3.770281, 43.494904 ], [ 3.770555, 43.49509 ], [ 3.771987, 43.495114 ], [ 3.775888, 43.497059 ], [ 3.775282, 43.496259 ], [ 3.773518, 43.493529 ], [ 3.773279, 43.493221 ], [ 3.771753, 43.49155 ], [ 3.771295, 43.490138 ], [ 3.773651, 43.48849 ], [ 3.774295, 43.488147 ], [ 3.775042, 43.489274 ], [ 3.775721, 43.490276 ], [ 3.775735, 43.490299 ], [ 3.776332, 43.491283 ], [ 3.780465, 43.495788 ], [ 3.788979, 43.495948 ], [ 3.789969, 43.495397 ], [ 3.790474, 43.495183 ], [ 3.783837, 43.491145 ], [ 3.78364, 43.49083 ], [ 3.783141, 43.490291 ], [ 3.782137, 43.489529 ], [ 3.781839, 43.489642 ], [ 3.778881, 43.489922 ], [ 3.77503, 43.482999 ], [ 3.774968, 43.479399 ], [ 3.773305, 43.476784 ], [ 3.771442, 43.475873 ], [ 3.771232, 43.475775 ], [ 3.769765, 43.476137 ], [ 3.769989, 43.478184 ], [ 3.770005, 43.478223 ] ] ] ] } },
{ "type": "Feature", "properties": { "codgeo": "34270", "value": 900, "isochrone_group": 15.0, "nb_agences": 3 }, "geometry": { "type": "MultiPolygon", "coordinates": [ [ [ [ 3.886582470701688, 43.534846933381957 ], [ 3.886845, 43.534831 ], [ 3.886414785626053, 43.5347125786218 ], [ 3.886582470701688, 43.534846933381957 ] ] ], [ [ [ 3.880485, 43.535217 ], [ 3.884622816973366, 43.534965868340933 ], [ 3.885663387508555, 43.534505747781104 ], [ 3.883688, 43.533962 ], [ 3.883136, 43.533884 ], [ 3.882850274428264, 43.533884 ], [ 3.882787, 43.533869 ], [ 3.882486, 43.533884 ], [ 3.881656, 43.534058 ], [ 3.881337, 43.534167 ], [ 3.880828, 43.534469 ], [ 3.880583, 43.534675 ], [ 3.876518228824532, 43.536282459984292 ], [ 3.880485, 43.535217 ] ] ], [ [ [ 3.815303, 43.509787 ], [ 3.809765, 43.502761 ], [ 3.809653, 43.502697 ], [ 3.804767, 43.495245 ], [ 3.80581, 43.493071 ], [ 3.804144, 43.486453 ], [ 3.801365, 43.484163 ], [ 3.798526, 43.483302 ], [ 3.798316, 43.483644 ], [ 3.797504, 43.484938 ], [ 3.789861, 43.488772 ], [ 3.786735, 43.488251 ], [ 3.782917, 43.486144 ], [ 3.782621, 43.485931 ], [ 3.776842, 43.479928 ], [ 3.774366, 43.473653 ], [ 3.773869, 43.471895 ], [ 3.772796, 43.470413 ], [ 3.768348, 43.468645 ], [ 3.767013, 43.469314 ], [ 3.765961, 43.469878 ], [ 3.765558, 43.470921 ], [ 3.766185, 43.473437 ], [ 3.767483, 43.476795 ], [ 3.769362, 43.482021 ], [ 3.768351, 43.488109 ], [ 3.766213, 43.494872 ], [ 3.766286, 43.494964 ], [ 3.766913, 43.49551 ], [ 3.76769, 43.496189 ], [ 3.771808, 43.499609 ], [ 3.773671564225531, 43.507813370804229 ], [ 3.774218, 43.507304 ], [ 3.775411, 43.50647 ], [ 3.776665, 43.497777 ], [ 3.775888, 43.497059 ], [ 3.771987, 43.495114 ], [ 3.770555, 43.49509 ], [ 3.770281, 43.494904 ], [ 3.769704, 43.494264 ], [ 3.769504, 43.492911 ], [ 3.768899, 43.489371 ], [ 3.770886, 43.483843 ], [ 3.770005, 43.478223 ], [ 3.769989, 43.478184 ], [ 3.769765, 43.476137 ], [ 3.771232, 43.475775 ], [ 3.771442, 43.475873 ], [ 3.773305, 43.476784 ], [ 3.774968, 43.479399 ], [ 3.77503, 43.482999 ], [ 3.777204163851621, 43.486907526705991 ], [ 3.780083364354982, 43.489808185929896 ], [ 3.781839, 43.489642 ], [ 3.782137, 43.489529 ], [ 3.783141, 43.490291 ], [ 3.78364, 43.49083 ], [ 3.783837, 43.491145 ], [ 3.790474, 43.495183 ], [ 3.793118, 43.493226 ], [ 3.793704, 43.492431 ], [ 3.793858, 43.492215 ], [ 3.794199, 43.491678 ], [ 3.794361, 43.491477 ], [ 3.798042, 43.490909 ], [ 3.799559, 43.490628 ], [ 3.799894, 43.490708 ], [ 3.800723, 43.493313 ], [ 3.800483, 43.493581 ], [ 3.800015, 43.494054 ], [ 3.801974, 43.502695 ], [ 3.805146, 43.503625 ], [ 3.805216, 43.503674 ], [ 3.809575, 43.505671 ], [ 3.809816, 43.505806 ], [ 3.810341, 43.506135 ], [ 3.810831, 43.506517 ], [ 3.814396, 43.510299 ], [ 3.818964, 43.516303 ], [ 3.825034, 43.519686 ], [ 3.830344, 43.52016 ], [ 3.83101348277498, 43.520230320308137 ], [ 3.825324, 43.51736 ], [ 3.824807, 43.516976 ], [ 3.822962, 43.51565 ], [ 3.820293, 43.513674 ], [ 3.815303, 43.509787 ] ] ], [ [ [ 3.854223, 43.524689 ], [ 3.854685, 43.524378 ], [ 3.855018, 43.524219 ], [ 3.855115439154527, 43.524182646845262 ], [ 3.855205, 43.524142 ], [ 3.855655850446185, 43.523966411051873 ], [ 3.849885, 43.523492 ], [ 3.8486, 43.523512 ], [ 3.840443, 43.519808 ], [ 3.839751, 43.520057 ], [ 3.832902281286412, 43.52042871360257 ], [ 3.837551, 43.520917 ], [ 3.84449, 43.523456 ], [ 3.850328, 43.527348 ], [ 3.854021, 43.524889 ], [ 3.854223, 43.524689 ] ] ] ] } },
{ "type": "Feature", "properties": { "codgeo": "34270", "value": 960, "isochrone_group": 16.0, "nb_agences": 3 }, "geometry": { "type": "MultiPolygon", "coordinates": [ [ [ [ 3.875265, 43.524201 ], [ 3.87659, 43.52295 ], [ 3.876746720431341, 43.522801913977332 ], [ 3.875265, 43.524201 ] ] ], [ [ [ 3.876896955761537, 43.522659955763437 ], [ 3.877915, 43.521698 ], [ 3.877914626999977, 43.521697605271825 ], [ 3.876896955761537, 43.522659955763437 ] ] ], [ [ [ 3.8598, 43.523106 ], [ 3.86022, 43.522962 ], [ 3.861234, 43.522921 ], [ 3.868551, 43.523853 ], [ 3.861026, 43.521252 ], [ 3.85819457619563, 43.523016658240103 ], [ 3.859406119290577, 43.523190029176938 ], [ 3.8598, 43.523106 ] ] ], [ [ [ 3.849885, 43.523492 ], [ 3.85099741565989, 43.52358344965517 ], [ 3.846734654598626, 43.522664968080562 ], [ 3.8486, 43.523512 ], [ 3.849885, 43.523492 ] ] ], [ [ [ 3.840997, 43.519689 ], [ 3.840502539880219, 43.519835036375682 ], [ 3.84610651080007, 43.522379735197191 ], [ 3.844304, 43.519501 ], [ 3.841479, 43.519684 ], [ 3.840997, 43.519689 ] ] ], [ [ [ 3.826090892881862, 43.517746894257343 ], [ 3.821535, 43.510759 ], [ 3.819505, 43.508241 ], [ 3.819451, 43.508259 ], [ 3.817034, 43.508804 ], [ 3.81153119770878, 43.505001755706367 ], [ 3.815303, 43.509787 ], [ 3.820293, 43.513674 ], [ 3.822962, 43.51565 ], [ 3.824807, 43.516976 ], [ 3.825324, 43.51736 ], [ 3.826090892881862, 43.517746894257343 ] ] ], [ [ [ 3.871153, 43.530425 ], [ 3.870922708702955, 43.530130570821996 ], [ 3.869888, 43.531729 ], [ 3.875690733515451, 43.536609702414211 ], [ 3.875823730143646, 43.5365571073852 ], [ 3.871153, 43.530425 ] ] ], [ [ [ 3.806537, 43.479358 ], [ 3.803641, 43.47722 ], [ 3.799466, 43.480536 ], [ 3.793803, 43.485984 ], [ 3.789928, 43.48718 ], [ 3.783917951888069, 43.486696384920947 ], [ 3.785395224166468, 43.487511631827857 ], [ 3.786603, 43.488135 ], [ 3.789861, 43.488772 ], [ 3.797571497627256, 43.484830436047204 ], [ 3.798316, 43.483644 ], [ 3.798526, 43.483302 ], [ 3.801365, 43.484163 ], [ 3.804144, 43.486453 ], [ 3.805010726483918, 43.489895974712212 ], [ 3.806694, 43.48832 ], [ 3.808336, 43.484961 ], [ 3.806537, 43.479358 ] ] ], [ [ [ 3.761317, 43.477765 ], [ 3.76163, 43.478266 ], [ 3.763207, 43.480147 ], [ 3.762936, 43.488156 ], [ 3.761018, 43.489535 ], [ 3.761009, 43.489781 ], [ 3.761507, 43.491097 ], [ 3.763703, 43.496788 ], [ 3.764967, 43.498595 ], [ 3.766205, 43.501512 ], [ 3.767859, 43.504423 ], [ 3.771209860404674, 43.509848760779043 ], [ 3.764119, 43.513051 ], [ 3.771844, 43.50958 ], [ 3.772213, 43.509173 ], [ 3.773554773123063, 43.507299196139279 ], [ 3.771992880438533, 43.500422939037563 ], [ 3.771540305775856, 43.499386679881823 ], [ 3.76769, 43.496189 ], [ 3.767626, 43.496158 ], [ 3.767596481622173, 43.496107276732893 ], [ 3.766913, 43.49551 ], [ 3.766286, 43.494964 ], [ 3.766213, 43.494872 ], [ 3.767777340197304, 43.489923621723896 ], [ 3.768282, 43.488046 ], [ 3.768523679601546, 43.487069164773303 ], [ 3.769362, 43.482021 ], [ 3.767483, 43.476795 ], [ 3.766185, 43.473437 ], [ 3.765558, 43.470921 ], [ 3.765961, 43.469878 ], [ 3.767013, 43.469314 ], [ 3.768348, 43.468645 ], [ 3.772796, 43.470413 ], [ 3.773869, 43.471895 ], [ 3.773991048350731, 43.472326712274821 ], [ 3.776842, 43.479928 ], [ 3.782976, 43.473847 ], [ 3.783632, 43.470307 ], [ 3.780997, 43.469819 ], [ 3.779843, 43.469648 ], [ 3.777647, 43.469362 ], [ 3.776537, 43.469185 ], [ 3.775973, 43.469155 ], [ 3.768267, 43.464538 ], [ 3.768225, 43.464505 ], [ 3.767641, 43.464199 ], [ 3.764458, 43.46443 ], [ 3.7643, 43.464943 ], [ 3.764226, 43.46529 ], [ 3.76423, 43.465917 ], [ 3.761475, 43.474124 ], [ 3.76126, 43.474733 ], [ 3.760903, 43.476319 ], [ 3.761036, 43.47715 ], [ 3.761317, 43.477765 ] ] ] ] } },
{ "type": "Feature", "properties": { "codgeo": "34270", "value": 1020, "isochrone_group": 17.0, "nb_agences": 3 }, "geometry": { "type": "MultiPolygon", "coordinates": [ [ [ [ 3.920686, 43.522725 ], [ 3.925542354691893, 43.523435861184566 ], [ 3.921556, 43.522606 ], [ 3.920686, 43.522725 ] ] ], [ [ [ 3.930265, 43.524419 ], [ 3.930020196301135, 43.524368037879647 ], [ 3.930129791633008, 43.525466558296259 ], [ 3.930310266948383, 43.525482517581928 ], [ 3.93027, 43.524421 ], [ 3.930265, 43.524419 ] ] ], [ [ [ 3.87839058332044, 43.516364169044536 ], [ 3.878389, 43.516362 ], [ 3.87811, 43.516565 ], [ 3.87839058332044, 43.516364169044536 ] ] ], [ [ [ 3.870618228152769, 43.522557977712438 ], [ 3.870533, 43.52242 ], [ 3.866509850918747, 43.523147481227859 ], [ 3.868551, 43.523853 ], [ 3.870618228152769, 43.522557977712438 ] ] ], [ [ [ 3.857144, 43.523271 ], [ 3.856387002446568, 43.523611043769485 ], [ 3.856739802608721, 43.523606061865173 ], [ 3.857971, 43.523156 ], [ 3.857985111659415, 43.52314720504107 ], [ 3.857561, 43.523099 ], [ 3.857328002911429, 43.523195104314723 ], [ 3.857327, 43.523195 ], [ 3.857144, 43.523271 ] ] ], [ [ [ 3.845392, 43.51882 ], [ 3.840997, 43.519689 ], [ 3.841479, 43.519684 ], [ 3.844304, 43.519501 ], [ 3.845351631198674, 43.521174139936328 ], [ 3.850997, 43.523498 ], [ 3.853348476620527, 43.523653950906528 ], [ 3.854396025707585, 43.523639158426597 ], [ 3.847303, 43.521872 ], [ 3.845392, 43.51882 ] ] ], [ [ [ 3.820115852411582, 43.508998697720379 ], [ 3.821535, 43.510759 ], [ 3.824793883617055, 43.51575752272727 ], [ 3.822614, 43.509168 ], [ 3.8224, 43.509143 ], [ 3.820115852411582, 43.508998697720379 ] ] ], [ [ [ 3.80387, 43.49158 ], [ 3.803651026341356, 43.491169001953715 ], [ 3.802223, 43.492506 ], [ 3.802047, 43.500194 ], [ 3.80461, 43.502096 ], [ 3.805430167961987, 43.502282412631146 ], [ 3.803292, 43.494556 ], [ 3.803765, 43.493549 ], [ 3.80387, 43.49158 ] ] ], [ [ [ 3.779843, 43.469648 ], [ 3.780997, 43.469819 ], [ 3.78205, 43.470014 ], [ 3.782050000244104, 43.470014014845972 ], [ 3.783632, 43.470307 ], [ 3.782976, 43.473847 ], [ 3.776842, 43.479928 ], [ 3.781291, 43.486485 ], [ 3.789928, 43.48718 ], [ 3.793610468082843, 43.48604342404461 ], [ 3.794541667293948, 43.485273376758364 ], [ 3.799466, 43.480536 ], [ 3.803641, 43.47722 ], [ 3.806537, 43.479358 ], [ 3.806844537478479, 43.480315827955501 ], [ 3.807047, 43.478783 ], [ 3.807312, 43.478252 ], [ 3.807868, 43.477024 ], [ 3.808133, 43.476337 ], [ 3.809316, 43.473499 ], [ 3.808159, 43.471594 ], [ 3.807621, 43.471239 ], [ 3.806648, 43.471082 ], [ 3.805931, 43.471788 ], [ 3.80537, 43.472316 ], [ 3.80501, 43.472735 ], [ 3.799378, 43.476519 ], [ 3.793948, 43.469728 ], [ 3.793263, 43.469636 ], [ 3.791206, 43.469377 ], [ 3.790508, 43.469336 ], [ 3.783239, 43.468804 ], [ 3.777647, 43.469362 ], [ 3.779843, 43.469648 ] ] ], [ [ [ 3.770623, 43.459718 ], [ 3.770651, 43.458644 ], [ 3.770582, 43.457922 ], [ 3.766998, 43.458263 ], [ 3.764097, 43.459751 ], [ 3.763684, 43.459977 ], [ 3.763276, 43.46027 ], [ 3.763179, 43.461195 ], [ 3.764025266344615, 43.466526890783925 ], [ 3.76423, 43.465917 ], [ 3.764226, 43.46529 ], [ 3.7643, 43.464943 ], [ 3.764458, 43.46443 ], [ 3.767641, 43.464199 ], [ 3.768225, 43.464505 ], [ 3.768267, 43.464538 ], [ 3.774876422758988, 43.468497992846906 ], [ 3.770021, 43.462081 ], [ 3.7705, 43.460585 ], [ 3.770623, 43.459718 ] ] ], [ [ [ 3.761475761248363, 43.474121732281183 ], [ 3.763010297549198, 43.469550429406084 ], [ 3.759943, 43.474426 ], [ 3.756418, 43.477217 ], [ 3.756581, 43.480813 ], [ 3.757393, 43.480909 ], [ 3.757999, 43.480992 ], [ 3.758586, 43.480994 ], [ 3.759027, 43.480956 ], [ 3.759438, 43.480883 ], [ 3.759922, 43.480717 ], [ 3.761876, 43.480421 ], [ 3.76239, 43.480368 ], [ 3.762935748965706, 43.480222227578906 ], [ 3.76163, 43.478266 ], [ 3.761317, 43.477765 ], [ 3.761036, 43.47715 ], [ 3.760903, 43.476319 ], [ 3.76126, 43.474733 ], [ 3.761468, 43.474141 ], [ 3.761475761248363, 43.474121732281183 ] ] ], [ [ [ 3.761675564733508, 43.512709050863222 ], [ 3.764119, 43.513051 ], [ 3.771209860404674, 43.509848760779043 ], [ 3.767859, 43.504423 ], [ 3.766267598993751, 43.501622172715109 ], [ 3.766163, 43.501572 ], [ 3.766152331597655, 43.501387901672352 ], [ 3.764967, 43.498595 ], [ 3.763703, 43.496788 ], [ 3.762156869179332, 43.492781155509839 ], [ 3.761598, 43.493408 ], [ 3.762159, 43.494768 ], [ 3.7606, 43.502897 ], [ 3.760285, 43.503436 ], [ 3.761145, 43.506536 ], [ 3.761675564733508, 43.512709050863222 ] ] ] ] } },
{ "type": "Feature", "properties": { "codgeo": "34270", "value": 1080, "isochrone_group": 18.0, "nb_agences": 3 }, "geometry": { "type": "MultiPolygon", "coordinates": [ [ [ [ 3.769178786593404, 43.454502196518384 ], [ 3.769296583601995, 43.45468572667 ], [ 3.769262, 43.454624 ], [ 3.769178786593404, 43.454502196518384 ] ] ], [ [ [ 3.76941927504166, 43.454904712940099 ], [ 3.769890507589701, 43.455778013258971 ], [ 3.769843, 43.455661 ], [ 3.76941927504166, 43.454904712940099 ] ] ], [ [ [ 3.77013101618741, 43.456370396392032 ], [ 3.770332438412206, 43.456902490700145 ], [ 3.770303, 43.456794 ], [ 3.77013101618741, 43.456370396392032 ] ] ], [ [ [ 3.770535, 43.457649 ], [ 3.770433460128327, 43.457274790559133 ], [ 3.770551162824629, 43.4577876380216 ], [ 3.770535, 43.457649 ] ] ], [ [ [ 3.770032573162549, 43.462044855008003 ], [ 3.770021, 43.462081 ], [ 3.771548745165581, 43.464100088818014 ], [ 3.770623, 43.459718 ], [ 3.77060791592371, 43.459824324342627 ], [ 3.770603, 43.459918 ], [ 3.770602113502822, 43.459922863213343 ], [ 3.770603, 43.459923 ], [ 3.7705, 43.460585 ], [ 3.770456848225562, 43.46071977046882 ], [ 3.770426, 43.460889 ], [ 3.770033, 43.462045 ], [ 3.770032573162549, 43.462044855008003 ] ] ], [ [ [ 3.775973, 43.469155 ], [ 3.776537, 43.469185 ], [ 3.777647, 43.469362 ], [ 3.772650143817492, 43.465555712276945 ], [ 3.775425, 43.469223 ], [ 3.775973, 43.469155 ] ] ], [ [ [ 3.790508, 43.469336 ], [ 3.791206, 43.469377 ], [ 3.78467, 43.466349 ], [ 3.777647, 43.469362 ], [ 3.783239, 43.468804 ], [ 3.790508, 43.469336 ] ] ], [ [ [ 3.75446, 43.480573 ], [ 3.755411, 43.480782 ], [ 3.75644, 43.480816 ], [ 3.757393, 43.480909 ], [ 3.756581, 43.480813 ], [ 3.756418, 43.477217 ], [ 3.759943, 43.474426 ], [ 3.764204, 43.467653 ], [ 3.763179, 43.461195 ], [ 3.763276, 43.46027 ], [ 3.763545159316086, 43.460076706667621 ], [ 3.762129, 43.459704 ], [ 3.760335076798711, 43.459814685826537 ], [ 3.760775, 43.462416 ], [ 3.760805, 43.462598 ], [ 3.761735, 43.47037 ], [ 3.758598, 43.472126 ], [ 3.754369, 43.476633 ], [ 3.753832, 43.480193 ], [ 3.753959, 43.480328 ], [ 3.75446, 43.480573 ] ] ], [ [ [ 3.768217, 43.487798 ], [ 3.769092491364776, 43.483591319336362 ], [ 3.767051, 43.480217 ], [ 3.763937380412159, 43.480175495714285 ], [ 3.766997, 43.484169 ], [ 3.764511383037707, 43.490316359187425 ], [ 3.763369, 43.491078 ], [ 3.762363, 43.49056 ], [ 3.761338, 43.490485 ], [ 3.76064, 43.490641 ], [ 3.760167, 43.490824 ], [ 3.759557, 43.491003 ], [ 3.760568, 43.494458 ], [ 3.760345, 43.502954 ], [ 3.757776, 43.504504 ], [ 3.756686, 43.505035 ], [ 3.756558, 43.505097 ], [ 3.756402, 43.505226 ], [ 3.757023, 43.50781 ], [ 3.758871, 43.511681 ], [ 3.757905946979408, 43.512181507713343 ], [ 3.757445, 43.512117 ], [ 3.757016, 43.511883 ], [ 3.756631, 43.511735 ], [ 3.755051, 43.512634 ], [ 3.752810612055312, 43.512213910375756 ], [ 3.755031, 43.513707 ], [ 3.756425, 43.5136 ], [ 3.75851602958836, 43.514150075985611 ], [ 3.758579, 43.514141 ], [ 3.761745098514831, 43.513518067259717 ], [ 3.761145, 43.506536 ], [ 3.760285, 43.503436 ], [ 3.760427629893239, 43.503191944404911 ], [ 3.760419, 43.503183 ], [ 3.7606, 43.502897 ], [ 3.762159, 43.494768 ], [ 3.761598, 43.493408 ], [ 3.763193, 43.491619 ], [ 3.764121742986883, 43.491832540769117 ], [ 3.764159, 43.491745 ], [ 3.768196934593737, 43.488313127412511 ], [ 3.768217, 43.487798 ] ] ], [ [ [ 3.81161, 43.470916 ], [ 3.814123, 43.469295 ], [ 3.815019, 43.468756 ], [ 3.813164, 43.465671 ], [ 3.812268, 43.46621 ], [ 3.808391, 43.468334 ], [ 3.803345, 43.468767 ], [ 3.795967, 43.469719 ], [ 3.793263, 43.469636 ], [ 3.793948, 43.469728 ], [ 3.799378, 43.476519 ], [ 3.80501, 43.472735 ], [ 3.80537, 43.472316 ], [ 3.805931, 43.471788 ], [ 3.806648, 43.471082 ], [ 3.807621, 43.471239 ], [ 3.808159, 43.471594 ], [ 3.809316, 43.473499 ], [ 3.808133, 43.476337 ], [ 3.81161, 43.470916 ] ] ], [ [ [ 3.803381166587107, 43.490662494310513 ], [ 3.80387, 43.49158 ], [ 3.803765, 43.493549 ], [ 3.803292, 43.494556 ], [ 3.805463135525718, 43.502401543122907 ], [ 3.809592296119509, 43.50388036634012 ], [ 3.808991, 43.503158 ], [ 3.808264648271858, 43.502516209933596 ], [ 3.80589, 43.499972 ], [ 3.805374950439006, 43.499553004697979 ], [ 3.804222, 43.497005 ], [ 3.80549, 43.490738 ], [ 3.807543, 43.48778 ], [ 3.806487, 43.484658 ], [ 3.806301357502845, 43.484428201175277 ], [ 3.805919, 43.487323 ], [ 3.805517, 43.487738 ], [ 3.804888, 43.488264 ], [ 3.803381166587107, 43.490662494310513 ] ] ], [ [ [ 3.814426559836133, 43.507401160908657 ], [ 3.815564729236759, 43.507580611848262 ], [ 3.812340500728631, 43.506198073021444 ], [ 3.81251883920225, 43.506374780661254 ], [ 3.814426559836133, 43.507401160908657 ] ] ], [ [ [ 3.916756, 43.520143 ], [ 3.916612609437772, 43.520245226895646 ], [ 3.916866759935937, 43.520197045510912 ], [ 3.916756, 43.520143 ] ] ], [ [ [ 3.857561, 43.523099 ], [ 3.858476, 43.523203 ], [ 3.860126701212792, 43.523570511012139 ], [ 3.860285, 43.523556 ], [ 3.862306, 43.523605 ], [ 3.863678284811085, 43.52365949585797 ], [ 3.870533, 43.52242 ], [ 3.870618228152771, 43.522557977712438 ], [ 3.871991, 43.521698 ], [ 3.86308, 43.522482 ], [ 3.862346, 43.522215 ], [ 3.862092379611107, 43.522161534080169 ], [ 3.861387, 43.521832 ], [ 3.85957, 43.521904 ], [ 3.859207, 43.522061 ], [ 3.854331885788807, 43.522914293437459 ], [ 3.850053, 43.519688 ], [ 3.847026, 43.517793 ], [ 3.840997, 43.519689 ], [ 3.845392, 43.51882 ], [ 3.847303, 43.521872 ], [ 3.85563644184937, 43.523948196054242 ], [ 3.857144, 43.523271 ], [ 3.857327, 43.523195 ], [ 3.857328002911429, 43.523195104314723 ], [ 3.857561, 43.523099 ] ] ], [ [ [ 3.92208657790595, 43.522092758078955 ], [ 3.922295, 43.522165 ], [ 3.922595674173439, 43.522229819910123 ], [ 3.921742670225073, 43.521952273783064 ], [ 3.92208657790595, 43.522092758078955 ] ] ], [ [ [ 3.961365037808535, 43.573010695229428 ], [ 3.961408821723544, 43.573091260710989 ], [ 3.961414269187822, 43.573101284428205 ], [ 3.962106442597072, 43.573463563928676 ], [ 3.961127430271721, 43.571005819190397 ], [ 3.961285921957534, 43.572865116501802 ], [ 3.96128878229923, 43.572870379731619 ], [ 3.961312203508192, 43.57291347640259 ], [ 3.961365037808535, 43.573010695229428 ] ] ], [ [ [ 3.962338983075656, 43.577703114184281 ], [ 3.962491, 43.577624 ], [ 3.962490963005782, 43.577619372199408 ], [ 3.962543, 43.577597 ], [ 3.962785, 43.577479 ], [ 3.962668210304784, 43.576389307357033 ], [ 3.962392028468787, 43.576607618041699 ], [ 3.962339, 43.577703 ], [ 3.962338983075656, 43.577703114184281 ] ] ] ] } },
{ "type": "Feature", "properties": { "codgeo": "34270", "value": 1140, "isochrone_group": 19.0, "nb_agences": 3 }, "geometry": { "type": "MultiPolygon", "coordinates": [ [ [ [ 3.771699583389849, 43.464814093622444 ], [ 3.771704, 43.464835 ], [ 3.771741178906759, 43.464863320530171 ], [ 3.771699583389849, 43.464814093622444 ] ] ], [ [ [ 3.801034, 43.465798 ], [ 3.796096, 43.467894 ], [ 3.788859, 43.466636 ], [ 3.785923, 43.464553 ], [ 3.785001, 43.465852 ], [ 3.777647, 43.469362 ], [ 3.78467, 43.466349 ], [ 3.791206, 43.469377 ], [ 3.795967, 43.469719 ], [ 3.803345, 43.468767 ], [ 3.806519480240147, 43.468494596126838 ], [ 3.811722502117687, 43.466508848981704 ], [ 3.812268, 43.46621 ], [ 3.813164, 43.465671 ], [ 3.815018026044701, 43.468754380241457 ], [ 3.815166, 43.468665 ], [ 3.816384, 43.467845 ], [ 3.817025, 43.467377 ], [ 3.82097, 43.463621 ], [ 3.821058, 43.463421 ], [ 3.819808, 43.461161 ], [ 3.819741, 43.461145 ], [ 3.817763, 43.461971 ], [ 3.814578, 43.463983 ], [ 3.814552, 43.464003 ], [ 3.810024, 43.466173 ], [ 3.803764, 43.465377 ], [ 3.801034, 43.465798 ] ] ], [ [ [ 3.758952064652288, 43.462848374262975 ], [ 3.757513, 43.470151 ], [ 3.751841, 43.476275 ], [ 3.751052510800457, 43.476519142298024 ], [ 3.750437801957348, 43.478312679844088 ], [ 3.751273, 43.480318 ], [ 3.75446, 43.480573 ], [ 3.753959, 43.480328 ], [ 3.753412, 43.479978 ], [ 3.754003251474435, 43.479057701584765 ], [ 3.754369, 43.476633 ], [ 3.758598, 43.472126 ], [ 3.761190326950401, 43.47067489189515 ], [ 3.761598, 43.470256 ], [ 3.761666955048293, 43.469801349070259 ], [ 3.760934107364826, 43.4636769488596 ], [ 3.758952064652288, 43.462848374262975 ] ] ], [ [ [ 3.756558, 43.505097 ], [ 3.756686, 43.505035 ], [ 3.757776, 43.504504 ], [ 3.760345, 43.502954 ], [ 3.760568, 43.494458 ], [ 3.759557, 43.491003 ], [ 3.760110432258424, 43.490840599386452 ], [ 3.76064, 43.490641 ], [ 3.761338, 43.490485 ], [ 3.762363, 43.49056 ], [ 3.763369, 43.491078 ], [ 3.764511383037707, 43.490316359187425 ], [ 3.766997, 43.484169 ], [ 3.763937380412158, 43.480175495714285 ], [ 3.76315, 43.480165 ], [ 3.76239, 43.480368 ], [ 3.761876, 43.480421 ], [ 3.759922, 43.480717 ], [ 3.759438, 43.480883 ], [ 3.759027, 43.480956 ], [ 3.758586, 43.480994 ], [ 3.757999, 43.480992 ], [ 3.757393, 43.480909 ], [ 3.75644, 43.480816 ], [ 3.757474, 43.489599 ], [ 3.75665, 43.490451 ], [ 3.755292, 43.49182 ], [ 3.754435, 43.495316 ], [ 3.755304, 43.502878 ], [ 3.753082, 43.505711 ], [ 3.750751586074985, 43.507144928105582 ], [ 3.756805, 43.50756 ], [ 3.756918220742754, 43.507374010304801 ], [ 3.756402, 43.505226 ], [ 3.756558, 43.505097 ] ] ], [ [ [ 3.817929182605928, 43.508594481857429 ], [ 3.819636, 43.508195 ], [ 3.819729770128327, 43.508163743290559 ], [ 3.817924542840852, 43.508592492341059 ], [ 3.817929182605928, 43.508594481857429 ] ] ], [ [ [ 3.823998571192889, 43.513302469219553 ], [ 3.822822161960936, 43.509701131566864 ], [ 3.822822, 43.509633 ], [ 3.822698397939644, 43.509423124694308 ], [ 3.825296173685049, 43.517275884438348 ], [ 3.825355928609289, 43.51737610785009 ], [ 3.826189300062823, 43.517796540269337 ], [ 3.823998571192889, 43.513302469219553 ] ] ], [ [ [ 3.819804675444686, 43.508145952963822 ], [ 3.82033991175038, 43.509012852792281 ], [ 3.8224, 43.509143 ], [ 3.822543281669045, 43.50915973851275 ], [ 3.821577, 43.507519 ], [ 3.821303128830591, 43.507620167519065 ], [ 3.821303, 43.50762 ], [ 3.820015, 43.508096 ], [ 3.819804675444686, 43.508145952963822 ] ] ], [ [ [ 3.940229, 43.528276 ], [ 3.93582994777643, 43.526961584395835 ], [ 3.935833517332588, 43.526964712200375 ], [ 3.94016, 43.52826 ], [ 3.940273727270864, 43.528368001870504 ], [ 3.94039803834423, 43.528419297296637 ], [ 3.940229, 43.528276 ] ] ], [ [ [ 3.913557304383703, 43.518605002166048 ], [ 3.913558230401731, 43.518603064210801 ], [ 3.912838, 43.518176 ], [ 3.913557304383703, 43.518605002166048 ] ] ], [ [ [ 3.887626, 43.516923 ], [ 3.887081, 43.51683 ], [ 3.887622013355996, 43.516946309060231 ], [ 3.887626, 43.516923 ] ] ], [ [ [ 3.877135, 43.517473 ], [ 3.876108, 43.518451 ], [ 3.877140274350664, 43.517478537749568 ], [ 3.877135, 43.517473 ] ] ], [ [ [ 3.840997, 43.519689 ], [ 3.847215, 43.51764 ], [ 3.847512015435915, 43.518097261397756 ], [ 3.850053, 43.519688 ], [ 3.854331885788807, 43.522914293437459 ], [ 3.85478227165805, 43.522835462195786 ], [ 3.850786, 43.518069 ], [ 3.85062, 43.517369 ], [ 3.849039, 43.51629 ], [ 3.847064, 43.516827 ], [ 3.840997, 43.519689 ] ] ], [ [ [ 3.96667406682345, 43.558790995905973 ], [ 3.966530142794546, 43.55923016275726 ], [ 3.969295102008543, 43.557290929766495 ], [ 3.96667406682345, 43.558790995905973 ] ] ], [ [ [ 3.974277508275428, 43.554357908143501 ], [ 3.977817616042493, 43.552605969209289 ], [ 3.977759, 43.552604 ], [ 3.977270130046871, 43.55268563653587 ], [ 3.977149907317047, 43.552728326287102 ], [ 3.976779128919353, 43.552879353538913 ], [ 3.974277508275428, 43.554357908143501 ] ] ], [ [ [ 3.961366330015277, 43.584408024771605 ], [ 3.961104065934086, 43.586065541241943 ], [ 3.961368797890012, 43.586048781797807 ], [ 3.961366330015277, 43.584408024771605 ] ] ] ] } },
{ "type": "Feature", "properties": { "codgeo": "34270", "value": 1200, "isochrone_group": 20.0, "nb_agences": 3 }, "geometry": { "type": "MultiPolygon", "coordinates": [ [ [ [ 3.639932412142557, 43.444361704668822 ], [ 3.640661808188824, 43.444788668208091 ], [ 3.643086, 43.445213 ], [ 3.643418, 43.445356 ], [ 3.646395974779952, 43.445862103915914 ], [ 3.643704, 43.445136 ], [ 3.641995, 43.44486 ], [ 3.639932412142557, 43.444361704668822 ] ] ], [ [ [ 3.677616543167372, 43.448576317950518 ], [ 3.677552, 43.448872 ], [ 3.677553, 43.450076 ], [ 3.67758, 43.450153 ], [ 3.677827, 43.450319 ], [ 3.678942, 43.450946 ], [ 3.677616543167372, 43.448576317950518 ] ] ], [ [ [ 3.679138264339126, 43.451371103672322 ], [ 3.678942, 43.450946 ], [ 3.678958, 43.451035 ], [ 3.679138264339126, 43.451371103672322 ] ] ], [ [ [ 3.758355900360272, 43.465873648141709 ], [ 3.757596, 43.465463 ], [ 3.755243452275905, 43.4677523362597 ], [ 3.755773, 43.468372 ], [ 3.756157, 43.468817 ], [ 3.756676453217724, 43.471054210947571 ], [ 3.757513, 43.470151 ], [ 3.758355900360272, 43.465873648141709 ] ] ], [ [ [ 3.754926704370995, 43.480675566996354 ], [ 3.754922, 43.480706 ], [ 3.755411, 43.480782 ], [ 3.754926704370995, 43.480675566996354 ] ] ], [ [ [ 3.754475962026093, 43.495672449759859 ], [ 3.754435, 43.495316 ], [ 3.755292, 43.49182 ], [ 3.75665, 43.490451 ], [ 3.757474, 43.489599 ], [ 3.75654460175033, 43.481704507904404 ], [ 3.755502, 43.484961 ], [ 3.754917, 43.48668 ], [ 3.753223, 43.490689 ], [ 3.750011884510355, 43.494183285904583 ], [ 3.750048, 43.494269 ], [ 3.750183, 43.494686 ], [ 3.750093, 43.495887 ], [ 3.750091712518691, 43.495889796578254 ], [ 3.753157, 43.495715 ], [ 3.754198, 43.495678 ], [ 3.754475962026093, 43.495672449759859 ] ] ], [ [ [ 3.821073, 43.460432 ], [ 3.820862, 43.459999 ], [ 3.820582, 43.459549 ], [ 3.820287, 43.459171 ], [ 3.819995, 43.458859 ], [ 3.819637, 43.458533 ], [ 3.819107, 43.458121 ], [ 3.816733, 43.456477 ], [ 3.81572, 43.455783 ], [ 3.815251, 43.455507 ], [ 3.814654, 43.455189 ], [ 3.812886, 43.454301 ], [ 3.81127, 43.457518 ], [ 3.810024, 43.466173 ], [ 3.814552, 43.464003 ], [ 3.814578, 43.463983 ], [ 3.817763, 43.461971 ], [ 3.819741, 43.461145 ], [ 3.819808, 43.461161 ], [ 3.820727058165561, 43.462822657163336 ], [ 3.82136, 43.462044 ], [ 3.821327, 43.461345 ], [ 3.821238, 43.46091 ], [ 3.821073, 43.460432 ] ] ], [ [ [ 3.812606978891122, 43.470272902991432 ], [ 3.81161, 43.470916 ], [ 3.808133, 43.476337 ], [ 3.807868, 43.477024 ], [ 3.812607, 43.470273 ], [ 3.812606978891122, 43.470272902991432 ] ] ], [ [ [ 3.911249, 43.517884 ], [ 3.910692, 43.517799 ], [ 3.910690738334794, 43.517807239021053 ], [ 3.911249, 43.517884 ] ] ], [ [ [ 3.888999, 43.517425 ], [ 3.891742619241561, 43.518447023648577 ], [ 3.891743, 43.518446 ], [ 3.888999, 43.517425 ] ] ], [ [ [ 3.935231523155605, 43.526774331969143 ], [ 3.935243681603296, 43.52678641088869 ], [ 3.940229, 43.528276 ], [ 3.941228504940296, 43.529123300987223 ], [ 3.942764, 43.529557 ], [ 3.943253642555112, 43.529694716428345 ], [ 3.943253, 43.529694 ], [ 3.941429, 43.528693 ], [ 3.940841166452053, 43.528504378152796 ], [ 3.940601, 43.528363 ], [ 3.935231523155605, 43.526774331969143 ] ] ], [ [ [ 3.948754889054381, 43.531419341964032 ], [ 3.948574, 43.531209 ], [ 3.946195, 43.530522 ], [ 3.948376, 43.531152 ], [ 3.948548658611873, 43.531347050069186 ], [ 3.948754889054381, 43.531419341964032 ] ] ], [ [ [ 3.915700005956725, 43.519842627757519 ], [ 3.915544, 43.519748 ], [ 3.912838, 43.518176 ], [ 3.914882, 43.519388 ], [ 3.914935, 43.519422 ], [ 3.915685440628462, 43.519872562975024 ], [ 3.915700005956725, 43.519842627757519 ] ] ], [ [ [ 3.986022686098382, 43.545340320958736 ], [ 3.987975, 43.545594 ], [ 3.98838, 43.545705 ], [ 3.987757, 43.545534 ], [ 3.987686351002388, 43.545526520924724 ], [ 3.987483, 43.545444 ], [ 3.987463, 43.545437 ], [ 3.985221704306549, 43.544853714144779 ], [ 3.985791672583662, 43.545199977256139 ], [ 3.986022686098382, 43.545340320958736 ] ] ], [ [ [ 3.996633488210966, 43.548227245789256 ], [ 3.996938452489549, 43.548228960306616 ], [ 3.99655, 43.547997 ], [ 3.996501, 43.547962 ], [ 3.996085466550699, 43.547919969795231 ], [ 3.996633488210966, 43.548227245789256 ] ] ], [ [ [ 4.005453586074162, 43.550430649648199 ], [ 4.005878179895767, 43.550640796827921 ], [ 4.00635, 43.550601 ], [ 4.006664, 43.550675 ], [ 4.005627, 43.550405 ], [ 4.005453586074162, 43.550430649648199 ] ] ], [ [ [ 4.006884046355387, 43.550782528949483 ], [ 4.006894285616724, 43.550782103017255 ], [ 4.006664, 43.550675 ], [ 4.006884046355387, 43.550782528949483 ] ] ] ] } }
]
}
