{
"type": "FeatureCollection",
"name": "Credit_Agricole",
"crs": { "type": "name", "properties": { "name": "urn:ogc:def:crs:OGC:1.3:CRS84" } },
"features": [
{ "type": "Feature", "properties": { "codgeo": "31069", "value": 60, "isochrone_group": 1.0, "nb_agences": 4 }, "geometry": { "type": "MultiPolygon", "coordinates": [ [ [ [ 1.396237, 43.627018 ], [ 1.396592, 43.626955 ], [ 1.398082, 43.625244 ], [ 1.397136, 43.624517 ], [ 1.395598, 43.624684 ], [ 1.394012, 43.625135 ], [ 1.393916, 43.625482 ], [ 1.396237, 43.627018 ] ] ], [ [ [ 1.397276, 43.636348 ], [ 1.398186, 43.636246 ], [ 1.398393, 43.63612 ], [ 1.399771, 43.634381 ], [ 1.399799, 43.634324 ], [ 1.398531, 43.631926 ], [ 1.397392, 43.631051 ], [ 1.397388, 43.631048 ], [ 1.396552, 43.631673 ], [ 1.394363, 43.634355 ], [ 1.394287, 43.635705 ], [ 1.394321, 43.636063 ], [ 1.397276, 43.636348 ] ] ], [ [ [ 1.381414, 43.635173 ], [ 1.381656, 43.635532 ], [ 1.381952, 43.635737 ], [ 1.386028, 43.636088 ], [ 1.387801, 43.636283 ], [ 1.387881, 43.636235 ], [ 1.388024, 43.636132 ], [ 1.388168, 43.635972 ], [ 1.387901, 43.635731 ], [ 1.382306, 43.634635 ], [ 1.381782, 43.63444 ], [ 1.381393, 43.634492 ], [ 1.381268, 43.63483 ], [ 1.381414, 43.635173 ] ] ], [ [ [ 1.36893, 43.656817 ], [ 1.37204, 43.656976 ], [ 1.372171, 43.6568 ], [ 1.373509, 43.65503 ], [ 1.373563, 43.654959 ], [ 1.373278, 43.65474 ], [ 1.372399, 43.65412 ], [ 1.372281, 43.654079 ], [ 1.369705, 43.654714 ], [ 1.367711, 43.655236 ], [ 1.367685, 43.655595 ], [ 1.36893, 43.656817 ] ] ] ] } },
{ "type": "Feature", "properties": { "codgeo": "31069", "value": 120, "isochrone_group": 2.0, "nb_agences": 4 }, "geometry": { "type": "MultiPolygon", "coordinates": [ [ [ [ 1.399116, 43.624776 ], [ 1.399085, 43.624752 ], [ 1.395958, 43.623163 ], [ 1.39034, 43.623898 ], [ 1.390175, 43.624218 ], [ 1.39025, 43.624391 ], [ 1.39192, 43.628206 ], [ 1.392073, 43.62839 ], [ 1.395790371939924, 43.629330860104893 ], [ 1.394047, 43.630813 ], [ 1.391124, 43.633786 ], [ 1.390891, 43.634034 ], [ 1.390788, 43.634379 ], [ 1.390681223619013, 43.636790104897159 ], [ 1.390287, 43.635162 ], [ 1.38867, 43.633402 ], [ 1.388313, 43.633357 ], [ 1.385827, 43.634923 ], [ 1.38271912584984, 43.634715926886756 ], [ 1.387901, 43.635731 ], [ 1.388168, 43.635972 ], [ 1.388024, 43.636132 ], [ 1.387881, 43.636235 ], [ 1.387801, 43.636283 ], [ 1.386028, 43.636088 ], [ 1.381952, 43.635737 ], [ 1.381656, 43.635532 ], [ 1.381414, 43.635173 ], [ 1.381268, 43.63483 ], [ 1.381393, 43.634492 ], [ 1.381428830305154, 43.634487210344822 ], [ 1.380628, 43.634307 ], [ 1.38057, 43.634379 ], [ 1.379322, 43.636186 ], [ 1.379361, 43.636544 ], [ 1.380446, 43.636839 ], [ 1.384259, 43.636828 ], [ 1.387001, 43.636922 ], [ 1.3906, 43.637194 ], [ 1.390675559326608, 43.636918009617546 ], [ 1.390652, 43.63745 ], [ 1.390674, 43.63757 ], [ 1.392629, 43.637556 ], [ 1.39672, 43.638078 ], [ 1.397689, 43.638043 ], [ 1.401467, 43.636321 ], [ 1.401485, 43.635961 ], [ 1.400167, 43.633854 ], [ 1.399493, 43.62965 ], [ 1.398224, 43.62801 ], [ 1.398223238074627, 43.628009770318151 ], [ 1.39921, 43.627114 ], [ 1.399199, 43.626754 ], [ 1.399116, 43.624776 ] ], [ [ 1.393916, 43.625482 ], [ 1.394012, 43.625135 ], [ 1.395598, 43.624684 ], [ 1.397136, 43.624517 ], [ 1.398082, 43.625244 ], [ 1.396592, 43.626955 ], [ 1.396237, 43.627018 ], [ 1.393916, 43.625482 ] ], [ [ 1.394321, 43.636063 ], [ 1.394287, 43.635705 ], [ 1.394363, 43.634355 ], [ 1.396552, 43.631673 ], [ 1.397388, 43.631048 ], [ 1.397392, 43.631051 ], [ 1.398531, 43.631926 ], [ 1.399799, 43.634324 ], [ 1.399771, 43.634381 ], [ 1.398393, 43.63612 ], [ 1.398186, 43.636246 ], [ 1.397276, 43.636348 ], [ 1.394321, 43.636063 ] ] ], [ [ [ 1.363254, 43.659326 ], [ 1.366519, 43.657449 ], [ 1.369813, 43.659357 ], [ 1.3701, 43.659575 ], [ 1.370382, 43.659203 ], [ 1.370665, 43.658832 ], [ 1.375128, 43.655339 ], [ 1.376133, 43.654787 ], [ 1.376053, 43.654436 ], [ 1.374622, 43.652794 ], [ 1.37449, 43.65272 ], [ 1.371072, 43.652717 ], [ 1.366574, 43.653479 ], [ 1.36433, 43.6553 ], [ 1.364074, 43.655554 ], [ 1.362599, 43.659642 ], [ 1.362895, 43.659846 ], [ 1.363254, 43.659326 ] ], [ [ 1.367685, 43.655595 ], [ 1.367711, 43.655236 ], [ 1.369705, 43.654714 ], [ 1.372281, 43.654079 ], [ 1.372399, 43.65412 ], [ 1.373278, 43.65474 ], [ 1.373563, 43.654959 ], [ 1.373509, 43.65503 ], [ 1.372171, 43.6568 ], [ 1.37204, 43.656976 ], [ 1.36893, 43.656817 ], [ 1.367685, 43.655595 ] ] ] ] } },
{ "type": "Feature", "properties": { "codgeo": "31069", "value": 180, "isochrone_group": 3.0, "nb_agences": 4 }, "geometry": { "type": "MultiPolygon", "coordinates": [ [ [ [ 1.397689, 43.621821 ], [ 1.397016, 43.621766 ], [ 1.392505, 43.621999 ], [ 1.391846, 43.62218 ], [ 1.387219, 43.624437 ], [ 1.386996, 43.624558 ], [ 1.386757, 43.624687 ], [ 1.386598, 43.624795 ], [ 1.386425, 43.624912 ], [ 1.386165, 43.625124 ], [ 1.385906, 43.625336 ], [ 1.386134, 43.625615 ], [ 1.390175, 43.630417 ], [ 1.390692982880594, 43.630788673365338 ], [ 1.3904, 43.631003 ], [ 1.38939225183512, 43.631772390996368 ], [ 1.38853, 43.630941 ], [ 1.384354, 43.631806 ], [ 1.383769, 43.631949 ], [ 1.380628, 43.634307 ], [ 1.379548, 43.635453 ], [ 1.378466, 43.636805 ], [ 1.377826, 43.637599 ], [ 1.377861, 43.637957 ], [ 1.379149, 43.639002 ], [ 1.382977, 43.640265 ], [ 1.387997089138989, 43.639413040110739 ], [ 1.388441, 43.640137 ], [ 1.388736, 43.640344 ], [ 1.396617, 43.640286 ], [ 1.400146, 43.639019 ], [ 1.402451, 43.637854 ], [ 1.402518, 43.637488 ], [ 1.402554, 43.636193 ], [ 1.399937108431473, 43.628954935966469 ], [ 1.402597, 43.624792 ], [ 1.402579, 43.624432 ], [ 1.397689, 43.621821 ] ], [ [ 1.38233, 43.63469 ], [ 1.385827, 43.634923 ], [ 1.388313, 43.633357 ], [ 1.38867, 43.633402 ], [ 1.390287, 43.635162 ], [ 1.390681223619013, 43.636790104897159 ], [ 1.390788, 43.634379 ], [ 1.390891, 43.634034 ], [ 1.391124, 43.633786 ], [ 1.394047, 43.630813 ], [ 1.395790371939924, 43.629330860104893 ], [ 1.392073, 43.62839 ], [ 1.39192, 43.628206 ], [ 1.39025, 43.624391 ], [ 1.390175, 43.624218 ], [ 1.39034, 43.623898 ], [ 1.395958, 43.623163 ], [ 1.399085, 43.624752 ], [ 1.399116, 43.624776 ], [ 1.399199, 43.626754 ], [ 1.39921, 43.627114 ], [ 1.398223238074627, 43.628009770318151 ], [ 1.398224, 43.62801 ], [ 1.399493, 43.62965 ], [ 1.400167, 43.633854 ], [ 1.401485, 43.635961 ], [ 1.401467, 43.636321 ], [ 1.397689, 43.638043 ], [ 1.39672, 43.638078 ], [ 1.392629, 43.637556 ], [ 1.390674, 43.63757 ], [ 1.390652, 43.63745 ], [ 1.390675559326608, 43.636918009617546 ], [ 1.3906, 43.637194 ], [ 1.387001, 43.636922 ], [ 1.384259, 43.636828 ], [ 1.380446, 43.636839 ], [ 1.379361, 43.636544 ], [ 1.379322, 43.636186 ], [ 1.38057, 43.634379 ], [ 1.380628, 43.634307 ], [ 1.38233, 43.63469 ] ] ], [ [ [ 1.360226, 43.666441 ], [ 1.360337, 43.666318 ], [ 1.361504, 43.664717 ], [ 1.368617, 43.66155 ], [ 1.36873, 43.6614 ], [ 1.368842, 43.66125 ], [ 1.369698, 43.659805 ], [ 1.36995628862875, 43.659465839446227 ], [ 1.369813, 43.659357 ], [ 1.366519, 43.657449 ], [ 1.363254, 43.659326 ], [ 1.362895, 43.659846 ], [ 1.362599, 43.659642 ], [ 1.364074, 43.655554 ], [ 1.36433, 43.6553 ], [ 1.366574, 43.653479 ], [ 1.371072, 43.652717 ], [ 1.37449, 43.65272 ], [ 1.374622, 43.652794 ], [ 1.376053, 43.654436 ], [ 1.376133, 43.654787 ], [ 1.375128, 43.655339 ], [ 1.371302369376628, 43.658333158137452 ], [ 1.378489, 43.654743 ], [ 1.378849, 43.654744 ], [ 1.378985, 43.654358 ], [ 1.374794, 43.650643 ], [ 1.36718, 43.646562 ], [ 1.366859, 43.646399 ], [ 1.366523, 43.646951 ], [ 1.365533, 43.649029 ], [ 1.360252, 43.654728 ], [ 1.359743, 43.655566 ], [ 1.359591, 43.664297 ], [ 1.359456, 43.664613 ], [ 1.359276, 43.665071 ], [ 1.358267, 43.667651 ], [ 1.358161, 43.667906 ], [ 1.358051, 43.668169 ], [ 1.357985, 43.668351 ], [ 1.357919, 43.668533 ], [ 1.358258, 43.668655 ], [ 1.360226, 43.666441 ] ] ] ] } },
{ "type": "Feature", "properties": { "codgeo": "31069", "value": 240, "isochrone_group": 4.0, "nb_agences": 4 }, "geometry": { "type": "Polygon", "coordinates": [ [ [ 1.406346, 43.62408 ], [ 1.406357, 43.623965 ], [ 1.405169, 43.622948 ], [ 1.404852, 43.622776 ], [ 1.396874, 43.618679 ], [ 1.389363, 43.619085 ], [ 1.389013, 43.619169 ], [ 1.385108, 43.626186 ], [ 1.384684, 43.627113 ], [ 1.385643090820506, 43.628370355563561 ], [ 1.38026, 43.630021 ], [ 1.380121, 43.630353 ], [ 1.377033660266158, 43.637222217569338 ], [ 1.376984, 43.637189 ], [ 1.375979, 43.637664 ], [ 1.375678, 43.637861 ], [ 1.369616, 43.64274 ], [ 1.363539, 43.644658 ], [ 1.363447, 43.645006 ], [ 1.361271, 43.65234 ], [ 1.359174, 43.655212 ], [ 1.358746, 43.655768 ], [ 1.353343, 43.661395 ], [ 1.35325, 43.661743 ], [ 1.35301, 43.667346 ], [ 1.359393, 43.673583 ], [ 1.359408651291837, 43.673594375817004 ], [ 1.359556, 43.673377 ], [ 1.359754475233604, 43.666971465362202 ], [ 1.358258, 43.668655 ], [ 1.357919, 43.668533 ], [ 1.357985, 43.668351 ], [ 1.358051, 43.668169 ], [ 1.358161, 43.667906 ], [ 1.358267, 43.667651 ], [ 1.359276, 43.665071 ], [ 1.359456, 43.664613 ], [ 1.359591, 43.664297 ], [ 1.359743, 43.655566 ], [ 1.360252, 43.654728 ], [ 1.365533, 43.649029 ], [ 1.366523, 43.646951 ], [ 1.366859, 43.646399 ], [ 1.36718, 43.646562 ], [ 1.374794, 43.650643 ], [ 1.378985, 43.654358 ], [ 1.378849, 43.654744 ], [ 1.378489, 43.654743 ], [ 1.370522, 43.658723 ], [ 1.369698, 43.659805 ], [ 1.368842, 43.66125 ], [ 1.36873, 43.6614 ], [ 1.368617, 43.66155 ], [ 1.362730561322604, 43.664170884477912 ], [ 1.364977, 43.664202 ], [ 1.369539972084484, 43.663678900283116 ], [ 1.369926, 43.663383 ], [ 1.376541, 43.657879 ], [ 1.383169, 43.656256 ], [ 1.383562, 43.655997 ], [ 1.383616, 43.655641 ], [ 1.381205, 43.651173 ], [ 1.380908, 43.650969 ], [ 1.375028, 43.648027 ], [ 1.375149, 43.640662 ], [ 1.375265, 43.640499 ], [ 1.375386, 43.640328 ], [ 1.375883, 43.639541 ], [ 1.376648870291217, 43.638352827398684 ], [ 1.37648, 43.639419 ], [ 1.376434, 43.64 ], [ 1.376775, 43.640238 ], [ 1.379916, 43.641958 ], [ 1.382968, 43.641943 ], [ 1.384387, 43.641851 ], [ 1.384608, 43.641797 ], [ 1.385647450034766, 43.641385965835106 ], [ 1.385944, 43.64168 ], [ 1.387126, 43.642821 ], [ 1.387398, 43.642861 ], [ 1.396075, 43.642007 ], [ 1.399846, 43.641809 ], [ 1.402451, 43.637854 ], [ 1.400146, 43.639019 ], [ 1.396617, 43.640286 ], [ 1.388736, 43.640344 ], [ 1.388441, 43.640137 ], [ 1.387997089138989, 43.639413040110739 ], [ 1.382977, 43.640265 ], [ 1.379149, 43.639002 ], [ 1.377861, 43.637957 ], [ 1.377826, 43.637599 ], [ 1.378466, 43.636805 ], [ 1.379548, 43.635453 ], [ 1.380628, 43.634307 ], [ 1.383769, 43.631949 ], [ 1.384354, 43.631806 ], [ 1.38853, 43.630941 ], [ 1.38939225183512, 43.631772390996368 ], [ 1.3904, 43.631003 ], [ 1.390692982880594, 43.630788673365338 ], [ 1.390175, 43.630417 ], [ 1.386134, 43.625615 ], [ 1.385906, 43.625336 ], [ 1.386165, 43.625124 ], [ 1.386425, 43.624912 ], [ 1.386598, 43.624795 ], [ 1.386757, 43.624687 ], [ 1.386996, 43.624558 ], [ 1.387219, 43.624437 ], [ 1.391846, 43.62218 ], [ 1.392505, 43.621999 ], [ 1.397016, 43.621766 ], [ 1.397689, 43.621821 ], [ 1.402579, 43.624432 ], [ 1.402597, 43.624792 ], [ 1.399937108431473, 43.628954935966469 ], [ 1.400518640114846, 43.630563395259308 ], [ 1.40262, 43.626463 ], [ 1.406032, 43.625093 ], [ 1.406305, 43.624235 ], [ 1.406346, 43.62408 ] ] ] } },
{ "type": "Feature", "properties": { "codgeo": "31069", "value": 300, "isochrone_group": 5.0, "nb_agences": 4 }, "geometry": { "type": "MultiPolygon", "coordinates": [ [ [ [ 1.406225, 43.620979 ], [ 1.40591, 43.620806 ], [ 1.399264, 43.616487 ], [ 1.397304, 43.614348 ], [ 1.396993, 43.614166 ], [ 1.395189, 43.616053 ], [ 1.387809, 43.615833 ], [ 1.387481, 43.615981 ], [ 1.387627, 43.616303 ], [ 1.387772, 43.616624 ], [ 1.387942, 43.616963 ], [ 1.388108, 43.617294 ], [ 1.388403, 43.61786 ], [ 1.387379848686052, 43.622103653718298 ], [ 1.389013, 43.619169 ], [ 1.389363, 43.619085 ], [ 1.396874, 43.618679 ], [ 1.404852, 43.622776 ], [ 1.405169, 43.622948 ], [ 1.406357, 43.623965 ], [ 1.406346, 43.62408 ], [ 1.406305, 43.624235 ], [ 1.406032, 43.625093 ], [ 1.40262, 43.626463 ], [ 1.400166335982183, 43.631250848277524 ], [ 1.40060406763261, 43.63215689544915 ], [ 1.402987, 43.62731 ], [ 1.40863, 43.626295 ], [ 1.410958, 43.62632 ], [ 1.414037099103213, 43.625321051503612 ], [ 1.41364, 43.625034 ], [ 1.41213, 43.625378 ], [ 1.411863, 43.625473 ], [ 1.411471, 43.625472 ], [ 1.411078, 43.625471 ], [ 1.410232, 43.625374 ], [ 1.409905, 43.625328 ], [ 1.409567, 43.625281 ], [ 1.409247, 43.625216 ], [ 1.409318, 43.624863 ], [ 1.411274, 43.625043 ], [ 1.413361559791787, 43.624059373123337 ], [ 1.406225, 43.620979 ] ] ], [ [ [ 1.382691, 43.625613 ], [ 1.382667, 43.625636 ], [ 1.382121187656441, 43.627174249948524 ], [ 1.378956, 43.628216 ], [ 1.377999, 43.629535 ], [ 1.376857564408088, 43.632345306354985 ], [ 1.373535, 43.634765 ], [ 1.372335, 43.635901 ], [ 1.366245, 43.641081 ], [ 1.362865, 43.642062 ], [ 1.359695, 43.642661 ], [ 1.357899, 43.643003 ], [ 1.357089, 43.643163 ], [ 1.357785, 43.646695 ], [ 1.359136, 43.653873 ], [ 1.352881, 43.659413 ], [ 1.351836, 43.659256 ], [ 1.349583, 43.659233 ], [ 1.348644, 43.659239 ], [ 1.346807, 43.659917 ], [ 1.346077, 43.661572 ], [ 1.346385, 43.663492 ], [ 1.351676, 43.668461 ], [ 1.353976830668176, 43.671725092480415 ], [ 1.35508446600713, 43.669373016212823 ], [ 1.35301, 43.667346 ], [ 1.353133450810431, 43.664463937954814 ], [ 1.351479, 43.661416 ], [ 1.351534, 43.66106 ], [ 1.353248, 43.661137 ], [ 1.353551601083319, 43.661177750639311 ], [ 1.358746, 43.655768 ], [ 1.359174, 43.655212 ], [ 1.361271, 43.65234 ], [ 1.363447, 43.645006 ], [ 1.363539, 43.644658 ], [ 1.369616, 43.64274 ], [ 1.375678, 43.637861 ], [ 1.375979, 43.637664 ], [ 1.376984, 43.637189 ], [ 1.377033660266158, 43.637222217569338 ], [ 1.380121, 43.630353 ], [ 1.38026, 43.630021 ], [ 1.385643090820506, 43.628370355563561 ], [ 1.384684, 43.627113 ], [ 1.385108, 43.626186 ], [ 1.385826093015321, 43.624895639260309 ], [ 1.382844, 43.625564 ], [ 1.382691, 43.625613 ] ] ], [ [ [ 1.375232, 43.659773 ], [ 1.376908845162212, 43.661755093836184 ], [ 1.383243, 43.658871 ], [ 1.38788, 43.656713 ], [ 1.388625, 43.656201 ], [ 1.389019, 43.653368 ], [ 1.388516, 43.652755 ], [ 1.382799, 43.647709 ], [ 1.38269, 43.647678 ], [ 1.379239724321617, 43.643908566554586 ], [ 1.382901475607334, 43.643479010912088 ], [ 1.384944, 43.645204 ], [ 1.38524, 43.645409 ], [ 1.38894, 43.644184 ], [ 1.395935, 43.643801 ], [ 1.399273, 43.644033 ], [ 1.399629, 43.64398 ], [ 1.402451, 43.637854 ], [ 1.399846, 43.641809 ], [ 1.396075, 43.642007 ], [ 1.387398, 43.642861 ], [ 1.387126, 43.642821 ], [ 1.385944, 43.64168 ], [ 1.385647450034766, 43.641385965835106 ], [ 1.384608, 43.641797 ], [ 1.384387, 43.641851 ], [ 1.382968, 43.641943 ], [ 1.379916, 43.641958 ], [ 1.376775, 43.640238 ], [ 1.376434, 43.64 ], [ 1.37648, 43.639419 ], [ 1.376648870291217, 43.638352827398684 ], [ 1.375883, 43.639541 ], [ 1.375386, 43.640328 ], [ 1.375265, 43.640499 ], [ 1.375149, 43.640662 ], [ 1.375028, 43.648027 ], [ 1.380908, 43.650969 ], [ 1.381205, 43.651173 ], [ 1.383616, 43.655641 ], [ 1.383562, 43.655997 ], [ 1.383169, 43.656256 ], [ 1.376541, 43.657879 ], [ 1.373975848061948, 43.660013330501442 ], [ 1.374935, 43.659569 ], [ 1.375232, 43.659773 ] ] ] ] } },
{ "type": "Feature", "properties": { "codgeo": "31069", "value": 360, "isochrone_group": 6.0, "nb_agences": 4 }, "geometry": { "type": "MultiPolygon", "coordinates": [ [ [ [ 1.401206, 43.644996 ], [ 1.401259, 43.644071 ], [ 1.402411555069447, 43.637939627088777 ], [ 1.399629, 43.64398 ], [ 1.399273, 43.644033 ], [ 1.395935, 43.643801 ], [ 1.38894, 43.644184 ], [ 1.38524, 43.645409 ], [ 1.384944, 43.645204 ], [ 1.382901475607334, 43.643479010912088 ], [ 1.379239724321617, 43.643908566554586 ], [ 1.38269, 43.647678 ], [ 1.382799, 43.647709 ], [ 1.387070223432423, 43.651478913143258 ], [ 1.386459893209669, 43.648586202191687 ], [ 1.387408, 43.648171 ], [ 1.394034, 43.647499 ], [ 1.399455, 43.647511 ], [ 1.40002, 43.64714 ], [ 1.400982, 43.645576 ], [ 1.401206, 43.644996 ] ] ], [ [ [ 1.401438, 43.632958 ], [ 1.401394, 43.632896 ], [ 1.401239520500154, 43.632674615646351 ], [ 1.401716347026766, 43.629894514020492 ], [ 1.400604067632608, 43.63215689544915 ], [ 1.402369557717633, 43.635811228638239 ], [ 1.402384, 43.635536 ], [ 1.402171, 43.634372 ], [ 1.401438, 43.632958 ] ] ], [ [ [ 1.40888897009255, 43.627934428359673 ], [ 1.410293, 43.629685 ], [ 1.410347, 43.629692 ], [ 1.412177, 43.628736 ], [ 1.413018693914445, 43.628332945537089 ], [ 1.412380518420889, 43.627650018971899 ], [ 1.411125, 43.627942 ], [ 1.410981, 43.627962 ], [ 1.407690528457396, 43.626463981679187 ], [ 1.402987, 43.62731 ], [ 1.402193656227303, 43.628923664900498 ], [ 1.407679, 43.627496 ], [ 1.408654, 43.628027 ], [ 1.40888897009255, 43.627934428359673 ] ] ], [ [ [ 1.408349, 43.615789 ], [ 1.400668, 43.61205 ], [ 1.397269, 43.609369 ], [ 1.39726, 43.609369 ], [ 1.392539, 43.611757 ], [ 1.387529, 43.612445 ], [ 1.385292, 43.615265 ], [ 1.381849, 43.622916 ], [ 1.380027404904883, 43.623908847251123 ], [ 1.378121, 43.624177 ], [ 1.377838, 43.62423 ], [ 1.375051, 43.631549 ], [ 1.371374200791714, 43.635858659050896 ], [ 1.364138, 43.636429 ], [ 1.363735, 43.636589 ], [ 1.363283, 43.636845 ], [ 1.3628, 43.637327 ], [ 1.362407, 43.638224 ], [ 1.356725, 43.643235 ], [ 1.354864, 43.643574 ], [ 1.351182, 43.643926 ], [ 1.350898, 43.643995 ], [ 1.351288680075565, 43.645597108914799 ], [ 1.3527, 43.645581 ], [ 1.354126, 43.645275 ], [ 1.354575, 43.645231 ], [ 1.355496, 43.645101 ], [ 1.355981, 43.645014 ], [ 1.356045, 43.645368 ], [ 1.354582809971018, 43.647209683279279 ], [ 1.355221, 43.647156 ], [ 1.359136, 43.653873 ], [ 1.357785, 43.646695 ], [ 1.357089, 43.643163 ], [ 1.357899, 43.643003 ], [ 1.359695, 43.642661 ], [ 1.362865, 43.642062 ], [ 1.366245, 43.641081 ], [ 1.372335, 43.635901 ], [ 1.373535, 43.634765 ], [ 1.376857564408088, 43.632345306354985 ], [ 1.377999, 43.629535 ], [ 1.378956, 43.628216 ], [ 1.382121187656441, 43.627174249948524 ], [ 1.382667, 43.625636 ], [ 1.382691, 43.625613 ], [ 1.382844, 43.625564 ], [ 1.386757, 43.624687 ], [ 1.388403, 43.61786 ], [ 1.388108, 43.617294 ], [ 1.387942, 43.616963 ], [ 1.387772, 43.616624 ], [ 1.387627, 43.616303 ], [ 1.387481, 43.615981 ], [ 1.387809, 43.615833 ], [ 1.395189, 43.616053 ], [ 1.396993, 43.614166 ], [ 1.397304, 43.614348 ], [ 1.399264, 43.616487 ], [ 1.40591, 43.620806 ], [ 1.406225, 43.620979 ], [ 1.410644010234878, 43.622886389660621 ], [ 1.416100898469475, 43.620816057744271 ], [ 1.415184947766801, 43.617551668200512 ], [ 1.408349, 43.615789 ] ] ], [ [ [ 1.383243, 43.658871 ], [ 1.381501430243954, 43.659663978815217 ], [ 1.381772654601877, 43.660140471278453 ], [ 1.386109700125203, 43.657536874731491 ], [ 1.383243, 43.658871 ] ] ], [ [ [ 1.344799325161294, 43.663163813268902 ], [ 1.344543092700757, 43.663300693150092 ], [ 1.344855202198911, 43.663711864125148 ], [ 1.344799325161294, 43.663163813268902 ] ] ], [ [ [ 1.355183203396589, 43.657373958142749 ], [ 1.351116, 43.658324 ], [ 1.350518132806587, 43.657972331770893 ], [ 1.350493, 43.658425 ], [ 1.350528741370347, 43.658559227449189 ], [ 1.354599191427085, 43.657891212548996 ], [ 1.355183203396589, 43.657373958142749 ] ] ] ] } },
{ "type": "Feature", "properties": { "codgeo": "31069", "value": 420, "isochrone_group": 7.0, "nb_agences": 4 }, "geometry": { "type": "MultiPolygon", "coordinates": [ [ [ [ 1.399455, 43.647511 ], [ 1.394034, 43.647499 ], [ 1.387408, 43.648171 ], [ 1.386459893209669, 43.648586202191687 ], [ 1.387104, 43.651639 ], [ 1.388625, 43.656201 ], [ 1.390725, 43.652127 ], [ 1.390045793313481, 43.65011070638252 ], [ 1.392965, 43.649366 ], [ 1.397706, 43.651211 ], [ 1.400435, 43.647602 ], [ 1.401206, 43.644996 ], [ 1.400982, 43.645576 ], [ 1.40002, 43.64714 ], [ 1.399455, 43.647511 ] ] ], [ [ [ 1.413202, 43.633172 ], [ 1.41336, 43.633229 ], [ 1.41417516529391, 43.633371562540184 ], [ 1.413586, 43.63285 ], [ 1.413153, 43.632694 ], [ 1.409729, 43.632142 ], [ 1.408638, 43.63099 ], [ 1.406195409157474, 43.627882132694758 ], [ 1.401868339220615, 43.629008334830274 ], [ 1.401239520500154, 43.632674615646351 ], [ 1.401394, 43.632896 ], [ 1.401438, 43.632958 ], [ 1.402171, 43.634372 ], [ 1.402384, 43.635536 ], [ 1.402362589389786, 43.635944025057505 ], [ 1.402554, 43.636193 ], [ 1.402516, 43.637384 ], [ 1.401259, 43.644071 ], [ 1.402416454204015, 43.637913564628313 ], [ 1.402545, 43.637349 ], [ 1.409511, 43.63218 ], [ 1.413202, 43.633172 ] ] ], [ [ [ 1.383177, 43.610537 ], [ 1.383046177887595, 43.610705810175048 ], [ 1.383689, 43.612827 ], [ 1.383374, 43.612923 ], [ 1.38291, 43.613036 ], [ 1.382484, 43.613128 ], [ 1.381923693961264, 43.613208974460747 ], [ 1.382131, 43.621145 ], [ 1.381638422034196, 43.621719222085332 ], [ 1.380504, 43.621667 ], [ 1.38016, 43.621728 ], [ 1.378922, 43.622141 ], [ 1.378894, 43.622168 ], [ 1.378864, 43.622197 ], [ 1.378818, 43.622243 ], [ 1.37839968696741, 43.624016888414246 ], [ 1.377159, 43.624176 ], [ 1.376979, 43.624231 ], [ 1.376327, 43.627079 ], [ 1.375825159948555, 43.628944293779597 ], [ 1.374871964849435, 43.630255570140719 ], [ 1.373428, 43.630822 ], [ 1.372336, 43.632154 ], [ 1.365463, 43.63536 ], [ 1.364547, 43.635605 ], [ 1.364019, 43.635978 ], [ 1.363389, 43.636603 ], [ 1.3628, 43.637327 ], [ 1.363283, 43.636845 ], [ 1.363735, 43.636589 ], [ 1.364138, 43.636429 ], [ 1.371374200791714, 43.635858659050896 ], [ 1.375051, 43.631549 ], [ 1.377838, 43.62423 ], [ 1.378121, 43.624177 ], [ 1.380027404904883, 43.623908847251123 ], [ 1.381849, 43.622916 ], [ 1.385292, 43.615265 ], [ 1.387529, 43.612445 ], [ 1.392539, 43.611757 ], [ 1.395163612551285, 43.610429405258962 ], [ 1.394085, 43.609125 ], [ 1.394045, 43.60906 ], [ 1.393784205587946, 43.608049734106665 ], [ 1.392652885562908, 43.607579434933051 ], [ 1.390437, 43.60858 ], [ 1.383177, 43.610537 ] ] ], [ [ [ 1.411885936391011, 43.616701008914703 ], [ 1.411393, 43.614567 ], [ 1.410819, 43.613334 ], [ 1.408985693293901, 43.611651607681651 ], [ 1.4080465413214, 43.612186057583514 ], [ 1.407621, 43.612761 ], [ 1.407103, 43.612991 ], [ 1.404146168238507, 43.613743122125229 ], [ 1.408349, 43.615789 ], [ 1.411885936391011, 43.616701008914703 ] ] ], [ [ [ 1.355221, 43.647156 ], [ 1.354602066953609, 43.647208063420109 ], [ 1.350855, 43.651905 ], [ 1.351064544345272, 43.657016143868766 ], [ 1.357788, 43.654694 ], [ 1.358800290485096, 43.653297020226923 ], [ 1.355221, 43.647156 ] ] ], [ [ [ 1.351123, 43.645599 ], [ 1.351288680075563, 43.645597108914799 ], [ 1.350941168871979, 43.644172027800927 ], [ 1.350244935277276, 43.64427816722727 ], [ 1.351123, 43.645599 ] ] ], [ [ [ 1.384999542429576, 43.658809853445199 ], [ 1.385748326610544, 43.657753812928199 ], [ 1.384641067883561, 43.65841851773304 ], [ 1.384999542429576, 43.658809853445199 ] ] ] ] } },
{ "type": "Feature", "properties": { "codgeo": "31069", "value": 480, "isochrone_group": 8.0, "nb_agences": 4 }, "geometry": { "type": "MultiPolygon", "coordinates": [ [ [ [ 1.392965, 43.649366 ], [ 1.390045793313481, 43.65011070638252 ], [ 1.390725, 43.652127 ], [ 1.388625, 43.656201 ], [ 1.387909108950435, 43.656499287937322 ], [ 1.388037867388455, 43.65662204042021 ], [ 1.392458, 43.656941 ], [ 1.394574, 43.656169 ], [ 1.394759, 43.65588 ], [ 1.394332, 43.653867 ], [ 1.394283107029386, 43.653736543800015 ], [ 1.395785, 43.654261 ], [ 1.402246, 43.654198 ], [ 1.403328, 43.652787 ], [ 1.403542, 43.650794 ], [ 1.401329473854784, 43.644278532074331 ], [ 1.40245089630176, 43.637762297214501 ], [ 1.402416454204015, 43.637913564628313 ], [ 1.401259, 43.644071 ], [ 1.401206, 43.644996 ], [ 1.400435, 43.647602 ], [ 1.397706, 43.651211 ], [ 1.392965, 43.649366 ] ] ], [ [ [ 1.409123, 43.634868 ], [ 1.411491445287402, 43.635372726634415 ], [ 1.41079073183156, 43.634094126943246 ], [ 1.408104323250578, 43.633223800189178 ], [ 1.402545, 43.637349 ], [ 1.402539027471658, 43.637375230949196 ], [ 1.409123, 43.634868 ] ] ], [ [ [ 1.380591, 43.621652 ], [ 1.380505533795239, 43.621667070606861 ], [ 1.381638422034196, 43.621719222085332 ], [ 1.382131, 43.621145 ], [ 1.381923701795095, 43.613209274353089 ], [ 1.381882, 43.613215 ], [ 1.381102, 43.613299 ], [ 1.380157, 43.613326 ], [ 1.379539, 43.613301 ], [ 1.378944, 43.613243 ], [ 1.378087554514614, 43.613141098301931 ], [ 1.377762, 43.613689 ], [ 1.378034, 43.613851 ], [ 1.378533, 43.614071 ], [ 1.381635352422624, 43.620226490088839 ], [ 1.380844, 43.621573 ], [ 1.380674957742808, 43.621663093008266 ], [ 1.380591, 43.621652 ] ] ], [ [ [ 1.378922286640428, 43.622140904376018 ], [ 1.38016, 43.621728 ], [ 1.378989, 43.622077 ], [ 1.378922286640428, 43.622140904376018 ] ] ], [ [ [ 1.37839968696741, 43.624016888414246 ], [ 1.378818, 43.622243 ], [ 1.378864, 43.622197 ], [ 1.378709, 43.622351 ], [ 1.377851957114392, 43.624087131890469 ], [ 1.37839968696741, 43.624016888414246 ] ] ], [ [ [ 1.373428, 43.630822 ], [ 1.374871964849435, 43.630255570140719 ], [ 1.375825159948555, 43.628944293779597 ], [ 1.376263757633538, 43.627314066118046 ], [ 1.374076, 43.628964 ], [ 1.373027585300858, 43.629882200821569 ], [ 1.371428, 43.631073 ], [ 1.369256, 43.632291 ], [ 1.365105197092485, 43.635455700559319 ], [ 1.365463, 43.63536 ], [ 1.372336, 43.632154 ], [ 1.373428, 43.630822 ] ] ], [ [ [ 1.367916, 43.681639 ], [ 1.366614516820827, 43.684154134202004 ], [ 1.36736, 43.683555 ], [ 1.369521, 43.681499 ], [ 1.369553, 43.681446 ], [ 1.373374, 43.674457 ], [ 1.379060786827101, 43.670918908230618 ], [ 1.375544, 43.67266 ], [ 1.374398, 43.673436 ], [ 1.371849, 43.674931 ], [ 1.367916, 43.681639 ] ] ], [ [ [ 1.381315476325377, 43.669826347577342 ], [ 1.381339576075068, 43.669790724636066 ], [ 1.379448613670473, 43.670726902812525 ], [ 1.381315476325377, 43.669826347577342 ] ] ] ] } },
{ "type": "Feature", "properties": { "codgeo": "31069", "value": 540, "isochrone_group": 9.0, "nb_agences": 4 }, "geometry": { "type": "MultiPolygon", "coordinates": [ [ [ [ 1.408486806961601, 43.635110267547226 ], [ 1.402516, 43.637384 ], [ 1.409002656621386, 43.635890323873745 ], [ 1.408486806961601, 43.635110267547226 ] ] ], [ [ [ 1.378533, 43.614071 ], [ 1.378034, 43.613851 ], [ 1.378011233445896, 43.613837440508199 ], [ 1.376317048379751, 43.613135985645705 ], [ 1.375466677130026, 43.613092433327338 ], [ 1.377773, 43.614398 ], [ 1.378532, 43.614348 ], [ 1.378859578432911, 43.614718976126881 ], [ 1.378533, 43.614071 ] ] ], [ [ [ 1.380591, 43.621652 ], [ 1.380674957742808, 43.621663093008266 ], [ 1.380844, 43.621573 ], [ 1.381635352422624, 43.620226490088839 ], [ 1.380438362718801, 43.617851499354551 ], [ 1.380354328977889, 43.621693733173281 ], [ 1.380591, 43.621652 ] ] ], [ [ [ 1.369256567649002, 43.632290681677503 ], [ 1.371428, 43.631073 ], [ 1.373027585300858, 43.629882200821569 ], [ 1.374076, 43.628964 ], [ 1.377025385331759, 43.626739671895628 ], [ 1.377578219701955, 43.624899377851044 ], [ 1.374369, 43.628071 ], [ 1.373629, 43.628373 ], [ 1.373251, 43.628623 ], [ 1.372923, 43.628919 ], [ 1.37075552761576, 43.630920551533116 ], [ 1.370535, 43.63107 ], [ 1.370511, 43.631094 ], [ 1.369256567649002, 43.632290681677503 ] ] ], [ [ [ 1.362883416161293, 43.637243756542986 ], [ 1.3628, 43.637327 ], [ 1.363283, 43.636845 ], [ 1.363135783612964, 43.63699191159121 ], [ 1.362913, 43.637188 ], [ 1.362883416161293, 43.637243756542986 ] ] ], [ [ [ 1.362407, 43.638224 ], [ 1.362614025750375, 43.637751475577375 ], [ 1.362436, 43.638087 ], [ 1.356744205645924, 43.643217687678991 ], [ 1.356744743997654, 43.64321758761487 ], [ 1.362407, 43.638224 ] ] ], [ [ [ 1.403587, 43.650847 ], [ 1.4035419346361, 43.650794608739503 ], [ 1.403328, 43.652787 ], [ 1.402246, 43.654198 ], [ 1.395785, 43.654261 ], [ 1.394283107029386, 43.653736543800015 ], [ 1.394332, 43.653867 ], [ 1.394759, 43.65588 ], [ 1.394574, 43.656169 ], [ 1.393405675836051, 43.656595250592908 ], [ 1.394213, 43.657335 ], [ 1.396020886590055, 43.659586436405633 ], [ 1.397032, 43.659708 ], [ 1.399332, 43.65783 ], [ 1.39931959604739, 43.657097490216742 ], [ 1.400093, 43.657071 ], [ 1.403641, 43.65385 ], [ 1.403587, 43.650847 ] ] ], [ [ [ 1.354789886472309, 43.643580939468883 ], [ 1.354718686882004, 43.643587606097206 ], [ 1.354725, 43.643593 ], [ 1.354789886472309, 43.643580939468883 ] ] ], [ [ [ 1.362617, 43.689556 ], [ 1.362632932192428, 43.689808005721972 ], [ 1.364383, 43.68876 ], [ 1.364507, 43.688514 ], [ 1.365736, 43.686012 ], [ 1.36669402699193, 43.68409023301114 ], [ 1.363380471116514, 43.686753290623528 ], [ 1.362784387844265, 43.687989495617309 ], [ 1.362617, 43.689556 ] ] ] ] } },
{ "type": "Feature", "properties": { "codgeo": "31069", "value": 600, "isochrone_group": 10.0, "nb_agences": 4 }, "geometry": { "type": "MultiPolygon", "coordinates": [ [ [ [ 1.410525, 43.636149 ], [ 1.410524, 43.636085 ], [ 1.410360849131444, 43.635578428375652 ], [ 1.410359, 43.635578 ], [ 1.402516, 43.637384 ], [ 1.409716241628029, 43.638738774107757 ], [ 1.410525, 43.636149 ] ] ], [ [ [ 1.37075552761576, 43.630920551533116 ], [ 1.372923, 43.628919 ], [ 1.370755527615757, 43.630920551533116 ], [ 1.37075552761576, 43.630920551533116 ] ] ], [ [ [ 1.368795, 43.632731 ], [ 1.37015369991876, 43.631434850951614 ], [ 1.370153, 43.631435 ], [ 1.368795, 43.632731 ] ] ], [ [ [ 1.363716834926726, 43.636521197952 ], [ 1.3602, 43.637349 ], [ 1.354870970406077, 43.643565868295006 ], [ 1.356743963507807, 43.643217732685507 ], [ 1.362070581989884, 43.638367554260228 ], [ 1.362294, 43.637955 ], [ 1.3628, 43.637327 ], [ 1.362883416161293, 43.637243756542986 ], [ 1.362913, 43.637188 ], [ 1.363135783612964, 43.63699191159121 ], [ 1.363283, 43.636845 ], [ 1.363716834926726, 43.636521197952 ] ] ], [ [ [ 1.400093, 43.657071 ], [ 1.399362422673663, 43.657096023342135 ], [ 1.399586, 43.657629 ], [ 1.399585992319743, 43.657629141362364 ], [ 1.399617, 43.657604 ], [ 1.403641, 43.65385 ], [ 1.400093, 43.657071 ] ] ], [ [ [ 1.384412, 43.668353 ], [ 1.389765178465892, 43.664940109917389 ], [ 1.389072, 43.664638 ], [ 1.384412, 43.668353 ] ] ] ] } },
{ "type": "Feature", "properties": { "codgeo": "31069", "value": 660, "isochrone_group": 11.0, "nb_agences": 4 }, "geometry": { "type": "MultiPolygon", "coordinates": [ [ [ [ 1.407809073639995, 43.639743335692131 ], [ 1.407592, 43.639088 ], [ 1.407661165540504, 43.638991779911336 ], [ 1.407659, 43.638985 ], [ 1.407674537209633, 43.63896131522921 ], [ 1.407525, 43.638448 ], [ 1.407567279914699, 43.638381955331589 ], [ 1.40747334317168, 43.638316757609999 ], [ 1.402516, 43.637384 ], [ 1.401259, 43.644071 ], [ 1.407809073639995, 43.639743335692131 ] ] ], [ [ [ 1.399883754589023, 43.657355143954469 ], [ 1.399617, 43.657604 ], [ 1.398041987544412, 43.65888103712615 ], [ 1.395568950678175, 43.664054421191167 ], [ 1.399883754589023, 43.657355143954469 ] ] ], [ [ [ 1.403616821300748, 43.652505395669351 ], [ 1.404262, 43.651672 ], [ 1.402861518615228, 43.648735375488307 ], [ 1.401259, 43.644071 ], [ 1.402700450886305, 43.648848773979154 ], [ 1.403384, 43.650611 ], [ 1.403587, 43.650847 ], [ 1.403616821300748, 43.652505395669351 ] ] ], [ [ [ 1.376274544371948, 43.614359409635902 ], [ 1.374356539354933, 43.613581517688644 ], [ 1.373111240380202, 43.613283910108471 ], [ 1.374587, 43.614311 ], [ 1.375948, 43.614351 ], [ 1.376274544371948, 43.614359409635902 ] ] ], [ [ [ 1.363871752381711, 43.636484733065494 ], [ 1.368795, 43.632731 ], [ 1.363726760859635, 43.636518861559274 ], [ 1.363871752381711, 43.636484733065494 ] ] ], [ [ [ 1.354718491626261, 43.643587439271464 ], [ 1.354725, 43.643593 ], [ 1.354790894737395, 43.643580752061389 ], [ 1.354718491626261, 43.643587439271464 ] ] ], [ [ [ 1.384412, 43.668353 ], [ 1.390685515645119, 43.665341223054739 ], [ 1.389765178465893, 43.664940109917389 ], [ 1.384412, 43.668353 ] ] ], [ [ [ 1.362242733595778, 43.694467815443566 ], [ 1.361182169554411, 43.693202100396981 ], [ 1.361172, 43.693412 ], [ 1.361819070912621, 43.694321936538763 ], [ 1.362242733595778, 43.694467815443566 ] ] ] ] } },
{ "type": "Feature", "properties": { "codgeo": "31069", "value": 720, "isochrone_group": 12.0, "nb_agences": 4 }, "geometry": { "type": "MultiPolygon", "coordinates": [ [ [ [ 1.404261684925028, 43.651672406991295 ], [ 1.404912, 43.652468 ], [ 1.403638294546014, 43.653699546697716 ], [ 1.403641, 43.65385 ], [ 1.406082404715629, 43.652669846505837 ], [ 1.408454409110219, 43.654554726626287 ], [ 1.408866836019016, 43.652842571984309 ], [ 1.408721, 43.651752 ], [ 1.408926, 43.649073 ], [ 1.40894951285553, 43.648968795299361 ], [ 1.408785, 43.648143 ], [ 1.409040297595592, 43.646864655312264 ], [ 1.405039, 43.64162 ], [ 1.405005160364466, 43.641595894315408 ], [ 1.401259, 43.644071 ], [ 1.402861518615228, 43.648735375488307 ], [ 1.404262, 43.651672 ], [ 1.404261684925028, 43.651672406991295 ] ] ], [ [ [ 1.3979781402313, 43.660313850572983 ], [ 1.398856, 43.66011 ], [ 1.403641, 43.65385 ], [ 1.399883754589023, 43.657355143954469 ], [ 1.3979781402313, 43.660313850572983 ] ] ], [ [ [ 1.354718491626261, 43.643587439271464 ], [ 1.354790894737395, 43.643580752061389 ], [ 1.354856888943505, 43.643568485634376 ], [ 1.353118695504342, 43.642220579851873 ], [ 1.354718491626261, 43.643587439271464 ] ] ], [ [ [ 1.371884245274778, 43.677159893708811 ], [ 1.36934533561784, 43.679201170525182 ], [ 1.367916, 43.681639 ], [ 1.365007465649924, 43.683986331277367 ], [ 1.367389118137411, 43.683523941202481 ], [ 1.369521, 43.681499 ], [ 1.369552, 43.681446 ], [ 1.371884245274778, 43.677159893708811 ] ] ], [ [ [ 1.373355, 43.674457 ], [ 1.374984361212184, 43.673038952617226 ], [ 1.374398, 43.673436 ], [ 1.37276222045255, 43.674395392084513 ], [ 1.372432277867523, 43.676152741515622 ], [ 1.373355, 43.674457 ] ] ] ] } },
{ "type": "Feature", "properties": { "codgeo": "31069", "value": 780, "isochrone_group": 13.0, "nb_agences": 4 }, "geometry": { "type": "MultiPolygon", "coordinates": [ [ [ [ 1.375489, 43.674449 ], [ 1.379744111061534, 43.670541860029786 ], [ 1.377242113042356, 43.671803631904922 ], [ 1.376181, 43.672726 ], [ 1.374677, 43.674086 ], [ 1.373580101572892, 43.674682822564932 ], [ 1.375232, 43.674446 ], [ 1.375489, 43.674449 ] ] ], [ [ [ 1.385279568497956, 43.6676613654571 ], [ 1.384412, 43.668353 ], [ 1.385258, 43.667786 ], [ 1.385296, 43.667756 ], [ 1.385279568497956, 43.6676613654571 ] ] ], [ [ [ 1.389072, 43.664638 ], [ 1.387930885113003, 43.665547708541865 ], [ 1.393833, 43.666713 ], [ 1.389072, 43.664638 ] ] ], [ [ [ 1.406292702650463, 43.660158069726599 ], [ 1.406449, 43.659837 ], [ 1.406481441212863, 43.65977601051982 ], [ 1.406643, 43.65943 ], [ 1.406744236869208, 43.659281954685895 ], [ 1.406824, 43.659132 ], [ 1.406972350042003, 43.658948369831023 ], [ 1.407108, 43.65875 ], [ 1.407242448462293, 43.658614037478443 ], [ 1.407337, 43.658497 ], [ 1.409160052253469, 43.655115456081901 ], [ 1.406082404715629, 43.652669846505837 ], [ 1.403641, 43.65385 ], [ 1.401501802221094, 43.656648616112001 ], [ 1.405682280652783, 43.661334445894298 ], [ 1.406292702650463, 43.660158069726599 ] ] ], [ [ [ 1.364590048850228, 43.610986630101927 ], [ 1.357261, 43.614066 ], [ 1.365386, 43.611038 ], [ 1.365991304663853, 43.611173638950838 ], [ 1.365722671194318, 43.611036425188495 ], [ 1.364590048850228, 43.610986630101927 ] ] ] ] } },
{ "type": "Feature", "properties": { "codgeo": "31069", "value": 840, "isochrone_group": 14.0, "nb_agences": 4 }, "geometry": { "type": "MultiPolygon", "coordinates": [ [ [ [ 1.370018423325703, 43.678309577167489 ], [ 1.371232942512803, 43.678045879027671 ], [ 1.373837, 43.675225 ], [ 1.374316, 43.675235 ], [ 1.374324668929159, 43.675224234572177 ], [ 1.371849, 43.674931 ], [ 1.370018423325703, 43.678309577167489 ] ] ], [ [ [ 1.393833, 43.666713 ], [ 1.393710058149366, 43.666688726821477 ], [ 1.393848, 43.666736 ], [ 1.394133, 43.66652 ], [ 1.393833, 43.666713 ] ] ], [ [ [ 1.395072, 43.665094 ], [ 1.397493506001178, 43.660141378897748 ], [ 1.402892994015833, 43.665396161318618 ], [ 1.403757943749406, 43.664647081218263 ], [ 1.40437891885463, 43.663846222604654 ], [ 1.405028971578261, 43.662593471991556 ], [ 1.405682280652783, 43.661334445894298 ], [ 1.401101918841104, 43.656200393382967 ], [ 1.399927, 43.657288 ], [ 1.39975836539677, 43.657429278723093 ], [ 1.399617, 43.657604 ], [ 1.398598443407532, 43.658401038340536 ], [ 1.398053, 43.658858 ], [ 1.395072, 43.665094 ] ] ] ] } },
{ "type": "Feature", "properties": { "codgeo": "31069", "value": 900, "isochrone_group": 15.0, "nb_agences": 4 }, "geometry": { "type": "MultiPolygon", "coordinates": [ [ [ [ 1.397493506001178, 43.660141378897748 ], [ 1.395072, 43.665094 ], [ 1.394845, 43.665771 ], [ 1.394133, 43.66652 ], [ 1.399486976893053, 43.668112263108199 ], [ 1.40145017564189, 43.667623361509548 ], [ 1.403054923776739, 43.665553751382461 ], [ 1.397493506001178, 43.660141378897748 ] ] ], [ [ [ 1.387741307699199, 43.66578208463087 ], [ 1.38897223209048, 43.665065056440675 ], [ 1.388667366596761, 43.664960577916943 ], [ 1.387485901704367, 43.665902453898781 ], [ 1.387324022607468, 43.666104315182253 ], [ 1.387741307699199, 43.66578208463087 ] ] ] ] } },
{ "type": "Feature", "properties": { "codgeo": "31069", "value": 960, "isochrone_group": 16.0, "nb_agences": 4 }, "geometry": { "type": "Polygon", "coordinates": [ [ [ 1.398426445515166, 43.667796862981916 ], [ 1.395010048156239, 43.666780832545804 ], [ 1.395209437140101, 43.668000776408114 ], [ 1.398426445515166, 43.667796862981916 ] ] ] } }
]
}
