{
"type": "FeatureCollection",
"name": "La_Banque_Postale",
"crs": { "type": "name", "properties": { "name": "urn:ogc:def:crs:OGC:1.3:CRS84" } },
"features": [
{ "type": "Feature", "properties": { "codgeo": "31069", "value": 60, "isochrone_group": 1.0, "nb_agences": 1 }, "geometry": { "type": "Polygon", "coordinates": [ [ [ 1.391438, 43.634176 ], [ 1.392744, 43.633683 ], [ 1.393088, 43.633579 ], [ 1.396506, 43.633393 ], [ 1.396661, 43.633634 ], [ 1.396654, 43.633994 ], [ 1.396502, 43.635492 ], [ 1.39403, 43.636473 ], [ 1.393805, 43.636475 ], [ 1.393004, 43.636189 ], [ 1.391348, 43.634524 ], [ 1.391438, 43.634176 ] ] ] } },
{ "type": "Feature", "properties": { "codgeo": "31069", "value": 120, "isochrone_group": 2.0, "nb_agences": 1 }, "geometry": { "type": "Polygon", "coordinates": [ [ [ 1.388565, 43.633433 ], [ 1.390208, 43.637611 ], [ 1.390281, 43.637784 ], [ 1.390587, 43.638143 ], [ 1.390947, 43.638166 ], [ 1.392693, 43.638071 ], [ 1.393053, 43.63805 ], [ 1.39884, 43.636529 ], [ 1.399079, 43.636359 ], [ 1.39924, 43.636078 ], [ 1.399058, 43.634468 ], [ 1.398766, 43.631925 ], [ 1.397352, 43.630985 ], [ 1.397186, 43.630982 ], [ 1.391518, 43.630965 ], [ 1.391283, 43.631002 ], [ 1.38865, 43.633083 ], [ 1.388565, 43.633433 ] ], [ [ 1.392744, 43.633683 ], [ 1.393088, 43.633579 ], [ 1.396506, 43.633393 ], [ 1.396661, 43.633634 ], [ 1.396654, 43.633994 ], [ 1.396502, 43.635492 ], [ 1.39403, 43.636473 ], [ 1.393805, 43.636475 ], [ 1.393004, 43.636189 ], [ 1.391348, 43.634524 ], [ 1.391438, 43.634176 ], [ 1.392744, 43.633683 ] ] ] } },
{ "type": "Feature", "properties": { "codgeo": "31069", "value": 180, "isochrone_group": 3.0, "nb_agences": 1 }, "geometry": { "type": "Polygon", "coordinates": [ [ [ 1.385521, 43.63788 ], [ 1.38809, 43.641098 ], [ 1.388165, 43.641111 ], [ 1.391201, 43.640462 ], [ 1.397011, 43.638783 ], [ 1.400336, 43.637641 ], [ 1.402818, 43.636595 ], [ 1.402844, 43.636374 ], [ 1.402825, 43.636195 ], [ 1.399493, 43.62965 ], [ 1.398306, 43.627733 ], [ 1.397962, 43.62763 ], [ 1.392194, 43.627195 ], [ 1.391812, 43.627182 ], [ 1.38422, 43.631704 ], [ 1.383708, 43.631947 ], [ 1.383698, 43.632307 ], [ 1.385521, 43.63788 ] ], [ [ 1.391283, 43.631002 ], [ 1.391518, 43.630965 ], [ 1.397186, 43.630982 ], [ 1.397352, 43.630985 ], [ 1.398766, 43.631925 ], [ 1.399058, 43.634468 ], [ 1.39924, 43.636078 ], [ 1.399079, 43.636359 ], [ 1.39884, 43.636529 ], [ 1.393053, 43.63805 ], [ 1.392693, 43.638071 ], [ 1.390947, 43.638166 ], [ 1.390587, 43.638143 ], [ 1.390281, 43.637784 ], [ 1.390208, 43.637611 ], [ 1.388565, 43.633433 ], [ 1.38865, 43.633083 ], [ 1.391283, 43.631002 ] ] ] } },
{ "type": "Feature", "properties": { "codgeo": "31069", "value": 240, "isochrone_group": 4.0, "nb_agences": 1 }, "geometry": { "type": "MultiPolygon", "coordinates": [ [ [ [ 1.399903416011176, 43.627395906277783 ], [ 1.399474, 43.627665 ], [ 1.398579779081843, 43.62817515206396 ], [ 1.399493, 43.62965 ], [ 1.401892434310915, 43.63436317453931 ], [ 1.399897, 43.628844 ], [ 1.399903416011176, 43.627395906277783 ] ] ], [ [ [ 1.386304, 43.627682 ], [ 1.380111, 43.629958 ], [ 1.379971, 43.63029 ], [ 1.380975, 43.637757 ], [ 1.381068, 43.638105 ], [ 1.382788, 43.639752 ], [ 1.38522, 43.641849 ], [ 1.386552, 43.642892 ], [ 1.386847, 43.643098 ], [ 1.388065, 43.643126 ], [ 1.390391, 43.642437 ], [ 1.396075, 43.640858 ], [ 1.398388, 43.640104 ], [ 1.400134, 43.639543 ], [ 1.400662, 43.639369 ], [ 1.402451, 43.637854 ], [ 1.402518, 43.637488 ], [ 1.402539562664213, 43.636712343051251 ], [ 1.400336, 43.637641 ], [ 1.397011, 43.638783 ], [ 1.391201, 43.640462 ], [ 1.388165, 43.641111 ], [ 1.38809, 43.641098 ], [ 1.385521, 43.63788 ], [ 1.383698, 43.632307 ], [ 1.383708, 43.631947 ], [ 1.38422, 43.631704 ], [ 1.391812, 43.627182 ], [ 1.39196631946625, 43.627187251709586 ], [ 1.390995927472791, 43.624944755655079 ], [ 1.386304, 43.627682 ] ] ] ] } },
{ "type": "Feature", "properties": { "codgeo": "31069", "value": 300, "isochrone_group": 5.0, "nb_agences": 1 }, "geometry": { "type": "MultiPolygon", "coordinates": [ [ [ [ 1.388869, 43.623669 ], [ 1.388998, 43.623628 ], [ 1.38901078322463, 43.623607137458116 ], [ 1.388869, 43.623669 ] ] ], [ [ [ 1.388209, 43.623976 ], [ 1.38755, 43.624283 ], [ 1.387549608856928, 43.624283246965334 ], [ 1.388049, 43.624051 ], [ 1.388869, 43.623669 ], [ 1.388209, 43.623976 ] ] ], [ [ [ 1.384422, 43.626258 ], [ 1.37899, 43.628155 ], [ 1.377919, 43.629631 ], [ 1.377415, 43.638464 ], [ 1.377512, 43.638943 ], [ 1.379435, 43.641043 ], [ 1.380256, 43.641879 ], [ 1.384523, 43.645977 ], [ 1.384773, 43.64607 ], [ 1.385045, 43.646135 ], [ 1.388804, 43.644668 ], [ 1.390839, 43.643888 ], [ 1.399028, 43.642343 ], [ 1.399814, 43.641929 ], [ 1.402451, 43.637854 ], [ 1.400662, 43.639369 ], [ 1.400134, 43.639543 ], [ 1.398388, 43.640104 ], [ 1.396075, 43.640858 ], [ 1.390391, 43.642437 ], [ 1.388065, 43.643126 ], [ 1.386847, 43.643098 ], [ 1.386552, 43.642892 ], [ 1.38522, 43.641849 ], [ 1.382788, 43.639752 ], [ 1.381068, 43.638105 ], [ 1.380975, 43.637757 ], [ 1.379971, 43.63029 ], [ 1.380111, 43.629958 ], [ 1.386304, 43.627682 ], [ 1.38802054307213, 43.626680578336028 ], [ 1.386975, 43.624978 ], [ 1.386841429585924, 43.624730387010153 ], [ 1.384422, 43.626258 ] ] ], [ [ [ 1.400402654448065, 43.63024259034205 ], [ 1.401839475710926, 43.627364645956263 ], [ 1.400007304735262, 43.62914909202086 ], [ 1.400402654448065, 43.63024259034205 ] ] ] ] } },
{ "type": "Feature", "properties": { "codgeo": "31069", "value": 360, "isochrone_group": 6.0, "nb_agences": 1 }, "geometry": { "type": "MultiPolygon", "coordinates": [ [ [ [ 1.382557, 43.623559 ], [ 1.378121, 43.624177 ], [ 1.37773, 43.62425 ], [ 1.374808, 43.630781 ], [ 1.374815, 43.630853 ], [ 1.374527, 43.635614 ], [ 1.37103, 43.64067 ], [ 1.371962, 43.644147 ], [ 1.373104, 43.643841 ], [ 1.380355, 43.647782 ], [ 1.380647, 43.648975 ], [ 1.380699, 43.649056 ], [ 1.381738, 43.650862 ], [ 1.381841, 43.650901 ], [ 1.382676, 43.65068 ], [ 1.38375, 43.650352 ], [ 1.38866, 43.648267 ], [ 1.39683, 43.645878 ], [ 1.398825, 43.64538 ], [ 1.401256, 43.644529 ], [ 1.401343, 43.643949 ], [ 1.402424784513239, 43.637894511228112 ], [ 1.399814, 43.641929 ], [ 1.399028, 43.642343 ], [ 1.390839, 43.643888 ], [ 1.388804, 43.644668 ], [ 1.385045, 43.646135 ], [ 1.384773, 43.64607 ], [ 1.384523, 43.645977 ], [ 1.380256, 43.641879 ], [ 1.379435, 43.641043 ], [ 1.377512, 43.638943 ], [ 1.377415, 43.638464 ], [ 1.377919, 43.629631 ], [ 1.37899, 43.628155 ], [ 1.383515038344409, 43.626574735320439 ], [ 1.383499, 43.626001 ], [ 1.383971, 43.624952 ], [ 1.384733, 43.624206 ], [ 1.385399, 43.623658 ], [ 1.387514960449763, 43.620624228437471 ], [ 1.382557, 43.623559 ] ] ], [ [ [ 1.402554, 43.636193 ], [ 1.402014662318604, 43.632325709227416 ], [ 1.401433, 43.632436 ], [ 1.400943976914609, 43.632860463133291 ], [ 1.402554, 43.636193 ] ] ] ] } },
{ "type": "Feature", "properties": { "codgeo": "31069", "value": 420, "isochrone_group": 7.0, "nb_agences": 1 }, "geometry": { "type": "MultiPolygon", "coordinates": [ [ [ [ 1.373329, 43.632385 ], [ 1.373317, 43.63244 ], [ 1.372347, 43.635863 ], [ 1.367206, 43.642749 ], [ 1.366788, 43.643299 ], [ 1.366491, 43.643815 ], [ 1.365189, 43.64645 ], [ 1.36392, 43.649034 ], [ 1.363629, 43.649788 ], [ 1.363562, 43.650018 ], [ 1.363422, 43.650562 ], [ 1.363217, 43.652205 ], [ 1.363106, 43.653825 ], [ 1.366697, 43.654072 ], [ 1.366809, 43.652452 ], [ 1.366824, 43.652265 ], [ 1.367266, 43.650361 ], [ 1.368417, 43.648044 ], [ 1.37673, 43.646314 ], [ 1.377643, 43.647349 ], [ 1.380178, 43.651486 ], [ 1.38023, 43.651525 ], [ 1.383563, 43.652485 ], [ 1.384006, 43.652632 ], [ 1.38573, 43.651247 ], [ 1.3932, 43.648851 ], [ 1.399367, 43.647598 ], [ 1.40002, 43.64714 ], [ 1.400982, 43.645576 ], [ 1.401206, 43.644996 ], [ 1.401232282114221, 43.644537302723506 ], [ 1.398825, 43.64538 ], [ 1.39683, 43.645878 ], [ 1.38866, 43.648267 ], [ 1.38375, 43.650352 ], [ 1.382676, 43.65068 ], [ 1.381841, 43.650901 ], [ 1.381738, 43.650862 ], [ 1.380699, 43.649056 ], [ 1.380647, 43.648975 ], [ 1.380355, 43.647782 ], [ 1.373104, 43.643841 ], [ 1.371962, 43.644147 ], [ 1.37103, 43.64067 ], [ 1.374527, 43.635614 ], [ 1.374811847830522, 43.630905109301693 ], [ 1.374724, 43.631042 ], [ 1.373329, 43.632385 ] ] ], [ [ [ 1.380674, 43.621637 ], [ 1.38016, 43.621728 ], [ 1.379054, 43.622016 ], [ 1.378894, 43.622168 ], [ 1.378864, 43.622197 ], [ 1.378605, 43.622455 ], [ 1.378280861260729, 43.624154728976762 ], [ 1.382557, 43.623559 ], [ 1.383914623848053, 43.622755380063488 ], [ 1.385658878125086, 43.618915904268633 ], [ 1.380674, 43.621637 ] ] ] ] } },
{ "type": "Feature", "properties": { "codgeo": "31069", "value": 480, "isochrone_group": 8.0, "nb_agences": 1 }, "geometry": { "type": "MultiPolygon", "coordinates": [ [ [ [ 1.359948, 43.661152 ], [ 1.359928, 43.661289 ], [ 1.35958, 43.662124 ], [ 1.358952, 43.662711 ], [ 1.358360216880623, 43.663088897564286 ], [ 1.358283, 43.663242 ], [ 1.361495, 43.664868 ], [ 1.362082, 43.664064 ], [ 1.362578, 43.663265 ], [ 1.36387, 43.661288 ], [ 1.364946, 43.659725 ], [ 1.365393, 43.658959 ], [ 1.366017, 43.658063 ], [ 1.366712, 43.657095 ], [ 1.366628, 43.655014 ], [ 1.367036, 43.65351 ], [ 1.370781, 43.649421 ], [ 1.377681, 43.652774 ], [ 1.380618, 43.654855 ], [ 1.387014, 43.653585 ], [ 1.388797, 43.653363 ], [ 1.39742, 43.651656 ], [ 1.399104, 43.651157 ], [ 1.401513, 43.648481 ], [ 1.401259, 43.644071 ], [ 1.401206, 43.644996 ], [ 1.400982, 43.645576 ], [ 1.40002, 43.64714 ], [ 1.399367, 43.647598 ], [ 1.3932, 43.648851 ], [ 1.38573, 43.651247 ], [ 1.384006, 43.652632 ], [ 1.383563, 43.652485 ], [ 1.38023, 43.651525 ], [ 1.380178, 43.651486 ], [ 1.377643, 43.647349 ], [ 1.37673, 43.646314 ], [ 1.368417, 43.648044 ], [ 1.367266, 43.650361 ], [ 1.366824, 43.652265 ], [ 1.366809, 43.652452 ], [ 1.366697, 43.654072 ], [ 1.363106, 43.653825 ], [ 1.363217, 43.652205 ], [ 1.360905, 43.659245 ], [ 1.359847526813397, 43.660863612527137 ], [ 1.359948, 43.661152 ] ] ], [ [ [ 1.373547, 43.629739 ], [ 1.370059, 43.634341 ], [ 1.367206, 43.642749 ], [ 1.372347, 43.635863 ], [ 1.373317, 43.63244 ], [ 1.373329, 43.632385 ], [ 1.374724, 43.631042 ], [ 1.377916, 43.626068 ], [ 1.378141360542321, 43.624886247257749 ], [ 1.375046, 43.628709 ], [ 1.373938, 43.62944 ], [ 1.373547, 43.629739 ] ] ], [ [ [ 1.380879244157571, 43.621524963358979 ], [ 1.383557100670684, 43.620063201658034 ], [ 1.384841132801359, 43.61686204686994 ], [ 1.384798720763718, 43.616830791395309 ], [ 1.380879244157571, 43.621524963358979 ] ] ], [ [ [ 1.402554, 43.636193 ], [ 1.408465044387834, 43.631840246386879 ], [ 1.407765694654235, 43.631517016039396 ], [ 1.402379, 43.635625 ], [ 1.402362450952251, 43.635943844986613 ], [ 1.402554, 43.636193 ] ] ] ] } },
{ "type": "Feature", "properties": { "codgeo": "31069", "value": 540, "isochrone_group": 9.0, "nb_agences": 1 }, "geometry": { "type": "MultiPolygon", "coordinates": [ [ [ [ 1.367589, 43.636076 ], [ 1.363572809363508, 43.642885075846976 ], [ 1.365993, 43.643527 ], [ 1.366218192065948, 43.644367111295111 ], [ 1.366491, 43.643815 ], [ 1.366568451525115, 43.643680437754355 ], [ 1.366566, 43.643679 ], [ 1.366788, 43.643299 ], [ 1.366975708151582, 43.643052015590037 ], [ 1.366967, 43.643045 ], [ 1.367206, 43.642749 ], [ 1.370059, 43.634341 ], [ 1.371552034200314, 43.632371119440982 ], [ 1.369464, 43.633418 ], [ 1.368441, 43.633941 ], [ 1.368365, 43.634014 ], [ 1.367728, 43.634907 ], [ 1.367589, 43.636076 ] ] ], [ [ [ 1.371413, 43.657519 ], [ 1.376902, 43.657602 ], [ 1.377617, 43.657652 ], [ 1.3815, 43.657193 ], [ 1.390374, 43.655963 ], [ 1.390913, 43.656084 ], [ 1.3986, 43.655348 ], [ 1.402009, 43.654508 ], [ 1.404293, 43.651711 ], [ 1.403587, 43.650847 ], [ 1.401259, 43.644071 ], [ 1.401513, 43.648481 ], [ 1.399104, 43.651157 ], [ 1.39742, 43.651656 ], [ 1.388797, 43.653363 ], [ 1.387014, 43.653585 ], [ 1.380618, 43.654855 ], [ 1.377681, 43.652774 ], [ 1.370781, 43.649421 ], [ 1.367036, 43.65351 ], [ 1.366628, 43.655014 ], [ 1.366712, 43.657095 ], [ 1.366017, 43.658063 ], [ 1.365393, 43.658959 ], [ 1.364946, 43.659725 ], [ 1.36387, 43.661288 ], [ 1.362578, 43.663265 ], [ 1.362163493931696, 43.663932722476972 ], [ 1.362114072474832, 43.664032222674166 ], [ 1.36322304030485, 43.666062470693866 ], [ 1.363227, 43.666052 ], [ 1.363849, 43.664667 ], [ 1.369352, 43.657901 ], [ 1.371413, 43.657519 ] ] ] ] } },
{ "type": "Feature", "properties": { "codgeo": "31069", "value": 600, "isochrone_group": 10.0, "nb_agences": 1 }, "geometry": { "type": "MultiPolygon", "coordinates": [ [ [ [ 1.35791, 43.643001 ], [ 1.359844, 43.642639 ], [ 1.360563, 43.642577 ], [ 1.364253, 43.641495 ], [ 1.36442794647591, 43.641435270799128 ], [ 1.367589, 43.636076 ], [ 1.367728, 43.634907 ], [ 1.368365, 43.634014 ], [ 1.368441, 43.633941 ], [ 1.369464, 43.633418 ], [ 1.372048485135553, 43.632122213157487 ], [ 1.372980756655959, 43.630818283109363 ], [ 1.370194, 43.631396 ], [ 1.368795, 43.632731 ], [ 1.363372, 43.636784 ], [ 1.362913, 43.637188 ], [ 1.356742366108673, 43.643218029596127 ], [ 1.35791, 43.643001 ] ] ], [ [ [ 1.376106, 43.661366 ], [ 1.384078, 43.657585 ], [ 1.384396, 43.657524 ], [ 1.390578, 43.657187 ], [ 1.394558, 43.658126 ], [ 1.396116225039603, 43.655585811678264 ], [ 1.390913, 43.656084 ], [ 1.390374, 43.655963 ], [ 1.3815, 43.657193 ], [ 1.377617, 43.657652 ], [ 1.376902, 43.657602 ], [ 1.371413, 43.657519 ], [ 1.369352, 43.657901 ], [ 1.364958247813047, 43.663303167417226 ], [ 1.365978, 43.668799 ], [ 1.366445, 43.669104 ], [ 1.367028285780711, 43.669488371451735 ], [ 1.366347, 43.666456 ], [ 1.373076, 43.6611 ], [ 1.376106, 43.661366 ] ] ], [ [ [ 1.402372555996062, 43.654062787162452 ], [ 1.403641, 43.65385 ], [ 1.40361741347753, 43.652538327278165 ], [ 1.402372555996062, 43.654062787162452 ] ] ] ] } },
{ "type": "Feature", "properties": { "codgeo": "31069", "value": 660, "isochrone_group": 11.0, "nb_agences": 1 }, "geometry": { "type": "MultiPolygon", "coordinates": [ [ [ [ 1.375799423549942, 43.614346634117176 ], [ 1.3758, 43.614347 ], [ 1.375948, 43.614351 ], [ 1.375799423549942, 43.614346634117176 ] ] ], [ [ [ 1.372000340679919, 43.631021531164031 ], [ 1.373444, 43.629604 ], [ 1.374076, 43.628964 ], [ 1.37421, 43.628883 ], [ 1.377916, 43.626068 ], [ 1.371001, 43.631116 ], [ 1.370786241232705, 43.631273223666888 ], [ 1.372000340679919, 43.631021531164031 ] ] ], [ [ [ 1.384396, 43.657524 ], [ 1.384078, 43.657585 ], [ 1.376106, 43.661366 ], [ 1.373076, 43.6611 ], [ 1.368022971731449, 43.665121997236795 ], [ 1.368389, 43.666201 ], [ 1.371349, 43.66825 ], [ 1.371351033003648, 43.668253792572742 ], [ 1.373342, 43.665426 ], [ 1.377443, 43.663357 ], [ 1.381192, 43.661153 ], [ 1.381512, 43.66094 ], [ 1.382027, 43.660454 ], [ 1.385743785586914, 43.657450528026075 ], [ 1.384396, 43.657524 ] ] ], [ [ [ 1.390603, 43.657574 ], [ 1.393339, 43.659264 ], [ 1.39541, 43.660992 ], [ 1.39939, 43.660288 ], [ 1.403641, 43.65385 ], [ 1.39644, 43.655058 ], [ 1.394558, 43.658126 ], [ 1.390578, 43.657187 ], [ 1.388428074466854, 43.657304199111081 ], [ 1.390603, 43.657574 ] ] ] ] } },
{ "type": "Feature", "properties": { "codgeo": "31069", "value": 720, "isochrone_group": 12.0, "nb_agences": 1 }, "geometry": { "type": "MultiPolygon", "coordinates": [ [ [ [ 1.375375122603337, 43.667622702768561 ], [ 1.376911, 43.665256 ], [ 1.378304, 43.663647 ], [ 1.380962, 43.661467 ], [ 1.380993, 43.661384 ], [ 1.381073802273526, 43.661222487273697 ], [ 1.377443, 43.663357 ], [ 1.374036974651609, 43.665075377577615 ], [ 1.374091, 43.665282 ], [ 1.37535, 43.666996 ], [ 1.375403, 43.667452 ], [ 1.375375122603337, 43.667622702768561 ] ] ], [ [ [ 1.393565, 43.662747 ], [ 1.393737, 43.662603 ], [ 1.395596988379349, 43.66095892466857 ], [ 1.39541, 43.660992 ], [ 1.393339, 43.659264 ], [ 1.390603, 43.657574 ], [ 1.386258, 43.657035 ], [ 1.382872252087312, 43.659770965992315 ], [ 1.390485, 43.660883 ], [ 1.390543, 43.66359 ], [ 1.390554, 43.6636 ], [ 1.393565, 43.662747 ] ] ], [ [ [ 1.371142096512735, 43.676136672156758 ], [ 1.370650776192943, 43.676974652503887 ], [ 1.370824, 43.676895 ], [ 1.371142096512735, 43.676136672156758 ] ] ] ] } },
{ "type": "Feature", "properties": { "codgeo": "31069", "value": 780, "isochrone_group": 13.0, "nb_agences": 1 }, "geometry": { "type": "MultiPolygon", "coordinates": [ [ [ [ 1.357261, 43.614066 ], [ 1.3647566811513, 43.611275149595095 ], [ 1.364743489414152, 43.611273324300967 ], [ 1.357261, 43.614066 ] ] ], [ [ [ 1.358868977898593, 43.641302379054117 ], [ 1.358868977898597, 43.641302379054117 ], [ 1.362436, 43.638087 ], [ 1.358868977898593, 43.641302379054117 ] ] ], [ [ [ 1.379956, 43.666398 ], [ 1.379981403254513, 43.666594875222479 ], [ 1.387789, 43.664179 ], [ 1.389219, 43.664641 ], [ 1.393833, 43.666713 ], [ 1.394133, 43.66652 ], [ 1.394845, 43.665771 ], [ 1.395072, 43.665094 ], [ 1.398187, 43.658723 ], [ 1.397915, 43.658984 ], [ 1.396821, 43.659877 ], [ 1.393737, 43.662603 ], [ 1.393565, 43.662747 ], [ 1.390554, 43.6636 ], [ 1.390543, 43.66359 ], [ 1.390485, 43.660883 ], [ 1.381873, 43.659625 ], [ 1.380993, 43.661384 ], [ 1.380962, 43.661467 ], [ 1.378304, 43.663647 ], [ 1.377404267388034, 43.664686246067944 ], [ 1.378078, 43.665115 ], [ 1.379956, 43.666398 ] ] ], [ [ [ 1.403587, 43.650847 ], [ 1.403641, 43.65385 ], [ 1.409144421352825, 43.65124624545458 ], [ 1.408926, 43.649073 ], [ 1.408942, 43.649006 ], [ 1.409590849444463, 43.648314571322793 ], [ 1.409537049322478, 43.647465672052903 ], [ 1.408705762092102, 43.646331339776957 ], [ 1.401384459143358, 43.645615358203422 ], [ 1.402515, 43.649539 ], [ 1.403384, 43.650611 ], [ 1.403587, 43.650847 ] ] ] ] } },
{ "type": "Feature", "properties": { "codgeo": "31069", "value": 840, "isochrone_group": 14.0, "nb_agences": 1 }, "geometry": { "type": "MultiPolygon", "coordinates": [ [ [ [ 1.389219, 43.664641 ], [ 1.387789, 43.664179 ], [ 1.382787674065509, 43.665726541426459 ], [ 1.383849575742528, 43.668372189079633 ], [ 1.386459, 43.666518 ], [ 1.393833, 43.666713 ], [ 1.389219, 43.664641 ] ] ], [ [ [ 1.374113, 43.675231 ], [ 1.379393, 43.670774 ], [ 1.381343166778012, 43.669785417053959 ], [ 1.38135135051435, 43.669773320299313 ], [ 1.381359465391929, 43.669761325327983 ], [ 1.381365852073232, 43.669751884882473 ], [ 1.381379187019142, 43.669732173889599 ], [ 1.381380824144712, 43.669729753979482 ], [ 1.3791, 43.670899 ], [ 1.375544, 43.67266 ], [ 1.374398, 43.673436 ], [ 1.373280812410379, 43.674091235561612 ], [ 1.373275, 43.674096 ], [ 1.371849, 43.674931 ], [ 1.369976371298923, 43.678224548992496 ], [ 1.373837, 43.675225 ], [ 1.374113, 43.675231 ] ] ] ] } },
{ "type": "Feature", "properties": { "codgeo": "31069", "value": 900, "isochrone_group": 15.0, "nb_agences": 1 }, "geometry": { "type": "Polygon", "coordinates": [ [ [ 1.401739873180053, 43.660509559173676 ], [ 1.400053, 43.657123 ], [ 1.39997066645338, 43.657129342752604 ], [ 1.398187, 43.658723 ], [ 1.397915, 43.658984 ], [ 1.401739873180053, 43.660509559173676 ] ] ] } },
{ "type": "Feature", "properties": { "codgeo": "31069", "value": 960, "isochrone_group": 16.0, "nb_agences": 1 }, "geometry": { "type": "Polygon", "coordinates": [ [ [ 1.40150006924818, 43.66750695897916 ], [ 1.397433, 43.659697 ], [ 1.396926, 43.659795 ], [ 1.396922154319447, 43.659794430706349 ], [ 1.396821, 43.659877 ], [ 1.395134, 43.664349 ], [ 1.395072, 43.665094 ], [ 1.394845, 43.665771 ], [ 1.394133, 43.66652 ], [ 1.40150006924818, 43.66750695897916 ] ] ] } }
]
}
