{
"type": "FeatureCollection",
"name": "La_Banque_Postale",
"crs": { "type": "name", "properties": { "name": "urn:ogc:def:crs:OGC:1.3:CRS84" } },
"features": [
{ "type": "Feature", "properties": { "codgeo": "31117", "value": 60, "isochrone_group": 1.0, "nb_agences": 1 }, "geometry": { "type": "Polygon", "coordinates": [ [ [ 1.529659, 43.677147 ], [ 1.529895, 43.67694 ], [ 1.53093, 43.676707 ], [ 1.532205, 43.676792 ], [ 1.532612, 43.676844 ], [ 1.533287, 43.677295 ], [ 1.533443, 43.677651 ], [ 1.533498, 43.677899 ], [ 1.533477, 43.677951 ], [ 1.53279, 43.67934 ], [ 1.532497, 43.679551 ], [ 1.529801, 43.67962 ], [ 1.529669, 43.679285 ], [ 1.529659, 43.677147 ] ] ] } },
{ "type": "Feature", "properties": { "codgeo": "31117", "value": 120, "isochrone_group": 2.0, "nb_agences": 1 }, "geometry": { "type": "Polygon", "coordinates": [ [ [ 1.523126, 43.683454 ], [ 1.523128, 43.683457 ], [ 1.523327, 43.683552 ], [ 1.524973, 43.683486 ], [ 1.526564, 43.682768 ], [ 1.529059, 43.681896 ], [ 1.533998, 43.681532 ], [ 1.538239, 43.679722 ], [ 1.538448, 43.679428 ], [ 1.539035, 43.67726 ], [ 1.538777, 43.677008 ], [ 1.534849, 43.675203 ], [ 1.53415, 43.675065 ], [ 1.530984, 43.674649 ], [ 1.525878, 43.67377 ], [ 1.525827, 43.673764 ], [ 1.525686, 43.674096 ], [ 1.524467, 43.67962 ], [ 1.523138, 43.68336 ], [ 1.523126, 43.683454 ] ], [ [ 1.529895, 43.67694 ], [ 1.53093, 43.676707 ], [ 1.532205, 43.676792 ], [ 1.532612, 43.676844 ], [ 1.533287, 43.677295 ], [ 1.533443, 43.677651 ], [ 1.533498, 43.677899 ], [ 1.533477, 43.677951 ], [ 1.53279, 43.67934 ], [ 1.532497, 43.679551 ], [ 1.529801, 43.67962 ], [ 1.529669, 43.679285 ], [ 1.529659, 43.677147 ], [ 1.529895, 43.67694 ] ] ] } },
{ "type": "Feature", "properties": { "codgeo": "31117", "value": 180, "isochrone_group": 3.0, "nb_agences": 1 }, "geometry": { "type": "Polygon", "coordinates": [ [ [ 1.513264, 43.685289 ], [ 1.520914, 43.689151 ], [ 1.526104, 43.688021 ], [ 1.526315, 43.687729 ], [ 1.533728, 43.683543 ], [ 1.534833, 43.683667 ], [ 1.541051, 43.68561 ], [ 1.541393, 43.685497 ], [ 1.541451, 43.682243 ], [ 1.545044, 43.6759 ], [ 1.545182, 43.673344 ], [ 1.544983, 43.673044 ], [ 1.536502, 43.673655 ], [ 1.533507, 43.672923 ], [ 1.526364, 43.671799 ], [ 1.519114, 43.670879 ], [ 1.517272, 43.670056 ], [ 1.516629, 43.669958 ], [ 1.516208, 43.670231 ], [ 1.516284, 43.670583 ], [ 1.51854, 43.674605 ], [ 1.518628, 43.674954 ], [ 1.518012, 43.683362 ], [ 1.514808, 43.68485 ], [ 1.513504, 43.684905 ], [ 1.51323, 43.684931 ], [ 1.513264, 43.685289 ] ], [ [ 1.524467, 43.67962 ], [ 1.525686, 43.674096 ], [ 1.525827, 43.673764 ], [ 1.525878, 43.67377 ], [ 1.530984, 43.674649 ], [ 1.53415, 43.675065 ], [ 1.534849, 43.675203 ], [ 1.538777, 43.677008 ], [ 1.539035, 43.67726 ], [ 1.538448, 43.679428 ], [ 1.538239, 43.679722 ], [ 1.533998, 43.681532 ], [ 1.529059, 43.681896 ], [ 1.526564, 43.682768 ], [ 1.524973, 43.683486 ], [ 1.523327, 43.683552 ], [ 1.523128, 43.683457 ], [ 1.523126, 43.683454 ], [ 1.523138, 43.68336 ], [ 1.524467, 43.67962 ] ] ] } },
{ "type": "Feature", "properties": { "codgeo": "31117", "value": 240, "isochrone_group": 4.0, "nb_agences": 1 }, "geometry": { "type": "Polygon", "coordinates": [ [ [ 1.506017, 43.687485 ], [ 1.508845, 43.688021 ], [ 1.51622, 43.692463 ], [ 1.516595, 43.693178 ], [ 1.516947, 43.69325 ], [ 1.521275, 43.691332 ], [ 1.527725, 43.68971 ], [ 1.527948, 43.689435 ], [ 1.533041, 43.684368 ], [ 1.537073, 43.688439 ], [ 1.537266, 43.688743 ], [ 1.542563, 43.689658 ], [ 1.548629, 43.691618 ], [ 1.548909, 43.691391 ], [ 1.548332, 43.690132 ], [ 1.548208, 43.689824 ], [ 1.54805, 43.689532 ], [ 1.54794, 43.689369 ], [ 1.547771, 43.6892 ], [ 1.547498, 43.688992 ], [ 1.54723, 43.688843 ], [ 1.546672, 43.688659 ], [ 1.543365, 43.684163 ], [ 1.548997, 43.679477 ], [ 1.549354, 43.679429 ], [ 1.549463, 43.676587 ], [ 1.552357, 43.670923 ], [ 1.553072, 43.668728 ], [ 1.552795, 43.668498 ], [ 1.546672, 43.669857 ], [ 1.537987, 43.671919 ], [ 1.536265, 43.672085 ], [ 1.528433, 43.670552 ], [ 1.522029, 43.666474 ], [ 1.519359, 43.667635 ], [ 1.519015882596565, 43.667681248173743 ], [ 1.51927, 43.668508 ], [ 1.519461, 43.668813 ], [ 1.521159567920003, 43.671138575515378 ], [ 1.526364, 43.671799 ], [ 1.533507, 43.672923 ], [ 1.536502, 43.673655 ], [ 1.544983, 43.673044 ], [ 1.545182, 43.673344 ], [ 1.545044, 43.6759 ], [ 1.541451, 43.682243 ], [ 1.541393, 43.685497 ], [ 1.541051, 43.68561 ], [ 1.534833, 43.683667 ], [ 1.533728, 43.683543 ], [ 1.526315, 43.687729 ], [ 1.526104, 43.688021 ], [ 1.520914, 43.689151 ], [ 1.513264, 43.685289 ], [ 1.51323, 43.684931 ], [ 1.513504, 43.684905 ], [ 1.514808, 43.68485 ], [ 1.518012, 43.683362 ], [ 1.518628, 43.674954 ], [ 1.51854, 43.674605 ], [ 1.517027944309056, 43.671909304969425 ], [ 1.512334, 43.671591 ], [ 1.512244, 43.671567 ], [ 1.511140185102401, 43.671273989929603 ], [ 1.510622, 43.672004 ], [ 1.511462, 43.675166 ], [ 1.510768, 43.682198 ], [ 1.505043, 43.68685 ], [ 1.504642, 43.686963 ], [ 1.504739, 43.687309 ], [ 1.506017, 43.687485 ] ] ] } },
{ "type": "Feature", "properties": { "codgeo": "31117", "value": 300, "isochrone_group": 5.0, "nb_agences": 1 }, "geometry": { "type": "MultiPolygon", "coordinates": [ [ [ [ 1.502596, 43.685993 ], [ 1.498946, 43.687282 ], [ 1.497851, 43.689903 ], [ 1.498077, 43.690183 ], [ 1.505924, 43.691756 ], [ 1.50993, 43.694874 ], [ 1.510223, 43.695084 ], [ 1.514494, 43.696918 ], [ 1.516495, 43.696554 ], [ 1.516563, 43.696541 ], [ 1.522806, 43.692903 ], [ 1.52308, 43.69274 ], [ 1.523354, 43.692576 ], [ 1.523464, 43.692463 ], [ 1.527716, 43.68972 ], [ 1.533625, 43.692188 ], [ 1.533886, 43.692436 ], [ 1.534065, 43.692246 ], [ 1.534244, 43.692057 ], [ 1.534603, 43.691706 ], [ 1.535269, 43.6911 ], [ 1.535583, 43.69084 ], [ 1.542683829010725, 43.689697041355252 ], [ 1.542563, 43.689658 ], [ 1.537266, 43.688743 ], [ 1.537073, 43.688439 ], [ 1.533041, 43.684368 ], [ 1.527948, 43.689435 ], [ 1.527725, 43.68971 ], [ 1.521275, 43.691332 ], [ 1.516947, 43.69325 ], [ 1.516595, 43.693178 ], [ 1.51622, 43.692463 ], [ 1.508845, 43.688021 ], [ 1.506017, 43.687485 ], [ 1.504739, 43.687309 ], [ 1.504642, 43.686963 ], [ 1.505043, 43.68685 ], [ 1.510768, 43.682198 ], [ 1.507218, 43.684714 ], [ 1.502596, 43.685993 ] ] ], [ [ [ 1.553708, 43.695697 ], [ 1.553881, 43.695757 ], [ 1.554053, 43.695817 ], [ 1.555091, 43.694871 ], [ 1.555058, 43.694512 ], [ 1.554256, 43.694461 ], [ 1.550385, 43.692948 ], [ 1.550247, 43.69283 ], [ 1.549941, 43.69255 ], [ 1.549409, 43.691972 ], [ 1.550813, 43.683107 ], [ 1.551121, 43.682921 ], [ 1.551169, 43.68256 ], [ 1.552167, 43.677493 ], [ 1.554038, 43.672719 ], [ 1.557151, 43.667511 ], [ 1.557653, 43.666223 ], [ 1.557538, 43.665882 ], [ 1.550619, 43.66296 ], [ 1.550274, 43.663062 ], [ 1.544248, 43.667979 ], [ 1.543711, 43.66837 ], [ 1.53818, 43.67058 ], [ 1.531214, 43.670017 ], [ 1.525656, 43.663445 ], [ 1.525505, 43.663118 ], [ 1.525151363723986, 43.662935063044443 ], [ 1.524747, 43.665106 ], [ 1.525732156428625, 43.668832131154893 ], [ 1.528433, 43.670552 ], [ 1.536265, 43.672085 ], [ 1.537987, 43.671919 ], [ 1.546672, 43.669857 ], [ 1.552795, 43.668498 ], [ 1.553072, 43.668728 ], [ 1.552357, 43.670923 ], [ 1.549463, 43.676587 ], [ 1.549354, 43.679429 ], [ 1.548997, 43.679477 ], [ 1.543365, 43.684163 ], [ 1.546672, 43.688659 ], [ 1.54723, 43.688843 ], [ 1.547498, 43.688992 ], [ 1.547771, 43.6892 ], [ 1.54794, 43.689369 ], [ 1.54805, 43.689532 ], [ 1.548208, 43.689824 ], [ 1.548332, 43.690132 ], [ 1.548909, 43.691391 ], [ 1.548629, 43.691618 ], [ 1.542775593054329, 43.689726691458375 ], [ 1.545968, 43.693197 ], [ 1.553708, 43.695697 ] ] ], [ [ [ 1.507421, 43.673682 ], [ 1.50758, 43.674004 ], [ 1.510768, 43.682198 ], [ 1.51131106383594, 43.676695370469275 ], [ 1.508069, 43.673762 ], [ 1.507281403863806, 43.673438074119929 ], [ 1.507421, 43.673682 ] ] ] ] } },
{ "type": "Feature", "properties": { "codgeo": "31117", "value": 360, "isochrone_group": 6.0, "nb_agences": 1 }, "geometry": { "type": "MultiPolygon", "coordinates": [ [ [ [ 1.530783, 43.659899 ], [ 1.530614001632196, 43.659568268169565 ], [ 1.529968, 43.661427 ], [ 1.529215, 43.663746 ], [ 1.528414, 43.665406 ], [ 1.529492796982051, 43.667981781174163 ], [ 1.531214, 43.670017 ], [ 1.536255171711346, 43.670424433200338 ], [ 1.531497, 43.663428 ], [ 1.531411, 43.660674 ], [ 1.530783, 43.659899 ] ] ], [ [ [ 1.507703, 43.677307 ], [ 1.507701983282264, 43.677306472049878 ], [ 1.507703401708311, 43.677308320927743 ], [ 1.507703, 43.677307 ] ] ], [ [ [ 1.503581, 43.685579 ], [ 1.499955, 43.685575 ], [ 1.498613, 43.685693 ], [ 1.495714, 43.685157 ], [ 1.493869, 43.684333 ], [ 1.492801, 43.684955 ], [ 1.492401, 43.68518 ], [ 1.492045, 43.68613 ], [ 1.490623, 43.693863 ], [ 1.490907, 43.695271 ], [ 1.491837, 43.695835 ], [ 1.491946, 43.695896 ], [ 1.493115, 43.696461 ], [ 1.501622, 43.695277 ], [ 1.508456, 43.699581 ], [ 1.508886, 43.701664 ], [ 1.510682, 43.702768 ], [ 1.512265, 43.702906 ], [ 1.517345, 43.700381 ], [ 1.518885, 43.699377 ], [ 1.522301, 43.696404 ], [ 1.53033, 43.696839 ], [ 1.531347, 43.698281 ], [ 1.532749, 43.697687 ], [ 1.532966, 43.697474 ], [ 1.534289, 43.696205 ], [ 1.542835, 43.698769 ], [ 1.544667, 43.701868 ], [ 1.546645, 43.700699 ], [ 1.548623, 43.69953 ], [ 1.557546, 43.699683 ], [ 1.559507, 43.699882 ], [ 1.561187, 43.699235 ], [ 1.562868, 43.698593 ], [ 1.565691, 43.69218 ], [ 1.564297, 43.688861 ], [ 1.562437, 43.68931 ], [ 1.561934, 43.689455 ], [ 1.561605, 43.689587 ], [ 1.554467, 43.68482 ], [ 1.555494, 43.681764 ], [ 1.555188, 43.678452 ], [ 1.560422, 43.671864 ], [ 1.56167, 43.670233 ], [ 1.567732, 43.665599 ], [ 1.567161, 43.662045 ], [ 1.56055, 43.659912 ], [ 1.559587, 43.659732 ], [ 1.559077, 43.659907 ], [ 1.550829, 43.660449 ], [ 1.549417, 43.65886 ], [ 1.54881, 43.65824 ], [ 1.548389, 43.657953 ], [ 1.547992, 43.657758 ], [ 1.545845, 43.657111 ], [ 1.545682, 43.657073 ], [ 1.543945, 43.659872 ], [ 1.543991, 43.659934 ], [ 1.546655135857173, 43.666014863423534 ], [ 1.550274, 43.663062 ], [ 1.550619, 43.66296 ], [ 1.557538, 43.665882 ], [ 1.557653, 43.666223 ], [ 1.557151, 43.667511 ], [ 1.554038, 43.672719 ], [ 1.552167, 43.677493 ], [ 1.551169, 43.68256 ], [ 1.551121, 43.682921 ], [ 1.550813, 43.683107 ], [ 1.549409, 43.691972 ], [ 1.549941, 43.69255 ], [ 1.550247, 43.69283 ], [ 1.550385, 43.692948 ], [ 1.554256, 43.694461 ], [ 1.555058, 43.694512 ], [ 1.555091, 43.694871 ], [ 1.554053, 43.695817 ], [ 1.553881, 43.695757 ], [ 1.553708, 43.695697 ], [ 1.545968, 43.693197 ], [ 1.54274, 43.689688 ], [ 1.535583, 43.69084 ], [ 1.535269, 43.6911 ], [ 1.534603, 43.691706 ], [ 1.534244, 43.692057 ], [ 1.534065, 43.692246 ], [ 1.533886, 43.692436 ], [ 1.533625, 43.692188 ], [ 1.527716, 43.68972 ], [ 1.523464, 43.692463 ], [ 1.523354, 43.692576 ], [ 1.52308, 43.69274 ], [ 1.522806, 43.692903 ], [ 1.516563, 43.696541 ], [ 1.516495, 43.696554 ], [ 1.514494, 43.696918 ], [ 1.510223, 43.695084 ], [ 1.50993, 43.694874 ], [ 1.505924, 43.691756 ], [ 1.498077, 43.690183 ], [ 1.497851, 43.689903 ], [ 1.498946, 43.687282 ], [ 1.502596, 43.685993 ], [ 1.507218, 43.684714 ], [ 1.509193452543718, 43.683313932788728 ], [ 1.50913, 43.683054 ], [ 1.509153, 43.682075 ], [ 1.507780962649518, 43.677563362698542 ], [ 1.505006, 43.685177 ], [ 1.503581, 43.685579 ] ] ] ] } },
{ "type": "Feature", "properties": { "codgeo": "31117", "value": 420, "isochrone_group": 7.0, "nb_agences": 1 }, "geometry": { "type": "MultiPolygon", "coordinates": [ [ [ [ 1.490743, 43.685018 ], [ 1.490758, 43.685064 ], [ 1.489617, 43.68797 ], [ 1.487862, 43.688499 ], [ 1.487193, 43.688678 ], [ 1.486326083933956, 43.690131951223819 ], [ 1.486606, 43.692041 ], [ 1.48338, 43.695246 ], [ 1.483230570339273, 43.695323602360041 ], [ 1.48271359714163, 43.696190645713855 ], [ 1.484428, 43.698807 ], [ 1.487075, 43.699113 ], [ 1.48924, 43.698595 ], [ 1.491297, 43.697549 ], [ 1.498418, 43.698221 ], [ 1.500359, 43.699109 ], [ 1.505622, 43.704289 ], [ 1.511158, 43.710533 ], [ 1.512154, 43.710031 ], [ 1.514439, 43.709053 ], [ 1.519984, 43.702104 ], [ 1.527074, 43.700455 ], [ 1.530003, 43.706366 ], [ 1.531837, 43.709464 ], [ 1.534142, 43.708099 ], [ 1.536448, 43.706734 ], [ 1.539055, 43.70519 ], [ 1.544772, 43.702428 ], [ 1.548623, 43.69953 ], [ 1.546645, 43.700699 ], [ 1.544667, 43.701868 ], [ 1.542835, 43.698769 ], [ 1.534289, 43.696205 ], [ 1.532966, 43.697474 ], [ 1.532749, 43.697687 ], [ 1.531347, 43.698281 ], [ 1.53033, 43.696839 ], [ 1.522301, 43.696404 ], [ 1.518885, 43.699377 ], [ 1.517345, 43.700381 ], [ 1.512265, 43.702906 ], [ 1.510682, 43.702768 ], [ 1.508886, 43.701664 ], [ 1.508456, 43.699581 ], [ 1.501622, 43.695277 ], [ 1.493115, 43.696461 ], [ 1.491946, 43.695896 ], [ 1.491837, 43.695835 ], [ 1.490907, 43.695271 ], [ 1.490623, 43.693863 ], [ 1.492045, 43.68613 ], [ 1.492401, 43.68518 ], [ 1.492801, 43.684955 ], [ 1.493869, 43.684333 ], [ 1.495714, 43.685157 ], [ 1.498613, 43.685693 ], [ 1.499955, 43.685575 ], [ 1.494675, 43.682728 ], [ 1.493214, 43.683367 ], [ 1.492196, 43.683783 ], [ 1.490195794785913, 43.683867693373919 ], [ 1.490743, 43.685018 ] ] ], [ [ [ 1.546106, 43.655293 ], [ 1.543252, 43.654849 ], [ 1.54168, 43.654412 ], [ 1.535391, 43.659909 ], [ 1.534481365390985, 43.659348535315964 ], [ 1.534407, 43.659966 ], [ 1.534959, 43.663524 ], [ 1.532657661067254, 43.665134640305965 ], [ 1.536278, 43.670458 ], [ 1.539389, 43.672056 ], [ 1.544372, 43.671536 ], [ 1.546738, 43.666204 ], [ 1.543991, 43.659934 ], [ 1.543945, 43.659872 ], [ 1.545682, 43.657073 ], [ 1.545845, 43.657111 ], [ 1.547992, 43.657758 ], [ 1.548389, 43.657953 ], [ 1.54881, 43.65824 ], [ 1.549417, 43.65886 ], [ 1.550829, 43.660449 ], [ 1.559077, 43.659907 ], [ 1.559587, 43.659732 ], [ 1.560530378441918, 43.659908332419043 ], [ 1.560328, 43.659741 ], [ 1.556695, 43.654989 ], [ 1.554804, 43.653925 ], [ 1.554484, 43.653995 ], [ 1.546106, 43.655293 ] ] ], [ [ [ 1.574163, 43.668133 ], [ 1.577255, 43.663374 ], [ 1.578207, 43.660947 ], [ 1.578149, 43.660801 ], [ 1.577012, 43.659782 ], [ 1.572955, 43.659803 ], [ 1.569549, 43.660969 ], [ 1.561222077282074, 43.660128841755053 ], [ 1.567161, 43.662045 ], [ 1.567732, 43.665599 ], [ 1.567384157950622, 43.665864902351835 ], [ 1.570836, 43.66613 ], [ 1.572176, 43.667251 ], [ 1.572693, 43.667554 ], [ 1.573687, 43.668061 ], [ 1.574163, 43.668133 ] ] ], [ [ [ 1.56167, 43.670233 ], [ 1.560422, 43.671864 ], [ 1.555188, 43.678452 ], [ 1.555347784100839, 43.680181427914967 ], [ 1.557448, 43.677777 ], [ 1.562644, 43.676321 ], [ 1.564985, 43.673585 ], [ 1.566330037537372, 43.666670708025698 ], [ 1.56167, 43.670233 ] ] ], [ [ [ 1.565207, 43.704564 ], [ 1.565235, 43.704554 ], [ 1.565349, 43.704501 ], [ 1.566269, 43.702017 ], [ 1.566069, 43.70178 ], [ 1.565796, 43.69378 ], [ 1.569363, 43.693291 ], [ 1.570731, 43.689754 ], [ 1.569995, 43.68623 ], [ 1.568639, 43.685964 ], [ 1.565247, 43.688321 ], [ 1.562437, 43.68931 ], [ 1.564297, 43.688861 ], [ 1.565691, 43.69218 ], [ 1.562868, 43.698593 ], [ 1.561187, 43.699235 ], [ 1.559507, 43.699882 ], [ 1.557546, 43.699683 ], [ 1.548623, 43.69953 ], [ 1.554363, 43.700986 ], [ 1.559143, 43.702902 ], [ 1.563519, 43.704341 ], [ 1.565078, 43.704596 ], [ 1.565207, 43.704564 ] ] ] ] } },
{ "type": "Feature", "properties": { "codgeo": "31117", "value": 480, "isochrone_group": 8.0, "nb_agences": 1 }, "geometry": { "type": "MultiPolygon", "coordinates": [ [ [ [ 1.487075, 43.699113 ], [ 1.484950228701395, 43.69886737097945 ], [ 1.483442, 43.699698 ], [ 1.483065894423447, 43.699796231046086 ], [ 1.484862, 43.700206 ], [ 1.486765, 43.699328 ], [ 1.487536546064758, 43.699002570040847 ], [ 1.487075, 43.699113 ] ] ], [ [ [ 1.505264, 43.679785 ], [ 1.499955, 43.685575 ], [ 1.50025503671579, 43.685575330983703 ], [ 1.500265, 43.685562 ], [ 1.501117, 43.685182 ], [ 1.506317, 43.679526 ], [ 1.505648500559379, 43.67830706700736 ], [ 1.504217734703892, 43.677563853922493 ], [ 1.505264, 43.679785 ] ] ], [ [ [ 1.555536, 43.649924 ], [ 1.553435, 43.649994 ], [ 1.545593, 43.652249 ], [ 1.545136, 43.654225 ], [ 1.544300710220923, 43.655012149032274 ], [ 1.546106, 43.655293 ], [ 1.554484, 43.653995 ], [ 1.554804, 43.653925 ], [ 1.556695, 43.654989 ], [ 1.560328, 43.659741 ], [ 1.560738, 43.66008 ], [ 1.563527621308724, 43.660361463323518 ], [ 1.559299, 43.65705 ], [ 1.55837, 43.653611 ], [ 1.557631023553031, 43.649762287010759 ], [ 1.557135, 43.650062 ], [ 1.555536, 43.649924 ] ] ], [ [ [ 1.539418784451926, 43.656388451243075 ], [ 1.54107540754464, 43.654940453605832 ], [ 1.540852, 43.654643 ], [ 1.540505, 43.654295 ], [ 1.539522846391818, 43.653509643247148 ], [ 1.538433, 43.65377 ], [ 1.538213095905397, 43.653787447930895 ], [ 1.539418784451926, 43.656388451243075 ] ] ], [ [ [ 1.560807, 43.709253 ], [ 1.566646, 43.708824 ], [ 1.569358, 43.706456 ], [ 1.569633, 43.701932 ], [ 1.569632, 43.701896 ], [ 1.56912, 43.697067 ], [ 1.572044, 43.69111 ], [ 1.572621, 43.690486 ], [ 1.574582, 43.688548 ], [ 1.575038, 43.68807 ], [ 1.575751, 43.687197 ], [ 1.57473, 43.684475 ], [ 1.574489, 43.683825 ], [ 1.574209, 43.68393 ], [ 1.573601, 43.684256 ], [ 1.571242, 43.684982 ], [ 1.568383, 43.67645 ], [ 1.574753, 43.673531 ], [ 1.576101, 43.673921 ], [ 1.576529, 43.67383 ], [ 1.578157, 43.67236 ], [ 1.578329, 43.670502 ], [ 1.578381, 43.669761 ], [ 1.580225, 43.663837 ], [ 1.584703, 43.661976 ], [ 1.585467, 43.661947 ], [ 1.586183, 43.661932 ], [ 1.586389, 43.661931 ], [ 1.58741, 43.661499 ], [ 1.587605, 43.659087 ], [ 1.587039, 43.658554 ], [ 1.586158, 43.658124 ], [ 1.580835, 43.657785 ], [ 1.573751, 43.657528 ], [ 1.573701, 43.657574 ], [ 1.573277, 43.659665 ], [ 1.569959747725106, 43.660828385834556 ], [ 1.572955, 43.659803 ], [ 1.577012, 43.659782 ], [ 1.578149, 43.660801 ], [ 1.578207, 43.660947 ], [ 1.577255, 43.663374 ], [ 1.574163, 43.668133 ], [ 1.573687, 43.668061 ], [ 1.572693, 43.667554 ], [ 1.572176, 43.667251 ], [ 1.570836, 43.66613 ], [ 1.5665, 43.665797 ], [ 1.564985, 43.673585 ], [ 1.562644, 43.676321 ], [ 1.557448, 43.677777 ], [ 1.55508, 43.680488 ], [ 1.553958, 43.683094 ], [ 1.549987, 43.687036 ], [ 1.556756, 43.692171 ], [ 1.558478, 43.691081 ], [ 1.558981, 43.690825 ], [ 1.559823, 43.690445 ], [ 1.560475, 43.690172 ], [ 1.561605, 43.689587 ], [ 1.561934, 43.689455 ], [ 1.562437, 43.68931 ], [ 1.565247, 43.688321 ], [ 1.568639, 43.685964 ], [ 1.569995, 43.68623 ], [ 1.570731, 43.689754 ], [ 1.569363, 43.693291 ], [ 1.565796, 43.69378 ], [ 1.566069, 43.70178 ], [ 1.566269, 43.702017 ], [ 1.565349, 43.704501 ], [ 1.565235, 43.704554 ], [ 1.565207, 43.704564 ], [ 1.565078, 43.704596 ], [ 1.563519, 43.704341 ], [ 1.559143, 43.702902 ], [ 1.557681131971498, 43.702316029468065 ], [ 1.557415, 43.705301 ], [ 1.556276, 43.707927 ], [ 1.556615, 43.709351 ], [ 1.556685, 43.709557 ], [ 1.560807, 43.709253 ] ] ], [ [ [ 1.544772, 43.702428 ], [ 1.539055, 43.70519 ], [ 1.536448, 43.706734 ], [ 1.534142, 43.708099 ], [ 1.533349507723833, 43.708568306705843 ], [ 1.53384, 43.708278 ], [ 1.541496, 43.706148 ], [ 1.544035, 43.704912 ], [ 1.548623, 43.69953 ], [ 1.544772, 43.702428 ] ] ], [ [ [ 1.511522, 43.712972 ], [ 1.511671, 43.713637 ], [ 1.511804, 43.713957 ], [ 1.512064, 43.714454 ], [ 1.512528, 43.715194 ], [ 1.513765, 43.716867 ], [ 1.514005, 43.717114 ], [ 1.52084, 43.715651 ], [ 1.522381, 43.714879 ], [ 1.524195, 43.713898 ], [ 1.525959, 43.712943 ], [ 1.528626, 43.711365 ], [ 1.531233, 43.709821 ], [ 1.531836785933661, 43.709463638398297 ], [ 1.530003, 43.706366 ], [ 1.527074, 43.700455 ], [ 1.519984, 43.702104 ], [ 1.514439, 43.709053 ], [ 1.512154, 43.710031 ], [ 1.511158, 43.710533 ], [ 1.505622, 43.704289 ], [ 1.500359, 43.699109 ], [ 1.498418, 43.698221 ], [ 1.491297, 43.697549 ], [ 1.490270009253446, 43.698071232533231 ], [ 1.497106, 43.702105 ], [ 1.498239, 43.70151 ], [ 1.499297, 43.701201 ], [ 1.505983, 43.706324 ], [ 1.511522, 43.712972 ] ] ] ] } },
{ "type": "Feature", "properties": { "codgeo": "31117", "value": 540, "isochrone_group": 9.0, "nb_agences": 1 }, "geometry": { "type": "MultiPolygon", "coordinates": [ [ [ [ 1.492578, 43.685628 ], [ 1.492648450783267, 43.685609578168489 ], [ 1.490136028618646, 43.677634633645198 ], [ 1.48809, 43.679441 ], [ 1.488924050850718, 43.682510192287161 ], [ 1.492578, 43.685628 ] ] ], [ [ [ 1.50502, 43.707669 ], [ 1.505329, 43.709075 ], [ 1.505661, 43.709808 ], [ 1.504131, 43.717504 ], [ 1.503482, 43.720025 ], [ 1.50398, 43.720627 ], [ 1.504098, 43.720719 ], [ 1.50476, 43.721048 ], [ 1.511937, 43.722759 ], [ 1.515535, 43.722889 ], [ 1.516265, 43.721547 ], [ 1.516445, 43.721112 ], [ 1.51653, 43.720746 ], [ 1.517018, 43.718016 ], [ 1.524195, 43.713898 ], [ 1.522381, 43.714879 ], [ 1.52084, 43.715651 ], [ 1.514005, 43.717114 ], [ 1.513765, 43.716867 ], [ 1.512528, 43.715194 ], [ 1.512064, 43.714454 ], [ 1.511804, 43.713957 ], [ 1.511671, 43.713637 ], [ 1.511522, 43.712972 ], [ 1.505983, 43.706324 ], [ 1.499297, 43.701201 ], [ 1.498239, 43.70151 ], [ 1.497106, 43.702105 ], [ 1.4904232021522, 43.698161628286272 ], [ 1.487478, 43.699421 ], [ 1.485486, 43.7006 ], [ 1.48311164078421, 43.701217345500922 ], [ 1.486452, 43.701382 ], [ 1.493124, 43.703987 ], [ 1.495847, 43.706341 ], [ 1.496529, 43.705553 ], [ 1.50502, 43.707669 ] ] ], [ [ [ 1.591898, 43.653581 ], [ 1.590016, 43.654972 ], [ 1.589765, 43.655191 ], [ 1.582922265276639, 43.657917929349765 ], [ 1.586158, 43.658124 ], [ 1.587039, 43.658554 ], [ 1.587605, 43.659087 ], [ 1.587410776469969, 43.661489395663764 ], [ 1.587629, 43.661403 ], [ 1.592849, 43.660445 ], [ 1.593561, 43.659894 ], [ 1.594257, 43.657132 ], [ 1.594037, 43.656476 ], [ 1.591898, 43.653581 ] ] ], [ [ [ 1.578884996092076, 43.668141871556706 ], [ 1.58301933763633, 43.662675708722382 ], [ 1.580225, 43.663837 ], [ 1.578884996092076, 43.668141871556706 ] ] ], [ [ [ 1.582268, 43.682654 ], [ 1.582612, 43.678483 ], [ 1.582249, 43.676495 ], [ 1.58216, 43.676421 ], [ 1.578381, 43.669761 ], [ 1.578329, 43.670502 ], [ 1.578157, 43.67236 ], [ 1.576529, 43.67383 ], [ 1.576101, 43.673921 ], [ 1.574753, 43.673531 ], [ 1.568383, 43.67645 ], [ 1.571242, 43.684982 ], [ 1.573601, 43.684256 ], [ 1.574209, 43.68393 ], [ 1.574489, 43.683825 ], [ 1.57473, 43.684475 ], [ 1.575751, 43.687197 ], [ 1.575038, 43.68807 ], [ 1.577026, 43.686683 ], [ 1.578087, 43.686258 ], [ 1.578674, 43.685991 ], [ 1.579427, 43.685594 ], [ 1.580066, 43.685266 ], [ 1.582268, 43.682654 ] ] ], [ [ [ 1.560997, 43.714736 ], [ 1.562631, 43.714188 ], [ 1.569147, 43.711055 ], [ 1.571546, 43.712896 ], [ 1.572362, 43.713491 ], [ 1.572929, 43.713848 ], [ 1.573466, 43.714151 ], [ 1.57395, 43.714392 ], [ 1.574446, 43.714618 ], [ 1.575936, 43.711341 ], [ 1.575441, 43.711115 ], [ 1.575081, 43.710933 ], [ 1.574707, 43.710718 ], [ 1.574292, 43.710452 ], [ 1.571782, 43.706731 ], [ 1.575676, 43.699983 ], [ 1.575998, 43.699837 ], [ 1.575264, 43.697981 ], [ 1.574505, 43.696561 ], [ 1.575038, 43.68807 ], [ 1.574582, 43.688548 ], [ 1.572621, 43.690486 ], [ 1.572044, 43.69111 ], [ 1.56912, 43.697067 ], [ 1.569632, 43.701896 ], [ 1.569633, 43.701932 ], [ 1.569358, 43.706456 ], [ 1.566646, 43.708824 ], [ 1.560807, 43.709253 ], [ 1.556685, 43.709557 ], [ 1.556615, 43.709351 ], [ 1.556276, 43.707927 ], [ 1.557415, 43.705301 ], [ 1.557725, 43.701824 ], [ 1.551636, 43.697745 ], [ 1.548623, 43.69953 ], [ 1.544035, 43.704912 ], [ 1.548214, 43.712296 ], [ 1.549788, 43.715534 ], [ 1.55009, 43.715388 ], [ 1.551034, 43.714777 ], [ 1.559453, 43.715013 ], [ 1.560997, 43.714736 ] ] ], [ [ [ 1.531233, 43.709821 ], [ 1.538846, 43.707833 ], [ 1.540803, 43.706525 ], [ 1.541466, 43.70616 ], [ 1.54148360103636, 43.70615144955493 ], [ 1.53384, 43.708278 ], [ 1.531233, 43.709821 ] ] ] ] } },
{ "type": "Feature", "properties": { "codgeo": "31117", "value": 600, "isochrone_group": 10.0, "nb_agences": 1 }, "geometry": { "type": "MultiPolygon", "coordinates": [ [ [ [ 1.478891789170168, 43.7021209169421 ], [ 1.483316, 43.703524 ], [ 1.486165815265936, 43.703188349737637 ], [ 1.484330690009967, 43.701277435427365 ], [ 1.483839554786776, 43.701253226167566 ], [ 1.478891789170168, 43.7021209169421 ] ] ], [ [ [ 1.498963, 43.719343 ], [ 1.497339, 43.720204 ], [ 1.497152, 43.720305 ], [ 1.494873, 43.72132 ], [ 1.494144, 43.721792 ], [ 1.493563, 43.722358 ], [ 1.493244, 43.722684 ], [ 1.492981, 43.724598 ], [ 1.495468, 43.726176 ], [ 1.49861, 43.723597 ], [ 1.498997, 43.7234 ], [ 1.500649, 43.722524 ], [ 1.508071, 43.724267 ], [ 1.511791, 43.72898 ], [ 1.514803, 43.728589 ], [ 1.517597, 43.726319 ], [ 1.517742, 43.723742 ], [ 1.517671, 43.723566 ], [ 1.517018, 43.718016 ], [ 1.51653, 43.720746 ], [ 1.516445, 43.721112 ], [ 1.516265, 43.721547 ], [ 1.515535, 43.722889 ], [ 1.511937, 43.722759 ], [ 1.50476, 43.721048 ], [ 1.504098, 43.720719 ], [ 1.50398, 43.720627 ], [ 1.503482, 43.720025 ], [ 1.504131, 43.717504 ], [ 1.505661, 43.709808 ], [ 1.505329, 43.709075 ], [ 1.50502, 43.707669 ], [ 1.496529, 43.705553 ], [ 1.495847, 43.706341 ], [ 1.493124, 43.703987 ], [ 1.48904092200254, 43.702392812622399 ], [ 1.487763340802633, 43.703161041679309 ], [ 1.488644, 43.703215 ], [ 1.495683, 43.706519 ], [ 1.502293, 43.710543 ], [ 1.501967, 43.716284 ], [ 1.498963, 43.719343 ] ] ], [ [ [ 1.546586, 43.718156 ], [ 1.55009, 43.715388 ], [ 1.549788, 43.715534 ], [ 1.548214, 43.712296 ], [ 1.544035, 43.704912 ], [ 1.541466, 43.70616 ], [ 1.540803, 43.706525 ], [ 1.538846, 43.707833 ], [ 1.531233, 43.709821 ], [ 1.528626, 43.711365 ], [ 1.53589, 43.714622 ], [ 1.536049, 43.718219 ], [ 1.537806, 43.718141 ], [ 1.545032, 43.718334 ], [ 1.546338, 43.718191 ], [ 1.546586, 43.718156 ] ] ], [ [ [ 1.572929, 43.713848 ], [ 1.572362, 43.713491 ], [ 1.571546, 43.712896 ], [ 1.569147, 43.711055 ], [ 1.562631, 43.714188 ], [ 1.560997, 43.714736 ], [ 1.559453, 43.715013 ], [ 1.551034, 43.714777 ], [ 1.559263, 43.717515 ], [ 1.559424, 43.717765 ], [ 1.561018, 43.718173 ], [ 1.56609, 43.717596 ], [ 1.573466, 43.714151 ], [ 1.572929, 43.713848 ] ] ], [ [ [ 1.584881, 43.710914 ], [ 1.584432, 43.710935 ], [ 1.583895, 43.710991 ], [ 1.58336, 43.711126 ], [ 1.575256, 43.707752 ], [ 1.573731940683954, 43.703351904022767 ], [ 1.571782, 43.706731 ], [ 1.574292, 43.710452 ], [ 1.574707, 43.710718 ], [ 1.575081, 43.710933 ], [ 1.575441, 43.711115 ], [ 1.575936, 43.711341 ], [ 1.574446, 43.714618 ], [ 1.57395, 43.714392 ], [ 1.573466, 43.714151 ], [ 1.576162, 43.716862 ], [ 1.57634, 43.717035 ], [ 1.584023, 43.714794 ], [ 1.585049, 43.71451 ], [ 1.585533, 43.712572 ], [ 1.584881, 43.710914 ] ] ], [ [ [ 1.585712, 43.68822 ], [ 1.586189, 43.685582 ], [ 1.585835, 43.683211 ], [ 1.585895, 43.678041 ], [ 1.586623, 43.674552 ], [ 1.586385, 43.67449 ], [ 1.585415, 43.674223 ], [ 1.578242, 43.668992 ], [ 1.578381, 43.669761 ], [ 1.58216, 43.676421 ], [ 1.582249, 43.676495 ], [ 1.582612, 43.678483 ], [ 1.582268, 43.682654 ], [ 1.580066, 43.685266 ], [ 1.579427, 43.685594 ], [ 1.578674, 43.685991 ], [ 1.578087, 43.686258 ], [ 1.577026, 43.686683 ], [ 1.575038, 43.68807 ], [ 1.574505, 43.696561 ], [ 1.575264, 43.697981 ], [ 1.575895908607277, 43.699578850647285 ], [ 1.578978, 43.697918 ], [ 1.580679, 43.696952 ], [ 1.583265, 43.695222 ], [ 1.583631, 43.69507 ], [ 1.58431, 43.693072 ], [ 1.585712, 43.68822 ] ] ], [ [ [ 1.603551, 43.65931 ], [ 1.60088, 43.650978 ], [ 1.6009, 43.650403 ], [ 1.599825, 43.648904 ], [ 1.597652, 43.650239 ], [ 1.590401, 43.65345 ], [ 1.587024, 43.654696 ], [ 1.580192, 43.658633 ], [ 1.580944, 43.658518 ], [ 1.581552, 43.658464 ], [ 1.589765, 43.655191 ], [ 1.590016, 43.654972 ], [ 1.591898, 43.653581 ], [ 1.594037, 43.656476 ], [ 1.594257, 43.657132 ], [ 1.593561, 43.659894 ], [ 1.592849, 43.660445 ], [ 1.587629, 43.661403 ], [ 1.587043, 43.661635 ], [ 1.586573, 43.661775 ], [ 1.586139, 43.661867 ], [ 1.592388, 43.664304 ], [ 1.600723, 43.661546 ], [ 1.603067, 43.661858 ], [ 1.603286, 43.661715 ], [ 1.60366, 43.659464 ], [ 1.603551, 43.65931 ] ] ], [ [ [ 1.564608058485525, 43.647728647511677 ], [ 1.563212, 43.647204 ], [ 1.56214142069469, 43.648521359718224 ], [ 1.564608058485525, 43.647728647511677 ] ] ] ] } },
{ "type": "Feature", "properties": { "codgeo": "31117", "value": 660, "isochrone_group": 11.0, "nb_agences": 1 }, "geometry": { "type": "MultiPolygon", "coordinates": [ [ [ [ 1.477825, 43.702308 ], [ 1.47813351192576, 43.703066540867958 ], [ 1.478705, 43.702835 ], [ 1.479468879243059, 43.702303933831509 ], [ 1.478006, 43.70184 ], [ 1.477990623491306, 43.701843134065463 ], [ 1.477825, 43.702308 ] ] ], [ [ [ 1.490671, 43.729444 ], [ 1.497788, 43.733353 ], [ 1.500715, 43.735449 ], [ 1.508835, 43.733311 ], [ 1.516126, 43.733436 ], [ 1.519637, 43.734234 ], [ 1.520379, 43.732831 ], [ 1.520476, 43.731977 ], [ 1.522758, 43.726364 ], [ 1.526218, 43.723293 ], [ 1.531308, 43.721858 ], [ 1.533681, 43.721663 ], [ 1.538083393976913, 43.718148408945154 ], [ 1.537806, 43.718141 ], [ 1.536049, 43.718219 ], [ 1.53589, 43.714622 ], [ 1.528626, 43.711365 ], [ 1.525959, 43.712943 ], [ 1.524195, 43.713898 ], [ 1.517018, 43.718016 ], [ 1.517671, 43.723566 ], [ 1.517742, 43.723742 ], [ 1.517597, 43.726319 ], [ 1.514803, 43.728589 ], [ 1.511791, 43.72898 ], [ 1.508071, 43.724267 ], [ 1.500649, 43.722524 ], [ 1.498997, 43.7234 ], [ 1.49861, 43.723597 ], [ 1.495468, 43.726176 ], [ 1.492981, 43.724598 ], [ 1.493244, 43.722684 ], [ 1.493563, 43.722358 ], [ 1.494144, 43.721792 ], [ 1.494873, 43.72132 ], [ 1.497152, 43.720305 ], [ 1.497339, 43.720204 ], [ 1.498963, 43.719343 ], [ 1.501967, 43.716284 ], [ 1.502293, 43.710543 ], [ 1.495683, 43.706519 ], [ 1.498516, 43.714407 ], [ 1.49801, 43.717972 ], [ 1.491078, 43.719693 ], [ 1.488219, 43.720006 ], [ 1.483826, 43.725272 ], [ 1.485036, 43.728663 ], [ 1.490671, 43.729444 ] ] ], [ [ [ 1.5657, 43.720318 ], [ 1.571058, 43.719084 ], [ 1.577934, 43.720353 ], [ 1.584796, 43.719723 ], [ 1.587246, 43.72025 ], [ 1.587411, 43.720237 ], [ 1.587663, 43.720038 ], [ 1.588832, 43.718953 ], [ 1.5956, 43.71354 ], [ 1.595702, 43.713425 ], [ 1.595845, 43.71319 ], [ 1.595889, 43.713095 ], [ 1.594364, 43.710529 ], [ 1.590223, 43.708317 ], [ 1.589855, 43.708047 ], [ 1.589016, 43.70777 ], [ 1.588488, 43.70778 ], [ 1.588383, 43.707797 ], [ 1.58217, 43.709472 ], [ 1.576886, 43.704158 ], [ 1.578978, 43.697918 ], [ 1.572971, 43.701155 ], [ 1.575256, 43.707752 ], [ 1.58336, 43.711126 ], [ 1.583895, 43.710991 ], [ 1.584432, 43.710935 ], [ 1.584881, 43.710914 ], [ 1.585533, 43.712572 ], [ 1.585049, 43.71451 ], [ 1.584023, 43.714794 ], [ 1.57634, 43.717035 ], [ 1.576162, 43.716862 ], [ 1.573466, 43.714151 ], [ 1.56609, 43.717596 ], [ 1.561018, 43.718173 ], [ 1.559424, 43.717765 ], [ 1.559263, 43.717515 ], [ 1.551034, 43.714777 ], [ 1.55009, 43.715388 ], [ 1.546586, 43.718156 ], [ 1.546338, 43.718191 ], [ 1.545032, 43.718334 ], [ 1.538187764579291, 43.718151196590625 ], [ 1.543946, 43.721992 ], [ 1.544726, 43.721521 ], [ 1.545479, 43.721114 ], [ 1.55413, 43.7227 ], [ 1.555859, 43.721561 ], [ 1.558267, 43.720446 ], [ 1.5657, 43.720318 ] ] ], [ [ [ 1.59184, 43.677895 ], [ 1.589718, 43.673146 ], [ 1.591681, 43.665161 ], [ 1.599617, 43.663771 ], [ 1.603141, 43.664404 ], [ 1.606566, 43.665961 ], [ 1.608288, 43.666316 ], [ 1.610334, 43.663354 ], [ 1.608598, 43.660903 ], [ 1.603839, 43.65746 ], [ 1.60088, 43.650978 ], [ 1.603551, 43.65931 ], [ 1.60366, 43.659464 ], [ 1.603286, 43.661715 ], [ 1.603067, 43.661858 ], [ 1.600723, 43.661546 ], [ 1.592388, 43.664304 ], [ 1.586139, 43.661867 ], [ 1.585467, 43.661947 ], [ 1.584703, 43.661976 ], [ 1.583541, 43.661986 ], [ 1.578242, 43.668992 ], [ 1.585415, 43.674223 ], [ 1.586385, 43.67449 ], [ 1.586623, 43.674552 ], [ 1.585895, 43.678041 ], [ 1.585835, 43.683211 ], [ 1.586189, 43.685582 ], [ 1.585712, 43.68822 ], [ 1.58431, 43.693072 ], [ 1.583631, 43.69507 ], [ 1.583265, 43.695222 ], [ 1.580679, 43.696952 ], [ 1.578978, 43.697918 ], [ 1.582947, 43.69712 ], [ 1.586025, 43.695253 ], [ 1.587808, 43.69279 ], [ 1.591152, 43.689143 ], [ 1.59528, 43.687146 ], [ 1.594317, 43.683678 ], [ 1.59184, 43.677895 ] ] ], [ [ [ 1.591858998886768, 43.648781003407741 ], [ 1.590324527296572, 43.653478215868667 ], [ 1.590401, 43.65345 ], [ 1.597652, 43.650239 ], [ 1.599825, 43.648904 ], [ 1.6009, 43.650403 ], [ 1.60088, 43.650978 ], [ 1.601926, 43.647253 ], [ 1.600897, 43.643804 ], [ 1.598052, 43.643414 ], [ 1.591522090288385, 43.645196975346991 ], [ 1.592084, 43.645144 ], [ 1.592421, 43.648728 ], [ 1.591858998886768, 43.648781003407741 ] ] ] ] } },
{ "type": "Feature", "properties": { "codgeo": "31117", "value": 720, "isochrone_group": 12.0, "nb_agences": 1 }, "geometry": { "type": "MultiPolygon", "coordinates": [ [ [ [ 1.489755, 43.702954 ], [ 1.489336621171239, 43.702180701144698 ], [ 1.489318894859216, 43.702174141395304 ], [ 1.489755, 43.702954 ] ] ], [ [ [ 1.491703, 43.718705 ], [ 1.488810297740769, 43.718920253301278 ], [ 1.489125273832768, 43.719906782193178 ], [ 1.491078, 43.719693 ], [ 1.49801, 43.717972 ], [ 1.498350889086344, 43.715570281437117 ], [ 1.497694, 43.716109 ], [ 1.491703, 43.718705 ] ] ], [ [ [ 1.486638, 43.732329 ], [ 1.492268, 43.737982 ], [ 1.49326, 43.740031 ], [ 1.493806, 43.740616 ], [ 1.496251, 43.740921 ], [ 1.502162, 43.739907 ], [ 1.506234, 43.740076 ], [ 1.506388, 43.740081 ], [ 1.513931, 43.73863 ], [ 1.517686, 43.73983 ], [ 1.518826, 43.740473 ], [ 1.521577, 43.740543 ], [ 1.523417, 43.740053 ], [ 1.525847, 43.733848 ], [ 1.525177, 43.73018 ], [ 1.526218, 43.723293 ], [ 1.522758, 43.726364 ], [ 1.520476, 43.731977 ], [ 1.520379, 43.732831 ], [ 1.519637, 43.734234 ], [ 1.516126, 43.733436 ], [ 1.508835, 43.733311 ], [ 1.500715, 43.735449 ], [ 1.497788, 43.733353 ], [ 1.490671, 43.729444 ], [ 1.485036, 43.728663 ], [ 1.484953155377449, 43.728430829656986 ], [ 1.484634, 43.728808 ], [ 1.483592, 43.729277 ], [ 1.482019, 43.729758 ], [ 1.481703, 43.729747 ], [ 1.481251, 43.729266 ], [ 1.480892, 43.728713 ], [ 1.479744, 43.726467 ], [ 1.47916255374044, 43.725812748858758 ], [ 1.47825, 43.728118 ], [ 1.478516, 43.729258 ], [ 1.478556, 43.729342 ], [ 1.479052, 43.729983 ], [ 1.480034, 43.731245 ], [ 1.484529, 43.732721 ], [ 1.486638, 43.732329 ] ] ], [ [ [ 1.552243, 43.72607 ], [ 1.552586, 43.725769 ], [ 1.559175, 43.722414 ], [ 1.562696, 43.721664 ], [ 1.568795, 43.724896 ], [ 1.569935, 43.726505 ], [ 1.570474, 43.72722 ], [ 1.571103384012212, 43.727991091163041 ], [ 1.573737, 43.725717 ], [ 1.577794657393911, 43.729632168780526 ], [ 1.583046, 43.722517 ], [ 1.583468, 43.722736 ], [ 1.584128, 43.72317 ], [ 1.587124, 43.721424 ], [ 1.591294, 43.71996 ], [ 1.599118, 43.718193 ], [ 1.599302, 43.718095 ], [ 1.603281, 43.710094 ], [ 1.602808, 43.70777 ], [ 1.60194, 43.707276 ], [ 1.601596, 43.70719 ], [ 1.596033, 43.705534 ], [ 1.594131, 43.697713 ], [ 1.594578, 43.696319 ], [ 1.594721, 43.695825 ], [ 1.594727, 43.695161 ], [ 1.598257, 43.687398 ], [ 1.603905, 43.686862 ], [ 1.603946, 43.686872 ], [ 1.604255, 43.68693 ], [ 1.605053, 43.687038 ], [ 1.606033, 43.686158 ], [ 1.605533, 43.68347 ], [ 1.604169, 43.683078 ], [ 1.601571, 43.682769 ], [ 1.59952, 43.682056 ], [ 1.594403, 43.676199 ], [ 1.599703, 43.670734 ], [ 1.600244, 43.670465 ], [ 1.60172, 43.66981 ], [ 1.602667, 43.66947 ], [ 1.603329, 43.669156 ], [ 1.603954, 43.668718 ], [ 1.612299, 43.67103 ], [ 1.612469, 43.671184 ], [ 1.614876, 43.668506 ], [ 1.617435, 43.661959 ], [ 1.618912, 43.659804 ], [ 1.617071, 43.65671 ], [ 1.615922, 43.657393 ], [ 1.615559, 43.657549 ], [ 1.615038, 43.657742 ], [ 1.614471, 43.658012 ], [ 1.613994, 43.658267 ], [ 1.612395, 43.65918 ], [ 1.612084, 43.65938 ], [ 1.60749817759705, 43.660107310037127 ], [ 1.608598, 43.660903 ], [ 1.610334, 43.663354 ], [ 1.608288, 43.666316 ], [ 1.606566, 43.665961 ], [ 1.603141, 43.664404 ], [ 1.599617, 43.663771 ], [ 1.591681, 43.665161 ], [ 1.589718, 43.673146 ], [ 1.59184, 43.677895 ], [ 1.594317, 43.683678 ], [ 1.59528, 43.687146 ], [ 1.591152, 43.689143 ], [ 1.587808, 43.69279 ], [ 1.586025, 43.695253 ], [ 1.582947, 43.69712 ], [ 1.578978, 43.697918 ], [ 1.576886, 43.704158 ], [ 1.58217, 43.709472 ], [ 1.588383, 43.707797 ], [ 1.588488, 43.70778 ], [ 1.589016, 43.70777 ], [ 1.589855, 43.708047 ], [ 1.590223, 43.708317 ], [ 1.594364, 43.710529 ], [ 1.595889, 43.713095 ], [ 1.595845, 43.71319 ], [ 1.595702, 43.713425 ], [ 1.5956, 43.71354 ], [ 1.588832, 43.718953 ], [ 1.587663, 43.720038 ], [ 1.587411, 43.720237 ], [ 1.587246, 43.72025 ], [ 1.584796, 43.719723 ], [ 1.577934, 43.720353 ], [ 1.571058, 43.719084 ], [ 1.5657, 43.720318 ], [ 1.558267, 43.720446 ], [ 1.555859, 43.721561 ], [ 1.55413, 43.7227 ], [ 1.545479, 43.721114 ], [ 1.544726, 43.721521 ], [ 1.543946, 43.721992 ], [ 1.538129, 43.718112 ], [ 1.533681, 43.721663 ], [ 1.531308, 43.721858 ], [ 1.526218, 43.723293 ], [ 1.533279, 43.723447 ], [ 1.541413, 43.721687 ], [ 1.542765, 43.723715 ], [ 1.543599, 43.724814 ], [ 1.543913, 43.725142 ], [ 1.544737, 43.72579 ], [ 1.550579, 43.727263 ], [ 1.551671, 43.726476 ], [ 1.552243, 43.72607 ] ] ], [ [ [ 1.59531978970655, 43.640933584284568 ], [ 1.595156441825711, 43.641055823580409 ], [ 1.598050231250808, 43.643414482952508 ], [ 1.598052, 43.643414 ], [ 1.600897, 43.643804 ], [ 1.601926, 43.647253 ], [ 1.60088, 43.650978 ], [ 1.60257214891958, 43.654684829772464 ], [ 1.60329, 43.649616 ], [ 1.603422, 43.649362 ], [ 1.609447, 43.645669 ], [ 1.610472, 43.645609 ], [ 1.610264, 43.642015 ], [ 1.607449965340264, 43.641206195762685 ], [ 1.605732, 43.643898 ], [ 1.598915, 43.641652 ], [ 1.59531978970655, 43.640933584284568 ] ] ], [ [ [ 1.591737756812326, 43.649152140798947 ], [ 1.589696, 43.648985 ], [ 1.58694, 43.649257 ], [ 1.580898, 43.650278 ], [ 1.577547, 43.652696 ], [ 1.577766195022378, 43.658781503287955 ], [ 1.580192, 43.658633 ], [ 1.580944, 43.658518 ], [ 1.581552, 43.658464 ], [ 1.583512, 43.658386 ], [ 1.589765, 43.655191 ], [ 1.591737756812326, 43.649152140798947 ] ] ] ] } },
{ "type": "Feature", "properties": { "codgeo": "31117", "value": 780, "isochrone_group": 13.0, "nb_agences": 1 }, "geometry": { "type": "MultiPolygon", "coordinates": [ [ [ [ 1.499584, 43.714559 ], [ 1.495683, 43.706519 ], [ 1.4941, 43.708316 ], [ 1.493245, 43.707735 ], [ 1.493042948848758, 43.707625347387591 ], [ 1.490609, 43.714732 ], [ 1.492700763266811, 43.718272652572082 ], [ 1.497694, 43.716109 ], [ 1.499584, 43.714559 ] ] ], [ [ [ 1.475469, 43.731059 ], [ 1.475592928378113, 43.728098200673507 ], [ 1.473639011748618, 43.73119521310997 ], [ 1.475446, 43.731072 ], [ 1.475537143632869, 43.731149931823204 ], [ 1.475469, 43.731059 ] ] ], [ [ [ 1.489102, 43.73751 ], [ 1.490484485330878, 43.736191199214126 ], [ 1.489863728682295, 43.735567906614747 ], [ 1.489326, 43.735938 ], [ 1.487759, 43.736103 ], [ 1.485221, 43.735534 ], [ 1.477628, 43.73394 ], [ 1.477180581211137, 43.733342958068214 ], [ 1.477455, 43.73406 ], [ 1.476807966070701, 43.735275711456161 ], [ 1.481837, 43.736482 ], [ 1.483778, 43.741271 ], [ 1.483778019483586, 43.741271050896522 ], [ 1.484811, 43.740876 ], [ 1.489102, 43.73751 ] ] ], [ [ [ 1.519804, 43.746396 ], [ 1.521508, 43.747636 ], [ 1.524703, 43.745978 ], [ 1.523932, 43.744491 ], [ 1.523391, 43.740476 ], [ 1.529451, 43.736706 ], [ 1.530001, 43.736714 ], [ 1.530658, 43.736609 ], [ 1.531164, 43.73648 ], [ 1.531464, 43.735919 ], [ 1.537905, 43.730052 ], [ 1.539022, 43.729534 ], [ 1.539481, 43.729285 ], [ 1.540346, 43.728695 ], [ 1.542082, 43.727377 ], [ 1.550359, 43.727848 ], [ 1.553863, 43.727021 ], [ 1.5603, 43.72507 ], [ 1.568614928279107, 43.724899688343676 ], [ 1.568505516640354, 43.724742596127513 ], [ 1.562696, 43.721664 ], [ 1.559175, 43.722414 ], [ 1.552586, 43.725769 ], [ 1.552243, 43.72607 ], [ 1.551671, 43.726476 ], [ 1.550579, 43.727263 ], [ 1.544737, 43.72579 ], [ 1.543913, 43.725142 ], [ 1.543599, 43.724814 ], [ 1.542765, 43.723715 ], [ 1.541413, 43.721687 ], [ 1.533279, 43.723447 ], [ 1.526218, 43.723293 ], [ 1.525177, 43.73018 ], [ 1.525847, 43.733848 ], [ 1.523417, 43.740053 ], [ 1.521577, 43.740543 ], [ 1.518826, 43.740473 ], [ 1.517686, 43.73983 ], [ 1.513931, 43.73863 ], [ 1.506388, 43.740081 ], [ 1.506234, 43.740076 ], [ 1.502162, 43.739907 ], [ 1.496251, 43.740921 ], [ 1.496138662785458, 43.740906986564241 ], [ 1.494367, 43.742902 ], [ 1.494156, 43.743202 ], [ 1.492635, 43.745175 ], [ 1.490375786041543, 43.747658227908779 ], [ 1.4908, 43.747727 ], [ 1.497287, 43.744343 ], [ 1.505089, 43.741969 ], [ 1.505637, 43.741923 ], [ 1.513293, 43.740524 ], [ 1.51472, 43.741666 ], [ 1.519804, 43.746396 ] ] ], [ [ [ 1.597719, 43.740681 ], [ 1.596272, 43.740214 ], [ 1.594061, 43.739425 ], [ 1.592427, 43.738661 ], [ 1.591683, 43.738407 ], [ 1.59081, 43.738086 ], [ 1.589989, 43.73771 ], [ 1.588782, 43.737129 ], [ 1.587882, 43.736675 ], [ 1.586141, 43.735728 ], [ 1.583778, 43.72748 ], [ 1.588325, 43.724874 ], [ 1.590736, 43.724367 ], [ 1.591607, 43.724205 ], [ 1.596055, 43.720446 ], [ 1.601596, 43.719939 ], [ 1.602194, 43.719999 ], [ 1.602483, 43.719983 ], [ 1.603528, 43.719971 ], [ 1.604747, 43.715144 ], [ 1.606541, 43.7076 ], [ 1.608307, 43.706567 ], [ 1.608656, 43.706438 ], [ 1.609929, 43.70586 ], [ 1.608441, 43.702582 ], [ 1.603441, 43.70029 ], [ 1.602908, 43.700232 ], [ 1.60257, 43.700212 ], [ 1.602152, 43.700168 ], [ 1.595925, 43.696395 ], [ 1.595619, 43.696057 ], [ 1.594835144033506, 43.694923175033388 ], [ 1.594727, 43.695161 ], [ 1.594721, 43.695825 ], [ 1.594578, 43.696319 ], [ 1.594131, 43.697713 ], [ 1.596033, 43.705534 ], [ 1.601596, 43.70719 ], [ 1.60194, 43.707276 ], [ 1.602808, 43.70777 ], [ 1.603281, 43.710094 ], [ 1.599302, 43.718095 ], [ 1.599118, 43.718193 ], [ 1.591294, 43.71996 ], [ 1.587124, 43.721424 ], [ 1.584128, 43.72317 ], [ 1.583468, 43.722736 ], [ 1.583046, 43.722517 ], [ 1.577735, 43.729713 ], [ 1.578962, 43.730776 ], [ 1.578894034542937, 43.730854461607414 ], [ 1.579945, 43.731707 ], [ 1.581089, 43.732579 ], [ 1.581819, 43.733106 ], [ 1.582592, 43.733641 ], [ 1.58394, 43.734524 ], [ 1.585708, 43.735595 ], [ 1.587142, 43.736392 ], [ 1.588773, 43.737235 ], [ 1.589944, 43.737796 ], [ 1.591449, 43.738472 ], [ 1.592686, 43.738991 ], [ 1.594843, 43.739816 ], [ 1.59627, 43.740313 ], [ 1.597693277224252, 43.740760824483445 ], [ 1.597719, 43.740681 ] ] ], [ [ [ 1.621946, 43.670362 ], [ 1.621942, 43.670359 ], [ 1.617122, 43.667701 ], [ 1.619062, 43.659714 ], [ 1.623459, 43.659 ], [ 1.627028, 43.656939 ], [ 1.627601, 43.656736 ], [ 1.626399, 43.653343 ], [ 1.625825, 43.653546 ], [ 1.624993, 43.653816 ], [ 1.623386, 43.654304 ], [ 1.623232, 43.654336 ], [ 1.616766, 43.649143 ], [ 1.617902834019053, 43.645822196681905 ], [ 1.617247, 43.64577 ], [ 1.613518, 43.646915 ], [ 1.613507, 43.646912 ], [ 1.6084502470051, 43.646702735598303 ], [ 1.603296, 43.649605 ], [ 1.603288948684221, 43.6496234234627 ], [ 1.602161, 43.657588 ], [ 1.605514, 43.660422 ], [ 1.612084, 43.65938 ], [ 1.612395, 43.65918 ], [ 1.613994, 43.658267 ], [ 1.614471, 43.658012 ], [ 1.615038, 43.657742 ], [ 1.615559, 43.657549 ], [ 1.615922, 43.657393 ], [ 1.617071, 43.65671 ], [ 1.618912, 43.659804 ], [ 1.617435, 43.661959 ], [ 1.614876, 43.668506 ], [ 1.612469, 43.671184 ], [ 1.612299, 43.67103 ], [ 1.603954, 43.668718 ], [ 1.603329, 43.669156 ], [ 1.602667, 43.66947 ], [ 1.60172, 43.66981 ], [ 1.600244, 43.670465 ], [ 1.599703, 43.670734 ], [ 1.594403, 43.676199 ], [ 1.59952, 43.682056 ], [ 1.601571, 43.682769 ], [ 1.604169, 43.683078 ], [ 1.605533, 43.68347 ], [ 1.606033, 43.686158 ], [ 1.605054995990848, 43.687036207681672 ], [ 1.605302, 43.687069 ], [ 1.606804, 43.687348 ], [ 1.609158, 43.688597 ], [ 1.611957, 43.690449 ], [ 1.613943, 43.687447 ], [ 1.613873, 43.682924 ], [ 1.613936, 43.679888 ], [ 1.619719, 43.67319 ], [ 1.621861, 43.673247 ], [ 1.621865, 43.673244 ], [ 1.621946, 43.670362 ] ] ] ] } },
{ "type": "Feature", "properties": { "codgeo": "31117", "value": 840, "isochrone_group": 14.0, "nb_agences": 1 }, "geometry": { "type": "MultiPolygon", "coordinates": [ [ [ [ 1.504789, 43.743604 ], [ 1.511977, 43.743047 ], [ 1.515586, 43.744806 ], [ 1.518602, 43.751488 ], [ 1.518565, 43.752249 ], [ 1.518643, 43.753062 ], [ 1.522227, 43.752717 ], [ 1.526307, 43.752314 ], [ 1.529127, 43.750077 ], [ 1.528551, 43.749351 ], [ 1.528093, 43.748913 ], [ 1.527651, 43.748604 ], [ 1.526793, 43.748183 ], [ 1.525536, 43.747296 ], [ 1.529654, 43.739339 ], [ 1.53577, 43.737761 ], [ 1.536397, 43.737827 ], [ 1.536758, 43.737806 ], [ 1.536938, 43.737779 ], [ 1.539481, 43.729285 ], [ 1.539022, 43.729534 ], [ 1.537905, 43.730052 ], [ 1.531464, 43.735919 ], [ 1.531164, 43.73648 ], [ 1.530658, 43.736609 ], [ 1.530001, 43.736714 ], [ 1.529451, 43.736706 ], [ 1.523391, 43.740476 ], [ 1.523932, 43.744491 ], [ 1.524703, 43.745978 ], [ 1.521508, 43.747636 ], [ 1.519804, 43.746396 ], [ 1.51472, 43.741666 ], [ 1.513293, 43.740524 ], [ 1.505637, 43.741923 ], [ 1.505089, 43.741969 ], [ 1.501174093061153, 43.743160231616621 ], [ 1.499424, 43.744855 ], [ 1.499128, 43.744987 ], [ 1.497479, 43.744548 ], [ 1.493419, 43.752366 ], [ 1.493686407887249, 43.752719025324829 ], [ 1.493716, 43.752625 ], [ 1.500302, 43.748293 ], [ 1.500419, 43.748249 ], [ 1.500807, 43.748054 ], [ 1.502478, 43.747258 ], [ 1.504789, 43.743604 ] ] ], [ [ [ 1.542082, 43.727377 ], [ 1.540346, 43.728695 ], [ 1.542128538021014, 43.727379648230993 ], [ 1.542082, 43.727377 ] ] ], [ [ [ 1.5603, 43.72507 ], [ 1.55698671581284, 43.726074228281668 ], [ 1.561179, 43.726365 ], [ 1.561631, 43.727009 ], [ 1.570320875465303, 43.727216346344356 ], [ 1.570273, 43.727157 ], [ 1.569281, 43.725847 ], [ 1.568822, 43.725197 ], [ 1.568614928279107, 43.724899688343676 ], [ 1.5603, 43.72507 ] ] ], [ [ [ 1.602976, 43.742146 ], [ 1.600387, 43.74145 ], [ 1.599314809943103, 43.741149762022175 ], [ 1.599558, 43.741319 ], [ 1.602345, 43.742076 ], [ 1.605162, 43.742841 ], [ 1.605451995994961, 43.742812577523566 ], [ 1.602976, 43.742146 ] ] ], [ [ [ 1.591959, 43.731764 ], [ 1.594837, 43.724784 ], [ 1.598087, 43.723235 ], [ 1.602767, 43.722085 ], [ 1.603217, 43.722039 ], [ 1.603748, 43.721908 ], [ 1.604276, 43.721715 ], [ 1.604966, 43.721437 ], [ 1.609106, 43.718923 ], [ 1.610434, 43.718441 ], [ 1.612791, 43.717693 ], [ 1.614601, 43.716662 ], [ 1.613331, 43.714134 ], [ 1.613095, 43.713392 ], [ 1.612904, 43.705038 ], [ 1.616408, 43.704212 ], [ 1.617836, 43.702208 ], [ 1.615708, 43.699304 ], [ 1.621929, 43.693061 ], [ 1.622985, 43.691406 ], [ 1.623004, 43.691043 ], [ 1.622866, 43.689585 ], [ 1.622566, 43.689504 ], [ 1.621761, 43.689241 ], [ 1.620466, 43.680688 ], [ 1.622441, 43.679873 ], [ 1.625552, 43.677967 ], [ 1.627344, 43.676726 ], [ 1.62821, 43.676174 ], [ 1.629311, 43.667901 ], [ 1.627899, 43.664589 ], [ 1.627371, 43.660159 ], [ 1.6308, 43.654916 ], [ 1.632576, 43.653943 ], [ 1.633013, 43.653717 ], [ 1.634395, 43.652934 ], [ 1.634899, 43.652634 ], [ 1.635653, 43.651628 ], [ 1.635784, 43.650857 ], [ 1.635671, 43.650227 ], [ 1.635627, 43.650108 ], [ 1.632806, 43.649703 ], [ 1.632558, 43.649794 ], [ 1.632175, 43.649983 ], [ 1.629958032423648, 43.649681376348617 ], [ 1.622352, 43.652437 ], [ 1.622096, 43.652352 ], [ 1.621522, 43.652123 ], [ 1.620526, 43.651702 ], [ 1.619507584360128, 43.651344832289226 ], [ 1.623232, 43.654336 ], [ 1.623386, 43.654304 ], [ 1.624993, 43.653816 ], [ 1.625825, 43.653546 ], [ 1.626399, 43.653343 ], [ 1.627601, 43.656736 ], [ 1.627028, 43.656939 ], [ 1.623459, 43.659 ], [ 1.619062, 43.659714 ], [ 1.617122, 43.667701 ], [ 1.621942, 43.670359 ], [ 1.621946, 43.670362 ], [ 1.621865, 43.673244 ], [ 1.621861, 43.673247 ], [ 1.619719, 43.67319 ], [ 1.613936, 43.679888 ], [ 1.613873, 43.682924 ], [ 1.613943, 43.687447 ], [ 1.611957, 43.690449 ], [ 1.609158, 43.688597 ], [ 1.606804, 43.687348 ], [ 1.605302, 43.687069 ], [ 1.604255, 43.68693 ], [ 1.603946, 43.686872 ], [ 1.603905, 43.686862 ], [ 1.600882, 43.686302 ], [ 1.597683, 43.686637 ], [ 1.594358, 43.694233 ], [ 1.595619, 43.696057 ], [ 1.595925, 43.696395 ], [ 1.602152, 43.700168 ], [ 1.60257, 43.700212 ], [ 1.602908, 43.700232 ], [ 1.603441, 43.70029 ], [ 1.608441, 43.702582 ], [ 1.609929, 43.70586 ], [ 1.608656, 43.706438 ], [ 1.608307, 43.706567 ], [ 1.606541, 43.7076 ], [ 1.604747, 43.715144 ], [ 1.603528, 43.719971 ], [ 1.602483, 43.719983 ], [ 1.602194, 43.719999 ], [ 1.601596, 43.719939 ], [ 1.596055, 43.720446 ], [ 1.591607, 43.724205 ], [ 1.590736, 43.724367 ], [ 1.588325, 43.724874 ], [ 1.583778, 43.72748 ], [ 1.585864942466196, 43.73476442719474 ], [ 1.591514, 43.73547 ], [ 1.591717, 43.735473 ], [ 1.593277, 43.736948 ], [ 1.5938468848401, 43.737344587587337 ], [ 1.591959, 43.731764 ] ] ] ] } },
{ "type": "Feature", "properties": { "codgeo": "31117", "value": 900, "isochrone_group": 15.0, "nb_agences": 1 }, "geometry": { "type": "MultiPolygon", "coordinates": [ [ [ [ 1.534318, 43.751486 ], [ 1.534608, 43.751357 ], [ 1.535185, 43.751065 ], [ 1.533559, 43.747853 ], [ 1.533538, 43.739968 ], [ 1.537125, 43.737741 ], [ 1.538588, 43.737505 ], [ 1.539105, 43.737485 ], [ 1.539894, 43.737517 ], [ 1.540402, 43.737445 ], [ 1.541766, 43.737092 ], [ 1.542027, 43.737044 ], [ 1.542738, 43.736928 ], [ 1.543712, 43.73662 ], [ 1.542626, 43.733187 ], [ 1.544396216349588, 43.726665526542504 ], [ 1.54327, 43.726751 ], [ 1.542269, 43.727276 ], [ 1.540346, 43.728695 ], [ 1.539481, 43.729285 ], [ 1.536938, 43.737779 ], [ 1.536758, 43.737806 ], [ 1.536397, 43.737827 ], [ 1.53577, 43.737761 ], [ 1.529654, 43.739339 ], [ 1.525536, 43.747296 ], [ 1.526793, 43.748183 ], [ 1.527651, 43.748604 ], [ 1.528093, 43.748913 ], [ 1.528551, 43.749351 ], [ 1.529127, 43.750077 ], [ 1.526307, 43.752314 ], [ 1.522227, 43.752717 ], [ 1.518643, 43.753062 ], [ 1.518565, 43.752249 ], [ 1.518602, 43.751488 ], [ 1.515586, 43.744806 ], [ 1.511977, 43.743047 ], [ 1.504789, 43.743604 ], [ 1.502848070745531, 43.746672868669798 ], [ 1.502517, 43.747258 ], [ 1.502945715293828, 43.747742164042755 ], [ 1.503132, 43.747534 ], [ 1.509939, 43.744504 ], [ 1.515574, 43.748286 ], [ 1.515085, 43.754622 ], [ 1.516806, 43.757784 ], [ 1.518962, 43.758366 ], [ 1.52254, 43.757964 ], [ 1.529379, 43.752708 ], [ 1.53312, 43.751838 ], [ 1.533645, 43.751719 ], [ 1.534148, 43.751556 ], [ 1.534318, 43.751486 ] ] ], [ [ [ 1.561631, 43.727009 ], [ 1.561179, 43.726365 ], [ 1.552586, 43.725769 ], [ 1.552243, 43.72607 ], [ 1.560406, 43.729189 ], [ 1.562901, 43.730955 ], [ 1.569635, 43.735075 ], [ 1.571403, 43.738211 ], [ 1.572695, 43.737483 ], [ 1.573141, 43.737215 ], [ 1.581196517140426, 43.737029781905179 ], [ 1.58054, 43.736599 ], [ 1.579711, 43.736024 ], [ 1.578905, 43.735441 ], [ 1.577675, 43.734501 ], [ 1.576572, 43.733605 ], [ 1.575906, 43.733043 ], [ 1.575261, 43.732468 ], [ 1.574595, 43.731858 ], [ 1.573226, 43.730516 ], [ 1.572331, 43.72957 ], [ 1.571767, 43.728945 ], [ 1.57097, 43.728021 ], [ 1.570320875465303, 43.727216346344356 ], [ 1.561631, 43.727009 ] ] ], [ [ [ 1.586428, 43.740445 ], [ 1.589825, 43.742816 ], [ 1.58946, 43.74251 ], [ 1.586426, 43.740423 ], [ 1.58637012069864, 43.740400175311528 ], [ 1.586428, 43.740445 ] ] ], [ [ [ 1.624562, 43.697733 ], [ 1.631153, 43.695687 ], [ 1.632703, 43.692438 ], [ 1.630897, 43.691169 ], [ 1.629948, 43.690469 ], [ 1.628885, 43.69062 ], [ 1.626825, 43.690532 ], [ 1.626478, 43.690454 ], [ 1.621775, 43.686065 ], [ 1.623951, 43.681492 ], [ 1.624245, 43.681216 ], [ 1.624805, 43.680094 ], [ 1.628235, 43.676158 ], [ 1.631088, 43.675022 ], [ 1.633641, 43.674179 ], [ 1.636458, 43.67396 ], [ 1.636706, 43.67383 ], [ 1.637141, 43.673335 ], [ 1.637562, 43.672676 ], [ 1.63757, 43.672642 ], [ 1.637517, 43.672247 ], [ 1.637302, 43.671602 ], [ 1.636778, 43.670982 ], [ 1.636681, 43.662706 ], [ 1.638083, 43.661454 ], [ 1.640108, 43.653349 ], [ 1.639621, 43.650175 ], [ 1.638887, 43.648787 ], [ 1.637365790446555, 43.647472415826428 ], [ 1.635335, 43.649086 ], [ 1.63632, 43.650856 ], [ 1.635069, 43.652496 ], [ 1.634929430053709, 43.6525933996896 ], [ 1.634899, 43.652634 ], [ 1.634710294436887, 43.652746324739972 ], [ 1.634556, 43.652854 ], [ 1.634397, 43.652933 ], [ 1.6343966810236, 43.652932999390714 ], [ 1.634395, 43.652934 ], [ 1.633013, 43.653717 ], [ 1.632576, 43.653943 ], [ 1.6308, 43.654916 ], [ 1.627371, 43.660159 ], [ 1.627899, 43.664589 ], [ 1.629311, 43.667901 ], [ 1.62821, 43.676174 ], [ 1.627344, 43.676726 ], [ 1.625552, 43.677967 ], [ 1.622441, 43.679873 ], [ 1.620466, 43.680688 ], [ 1.621761, 43.689241 ], [ 1.622566, 43.689504 ], [ 1.622866, 43.689585 ], [ 1.623004, 43.691043 ], [ 1.622985, 43.691406 ], [ 1.621929, 43.693061 ], [ 1.615708, 43.699304 ], [ 1.617836, 43.702208 ], [ 1.616408, 43.704212 ], [ 1.612904, 43.705038 ], [ 1.613095, 43.713392 ], [ 1.613331, 43.714134 ], [ 1.614601, 43.716662 ], [ 1.612791, 43.717693 ], [ 1.610434, 43.718441 ], [ 1.609106, 43.718923 ], [ 1.604966, 43.721437 ], [ 1.604276, 43.721715 ], [ 1.603748, 43.721908 ], [ 1.603217, 43.722039 ], [ 1.602767, 43.722085 ], [ 1.598087, 43.723235 ], [ 1.594837, 43.724784 ], [ 1.592144182722592, 43.731314877205101 ], [ 1.59512744283504, 43.732952424414478 ], [ 1.597688, 43.729135 ], [ 1.600388, 43.726753 ], [ 1.606631, 43.723573 ], [ 1.608205, 43.723122 ], [ 1.609806, 43.722827 ], [ 1.610854, 43.722213 ], [ 1.611153, 43.721988 ], [ 1.616983, 43.719417 ], [ 1.619685, 43.717038 ], [ 1.625869, 43.712273 ], [ 1.624563, 43.708918 ], [ 1.622944, 43.700178 ], [ 1.624562, 43.697733 ] ] ] ] } },
{ "type": "Feature", "properties": { "codgeo": "31117", "value": 960, "isochrone_group": 16.0, "nb_agences": 1 }, "geometry": { "type": "MultiPolygon", "coordinates": [ [ [ [ 1.529379, 43.752708 ], [ 1.52254, 43.757964 ], [ 1.520193686878774, 43.758227615951576 ], [ 1.519663, 43.759839 ], [ 1.519354, 43.759766 ], [ 1.518581, 43.759493 ], [ 1.515635, 43.759523 ], [ 1.522532, 43.762186 ], [ 1.526051, 43.765328 ], [ 1.526724, 43.765998 ], [ 1.529475, 43.763677 ], [ 1.527844, 43.760233 ], [ 1.531361189570247, 43.752247025681342 ], [ 1.529379, 43.752708 ] ] ], [ [ [ 1.575567167034091, 43.737159215867457 ], [ 1.573141, 43.737215 ], [ 1.572695, 43.737483 ], [ 1.571403, 43.738211 ], [ 1.569635, 43.735075 ], [ 1.562901, 43.730955 ], [ 1.560406, 43.729189 ], [ 1.552243, 43.72607 ], [ 1.551671, 43.726476 ], [ 1.550533, 43.727326 ], [ 1.549756, 43.727857 ], [ 1.544201120226636, 43.727384260265545 ], [ 1.542626, 43.733187 ], [ 1.543712, 43.73662 ], [ 1.542738, 43.736928 ], [ 1.542027, 43.737044 ], [ 1.541766, 43.737092 ], [ 1.540402, 43.737445 ], [ 1.539894, 43.737517 ], [ 1.539105, 43.737485 ], [ 1.538588, 43.737505 ], [ 1.537125, 43.737741 ], [ 1.533538, 43.739968 ], [ 1.533559, 43.747853 ], [ 1.535185, 43.751065 ], [ 1.534608, 43.751357 ], [ 1.534318, 43.751486 ], [ 1.534148, 43.751556 ], [ 1.533645, 43.751719 ], [ 1.53312, 43.751838 ], [ 1.536512, 43.752504 ], [ 1.543253, 43.749851 ], [ 1.544215, 43.748925 ], [ 1.544503, 43.746475 ], [ 1.544962, 43.739187 ], [ 1.548279, 43.737333 ], [ 1.54795, 43.733748 ], [ 1.555903, 43.731348 ], [ 1.55777, 43.734425 ], [ 1.563783, 43.740212 ], [ 1.564385, 43.742539 ], [ 1.564673, 43.742784 ], [ 1.565852, 43.743158 ], [ 1.568196, 43.743709 ], [ 1.568208, 43.743703 ], [ 1.569026, 43.741213 ], [ 1.575567167034091, 43.737159215867457 ] ] ], [ [ [ 1.577161220899616, 43.737122564263991 ], [ 1.580382992772633, 43.738220859655947 ], [ 1.579543576392607, 43.737067787477109 ], [ 1.577161220899616, 43.737122564263991 ] ] ], [ [ [ 1.606631, 43.723573 ], [ 1.600388, 43.726753 ], [ 1.597688, 43.729135 ], [ 1.597189255732881, 43.729878556350918 ], [ 1.598848, 43.730641 ], [ 1.59897, 43.730817 ], [ 1.599322, 43.731338 ], [ 1.601718729669941, 43.733880285387748 ], [ 1.604044, 43.731603 ], [ 1.605381, 43.731017 ], [ 1.60547, 43.730903 ], [ 1.609374, 43.727402 ], [ 1.614452, 43.725138 ], [ 1.61651, 43.724491 ], [ 1.620505, 43.723402 ], [ 1.622683, 43.720536 ], [ 1.625142949490479, 43.712832448686598 ], [ 1.619685, 43.717038 ], [ 1.616983, 43.719417 ], [ 1.611153, 43.721988 ], [ 1.610854, 43.722213 ], [ 1.609806, 43.722827 ], [ 1.608205, 43.723122 ], [ 1.606631, 43.723573 ] ] ], [ [ [ 1.637348, 43.666923 ], [ 1.643258, 43.661177 ], [ 1.644517, 43.661197 ], [ 1.644778, 43.661217 ], [ 1.645257, 43.661108 ], [ 1.645605, 43.660856 ], [ 1.647138, 43.658514 ], [ 1.648584, 43.654359 ], [ 1.648121, 43.651835 ], [ 1.646206, 43.647779 ], [ 1.643521, 43.645381 ], [ 1.642184236552557, 43.64474540067944 ], [ 1.64174, 43.650757 ], [ 1.641818, 43.650819 ], [ 1.642418, 43.652124 ], [ 1.642419, 43.652185 ], [ 1.641276, 43.653717 ], [ 1.641186, 43.65375 ], [ 1.640028444103627, 43.653667420019808 ], [ 1.638083, 43.661454 ], [ 1.636681, 43.662706 ], [ 1.636778, 43.670982 ], [ 1.637302, 43.671602 ], [ 1.637517, 43.672247 ], [ 1.63757, 43.672642 ], [ 1.637562, 43.672676 ], [ 1.637141, 43.673335 ], [ 1.636706, 43.67383 ], [ 1.636458, 43.67396 ], [ 1.633641, 43.674179 ], [ 1.631088, 43.675022 ], [ 1.628235, 43.676158 ], [ 1.624805, 43.680094 ], [ 1.624245, 43.681216 ], [ 1.623951, 43.681492 ], [ 1.621775, 43.686065 ], [ 1.626478, 43.690454 ], [ 1.626825, 43.690532 ], [ 1.628885, 43.69062 ], [ 1.629948, 43.690469 ], [ 1.630897, 43.691169 ], [ 1.632703, 43.692438 ], [ 1.631153, 43.695687 ], [ 1.624562, 43.697733 ], [ 1.622944, 43.700178 ], [ 1.624563, 43.708918 ], [ 1.625869, 43.712273 ], [ 1.625637442903606, 43.712451423280143 ], [ 1.62748, 43.712149 ], [ 1.629403, 43.712026 ], [ 1.630756, 43.711886 ], [ 1.632458, 43.711631 ], [ 1.633472, 43.711441 ], [ 1.633958, 43.711291 ], [ 1.636948720601479, 43.710747232617912 ], [ 1.636936, 43.710691 ], [ 1.636492, 43.707119 ], [ 1.637564948546349, 43.706727475405813 ], [ 1.639224, 43.700406 ], [ 1.641811, 43.69637 ], [ 1.641833, 43.69277 ], [ 1.639502, 43.689843 ], [ 1.638205, 43.686485 ], [ 1.638873, 43.67973 ], [ 1.63865, 43.676196 ], [ 1.638517, 43.67537 ], [ 1.637348, 43.666923 ] ] ], [ [ [ 1.509939, 43.744504 ], [ 1.503215075948593, 43.747497020401909 ], [ 1.503181, 43.747577 ], [ 1.509159, 43.751569 ], [ 1.515193415060422, 43.753217260075985 ], [ 1.515574, 43.748286 ], [ 1.509939, 43.744504 ] ] ] ] } },
{ "type": "Feature", "properties": { "codgeo": "31117", "value": 1020, "isochrone_group": 17.0, "nb_agences": 1 }, "geometry": { "type": "MultiPolygon", "coordinates": [ [ [ [ 1.576171, 43.736785 ], [ 1.569026, 43.741213 ], [ 1.568208, 43.743703 ], [ 1.568196, 43.743709 ], [ 1.565852, 43.743158 ], [ 1.564673, 43.742784 ], [ 1.564385, 43.742539 ], [ 1.563783, 43.740212 ], [ 1.55777, 43.734425 ], [ 1.555903, 43.731348 ], [ 1.54795, 43.733748 ], [ 1.548279, 43.737333 ], [ 1.544962, 43.739187 ], [ 1.544503, 43.746475 ], [ 1.544215, 43.748925 ], [ 1.543253, 43.749851 ], [ 1.536512, 43.752504 ], [ 1.53312, 43.751838 ], [ 1.531444, 43.752059 ], [ 1.527844, 43.760233 ], [ 1.529475, 43.763677 ], [ 1.526724, 43.765998 ], [ 1.526605190729063, 43.765879720339491 ], [ 1.526637038999038, 43.76950662033822 ], [ 1.529122, 43.770168 ], [ 1.530758, 43.770301 ], [ 1.534387, 43.770106 ], [ 1.536956, 43.769563 ], [ 1.536601, 43.765981 ], [ 1.534107, 43.761841 ], [ 1.537698, 43.753699 ], [ 1.546297, 43.753401 ], [ 1.550705, 43.754732 ], [ 1.552494, 43.751608 ], [ 1.55852, 43.746106 ], [ 1.560926, 43.747592 ], [ 1.568587, 43.746402 ], [ 1.571276, 43.748796 ], [ 1.571795, 43.748213 ], [ 1.573032, 43.746811 ], [ 1.573275, 43.746539 ], [ 1.57447, 43.745247 ], [ 1.579703364402308, 43.742361487431403 ], [ 1.579178315290121, 43.737810187584799 ], [ 1.576171, 43.736785 ] ] ], [ [ [ 1.59036739846409, 43.743483864275404 ], [ 1.590131, 43.742999 ], [ 1.588720529313083, 43.743483606347581 ], [ 1.59036739846409, 43.743483864275404 ] ] ], [ [ [ 1.620505, 43.723402 ], [ 1.61651, 43.724491 ], [ 1.614452, 43.725138 ], [ 1.609374, 43.727402 ], [ 1.60547, 43.730903 ], [ 1.605381, 43.731017 ], [ 1.604044, 43.731603 ], [ 1.60296958238819, 43.732655245623242 ], [ 1.603968, 43.735251 ], [ 1.605749, 43.735315 ], [ 1.607508315048086, 43.735217910960024 ], [ 1.609217, 43.73371 ], [ 1.60924, 43.73011 ], [ 1.617294, 43.726664 ], [ 1.618258, 43.727129 ], [ 1.623974250612052, 43.726483076564953 ], [ 1.62285, 43.725164 ], [ 1.623302, 43.723272 ], [ 1.623345, 43.723125 ], [ 1.6248354643121, 43.722161346346844 ], [ 1.624832, 43.722159 ], [ 1.623806, 43.72133 ], [ 1.625244, 43.712516 ], [ 1.622683, 43.720536 ], [ 1.620505, 43.723402 ] ] ], [ [ [ 1.650407, 43.692559 ], [ 1.650074, 43.692101 ], [ 1.649618, 43.691732 ], [ 1.649102, 43.691481 ], [ 1.648748, 43.691382 ], [ 1.648368, 43.691313 ], [ 1.642501, 43.687252 ], [ 1.64655, 43.680972 ], [ 1.647842, 43.679376 ], [ 1.648049, 43.677699 ], [ 1.647738, 43.675777 ], [ 1.649012, 43.667027 ], [ 1.650605, 43.664974 ], [ 1.651026, 43.661134 ], [ 1.654503, 43.656421 ], [ 1.65469295685896, 43.65628500317257 ], [ 1.65305, 43.65629 ], [ 1.652366, 43.656273 ], [ 1.65136, 43.656261 ], [ 1.649471, 43.656261 ], [ 1.647977678337856, 43.656101231332094 ], [ 1.647138, 43.658514 ], [ 1.645605, 43.660856 ], [ 1.645257, 43.661108 ], [ 1.644778, 43.661217 ], [ 1.644517, 43.661197 ], [ 1.643258, 43.661177 ], [ 1.637348, 43.666923 ], [ 1.638517, 43.67537 ], [ 1.63865, 43.676196 ], [ 1.638873, 43.67973 ], [ 1.638205, 43.686485 ], [ 1.639502, 43.689843 ], [ 1.641833, 43.69277 ], [ 1.641811, 43.69637 ], [ 1.640868196291304, 43.697840875828476 ], [ 1.646416, 43.696725 ], [ 1.646861, 43.696248 ], [ 1.647232, 43.695966 ], [ 1.651705976161513, 43.695052434044001 ], [ 1.651735, 43.694956 ], [ 1.651762, 43.694769 ], [ 1.650407, 43.692559 ] ] ], [ [ [ 1.629403, 43.712026 ], [ 1.629352866266615, 43.712029206681855 ], [ 1.629335, 43.712031 ], [ 1.628375952316113, 43.712091692597561 ], [ 1.62748, 43.712149 ], [ 1.625244, 43.712516 ], [ 1.631696, 43.71531 ], [ 1.633421, 43.714351 ], [ 1.634569094749313, 43.713626108726636 ], [ 1.634311, 43.712748 ], [ 1.63067, 43.711897 ], [ 1.629992006966444, 43.711965053233335 ], [ 1.629403, 43.712026 ] ] ] ] } },
{ "type": "Feature", "properties": { "codgeo": "31117", "value": 1080, "isochrone_group": 18.0, "nb_agences": 1 }, "geometry": { "type": "MultiPolygon", "coordinates": [ [ [ [ 1.57447, 43.745247 ], [ 1.573275, 43.746539 ], [ 1.573032, 43.746811 ], [ 1.571795, 43.748213 ], [ 1.571276, 43.748796 ], [ 1.568587, 43.746402 ], [ 1.560926, 43.747592 ], [ 1.55852, 43.746106 ], [ 1.552494, 43.751608 ], [ 1.550705, 43.754732 ], [ 1.546297, 43.753401 ], [ 1.537698, 43.753699 ], [ 1.534107, 43.761841 ], [ 1.536601, 43.765981 ], [ 1.536613133884657, 43.766103432605185 ], [ 1.54160449043626, 43.770534846506372 ], [ 1.544093, 43.769167 ], [ 1.546885, 43.767756 ], [ 1.547012, 43.767332 ], [ 1.546384, 43.76639 ], [ 1.548674, 43.758206 ], [ 1.551192, 43.757314 ], [ 1.554331, 43.757472 ], [ 1.556204, 43.757764 ], [ 1.556282, 43.757723 ], [ 1.556334, 43.757696 ], [ 1.556456, 43.757632 ], [ 1.557527, 43.756443 ], [ 1.561169094658244, 43.755932439163701 ], [ 1.560756, 43.753871 ], [ 1.561348, 43.753445 ], [ 1.564502, 43.750405 ], [ 1.565654, 43.749328 ], [ 1.56676, 43.748195 ], [ 1.569336, 43.750709 ], [ 1.57036551536761, 43.752355289196572 ], [ 1.574457, 43.750304 ], [ 1.575302, 43.750373 ], [ 1.575859, 43.750216 ], [ 1.579944699574523, 43.747062558185114 ], [ 1.579925, 43.747067 ], [ 1.579633, 43.747107 ], [ 1.579146, 43.74354 ], [ 1.579120494398467, 43.742682863623209 ], [ 1.57447, 43.745247 ] ] ], [ [ [ 1.590329369420307, 43.743483858319408 ], [ 1.592596, 43.749024 ], [ 1.592715201188558, 43.749093687438744 ], [ 1.592854, 43.748584 ], [ 1.590367398464088, 43.743483864275404 ], [ 1.590329369420307, 43.743483858319408 ] ] ], [ [ [ 1.61278060231607, 43.728595111052741 ], [ 1.609785896595607, 43.72987643162795 ], [ 1.610694, 43.73025 ], [ 1.611129, 43.730348 ], [ 1.611161021526862, 43.730364647796456 ], [ 1.61278060231607, 43.728595111052741 ] ] ], [ [ [ 1.652814, 43.692491 ], [ 1.652122, 43.691001 ], [ 1.656158, 43.684023 ], [ 1.657082, 43.683571 ], [ 1.656991, 43.681631 ], [ 1.656416, 43.680875 ], [ 1.656176, 43.68064 ], [ 1.65429, 43.67211 ], [ 1.656401, 43.669194 ], [ 1.655904, 43.668761 ], [ 1.655476, 43.668402 ], [ 1.654995, 43.668103 ], [ 1.65194, 43.663999 ], [ 1.650887859658144, 43.662393997417404 ], [ 1.650605, 43.664974 ], [ 1.649012, 43.667027 ], [ 1.647738, 43.675777 ], [ 1.648049, 43.677699 ], [ 1.647842, 43.679376 ], [ 1.64655, 43.680972 ], [ 1.642501, 43.687252 ], [ 1.647178725441133, 43.69048981200212 ], [ 1.647988, 43.690159 ], [ 1.652828362446098, 43.692922308608537 ], [ 1.652814, 43.692491 ] ] ], [ [ [ 1.618289730714578, 43.727125414500783 ], [ 1.618414, 43.727183 ], [ 1.619272, 43.727812 ], [ 1.62303020489012, 43.728150692784084 ], [ 1.622002943748216, 43.726705829797361 ], [ 1.618289730714578, 43.727125414500783 ] ] ] ] } },
{ "type": "Feature", "properties": { "codgeo": "31117", "value": 1140, "isochrone_group": 19.0, "nb_agences": 1 }, "geometry": { "type": "MultiPolygon", "coordinates": [ [ [ [ 1.547856, 43.765572 ], [ 1.55099005813279, 43.767675628175375 ], [ 1.550477, 43.763598 ], [ 1.557086, 43.761339 ], [ 1.560966927280928, 43.757965962006729 ], [ 1.559791, 43.757562 ], [ 1.557257, 43.757538 ], [ 1.556411, 43.757656 ], [ 1.556410838290976, 43.757655691388351 ], [ 1.556334, 43.757696 ], [ 1.556282, 43.757723 ], [ 1.556204, 43.757764 ], [ 1.554331, 43.757472 ], [ 1.551192, 43.757314 ], [ 1.548674, 43.758206 ], [ 1.546697293876978, 43.765270350616092 ], [ 1.547856, 43.765572 ] ] ], [ [ [ 1.573403462622972, 43.759285184439527 ], [ 1.573366, 43.759041 ], [ 1.572647467476697, 43.759065108940277 ], [ 1.573403462622972, 43.759285184439527 ] ] ], [ [ [ 1.655476, 43.668402 ], [ 1.65553675571464, 43.668452960984951 ], [ 1.656355, 43.664917 ], [ 1.656147259432494, 43.664107096362848 ], [ 1.652809397648945, 43.665166924042964 ], [ 1.654995, 43.668103 ], [ 1.655476, 43.668402 ] ] ], [ [ [ 1.655104, 43.67206 ], [ 1.655085585466727, 43.671011029265294 ], [ 1.65429, 43.67211 ], [ 1.654500304727431, 43.673061166132001 ], [ 1.655104, 43.67206 ] ] ], [ [ [ 1.656338115526977, 43.693832117513516 ], [ 1.655851, 43.69144 ], [ 1.656982175376813, 43.690471369441759 ], [ 1.65437692167858, 43.688015188606641 ], [ 1.654056, 43.692066 ], [ 1.656285701777646, 43.69397764000334 ], [ 1.656338115526977, 43.693832117513516 ] ] ] ] } },
{ "type": "Feature", "properties": { "codgeo": "31117", "value": 1200, "isochrone_group": 20.0, "nb_agences": 1 }, "geometry": { "type": "MultiPolygon", "coordinates": [ [ [ [ 1.572647467476695, 43.759065108940277 ], [ 1.56669, 43.759265 ], [ 1.572647467476697, 43.759065108940277 ], [ 1.572647467476695, 43.759065108940277 ] ] ], [ [ [ 1.553130343422507, 43.762691069633632 ], [ 1.556047, 43.767533 ], [ 1.557465857081051, 43.768910099859504 ], [ 1.560335, 43.764256 ], [ 1.562252, 43.763997 ], [ 1.563664, 43.762887 ], [ 1.56669, 43.759265 ], [ 1.565926, 43.759676 ], [ 1.565355, 43.760029 ], [ 1.564605, 43.76042 ], [ 1.563949, 43.760731 ], [ 1.557543856134626, 43.760941062593368 ], [ 1.557086, 43.761339 ], [ 1.553130343422507, 43.762691069633632 ] ] ] ] } }
]
}
