{
"type": "FeatureCollection",
"name": "Credit_Agricole",
"crs": { "type": "name", "properties": { "name": "urn:ogc:def:crs:OGC:1.3:CRS84" } },
"features": [
{ "type": "Feature", "properties": { "codgeo": "81081", "value": 60, "isochrone_group": 1.0, "nb_agences": 1 }, "geometry": { "type": "Polygon", "coordinates": [ [ [ 2.130049, 43.483607 ], [ 2.130147, 43.483261 ], [ 2.132633, 43.482749 ], [ 2.135778, 43.483636 ], [ 2.140161, 43.48308 ], [ 2.140467, 43.48327 ], [ 2.141684, 43.486459 ], [ 2.141681, 43.486628 ], [ 2.141517, 43.486948 ], [ 2.139811, 43.487979 ], [ 2.137911, 43.487274 ], [ 2.137208, 43.486231 ], [ 2.131631, 43.48631 ], [ 2.131422, 43.486466 ], [ 2.131213, 43.486623 ], [ 2.130997, 43.486335 ], [ 2.130049, 43.483607 ] ] ] } },
{ "type": "Feature", "properties": { "codgeo": "81081", "value": 120, "isochrone_group": 2.0, "nb_agences": 1 }, "geometry": { "type": "Polygon", "coordinates": [ [ [ 2.136594, 43.486743 ], [ 2.137785, 43.489205 ], [ 2.137848, 43.491966 ], [ 2.138073, 43.492247 ], [ 2.141711, 43.493005 ], [ 2.146955, 43.492817 ], [ 2.147652, 43.491883 ], [ 2.147416, 43.491611 ], [ 2.14653, 43.491056 ], [ 2.145864, 43.485143 ], [ 2.14542, 43.480348 ], [ 2.145206, 43.480058 ], [ 2.139761, 43.479099 ], [ 2.139168, 43.477704 ], [ 2.139026, 43.477534 ], [ 2.138884, 43.477364 ], [ 2.138714, 43.477256 ], [ 2.138512, 43.477237 ], [ 2.138386, 43.477272 ], [ 2.132699, 43.478651 ], [ 2.132339, 43.478658 ], [ 2.126893, 43.479799 ], [ 2.121407, 43.481026 ], [ 2.120844, 43.481006 ], [ 2.120265, 43.480986 ], [ 2.119987, 43.481002 ], [ 2.119697, 43.48102 ], [ 2.119294, 43.48107 ], [ 2.118892, 43.48112 ], [ 2.118936, 43.481477 ], [ 2.119339, 43.481427 ], [ 2.120008, 43.481361 ], [ 2.120831, 43.481366 ], [ 2.121394, 43.481386 ], [ 2.12168, 43.481415 ], [ 2.121977, 43.481444 ], [ 2.122226, 43.481483 ], [ 2.122484, 43.481523 ], [ 2.122844, 43.481604 ], [ 2.123216, 43.481688 ], [ 2.12429, 43.481989 ], [ 2.125305, 43.487381 ], [ 2.125186, 43.487721 ], [ 2.1252, 43.490946 ], [ 2.125338, 43.491278 ], [ 2.125721, 43.491119 ], [ 2.126103, 43.49096 ], [ 2.12628, 43.490866 ], [ 2.130547, 43.489644 ], [ 2.130624, 43.489292 ], [ 2.131631, 43.48631 ], [ 2.136594, 43.486743 ] ], [ [ 2.131422, 43.486466 ], [ 2.131213, 43.486623 ], [ 2.130997, 43.486335 ], [ 2.130049, 43.483607 ], [ 2.130147, 43.483261 ], [ 2.132633, 43.482749 ], [ 2.135778, 43.483636 ], [ 2.140161, 43.48308 ], [ 2.140467, 43.48327 ], [ 2.141684, 43.486459 ], [ 2.141681, 43.486628 ], [ 2.141517, 43.486948 ], [ 2.139811, 43.487979 ], [ 2.137911, 43.487274 ], [ 2.137208, 43.486231 ], [ 2.131631, 43.48631 ], [ 2.131422, 43.486466 ] ] ] } },
{ "type": "Feature", "properties": { "codgeo": "81081", "value": 180, "isochrone_group": 3.0, "nb_agences": 1 }, "geometry": { "type": "MultiPolygon", "coordinates": [ [ [ [ 2.131059, 43.475272 ], [ 2.128746, 43.475298 ], [ 2.124207, 43.476668 ], [ 2.11758, 43.47934 ], [ 2.109803, 43.478903 ], [ 2.109574, 43.479181 ], [ 2.112462, 43.483459 ], [ 2.117226, 43.48303 ], [ 2.120101, 43.488735 ], [ 2.11952, 43.494752 ], [ 2.119651, 43.495088 ], [ 2.120001, 43.494951 ], [ 2.121144, 43.494545 ], [ 2.121529, 43.494422 ], [ 2.122922, 43.493874 ], [ 2.123185, 43.493632 ], [ 2.12402, 43.492648 ], [ 2.126103, 43.49096 ], [ 2.125721, 43.491119 ], [ 2.125338, 43.491278 ], [ 2.1252, 43.490946 ], [ 2.125186, 43.487721 ], [ 2.125305, 43.487381 ], [ 2.12429, 43.481989 ], [ 2.123216, 43.481688 ], [ 2.122844, 43.481604 ], [ 2.122484, 43.481523 ], [ 2.122226, 43.481483 ], [ 2.121977, 43.481444 ], [ 2.12168, 43.481415 ], [ 2.121394, 43.481386 ], [ 2.120831, 43.481366 ], [ 2.120008, 43.481361 ], [ 2.119339, 43.481427 ], [ 2.118936, 43.481477 ], [ 2.118892, 43.48112 ], [ 2.119294, 43.48107 ], [ 2.119697, 43.48102 ], [ 2.119987, 43.481002 ], [ 2.120265, 43.480986 ], [ 2.120844, 43.481006 ], [ 2.121407, 43.481026 ], [ 2.126893, 43.479799 ], [ 2.132339, 43.478658 ], [ 2.132699, 43.478651 ], [ 2.138386, 43.477272 ], [ 2.131059, 43.475272 ] ] ], [ [ [ 2.131108, 43.489789 ], [ 2.134392, 43.495013 ], [ 2.134495, 43.495396 ], [ 2.134802, 43.495583 ], [ 2.141121, 43.49705 ], [ 2.142166, 43.496752 ], [ 2.149876, 43.496263 ], [ 2.152628, 43.497709 ], [ 2.152982, 43.497774 ], [ 2.153465, 43.497177 ], [ 2.153551, 43.496828 ], [ 2.152455, 43.49523 ], [ 2.15227, 43.486253 ], [ 2.15227, 43.485893 ], [ 2.147188, 43.478861 ], [ 2.14764, 43.477114 ], [ 2.14764, 43.476939 ], [ 2.147597, 43.476722 ], [ 2.147061, 43.476633 ], [ 2.140561, 43.476163 ], [ 2.140226, 43.476293 ], [ 2.138386, 43.477272 ], [ 2.138512, 43.477237 ], [ 2.138714, 43.477256 ], [ 2.138884, 43.477364 ], [ 2.139026, 43.477534 ], [ 2.139168, 43.477704 ], [ 2.139761, 43.479099 ], [ 2.145206, 43.480058 ], [ 2.14542, 43.480348 ], [ 2.145864, 43.485143 ], [ 2.14653, 43.491056 ], [ 2.147416, 43.491611 ], [ 2.147652, 43.491883 ], [ 2.146955, 43.492817 ], [ 2.141711, 43.493005 ], [ 2.138073, 43.492247 ], [ 2.137848, 43.491966 ], [ 2.137785, 43.489205 ], [ 2.136594, 43.486743 ], [ 2.131631, 43.48631 ], [ 2.130624, 43.489292 ], [ 2.130547, 43.489644 ], [ 2.126977239770389, 43.49066632177184 ], [ 2.131108, 43.489789 ] ] ] ] } },
{ "type": "Feature", "properties": { "codgeo": "81081", "value": 240, "isochrone_group": 4.0, "nb_agences": 1 }, "geometry": { "type": "MultiPolygon", "coordinates": [ [ [ [ 2.112964, 43.475563 ], [ 2.112878, 43.475214 ], [ 2.109289, 43.47388 ], [ 2.104425, 43.472023 ], [ 2.104137, 43.472238 ], [ 2.104473, 43.472964 ], [ 2.104676, 43.473262 ], [ 2.105324, 43.481934 ], [ 2.104897, 43.482308 ], [ 2.105134, 43.482579 ], [ 2.108577, 43.486774 ], [ 2.10888, 43.486968 ], [ 2.109799, 43.486072 ], [ 2.116962, 43.488055 ], [ 2.115146, 43.493712 ], [ 2.114967, 43.494024 ], [ 2.111454, 43.498462 ], [ 2.111516, 43.498817 ], [ 2.112565, 43.499604 ], [ 2.112894, 43.499751 ], [ 2.120701, 43.497322 ], [ 2.120887, 43.497014 ], [ 2.122922, 43.493874 ], [ 2.121529, 43.494422 ], [ 2.121144, 43.494545 ], [ 2.120001, 43.494951 ], [ 2.119651, 43.495088 ], [ 2.11952, 43.494752 ], [ 2.120101, 43.488735 ], [ 2.117226, 43.48303 ], [ 2.112462, 43.483459 ], [ 2.109574, 43.479181 ], [ 2.109803, 43.478903 ], [ 2.11758, 43.47934 ], [ 2.112964, 43.475563 ] ] ], [ [ [ 2.146977, 43.47475 ], [ 2.146621, 43.474652 ], [ 2.146316, 43.474682 ], [ 2.138136, 43.471221 ], [ 2.13184, 43.472627 ], [ 2.127419, 43.473082 ], [ 2.127127, 43.473293 ], [ 2.124159, 43.47497 ], [ 2.124098, 43.475002 ], [ 2.122845, 43.475896 ], [ 2.11758, 43.47934 ], [ 2.124207, 43.476668 ], [ 2.128746, 43.475298 ], [ 2.131059, 43.475272 ], [ 2.138386, 43.477272 ], [ 2.140226, 43.476293 ], [ 2.140561, 43.476163 ], [ 2.147061, 43.476633 ], [ 2.147373152397546, 43.476684831274973 ], [ 2.146977, 43.47475 ] ] ], [ [ [ 2.133126, 43.494493 ], [ 2.131685, 43.498318 ], [ 2.131436, 43.49856 ], [ 2.131175, 43.498813 ], [ 2.131049, 43.49896 ], [ 2.130922, 43.499106 ], [ 2.131195, 43.499341 ], [ 2.138609, 43.501701 ], [ 2.138964, 43.501763 ], [ 2.139601, 43.500271 ], [ 2.140023, 43.499601 ], [ 2.144792, 43.497411 ], [ 2.148838, 43.50326 ], [ 2.149115, 43.503489 ], [ 2.154652, 43.505138 ], [ 2.154938, 43.50492 ], [ 2.155926, 43.496515 ], [ 2.159498, 43.495241 ], [ 2.159621, 43.494902 ], [ 2.157413, 43.486976 ], [ 2.153632, 43.485815 ], [ 2.153518, 43.485757 ], [ 2.153001, 43.485604 ], [ 2.152518, 43.485429 ], [ 2.147188, 43.478861 ], [ 2.15227, 43.485893 ], [ 2.15227, 43.486253 ], [ 2.152455, 43.49523 ], [ 2.153551, 43.496828 ], [ 2.153465, 43.497177 ], [ 2.152982, 43.497774 ], [ 2.152628, 43.497709 ], [ 2.149876, 43.496263 ], [ 2.142166, 43.496752 ], [ 2.141121, 43.49705 ], [ 2.134802, 43.495583 ], [ 2.134495, 43.495396 ], [ 2.134392, 43.495013 ], [ 2.131108, 43.489789 ], [ 2.126442, 43.49078 ], [ 2.12628, 43.490866 ], [ 2.133126, 43.494493 ] ] ] ] } },
{ "type": "Feature", "properties": { "codgeo": "81081", "value": 300, "isochrone_group": 5.0, "nb_agences": 1 }, "geometry": { "type": "MultiPolygon", "coordinates": [ [ [ [ 2.101592, 43.483367 ], [ 2.101816, 43.485443 ], [ 2.105188, 43.490438 ], [ 2.104448, 43.498097 ], [ 2.10197, 43.501352 ], [ 2.102092, 43.50169 ], [ 2.105666, 43.501025 ], [ 2.110998, 43.500968 ], [ 2.114723, 43.501668 ], [ 2.120542, 43.500075 ], [ 2.128738, 43.503406 ], [ 2.129065, 43.503557 ], [ 2.137698, 43.504595 ], [ 2.143164, 43.509253 ], [ 2.143419, 43.509508 ], [ 2.144335, 43.508593 ], [ 2.145252, 43.507677 ], [ 2.154056, 43.508606 ], [ 2.160039, 43.511204 ], [ 2.160351, 43.511199 ], [ 2.160454, 43.510854 ], [ 2.157632, 43.502752 ], [ 2.159052693406303, 43.495399824356213 ], [ 2.155926, 43.496515 ], [ 2.154938, 43.50492 ], [ 2.154652, 43.505138 ], [ 2.149115, 43.503489 ], [ 2.148838, 43.50326 ], [ 2.144792, 43.497411 ], [ 2.140023, 43.499601 ], [ 2.139601, 43.500271 ], [ 2.138964, 43.501763 ], [ 2.138609, 43.501701 ], [ 2.131195, 43.499341 ], [ 2.130922, 43.499106 ], [ 2.131049, 43.49896 ], [ 2.131175, 43.498813 ], [ 2.131436, 43.49856 ], [ 2.131685, 43.498318 ], [ 2.133126, 43.494493 ], [ 2.12628, 43.490866 ], [ 2.126103, 43.49096 ], [ 2.12402, 43.492648 ], [ 2.123185, 43.493632 ], [ 2.122922, 43.493874 ], [ 2.120887, 43.497014 ], [ 2.120701, 43.497322 ], [ 2.112894, 43.499751 ], [ 2.112565, 43.499604 ], [ 2.111516, 43.498817 ], [ 2.111454, 43.498462 ], [ 2.114967, 43.494024 ], [ 2.115146, 43.493712 ], [ 2.116962, 43.488055 ], [ 2.109799, 43.486072 ], [ 2.10888, 43.486968 ], [ 2.108577, 43.486774 ], [ 2.105134, 43.482579 ], [ 2.104897, 43.482308 ], [ 2.105324, 43.481934 ], [ 2.105108423701946, 43.479049003616154 ], [ 2.101733, 43.483036 ], [ 2.101592, 43.483367 ] ] ], [ [ [ 2.136971, 43.466826 ], [ 2.136884, 43.466525 ], [ 2.136826, 43.466433 ], [ 2.136737, 43.466348 ], [ 2.136625, 43.466288 ], [ 2.134019, 43.465425 ], [ 2.133884, 43.465759 ], [ 2.132119, 43.469649 ], [ 2.125156, 43.470914 ], [ 2.116313, 43.471723 ], [ 2.107605, 43.469671 ], [ 2.104903, 43.468326 ], [ 2.097736, 43.466912 ], [ 2.097699593809388, 43.46690301902423 ], [ 2.097725, 43.466921 ], [ 2.097963, 43.467191 ], [ 2.098981, 43.468511 ], [ 2.098801, 43.468823 ], [ 2.095906, 43.468457 ], [ 2.095896509582038, 43.468455769369491 ], [ 2.095899, 43.46846 ], [ 2.098745, 43.473817 ], [ 2.099027, 43.47404 ], [ 2.103106, 43.473818 ], [ 2.104834209225932, 43.475379269147041 ], [ 2.104676, 43.473262 ], [ 2.104473, 43.472964 ], [ 2.104137, 43.472238 ], [ 2.104425, 43.472023 ], [ 2.109289, 43.47388 ], [ 2.112878, 43.475214 ], [ 2.112964, 43.475563 ], [ 2.11758, 43.47934 ], [ 2.122845, 43.475896 ], [ 2.124098, 43.475002 ], [ 2.124159, 43.47497 ], [ 2.127127, 43.473293 ], [ 2.127419, 43.473082 ], [ 2.13184, 43.472627 ], [ 2.138136, 43.471221 ], [ 2.13967724673361, 43.471873109406474 ], [ 2.136959, 43.467078 ], [ 2.136971, 43.466826 ] ] ], [ [ [ 2.146924, 43.474527 ], [ 2.14545, 43.471582 ], [ 2.145097, 43.471656 ], [ 2.14070675008725, 43.472308697561374 ], [ 2.146316, 43.474682 ], [ 2.146621, 43.474652 ], [ 2.146977, 43.47475 ], [ 2.14746, 43.477109 ], [ 2.146973, 43.474708 ], [ 2.146924, 43.474527 ] ] ], [ [ [ 2.163088, 43.492493 ], [ 2.16319, 43.490173 ], [ 2.16302, 43.489855 ], [ 2.157743, 43.487272 ], [ 2.157468341182624, 43.487174656799553 ], [ 2.159440674780654, 43.494254691264267 ], [ 2.162983, 43.492837 ], [ 2.163088, 43.492493 ] ] ] ] } },
{ "type": "Feature", "properties": { "codgeo": "81081", "value": 360, "isochrone_group": 6.0, "nb_agences": 1 }, "geometry": { "type": "MultiPolygon", "coordinates": [ [ [ [ 2.137295, 43.462497 ], [ 2.13727, 43.462264 ], [ 2.137207, 43.462163 ], [ 2.136036, 43.460677 ], [ 2.135735, 43.460873 ], [ 2.130121, 43.465246 ], [ 2.129814, 43.465434 ], [ 2.123303, 43.470336 ], [ 2.115345, 43.469349 ], [ 2.110287, 43.4652 ], [ 2.105283, 43.464806 ], [ 2.100653, 43.46406 ], [ 2.100648402544157, 43.464059726631767 ], [ 2.100652, 43.464061 ], [ 2.100933, 43.464286 ], [ 2.105068, 43.468231 ], [ 2.105212011253344, 43.468479819443267 ], [ 2.107605, 43.469671 ], [ 2.116313, 43.471723 ], [ 2.125156, 43.470914 ], [ 2.132119, 43.469649 ], [ 2.133884, 43.465759 ], [ 2.134019, 43.465425 ], [ 2.136625, 43.466288 ], [ 2.136737, 43.466348 ], [ 2.136826, 43.466433 ], [ 2.136884, 43.466525 ], [ 2.137164, 43.462774 ], [ 2.137295, 43.462497 ] ] ], [ [ [ 2.096383, 43.476948 ], [ 2.098949, 43.482524 ], [ 2.098854, 43.489364 ], [ 2.099115, 43.489612 ], [ 2.101635, 43.497329 ], [ 2.096431, 43.501431 ], [ 2.093868, 43.50386 ], [ 2.093717, 43.504418 ], [ 2.093838, 43.504624 ], [ 2.094103, 43.504775 ], [ 2.094369, 43.504926 ], [ 2.100695, 43.5021 ], [ 2.10786, 43.50276 ], [ 2.11667, 43.503518 ], [ 2.117023, 43.503588 ], [ 2.123833, 43.503532 ], [ 2.12691, 43.507418 ], [ 2.127125, 43.50758 ], [ 2.127442, 43.507749 ], [ 2.131304, 43.506565 ], [ 2.136914, 43.513285 ], [ 2.137054, 43.515175 ], [ 2.136846, 43.516666 ], [ 2.137129, 43.516889 ], [ 2.137687, 43.516181 ], [ 2.138245, 43.515474 ], [ 2.138364, 43.515317 ], [ 2.140399, 43.512709 ], [ 2.141015, 43.511928 ], [ 2.141142, 43.511779 ], [ 2.141537, 43.51136 ], [ 2.141808, 43.511085 ], [ 2.14245, 43.51046 ], [ 2.143093, 43.509833 ], [ 2.143418650764246, 43.509507650764249 ], [ 2.143164, 43.509253 ], [ 2.137698, 43.504595 ], [ 2.129065, 43.503557 ], [ 2.128738, 43.503406 ], [ 2.120542, 43.500075 ], [ 2.114723, 43.501668 ], [ 2.110998, 43.500968 ], [ 2.105666, 43.501025 ], [ 2.102092, 43.50169 ], [ 2.10197, 43.501352 ], [ 2.104448, 43.498097 ], [ 2.105188, 43.490438 ], [ 2.101816, 43.485443 ], [ 2.101592, 43.483367 ], [ 2.101733, 43.483036 ], [ 2.10675, 43.47711 ], [ 2.103106, 43.473818 ], [ 2.103093083944044, 43.473818702957708 ], [ 2.098989, 43.474089 ], [ 2.098706, 43.473866 ], [ 2.092892, 43.46977 ], [ 2.092891114695648, 43.469770235763271 ], [ 2.096383, 43.476948 ] ] ], [ [ [ 2.147133, 43.46855 ], [ 2.146933, 43.467763 ], [ 2.146576, 43.467812 ], [ 2.146352, 43.468391 ], [ 2.139578883145297, 43.471699591615867 ], [ 2.139985, 43.472416 ], [ 2.145097, 43.471656 ], [ 2.14545, 43.471582 ], [ 2.146924, 43.474527 ], [ 2.146973, 43.474708 ], [ 2.1472, 43.468966 ], [ 2.147133, 43.46855 ] ] ], [ [ [ 2.16617, 43.497583 ], [ 2.166424, 43.497838 ], [ 2.167909, 43.49794 ], [ 2.168153, 43.497675 ], [ 2.167871, 43.497414 ], [ 2.167589, 43.497153 ], [ 2.165607, 43.488652 ], [ 2.165661, 43.488356 ], [ 2.166306, 43.48556 ], [ 2.166489, 43.484673 ], [ 2.166547, 43.484419 ], [ 2.166196, 43.48434 ], [ 2.157743, 43.487272 ], [ 2.16302, 43.489855 ], [ 2.16319, 43.490173 ], [ 2.163088, 43.492493 ], [ 2.162983, 43.492837 ], [ 2.15926, 43.494327 ], [ 2.157632, 43.502752 ], [ 2.163329, 43.496042 ], [ 2.16617, 43.497583 ] ] ], [ [ [ 2.152725, 43.511426 ], [ 2.153361, 43.512422 ], [ 2.156327, 43.515263 ], [ 2.156651, 43.515421 ], [ 2.165189, 43.518165 ], [ 2.165489, 43.517966 ], [ 2.168694, 43.51373 ], [ 2.168799, 43.513385 ], [ 2.168591, 43.513322 ], [ 2.164674, 43.51087 ], [ 2.163542, 43.509245 ], [ 2.163341, 43.508947 ], [ 2.160906, 43.505709 ], [ 2.157632, 43.502752 ], [ 2.160454, 43.510854 ], [ 2.160351, 43.511199 ], [ 2.160039, 43.511204 ], [ 2.154056, 43.508606 ], [ 2.145252, 43.507677 ], [ 2.144335, 43.508593 ], [ 2.144173644241603, 43.50875417960583 ], [ 2.152545, 43.511088 ], [ 2.152725, 43.511426 ] ] ] ] } },
{ "type": "Feature", "properties": { "codgeo": "81081", "value": 420, "isochrone_group": 7.0, "nb_agences": 1 }, "geometry": { "type": "MultiPolygon", "coordinates": [ [ [ [ 2.096676, 43.490873 ], [ 2.0964, 43.491158 ], [ 2.096269, 43.491335 ], [ 2.096117, 43.491667 ], [ 2.095967, 43.491994 ], [ 2.095704, 43.492525 ], [ 2.095441, 43.493056 ], [ 2.096545, 43.501254 ], [ 2.090314, 43.503705 ], [ 2.088169, 43.505161 ], [ 2.087216, 43.50806 ], [ 2.086797, 43.509731 ], [ 2.087014, 43.510018 ], [ 2.095493, 43.508182 ], [ 2.097549, 43.506863 ], [ 2.101069637852736, 43.502134509557962 ], [ 2.100695, 43.5021 ], [ 2.094369, 43.504926 ], [ 2.094103, 43.504775 ], [ 2.093838, 43.504624 ], [ 2.093717, 43.504418 ], [ 2.093868, 43.50386 ], [ 2.096431, 43.501431 ], [ 2.101635, 43.497329 ], [ 2.099115, 43.489612 ], [ 2.098854, 43.489364 ], [ 2.098949, 43.482524 ], [ 2.096939, 43.490604 ], [ 2.096676, 43.490873 ] ] ], [ [ [ 2.113252, 43.466027 ], [ 2.1118, 43.465068 ], [ 2.108111, 43.46163 ], [ 2.103545, 43.462502 ], [ 2.101929, 43.463011 ], [ 2.110369, 43.465152 ], [ 2.110500924880644, 43.465375479306005 ], [ 2.115345, 43.469349 ], [ 2.123303, 43.470336 ], [ 2.11671, 43.467315 ], [ 2.113252, 43.466027 ] ] ], [ [ [ 2.092073, 43.477066 ], [ 2.092045, 43.477425 ], [ 2.094151, 43.478291 ], [ 2.098949, 43.482524 ], [ 2.09639756582432, 43.476979652001717 ], [ 2.096373, 43.476963 ], [ 2.095642017059314, 43.475424868399699 ], [ 2.093517298049993, 43.471057390436101 ], [ 2.092228691190702, 43.471393251743862 ], [ 2.092073, 43.477066 ] ] ], [ [ [ 2.136453, 43.457419 ], [ 2.136223, 43.45725 ], [ 2.136013, 43.457148 ], [ 2.135833, 43.457064 ], [ 2.135579, 43.45701 ], [ 2.135409, 43.457033 ], [ 2.133466, 43.457552 ], [ 2.133189, 43.457654 ], [ 2.132952, 43.457834 ], [ 2.131716, 43.458805 ], [ 2.131517, 43.458969 ], [ 2.131017, 43.459633 ], [ 2.128718, 43.4626 ], [ 2.129735, 43.465027 ], [ 2.123303, 43.470336 ], [ 2.129814, 43.465434 ], [ 2.130121, 43.465246 ], [ 2.135735, 43.460873 ], [ 2.136036, 43.460677 ], [ 2.137207, 43.462163 ], [ 2.13727, 43.462264 ], [ 2.136683, 43.457588 ], [ 2.136453, 43.457419 ] ] ], [ [ [ 2.146087, 43.466359 ], [ 2.14593, 43.466255 ], [ 2.145772, 43.466151 ], [ 2.145592, 43.466082 ], [ 2.145377, 43.466068 ], [ 2.145123, 43.466111 ], [ 2.13727, 43.462264 ], [ 2.137295, 43.462497 ], [ 2.137164, 43.462774 ], [ 2.136884, 43.466525 ], [ 2.136971, 43.466826 ], [ 2.136959, 43.467078 ], [ 2.139576, 43.471701 ], [ 2.146352, 43.468391 ], [ 2.146576, 43.467812 ], [ 2.146925044928477, 43.467764091872581 ], [ 2.146902, 43.467677 ], [ 2.146087, 43.466359 ] ] ], [ [ [ 2.170515, 43.481347 ], [ 2.170374, 43.48083 ], [ 2.170082, 43.480619 ], [ 2.169757, 43.48067 ], [ 2.169488, 43.480909 ], [ 2.16858, 43.481877 ], [ 2.166889, 43.483446 ], [ 2.166496, 43.483873 ], [ 2.166281, 43.484128 ], [ 2.165925948060355, 43.484433669973633 ], [ 2.166196, 43.48434 ], [ 2.166547, 43.484419 ], [ 2.166489, 43.484673 ], [ 2.166306, 43.48556 ], [ 2.165661, 43.488356 ], [ 2.170264, 43.481606 ], [ 2.170515, 43.481347 ] ] ], [ [ [ 2.165112, 43.506722 ], [ 2.169282, 43.498767 ], [ 2.1695, 43.498859 ], [ 2.169818, 43.498952 ], [ 2.170104, 43.499007 ], [ 2.171648, 43.499209 ], [ 2.173175, 43.499408 ], [ 2.17407, 43.499687 ], [ 2.174836, 43.499967 ], [ 2.175629, 43.500255 ], [ 2.175879, 43.5003 ], [ 2.176372, 43.500321 ], [ 2.176865, 43.500343 ], [ 2.176881, 43.499984 ], [ 2.174968, 43.498747 ], [ 2.167583, 43.496445 ], [ 2.165607, 43.488652 ], [ 2.167589, 43.497153 ], [ 2.167871, 43.497414 ], [ 2.168153, 43.497675 ], [ 2.167909, 43.49794 ], [ 2.166424, 43.497838 ], [ 2.16617, 43.497583 ], [ 2.163329, 43.496042 ], [ 2.157632, 43.502752 ], [ 2.160906, 43.505709 ], [ 2.163341, 43.508947 ], [ 2.163542, 43.509245 ], [ 2.164674, 43.51087 ], [ 2.168591, 43.513322 ], [ 2.165197, 43.507072 ], [ 2.165112, 43.506722 ] ] ], [ [ [ 2.151341, 43.516287 ], [ 2.153509, 43.519782 ], [ 2.156535, 43.520644 ], [ 2.161386, 43.520785 ], [ 2.167667, 43.524263 ], [ 2.168026, 43.524244 ], [ 2.168895, 43.523466 ], [ 2.168974, 43.523114 ], [ 2.167099, 43.520883 ], [ 2.173128, 43.515075 ], [ 2.173752, 43.515274 ], [ 2.174372, 43.515471 ], [ 2.176928, 43.516366 ], [ 2.179485, 43.517261 ], [ 2.179604, 43.516921 ], [ 2.176826, 43.51056 ], [ 2.176542, 43.510339 ], [ 2.17592, 43.511133 ], [ 2.175298, 43.511928 ], [ 2.168591, 43.513322 ], [ 2.168799, 43.513385 ], [ 2.168694, 43.51373 ], [ 2.165489, 43.517966 ], [ 2.165189, 43.518165 ], [ 2.156651, 43.515421 ], [ 2.156327, 43.515263 ], [ 2.153361, 43.512422 ], [ 2.152725, 43.511426 ], [ 2.152545, 43.511088 ], [ 2.151238, 43.515942 ], [ 2.151341, 43.516287 ] ] ], [ [ [ 2.107142, 43.504266 ], [ 2.108146, 43.506072 ], [ 2.109152, 43.506585 ], [ 2.116559, 43.505955 ], [ 2.123766, 43.511091 ], [ 2.123896, 43.511427 ], [ 2.124748, 43.511467 ], [ 2.132583, 43.513603 ], [ 2.132629, 43.52248 ], [ 2.132908, 43.522708 ], [ 2.133359, 43.522156 ], [ 2.13381, 43.521605 ], [ 2.134035, 43.521311 ], [ 2.134255, 43.521021 ], [ 2.14002, 43.516017 ], [ 2.141537, 43.51136 ], [ 2.141142, 43.511779 ], [ 2.141015, 43.511928 ], [ 2.140399, 43.512709 ], [ 2.138364, 43.515317 ], [ 2.138245, 43.515474 ], [ 2.137687, 43.516181 ], [ 2.137129, 43.516889 ], [ 2.136846, 43.516666 ], [ 2.137054, 43.515175 ], [ 2.136914, 43.513285 ], [ 2.131304, 43.506565 ], [ 2.127442, 43.507749 ], [ 2.127125, 43.50758 ], [ 2.12691, 43.507418 ], [ 2.123833, 43.503532 ], [ 2.117023, 43.503588 ], [ 2.11667, 43.503518 ], [ 2.10786, 43.50276 ], [ 2.101735791097416, 43.502195871894536 ], [ 2.107038, 43.504114 ], [ 2.107142, 43.504266 ] ] ] ] } },
{ "type": "Feature", "properties": { "codgeo": "81081", "value": 480, "isochrone_group": 8.0, "nb_agences": 1 }, "geometry": { "type": "MultiPolygon", "coordinates": [ [ [ [ 2.087139, 43.49942 ], [ 2.083627, 43.504094 ], [ 2.083469, 43.504417 ], [ 2.080703, 43.509624 ], [ 2.080578, 43.509961 ], [ 2.078749, 43.515665 ], [ 2.078941, 43.51597 ], [ 2.08009, 43.515245 ], [ 2.088213, 43.514583 ], [ 2.092886, 43.510773 ], [ 2.101808, 43.510456 ], [ 2.10975, 43.509531 ], [ 2.117835, 43.512712 ], [ 2.118145, 43.512761 ], [ 2.118455, 43.512809 ], [ 2.118688, 43.512807 ], [ 2.118912, 43.51274 ], [ 2.124866, 43.514617 ], [ 2.125909, 43.519431 ], [ 2.126203381552109, 43.520163426432482 ], [ 2.128276, 43.518185 ], [ 2.132602272552113, 43.5173221835893 ], [ 2.132583, 43.513603 ], [ 2.124748, 43.511467 ], [ 2.123896, 43.511427 ], [ 2.123766, 43.511091 ], [ 2.116559, 43.505955 ], [ 2.109152, 43.506585 ], [ 2.108146, 43.506072 ], [ 2.107142, 43.504266 ], [ 2.107038, 43.504114 ], [ 2.101175, 43.501993 ], [ 2.097549, 43.506863 ], [ 2.095493, 43.508182 ], [ 2.087014, 43.510018 ], [ 2.086797, 43.509731 ], [ 2.087216, 43.50806 ], [ 2.088169, 43.505161 ], [ 2.090314, 43.503705 ], [ 2.096545, 43.501254 ], [ 2.095441, 43.493056 ], [ 2.095704, 43.492525 ], [ 2.095967, 43.491994 ], [ 2.096117, 43.491667 ], [ 2.096269, 43.491335 ], [ 2.091028, 43.495544 ], [ 2.087406, 43.499178 ], [ 2.087139, 43.49942 ] ] ], [ [ [ 2.110149, 43.459375 ], [ 2.109364, 43.459422 ], [ 2.106535, 43.460228 ], [ 2.104761, 43.46123 ], [ 2.104693102351619, 43.461227084308845 ], [ 2.104737, 43.461242 ], [ 2.108567, 43.461446 ], [ 2.113433, 43.465949 ], [ 2.113506007244797, 43.466121609985919 ], [ 2.11671, 43.467315 ], [ 2.115847, 43.464033 ], [ 2.115669, 43.463721 ], [ 2.110149, 43.459375 ] ] ], [ [ [ 2.086881, 43.477241 ], [ 2.088511, 43.47872 ], [ 2.088514731917915, 43.478721231551866 ], [ 2.088362, 43.478529 ], [ 2.086916, 43.477264 ], [ 2.086579274205802, 43.476999239349162 ], [ 2.086589, 43.477007 ], [ 2.086881, 43.477241 ] ] ], [ [ [ 2.098949, 43.482524 ], [ 2.094774043530898, 43.478840675545271 ], [ 2.090734275384268, 43.479453692164384 ], [ 2.09442, 43.48067 ], [ 2.098949, 43.482524 ] ] ], [ [ [ 2.135085, 43.454854 ], [ 2.134755, 43.45471 ], [ 2.128891, 43.458548 ], [ 2.128718, 43.4626 ], [ 2.131017, 43.459633 ], [ 2.131517, 43.458969 ], [ 2.131716, 43.458805 ], [ 2.132952, 43.457834 ], [ 2.133189, 43.457654 ], [ 2.133466, 43.457552 ], [ 2.135409, 43.457033 ], [ 2.135579, 43.45701 ], [ 2.135833, 43.457064 ], [ 2.136013, 43.457148 ], [ 2.136223, 43.45725 ], [ 2.136453, 43.457419 ], [ 2.136455030802235, 43.457420492198175 ], [ 2.13619, 43.455749 ], [ 2.136268, 43.455397 ], [ 2.135085, 43.454854 ] ] ], [ [ [ 2.150829, 43.466827 ], [ 2.150574, 43.466573 ], [ 2.143549, 43.464492 ], [ 2.143206, 43.464383 ], [ 2.13725977258071, 43.462182529109725 ], [ 2.13727, 43.462264 ], [ 2.145123, 43.466111 ], [ 2.145377, 43.466068 ], [ 2.145592, 43.466082 ], [ 2.145772, 43.466151 ], [ 2.14593, 43.466255 ], [ 2.146087, 43.466359 ], [ 2.146902, 43.467677 ], [ 2.147133, 43.46855 ], [ 2.1472, 43.468966 ], [ 2.146973, 43.474708 ], [ 2.150231, 43.467532 ], [ 2.150418, 43.467386 ], [ 2.150829, 43.466827 ] ] ], [ [ [ 2.173776, 43.483507 ], [ 2.171662, 43.477548 ], [ 2.171502, 43.477327 ], [ 2.170317, 43.476148 ], [ 2.169676, 43.475678 ], [ 2.16902, 43.475718 ], [ 2.168855, 43.476038 ], [ 2.166496, 43.483873 ], [ 2.166889, 43.483446 ], [ 2.16858, 43.481877 ], [ 2.169488, 43.480909 ], [ 2.169757, 43.48067 ], [ 2.170082, 43.480619 ], [ 2.170374, 43.48083 ], [ 2.170515, 43.481347 ], [ 2.170264, 43.481606 ], [ 2.165661, 43.488356 ], [ 2.172654, 43.483348 ], [ 2.173615, 43.483829 ], [ 2.173776, 43.483507 ] ] ], [ [ [ 2.187739, 43.522556 ], [ 2.187981, 43.52229 ], [ 2.185371, 43.517173 ], [ 2.185105, 43.51693 ], [ 2.180028, 43.512144 ], [ 2.182023, 43.506305 ], [ 2.183313, 43.503447 ], [ 2.183219, 43.503053 ], [ 2.183125, 43.502659 ], [ 2.182869, 43.502177 ], [ 2.18263, 43.501739 ], [ 2.182552, 43.501595 ], [ 2.177037, 43.4968 ], [ 2.17688, 43.496667 ], [ 2.176648, 43.496943 ], [ 2.173309084732876, 43.498229894658785 ], [ 2.174968, 43.498747 ], [ 2.176881, 43.499984 ], [ 2.176865, 43.500343 ], [ 2.176372, 43.500321 ], [ 2.175879, 43.5003 ], [ 2.175629, 43.500255 ], [ 2.174836, 43.499967 ], [ 2.17407, 43.499687 ], [ 2.173175, 43.499408 ], [ 2.171648, 43.499209 ], [ 2.170104, 43.499007 ], [ 2.169818, 43.498952 ], [ 2.1695, 43.498859 ], [ 2.169282, 43.498767 ], [ 2.165112, 43.506722 ], [ 2.165197, 43.507072 ], [ 2.168591, 43.513322 ], [ 2.175298, 43.511928 ], [ 2.17592, 43.511133 ], [ 2.176542, 43.510339 ], [ 2.176826, 43.51056 ], [ 2.179604, 43.516921 ], [ 2.179485, 43.517261 ], [ 2.178326552951916, 43.516855520880696 ], [ 2.182326, 43.520623 ], [ 2.182576, 43.520883 ], [ 2.187739, 43.522556 ] ] ], [ [ [ 2.148361, 43.52039 ], [ 2.148146, 43.520679 ], [ 2.147289855819988, 43.5226199714633 ], [ 2.147395, 43.522685 ], [ 2.147917, 43.523389 ], [ 2.148252162468995, 43.523996927669828 ], [ 2.155991, 43.52377 ], [ 2.156329, 43.523895 ], [ 2.161157, 43.525105 ], [ 2.166097, 43.531361 ], [ 2.166407, 43.531544 ], [ 2.166464, 43.531447 ], [ 2.166984, 43.530559 ], [ 2.167504, 43.529672 ], [ 2.171853, 43.523973 ], [ 2.171765, 43.523623 ], [ 2.174372, 43.515471 ], [ 2.173752, 43.515274 ], [ 2.173128, 43.515075 ], [ 2.167099, 43.520883 ], [ 2.168974, 43.523114 ], [ 2.168895, 43.523466 ], [ 2.168026, 43.524244 ], [ 2.167667, 43.524263 ], [ 2.161386, 43.520785 ], [ 2.156535, 43.520644 ], [ 2.153509, 43.519782 ], [ 2.151341, 43.516287 ], [ 2.151238, 43.515942 ], [ 2.152545, 43.511088 ], [ 2.150967, 43.516033 ], [ 2.15086, 43.516227 ], [ 2.148361, 43.52039 ] ] ] ] } },
{ "type": "Feature", "properties": { "codgeo": "81081", "value": 540, "isochrone_group": 9.0, "nb_agences": 1 }, "geometry": { "type": "MultiPolygon", "coordinates": [ [ [ [ 2.087497, 43.492678 ], [ 2.084114, 43.496039 ], [ 2.078076, 43.50064 ], [ 2.077152, 43.504119 ], [ 2.074561, 43.508767 ], [ 2.071978277812839, 43.51675522428377 ], [ 2.073329, 43.516969 ], [ 2.078585582942622, 43.519563923731937 ], [ 2.08557, 43.516994 ], [ 2.090133, 43.518756 ], [ 2.092816, 43.516356 ], [ 2.099774, 43.511177 ], [ 2.10138, 43.512197 ], [ 2.101688, 43.512432 ], [ 2.102458, 43.512952 ], [ 2.103533, 43.513738 ], [ 2.104645, 43.514446 ], [ 2.110453, 43.514658 ], [ 2.113255434667547, 43.517032952034398 ], [ 2.119795, 43.516934 ], [ 2.121153, 43.516682 ], [ 2.124221, 43.516943 ], [ 2.124518, 43.516952 ], [ 2.125357636560062, 43.516886164333769 ], [ 2.124866, 43.514617 ], [ 2.118912, 43.51274 ], [ 2.118688, 43.512807 ], [ 2.118455, 43.512809 ], [ 2.118145, 43.512761 ], [ 2.117835, 43.512712 ], [ 2.10975, 43.509531 ], [ 2.101808, 43.510456 ], [ 2.092886, 43.510773 ], [ 2.088213, 43.514583 ], [ 2.08009, 43.515245 ], [ 2.078941, 43.51597 ], [ 2.078749, 43.515665 ], [ 2.080578, 43.509961 ], [ 2.080703, 43.509624 ], [ 2.083469, 43.504417 ], [ 2.083627, 43.504094 ], [ 2.087139, 43.49942 ], [ 2.087406, 43.499178 ], [ 2.091028, 43.495544 ], [ 2.096269, 43.491335 ], [ 2.0964, 43.491158 ], [ 2.096676, 43.490873 ], [ 2.096939, 43.490604 ], [ 2.097089, 43.490476 ], [ 2.097226, 43.490359 ], [ 2.097472, 43.490195 ], [ 2.0977, 43.490044 ], [ 2.098313203672795, 43.48635201311496 ], [ 2.092555, 43.483051 ], [ 2.090491576332732, 43.484004739142065 ], [ 2.09071, 43.492415 ], [ 2.087497, 43.492678 ] ] ], [ [ [ 2.153736, 43.527295 ], [ 2.155804, 43.529724 ], [ 2.161177, 43.536617 ], [ 2.161431, 43.538534 ], [ 2.161898, 43.539656 ], [ 2.163159, 43.539641 ], [ 2.164716, 43.539584 ], [ 2.165221, 43.538273 ], [ 2.167531, 43.532826 ], [ 2.168902, 43.530491 ], [ 2.169123, 43.529997 ], [ 2.169287, 43.529174 ], [ 2.1694484574685, 43.527123951457128 ], [ 2.167504, 43.529672 ], [ 2.166984, 43.530559 ], [ 2.166464, 43.531447 ], [ 2.166407, 43.531544 ], [ 2.166097, 43.531361 ], [ 2.161157, 43.525105 ], [ 2.156329, 43.523895 ], [ 2.155991, 43.52377 ], [ 2.152157581854048, 43.523882408180675 ], [ 2.151363505574306, 43.526639093948944 ], [ 2.153736, 43.527295 ] ] ], [ [ [ 2.15086, 43.516227 ], [ 2.150967, 43.516033 ], [ 2.152545, 43.511088 ], [ 2.144173, 43.508754 ], [ 2.143093, 43.509833 ], [ 2.14245, 43.51046 ], [ 2.141808, 43.511085 ], [ 2.141537, 43.51136 ], [ 2.141182992914796, 43.512446757413194 ], [ 2.142099, 43.513169 ], [ 2.146873, 43.518951 ], [ 2.149834331397314, 43.517935626807912 ], [ 2.15086, 43.516227 ] ] ], [ [ [ 2.179934, 43.524947 ], [ 2.182452, 43.526385 ], [ 2.18959, 43.528423 ], [ 2.192046, 43.529658 ], [ 2.192807, 43.530052 ], [ 2.193511, 43.530351 ], [ 2.194046, 43.530545 ], [ 2.194641, 43.530716 ], [ 2.195505, 43.530916 ], [ 2.196318, 43.527409 ], [ 2.195656, 43.522689 ], [ 2.194238, 43.51938 ], [ 2.189814, 43.513762 ], [ 2.189541, 43.505109 ], [ 2.184053, 43.500964 ], [ 2.180035, 43.494683 ], [ 2.177487, 43.494368 ], [ 2.174532, 43.486099 ], [ 2.176142, 43.48288 ], [ 2.17971, 43.475821 ], [ 2.177462, 43.47301 ], [ 2.175864, 43.473171 ], [ 2.167975, 43.473446 ], [ 2.16685, 43.47398 ], [ 2.165438, 43.476 ], [ 2.165041, 43.483086 ], [ 2.164715, 43.483654 ], [ 2.164416, 43.484198 ], [ 2.15572, 43.485233 ], [ 2.15551, 43.485048 ], [ 2.154613, 43.484526 ], [ 2.15421, 43.484292 ], [ 2.148758, 43.47926 ], [ 2.148617, 43.475358 ], [ 2.148557, 43.474367 ], [ 2.148628070567928, 43.471062577533615 ], [ 2.146973, 43.474708 ], [ 2.14746, 43.477109 ], [ 2.147445, 43.477219 ], [ 2.147369, 43.47759 ], [ 2.147358, 43.477645 ], [ 2.147328, 43.477778 ], [ 2.147188, 43.478861 ], [ 2.152518, 43.485429 ], [ 2.153001, 43.485604 ], [ 2.153518, 43.485757 ], [ 2.153632, 43.485815 ], [ 2.155887, 43.486852 ], [ 2.157743, 43.487272 ], [ 2.163858, 43.486214 ], [ 2.166281, 43.484128 ], [ 2.166496, 43.483873 ], [ 2.168855, 43.476038 ], [ 2.16902, 43.475718 ], [ 2.169676, 43.475678 ], [ 2.170317, 43.476148 ], [ 2.171502, 43.477327 ], [ 2.171662, 43.477548 ], [ 2.173776, 43.483507 ], [ 2.173615, 43.483829 ], [ 2.172654, 43.483348 ], [ 2.165661, 43.488356 ], [ 2.165607, 43.488652 ], [ 2.167583, 43.496445 ], [ 2.171695, 43.498852 ], [ 2.176648, 43.496943 ], [ 2.17688, 43.496667 ], [ 2.177037, 43.4968 ], [ 2.182552, 43.501595 ], [ 2.18263, 43.501739 ], [ 2.182869, 43.502177 ], [ 2.183125, 43.502659 ], [ 2.183219, 43.503053 ], [ 2.183313, 43.503447 ], [ 2.182023, 43.506305 ], [ 2.180028, 43.512144 ], [ 2.185105, 43.51693 ], [ 2.185371, 43.517173 ], [ 2.187981, 43.52229 ], [ 2.187739, 43.522556 ], [ 2.182576, 43.520883 ], [ 2.182326, 43.520623 ], [ 2.178326, 43.516855 ], [ 2.174372, 43.515471 ], [ 2.171765, 43.523623 ], [ 2.171853, 43.523973 ], [ 2.171788873862725, 43.524057031928322 ], [ 2.178112, 43.521842 ], [ 2.179367, 43.524529 ], [ 2.179934, 43.524947 ] ] ], [ [ [ 2.142659, 43.456258 ], [ 2.142298, 43.45567 ], [ 2.141428, 43.45451 ], [ 2.140544, 43.453546 ], [ 2.137339, 43.451981 ], [ 2.133752, 43.451669 ], [ 2.128948, 43.457223 ], [ 2.128345, 43.458031 ], [ 2.128193, 43.459003 ], [ 2.128381, 43.459754 ], [ 2.128198, 43.464515 ], [ 2.119457, 43.463442 ], [ 2.119269, 43.462896 ], [ 2.118734, 43.462189 ], [ 2.1174, 43.461736 ], [ 2.113486, 43.458436 ], [ 2.112213, 43.457567 ], [ 2.110612, 43.456269 ], [ 2.10677, 43.456425 ], [ 2.106317, 43.456798 ], [ 2.105801, 43.45744 ], [ 2.097067621231015, 43.458614169579612 ], [ 2.097285, 43.458855 ], [ 2.10537, 43.45876 ], [ 2.108259, 43.458185 ], [ 2.109307, 43.457803 ], [ 2.110162, 43.457663 ], [ 2.110567, 43.457583 ], [ 2.116019, 43.461966 ], [ 2.116845, 43.46547 ], [ 2.117164649157163, 43.467523326270864 ], [ 2.123303, 43.470336 ], [ 2.129735, 43.465027 ], [ 2.128718, 43.4626 ], [ 2.128891, 43.458548 ], [ 2.134755, 43.45471 ], [ 2.135085, 43.454854 ], [ 2.136268, 43.455397 ], [ 2.13619, 43.455749 ], [ 2.137207, 43.462163 ], [ 2.143206, 43.464383 ], [ 2.143549, 43.464492 ], [ 2.147079652938218, 43.465537877404195 ], [ 2.145082, 43.463296 ], [ 2.142827, 43.45707 ], [ 2.142659, 43.456258 ] ] ] ] } },
{ "type": "Feature", "properties": { "codgeo": "81081", "value": 600, "isochrone_group": 10.0, "nb_agences": 1 }, "geometry": { "type": "MultiPolygon", "coordinates": [ [ [ [ 2.074108996606015, 43.485034436905217 ], [ 2.068381, 43.481983 ], [ 2.066225, 43.483997 ], [ 2.065919, 43.484385 ], [ 2.06541, 43.484913 ], [ 2.064989658847054, 43.487271549860175 ], [ 2.067778, 43.486268 ], [ 2.074108996606015, 43.485034436905217 ] ] ], [ [ [ 2.081528, 43.492785 ], [ 2.079833, 43.49499 ], [ 2.071927, 43.498256 ], [ 2.071155, 43.501772 ], [ 2.071285, 43.50998 ], [ 2.066075320865138, 43.509989824948853 ], [ 2.067914, 43.510918 ], [ 2.073017280128678, 43.513541644607415 ], [ 2.074561, 43.508767 ], [ 2.077152, 43.504119 ], [ 2.078076, 43.50064 ], [ 2.084114, 43.496039 ], [ 2.087497, 43.492678 ], [ 2.09071, 43.492415 ], [ 2.090628826256008, 43.489289457926965 ], [ 2.08825, 43.489259 ], [ 2.083433726642175, 43.490159930501584 ], [ 2.082247, 43.492304 ], [ 2.081528, 43.492785 ] ] ], [ [ [ 2.097009, 43.519522 ], [ 2.10451, 43.516045 ], [ 2.106311991451435, 43.517118274029315 ], [ 2.106962, 43.51648 ], [ 2.107364, 43.515878 ], [ 2.108145770013352, 43.514573782927485 ], [ 2.104645, 43.514446 ], [ 2.103533, 43.513738 ], [ 2.102458, 43.512952 ], [ 2.101688, 43.512432 ], [ 2.10138, 43.512197 ], [ 2.099774, 43.511177 ], [ 2.092816, 43.516356 ], [ 2.090133, 43.518756 ], [ 2.089475376227326, 43.518502058933301 ], [ 2.090912, 43.51945 ], [ 2.093055, 43.516557 ], [ 2.09493, 43.517946 ], [ 2.097008579922132, 43.519522554116499 ], [ 2.097009, 43.519522 ] ] ], [ [ [ 2.155804, 43.529724 ], [ 2.154991885986275, 43.528770119468405 ], [ 2.154945, 43.528853 ], [ 2.155146, 43.531995 ], [ 2.158254951049187, 43.5328683152023 ], [ 2.155804, 43.529724 ] ] ], [ [ [ 2.168776, 43.535528 ], [ 2.168902, 43.530491 ], [ 2.167531, 43.532826 ], [ 2.166126674382877, 43.536137411963836 ], [ 2.166157, 43.536151 ], [ 2.168664632115246, 43.537570652597978 ], [ 2.168675, 43.537477 ], [ 2.168808, 43.536204 ], [ 2.168776, 43.535528 ] ] ], [ [ [ 2.19611, 43.53291 ], [ 2.200633, 43.534243 ], [ 2.202555353760653, 43.534916317289813 ], [ 2.202348, 43.532219 ], [ 2.202585, 43.531722 ], [ 2.202627, 43.531681 ], [ 2.204038, 43.531197 ], [ 2.204335, 43.531282 ], [ 2.205204683169709, 43.530981583342282 ], [ 2.204795, 43.530556 ], [ 2.202792, 43.529115 ], [ 2.201801, 43.52041 ], [ 2.201116, 43.519938 ], [ 2.200685, 43.519597 ], [ 2.199953, 43.518972 ], [ 2.19925, 43.51858 ], [ 2.198397, 43.51839 ], [ 2.197848, 43.518359 ], [ 2.197107, 43.518439 ], [ 2.195553, 43.51888 ], [ 2.192588833799391, 43.517285737858273 ], [ 2.194238, 43.51938 ], [ 2.195656, 43.522689 ], [ 2.196318, 43.527409 ], [ 2.195505, 43.530916 ], [ 2.194641, 43.530716 ], [ 2.194046, 43.530545 ], [ 2.193511, 43.530351 ], [ 2.192807, 43.530052 ], [ 2.192046, 43.529658 ], [ 2.18959, 43.528423 ], [ 2.182452, 43.526385 ], [ 2.179934, 43.524947 ], [ 2.179367, 43.524529 ], [ 2.178112, 43.521842 ], [ 2.169628, 43.524814 ], [ 2.169462, 43.526952 ], [ 2.169287, 43.529174 ], [ 2.169123, 43.529997 ], [ 2.168902, 43.530491 ], [ 2.177659, 43.530621 ], [ 2.179242, 43.529422 ], [ 2.186231, 43.528622 ], [ 2.189191, 43.530525 ], [ 2.19611, 43.53291 ] ] ], [ [ [ 2.196994, 43.508105 ], [ 2.199272, 43.507376 ], [ 2.198175, 43.503947 ], [ 2.194829, 43.504445 ], [ 2.1925, 43.504406 ], [ 2.188457887019015, 43.504290941817388 ], [ 2.189541, 43.505109 ], [ 2.189734491533712, 43.511241901982459 ], [ 2.193891, 43.508223 ], [ 2.194956, 43.508228 ], [ 2.19585, 43.508232 ], [ 2.196473, 43.508216 ], [ 2.196994, 43.508105 ] ] ], [ [ [ 2.177603, 43.490884 ], [ 2.176546729518615, 43.49173683363432 ], [ 2.177487, 43.494368 ], [ 2.180035, 43.494683 ], [ 2.184053, 43.500964 ], [ 2.179983, 43.49377 ], [ 2.179507, 43.493076 ], [ 2.178831, 43.492125 ], [ 2.177934, 43.491057 ], [ 2.177603, 43.490884 ] ] ], [ [ [ 2.183141, 43.472088 ], [ 2.183252, 43.47186 ], [ 2.182618, 43.470369 ], [ 2.182068, 43.469681 ], [ 2.17879, 43.47044 ], [ 2.175436169563936, 43.473185913597398 ], [ 2.175864, 43.473171 ], [ 2.177462, 43.47301 ], [ 2.17971, 43.475821 ], [ 2.17958130818033, 43.476075606377535 ], [ 2.180366, 43.475762 ], [ 2.181102, 43.475023 ], [ 2.18274, 43.472638 ], [ 2.182883, 43.472463 ], [ 2.183141, 43.472088 ] ] ], [ [ [ 2.163192, 43.472557 ], [ 2.163834, 43.474355 ], [ 2.164199, 43.474968 ], [ 2.165041, 43.483086 ], [ 2.165438, 43.476 ], [ 2.16685, 43.47398 ], [ 2.167975, 43.473446 ], [ 2.174545143030895, 43.473216973591903 ], [ 2.166719, 43.471328 ], [ 2.16624, 43.470533 ], [ 2.162718, 43.471283 ], [ 2.162809, 43.471707 ], [ 2.163192, 43.472557 ] ] ], [ [ [ 2.134687, 43.448918 ], [ 2.133662, 43.448988 ], [ 2.13268, 43.449653 ], [ 2.132376, 43.450136 ], [ 2.132302, 43.450305 ], [ 2.128948, 43.457223 ], [ 2.133752, 43.451669 ], [ 2.137339, 43.451981 ], [ 2.140544, 43.453546 ], [ 2.141428, 43.45451 ], [ 2.142298, 43.45567 ], [ 2.142659, 43.456258 ], [ 2.142827, 43.45707 ], [ 2.145082, 43.463296 ], [ 2.147405, 43.465903 ], [ 2.147922, 43.466373 ], [ 2.145674, 43.457909 ], [ 2.14553, 43.454312 ], [ 2.144783, 43.450893 ], [ 2.142009, 43.448599 ], [ 2.134687, 43.448918 ] ] ], [ [ [ 2.097477, 43.456917 ], [ 2.096484, 43.455848 ], [ 2.095236, 43.45571 ], [ 2.094998107162152, 43.455752206793818 ], [ 2.095598, 43.456986 ], [ 2.097067621231015, 43.458614169579612 ], [ 2.101741267509735, 43.457985815602122 ], [ 2.10613, 43.456395 ], [ 2.109569, 43.456292 ], [ 2.110626, 43.45625 ], [ 2.11457, 43.458567 ], [ 2.115122809726095, 43.459816038859501 ], [ 2.1174, 43.461736 ], [ 2.118734, 43.462189 ], [ 2.119269, 43.462896 ], [ 2.119457, 43.463442 ], [ 2.128198, 43.464515 ], [ 2.128381, 43.459754 ], [ 2.128193, 43.459003 ], [ 2.128345, 43.458031 ], [ 2.120217, 43.460141 ], [ 2.118972, 43.456763 ], [ 2.111741, 43.454043 ], [ 2.10609, 43.454632 ], [ 2.097477, 43.456917 ] ] ] ] } },
{ "type": "Feature", "properties": { "codgeo": "81081", "value": 660, "isochrone_group": 11.0, "nb_agences": 1 }, "geometry": { "type": "MultiPolygon", "coordinates": [ [ [ [ 2.071155, 43.501772 ], [ 2.071927, 43.498256 ], [ 2.079833, 43.49499 ], [ 2.079895787928813, 43.494908320127983 ], [ 2.07915, 43.49405 ], [ 2.078724, 43.49337 ], [ 2.077552, 43.491204 ], [ 2.076467, 43.489591 ], [ 2.076004, 43.488814 ], [ 2.075838, 43.488163 ], [ 2.0758, 43.487476 ], [ 2.075593, 43.485825 ], [ 2.074108996606015, 43.485034436905217 ], [ 2.067778, 43.486268 ], [ 2.065425417153859, 43.487114716401187 ], [ 2.065473, 43.49391 ], [ 2.067705, 43.495578 ], [ 2.067799, 43.495864 ], [ 2.068196, 43.497725 ], [ 2.067919, 43.498065 ], [ 2.067433, 43.498493 ], [ 2.06707, 43.498696 ], [ 2.066469, 43.498948 ], [ 2.066047095927662, 43.498933583057664 ], [ 2.066307, 43.499219 ], [ 2.065812644874328, 43.499735194532896 ], [ 2.066569, 43.501146 ], [ 2.066649, 43.501228 ], [ 2.066823, 43.503031 ], [ 2.071068196807161, 43.508697642826895 ], [ 2.071265928467545, 43.508775852781604 ], [ 2.071155, 43.501772 ] ] ], [ [ [ 2.190965, 43.536606 ], [ 2.191685, 43.53622 ], [ 2.194109, 43.535373 ], [ 2.197007551282887, 43.535453190217929 ], [ 2.196169206707447, 43.53292744915786 ], [ 2.19611, 43.53291 ], [ 2.189191, 43.530525 ], [ 2.186231, 43.528622 ], [ 2.179242, 43.529422 ], [ 2.177659, 43.530621 ], [ 2.169008754419317, 43.530492584797855 ], [ 2.168808, 43.536204 ], [ 2.170647355312773, 43.536493639994049 ], [ 2.176375, 43.533638 ], [ 2.184667, 43.530939 ], [ 2.185209, 43.531288 ], [ 2.185876, 43.531631 ], [ 2.186335, 43.531844 ], [ 2.190965, 43.536606 ] ] ], [ [ [ 2.204427, 43.517108 ], [ 2.204425, 43.517109 ], [ 2.203829, 43.51737 ], [ 2.19925, 43.51858 ], [ 2.199953, 43.518972 ], [ 2.200685, 43.519597 ], [ 2.201116, 43.519938 ], [ 2.201801, 43.52041 ], [ 2.202299963741881, 43.524792925704389 ], [ 2.203538, 43.524345 ], [ 2.206493522031531, 43.521065025458405 ], [ 2.206668, 43.520603 ], [ 2.207033, 43.519136 ], [ 2.207142, 43.518778 ], [ 2.205006, 43.516975 ], [ 2.204427, 43.517108 ] ] ], [ [ [ 2.188995, 43.511779 ], [ 2.188815, 43.515256 ], [ 2.195553, 43.51888 ], [ 2.197107, 43.518439 ], [ 2.197848, 43.518359 ], [ 2.193014, 43.516143 ], [ 2.196473, 43.508216 ], [ 2.19585, 43.508232 ], [ 2.194956, 43.508228 ], [ 2.193891, 43.508223 ], [ 2.188995, 43.511779 ] ] ], [ [ [ 2.205522, 43.507007 ], [ 2.205979, 43.506881 ], [ 2.206477, 43.50665 ], [ 2.206874, 43.506384 ], [ 2.207261, 43.506071 ], [ 2.205713, 43.503781 ], [ 2.205087, 43.502974 ], [ 2.204394, 43.502603 ], [ 2.203267, 43.502232 ], [ 2.202725, 43.502049 ], [ 2.202351, 43.501989 ], [ 2.201928, 43.501988 ], [ 2.194534, 43.501046 ], [ 2.187406, 43.504261 ], [ 2.1925, 43.504406 ], [ 2.194829, 43.504445 ], [ 2.198175, 43.503947 ], [ 2.199272, 43.507376 ], [ 2.196994, 43.508105 ], [ 2.199734, 43.507437 ], [ 2.200527, 43.507398 ], [ 2.201126, 43.507298 ], [ 2.204533, 43.507033 ], [ 2.205094, 43.507063 ], [ 2.205522, 43.507007 ] ] ], [ [ [ 2.170948, 43.482662 ], [ 2.17011, 43.483284 ], [ 2.169423, 43.48392 ], [ 2.16775, 43.485727 ], [ 2.166485, 43.488438 ], [ 2.16635, 43.488959 ], [ 2.166132, 43.489482 ], [ 2.168015, 43.495496 ], [ 2.174637, 43.494007 ], [ 2.17536, 43.492695 ], [ 2.177603, 43.490884 ], [ 2.177934, 43.491057 ], [ 2.178831, 43.492125 ], [ 2.179507, 43.493076 ], [ 2.179983, 43.49377 ], [ 2.178486, 43.490419 ], [ 2.178121, 43.489733 ], [ 2.177847, 43.489446 ], [ 2.177548, 43.489194 ], [ 2.176422, 43.488959 ], [ 2.170948, 43.482662 ] ] ], [ [ [ 2.179715, 43.468827 ], [ 2.178688, 43.469467 ], [ 2.175204, 43.473376 ], [ 2.17879, 43.47044 ], [ 2.182068, 43.469681 ], [ 2.182618, 43.470369 ], [ 2.183252, 43.47186 ], [ 2.183141, 43.472088 ], [ 2.182883, 43.472463 ], [ 2.18274, 43.472638 ], [ 2.181102, 43.475023 ], [ 2.180366, 43.475762 ], [ 2.186522, 43.47598 ], [ 2.187853, 43.472634 ], [ 2.184629, 43.470456 ], [ 2.181034, 43.468902 ], [ 2.180653, 43.468799 ], [ 2.179715, 43.468827 ] ] ], [ [ [ 2.163356, 43.466545 ], [ 2.162423, 43.465713 ], [ 2.159972, 43.46835 ], [ 2.160723, 43.469048 ], [ 2.162136, 43.470737 ], [ 2.163192, 43.472557 ], [ 2.162809, 43.471707 ], [ 2.162718, 43.471283 ], [ 2.16624, 43.470533 ], [ 2.166719, 43.471328 ], [ 2.166117, 43.47016 ], [ 2.165882, 43.469691 ], [ 2.165473, 43.469099 ], [ 2.164425, 43.46765 ], [ 2.164046, 43.467209 ], [ 2.163356, 43.466545 ] ] ], [ [ [ 2.14527, 43.448866 ], [ 2.144773, 43.448023 ], [ 2.14407, 43.447561 ], [ 2.139374, 43.444898 ], [ 2.138581, 43.444659 ], [ 2.138216, 43.444585 ], [ 2.137458, 43.444628 ], [ 2.136881, 43.444848 ], [ 2.136319, 43.445328 ], [ 2.135903, 43.446446 ], [ 2.134971391142703, 43.448905609836864 ], [ 2.142009, 43.448599 ], [ 2.144783, 43.450893 ], [ 2.14553, 43.454312 ], [ 2.145674, 43.457909 ], [ 2.147345567869059, 43.464202661229415 ], [ 2.147118, 43.457692 ], [ 2.148719, 43.456877 ], [ 2.148788, 43.456752 ], [ 2.148874, 43.456415 ], [ 2.148806, 43.455381 ], [ 2.14527, 43.448866 ] ] ], [ [ [ 2.116334552281711, 43.455770902393333 ], [ 2.118972, 43.456763 ], [ 2.119276474040958, 43.457589115108711 ], [ 2.121475, 43.458912 ], [ 2.121406, 43.459062 ], [ 2.120822, 43.459789 ], [ 2.120191139206396, 43.460070833123872 ], [ 2.120217, 43.460141 ], [ 2.128345, 43.458031 ], [ 2.128948, 43.457223 ], [ 2.129131517248665, 43.45684447515616 ], [ 2.120908, 43.454721 ], [ 2.120088, 43.454737 ], [ 2.119339, 43.454809 ], [ 2.117225, 43.454998 ], [ 2.114084052159614, 43.454365468797619 ], [ 2.116334552281711, 43.455770902393333 ] ] ], [ [ [ 2.105869576843431, 43.454690477523833 ], [ 2.1059, 43.454461 ], [ 2.097477, 43.456917 ], [ 2.105869576843431, 43.454690477523833 ] ] ] ] } },
{ "type": "Feature", "properties": { "codgeo": "81081", "value": 720, "isochrone_group": 12.0, "nb_agences": 1 }, "geometry": { "type": "MultiPolygon", "coordinates": [ [ [ [ 2.185721, 43.536261 ], [ 2.188578, 43.538452 ], [ 2.189005014704593, 43.53891850739403 ], [ 2.189397057347621, 43.539005730596905 ], [ 2.189976903757539, 43.535589733411108 ], [ 2.186335, 43.531844 ], [ 2.185876, 43.531631 ], [ 2.185209, 43.531288 ], [ 2.184667, 43.530939 ], [ 2.176375, 43.533638 ], [ 2.174986127764812, 43.534330452014402 ], [ 2.175876, 43.53515 ], [ 2.175878507107238, 43.535150004317401 ], [ 2.175881, 43.53513 ], [ 2.184543, 43.533041 ], [ 2.185721, 43.536261 ] ] ], [ [ [ 2.204605432086915, 43.501326329446265 ], [ 2.202725, 43.502049 ], [ 2.203267, 43.502232 ], [ 2.204394, 43.502603 ], [ 2.204613834092546, 43.50272068895864 ], [ 2.204605432086915, 43.501326329446265 ] ] ], [ [ [ 2.196994, 43.508105 ], [ 2.196473, 43.508216 ], [ 2.193014, 43.516143 ], [ 2.197848, 43.518359 ], [ 2.198397, 43.51839 ], [ 2.19925, 43.51858 ], [ 2.201091009394776, 43.518093513568985 ], [ 2.205775, 43.512895 ], [ 2.204944492710138, 43.507055004957756 ], [ 2.204533, 43.507033 ], [ 2.201126, 43.507298 ], [ 2.200527, 43.507398 ], [ 2.199734, 43.507437 ], [ 2.196994, 43.508105 ] ] ], [ [ [ 2.201928, 43.501988 ], [ 2.202351, 43.501989 ], [ 2.202725, 43.502049 ], [ 2.198419, 43.498974 ], [ 2.19495, 43.499935 ], [ 2.194766, 43.500565 ], [ 2.187406, 43.504261 ], [ 2.194534, 43.501046 ], [ 2.201928, 43.501988 ] ] ], [ [ [ 2.176422, 43.488959 ], [ 2.176894077991273, 43.489057524269931 ], [ 2.176219, 43.488205 ], [ 2.175719, 43.487859 ], [ 2.172773, 43.479461 ], [ 2.172546, 43.479775 ], [ 2.170948, 43.482662 ], [ 2.176422, 43.488959 ] ] ], [ [ [ 2.192188, 43.475622 ], [ 2.192562, 43.475295 ], [ 2.192974, 43.474742 ], [ 2.193685, 43.473572 ], [ 2.192156, 43.470313 ], [ 2.184629, 43.470456 ], [ 2.187853, 43.472634 ], [ 2.186522, 43.47598 ], [ 2.180366, 43.475762 ], [ 2.187521, 43.476509 ], [ 2.188261, 43.476826 ], [ 2.188908, 43.476885 ], [ 2.190481, 43.476717 ], [ 2.191283, 43.476493 ], [ 2.192188, 43.475622 ] ] ], [ [ [ 2.166719, 43.471328 ], [ 2.175204, 43.473376 ], [ 2.178688, 43.469467 ], [ 2.174213, 43.471132 ], [ 2.173524, 43.471334 ], [ 2.165473, 43.469099 ], [ 2.165882, 43.469691 ], [ 2.166117, 43.47016 ], [ 2.166719, 43.471328 ] ] ], [ [ [ 2.151054, 43.456463 ], [ 2.148425586414749, 43.454680096575807 ], [ 2.148806, 43.455381 ], [ 2.148874, 43.456415 ], [ 2.148788, 43.456752 ], [ 2.148719, 43.456877 ], [ 2.147118, 43.457692 ], [ 2.147405, 43.465903 ], [ 2.147922, 43.466373 ], [ 2.14824, 43.466764 ], [ 2.148567, 43.467751 ], [ 2.14882, 43.468931 ], [ 2.148656, 43.469764 ], [ 2.148557, 43.474367 ], [ 2.148617, 43.475358 ], [ 2.148665239870966, 43.476692978556784 ], [ 2.14913, 43.477967 ], [ 2.149881090766545, 43.480296572402303 ], [ 2.15421, 43.484292 ], [ 2.154613, 43.484526 ], [ 2.15551, 43.485048 ], [ 2.15572, 43.485233 ], [ 2.164416, 43.484198 ], [ 2.164715, 43.483654 ], [ 2.165041, 43.483086 ], [ 2.164199, 43.474968 ], [ 2.163834, 43.474355 ], [ 2.163192, 43.472557 ], [ 2.162136, 43.470737 ], [ 2.160723, 43.469048 ], [ 2.159972, 43.46835 ], [ 2.162423, 43.465713 ], [ 2.163356, 43.466545 ], [ 2.164046, 43.467209 ], [ 2.162319, 43.465129 ], [ 2.160949, 43.46303 ], [ 2.160358, 43.462645 ], [ 2.158819, 43.462007 ], [ 2.150871, 43.460059 ], [ 2.151054, 43.456463 ] ] ], [ [ [ 2.139374, 43.444898 ], [ 2.14407, 43.447561 ], [ 2.144773, 43.448023 ], [ 2.14527, 43.448866 ], [ 2.148098412980892, 43.454077286926065 ], [ 2.146312, 43.44736 ], [ 2.146079, 43.44432 ], [ 2.145441, 43.443976 ], [ 2.138216, 43.444585 ], [ 2.138581, 43.444659 ], [ 2.139374, 43.444898 ] ] ], [ [ [ 2.132921, 43.454319 ], [ 2.135903, 43.446446 ], [ 2.136319, 43.445328 ], [ 2.134835, 43.446639 ], [ 2.132921, 43.454319 ] ] ], [ [ [ 2.117225, 43.454998 ], [ 2.117270410406675, 43.454993940129199 ], [ 2.117811, 43.454049 ], [ 2.117001897485222, 43.454953071109394 ], [ 2.117225, 43.454998 ] ] ], [ [ [ 2.130831, 43.455911 ], [ 2.131519, 43.455459 ], [ 2.132921, 43.454319 ], [ 2.125785, 43.455303 ], [ 2.122716, 43.453422 ], [ 2.118992, 43.452458 ], [ 2.117811, 43.454049 ], [ 2.11794, 43.45394 ], [ 2.120908, 43.454721 ], [ 2.129424, 43.45692 ], [ 2.130831, 43.455911 ] ] ], [ [ [ 2.104187, 43.454788 ], [ 2.096484, 43.455848 ], [ 2.097477, 43.456917 ], [ 2.1059, 43.454461 ], [ 2.106637, 43.453362 ], [ 2.104187, 43.454788 ] ] ], [ [ [ 2.094511737589241, 43.455465989602232 ], [ 2.094535370631322, 43.455499059392125 ], [ 2.094694441585307, 43.455527544190865 ], [ 2.094511737589241, 43.455465989602232 ] ] ] ] } },
{ "type": "Feature", "properties": { "codgeo": "81081", "value": 780, "isochrone_group": 13.0, "nb_agences": 1 }, "geometry": { "type": "MultiPolygon", "coordinates": [ [ [ [ 2.19464, 43.496954 ], [ 2.194435, 43.498483 ], [ 2.194012024029669, 43.500943627063357 ], [ 2.194766, 43.500565 ], [ 2.19495, 43.499935 ], [ 2.198419, 43.498974 ], [ 2.20104243393002, 43.500847446199444 ], [ 2.202662168618944, 43.495175295444682 ], [ 2.197901, 43.49598 ], [ 2.195504, 43.495648 ], [ 2.194915, 43.496434 ], [ 2.194799, 43.496599 ], [ 2.19464, 43.496954 ] ] ], [ [ [ 2.199612, 43.475193 ], [ 2.198526, 43.471761 ], [ 2.194225, 43.470395 ], [ 2.192945, 43.470092 ], [ 2.192308, 43.470248 ], [ 2.184629, 43.470456 ], [ 2.192156, 43.470313 ], [ 2.193685, 43.473572 ], [ 2.192974, 43.474742 ], [ 2.192562, 43.475295 ], [ 2.192188, 43.475622 ], [ 2.191283, 43.476493 ], [ 2.194991, 43.476075 ], [ 2.195691, 43.476019 ], [ 2.197877, 43.47583 ], [ 2.198376, 43.475758 ], [ 2.198899, 43.475545 ], [ 2.199612, 43.475193 ] ] ], [ [ [ 2.173524, 43.471334 ], [ 2.174213, 43.471132 ], [ 2.178688, 43.469467 ], [ 2.170506718030917, 43.470496386635091 ], [ 2.173524, 43.471334 ] ] ], [ [ [ 2.164046, 43.467209 ], [ 2.164425, 43.46765 ], [ 2.164921, 43.468418 ], [ 2.165473, 43.469099 ], [ 2.170428500384264, 43.470474673004453 ], [ 2.164046, 43.467209 ] ] ], [ [ [ 2.154305, 43.442724 ], [ 2.154209, 43.442502 ], [ 2.152126, 43.441209 ], [ 2.146085, 43.441769 ], [ 2.140172, 43.441102 ], [ 2.136881, 43.444848 ], [ 2.137458, 43.444628 ], [ 2.138216, 43.444585 ], [ 2.145441, 43.443976 ], [ 2.146079, 43.44432 ], [ 2.146312, 43.44736 ], [ 2.148222, 43.454542 ], [ 2.151054, 43.456463 ], [ 2.150871, 43.460059 ], [ 2.158819, 43.462007 ], [ 2.160358, 43.462645 ], [ 2.154619, 43.45638 ], [ 2.149519, 43.449899 ], [ 2.151706, 43.447039 ], [ 2.153735, 43.444578 ], [ 2.154482, 43.443931 ], [ 2.154305, 43.442724 ] ] ], [ [ [ 2.122551226916752, 43.453379346602517 ], [ 2.122729, 43.4534 ], [ 2.125798, 43.455282 ], [ 2.125785748924728, 43.455302896728966 ], [ 2.132921, 43.454319 ], [ 2.134835, 43.446639 ], [ 2.136319, 43.445328 ], [ 2.136881, 43.444848 ], [ 2.131817, 43.447272 ], [ 2.124869, 43.450215 ], [ 2.124715, 43.450295 ], [ 2.123819, 43.451377 ], [ 2.121545168961314, 43.45311891699216 ], [ 2.122551226916752, 43.453379346602517 ] ] ], [ [ [ 2.096484, 43.455848 ], [ 2.100626574093884, 43.455277945665372 ], [ 2.104015, 43.454127 ], [ 2.104008, 43.452547 ], [ 2.104151, 43.452407 ], [ 2.104625, 43.452075 ], [ 2.105679, 43.451834 ], [ 2.106543, 43.451699 ], [ 2.105207, 43.451425 ], [ 2.104604, 43.451334 ], [ 2.103264, 43.451982 ], [ 2.096484, 43.455848 ] ] ], [ [ [ 2.096484, 43.455848 ], [ 2.092949171598894, 43.452573111456317 ], [ 2.092728, 43.45297 ], [ 2.094511737589241, 43.455465989602232 ], [ 2.095236, 43.45571 ], [ 2.096484, 43.455848 ] ] ] ] } },
{ "type": "Feature", "properties": { "codgeo": "81081", "value": 840, "isochrone_group": 14.0, "nb_agences": 1 }, "geometry": { "type": "MultiPolygon", "coordinates": [ [ [ [ 2.213241, 43.494696 ], [ 2.214886949325766, 43.495001269013109 ], [ 2.212786692294249, 43.49310376502136 ], [ 2.213241, 43.494696 ] ] ], [ [ [ 2.194012024029669, 43.500943627063357 ], [ 2.187406, 43.504261 ], [ 2.193723, 43.502625 ], [ 2.194012024029669, 43.500943627063357 ] ] ], [ [ [ 2.184053, 43.500964 ], [ 2.180094, 43.494638 ], [ 2.180147, 43.495024 ], [ 2.184053, 43.500964 ] ] ], [ [ [ 2.179327, 43.49313 ], [ 2.179829, 43.49382 ], [ 2.177666, 43.487283 ], [ 2.17488564717017, 43.485483406970481 ], [ 2.175719, 43.487859 ], [ 2.176219, 43.488205 ], [ 2.1776, 43.489949 ], [ 2.179327, 43.49313 ] ] ], [ [ [ 2.177495, 43.476829 ], [ 2.176309, 43.477104 ], [ 2.17577, 43.477287 ], [ 2.172773, 43.479461 ], [ 2.174735306986638, 43.48505484048669 ], [ 2.177495, 43.476829 ] ] ], [ [ [ 2.204869, 43.471534 ], [ 2.205573, 43.470768 ], [ 2.205796, 43.469887 ], [ 2.205395, 43.468685 ], [ 2.20442, 43.468008 ], [ 2.203351, 43.467927 ], [ 2.202901, 43.46805 ], [ 2.201837, 43.468766 ], [ 2.192945, 43.470092 ], [ 2.194225, 43.470395 ], [ 2.198526, 43.471761 ], [ 2.199612, 43.475193 ], [ 2.198899, 43.475545 ], [ 2.199902, 43.475074 ], [ 2.200078, 43.47498 ], [ 2.200947, 43.474558 ], [ 2.201685, 43.47402 ], [ 2.202909, 43.473332 ], [ 2.204869, 43.471534 ] ] ], [ [ [ 2.164046, 43.467209 ], [ 2.170478, 43.4705 ], [ 2.178688, 43.469467 ], [ 2.169923, 43.467933 ], [ 2.169106, 43.467446 ], [ 2.16755, 43.466274 ], [ 2.160949, 43.46303 ], [ 2.162319, 43.465129 ], [ 2.164046, 43.467209 ] ] ], [ [ [ 2.157473, 43.444591 ], [ 2.15885, 43.439504 ], [ 2.157942, 43.436488 ], [ 2.157477, 43.436528 ], [ 2.156878, 43.436667 ], [ 2.152589, 43.43848 ], [ 2.143825, 43.439169 ], [ 2.143493, 43.438939 ], [ 2.141842, 43.437921 ], [ 2.141518, 43.437792 ], [ 2.140955, 43.437638 ], [ 2.140435, 43.437565 ], [ 2.139853, 43.437533 ], [ 2.138210911006719, 43.438112579279675 ], [ 2.137933, 43.438778 ], [ 2.137327, 43.439123 ], [ 2.136891, 43.4393 ], [ 2.135914, 43.439366 ], [ 2.135664, 43.439316 ], [ 2.135374, 43.439202 ], [ 2.135197205899111, 43.439176273782557 ], [ 2.13462, 43.43938 ], [ 2.134148, 43.442949 ], [ 2.126869, 43.447669 ], [ 2.126609, 43.447741 ], [ 2.125972, 43.448052 ], [ 2.123819, 43.451377 ], [ 2.124715, 43.450295 ], [ 2.124869, 43.450215 ], [ 2.131817, 43.447272 ], [ 2.136881, 43.444848 ], [ 2.140172, 43.441102 ], [ 2.146085, 43.441769 ], [ 2.152126, 43.441209 ], [ 2.154209, 43.442502 ], [ 2.154305, 43.442724 ], [ 2.154482, 43.443931 ], [ 2.153735, 43.444578 ], [ 2.151706, 43.447039 ], [ 2.149519, 43.449899 ], [ 2.154619, 43.45638 ], [ 2.160358, 43.462645 ], [ 2.160949, 43.46303 ], [ 2.159697, 43.457061 ], [ 2.159492, 43.456808 ], [ 2.159185, 43.456479 ], [ 2.158486, 43.455815 ], [ 2.155812, 43.448081 ], [ 2.157473, 43.444591 ] ] ], [ [ [ 2.105848, 43.450636 ], [ 2.103466919735024, 43.449985635007849 ], [ 2.104351, 43.450863 ], [ 2.106543, 43.451699 ], [ 2.107767, 43.45228 ], [ 2.105848, 43.450636 ] ] ] ] } },
{ "type": "Feature", "properties": { "codgeo": "81081", "value": 900, "isochrone_group": 15.0, "nb_agences": 1 }, "geometry": { "type": "MultiPolygon", "coordinates": [ [ [ [ 2.202909, 43.473332 ], [ 2.201685, 43.47402 ], [ 2.200947, 43.474558 ], [ 2.200078, 43.47498 ], [ 2.199902, 43.475074 ], [ 2.198899, 43.475545 ], [ 2.198376, 43.475758 ], [ 2.197877, 43.47583 ], [ 2.195691, 43.476019 ], [ 2.194991, 43.476075 ], [ 2.191283, 43.476493 ], [ 2.190481, 43.476717 ], [ 2.188908, 43.476885 ], [ 2.188261, 43.476826 ], [ 2.187521, 43.476509 ], [ 2.185673, 43.475642 ], [ 2.180366, 43.475762 ], [ 2.179661, 43.476015 ], [ 2.179205, 43.476226 ], [ 2.177495, 43.476829 ], [ 2.174644, 43.485327 ], [ 2.177666, 43.487283 ], [ 2.179829, 43.49382 ], [ 2.180094, 43.494638 ], [ 2.183865257621458, 43.500664010536347 ], [ 2.187517861545204, 43.504059715717851 ], [ 2.189368024084304, 43.503275722688102 ], [ 2.194766, 43.500565 ], [ 2.195162982614765, 43.500449333725662 ], [ 2.199489, 43.496152 ], [ 2.198504, 43.492689 ], [ 2.200028, 43.491737 ], [ 2.202883, 43.489045 ], [ 2.205378, 43.486067 ], [ 2.203265, 43.480046 ], [ 2.203131, 43.478544 ], [ 2.203489, 43.477923 ], [ 2.205562, 43.477388 ], [ 2.206299, 43.477521 ], [ 2.206962, 43.477774 ], [ 2.20831502760622, 43.478719155967092 ], [ 2.206815, 43.474301 ], [ 2.20654, 43.472452 ], [ 2.205796, 43.469887 ], [ 2.205573, 43.470768 ], [ 2.204869, 43.471534 ], [ 2.202909, 43.473332 ] ] ], [ [ [ 2.163239, 43.438848 ], [ 2.163713, 43.438708 ], [ 2.164177, 43.438487 ], [ 2.164653, 43.438133 ], [ 2.165009, 43.437714 ], [ 2.165307, 43.437058 ], [ 2.165385, 43.436608 ], [ 2.165386, 43.435574 ], [ 2.165168, 43.434912 ], [ 2.164716, 43.434329 ], [ 2.164224, 43.433963 ], [ 2.163478, 43.433602 ], [ 2.161469, 43.4329 ], [ 2.161213, 43.433151 ], [ 2.160821, 43.433597 ], [ 2.156878, 43.436667 ], [ 2.157477, 43.436528 ], [ 2.157942, 43.436488 ], [ 2.15885, 43.439504 ], [ 2.157473, 43.444591 ], [ 2.155812, 43.448081 ], [ 2.158486, 43.455815 ], [ 2.159185, 43.456479 ], [ 2.159492, 43.456808 ], [ 2.159697, 43.457061 ], [ 2.160949, 43.46303 ], [ 2.16755, 43.466274 ], [ 2.169106, 43.467446 ], [ 2.169923, 43.467933 ], [ 2.169201, 43.466952 ], [ 2.167067, 43.465638 ], [ 2.16515, 43.458205 ], [ 2.163395, 43.455062 ], [ 2.160462, 43.450984 ], [ 2.159041, 43.446551 ], [ 2.163239, 43.438848 ] ] ], [ [ [ 2.152589, 43.43848 ], [ 2.156878, 43.436667 ], [ 2.151325, 43.437851 ], [ 2.151118, 43.437911 ], [ 2.149582, 43.438364 ], [ 2.142488370059071, 43.437957995082193 ], [ 2.143736, 43.439099 ], [ 2.143769245441712, 43.439130374854209 ], [ 2.143825, 43.439169 ], [ 2.152589, 43.43848 ] ] ], [ [ [ 2.127877, 43.442905 ], [ 2.12695540086993, 43.445058895500061 ], [ 2.126894220640111, 43.447652645909976 ], [ 2.134148, 43.442949 ], [ 2.134594368012241, 43.439573814754901 ], [ 2.133231, 43.439004 ], [ 2.128267830606631, 43.438473111452502 ], [ 2.127689, 43.43931 ], [ 2.127877, 43.442905 ] ] ] ] } },
{ "type": "Feature", "properties": { "codgeo": "81081", "value": 960, "isochrone_group": 16.0, "nb_agences": 1 }, "geometry": { "type": "MultiPolygon", "coordinates": [ [ [ [ 2.218738889688769, 43.491254550963532 ], [ 2.217950684183164, 43.489810303317924 ], [ 2.218338, 43.491192 ], [ 2.218738889688769, 43.491254550963532 ] ] ], [ [ [ 2.195507166331222, 43.469709922564647 ], [ 2.201837, 43.468766 ], [ 2.202901, 43.46805 ], [ 2.203351, 43.467927 ], [ 2.20442, 43.468008 ], [ 2.205395, 43.468685 ], [ 2.205796, 43.469887 ], [ 2.206420185397317, 43.472038929494779 ], [ 2.206706, 43.471937 ], [ 2.207928, 43.475323 ], [ 2.213233199594634, 43.478420769499976 ], [ 2.212049, 43.473592 ], [ 2.212028, 43.472665 ], [ 2.208344, 43.46804 ], [ 2.205017, 43.464764 ], [ 2.201919, 43.466284 ], [ 2.195507166331222, 43.469709922564647 ] ] ], [ [ [ 2.160462, 43.450984 ], [ 2.163395, 43.455062 ], [ 2.16515, 43.458205 ], [ 2.167067, 43.465638 ], [ 2.169201, 43.466952 ], [ 2.169923, 43.467933 ], [ 2.178688, 43.469467 ], [ 2.170588, 43.46756 ], [ 2.169142, 43.458849 ], [ 2.169746, 43.4553 ], [ 2.169775, 43.454938 ], [ 2.166555, 43.453328 ], [ 2.160327072572529, 43.450563075801583 ], [ 2.160462, 43.450984 ] ] ], [ [ [ 2.159772857462491, 43.448834127467414 ], [ 2.162087, 43.445101 ], [ 2.164653, 43.438133 ], [ 2.164177, 43.438487 ], [ 2.163713, 43.438708 ], [ 2.163239, 43.438848 ], [ 2.159041, 43.446551 ], [ 2.159772857462491, 43.448834127467414 ] ] ], [ [ [ 2.16392, 43.428886 ], [ 2.160474, 43.430941 ], [ 2.157645, 43.433167 ], [ 2.153661700716867, 43.437352773158871 ], [ 2.156878, 43.436667 ], [ 2.160821, 43.433597 ], [ 2.161213, 43.433151 ], [ 2.161469, 43.4329 ], [ 2.163478, 43.433602 ], [ 2.164224, 43.433963 ], [ 2.164716, 43.434329 ], [ 2.165168, 43.434912 ], [ 2.165386, 43.435574 ], [ 2.165385, 43.436608 ], [ 2.165857, 43.433171 ], [ 2.165848, 43.432792 ], [ 2.165737, 43.432232 ], [ 2.165036, 43.428853 ], [ 2.165012, 43.428706 ], [ 2.164283, 43.428824 ], [ 2.16392, 43.428886 ] ] ], [ [ [ 2.127902, 43.431417 ], [ 2.131853, 43.433263 ], [ 2.132049805316582, 43.433232630540957 ], [ 2.127870227737815, 43.43135414778952 ], [ 2.127902, 43.431417 ] ] ] ] } },
{ "type": "Feature", "properties": { "codgeo": "81081", "value": 1020, "isochrone_group": 17.0, "nb_agences": 1 }, "geometry": { "type": "MultiPolygon", "coordinates": [ [ [ [ 2.216773, 43.484049 ], [ 2.218421449131164, 43.490672897099564 ], [ 2.21885072400966, 43.491459467642606 ], [ 2.220091454727804, 43.491048051253252 ], [ 2.218582, 43.490407 ], [ 2.216773, 43.484049 ] ] ], [ [ [ 2.203696, 43.459585 ], [ 2.203168, 43.459059 ], [ 2.202509, 43.458661 ], [ 2.201955, 43.458462 ], [ 2.200632, 43.46125 ], [ 2.20063, 43.461736 ], [ 2.201009, 43.46352 ], [ 2.201215, 43.464205 ], [ 2.20161, 43.465623 ], [ 2.194225, 43.470395 ], [ 2.201919, 43.466284 ], [ 2.205017, 43.464764 ], [ 2.208344, 43.46804 ], [ 2.212028, 43.472665 ], [ 2.212049, 43.473592 ], [ 2.212313923054437, 43.474672267524923 ], [ 2.215138, 43.476819 ], [ 2.215139915008852, 43.476819957504418 ], [ 2.214657, 43.47553 ], [ 2.213955, 43.470563 ], [ 2.212586, 43.467913 ], [ 2.211578, 43.466521 ], [ 2.210359, 43.466128 ], [ 2.20396, 43.459935 ], [ 2.203696, 43.459585 ] ] ], [ [ [ 2.161021872826576, 43.446819241397385 ], [ 2.159052, 43.449997 ], [ 2.166555, 43.453328 ], [ 2.169775, 43.454938 ], [ 2.169746, 43.4553 ], [ 2.169142, 43.458849 ], [ 2.170588, 43.46756 ], [ 2.178688, 43.469467 ], [ 2.179715, 43.468827 ], [ 2.180653, 43.468799 ], [ 2.181034, 43.468902 ], [ 2.177384, 43.466248 ], [ 2.174977, 43.457705 ], [ 2.174492, 43.454138 ], [ 2.170535, 43.44863 ], [ 2.169275, 43.448914 ], [ 2.168805, 43.449037 ], [ 2.167949, 43.449546 ], [ 2.161021872826576, 43.446819241397385 ] ] ], [ [ [ 2.164208, 43.427705 ], [ 2.156958, 43.428746 ], [ 2.15481, 43.431634 ], [ 2.152589, 43.43848 ], [ 2.157645, 43.433167 ], [ 2.160474, 43.430941 ], [ 2.16392, 43.428886 ], [ 2.164283, 43.428824 ], [ 2.165012, 43.428706 ], [ 2.165036, 43.428853 ], [ 2.165737, 43.432232 ], [ 2.165848, 43.432792 ], [ 2.165857, 43.433171 ], [ 2.165385, 43.436608 ], [ 2.165307, 43.437058 ], [ 2.169563, 43.432887 ], [ 2.170668, 43.432172 ], [ 2.171716, 43.430002 ], [ 2.172529, 43.427212 ], [ 2.172547, 43.427117 ], [ 2.16933, 43.425792 ], [ 2.167323, 43.4259 ], [ 2.164208, 43.427705 ] ] ], [ [ [ 2.136461841582748, 43.430905193715098 ], [ 2.13655, 43.430996 ], [ 2.136783, 43.431223 ], [ 2.136466, 43.430905 ], [ 2.136461841582748, 43.430905193715098 ] ] ] ] } },
{ "type": "Feature", "properties": { "codgeo": "81081", "value": 1080, "isochrone_group": 18.0, "nb_agences": 1 }, "geometry": { "type": "MultiPolygon", "coordinates": [ [ [ [ 2.201648, 43.453514 ], [ 2.200713, 43.454259 ], [ 2.199676, 43.455323 ], [ 2.199501, 43.456038 ], [ 2.19908, 43.458581 ], [ 2.198957, 43.459189 ], [ 2.199044, 43.460025 ], [ 2.199401, 43.460757 ], [ 2.199847, 43.461281 ], [ 2.201009, 43.46352 ], [ 2.20063, 43.461736 ], [ 2.200632, 43.46125 ], [ 2.201955, 43.458462 ], [ 2.202509, 43.458661 ], [ 2.203168, 43.459059 ], [ 2.203696, 43.459585 ], [ 2.20396, 43.459935 ], [ 2.210359, 43.466128 ], [ 2.211578, 43.466521 ], [ 2.212586, 43.467913 ], [ 2.213955, 43.470563 ], [ 2.214427343593843, 43.473905066425374 ], [ 2.219379922339469, 43.476464735927195 ], [ 2.219933, 43.472892 ], [ 2.220052, 43.472725 ], [ 2.21486, 43.465896 ], [ 2.20698, 43.462696 ], [ 2.205139, 43.454399 ], [ 2.205256, 43.453611 ], [ 2.205245, 43.453363 ], [ 2.201648, 43.453514 ] ] ], [ [ [ 2.176249, 43.453821 ], [ 2.174968, 43.454118 ], [ 2.174496712264106, 43.454172657002196 ], [ 2.174977, 43.457705 ], [ 2.177384, 43.466248 ], [ 2.181034, 43.468902 ], [ 2.181616, 43.46923 ], [ 2.179367, 43.466883 ], [ 2.177845, 43.463621 ], [ 2.180627, 43.457902 ], [ 2.180787, 43.454306 ], [ 2.178755, 43.453996 ], [ 2.177558, 43.453799 ], [ 2.177156, 43.453728 ], [ 2.176675, 43.453732 ], [ 2.176249, 43.453821 ] ] ], [ [ [ 2.1701, 43.420172 ], [ 2.16726, 43.422099 ], [ 2.164479, 43.423629 ], [ 2.157342, 43.426123 ], [ 2.153789, 43.427151 ], [ 2.152631, 43.428262 ], [ 2.152143, 43.429513 ], [ 2.152143, 43.429614 ], [ 2.152344, 43.430449 ], [ 2.152561766561691, 43.437587299007909 ], [ 2.152902158644192, 43.437514721261536 ], [ 2.15481, 43.431634 ], [ 2.156958, 43.428746 ], [ 2.164208, 43.427705 ], [ 2.167323, 43.4259 ], [ 2.16933, 43.425792 ], [ 2.172547, 43.427117 ], [ 2.172529, 43.427212 ], [ 2.171716, 43.430002 ], [ 2.170668, 43.432172 ], [ 2.169563, 43.432887 ], [ 2.165307, 43.437058 ], [ 2.165009, 43.437714 ], [ 2.164653, 43.438133 ], [ 2.164177, 43.438487 ], [ 2.163713, 43.438708 ], [ 2.161657512548705, 43.441717365417972 ], [ 2.160436988414389, 43.443931818488657 ], [ 2.166799, 43.439212 ], [ 2.174933, 43.439327 ], [ 2.177379, 43.437203 ], [ 2.177623, 43.436935 ], [ 2.175772, 43.43078 ], [ 2.172567, 43.424327 ], [ 2.171654, 43.422473 ], [ 2.170334, 43.420444 ], [ 2.1701, 43.420172 ] ] ], [ [ [ 2.135121025237518, 43.429602516304342 ], [ 2.135418, 43.42983 ], [ 2.135127, 43.429602 ], [ 2.135121025237518, 43.429602516304342 ] ] ], [ [ [ 2.135418, 43.42983 ], [ 2.136461841582747, 43.430905193715098 ], [ 2.136461841582748, 43.430905193715098 ], [ 2.135418, 43.42983 ] ] ] ] } },
{ "type": "Feature", "properties": { "codgeo": "81081", "value": 1140, "isochrone_group": 19.0, "nb_agences": 1 }, "geometry": { "type": "MultiPolygon", "coordinates": [ [ [ [ 2.21273, 43.464391 ], [ 2.212272, 43.464297 ], [ 2.211671, 43.464285 ], [ 2.208262, 43.455957 ], [ 2.207885, 43.452377 ], [ 2.202086, 43.446274 ], [ 2.20138, 43.44564 ], [ 2.201017, 43.445455 ], [ 2.198961, 43.448026 ], [ 2.198972, 43.448158 ], [ 2.199376, 43.449033 ], [ 2.199676, 43.455323 ], [ 2.200713, 43.454259 ], [ 2.201648, 43.453514 ], [ 2.205245, 43.453363 ], [ 2.205256, 43.453611 ], [ 2.205139, 43.454399 ], [ 2.20698, 43.462696 ], [ 2.21486, 43.465896 ], [ 2.220052, 43.472725 ], [ 2.220024650423636, 43.472763381338261 ], [ 2.220792, 43.472795 ], [ 2.22137, 43.472616 ], [ 2.221864, 43.472581 ], [ 2.222047, 43.472591 ], [ 2.222274376677151, 43.472858616365393 ], [ 2.222196, 43.468881 ], [ 2.222079, 43.468058 ], [ 2.22165, 43.467366 ], [ 2.221439, 43.46717 ], [ 2.221378, 43.467135 ], [ 2.214326, 43.465146 ], [ 2.213946, 43.46494 ], [ 2.213497, 43.464757 ], [ 2.21273, 43.464391 ] ] ], [ [ [ 2.180789, 43.433445 ], [ 2.180478, 43.433182 ], [ 2.175252, 43.427195 ], [ 2.174156, 43.422186 ], [ 2.174154, 43.422091 ], [ 2.173401, 43.42066 ], [ 2.165924, 43.415958 ], [ 2.165242, 43.415703 ], [ 2.164152, 43.415568 ], [ 2.161663, 43.418169 ], [ 2.157561, 43.4252 ], [ 2.153967, 43.424986 ], [ 2.15107, 43.426035 ], [ 2.148834, 43.42886 ], [ 2.148875, 43.428899 ], [ 2.151901, 43.433338 ], [ 2.151938189512374, 43.438525504539918 ], [ 2.152589, 43.43848 ], [ 2.152344, 43.430449 ], [ 2.152143, 43.429614 ], [ 2.152143, 43.429513 ], [ 2.152631, 43.428262 ], [ 2.153789, 43.427151 ], [ 2.157342, 43.426123 ], [ 2.164479, 43.423629 ], [ 2.16726, 43.422099 ], [ 2.1701, 43.420172 ], [ 2.170334, 43.420444 ], [ 2.171654, 43.422473 ], [ 2.172567, 43.424327 ], [ 2.175772, 43.43078 ], [ 2.177623, 43.436935 ], [ 2.177379, 43.437203 ], [ 2.174933, 43.439327 ], [ 2.166799, 43.439212 ], [ 2.163225409173271, 43.441863158336929 ], [ 2.161978, 43.444765 ], [ 2.160753394280725, 43.450910546098996 ], [ 2.16628, 43.453878 ], [ 2.1708, 43.454639 ], [ 2.172683, 43.454383 ], [ 2.174968, 43.454118 ], [ 2.176249, 43.453821 ], [ 2.176675, 43.453732 ], [ 2.177156, 43.453728 ], [ 2.177558, 43.453799 ], [ 2.178755, 43.453996 ], [ 2.180787, 43.454306 ], [ 2.180627, 43.457902 ], [ 2.177845, 43.463621 ], [ 2.179367, 43.466883 ], [ 2.18136528843646, 43.468968363699574 ], [ 2.184159, 43.469528 ], [ 2.184201, 43.469577 ], [ 2.183874728250784, 43.470129953185463 ], [ 2.184629, 43.470456 ], [ 2.189406207645421, 43.470326600444032 ], [ 2.182639, 43.467148 ], [ 2.181067, 43.464574 ], [ 2.184085, 43.458127 ], [ 2.185997, 43.455277 ], [ 2.186464, 43.454692 ], [ 2.18365, 43.452447 ], [ 2.181641, 43.445386 ], [ 2.183191, 43.442137 ], [ 2.181917, 43.441266 ], [ 2.180789, 43.433445 ] ] ] ] } },
{ "type": "Feature", "properties": { "codgeo": "81081", "value": 1200, "isochrone_group": 20.0, "nb_agences": 1 }, "geometry": { "type": "MultiPolygon", "coordinates": [ [ [ [ 2.222079, 43.468058 ], [ 2.222196, 43.468881 ], [ 2.222232678299729, 43.470742423711307 ], [ 2.222956792981598, 43.470764560288949 ], [ 2.222079, 43.468058 ] ] ], [ [ [ 2.213439, 43.452084 ], [ 2.212825, 43.451995 ], [ 2.212125, 43.451871 ], [ 2.210996, 43.451764 ], [ 2.210479, 43.451703 ], [ 2.203604113630141, 43.447871697445187 ], [ 2.207885, 43.452377 ], [ 2.208262, 43.455957 ], [ 2.211671, 43.464285 ], [ 2.212272, 43.464297 ], [ 2.21273, 43.464391 ], [ 2.213497, 43.464757 ], [ 2.213946, 43.46494 ], [ 2.214326, 43.465146 ], [ 2.221378, 43.467135 ], [ 2.221439, 43.46717 ], [ 2.22165, 43.467366 ], [ 2.222079, 43.468058 ], [ 2.221618, 43.466598 ], [ 2.220724, 43.46509 ], [ 2.220311, 43.46452 ], [ 2.21944, 43.463405 ], [ 2.219039, 43.463058 ], [ 2.218832, 43.462932 ], [ 2.218489, 43.462775 ], [ 2.213391, 43.455741 ], [ 2.214067, 43.452204 ], [ 2.213439, 43.452084 ] ] ], [ [ [ 2.173401, 43.42066 ], [ 2.174154, 43.422091 ], [ 2.174156, 43.422186 ], [ 2.175252, 43.427195 ], [ 2.180478, 43.433182 ], [ 2.180789, 43.433445 ], [ 2.181917, 43.441266 ], [ 2.183191, 43.442137 ], [ 2.181641, 43.445386 ], [ 2.18365, 43.452447 ], [ 2.186464, 43.454692 ], [ 2.185997, 43.455277 ], [ 2.184085, 43.458127 ], [ 2.181067, 43.464574 ], [ 2.182639, 43.467148 ], [ 2.19071, 43.470939 ], [ 2.192149254273049, 43.470316644115968 ], [ 2.192177, 43.470303 ], [ 2.192224277116165, 43.4702842030743 ], [ 2.192308, 43.470248 ], [ 2.192327095008077, 43.470243323671497 ], [ 2.192426, 43.470204 ], [ 2.192717703225761, 43.470147664516134 ], [ 2.192945, 43.470092 ], [ 2.192972376380616, 43.470098480502607 ], [ 2.193037, 43.470086 ], [ 2.193646211190719, 43.470257989836554 ], [ 2.194225, 43.470395 ], [ 2.20161, 43.465623 ], [ 2.201215, 43.464205 ], [ 2.201009, 43.46352 ], [ 2.199847, 43.461281 ], [ 2.199401, 43.460757 ], [ 2.199044, 43.460025 ], [ 2.198957, 43.459189 ], [ 2.19908, 43.458581 ], [ 2.199501, 43.456038 ], [ 2.199676, 43.455323 ], [ 2.199376, 43.449033 ], [ 2.198972, 43.448158 ], [ 2.198961, 43.448026 ], [ 2.201017, 43.445455 ], [ 2.20138, 43.44564 ], [ 2.202086, 43.446274 ], [ 2.199944, 43.442793 ], [ 2.197404, 43.440659 ], [ 2.197047, 43.440974 ], [ 2.192992, 43.443209 ], [ 2.188499, 43.442729 ], [ 2.185354, 43.435285 ], [ 2.184377, 43.43487 ], [ 2.179083, 43.428274 ], [ 2.177717, 43.423443 ], [ 2.173401, 43.42066 ] ] ], [ [ [ 2.155446, 43.421774 ], [ 2.152464, 43.423792 ], [ 2.152834696198429, 43.42539600576039 ], [ 2.153967, 43.424986 ], [ 2.157561, 43.4252 ], [ 2.161663, 43.418169 ], [ 2.164152, 43.415568 ], [ 2.165242, 43.415703 ], [ 2.165924, 43.415958 ], [ 2.166457796979589, 43.416293684552372 ], [ 2.164936, 43.412934 ], [ 2.162796, 43.410039 ], [ 2.160105, 43.411125 ], [ 2.159739, 43.411275 ], [ 2.15932, 43.411544 ], [ 2.159042, 43.4118 ], [ 2.158684, 43.412327 ], [ 2.158488, 43.412965 ], [ 2.158478, 43.41358 ], [ 2.155446, 43.421774 ] ] ] ] } }
]
}
