{
"type": "FeatureCollection",
"name": "BPCE",
"crs": { "type": "name", "properties": { "name": "urn:ogc:def:crs:OGC:1.3:CRS84" } },
"features": [
{ "type": "Feature", "properties": { "codgeo": "34088", "value": 60, "isochrone_group": 1.0, "nb_agences": 1 }, "geometry": { "type": "Polygon", "coordinates": [ [ [ 3.718769, 43.55621 ], [ 3.719496, 43.555999 ], [ 3.720223, 43.555788 ], [ 3.720324, 43.556133 ], [ 3.718999, 43.556613 ], [ 3.718181, 43.556797 ], [ 3.717691, 43.556717 ], [ 3.718769, 43.55621 ] ] ] } },
{ "type": "Feature", "properties": { "codgeo": "34088", "value": 120, "isochrone_group": 2.0, "nb_agences": 1 }, "geometry": { "type": "Polygon", "coordinates": [ [ [ 3.720801, 43.556713 ], [ 3.722453, 43.556156 ], [ 3.722748, 43.555949 ], [ 3.723605, 43.554695 ], [ 3.72342, 43.554386 ], [ 3.722275, 43.554517 ], [ 3.721917, 43.554555 ], [ 3.718769, 43.55621 ], [ 3.719496, 43.555999 ], [ 3.720223, 43.555788 ], [ 3.720324, 43.556133 ], [ 3.718999, 43.556613 ], [ 3.718181, 43.556797 ], [ 3.720801, 43.556713 ] ] ] } },
{ "type": "Feature", "properties": { "codgeo": "34088", "value": 180, "isochrone_group": 3.0, "nb_agences": 1 }, "geometry": { "type": "Polygon", "coordinates": [ [ [ 3.718258, 43.557639 ], [ 3.718515, 43.557732 ], [ 3.718938, 43.55775 ], [ 3.724002, 43.558185 ], [ 3.724552, 43.557851 ], [ 3.726449, 43.554706 ], [ 3.726652, 43.552887 ], [ 3.726481, 43.55257 ], [ 3.723782, 43.552216 ], [ 3.720384, 43.552595 ], [ 3.720158, 43.552875 ], [ 3.717691, 43.556717 ], [ 3.718258, 43.557639 ] ], [ [ 3.718769, 43.55621 ], [ 3.721917, 43.554555 ], [ 3.722275, 43.554517 ], [ 3.72342, 43.554386 ], [ 3.723605, 43.554695 ], [ 3.722748, 43.555949 ], [ 3.722453, 43.556156 ], [ 3.720801, 43.556713 ], [ 3.718181, 43.556797 ], [ 3.717691, 43.556717 ], [ 3.718769, 43.55621 ] ] ] } },
{ "type": "Feature", "properties": { "codgeo": "34088", "value": 240, "isochrone_group": 4.0, "nb_agences": 1 }, "geometry": { "type": "Polygon", "coordinates": [ [ [ 3.715151, 43.557645 ], [ 3.715975, 43.558311 ], [ 3.717104, 43.559087 ], [ 3.72564, 43.560048 ], [ 3.728871, 43.558929 ], [ 3.730644, 43.55771 ], [ 3.73295, 43.549119 ], [ 3.732764, 43.548811 ], [ 3.728176, 43.547753 ], [ 3.727817, 43.547781 ], [ 3.723224, 43.548656 ], [ 3.716905, 43.550169 ], [ 3.71513, 43.557285 ], [ 3.715151, 43.557645 ] ], [ [ 3.720384, 43.552595 ], [ 3.723782, 43.552216 ], [ 3.726481, 43.55257 ], [ 3.726652, 43.552887 ], [ 3.726449, 43.554706 ], [ 3.724552, 43.557851 ], [ 3.724002, 43.558185 ], [ 3.718938, 43.55775 ], [ 3.718515, 43.557732 ], [ 3.718258, 43.557639 ], [ 3.717691, 43.556717 ], [ 3.720158, 43.552875 ], [ 3.720384, 43.552595 ] ] ] } },
{ "type": "Feature", "properties": { "codgeo": "34088", "value": 300, "isochrone_group": 5.0, "nb_agences": 1 }, "geometry": { "type": "Polygon", "coordinates": [ [ [ 3.712402, 43.557832 ], [ 3.714489, 43.561356 ], [ 3.714736, 43.561619 ], [ 3.715934, 43.561189 ], [ 3.721924, 43.560063 ], [ 3.729777, 43.563761 ], [ 3.730079, 43.564256 ], [ 3.730249, 43.564481 ], [ 3.730536, 43.564265 ], [ 3.737084, 43.558706 ], [ 3.741137, 43.557224 ], [ 3.74108, 43.556869 ], [ 3.738211, 43.549085 ], [ 3.740666, 43.54691 ], [ 3.741391, 43.545062 ], [ 3.741225, 43.544742 ], [ 3.740908, 43.544907 ], [ 3.740591, 43.545072 ], [ 3.735146, 43.54574 ], [ 3.730226, 43.541732 ], [ 3.729963, 43.541486 ], [ 3.726674, 43.541854 ], [ 3.726354, 43.542018 ], [ 3.722607, 43.544168 ], [ 3.715851, 43.54917 ], [ 3.711755, 43.549149 ], [ 3.711304, 43.549057 ], [ 3.71057, 43.548887 ], [ 3.710271, 43.548805 ], [ 3.709995, 43.548737 ], [ 3.709672, 43.548665 ], [ 3.709494, 43.548672 ], [ 3.709401, 43.548694 ], [ 3.709482, 43.549044 ], [ 3.71283, 43.555877 ], [ 3.712402, 43.557832 ] ], [ [ 3.716905, 43.550169 ], [ 3.723224, 43.548656 ], [ 3.727817, 43.547781 ], [ 3.728176, 43.547753 ], [ 3.732764, 43.548811 ], [ 3.73295, 43.549119 ], [ 3.730644, 43.55771 ], [ 3.728871, 43.558929 ], [ 3.72564, 43.560048 ], [ 3.717104, 43.559087 ], [ 3.715975, 43.558311 ], [ 3.715151, 43.557645 ], [ 3.71513, 43.557285 ], [ 3.716905, 43.550169 ] ] ] } },
{ "type": "Feature", "properties": { "codgeo": "34088", "value": 360, "isochrone_group": 6.0, "nb_agences": 1 }, "geometry": { "type": "Polygon", "coordinates": [ [ [ 3.708341, 43.560159 ], [ 3.71324, 43.563597 ], [ 3.721663, 43.561864 ], [ 3.728076, 43.564767 ], [ 3.728193, 43.564839 ], [ 3.731261, 43.566567 ], [ 3.734386, 43.568468 ], [ 3.736709, 43.569459 ], [ 3.736911, 43.569161 ], [ 3.736585, 43.56863 ], [ 3.735203, 43.563915 ], [ 3.738818, 43.559619 ], [ 3.739419, 43.559431 ], [ 3.746032, 43.55639 ], [ 3.747726, 43.556167 ], [ 3.748116, 43.55612 ], [ 3.749799, 43.556017 ], [ 3.751104, 43.55596 ], [ 3.751088, 43.5556 ], [ 3.74758, 43.553945 ], [ 3.747414, 43.54571 ], [ 3.747654, 43.545441 ], [ 3.749525, 43.542275 ], [ 3.749674, 43.541947 ], [ 3.750238486219501, 43.540573710869126 ], [ 3.749948, 43.540264 ], [ 3.750040119594698, 43.540156102135612 ], [ 3.75004, 43.540156 ], [ 3.746857, 43.54064 ], [ 3.740747, 43.541231 ], [ 3.735223, 43.538096 ], [ 3.735147, 43.538014 ], [ 3.734336, 43.537235 ], [ 3.73384, 43.536712 ], [ 3.725037, 43.537994 ], [ 3.72469, 43.53809 ], [ 3.723833, 43.539544 ], [ 3.720882, 43.543033 ], [ 3.715313, 43.543173 ], [ 3.714979, 43.543038 ], [ 3.713081, 43.543621 ], [ 3.70442, 43.544515 ], [ 3.704261, 43.544838 ], [ 3.704272, 43.54521 ], [ 3.705202, 43.549068 ], [ 3.70539, 43.549393 ], [ 3.706144, 43.550103 ], [ 3.706403, 43.550352 ], [ 3.70885, 43.553671 ], [ 3.708268, 43.559937 ], [ 3.708265, 43.560095 ], [ 3.708341, 43.560159 ] ], [ [ 3.709401, 43.548694 ], [ 3.709494, 43.548672 ], [ 3.709672, 43.548665 ], [ 3.709995, 43.548737 ], [ 3.710271, 43.548805 ], [ 3.71057, 43.548887 ], [ 3.711304, 43.549057 ], [ 3.711755, 43.549149 ], [ 3.715851, 43.54917 ], [ 3.722607, 43.544168 ], [ 3.726354, 43.542018 ], [ 3.726674, 43.541854 ], [ 3.729963, 43.541486 ], [ 3.730226, 43.541732 ], [ 3.735146, 43.54574 ], [ 3.740591, 43.545072 ], [ 3.740908, 43.544907 ], [ 3.741225, 43.544742 ], [ 3.741391, 43.545062 ], [ 3.740666, 43.54691 ], [ 3.738211, 43.549085 ], [ 3.74108, 43.556869 ], [ 3.741137, 43.557224 ], [ 3.737084, 43.558706 ], [ 3.730536, 43.564265 ], [ 3.730249, 43.564481 ], [ 3.730079, 43.564256 ], [ 3.729777, 43.563761 ], [ 3.721924, 43.560063 ], [ 3.715934, 43.561189 ], [ 3.714736, 43.561619 ], [ 3.714489, 43.561356 ], [ 3.712402, 43.557832 ], [ 3.71283, 43.555877 ], [ 3.709482, 43.549044 ], [ 3.709401, 43.548694 ] ] ] } },
{ "type": "Feature", "properties": { "codgeo": "34088", "value": 420, "isochrone_group": 7.0, "nb_agences": 1 }, "geometry": { "type": "MultiPolygon", "coordinates": [ [ [ [ 3.751584, 43.555918 ], [ 3.752047, 43.555875 ], [ 3.752354794116772, 43.555817901960943 ], [ 3.752059, 43.555872 ], [ 3.751994, 43.555518 ], [ 3.755454, 43.551388 ], [ 3.753187, 43.544355 ], [ 3.748365493285898, 43.544237051446743 ], [ 3.747654, 43.545441 ], [ 3.747414, 43.54571 ], [ 3.74758, 43.553945 ], [ 3.751088, 43.5556 ], [ 3.751103975311946, 43.555959444518784 ], [ 3.751137, 43.555958 ], [ 3.751584, 43.555918 ] ] ], [ [ [ 3.752753, 43.555745 ], [ 3.754357, 43.555311 ], [ 3.752740957919962, 43.555747201599125 ], [ 3.752753, 43.555745 ] ] ], [ [ [ 3.743209, 43.539009 ], [ 3.741862, 43.538244 ], [ 3.74158, 43.538078 ], [ 3.741409, 43.537988 ], [ 3.74114, 43.537873 ], [ 3.739938, 43.537297 ], [ 3.738996, 43.536832 ], [ 3.734487, 43.533644 ], [ 3.726865, 43.532025 ], [ 3.720867, 43.534707 ], [ 3.720623, 43.535041 ], [ 3.72038, 43.535375 ], [ 3.720261, 43.535581 ], [ 3.720152, 43.535771 ], [ 3.719984, 43.536148 ], [ 3.719399, 43.537214 ], [ 3.711412, 43.540064 ], [ 3.710252, 43.540249 ], [ 3.701777, 43.539447 ], [ 3.698726, 43.537691 ], [ 3.698393, 43.537827 ], [ 3.69904, 43.540836 ], [ 3.702452, 43.54886 ], [ 3.70252, 43.549022 ], [ 3.704253, 43.554932 ], [ 3.700555, 43.562984 ], [ 3.696828, 43.5645 ], [ 3.696642, 43.564529 ], [ 3.696449, 43.56456 ], [ 3.696125, 43.564626 ], [ 3.6958, 43.564693 ], [ 3.695873, 43.565045 ], [ 3.698252, 43.564947 ], [ 3.698548, 43.564893 ], [ 3.699227, 43.564623 ], [ 3.699873, 43.564363 ], [ 3.703838, 43.563131 ], [ 3.712032, 43.565574 ], [ 3.71227, 43.565458 ], [ 3.712509, 43.565342 ], [ 3.712768, 43.565131 ], [ 3.717963, 43.563372 ], [ 3.722758, 43.566932 ], [ 3.722951, 43.567236 ], [ 3.726416, 43.567317 ], [ 3.730422, 43.568168 ], [ 3.734987, 43.570601 ], [ 3.738857, 43.573255 ], [ 3.747509, 43.575472 ], [ 3.747686, 43.575531 ], [ 3.748628, 43.575813 ], [ 3.74957, 43.576095 ], [ 3.749673, 43.57575 ], [ 3.748731, 43.575468 ], [ 3.746078, 43.574368 ], [ 3.745403, 43.573977 ], [ 3.741951, 43.57026 ], [ 3.740497, 43.566492 ], [ 3.740394, 43.563614 ], [ 3.74043, 43.563255 ], [ 3.746032, 43.55639 ], [ 3.739419, 43.559431 ], [ 3.738818, 43.559619 ], [ 3.735203, 43.563915 ], [ 3.736585, 43.56863 ], [ 3.736911, 43.569161 ], [ 3.736709, 43.569459 ], [ 3.734386, 43.568468 ], [ 3.731261, 43.566567 ], [ 3.728193, 43.564839 ], [ 3.728076, 43.564767 ], [ 3.721663, 43.561864 ], [ 3.71324, 43.563597 ], [ 3.708341, 43.560159 ], [ 3.708265, 43.560095 ], [ 3.708268, 43.559937 ], [ 3.70885, 43.553671 ], [ 3.706403, 43.550352 ], [ 3.706144, 43.550103 ], [ 3.70539, 43.549393 ], [ 3.705202, 43.549068 ], [ 3.704272, 43.54521 ], [ 3.704261, 43.544838 ], [ 3.70442, 43.544515 ], [ 3.713081, 43.543621 ], [ 3.714979, 43.543038 ], [ 3.715313, 43.543173 ], [ 3.720882, 43.543033 ], [ 3.723833, 43.539544 ], [ 3.72469, 43.53809 ], [ 3.725037, 43.537994 ], [ 3.73384, 43.536712 ], [ 3.734336, 43.537235 ], [ 3.735147, 43.538014 ], [ 3.735223, 43.538096 ], [ 3.740747, 43.541231 ], [ 3.743054412796381, 43.541007811626415 ], [ 3.743496, 43.53957 ], [ 3.74327940926288, 43.539006923261269 ], [ 3.743209, 43.539009 ] ] ] ] } },
{ "type": "Feature", "properties": { "codgeo": "34088", "value": 480, "isochrone_group": 8.0, "nb_agences": 1 }, "geometry": { "type": "MultiPolygon", "coordinates": [ [ [ [ 3.692914, 43.567228 ], [ 3.694499, 43.567072 ], [ 3.698215, 43.566567 ], [ 3.703528, 43.566975 ], [ 3.711171, 43.568706 ], [ 3.717935, 43.572254 ], [ 3.720718, 43.574538 ], [ 3.720969, 43.574233 ], [ 3.727947, 43.570565 ], [ 3.734394, 43.573811 ], [ 3.734632, 43.573942 ], [ 3.736637, 43.575041 ], [ 3.737756, 43.575663 ], [ 3.746358, 43.57676 ], [ 3.746822, 43.57695 ], [ 3.747222, 43.577083 ], [ 3.752552, 43.579111 ], [ 3.753463, 43.579503 ], [ 3.756485, 43.580169 ], [ 3.756665, 43.580187 ], [ 3.758191, 43.579108 ], [ 3.758218, 43.579037 ], [ 3.758165, 43.577639 ], [ 3.757415, 43.57667 ], [ 3.757113, 43.576246 ], [ 3.756257, 43.576224 ], [ 3.753986, 43.575809 ], [ 3.751403, 43.574643 ], [ 3.751038, 43.574491 ], [ 3.750636, 43.574349 ], [ 3.748253, 43.573634 ], [ 3.746629, 43.56607 ], [ 3.747308, 43.564755 ], [ 3.752338, 43.557468 ], [ 3.752706170491736, 43.557398144262301 ], [ 3.752178, 43.55749 ], [ 3.751199, 43.557577 ], [ 3.7487, 43.557681 ], [ 3.747941, 43.557772 ], [ 3.744669, 43.5582 ], [ 3.744532384687311, 43.558227711374805 ], [ 3.74043, 43.563255 ], [ 3.740394, 43.563614 ], [ 3.740497, 43.566492 ], [ 3.741951, 43.57026 ], [ 3.745403, 43.573977 ], [ 3.746078, 43.574368 ], [ 3.748731, 43.575468 ], [ 3.749673, 43.57575 ], [ 3.74957, 43.576095 ], [ 3.748628, 43.575813 ], [ 3.747686, 43.575531 ], [ 3.747509, 43.575472 ], [ 3.738857, 43.573255 ], [ 3.734987, 43.570601 ], [ 3.730422, 43.568168 ], [ 3.726416, 43.567317 ], [ 3.722951, 43.567236 ], [ 3.722758, 43.566932 ], [ 3.717963, 43.563372 ], [ 3.712768, 43.565131 ], [ 3.712509, 43.565342 ], [ 3.71227, 43.565458 ], [ 3.712032, 43.565574 ], [ 3.703838, 43.563131 ], [ 3.699873, 43.564363 ], [ 3.699227, 43.564623 ], [ 3.698548, 43.564893 ], [ 3.698252, 43.564947 ], [ 3.695873, 43.565045 ], [ 3.6958, 43.564693 ], [ 3.696125, 43.564626 ], [ 3.696449, 43.56456 ], [ 3.696642, 43.564529 ], [ 3.696828, 43.5645 ], [ 3.700555, 43.562984 ], [ 3.704253, 43.554932 ], [ 3.70252, 43.549022 ], [ 3.702452, 43.54886 ], [ 3.69904, 43.540836 ], [ 3.698393, 43.537827 ], [ 3.698726, 43.537691 ], [ 3.701777, 43.539447 ], [ 3.710252, 43.540249 ], [ 3.711412, 43.540064 ], [ 3.719399, 43.537214 ], [ 3.719984, 43.536148 ], [ 3.720152, 43.535771 ], [ 3.720261, 43.535581 ], [ 3.72038, 43.535375 ], [ 3.720623, 43.535041 ], [ 3.720867, 43.534707 ], [ 3.726865, 43.532025 ], [ 3.734370872575518, 43.533619333206474 ], [ 3.733649, 43.53225 ], [ 3.732014148559299, 43.531258851160601 ], [ 3.72831, 43.530137 ], [ 3.726197, 43.527222 ], [ 3.725022039801183, 43.526078845678924 ], [ 3.720451, 43.525867 ], [ 3.718514, 43.528901 ], [ 3.71873, 43.533224 ], [ 3.718695, 43.533733 ], [ 3.717765, 43.536751 ], [ 3.709895, 43.537053 ], [ 3.709273, 43.536386 ], [ 3.708825, 43.535868 ], [ 3.701025, 43.532875 ], [ 3.69749, 43.530402 ], [ 3.694164, 43.531778 ], [ 3.694756, 43.535712 ], [ 3.695444, 43.539245 ], [ 3.69607, 43.542938 ], [ 3.69774, 43.551567 ], [ 3.69873, 43.552374 ], [ 3.700879, 43.557143 ], [ 3.696123, 43.562973 ], [ 3.695381, 43.563126 ], [ 3.694655, 43.563306 ], [ 3.691804, 43.563246 ], [ 3.690461, 43.563126 ], [ 3.688766, 43.562825 ], [ 3.686546, 43.563135 ], [ 3.685456, 43.563883 ], [ 3.683122, 43.565429 ], [ 3.682465, 43.565845 ], [ 3.684392, 43.568886 ], [ 3.692914, 43.567228 ] ] ], [ [ [ 3.755413406692452, 43.556701657099872 ], [ 3.753093815923809, 43.557324593398697 ], [ 3.753176, 43.557309 ], [ 3.755413406692452, 43.556701657099872 ] ] ] ] } },
{ "type": "Feature", "properties": { "codgeo": "34088", "value": 540, "isochrone_group": 9.0, "nb_agences": 1 }, "geometry": { "type": "MultiPolygon", "coordinates": [ [ [ [ 3.706643, 43.530984 ], [ 3.704897, 43.530654 ], [ 3.696616, 43.528717 ], [ 3.695769, 43.527743 ], [ 3.695053, 43.526595 ], [ 3.692127, 43.525483 ], [ 3.691675, 43.525286 ], [ 3.6911, 43.525081 ], [ 3.690367, 43.524887 ], [ 3.689446, 43.528368 ], [ 3.691195, 43.536571 ], [ 3.693296, 43.538484 ], [ 3.695975, 43.544764 ], [ 3.694535, 43.550704 ], [ 3.693341, 43.552905 ], [ 3.693623, 43.553485 ], [ 3.694317, 43.554297 ], [ 3.690738, 43.562539 ], [ 3.690174, 43.562595 ], [ 3.689129, 43.562737 ], [ 3.685379, 43.562633 ], [ 3.684352, 43.562356 ], [ 3.679031, 43.565109 ], [ 3.67853, 43.565364 ], [ 3.678211, 43.565611 ], [ 3.676741, 43.56708 ], [ 3.676039, 43.569609 ], [ 3.676239, 43.570391 ], [ 3.676431, 43.571068 ], [ 3.678053, 43.574317 ], [ 3.678265, 43.574741 ], [ 3.67856, 43.575151 ], [ 3.680215, 43.577036 ], [ 3.683085, 43.574863 ], [ 3.687743, 43.569936 ], [ 3.692914, 43.567228 ], [ 3.684392, 43.568886 ], [ 3.682465, 43.565845 ], [ 3.683122, 43.565429 ], [ 3.685456, 43.563883 ], [ 3.686546, 43.563135 ], [ 3.688766, 43.562825 ], [ 3.690461, 43.563126 ], [ 3.691804, 43.563246 ], [ 3.694655, 43.563306 ], [ 3.695381, 43.563126 ], [ 3.696123, 43.562973 ], [ 3.700879, 43.557143 ], [ 3.69873, 43.552374 ], [ 3.69774, 43.551567 ], [ 3.69607, 43.542938 ], [ 3.695444, 43.539245 ], [ 3.694756, 43.535712 ], [ 3.694164, 43.531778 ], [ 3.69749, 43.530402 ], [ 3.701025, 43.532875 ], [ 3.708825, 43.535868 ], [ 3.709273, 43.536386 ], [ 3.709895, 43.537053 ], [ 3.717765, 43.536751 ], [ 3.718695, 43.533733 ], [ 3.71873, 43.533224 ], [ 3.718514, 43.528901 ], [ 3.718543957948009, 43.528854075676684 ], [ 3.717922, 43.52259 ], [ 3.717500495769072, 43.522232350224243 ], [ 3.713678, 43.521332 ], [ 3.71259, 43.520531 ], [ 3.710456, 43.523431 ], [ 3.706643, 43.530984 ] ] ], [ [ [ 3.759083, 43.583336 ], [ 3.759762774649089, 43.583217596628742 ], [ 3.758276, 43.580152 ], [ 3.758147728256471, 43.579138596468717 ], [ 3.756665, 43.580187 ], [ 3.756485, 43.580169 ], [ 3.753463, 43.579503 ], [ 3.752552, 43.579111 ], [ 3.747222, 43.577083 ], [ 3.752814, 43.58015 ], [ 3.754357, 43.581972 ], [ 3.754436, 43.582076 ], [ 3.755675, 43.583218 ], [ 3.757741, 43.583566 ], [ 3.759083, 43.583336 ] ] ], [ [ [ 3.751682, 43.567581 ], [ 3.752754, 43.564144 ], [ 3.755057079123166, 43.559485021591343 ], [ 3.751992037551875, 43.557969198481018 ], [ 3.747308, 43.564755 ], [ 3.746629, 43.56607 ], [ 3.748253, 43.573634 ], [ 3.750636, 43.574349 ], [ 3.751038, 43.574491 ], [ 3.751403, 43.574643 ], [ 3.753986, 43.575809 ], [ 3.756257, 43.576224 ], [ 3.757113, 43.576246 ], [ 3.757415, 43.57667 ], [ 3.757917430184505, 43.577319139798377 ], [ 3.757824, 43.576581 ], [ 3.760757, 43.575658 ], [ 3.760943233618508, 43.575592313637777 ], [ 3.760493, 43.575462 ], [ 3.756277, 43.573551 ], [ 3.751682, 43.567581 ] ] ], [ [ [ 3.746822, 43.57695 ], [ 3.746358, 43.57676 ], [ 3.737756, 43.575663 ], [ 3.736637, 43.575041 ], [ 3.734632, 43.573942 ], [ 3.734394, 43.573811 ], [ 3.730953289084271, 43.572078636477052 ], [ 3.734249, 43.575134 ], [ 3.737018, 43.57594 ], [ 3.737447, 43.576147 ], [ 3.740198, 43.577545 ], [ 3.747222, 43.577083 ], [ 3.746822, 43.57695 ] ] ], [ [ [ 3.715856, 43.576366 ], [ 3.715934, 43.576583 ], [ 3.721349, 43.581309 ], [ 3.722044, 43.581369 ], [ 3.722378, 43.581367 ], [ 3.723166, 43.581187 ], [ 3.723315, 43.581119 ], [ 3.723552, 43.580998 ], [ 3.724607, 43.579777 ], [ 3.724124, 43.57875 ], [ 3.723858, 43.578282 ], [ 3.7241, 43.572962 ], [ 3.729988608139268, 43.571592929272548 ], [ 3.727947, 43.570565 ], [ 3.720969, 43.574233 ], [ 3.720718, 43.574538 ], [ 3.717935, 43.572254 ], [ 3.711171, 43.568706 ], [ 3.703528, 43.566975 ], [ 3.698215, 43.566567 ], [ 3.694499, 43.567072 ], [ 3.692914, 43.567228 ], [ 3.697172, 43.569124 ], [ 3.699629, 43.568792 ], [ 3.700507, 43.568651 ], [ 3.706428, 43.569002 ], [ 3.709498, 43.570143 ], [ 3.715856, 43.576366 ] ] ] ] } },
{ "type": "Feature", "properties": { "codgeo": "34088", "value": 600, "isochrone_group": 10.0, "nb_agences": 1 }, "geometry": { "type": "MultiPolygon", "coordinates": [ [ [ [ 3.673516, 43.569902 ], [ 3.669969, 43.577932 ], [ 3.669642, 43.578472 ], [ 3.669614, 43.578637 ], [ 3.671883, 43.581412 ], [ 3.675918, 43.580861 ], [ 3.676309, 43.580763 ], [ 3.681256, 43.579206 ], [ 3.681659, 43.579055 ], [ 3.682149, 43.57877 ], [ 3.682995, 43.577988 ], [ 3.683394, 43.577408 ], [ 3.683612, 43.576557 ], [ 3.68356, 43.575906 ], [ 3.683650440678355, 43.574264905061796 ], [ 3.683085, 43.574863 ], [ 3.680215, 43.577036 ], [ 3.67856, 43.575151 ], [ 3.678265, 43.574741 ], [ 3.678053, 43.574317 ], [ 3.676431, 43.571068 ], [ 3.676239, 43.570391 ], [ 3.676039, 43.569609 ], [ 3.676741, 43.56708 ], [ 3.678211, 43.565611 ], [ 3.67853, 43.565364 ], [ 3.679031, 43.565109 ], [ 3.684352, 43.562356 ], [ 3.685379, 43.562633 ], [ 3.683104, 43.561787 ], [ 3.682139, 43.561832 ], [ 3.681433, 43.562293 ], [ 3.676427, 43.564691 ], [ 3.676356, 43.564723 ], [ 3.674863, 43.565384 ], [ 3.674788, 43.565524 ], [ 3.673516, 43.569902 ] ] ], [ [ [ 3.695769, 43.527743 ], [ 3.696616, 43.528717 ], [ 3.704897, 43.530654 ], [ 3.706643, 43.530984 ], [ 3.710456, 43.523431 ], [ 3.711517913286507, 43.52198791259098 ], [ 3.704879, 43.520505 ], [ 3.703771594376865, 43.520516445156758 ], [ 3.704195, 43.526094 ], [ 3.697741, 43.526924 ], [ 3.697443, 43.526729 ], [ 3.696440233337168, 43.525089656632126 ], [ 3.695459956089328, 43.527247493841557 ], [ 3.695769, 43.527743 ] ] ], [ [ [ 3.689413, 43.550294 ], [ 3.688726, 43.550311 ], [ 3.688201, 43.550401 ], [ 3.687609, 43.550565 ], [ 3.688566, 43.554035 ], [ 3.689129, 43.562737 ], [ 3.690174, 43.562595 ], [ 3.690738, 43.562539 ], [ 3.694317, 43.554297 ], [ 3.693623, 43.553485 ], [ 3.693341, 43.552905 ], [ 3.694535, 43.550704 ], [ 3.695975, 43.544764 ], [ 3.693296, 43.538484 ], [ 3.691195, 43.536571 ], [ 3.689769234919706, 43.529884006887563 ], [ 3.688178, 43.529556 ], [ 3.686419, 43.526766 ], [ 3.685739, 43.525959 ], [ 3.685394307504146, 43.525860033023562 ], [ 3.687099, 43.529969 ], [ 3.688867, 43.538363 ], [ 3.688497, 43.539118 ], [ 3.690382, 43.540934 ], [ 3.694418, 43.547793 ], [ 3.689413, 43.550294 ] ] ], [ [ [ 3.723, 43.588622 ], [ 3.723068, 43.588601 ], [ 3.724958, 43.58652 ], [ 3.72599, 43.580273 ], [ 3.734447, 43.577582 ], [ 3.734835, 43.577645 ], [ 3.741684, 43.578887 ], [ 3.75007, 43.5821 ], [ 3.754389, 43.584918 ], [ 3.754419, 43.584941 ], [ 3.755553921571238, 43.585538973834005 ], [ 3.754932, 43.58391 ], [ 3.754806055053909, 43.583384466088582 ], [ 3.752946, 43.580581 ], [ 3.752324920325206, 43.579881758340015 ], [ 3.747222, 43.577083 ], [ 3.740198, 43.577545 ], [ 3.737447, 43.576147 ], [ 3.737018, 43.57594 ], [ 3.734249, 43.575134 ], [ 3.730341, 43.571511 ], [ 3.7241, 43.572962 ], [ 3.723858, 43.578282 ], [ 3.724124, 43.57875 ], [ 3.724607, 43.579777 ], [ 3.723552, 43.580998 ], [ 3.723315, 43.581119 ], [ 3.723166, 43.581187 ], [ 3.722378, 43.581367 ], [ 3.722044, 43.581369 ], [ 3.721349, 43.581309 ], [ 3.715934, 43.576583 ], [ 3.715856, 43.576366 ], [ 3.715367770785645, 43.575888137401549 ], [ 3.715307, 43.57597 ], [ 3.715065, 43.576569 ], [ 3.714914, 43.57755 ], [ 3.715921, 43.579127 ], [ 3.720459, 43.586731 ], [ 3.721984, 43.588548 ], [ 3.722869, 43.588628 ], [ 3.723, 43.588622 ] ] ], [ [ [ 3.756411, 43.561187 ], [ 3.755832, 43.560534 ], [ 3.754729326665854, 43.560148043372344 ], [ 3.752754, 43.564144 ], [ 3.751682, 43.567581 ], [ 3.756277, 43.573551 ], [ 3.758640443650954, 43.574622285772548 ], [ 3.759325, 43.574564 ], [ 3.765286077444228, 43.57213998741031 ], [ 3.763153, 43.569411 ], [ 3.76005, 43.566069 ], [ 3.759497, 43.565127 ], [ 3.756411, 43.561187 ] ] ], [ [ [ 3.704262, 43.573125 ], [ 3.704816, 43.572919 ], [ 3.705673, 43.572254 ], [ 3.706567, 43.571086 ], [ 3.706984, 43.570237 ], [ 3.707639797441165, 43.569452378136909 ], [ 3.706428, 43.569002 ], [ 3.700507, 43.568651 ], [ 3.699629, 43.568792 ], [ 3.697172, 43.569124 ], [ 3.692914, 43.567228 ], [ 3.689332681464898, 43.569103500018002 ], [ 3.693373, 43.571135 ], [ 3.693733, 43.571537 ], [ 3.694125, 43.571831 ], [ 3.694614, 43.572076 ], [ 3.695445, 43.572241 ], [ 3.696374, 43.572215 ], [ 3.703881, 43.573249 ], [ 3.704262, 43.573125 ] ] ] ] } },
{ "type": "Feature", "properties": { "codgeo": "34088", "value": 660, "isochrone_group": 11.0, "nb_agences": 1 }, "geometry": { "type": "MultiPolygon", "coordinates": [ [ [ [ 3.701325, 43.523478 ], [ 3.6987478565749, 43.526794515810785 ], [ 3.704195, 43.526094 ], [ 3.704070105590964, 43.524448756342501 ], [ 3.701325, 43.523478 ] ] ], [ [ [ 3.68275, 43.561074 ], [ 3.679178, 43.562863 ], [ 3.678326, 43.562952 ], [ 3.677576, 43.562938 ], [ 3.674858, 43.564722 ], [ 3.672801, 43.565694 ], [ 3.671196, 43.568917 ], [ 3.670872, 43.569827 ], [ 3.666837, 43.577595 ], [ 3.666162, 43.577657 ], [ 3.665402, 43.578019 ], [ 3.664833, 43.578683 ], [ 3.664713, 43.580113 ], [ 3.666103, 43.583645 ], [ 3.666601, 43.583942 ], [ 3.667485, 43.584314 ], [ 3.668196, 43.584466 ], [ 3.669564, 43.584434 ], [ 3.67562, 43.581787 ], [ 3.681256, 43.579206 ], [ 3.676309, 43.580763 ], [ 3.675918, 43.580861 ], [ 3.671883, 43.581412 ], [ 3.669614, 43.578637 ], [ 3.669642, 43.578472 ], [ 3.669969, 43.577932 ], [ 3.673516, 43.569902 ], [ 3.674788, 43.565524 ], [ 3.674863, 43.565384 ], [ 3.676356, 43.564723 ], [ 3.676427, 43.564691 ], [ 3.681433, 43.562293 ], [ 3.682139, 43.561832 ], [ 3.683104, 43.561787 ], [ 3.685379, 43.562633 ], [ 3.686358, 43.562927 ], [ 3.689129, 43.562737 ], [ 3.688566, 43.554035 ], [ 3.687609, 43.550565 ], [ 3.688201, 43.550401 ], [ 3.688726, 43.550311 ], [ 3.689413, 43.550294 ], [ 3.694418, 43.547793 ], [ 3.690382, 43.540934 ], [ 3.688497, 43.539118 ], [ 3.688867, 43.538363 ], [ 3.687109041231042, 43.53001667312973 ], [ 3.687045, 43.529985 ], [ 3.686732, 43.530106 ], [ 3.685393, 43.530784 ], [ 3.683765, 43.527573 ], [ 3.682919306053752, 43.527418701395028 ], [ 3.682849, 43.528356 ], [ 3.685324, 43.530819 ], [ 3.686038, 43.537653 ], [ 3.683805, 43.543283 ], [ 3.683777, 43.545517 ], [ 3.683491, 43.54835 ], [ 3.682856, 43.551894 ], [ 3.684662, 43.55367 ], [ 3.68275, 43.561074 ] ] ], [ [ [ 3.696374, 43.572215 ], [ 3.695445, 43.572241 ], [ 3.694614, 43.572076 ], [ 3.694125, 43.571831 ], [ 3.693733, 43.571537 ], [ 3.693373, 43.571135 ], [ 3.688029, 43.568448 ], [ 3.683971, 43.57162 ], [ 3.683773, 43.572041 ], [ 3.68356, 43.575906 ], [ 3.683612, 43.576557 ], [ 3.684551, 43.574169 ], [ 3.693065, 43.573779 ], [ 3.696615, 43.574564 ], [ 3.698599, 43.575146 ], [ 3.702135, 43.575396 ], [ 3.704816, 43.572919 ], [ 3.704262, 43.573125 ], [ 3.703881, 43.573249 ], [ 3.696374, 43.572215 ] ] ], [ [ [ 3.725675, 43.595785 ], [ 3.728403, 43.593437 ], [ 3.729383, 43.589841 ], [ 3.729371, 43.588738 ], [ 3.729315, 43.588222 ], [ 3.729205, 43.587801 ], [ 3.72882, 43.586286 ], [ 3.733333, 43.578687 ], [ 3.734235, 43.578576 ], [ 3.734854, 43.578549 ], [ 3.741668, 43.58054 ], [ 3.741799, 43.580622 ], [ 3.742021, 43.580741 ], [ 3.742508, 43.580904 ], [ 3.742649, 43.580929 ], [ 3.748269, 43.583526 ], [ 3.7509252059625, 43.588403760040222 ], [ 3.751205, 43.586784 ], [ 3.750895545089616, 43.582638639977418 ], [ 3.75007, 43.5821 ], [ 3.741684, 43.578887 ], [ 3.734835, 43.577645 ], [ 3.734447, 43.577582 ], [ 3.72599, 43.580273 ], [ 3.724958, 43.58652 ], [ 3.723068, 43.588601 ], [ 3.723, 43.588622 ], [ 3.722869, 43.588628 ], [ 3.721984, 43.588548 ], [ 3.720459, 43.586731 ], [ 3.715921, 43.579127 ], [ 3.714914, 43.57755 ], [ 3.715065, 43.576569 ], [ 3.715307, 43.57597 ], [ 3.715768, 43.575349 ], [ 3.716376, 43.574293 ], [ 3.717589, 43.572775 ], [ 3.712708, 43.5654 ], [ 3.71151, 43.56573 ], [ 3.710298, 43.566272 ], [ 3.706984, 43.570237 ], [ 3.706567, 43.571086 ], [ 3.705673, 43.572254 ], [ 3.704816, 43.572919 ], [ 3.712351, 43.5774 ], [ 3.714508, 43.582958 ], [ 3.714496, 43.586558 ], [ 3.71945, 43.588336 ], [ 3.723475, 43.592504 ], [ 3.723679, 43.592794 ], [ 3.725037, 43.594979 ], [ 3.725313, 43.595364 ], [ 3.725675, 43.595785 ] ] ], [ [ [ 3.771514, 43.510111 ], [ 3.771608920420065, 43.509958264415005 ], [ 3.771399026244865, 43.510136808276222 ], [ 3.771514, 43.510111 ] ] ] ] } },
{ "type": "Feature", "properties": { "codgeo": "34088", "value": 720, "isochrone_group": 12.0, "nb_agences": 1 }, "geometry": { "type": "MultiPolygon", "coordinates": [ [ [ [ 3.68297, 43.531899 ], [ 3.685755884179264, 43.534952748572969 ], [ 3.685324, 43.530819 ], [ 3.685098847926988, 43.530594939573412 ], [ 3.684297, 43.530835 ], [ 3.681505, 43.530467 ], [ 3.68297, 43.531899 ] ] ], [ [ [ 3.684662, 43.55367 ], [ 3.682856, 43.551894 ], [ 3.683491, 43.54835 ], [ 3.683777, 43.545517 ], [ 3.683805, 43.543283 ], [ 3.6849930742979, 43.540287541738806 ], [ 3.683565, 43.540997 ], [ 3.682491, 43.541559 ], [ 3.681922, 43.542394 ], [ 3.677724, 43.547971 ], [ 3.677643, 43.548142 ], [ 3.677603, 43.551569 ], [ 3.678309, 43.551592 ], [ 3.680814, 43.552006 ], [ 3.684124967104053, 43.555749598097066 ], [ 3.684662, 43.55367 ] ] ], [ [ [ 3.674858, 43.564722 ], [ 3.675846638698259, 43.56407309218627 ], [ 3.670066, 43.564962 ], [ 3.669618, 43.56483 ], [ 3.668604, 43.568285 ], [ 3.6697, 43.569903 ], [ 3.666162, 43.577657 ], [ 3.666837, 43.577595 ], [ 3.670872, 43.569827 ], [ 3.671196, 43.568917 ], [ 3.672801, 43.565694 ], [ 3.674858, 43.564722 ] ] ], [ [ [ 3.668196, 43.584466 ], [ 3.667485, 43.584314 ], [ 3.666601, 43.583942 ], [ 3.666103, 43.583645 ], [ 3.664713, 43.580113 ], [ 3.664833, 43.578683 ], [ 3.665402, 43.578019 ], [ 3.661514, 43.579115 ], [ 3.660942, 43.579379 ], [ 3.659846, 43.579847 ], [ 3.657999, 43.582839 ], [ 3.658075, 43.582898 ], [ 3.658555, 43.583178 ], [ 3.658825, 43.583293 ], [ 3.65941, 43.58343 ], [ 3.659848, 43.583457 ], [ 3.668196, 43.584466 ] ] ], [ [ [ 3.679191, 43.582399 ], [ 3.682149, 43.57877 ], [ 3.681659, 43.579055 ], [ 3.681256, 43.579206 ], [ 3.67562, 43.581787 ], [ 3.669564, 43.584434 ], [ 3.668196, 43.584466 ], [ 3.673084, 43.585728 ], [ 3.679191, 43.582399 ] ] ], [ [ [ 3.704816, 43.572919 ], [ 3.702135, 43.575396 ], [ 3.698599, 43.575146 ], [ 3.696615, 43.574564 ], [ 3.693065, 43.573779 ], [ 3.684551, 43.574169 ], [ 3.683612, 43.576557 ], [ 3.683394, 43.577408 ], [ 3.682995, 43.577988 ], [ 3.684198, 43.576716 ], [ 3.692147, 43.577604 ], [ 3.694082, 43.578918 ], [ 3.700015, 43.580875 ], [ 3.700296, 43.580628 ], [ 3.701005, 43.579355 ], [ 3.701266, 43.578342 ], [ 3.701947, 43.575968 ], [ 3.709288806462283, 43.575578939715648 ], [ 3.704816, 43.572919 ] ] ], [ [ [ 3.725825, 43.601429 ], [ 3.727122, 43.601737 ], [ 3.727602, 43.601701 ], [ 3.727965, 43.601603 ], [ 3.728303, 43.601473 ], [ 3.730081, 43.600734 ], [ 3.731593, 43.594022 ], [ 3.733419, 43.589226 ], [ 3.73456, 43.587947 ], [ 3.740406, 43.581223 ], [ 3.742766, 43.582287 ], [ 3.746163217296639, 43.589858442955119 ], [ 3.74778514281351, 43.583302409766318 ], [ 3.742649, 43.580929 ], [ 3.742508, 43.580904 ], [ 3.742021, 43.580741 ], [ 3.741799, 43.580622 ], [ 3.741668, 43.58054 ], [ 3.734854, 43.578549 ], [ 3.734235, 43.578576 ], [ 3.733333, 43.578687 ], [ 3.72882, 43.586286 ], [ 3.729205, 43.587801 ], [ 3.729315, 43.588222 ], [ 3.729371, 43.588738 ], [ 3.729383, 43.589841 ], [ 3.728403, 43.593437 ], [ 3.725675, 43.595785 ], [ 3.725313, 43.595364 ], [ 3.725037, 43.594979 ], [ 3.723679, 43.592794 ], [ 3.723475, 43.592504 ], [ 3.71945, 43.588336 ], [ 3.714496, 43.586558 ], [ 3.714508, 43.582958 ], [ 3.712351, 43.5774 ], [ 3.710819036401847, 43.576488954361878 ], [ 3.711166, 43.583184 ], [ 3.710187, 43.584221 ], [ 3.709815, 43.587319 ], [ 3.710452, 43.587812 ], [ 3.713156, 43.588661 ], [ 3.720286, 43.59099 ], [ 3.724098, 43.598492 ], [ 3.724247, 43.599442 ], [ 3.724655, 43.60012 ], [ 3.725825, 43.601429 ] ] ] ] } },
{ "type": "Feature", "properties": { "codgeo": "34088", "value": 780, "isochrone_group": 13.0, "nb_agences": 1 }, "geometry": { "type": "MultiPolygon", "coordinates": [ [ [ [ 3.678897, 43.553035 ], [ 3.68143, 43.55436 ], [ 3.679258, 43.562871 ], [ 3.68275, 43.561074 ], [ 3.685138, 43.556895 ], [ 3.680814, 43.552006 ], [ 3.678309, 43.551592 ], [ 3.677603, 43.551569 ], [ 3.677643, 43.548142 ], [ 3.677724, 43.547971 ], [ 3.681922, 43.542394 ], [ 3.682491, 43.541559 ], [ 3.683565, 43.540997 ], [ 3.688867, 43.538363 ], [ 3.682983750878294, 43.531914073033292 ], [ 3.68133, 43.532717 ], [ 3.681197, 43.541645 ], [ 3.680115, 43.541775 ], [ 3.678166, 43.543901 ], [ 3.671707, 43.54823 ], [ 3.672134, 43.551805 ], [ 3.673497, 43.551642 ], [ 3.674021, 43.551609 ], [ 3.678897, 43.553035 ] ] ], [ [ [ 3.668707, 43.563736 ], [ 3.665929, 43.566026 ], [ 3.667468, 43.570131 ], [ 3.665402, 43.578019 ], [ 3.666162, 43.577657 ], [ 3.6697, 43.569903 ], [ 3.668604, 43.568285 ], [ 3.669618, 43.56483 ], [ 3.670066, 43.564962 ], [ 3.6764, 43.563988 ], [ 3.668707, 43.563736 ] ] ], [ [ [ 3.659846, 43.579847 ], [ 3.660942, 43.579379 ], [ 3.661514, 43.579115 ], [ 3.658473, 43.578315 ], [ 3.655195, 43.575508 ], [ 3.651624, 43.575967 ], [ 3.648632, 43.580735 ], [ 3.650489, 43.583819 ], [ 3.65941, 43.58343 ], [ 3.658825, 43.583293 ], [ 3.658555, 43.583178 ], [ 3.658075, 43.582898 ], [ 3.657999, 43.582839 ], [ 3.659846, 43.579847 ] ] ], [ [ [ 3.682149, 43.57877 ], [ 3.679191, 43.582399 ], [ 3.673084, 43.585728 ], [ 3.668196, 43.584466 ], [ 3.667852337761433, 43.584424462482183 ], [ 3.674096, 43.586302 ], [ 3.676508, 43.587241 ], [ 3.677169, 43.58746 ], [ 3.677772, 43.587495 ], [ 3.678702, 43.587245 ], [ 3.679657, 43.586223 ], [ 3.681858, 43.582502 ], [ 3.683248, 43.579181 ], [ 3.683379738058665, 43.57758119467114 ], [ 3.682995, 43.577988 ], [ 3.682149, 43.57877 ] ] ], [ [ [ 3.708387, 43.587788 ], [ 3.70915, 43.587796 ], [ 3.710152, 43.587818 ], [ 3.710439251478779, 43.587802133405077 ], [ 3.709815, 43.587319 ], [ 3.710187, 43.584221 ], [ 3.711166, 43.583184 ], [ 3.710781, 43.575755 ], [ 3.710552, 43.575512 ], [ 3.701947, 43.575968 ], [ 3.701266, 43.578342 ], [ 3.701005, 43.579355 ], [ 3.700296, 43.580628 ], [ 3.700015, 43.580875 ], [ 3.694082, 43.578918 ], [ 3.692147, 43.577604 ], [ 3.684198, 43.576716 ], [ 3.683531834816277, 43.577420374159331 ], [ 3.692294, 43.578207 ], [ 3.692334, 43.578299 ], [ 3.692577, 43.578659 ], [ 3.694046, 43.581285 ], [ 3.695792, 43.584434 ], [ 3.6968, 43.583875 ], [ 3.697599, 43.583334 ], [ 3.705028, 43.584522 ], [ 3.705926, 43.588008 ], [ 3.707298, 43.587874 ], [ 3.708387, 43.587788 ] ] ], [ [ [ 3.724844728309794, 43.600332268681633 ], [ 3.724655, 43.60012 ], [ 3.724247, 43.599442 ], [ 3.724098, 43.598492 ], [ 3.720286, 43.59099 ], [ 3.713178782928645, 43.588668441997307 ], [ 3.718143, 43.592054 ], [ 3.718551, 43.595631 ], [ 3.724844728309794, 43.600332268681633 ] ] ], [ [ [ 3.744954033687871, 43.587163512393815 ], [ 3.742766, 43.582287 ], [ 3.740406, 43.581223 ], [ 3.73456, 43.587947 ], [ 3.733419, 43.589226 ], [ 3.731593, 43.594022 ], [ 3.730081, 43.600734 ], [ 3.728303, 43.601473 ], [ 3.727965, 43.601603 ], [ 3.727602, 43.601701 ], [ 3.727122, 43.601737 ], [ 3.726115302590075, 43.601497938471653 ], [ 3.726791, 43.602134 ], [ 3.727473, 43.602518 ], [ 3.72882, 43.603203 ], [ 3.728968747562956, 43.603261624039526 ], [ 3.732541, 43.599873 ], [ 3.73287, 43.599455 ], [ 3.732891, 43.599432 ], [ 3.736469, 43.599324 ], [ 3.7414908827122, 43.595815784351615 ], [ 3.744024, 43.592 ], [ 3.744087, 43.591798 ], [ 3.744954033687871, 43.587163512393815 ] ] ], [ [ [ 3.764119, 43.513051 ], [ 3.765971285096122, 43.512218730541264 ], [ 3.76596396740764, 43.512171689021244 ], [ 3.76401671655898, 43.513036685835502 ], [ 3.764119, 43.513051 ] ] ] ] } },
{ "type": "Feature", "properties": { "codgeo": "34088", "value": 840, "isochrone_group": 14.0, "nb_agences": 1 }, "geometry": { "type": "MultiPolygon", "coordinates": [ [ [ [ 3.681313738303412, 43.533808612234168 ], [ 3.68132059880329, 43.533348081836316 ], [ 3.680536574648536, 43.53335996099019 ], [ 3.681313738303412, 43.533808612234168 ] ] ], [ [ [ 3.680115, 43.541775 ], [ 3.681197, 43.541645 ], [ 3.681311825339538, 43.533937025327809 ], [ 3.680115, 43.541775 ] ] ], [ [ [ 3.668707, 43.563736 ], [ 3.6764, 43.563988 ], [ 3.679258, 43.562871 ], [ 3.68143, 43.55436 ], [ 3.678897, 43.553035 ], [ 3.674021, 43.551609 ], [ 3.673497, 43.551642 ], [ 3.672134, 43.551805 ], [ 3.671707, 43.54823 ], [ 3.673445196679751, 43.547065012629403 ], [ 3.670321, 43.548298 ], [ 3.668908, 43.548271 ], [ 3.666571, 43.548379 ], [ 3.665817, 43.551899 ], [ 3.666615, 43.55207 ], [ 3.670088, 43.553615 ], [ 3.666093, 43.561315 ], [ 3.663974, 43.564225 ], [ 3.664869, 43.565192 ], [ 3.665287, 43.565626 ], [ 3.666001827608262, 43.56622025427675 ], [ 3.665929, 43.566026 ], [ 3.668707, 43.563736 ] ] ], [ [ [ 3.64817, 43.585892 ], [ 3.648517, 43.585627 ], [ 3.648819, 43.585314 ], [ 3.650199, 43.583999 ], [ 3.653261422123397, 43.583698108597019 ], [ 3.650489, 43.583819 ], [ 3.648632, 43.580735 ], [ 3.651624, 43.575967 ], [ 3.655195, 43.575508 ], [ 3.658473, 43.578315 ], [ 3.661514, 43.579115 ], [ 3.655408, 43.575386 ], [ 3.653448, 43.571772 ], [ 3.650744, 43.570118 ], [ 3.649039, 43.569127 ], [ 3.648319, 43.568781 ], [ 3.646762, 43.572028 ], [ 3.645155, 43.577048 ], [ 3.64247, 43.584622 ], [ 3.641967, 43.586179 ], [ 3.644184, 43.589016 ], [ 3.644955, 43.588414 ], [ 3.645556, 43.587851 ], [ 3.64817, 43.585892 ] ] ], [ [ [ 3.706278, 43.590644 ], [ 3.706973, 43.590996 ], [ 3.707134, 43.59104 ], [ 3.714877, 43.59516 ], [ 3.715272, 43.596491 ], [ 3.718849, 43.5969 ], [ 3.724288294726985, 43.599916625735602 ], [ 3.718551, 43.595631 ], [ 3.718143, 43.592054 ], [ 3.711879, 43.587782 ], [ 3.711021, 43.58777 ], [ 3.710152, 43.587818 ], [ 3.70915, 43.587796 ], [ 3.708387, 43.587788 ], [ 3.707298, 43.587874 ], [ 3.705926, 43.588008 ], [ 3.705028, 43.584522 ], [ 3.697599, 43.583334 ], [ 3.6968, 43.583875 ], [ 3.695792, 43.584434 ], [ 3.694046, 43.581285 ], [ 3.692577, 43.578659 ], [ 3.692334, 43.578299 ], [ 3.692294, 43.578207 ], [ 3.683394, 43.577408 ], [ 3.683248, 43.579181 ], [ 3.681858, 43.582502 ], [ 3.679657, 43.586223 ], [ 3.678702, 43.587245 ], [ 3.680374, 43.586199 ], [ 3.681326, 43.585748 ], [ 3.683093, 43.585091 ], [ 3.691568, 43.586856 ], [ 3.693097, 43.586178 ], [ 3.694143, 43.585572 ], [ 3.694569, 43.585202 ], [ 3.69551, 43.584565 ], [ 3.703673, 43.587789 ], [ 3.704682, 43.589001 ], [ 3.70551, 43.590034 ], [ 3.705875, 43.590335 ], [ 3.706278, 43.590644 ] ] ] ] } },
{ "type": "Feature", "properties": { "codgeo": "34088", "value": 900, "isochrone_group": 15.0, "nb_agences": 1 }, "geometry": { "type": "MultiPolygon", "coordinates": [ [ [ [ 3.679713, 43.536436 ], [ 3.677897333190201, 43.535995824052598 ], [ 3.680115, 43.541775 ], [ 3.680562333052419, 43.53884542872585 ], [ 3.679713, 43.536436 ] ] ], [ [ [ 3.676947, 43.545683 ], [ 3.680115, 43.541775 ], [ 3.675611875658643, 43.546209916714865 ], [ 3.676947, 43.545683 ] ] ], [ [ [ 3.666283, 43.566454 ], [ 3.665287, 43.565626 ], [ 3.664869, 43.565192 ], [ 3.663974, 43.564225 ], [ 3.666093, 43.561315 ], [ 3.670088, 43.553615 ], [ 3.666615, 43.55207 ], [ 3.665817, 43.551899 ], [ 3.666571, 43.548379 ], [ 3.668908, 43.548271 ], [ 3.670321, 43.548298 ], [ 3.664568, 43.545639 ], [ 3.661031, 43.546308 ], [ 3.661458, 43.548567 ], [ 3.661605, 43.549052 ], [ 3.661807, 43.549486 ], [ 3.662639, 43.550492 ], [ 3.663256, 43.550951 ], [ 3.666799, 43.5542 ], [ 3.66416, 43.561077 ], [ 3.662541, 43.562967 ], [ 3.662743, 43.56506 ], [ 3.664, 43.565708 ], [ 3.667478, 43.567595 ], [ 3.666283, 43.566454 ] ] ], [ [ [ 3.634934, 43.592753 ], [ 3.63747, 43.595309 ], [ 3.639133, 43.593658 ], [ 3.643216, 43.590004 ], [ 3.643742, 43.589541 ], [ 3.644955, 43.588414 ], [ 3.644184, 43.589016 ], [ 3.641967, 43.586179 ], [ 3.64247, 43.584622 ], [ 3.645155, 43.577048 ], [ 3.646762, 43.572028 ], [ 3.648317642902707, 43.568783830118768 ], [ 3.648215, 43.568735 ], [ 3.647018, 43.568242 ], [ 3.645246, 43.567547 ], [ 3.643082, 43.566609 ], [ 3.640589, 43.565238 ], [ 3.639863, 43.564802 ], [ 3.63801, 43.567888 ], [ 3.638735, 43.568324 ], [ 3.639073, 43.577215 ], [ 3.638509, 43.577855 ], [ 3.637858, 43.578958 ], [ 3.639794, 43.580555 ], [ 3.637441, 43.588769 ], [ 3.634934, 43.592753 ] ] ], [ [ [ 3.690195, 43.588235 ], [ 3.690959, 43.587744 ], [ 3.693097, 43.586178 ], [ 3.691568, 43.586856 ], [ 3.684948487461661, 43.585477423052488 ], [ 3.685887, 43.588387 ], [ 3.686209, 43.588511 ], [ 3.688051, 43.588477 ], [ 3.689476, 43.58844 ], [ 3.690195, 43.588235 ] ] ], [ [ [ 3.713452, 43.596591 ], [ 3.715127, 43.596546 ], [ 3.715437493869894, 43.596509922838337 ], [ 3.715272, 43.596491 ], [ 3.714877, 43.59516 ], [ 3.707134, 43.59104 ], [ 3.706973, 43.590996 ], [ 3.706278, 43.590644 ], [ 3.705875, 43.590335 ], [ 3.709269, 43.593865 ], [ 3.712619, 43.596668 ], [ 3.713452, 43.596591 ] ] ], [ [ [ 3.757016, 43.511883 ], [ 3.757020361364403, 43.511885378926038 ], [ 3.757020099471406, 43.511883674107068 ], [ 3.757016, 43.511883 ] ] ] ] } },
{ "type": "Feature", "properties": { "codgeo": "34088", "value": 960, "isochrone_group": 16.0, "nb_agences": 1 }, "geometry": { "type": "MultiPolygon", "coordinates": [ [ [ [ 3.675941, 43.536276 ], [ 3.672306, 43.537418 ], [ 3.668713, 43.537632 ], [ 3.664820738187525, 43.539378973814159 ], [ 3.664997, 43.542711 ], [ 3.663837, 43.543197 ], [ 3.662023, 43.544034 ], [ 3.661369, 43.544566 ], [ 3.661406171321416, 43.546237038842499 ], [ 3.664568, 43.545639 ], [ 3.670321, 43.548298 ], [ 3.67307, 43.548068 ], [ 3.673777, 43.548017 ], [ 3.680115, 43.541775 ], [ 3.67987902526265, 43.541160056618857 ], [ 3.675941, 43.536276 ] ] ], [ [ [ 3.631007, 43.565402 ], [ 3.631803, 43.56595 ], [ 3.632497, 43.56609 ], [ 3.63594, 43.567811 ], [ 3.638735, 43.568324 ], [ 3.63801, 43.567888 ], [ 3.63986265665696, 43.564802571806055 ], [ 3.63982, 43.564777 ], [ 3.638164, 43.563836 ], [ 3.637761, 43.563642 ], [ 3.637494, 43.563534 ], [ 3.636377, 43.563044 ], [ 3.632745, 43.561664 ], [ 3.632227, 43.561425 ], [ 3.631642, 43.561299 ], [ 3.631042, 43.561321 ], [ 3.63046, 43.561409 ], [ 3.630226, 43.562185 ], [ 3.630127, 43.563061 ], [ 3.630207, 43.563991 ], [ 3.630642, 43.565004 ], [ 3.631007, 43.565402 ] ] ], [ [ [ 3.639039794688484, 43.576341543122197 ], [ 3.638509, 43.577855 ], [ 3.639073, 43.577215 ], [ 3.639039794688484, 43.576341543122197 ] ] ], [ [ [ 3.636319, 43.596685 ], [ 3.636448339805812, 43.596555660194184 ], [ 3.636273984609653, 43.596695775952405 ], [ 3.636285, 43.59671 ], [ 3.636264108357634, 43.596726181813679 ], [ 3.636319, 43.596685 ] ] ], [ [ [ 3.631376753164818, 43.594946142244275 ], [ 3.634101, 43.593816 ], [ 3.636747, 43.596257 ], [ 3.636748, 43.596256 ], [ 3.639133, 43.593658 ], [ 3.63747, 43.595309 ], [ 3.634934, 43.592753 ], [ 3.637441, 43.588769 ], [ 3.639794, 43.580555 ], [ 3.637858, 43.578958 ], [ 3.638509, 43.577855 ], [ 3.637079, 43.580105 ], [ 3.635094, 43.588461 ], [ 3.631376753164818, 43.594946142244275 ] ] ], [ [ [ 3.684889, 43.585293 ], [ 3.67896, 43.579433 ], [ 3.676452, 43.580053 ], [ 3.683037, 43.585976 ], [ 3.682389, 43.587198 ], [ 3.682413, 43.588595 ], [ 3.682852, 43.589238 ], [ 3.683794, 43.58973 ], [ 3.684146, 43.589774 ], [ 3.685353, 43.589646 ], [ 3.68583, 43.589584 ], [ 3.687696, 43.589326 ], [ 3.690195, 43.588235 ], [ 3.689476, 43.58844 ], [ 3.688051, 43.588477 ], [ 3.686209, 43.588511 ], [ 3.685887, 43.588387 ], [ 3.684889, 43.585293 ] ] ], [ [ [ 3.703672, 43.590683 ], [ 3.703505, 43.591278 ], [ 3.703496, 43.591952 ], [ 3.703717, 43.592692 ], [ 3.703934, 43.593071 ], [ 3.704277, 43.593565 ], [ 3.711391, 43.59642 ], [ 3.711978, 43.596615 ], [ 3.712544630706579, 43.5966057739912 ], [ 3.709269, 43.593865 ], [ 3.705875, 43.590335 ], [ 3.70551, 43.590034 ], [ 3.704682, 43.589001 ], [ 3.703673, 43.587789 ], [ 3.703672, 43.590683 ] ] ], [ [ [ 3.806432, 43.492326 ], [ 3.804869859577235, 43.488292874924369 ], [ 3.802223, 43.492506 ], [ 3.802074018355902, 43.500214050297679 ], [ 3.804150016859307, 43.501754646924077 ], [ 3.804463, 43.4952 ], [ 3.806432, 43.492326 ] ] ], [ [ [ 3.754577, 43.510155 ], [ 3.754435249340252, 43.510195629169992 ], [ 3.75547253454993, 43.511564934562699 ], [ 3.755494617304336, 43.510849502575176 ], [ 3.755382, 43.510773 ], [ 3.755094, 43.510526 ], [ 3.754577, 43.510155 ] ] ] ] } },
{ "type": "Feature", "properties": { "codgeo": "34088", "value": 1020, "isochrone_group": 17.0, "nb_agences": 1 }, "geometry": { "type": "MultiPolygon", "coordinates": [ [ [ [ 3.661037, 43.542822 ], [ 3.661369, 43.544566 ], [ 3.662023, 43.544034 ], [ 3.663837, 43.543197 ], [ 3.664997, 43.542711 ], [ 3.664902534633452, 43.540925241243919 ], [ 3.660994, 43.54197 ], [ 3.660933750431464, 43.541929676105767 ], [ 3.661037, 43.542822 ] ] ], [ [ [ 3.631803, 43.56595 ], [ 3.631007, 43.565402 ], [ 3.630642, 43.565004 ], [ 3.630207, 43.563991 ], [ 3.630127, 43.563061 ], [ 3.630226, 43.562185 ], [ 3.63046, 43.561409 ], [ 3.631042, 43.561321 ], [ 3.631642, 43.561299 ], [ 3.632227, 43.561425 ], [ 3.632745, 43.561664 ], [ 3.636377, 43.563044 ], [ 3.637494, 43.563534 ], [ 3.637761, 43.563642 ], [ 3.632498, 43.560047 ], [ 3.632059, 43.559591 ], [ 3.631521, 43.559267 ], [ 3.630244, 43.55857 ], [ 3.629501, 43.55821 ], [ 3.628979, 43.558115 ], [ 3.628343, 43.558118 ], [ 3.620584, 43.561007 ], [ 3.620257, 43.564592 ], [ 3.621159, 43.564674 ], [ 3.625394, 43.565572 ], [ 3.629846, 43.567036 ], [ 3.632712, 43.568689 ], [ 3.635903, 43.569452 ], [ 3.641347, 43.569763 ], [ 3.638735, 43.568324 ], [ 3.63594, 43.567811 ], [ 3.632497, 43.56609 ], [ 3.631803, 43.56595 ] ] ], [ [ [ 3.624989047444787, 43.598753621839307 ], [ 3.624121, 43.60004 ], [ 3.624064458952924, 43.600137164006568 ], [ 3.624442, 43.599708 ], [ 3.624989047444787, 43.598753621839307 ] ] ], [ [ [ 3.623478, 43.601438 ], [ 3.623865488671067, 43.60047908816211 ], [ 3.623677, 43.600803 ], [ 3.623316882781308, 43.60174075049467 ], [ 3.623478, 43.601438 ] ] ], [ [ [ 3.629676, 43.594328 ], [ 3.632673762420225, 43.592683368238049 ], [ 3.635094, 43.588461 ], [ 3.636115664237415, 43.584160231048926 ], [ 3.633438, 43.587833 ], [ 3.631095, 43.590566 ], [ 3.628010243838305, 43.594281231792429 ], [ 3.628574, 43.594261 ], [ 3.629676, 43.594328 ] ] ], [ [ [ 3.687009, 43.593533 ], [ 3.68726, 43.593622 ], [ 3.690807, 43.592449 ], [ 3.691834, 43.588999 ], [ 3.694143, 43.585572 ], [ 3.693097, 43.586178 ], [ 3.690959, 43.587744 ], [ 3.690195, 43.588235 ], [ 3.687696, 43.589326 ], [ 3.68583, 43.589584 ], [ 3.685353, 43.589646 ], [ 3.684146, 43.589774 ], [ 3.683794, 43.58973 ], [ 3.682852, 43.589238 ], [ 3.684141, 43.591646 ], [ 3.685437, 43.592998 ], [ 3.687009, 43.593533 ] ] ], [ [ [ 3.703717, 43.592692 ], [ 3.703496, 43.591952 ], [ 3.702276, 43.595752 ], [ 3.70237, 43.595845 ], [ 3.70271, 43.596111 ], [ 3.705435, 43.597255 ], [ 3.707602, 43.595414 ], [ 3.708658987959466, 43.595323585271906 ], [ 3.704277, 43.593565 ], [ 3.703934, 43.593071 ], [ 3.703717, 43.592692 ] ] ], [ [ [ 3.724336, 43.599638 ], [ 3.723056328922886, 43.598476289281102 ], [ 3.719981, 43.595982 ], [ 3.718254923295453, 43.596182557738217 ], [ 3.724238689350329, 43.599863878203067 ], [ 3.724336, 43.599638 ] ] ], [ [ [ 3.806388, 43.502087 ], [ 3.804180120589867, 43.501124199787292 ], [ 3.804150016859307, 43.501754646924077 ], [ 3.80461, 43.502096 ], [ 3.808755, 43.504257 ], [ 3.80899, 43.504392 ], [ 3.809129, 43.504551 ], [ 3.811325848670873, 43.505732935154626 ], [ 3.810337, 43.504552 ], [ 3.809432, 43.502876 ], [ 3.808151, 43.502558 ], [ 3.806989, 43.502283 ], [ 3.806388, 43.502087 ] ] ], [ [ [ 3.806882728478516, 43.480402838671651 ], [ 3.805919, 43.487323 ], [ 3.805517, 43.487738 ], [ 3.804888, 43.488264 ], [ 3.804869859577235, 43.488292874924369 ], [ 3.805361716318761, 43.489562747804499 ], [ 3.806671, 43.488335 ], [ 3.80835, 43.48495 ], [ 3.806882728478516, 43.480402838671651 ] ] ] ] } },
{ "type": "Feature", "properties": { "codgeo": "34088", "value": 1080, "isochrone_group": 18.0, "nb_agences": 1 }, "geometry": { "type": "MultiPolygon", "coordinates": [ [ [ [ 3.659464, 43.540946 ], [ 3.657828, 43.538745 ], [ 3.657802, 43.538938 ], [ 3.657754, 43.539337 ], [ 3.661369, 43.544566 ], [ 3.661154075197247, 43.543436997421693 ], [ 3.659464, 43.540946 ] ] ], [ [ [ 3.640866, 43.577108 ], [ 3.641347, 43.569763 ], [ 3.635903, 43.569452 ], [ 3.632712, 43.568689 ], [ 3.629846, 43.567036 ], [ 3.625394, 43.565572 ], [ 3.621159, 43.564674 ], [ 3.620257, 43.564592 ], [ 3.620584, 43.561007 ], [ 3.628343, 43.558118 ], [ 3.628979, 43.558115 ], [ 3.629501, 43.55821 ], [ 3.630244, 43.55857 ], [ 3.631521, 43.559267 ], [ 3.632059, 43.559591 ], [ 3.632498, 43.560047 ], [ 3.630211, 43.556786 ], [ 3.629729, 43.556128 ], [ 3.629522, 43.555947 ], [ 3.621402, 43.558934 ], [ 3.619066, 43.558098 ], [ 3.618592, 43.558179 ], [ 3.617893, 43.558525 ], [ 3.615693, 43.559667 ], [ 3.614371, 43.560573 ], [ 3.613659, 43.561606 ], [ 3.613628, 43.561759 ], [ 3.615633, 43.563944 ], [ 3.620615, 43.564945 ], [ 3.623478, 43.565946 ], [ 3.630152, 43.569515 ], [ 3.631855, 43.569854 ], [ 3.635351, 43.57001 ], [ 3.637733, 43.570876 ], [ 3.640059, 43.57877 ], [ 3.640866, 43.577108 ] ] ], [ [ [ 3.62943, 43.586942 ], [ 3.625042851728963, 43.594019802842588 ], [ 3.629739, 43.591326 ], [ 3.630612388111405, 43.59114725016628 ], [ 3.631095, 43.590566 ], [ 3.633438, 43.587833 ], [ 3.633854353850854, 43.587261915890679 ], [ 3.633168, 43.587641 ], [ 3.632563, 43.587365 ], [ 3.63213, 43.587271 ], [ 3.631491, 43.587163 ], [ 3.631248, 43.587132 ], [ 3.630545, 43.58702 ], [ 3.62943, 43.586942 ] ] ], [ [ [ 3.623213416457163, 43.601852364793523 ], [ 3.623263, 43.601842 ], [ 3.623358108736406, 43.601205086992685 ], [ 3.623213416457163, 43.601852364793523 ] ] ], [ [ [ 3.687249, 43.595172 ], [ 3.688213, 43.594035 ], [ 3.689281576801583, 43.592953460505143 ], [ 3.68726, 43.593622 ], [ 3.687009, 43.593533 ], [ 3.685437, 43.592998 ], [ 3.684141, 43.591646 ], [ 3.682852, 43.589238 ], [ 3.682413, 43.588595 ], [ 3.683763, 43.593813 ], [ 3.683799, 43.59421 ], [ 3.685467, 43.596485 ], [ 3.685596, 43.596471 ], [ 3.686468, 43.59614 ], [ 3.687249, 43.595172 ] ] ], [ [ [ 3.703505, 43.591278 ], [ 3.703672, 43.590683 ], [ 3.703673, 43.587789 ], [ 3.69551, 43.584565 ], [ 3.694569, 43.585202 ], [ 3.694143, 43.585572 ], [ 3.693526364718521, 43.586487205331132 ], [ 3.700215, 43.591304 ], [ 3.699873, 43.593725 ], [ 3.70029, 43.594329 ], [ 3.70237, 43.595845 ], [ 3.702276, 43.595752 ], [ 3.703496, 43.591952 ], [ 3.703505, 43.591278 ] ] ], [ [ [ 3.709079, 43.597927 ], [ 3.710085, 43.598263 ], [ 3.710408, 43.59842 ], [ 3.710831, 43.59872 ], [ 3.711884080957685, 43.599490590649857 ], [ 3.715908600470869, 43.596926132230813 ], [ 3.713468, 43.596591 ], [ 3.712498165899297, 43.594995182070669 ], [ 3.707602, 43.595414 ], [ 3.705435, 43.597255 ], [ 3.70271, 43.596111 ], [ 3.706441, 43.598127 ], [ 3.707051311310955, 43.598545484331602 ], [ 3.707523, 43.598219 ], [ 3.708137, 43.598028 ], [ 3.708598, 43.59796 ], [ 3.709079, 43.597927 ] ] ], [ [ [ 3.724235102036148, 43.599861671222897 ], [ 3.72410916237581, 43.599784190879461 ], [ 3.722767103869034, 43.603115938531118 ], [ 3.724235102036148, 43.599861671222897 ] ] ], [ [ [ 3.810216, 43.504093 ], [ 3.810143, 43.50402 ], [ 3.810033639042398, 43.503990195618847 ], [ 3.810337, 43.504552 ], [ 3.811325848670871, 43.505732935154626 ], [ 3.813762840768801, 43.507044070814644 ], [ 3.810216, 43.504093 ] ] ] ] } },
{ "type": "Feature", "properties": { "codgeo": "34088", "value": 1140, "isochrone_group": 19.0, "nb_agences": 1 }, "geometry": { "type": "MultiPolygon", "coordinates": [ [ [ [ 3.63251, 43.57297 ], [ 3.632542, 43.572992 ], [ 3.634414, 43.571723 ], [ 3.639146387957502, 43.575672768932293 ], [ 3.637733, 43.570876 ], [ 3.635351, 43.57001 ], [ 3.631855, 43.569854 ], [ 3.630152, 43.569515 ], [ 3.623478, 43.565946 ], [ 3.620615, 43.564945 ], [ 3.615633, 43.563944 ], [ 3.613628, 43.561759 ], [ 3.613659, 43.561606 ], [ 3.614371, 43.560573 ], [ 3.615693, 43.559667 ], [ 3.617893, 43.558525 ], [ 3.618592, 43.558179 ], [ 3.619066, 43.558098 ], [ 3.621402, 43.558934 ], [ 3.629522, 43.555947 ], [ 3.629729, 43.556128 ], [ 3.630211, 43.556786 ], [ 3.629531, 43.555722 ], [ 3.629238, 43.555397 ], [ 3.628492, 43.554555 ], [ 3.628038, 43.55416 ], [ 3.627674, 43.553922 ], [ 3.619014, 43.556186 ], [ 3.616398, 43.553899 ], [ 3.616018, 43.553549 ], [ 3.61488, 43.552619 ], [ 3.614441, 43.55231 ], [ 3.612368, 43.555253 ], [ 3.611615, 43.563091 ], [ 3.614166, 43.564633 ], [ 3.621075, 43.567782 ], [ 3.621346, 43.567996 ], [ 3.625075, 43.569847 ], [ 3.625129, 43.569877 ], [ 3.631877, 43.572451 ], [ 3.63232, 43.572813 ], [ 3.63251, 43.57297 ] ] ], [ [ [ 3.627908, 43.589291 ], [ 3.627918803673284, 43.589299178264497 ], [ 3.627919, 43.589299 ], [ 3.627953036926356, 43.589324790093954 ], [ 3.629428714139267, 43.586944074483938 ], [ 3.62931, 43.586936 ], [ 3.628485, 43.586922 ], [ 3.62754, 43.58687 ], [ 3.626838, 43.586827 ], [ 3.625051, 43.588058 ], [ 3.622506, 43.594214 ], [ 3.622687, 43.59394 ], [ 3.627908, 43.589291 ] ] ], [ [ [ 3.623046779054459, 43.602494342671314 ], [ 3.623071, 43.602491 ], [ 3.623059109181628, 43.602454700962859 ], [ 3.623046779054459, 43.602494342671314 ] ] ], [ [ [ 3.680362, 43.59568 ], [ 3.680541, 43.596219 ], [ 3.680594, 43.596308 ], [ 3.681722, 43.598047 ], [ 3.682018, 43.598058 ], [ 3.682778, 43.597931 ], [ 3.683382, 43.597618 ], [ 3.686468, 43.59614 ], [ 3.685596, 43.596471 ], [ 3.685467, 43.596485 ], [ 3.683799, 43.59421 ], [ 3.683763, 43.593813 ], [ 3.682413, 43.588595 ], [ 3.681151, 43.59329 ], [ 3.680477, 43.594206 ], [ 3.68031, 43.594959 ], [ 3.680362, 43.59568 ] ] ], [ [ [ 3.699873, 43.593725 ], [ 3.700215, 43.591304 ], [ 3.699097, 43.593446 ], [ 3.699766, 43.596103 ], [ 3.702981, 43.599846 ], [ 3.702988438033807, 43.599853794752825 ], [ 3.70309, 43.599727 ], [ 3.704856994096613, 43.597271101875855 ], [ 3.70271, 43.596111 ], [ 3.70237, 43.595845 ], [ 3.70029, 43.594329 ], [ 3.699873, 43.593725 ] ] ], [ [ [ 3.818237457675672, 43.50888002910029 ], [ 3.822337594208264, 43.5091390574798 ], [ 3.822263, 43.508904 ], [ 3.821988, 43.508593 ], [ 3.820542, 43.507901 ], [ 3.820015, 43.508096 ], [ 3.817980976112527, 43.508579089202406 ], [ 3.818078, 43.508635 ], [ 3.818237457675672, 43.50888002910029 ] ] ], [ [ [ 3.81505, 43.468737 ], [ 3.815049147419071, 43.468735582095867 ], [ 3.814123, 43.469295 ], [ 3.81505, 43.468737 ] ] ] ] } },
{ "type": "Feature", "properties": { "codgeo": "34088", "value": 1200, "isochrone_group": 20.0, "nb_agences": 1 }, "geometry": { "type": "MultiPolygon", "coordinates": [ [ [ [ 3.661369, 43.544566 ], [ 3.658761682460232, 43.540279867438862 ], [ 3.658761682460231, 43.540279867438862 ], [ 3.661369, 43.544566 ] ] ], [ [ [ 3.627674, 43.553922 ], [ 3.628038, 43.55416 ], [ 3.626086, 43.552332 ], [ 3.62556, 43.55243 ], [ 3.624862, 43.552679 ], [ 3.616018, 43.553549 ], [ 3.616398, 43.553899 ], [ 3.619014, 43.556186 ], [ 3.627674, 43.553922 ] ] ], [ [ [ 3.631877, 43.572451 ], [ 3.625129, 43.569877 ], [ 3.625075, 43.569847 ], [ 3.621346, 43.567996 ], [ 3.621075, 43.567782 ], [ 3.614166, 43.564633 ], [ 3.611615, 43.563091 ], [ 3.612368, 43.555253 ], [ 3.614419459789425, 43.552340580241079 ], [ 3.613957, 43.552061 ], [ 3.613608, 43.551955 ], [ 3.610923, 43.551009 ], [ 3.610085, 43.551354 ], [ 3.60931, 43.551668 ], [ 3.608876, 43.55188 ], [ 3.608136, 43.55223 ], [ 3.603282, 43.553883 ], [ 3.603272, 43.557483 ], [ 3.604742, 43.557487 ], [ 3.605598, 43.557425 ], [ 3.611502, 43.563865 ], [ 3.611387, 43.564771 ], [ 3.611906, 43.566142 ], [ 3.612061, 43.566428 ], [ 3.61239, 43.567005 ], [ 3.612842, 43.567352 ], [ 3.618536, 43.568993 ], [ 3.622162, 43.570138 ], [ 3.624236, 43.57038 ], [ 3.624748, 43.570414 ], [ 3.625372, 43.570387 ], [ 3.631877, 43.572451 ] ] ], [ [ [ 3.632542, 43.572992 ], [ 3.63251, 43.57297 ], [ 3.632908, 43.573257 ], [ 3.633377, 43.573584 ], [ 3.633931, 43.573895 ], [ 3.635091, 43.574365 ], [ 3.638099697138373, 43.578547612835571 ], [ 3.638509, 43.577855 ], [ 3.639148, 43.577079 ], [ 3.640482757939836, 43.577072158595897 ], [ 3.64080795960147, 43.577059558036886 ], [ 3.634414, 43.571723 ], [ 3.632542, 43.572992 ] ] ], [ [ [ 3.631248, 43.587132 ], [ 3.631491, 43.587163 ], [ 3.629373, 43.586293 ], [ 3.625818, 43.585722 ], [ 3.622588899701003, 43.590486117570663 ], [ 3.624799571068363, 43.588666171514006 ], [ 3.625051, 43.588058 ], [ 3.626838, 43.586827 ], [ 3.62754, 43.58687 ], [ 3.628485, 43.586922 ], [ 3.62931, 43.586936 ], [ 3.630545, 43.58702 ], [ 3.631248, 43.587132 ] ] ], [ [ [ 3.681722, 43.598047 ], [ 3.680594, 43.596308 ], [ 3.680541, 43.596219 ], [ 3.680362, 43.59568 ], [ 3.68031, 43.594959 ], [ 3.680477, 43.594206 ], [ 3.681151, 43.59329 ], [ 3.682413, 43.588595 ], [ 3.677234, 43.595682 ], [ 3.676671, 43.595863 ], [ 3.675672, 43.596603 ], [ 3.675323, 43.597143 ], [ 3.677595, 43.599857 ], [ 3.682778, 43.597931 ], [ 3.682018, 43.598058 ], [ 3.681722, 43.598047 ] ] ], [ [ [ 3.687249, 43.595172 ], [ 3.695882, 43.595319 ], [ 3.700592010861609, 43.600320556482508 ], [ 3.700907926803897, 43.597432465638263 ], [ 3.699766, 43.596103 ], [ 3.699097, 43.593446 ], [ 3.700215, 43.591304 ], [ 3.693097, 43.586178 ], [ 3.690109, 43.592116 ], [ 3.688213, 43.594035 ], [ 3.687249, 43.595172 ] ] ], [ [ [ 3.822614, 43.509168 ], [ 3.822567359488187, 43.509162551342087 ], [ 3.822568724391203, 43.509165046537355 ], [ 3.822614, 43.509168 ] ] ], [ [ [ 3.821071, 43.463391 ], [ 3.820753199196025, 43.462790497967156 ], [ 3.817025, 43.467377 ], [ 3.82097, 43.463621 ], [ 3.821071, 43.463391 ] ] ], [ [ [ 3.815049147419071, 43.468735582095867 ], [ 3.815166, 43.468665 ], [ 3.815049147419071, 43.468735582095867 ], [ 3.815049147419071, 43.468735582095867 ] ] ] ] } }
]
}
