{
"type": "FeatureCollection",
"name": "Others",
"crs": { "type": "name", "properties": { "name": "urn:ogc:def:crs:OGC:1.3:CRS84" } },
"features": [
{ "type": "Feature", "properties": { "codgeo": "34198", "value": 60, "isochrone_group": 1.0, "nb_agences": 1 }, "geometry": { "type": "Polygon", "coordinates": [ [ [ 3.941966, 43.560348 ], [ 3.943889, 43.560222 ], [ 3.94892, 43.561804 ], [ 3.950011, 43.561918 ], [ 3.950263, 43.562176 ], [ 3.950465, 43.562413 ], [ 3.950539, 43.562765 ], [ 3.949556, 43.563222 ], [ 3.948778, 43.563175 ], [ 3.944272, 43.562381 ], [ 3.943048, 43.56182 ], [ 3.942533, 43.561536 ], [ 3.941904, 43.560703 ], [ 3.941966, 43.560348 ] ] ] } },
{ "type": "Feature", "properties": { "codgeo": "34198", "value": 120, "isochrone_group": 2.0, "nb_agences": 1 }, "geometry": { "type": "Polygon", "coordinates": [ [ [ 3.935517, 43.559188 ], [ 3.937059, 43.560062 ], [ 3.940308, 43.562823 ], [ 3.941343, 43.563616 ], [ 3.941628, 43.563837 ], [ 3.947508, 43.564774 ], [ 3.947621, 43.564859 ], [ 3.947641, 43.564862 ], [ 3.949861, 43.565061 ], [ 3.95316, 43.563711 ], [ 3.953202, 43.563675 ], [ 3.953776, 43.561031 ], [ 3.953704, 43.560678 ], [ 3.950684, 43.560562 ], [ 3.945511, 43.558133 ], [ 3.942488, 43.558489 ], [ 3.939634, 43.559419 ], [ 3.936119, 43.55898 ], [ 3.935866, 43.558911 ], [ 3.935613, 43.558841 ], [ 3.935517, 43.559188 ] ], [ [ 3.943889, 43.560222 ], [ 3.94892, 43.561804 ], [ 3.950011, 43.561918 ], [ 3.950263, 43.562176 ], [ 3.950465, 43.562413 ], [ 3.950539, 43.562765 ], [ 3.949556, 43.563222 ], [ 3.948778, 43.563175 ], [ 3.944272, 43.562381 ], [ 3.943048, 43.56182 ], [ 3.942533, 43.561536 ], [ 3.941904, 43.560703 ], [ 3.941966, 43.560348 ], [ 3.943889, 43.560222 ] ] ] } },
{ "type": "Feature", "properties": { "codgeo": "34198", "value": 180, "isochrone_group": 3.0, "nb_agences": 1 }, "geometry": { "type": "Polygon", "coordinates": [ [ [ 3.926425, 43.559965 ], [ 3.934582, 43.562376 ], [ 3.937911, 43.566164 ], [ 3.945212, 43.566408 ], [ 3.948974, 43.566934 ], [ 3.954428, 43.564577 ], [ 3.954694, 43.564335 ], [ 3.9586, 43.559806 ], [ 3.958443, 43.559482 ], [ 3.954171, 43.558691 ], [ 3.947146, 43.556832 ], [ 3.943102, 43.556433 ], [ 3.937228, 43.555929 ], [ 3.936869, 43.555909 ], [ 3.928542, 43.55814 ], [ 3.926351, 43.559613 ], [ 3.926425, 43.559965 ] ], [ [ 3.935866, 43.558911 ], [ 3.936119, 43.55898 ], [ 3.939634, 43.559419 ], [ 3.942488, 43.558489 ], [ 3.945511, 43.558133 ], [ 3.950684, 43.560562 ], [ 3.953704, 43.560678 ], [ 3.953776, 43.561031 ], [ 3.953202, 43.563675 ], [ 3.95316, 43.563711 ], [ 3.949861, 43.565061 ], [ 3.947641, 43.564862 ], [ 3.947621, 43.564859 ], [ 3.947508, 43.564774 ], [ 3.941628, 43.563837 ], [ 3.941343, 43.563616 ], [ 3.940308, 43.562823 ], [ 3.937059, 43.560062 ], [ 3.935517, 43.559188 ], [ 3.935613, 43.558841 ], [ 3.935866, 43.558911 ] ] ] } },
{ "type": "Feature", "properties": { "codgeo": "34198", "value": 240, "isochrone_group": 4.0, "nb_agences": 1 }, "geometry": { "type": "Polygon", "coordinates": [ [ [ 3.927859, 43.557906 ], [ 3.923086, 43.560074 ], [ 3.922889, 43.560204 ], [ 3.922677, 43.560417 ], [ 3.919613, 43.563833 ], [ 3.919738, 43.56417 ], [ 3.926415, 43.564267 ], [ 3.934555, 43.567149 ], [ 3.937916, 43.569222 ], [ 3.946642, 43.568796 ], [ 3.948925, 43.568533 ], [ 3.954062, 43.566832 ], [ 3.956734, 43.565889 ], [ 3.957028, 43.565735 ], [ 3.957084, 43.565671 ], [ 3.960012, 43.56165 ], [ 3.962647, 43.557954 ], [ 3.962498, 43.557626 ], [ 3.96179, 43.557532 ], [ 3.955984, 43.557011 ], [ 3.947351, 43.554935 ], [ 3.942297, 43.554565 ], [ 3.937269, 43.552634 ], [ 3.936957, 43.552813 ], [ 3.931372364714715, 43.557381678434176 ], [ 3.936869, 43.555909 ], [ 3.937228, 43.555929 ], [ 3.943102, 43.556433 ], [ 3.947146, 43.556832 ], [ 3.954171, 43.558691 ], [ 3.958443, 43.559482 ], [ 3.9586, 43.559806 ], [ 3.954694, 43.564335 ], [ 3.954428, 43.564577 ], [ 3.948974, 43.566934 ], [ 3.945212, 43.566408 ], [ 3.937911, 43.566164 ], [ 3.934582, 43.562376 ], [ 3.926425, 43.559965 ], [ 3.926351, 43.559613 ], [ 3.928542, 43.55814 ], [ 3.929375631234634, 43.557916650500246 ], [ 3.927859, 43.557906 ] ] ] } },
{ "type": "Feature", "properties": { "codgeo": "34198", "value": 300, "isochrone_group": 5.0, "nb_agences": 1 }, "geometry": { "type": "Polygon", "coordinates": [ [ [ 3.917213, 43.564301 ], [ 3.914969, 43.565329 ], [ 3.914994, 43.565688 ], [ 3.91603, 43.565797 ], [ 3.923751, 43.568272 ], [ 3.929646, 43.571488 ], [ 3.931221, 43.570842 ], [ 3.937961, 43.570008 ], [ 3.940234, 43.570771 ], [ 3.941157, 43.571047 ], [ 3.941232, 43.57106 ], [ 3.948611, 43.570547 ], [ 3.955961, 43.568713 ], [ 3.961013, 43.561562 ], [ 3.961709, 43.56078 ], [ 3.965852, 43.55609 ], [ 3.966441, 43.555471 ], [ 3.966951, 43.554919 ], [ 3.967461, 43.554366 ], [ 3.967368, 43.553739 ], [ 3.967302, 43.553737 ], [ 3.967111, 43.553783 ], [ 3.959964, 43.556297 ], [ 3.95534, 43.555437 ], [ 3.954989, 43.555356 ], [ 3.949853, 43.553221 ], [ 3.944811, 43.552302 ], [ 3.937167, 43.550367 ], [ 3.93709, 43.550481 ], [ 3.936877, 43.550908 ], [ 3.936682, 43.551303 ], [ 3.936371, 43.551893 ], [ 3.930707, 43.557926 ], [ 3.936957, 43.552813 ], [ 3.937269, 43.552634 ], [ 3.942297, 43.554565 ], [ 3.947351, 43.554935 ], [ 3.955984, 43.557011 ], [ 3.96179, 43.557532 ], [ 3.962498, 43.557626 ], [ 3.962647, 43.557954 ], [ 3.960012, 43.56165 ], [ 3.957084, 43.565671 ], [ 3.957028, 43.565735 ], [ 3.956734, 43.565889 ], [ 3.954062, 43.566832 ], [ 3.948925, 43.568533 ], [ 3.946642, 43.568796 ], [ 3.937916, 43.569222 ], [ 3.934555, 43.567149 ], [ 3.926415, 43.564267 ], [ 3.919738, 43.56417 ], [ 3.919613, 43.563833 ], [ 3.922677, 43.560417 ], [ 3.922889, 43.560204 ], [ 3.917213, 43.564301 ] ] ] } },
{ "type": "Feature", "properties": { "codgeo": "34198", "value": 360, "isochrone_group": 6.0, "nb_agences": 1 }, "geometry": { "type": "Polygon", "coordinates": [ [ [ 3.938004, 43.57478 ], [ 3.939345, 43.574696 ], [ 3.947373, 43.574206 ], [ 3.947932, 43.574056 ], [ 3.947964, 43.574041 ], [ 3.954527, 43.570683 ], [ 3.960583, 43.564619 ], [ 3.961528, 43.56342 ], [ 3.965016, 43.559701 ], [ 3.969103, 43.557057 ], [ 3.976248, 43.552679 ], [ 3.977289, 43.552578 ], [ 3.977665, 43.552521 ], [ 3.977125, 43.548961 ], [ 3.973215, 43.54917 ], [ 3.972553, 43.549231 ], [ 3.971728, 43.549365 ], [ 3.967739, 43.550457 ], [ 3.967157, 43.5506 ], [ 3.965697, 43.551833 ], [ 3.957891, 43.552705 ], [ 3.952832, 43.551244 ], [ 3.948247, 43.551494 ], [ 3.94009910971548, 43.551109233424839 ], [ 3.944811, 43.552302 ], [ 3.949853, 43.553221 ], [ 3.954989, 43.555356 ], [ 3.95534, 43.555437 ], [ 3.959964, 43.556297 ], [ 3.967111, 43.553783 ], [ 3.967302, 43.553737 ], [ 3.967368, 43.553739 ], [ 3.967461, 43.554366 ], [ 3.966951, 43.554919 ], [ 3.966441, 43.555471 ], [ 3.965852, 43.55609 ], [ 3.961709, 43.56078 ], [ 3.961013, 43.561562 ], [ 3.955961, 43.568713 ], [ 3.948611, 43.570547 ], [ 3.941232, 43.57106 ], [ 3.941157, 43.571047 ], [ 3.940234, 43.570771 ], [ 3.937961, 43.570008 ], [ 3.931221, 43.570842 ], [ 3.929646, 43.571488 ], [ 3.923751, 43.568272 ], [ 3.91603, 43.565797 ], [ 3.914994, 43.565688 ], [ 3.914969, 43.565329 ], [ 3.917213, 43.564301 ], [ 3.922889, 43.560204 ], [ 3.923086, 43.560074 ], [ 3.923303, 43.559991 ], [ 3.927859, 43.557906 ], [ 3.930707, 43.557926 ], [ 3.935748151554586, 43.552556425965975 ], [ 3.93027, 43.556366 ], [ 3.929663, 43.556562 ], [ 3.92276, 43.558465 ], [ 3.92221, 43.55871 ], [ 3.91489, 43.562231 ], [ 3.909967, 43.564623 ], [ 3.90908, 43.566017 ], [ 3.909042, 43.566263 ], [ 3.910482, 43.568186 ], [ 3.914895, 43.568546 ], [ 3.919959, 43.570414 ], [ 3.922477438988138, 43.574934658770388 ], [ 3.926702, 43.574208 ], [ 3.934478, 43.573385 ], [ 3.935702, 43.572986 ], [ 3.936276, 43.573261 ], [ 3.936866696043886, 43.574454517813031 ], [ 3.937698, 43.574666 ], [ 3.938004, 43.57478 ] ] ] } },
{ "type": "Feature", "properties": { "codgeo": "34198", "value": 420, "isochrone_group": 7.0, "nb_agences": 1 }, "geometry": { "type": "MultiPolygon", "coordinates": [ [ [ [ 3.949127, 43.575712 ], [ 3.949471, 43.57519 ], [ 3.954527, 43.570683 ], [ 3.947964, 43.574041 ], [ 3.947932, 43.574056 ], [ 3.947373, 43.574206 ], [ 3.941737158503499, 43.57454999132203 ], [ 3.943056283636043, 43.57646915028549 ], [ 3.94828, 43.576316 ], [ 3.948577, 43.576159 ], [ 3.949127, 43.575712 ] ] ], [ [ [ 3.957697, 43.570235 ], [ 3.961882, 43.564886 ], [ 3.964946, 43.55978 ], [ 3.965263631598882, 43.559540799866049 ], [ 3.965016, 43.559701 ], [ 3.961528, 43.56342 ], [ 3.960583, 43.564619 ], [ 3.954527, 43.570683 ], [ 3.957697, 43.570235 ] ] ], [ [ [ 3.977807, 43.552495 ], [ 3.978252, 43.552391 ], [ 3.978785, 43.552232 ], [ 3.986713, 43.551888 ], [ 3.989122, 43.55297 ], [ 3.990258, 43.553381 ], [ 3.991108, 43.553616 ], [ 3.991796, 43.553772 ], [ 3.992453, 43.553893 ], [ 3.993106, 43.550353 ], [ 3.987796, 43.548189 ], [ 3.983607, 43.54652 ], [ 3.982902, 43.546358 ], [ 3.9824, 43.546369 ], [ 3.982048, 43.54643 ], [ 3.981325, 43.546614 ], [ 3.980405, 43.546875 ], [ 3.976066790137778, 43.549017564158873 ], [ 3.977125, 43.548961 ], [ 3.977665, 43.552521 ], [ 3.977289, 43.552578 ], [ 3.976248, 43.552679 ], [ 3.974141810714204, 43.553969538375533 ], [ 3.977807, 43.552495 ] ] ], [ [ [ 3.971381, 43.547481 ], [ 3.96867, 43.5462 ], [ 3.968516, 43.546389 ], [ 3.964559499640589, 43.551960068961506 ], [ 3.965697, 43.551833 ], [ 3.967157, 43.5506 ], [ 3.967739, 43.550457 ], [ 3.971728, 43.549365 ], [ 3.972553, 43.549231 ], [ 3.973215, 43.54917 ], [ 3.9757415003546, 43.54903495177134 ], [ 3.971381, 43.547481 ] ] ], [ [ [ 3.910546, 43.563164 ], [ 3.90887, 43.56336 ], [ 3.905764, 43.565323 ], [ 3.904851, 43.566608 ], [ 3.904832, 43.566889 ], [ 3.905175, 43.569427 ], [ 3.905185, 43.569436 ], [ 3.906137, 43.569814 ], [ 3.906152, 43.569819 ], [ 3.906791, 43.569868 ], [ 3.90681, 43.569864 ], [ 3.915412, 43.571171 ], [ 3.917576169126148, 43.573321803711124 ], [ 3.920819, 43.573224 ], [ 3.921405752057941, 43.573010954863761 ], [ 3.919959, 43.570414 ], [ 3.914895, 43.568546 ], [ 3.910482, 43.568186 ], [ 3.909042, 43.566263 ], [ 3.90908, 43.566017 ], [ 3.909967, 43.564623 ], [ 3.91234275481338, 43.563468662093527 ], [ 3.910546, 43.563164 ] ] ] ] } },
{ "type": "Feature", "properties": { "codgeo": "34198", "value": 480, "isochrone_group": 8.0, "nb_agences": 1 }, "geometry": { "type": "MultiPolygon", "coordinates": [ [ [ [ 3.957154, 43.572217 ], [ 3.95751, 43.571246 ], [ 3.963113, 43.564773 ], [ 3.965804, 43.562382 ], [ 3.966888025426643, 43.558317510928298 ], [ 3.964946, 43.55978 ], [ 3.961882, 43.564886 ], [ 3.957697, 43.570235 ], [ 3.956876849250023, 43.570350907740043 ], [ 3.957518, 43.570466 ], [ 3.957468, 43.570745 ], [ 3.957236, 43.571583 ], [ 3.956834, 43.572443 ], [ 3.956413, 43.573083 ], [ 3.95608, 43.573499 ], [ 3.95557, 43.573997 ], [ 3.955330917690532, 43.57440371921269 ], [ 3.955794, 43.574023 ], [ 3.956425, 43.573354 ], [ 3.956803, 43.572826 ], [ 3.957154, 43.572217 ] ] ], [ [ [ 3.983806, 43.55209 ], [ 3.990258, 43.553381 ], [ 3.989122, 43.55297 ], [ 3.986713, 43.551888 ], [ 3.978785, 43.552232 ], [ 3.978252, 43.552391 ], [ 3.977807, 43.552495 ], [ 3.983806, 43.55209 ] ] ], [ [ [ 3.992577, 43.553914 ], [ 3.993303, 43.554013 ], [ 3.993968, 43.554071 ], [ 3.995936, 43.554148 ], [ 4.003064, 43.555048 ], [ 4.005809, 43.555792 ], [ 4.008806, 43.556614 ], [ 4.011425, 43.557316 ], [ 4.012357, 43.553838 ], [ 4.006505, 43.551673 ], [ 4.002282, 43.551147 ], [ 4.001584, 43.551003 ], [ 4.000841, 43.550875 ], [ 3.999979, 43.550771 ], [ 3.992463, 43.546813 ], [ 3.992135, 43.546724 ], [ 3.991807, 43.546635 ], [ 3.989056, 43.546548 ], [ 3.988778, 43.546567 ], [ 3.983607, 43.54652 ], [ 3.987796, 43.548189 ], [ 3.993106, 43.550353 ], [ 3.992453275828654, 43.553891504696132 ], [ 3.992577, 43.553914 ] ] ], [ [ [ 3.979913, 43.544926 ], [ 3.979579, 43.54482 ], [ 3.978361, 43.544863 ], [ 3.970899680881919, 43.543141224769215 ], [ 3.970994, 43.543262 ], [ 3.971867, 43.545065 ], [ 3.972246, 43.54701 ], [ 3.972021, 43.547291 ], [ 3.97053, 43.547029 ], [ 3.970242, 43.546812 ], [ 3.966803687257596, 43.544958973909971 ], [ 3.966641, 43.54571 ], [ 3.963615, 43.55329 ], [ 3.968516, 43.546389 ], [ 3.96867, 43.5462 ], [ 3.971381, 43.547481 ], [ 3.97591, 43.549095 ], [ 3.980405, 43.546875 ], [ 3.981325, 43.546614 ], [ 3.982048, 43.54643 ], [ 3.9824, 43.546369 ], [ 3.982902, 43.546358 ], [ 3.983607, 43.54652 ], [ 3.979913, 43.544926 ] ] ], [ [ [ 3.908745, 43.562311 ], [ 3.902912, 43.565748 ], [ 3.902522, 43.566629 ], [ 3.902747461745759, 43.568525437095524 ], [ 3.904284, 43.56862 ], [ 3.905091566547222, 43.568809641098696 ], [ 3.904832, 43.566889 ], [ 3.904851, 43.566608 ], [ 3.905764, 43.565323 ], [ 3.90887, 43.56336 ], [ 3.910546, 43.563164 ], [ 3.913654, 43.563691 ], [ 3.908745, 43.562311 ] ] ], [ [ [ 3.914968, 43.57198 ], [ 3.915826929168565, 43.57158336666064 ], [ 3.915412, 43.571171 ], [ 3.912214351373939, 43.570685144762358 ], [ 3.914968, 43.57198 ] ] ] ] } },
{ "type": "Feature", "properties": { "codgeo": "34198", "value": 540, "isochrone_group": 9.0, "nb_agences": 1 }, "geometry": { "type": "MultiPolygon", "coordinates": [ [ [ [ 3.965371193954288, 43.562766555650441 ], [ 3.96347162469138, 43.564454355764738 ], [ 3.965043, 43.563768 ], [ 3.965371193954288, 43.562766555650441 ] ] ], [ [ [ 3.976102, 43.552795 ], [ 3.976759, 43.552745 ], [ 3.977244, 43.55269 ], [ 3.977759, 43.552604 ], [ 3.978206, 43.552498 ], [ 3.983912892307843, 43.552111388401947 ], [ 3.983806, 43.55209 ], [ 3.977807, 43.552495 ], [ 3.977289, 43.552578 ], [ 3.976248, 43.552679 ], [ 3.971378, 43.554203 ], [ 3.970962973340228, 43.554511941413871 ], [ 3.976102, 43.552795 ] ] ], [ [ [ 4.002734, 43.556117 ], [ 4.003485, 43.556324 ], [ 4.012104, 43.557497 ], [ 4.013994, 43.557971 ], [ 4.015217, 43.558256 ], [ 4.01642, 43.55851 ], [ 4.018667, 43.558953 ], [ 4.019873, 43.559177 ], [ 4.021119, 43.559388 ], [ 4.024561, 43.559942 ], [ 4.031057, 43.561263 ], [ 4.032104, 43.557819 ], [ 4.031049, 43.557372 ], [ 4.030167, 43.557213 ], [ 4.025133, 43.556388 ], [ 4.021691, 43.555834 ], [ 4.020476, 43.555627 ], [ 4.019324, 43.555413 ], [ 4.017116, 43.554978 ], [ 4.009968, 43.552665 ], [ 4.005129, 43.55027 ], [ 4.004108, 43.549994 ], [ 3.997518, 43.548195 ], [ 3.995995, 43.547778 ], [ 3.994516838358058, 43.547894571610058 ], [ 3.999979, 43.550771 ], [ 4.000841, 43.550875 ], [ 4.001584, 43.551003 ], [ 4.002282, 43.551147 ], [ 4.006505, 43.551673 ], [ 4.012357, 43.553838 ], [ 4.011425, 43.557316 ], [ 4.008806, 43.556614 ], [ 4.005809, 43.555792 ], [ 4.003064, 43.555048 ], [ 3.995936, 43.554148 ], [ 4.002734, 43.556117 ] ] ], [ [ [ 3.986491, 43.545103 ], [ 3.985227, 43.544674 ], [ 3.978017, 43.542258 ], [ 3.977101, 43.541961 ], [ 3.973191622561851, 43.540752318553118 ], [ 3.976473196022746, 43.544427370042719 ], [ 3.978361, 43.544863 ], [ 3.979579, 43.54482 ], [ 3.979913, 43.544926 ], [ 3.983607, 43.54652 ], [ 3.988490418288094, 43.546564386126377 ], [ 3.986491, 43.545103 ] ] ], [ [ [ 3.965191, 43.547725 ], [ 3.962746416271111, 43.545983433814072 ], [ 3.963615, 43.55329 ], [ 3.965622834335593, 43.548260461247899 ], [ 3.965191, 43.547725 ] ] ], [ [ [ 3.905673, 43.562709 ], [ 3.903382, 43.562623 ], [ 3.902607, 43.562763 ], [ 3.901315, 43.563746 ], [ 3.901204, 43.564162 ], [ 3.900791, 43.56582 ], [ 3.900651, 43.566705 ], [ 3.900916076268347, 43.56739339907277 ], [ 3.901918, 43.567032 ], [ 3.902545632730285, 43.566827783107229 ], [ 3.902522, 43.566629 ], [ 3.902912, 43.565748 ], [ 3.907754497361466, 43.562894637505345 ], [ 3.905673, 43.562709 ] ] ], [ [ [ 3.966969, 43.538829 ], [ 3.963369781677467, 43.538889315355632 ], [ 3.964089, 43.539514 ], [ 3.971813127676721, 43.540326122510734 ], [ 3.969526, 43.539619 ], [ 3.966969, 43.538829 ] ] ], [ [ [ 3.951916, 43.540313 ], [ 3.953307, 43.540921 ], [ 3.952182, 43.540366 ], [ 3.951708497000758, 43.540200824535162 ], [ 3.951699, 43.540224 ], [ 3.951916, 43.540313 ] ] ], [ [ [ 3.954244, 43.541251 ], [ 3.953307, 43.540921 ], [ 3.956638, 43.542304 ], [ 3.954244, 43.541251 ] ] ] ] } },
{ "type": "Feature", "properties": { "codgeo": "34198", "value": 600, "isochrone_group": 10.0, "nb_agences": 1 }, "geometry": { "type": "MultiPolygon", "coordinates": [ [ [ [ 3.987788, 43.553345 ], [ 3.99251, 43.554018 ], [ 3.993278, 43.554128 ], [ 3.994169, 43.554205 ], [ 4.002734, 43.556117 ], [ 3.995936, 43.554148 ], [ 3.993968, 43.554071 ], [ 3.993303, 43.554013 ], [ 3.992577, 43.553914 ], [ 3.991796, 43.553772 ], [ 3.991108, 43.553616 ], [ 3.990258, 43.553381 ], [ 3.984081, 43.5521 ], [ 3.978206, 43.552498 ], [ 3.977759, 43.552604 ], [ 3.985461, 43.552851 ], [ 3.987788, 43.553345 ] ] ], [ [ [ 4.045783, 43.561665 ], [ 4.041856, 43.560818 ], [ 4.035473, 43.555235 ], [ 4.034942, 43.55522 ], [ 4.034603, 43.555235 ], [ 4.034227, 43.555296 ], [ 4.033794, 43.555431 ], [ 4.025133, 43.556388 ], [ 4.030167, 43.557213 ], [ 4.031049, 43.557372 ], [ 4.032104, 43.557819 ], [ 4.032053197379621, 43.557986110052127 ], [ 4.03359, 43.558519 ], [ 4.034562, 43.558937 ], [ 4.036046, 43.559544 ], [ 4.037077, 43.559877 ], [ 4.038206, 43.560172 ], [ 4.039237, 43.560414 ], [ 4.04302, 43.561231 ], [ 4.046836, 43.562055 ], [ 4.046972618235817, 43.561921887258428 ], [ 4.045783, 43.561665 ] ] ], [ [ [ 4.013638, 43.553765 ], [ 4.008233081626389, 43.551806324756186 ], [ 4.009968, 43.552665 ], [ 4.017116, 43.554978 ], [ 4.019324, 43.555413 ], [ 4.020476, 43.555627 ], [ 4.014036, 43.553883 ], [ 4.013638, 43.553765 ] ] ], [ [ [ 3.983348, 43.544025 ], [ 3.980267, 43.543004 ], [ 3.973121, 43.540581 ], [ 3.972600735368407, 43.540569631053842 ], [ 3.977101, 43.541961 ], [ 3.978017, 43.542258 ], [ 3.984555502068814, 43.544448987655805 ], [ 3.984544, 43.544442 ], [ 3.983348, 43.544025 ] ] ], [ [ [ 3.961551, 43.536399 ], [ 3.961214, 43.536247 ], [ 3.960507180263316, 43.536282112875355 ], [ 3.963916271576737, 43.538880157330297 ], [ 3.966282283862428, 43.538840507923219 ], [ 3.962842, 43.53763 ], [ 3.961551, 43.536399 ] ] ], [ [ [ 3.906427, 43.560247 ], [ 3.903567, 43.561323 ], [ 3.899051, 43.562846 ], [ 3.898842573940075, 43.563659493227831 ], [ 3.900930874445065, 43.565258470145466 ], [ 3.901204, 43.564162 ], [ 3.901315, 43.563746 ], [ 3.902607, 43.562763 ], [ 3.903382, 43.562623 ], [ 3.905673, 43.562709 ], [ 3.909205, 43.563024 ], [ 3.912898, 43.563713 ], [ 3.913654, 43.563691 ], [ 3.906527, 43.560284 ], [ 3.906427, 43.560247 ] ] ] ] } },
{ "type": "Feature", "properties": { "codgeo": "34198", "value": 660, "isochrone_group": 11.0, "nb_agences": 1 }, "geometry": { "type": "MultiPolygon", "coordinates": [ [ [ [ 4.033081, 43.563068 ], [ 4.034640952736859, 43.563409473903967 ], [ 4.033233, 43.563101 ], [ 4.029344, 43.56225 ], [ 4.033081, 43.563068 ] ] ], [ [ [ 4.039657, 43.555513 ], [ 4.03714577538606, 43.555855959355469 ], [ 4.039352411269731, 43.558628193344653 ], [ 4.041839575175663, 43.560803633746758 ], [ 4.046362072775671, 43.557103541233623 ], [ 4.04565, 43.555953 ], [ 4.043981, 43.555817 ], [ 4.041808, 43.555664 ], [ 4.039657, 43.555513 ] ] ], [ [ [ 4.016059, 43.554352 ], [ 4.007523, 43.551549 ], [ 4.013638, 43.553765 ], [ 4.014036, 43.553883 ], [ 4.020476, 43.555627 ], [ 4.021691, 43.555834 ], [ 4.025133, 43.556388 ], [ 4.026721653270561, 43.55621246124236 ], [ 4.023677, 43.555982 ], [ 4.018352, 43.554903 ], [ 4.016854, 43.554532 ], [ 4.016059, 43.554352 ] ] ], [ [ [ 4.00101704093792, 43.550344840828849 ], [ 4.00317, 43.551356 ], [ 4.007523, 43.551549 ], [ 4.00101704093792, 43.550344840828849 ] ] ], [ [ [ 3.961211422682676, 43.536247128034098 ], [ 3.959395718395716, 43.535435075622146 ], [ 3.959556167570453, 43.535557352807025 ], [ 3.961151999225478, 43.536250080029269 ], [ 3.961211422682676, 43.536247128034098 ] ] ], [ [ [ 3.961608930917138, 43.536448427405411 ], [ 3.961551, 43.536399 ], [ 3.961597743583104, 43.536443571147018 ], [ 3.961608930917138, 43.536448427405411 ] ] ], [ [ [ 3.956104, 43.534113 ], [ 3.957588, 43.534703 ], [ 3.957649226402312, 43.534729577487326 ], [ 3.959217121441096, 43.535355200232303 ], [ 3.959125, 43.535314 ], [ 3.955683, 43.53391 ], [ 3.955182, 43.533746 ], [ 3.955179861182911, 43.533747061040721 ], [ 3.956104, 43.534113 ] ] ], [ [ [ 3.963567284318566, 43.552888613498155 ], [ 3.963567284318568, 43.552888613498155 ], [ 3.962770267511835, 43.546184071545539 ], [ 3.962770267511835, 43.546184071545539 ], [ 3.963567284318566, 43.552888613498155 ] ] ], [ [ [ 3.903567, 43.561323 ], [ 3.906427, 43.560247 ], [ 3.906527, 43.560284 ], [ 3.912918016616277, 43.563339169582093 ], [ 3.91314122933586, 43.563375158015852 ], [ 3.907686, 43.560015 ], [ 3.902962, 43.558252 ], [ 3.899594, 43.559589 ], [ 3.898500262980384, 43.560663642011527 ], [ 3.899428450290067, 43.561584706192292 ], [ 3.900775768274431, 43.562264329919842 ], [ 3.903567, 43.561323 ] ] ] ] } },
{ "type": "Feature", "properties": { "codgeo": "34198", "value": 720, "isochrone_group": 12.0, "nb_agences": 1 }, "geometry": { "type": "MultiPolygon", "coordinates": [ [ [ [ 3.962138, 43.574433 ], [ 3.962288, 43.575956 ], [ 3.961196, 43.576269 ], [ 3.960765524430274, 43.576534093422929 ], [ 3.961027, 43.576857 ], [ 3.961029, 43.576891 ], [ 3.960237654919454, 43.577808804650878 ], [ 3.96028, 43.578072 ], [ 3.959954922118535, 43.579869772255719 ], [ 3.960112693061732, 43.58215401004724 ], [ 3.960892194669974, 43.585856881797312 ], [ 3.960969264379998, 43.586016748562436 ], [ 3.961109771326776, 43.585994043624233 ], [ 3.962325, 43.57776 ], [ 3.962732, 43.577503 ], [ 3.962648, 43.575301 ], [ 3.962638, 43.575246 ], [ 3.962446, 43.574316 ], [ 3.96203823350442, 43.574151949224643 ], [ 3.962138, 43.574433 ] ] ], [ [ [ 4.014592, 43.559093 ], [ 4.018025, 43.559827 ], [ 4.021459, 43.560562 ], [ 4.017516, 43.559718 ], [ 4.014590696660556, 43.55909242143197 ], [ 4.014592, 43.559093 ] ] ], [ [ [ 4.034640952736859, 43.563409473903967 ], [ 4.03714, 43.563957 ], [ 4.03464095274819, 43.563409473906447 ], [ 4.034640952736859, 43.563409473903967 ] ] ], [ [ [ 4.046934145309182, 43.558027875179384 ], [ 4.049113994788028, 43.556244004265196 ], [ 4.046961, 43.55606 ], [ 4.045650062773739, 43.555953101427541 ], [ 4.046934145309182, 43.558027875179384 ] ] ], [ [ [ 3.948106282674727, 43.531191979875217 ], [ 3.950698110277436, 43.532100517558675 ], [ 3.949375, 43.531611 ], [ 3.948106282674727, 43.531191979875217 ] ] ], [ [ [ 3.936616983224788, 43.528401899952108 ], [ 3.93914, 43.529862 ], [ 3.942764, 43.529557 ], [ 3.945404589407372, 43.530299689821682 ], [ 3.945348, 43.530281 ], [ 3.940278, 43.528288 ], [ 3.939877, 43.528195 ], [ 3.93726, 43.528082 ], [ 3.936616983224788, 43.528401899952108 ] ] ], [ [ [ 3.902171, 43.558217 ], [ 3.901807, 43.558193 ], [ 3.898525941102058, 43.558107280284503 ], [ 3.899700867975456, 43.559546576459873 ], [ 3.90257597565389, 43.558405240662339 ], [ 3.902171, 43.558217 ] ] ] ] } },
{ "type": "Feature", "properties": { "codgeo": "34198", "value": 780, "isochrone_group": 13.0, "nb_agences": 1 }, "geometry": { "type": "MultiPolygon", "coordinates": [ [ [ [ 4.052354, 43.567191 ], [ 4.052357316893866, 43.56719154806364 ], [ 4.048727, 43.56642 ], [ 4.044865, 43.565599 ], [ 4.048609, 43.566395 ], [ 4.052354, 43.567191 ] ] ], [ [ [ 4.049113994788028, 43.556244004265196 ], [ 4.049114, 43.556244 ], [ 4.053289102948798, 43.556437420125064 ], [ 4.046961, 43.55606 ], [ 4.049113994788028, 43.556244004265196 ] ] ], [ [ [ 3.904129, 43.558642 ], [ 3.904273, 43.558689 ], [ 3.904300344686024, 43.558706076212125 ], [ 3.903539, 43.555717 ], [ 3.903378, 43.554964 ], [ 3.903213, 43.553985 ], [ 3.899613, 43.554044 ], [ 3.898555930553374, 43.554909764790857 ], [ 3.899285993529092, 43.556926569849196 ], [ 3.904129, 43.558642 ] ] ] ] } },
{ "type": "Feature", "properties": { "codgeo": "34198", "value": 840, "isochrone_group": 14.0, "nb_agences": 1 }, "geometry": { "type": "MultiPolygon", "coordinates": [ [ [ [ 3.96835347622327, 43.58619499651882 ], [ 3.968694, 43.586211 ], [ 3.969206865520577, 43.586177859108751 ], [ 3.969287552502481, 43.58613357779241 ], [ 3.968476, 43.586147 ], [ 3.96835347622327, 43.58619499651882 ] ] ], [ [ [ 4.077770992637532, 43.57294480370745 ], [ 4.0766, 43.572168 ], [ 4.072784, 43.571344 ], [ 4.072747625120309, 43.571338023055375 ], [ 4.077770992637532, 43.57294480370745 ] ] ], [ [ [ 4.058702, 43.557087 ], [ 4.057135715636872, 43.556896074379502 ], [ 4.058833642734, 43.557410517608034 ], [ 4.058702, 43.557087 ] ] ], [ [ [ 3.955731260915372, 43.53396540339417 ], [ 3.955733289790807, 43.53396620678491 ], [ 3.955743, 43.533967 ], [ 3.955731260915372, 43.53396540339417 ] ] ], [ [ [ 3.959395718395716, 43.535435075622139 ], [ 3.959395718395727, 43.535435075622146 ], [ 3.961551, 43.536399 ], [ 3.959395718395716, 43.535435075622139 ] ] ] ] } },
{ "type": "Feature", "properties": { "codgeo": "34198", "value": 900, "isochrone_group": 15.0, "nb_agences": 1 }, "geometry": { "type": "MultiPolygon", "coordinates": [ [ [ [ 4.064509, 43.569792 ], [ 4.066725020494832, 43.570271795063107 ], [ 4.064697, 43.569832 ], [ 4.060307, 43.568881 ], [ 4.064509, 43.569792 ] ] ], [ [ [ 4.107376899605971, 43.573905953567518 ], [ 4.107130147009165, 43.574134878390517 ], [ 4.10526, 43.57698 ], [ 4.106400949614715, 43.57904657650559 ], [ 4.107376899605971, 43.573905953567518 ] ] ], [ [ [ 4.110414026244896, 43.571731865330769 ], [ 4.113750736885541, 43.570627294643856 ], [ 4.112458, 43.570762 ], [ 4.110704876516434, 43.571540928875848 ], [ 4.110414026244896, 43.571731865330769 ] ] ], [ [ [ 4.074235, 43.556602 ], [ 4.074183, 43.556639 ], [ 4.072596, 43.557979 ], [ 4.071873094036393, 43.558296722750391 ], [ 4.075425, 43.557889 ], [ 4.077458075511291, 43.557370022053462 ], [ 4.074235, 43.556602 ] ] ], [ [ [ 3.920247, 43.521477 ], [ 3.920105, 43.521485 ], [ 3.918828156311153, 43.522618460422152 ], [ 3.919526, 43.523136 ], [ 3.922076, 43.523696 ], [ 3.929886, 43.525445 ], [ 3.932247, 43.525891 ], [ 3.932432, 43.52598 ], [ 3.93914, 43.529862 ], [ 3.931921, 43.524863 ], [ 3.931624, 43.524758 ], [ 3.931161, 43.524658 ], [ 3.927312, 43.523775 ], [ 3.920269, 43.521484 ], [ 3.920247, 43.521477 ] ] ], [ [ [ 3.896175135789943, 43.537041886336269 ], [ 3.894899347033929, 43.537437759186858 ], [ 3.894974217438513, 43.537459896049967 ], [ 3.896175135789943, 43.537041886336269 ] ] ] ] } },
{ "type": "Feature", "properties": { "codgeo": "34198", "value": 960, "isochrone_group": 16.0, "nb_agences": 1 }, "geometry": { "type": "MultiPolygon", "coordinates": [ [ [ [ 4.044016991657255, 43.565418773531093 ], [ 4.044016991650087, 43.565418773529579 ], [ 4.041002, 43.564778 ], [ 4.044016991657255, 43.565418773531093 ] ] ], [ [ [ 4.085056643996977, 43.577241346260294 ], [ 4.082858, 43.576076 ], [ 4.082438, 43.575907 ], [ 4.081861, 43.575658 ], [ 4.085056643996977, 43.577241346260294 ] ] ], [ [ [ 4.085905697519081, 43.577691496551644 ], [ 4.085905, 43.577691 ], [ 4.085562626665054, 43.577509532019711 ], [ 4.085905697519081, 43.577691496551644 ] ] ], [ [ [ 4.066725020494832, 43.570271795063107 ], [ 4.06911, 43.570789 ], [ 4.066725020500438, 43.570271795064343 ], [ 4.066725020494832, 43.570271795063107 ] ] ], [ [ [ 4.081861, 43.575658 ], [ 4.079653, 43.574522 ], [ 4.077893, 43.573587 ], [ 4.077559700301475, 43.573469231142539 ], [ 4.081861, 43.575658 ] ] ], [ [ [ 4.044333694736236, 43.565486082158543 ], [ 4.044865, 43.565599 ], [ 4.044333694736245, 43.565486082158543 ], [ 4.044333694736236, 43.565486082158543 ] ] ], [ [ [ 4.111232716197463, 43.571460849644765 ], [ 4.109869246860424, 43.571912206811859 ], [ 4.109172, 43.572222 ], [ 4.107909427811566, 43.573410521033693 ], [ 4.111232716197463, 43.571460849644765 ] ] ], [ [ [ 4.137421, 43.564183 ], [ 4.136526, 43.564312 ], [ 4.135581, 43.564469 ], [ 4.134677, 43.564692 ], [ 4.13421, 43.564828 ], [ 4.133519, 43.565072 ], [ 4.131927, 43.565692 ], [ 4.137421, 43.564183 ] ] ], [ [ [ 4.113750287457748, 43.570627443420541 ], [ 4.113815107844106, 43.570620587081791 ], [ 4.113750736885553, 43.570627294643856 ], [ 4.113750287457748, 43.570627443420541 ] ] ], [ [ [ 4.089471, 43.555983 ], [ 4.088041, 43.556272 ], [ 4.087374617624807, 43.556383136225094 ], [ 4.090576, 43.557059 ], [ 4.093803778842236, 43.556466105084311 ], [ 4.091198, 43.556033 ], [ 4.089471, 43.555983 ] ] ], [ [ [ 4.078003, 43.555806 ], [ 4.077327, 43.555858 ], [ 4.069938, 43.556643 ], [ 4.069833, 43.556675 ], [ 4.064315, 43.558565 ], [ 4.06355, 43.5587 ], [ 4.063000793589388, 43.558673093924469 ], [ 4.06439, 43.559094 ], [ 4.065633, 43.559073 ], [ 4.068893, 43.558625 ], [ 4.070381, 43.558468 ], [ 4.071873094036393, 43.558296722750391 ], [ 4.072596, 43.557979 ], [ 4.074183, 43.556639 ], [ 4.074235, 43.556602 ], [ 4.077458075511291, 43.557370022053462 ], [ 4.081607116486228, 43.556310907055781 ], [ 4.078003, 43.555806 ] ] ], [ [ [ 3.915972, 43.519762 ], [ 3.915708163919075, 43.520304590466282 ], [ 3.918828156311153, 43.522618460422152 ], [ 3.919550332132256, 43.521977381394073 ], [ 3.916922, 43.520224 ], [ 3.915972, 43.519762 ] ] ], [ [ [ 3.934285, 43.525834 ], [ 3.933182409928521, 43.525736498854783 ], [ 3.93914, 43.529862 ], [ 3.934285, 43.525834 ] ] ], [ [ [ 3.973828, 43.58438 ], [ 3.97523807141352, 43.584459023266604 ], [ 3.975238, 43.584459 ], [ 3.973828, 43.58438 ] ] ] ] } },
{ "type": "Feature", "properties": { "codgeo": "34198", "value": 1020, "isochrone_group": 17.0, "nb_agences": 1 }, "geometry": { "type": "MultiPolygon", "coordinates": [ [ [ [ 3.992443215831397, 43.590850200292181 ], [ 3.993116, 43.590125 ], [ 3.993171026463361, 43.590176064724801 ], [ 3.993246167278653, 43.590099051407883 ], [ 3.993189, 43.590046 ], [ 3.992443115309757, 43.590850107007817 ], [ 3.992443215831397, 43.590850200292181 ] ] ], [ [ [ 4.083303309084196, 43.576381918998543 ], [ 4.08328956672717, 43.576372478256701 ], [ 4.081861, 43.575658 ], [ 4.083303309084196, 43.576381918998543 ] ] ], [ [ [ 4.102569, 43.554055 ], [ 4.10028, 43.553903 ], [ 4.098164, 43.554335 ], [ 4.098161, 43.554339 ], [ 4.092727975117554, 43.556287296332265 ], [ 4.093803778842233, 43.556466105084311 ], [ 4.099341, 43.555449 ], [ 4.102604170279013, 43.554175583813773 ], [ 4.102569, 43.554055 ] ] ], [ [ [ 4.088041, 43.556272 ], [ 4.088984185412218, 43.556081384206898 ], [ 4.087269, 43.555028 ], [ 4.086027, 43.554492 ], [ 4.085584, 43.554309 ], [ 4.084599, 43.554514 ], [ 4.080541004124701, 43.556161553488643 ], [ 4.081607116486223, 43.556310907055781 ], [ 4.084063, 43.555684 ], [ 4.087374617624807, 43.556383136225094 ], [ 4.088041, 43.556272 ] ] ], [ [ [ 4.06355, 43.5587 ], [ 4.064315, 43.558565 ], [ 4.066547886150087, 43.557800202097937 ], [ 4.065393, 43.557599 ], [ 4.064429, 43.557286 ], [ 4.064254, 43.557299 ], [ 4.06127, 43.55749 ], [ 4.057358025727819, 43.556963430581725 ], [ 4.063000793589388, 43.558673093924469 ], [ 4.06355, 43.5587 ] ] ], [ [ [ 3.915397, 43.51967 ], [ 3.912838, 43.518176 ], [ 3.915708163919074, 43.520304590466282 ], [ 3.915875886133186, 43.519959662380479 ], [ 3.915397, 43.51967 ] ] ], [ [ [ 3.886096, 43.53553 ], [ 3.887351948632979, 43.535305811930414 ], [ 3.886942, 43.535135 ], [ 3.886293, 43.534615 ], [ 3.886133, 43.534539 ], [ 3.881652064063117, 43.536362009881593 ], [ 3.886096, 43.53553 ] ] ] ] } },
{ "type": "Feature", "properties": { "codgeo": "34198", "value": 1080, "isochrone_group": 18.0, "nb_agences": 1 }, "geometry": { "type": "MultiPolygon", "coordinates": [ [ [ [ 3.900818, 43.526875 ], [ 3.902534, 43.52371 ], [ 3.903726182902221, 43.520634535880781 ], [ 3.901672, 43.523243 ], [ 3.899955, 43.526407 ], [ 3.901846, 43.535068 ], [ 3.900818, 43.526875 ] ] ], [ [ [ 3.876125047354177, 43.536975005524461 ], [ 3.876301, 43.537123 ], [ 3.87716, 43.53714 ], [ 3.876125047354177, 43.536975005524461 ] ] ], [ [ [ 4.075771928678992, 43.557800440410148 ], [ 4.077744711547123, 43.557296853211227 ], [ 4.077858861495368, 43.557250508130764 ], [ 4.075643, 43.55781 ], [ 4.075771928678992, 43.557800440410148 ] ] ], [ [ [ 4.082630882067805, 43.57604503517404 ], [ 4.082627988136027, 43.57604296414496 ], [ 4.081861, 43.575658 ], [ 4.082630882067805, 43.57604503517404 ] ] ], [ [ [ 3.983250258951746, 43.584493524893396 ], [ 3.983602351856187, 43.584319796294153 ], [ 3.983250245998054, 43.584493498636348 ], [ 3.983250258951746, 43.584493524893396 ] ] ], [ [ [ 3.998025, 43.588728 ], [ 4.000112753822165, 43.589951222686054 ], [ 4.000175854127218, 43.589960643605707 ], [ 3.998094, 43.588729 ], [ 3.996096, 43.588694 ], [ 3.998025, 43.588728 ] ] ], [ [ [ 4.103521, 43.606255 ], [ 4.103768, 43.60682 ], [ 4.103793573433997, 43.606849535173701 ], [ 4.103521, 43.606255 ] ] ] ] } },
{ "type": "Feature", "properties": { "codgeo": "34198", "value": 1140, "isochrone_group": 19.0, "nb_agences": 1 }, "geometry": { "type": "MultiPolygon", "coordinates": [ [ [ [ 3.985919, 43.583177 ], [ 3.985241185842453, 43.583511376701374 ], [ 3.986834, 43.58674 ], [ 3.994694974982522, 43.589118509828296 ], [ 3.994701844309159, 43.589115811164255 ], [ 3.987512, 43.586405 ], [ 3.985919, 43.583177 ] ] ], [ [ [ 3.981688491290596, 43.585263950034332 ], [ 3.982028918194401, 43.585096009202957 ], [ 3.981073246419412, 43.585203520390166 ], [ 3.981688491290596, 43.585263950034332 ] ] ], [ [ [ 4.102244, 43.594194 ], [ 4.099454, 43.602248 ], [ 4.097644, 43.60536 ], [ 4.098304, 43.605744 ], [ 4.099746, 43.606417 ], [ 4.102405751606458, 43.608176236258267 ], [ 4.103521, 43.606255 ], [ 4.103139, 43.605106 ], [ 4.102939, 43.603118 ], [ 4.102753, 43.600369 ], [ 4.102581, 43.597942 ], [ 4.102442, 43.596478 ], [ 4.102303, 43.59523 ], [ 4.102244, 43.594194 ] ] ], [ [ [ 4.14140383938789, 43.609968971631361 ], [ 4.138171, 43.606966 ], [ 4.140972, 43.609763 ], [ 4.14140383938789, 43.609968971631361 ] ] ], [ [ [ 4.113435, 43.550745 ], [ 4.111995, 43.551093 ], [ 4.111275, 43.551322 ], [ 4.106639, 43.552764 ], [ 4.110722, 43.551657 ], [ 4.112481, 43.551066 ], [ 4.113444670815051, 43.550773776365972 ], [ 4.113435, 43.550745 ] ] ], [ [ [ 4.084211, 43.555688 ], [ 4.084345042315187, 43.555743543710022 ], [ 4.090576, 43.557059 ], [ 4.084211, 43.555688 ] ] ], [ [ [ 3.901672, 43.523243 ], [ 3.903726182902223, 43.520634535880781 ], [ 3.904868, 43.517689 ], [ 3.904884, 43.517428 ], [ 3.900017, 43.522345 ], [ 3.8983, 43.525509 ], [ 3.899955045687219, 43.526406915809915 ], [ 3.901672, 43.523243 ] ] ] ] } },
{ "type": "Feature", "properties": { "codgeo": "34198", "value": 1200, "isochrone_group": 20.0, "nb_agences": 1 }, "geometry": { "type": "MultiPolygon", "coordinates": [ [ [ [ 4.083369174537069, 43.555861111037977 ], [ 4.083369174537077, 43.555861111037977 ], [ 4.084063, 43.555684 ], [ 4.083369174537069, 43.555861111037977 ] ] ], [ [ [ 4.08514363239088, 43.555888885939972 ], [ 4.085143632390892, 43.555888885939972 ], [ 4.084211, 43.555688 ], [ 4.08514363239088, 43.555888885939972 ] ] ], [ [ [ 4.094718112948916, 43.556298155522221 ], [ 4.099341, 43.555449 ], [ 4.094718112948911, 43.556298155522221 ], [ 4.094718112948916, 43.556298155522221 ] ] ], [ [ [ 4.012427582254675, 43.593951490454749 ], [ 4.015400480081448, 43.592494288529267 ], [ 4.007789, 43.590328 ], [ 4.008573673727839, 43.591739012050759 ], [ 4.011352, 43.59359 ], [ 4.012427582254675, 43.593951490454749 ] ] ], [ [ [ 4.102244, 43.594194 ], [ 4.10216, 43.593203 ], [ 4.101640175219395, 43.59295669832904 ], [ 4.102244, 43.594194 ] ] ], [ [ [ 4.113435, 43.550745 ], [ 4.113444670815051, 43.550773776365972 ], [ 4.11940320967269, 43.548966908448726 ], [ 4.11897, 43.548936 ], [ 4.117945, 43.548954 ], [ 4.116847, 43.549082 ], [ 4.112156240723105, 43.551054033491916 ], [ 4.113435, 43.550745 ] ] ] ] } }
]
}
