{
"type": "FeatureCollection",
"name": "La_Banque_Postale",
"crs": { "type": "name", "properties": { "name": "urn:ogc:def:crs:OGC:1.3:CRS84" } },
"features": [
{ "type": "Feature", "properties": { "codgeo": "34327", "value": 60, "isochrone_group": 1.0, "nb_agences": 1 }, "geometry": { "type": "Polygon", "coordinates": [ [ [ 3.965263, 43.658586 ], [ 3.965512, 43.658325 ], [ 3.968432, 43.656938 ], [ 3.968672, 43.65686 ], [ 3.969652, 43.657571 ], [ 3.969725, 43.657923 ], [ 3.969019, 43.658867 ], [ 3.967355, 43.660959 ], [ 3.965866, 43.660069 ], [ 3.965603, 43.659823 ], [ 3.965263, 43.658586 ] ] ] } },
{ "type": "Feature", "properties": { "codgeo": "34327", "value": 120, "isochrone_group": 2.0, "nb_agences": 1 }, "geometry": { "type": "Polygon", "coordinates": [ [ [ 3.958728, 43.66259 ], [ 3.961013, 43.662692 ], [ 3.965326, 43.66355 ], [ 3.968732, 43.663636 ], [ 3.96895, 43.663349 ], [ 3.970756, 43.660431 ], [ 3.971765, 43.658826 ], [ 3.971792, 43.658467 ], [ 3.971679, 43.656414 ], [ 3.967267, 43.654881 ], [ 3.96269, 43.65688 ], [ 3.962363, 43.657031 ], [ 3.959443, 43.661572 ], [ 3.958622, 43.662246 ], [ 3.958728, 43.66259 ] ], [ [ 3.965512, 43.658325 ], [ 3.968432, 43.656938 ], [ 3.968672, 43.65686 ], [ 3.969652, 43.657571 ], [ 3.969725, 43.657923 ], [ 3.969019, 43.658867 ], [ 3.967355, 43.660959 ], [ 3.965866, 43.660069 ], [ 3.965603, 43.659823 ], [ 3.965263, 43.658586 ], [ 3.965512, 43.658325 ] ] ] } },
{ "type": "Feature", "properties": { "codgeo": "34327", "value": 180, "isochrone_group": 3.0, "nb_agences": 1 }, "geometry": { "type": "Polygon", "coordinates": [ [ [ 3.951479, 43.667296 ], [ 3.951668, 43.667603 ], [ 3.951904, 43.667457 ], [ 3.953097, 43.66675 ], [ 3.954915, 43.66591 ], [ 3.963821, 43.667142 ], [ 3.963916, 43.667281 ], [ 3.964034, 43.667432 ], [ 3.972773, 43.66741 ], [ 3.973074, 43.667494 ], [ 3.973425, 43.667558 ], [ 3.973777, 43.667622 ], [ 3.973841, 43.667267 ], [ 3.974772, 43.659452 ], [ 3.97479, 43.659256 ], [ 3.97478, 43.658896 ], [ 3.97445, 43.655865 ], [ 3.974318, 43.65553 ], [ 3.97006, 43.653442 ], [ 3.967831, 43.652811 ], [ 3.961094, 43.652576 ], [ 3.960849, 43.652632 ], [ 3.960158, 43.653997 ], [ 3.953602, 43.658915 ], [ 3.952519, 43.659085 ], [ 3.951479, 43.667296 ] ], [ [ 3.959443, 43.661572 ], [ 3.962363, 43.657031 ], [ 3.96269, 43.65688 ], [ 3.967267, 43.654881 ], [ 3.971679, 43.656414 ], [ 3.971792, 43.658467 ], [ 3.971765, 43.658826 ], [ 3.970756, 43.660431 ], [ 3.96895, 43.663349 ], [ 3.968732, 43.663636 ], [ 3.965326, 43.66355 ], [ 3.961013, 43.662692 ], [ 3.958728, 43.66259 ], [ 3.958622, 43.662246 ], [ 3.959443, 43.661572 ] ] ] } },
{ "type": "Feature", "properties": { "codgeo": "34327", "value": 240, "isochrone_group": 4.0, "nb_agences": 1 }, "geometry": { "type": "Polygon", "coordinates": [ [ [ 3.944231, 43.672626 ], [ 3.944415, 43.672935 ], [ 3.945379, 43.672687 ], [ 3.949514, 43.67085 ], [ 3.955276, 43.667887 ], [ 3.960385, 43.670599 ], [ 3.961316, 43.6707 ], [ 3.969664, 43.669445 ], [ 3.978427, 43.671152 ], [ 3.978575, 43.670824 ], [ 3.979969, 43.667317 ], [ 3.979924, 43.66696 ], [ 3.977938, 43.658859 ], [ 3.976903, 43.651213 ], [ 3.976651, 43.650956 ], [ 3.967858, 43.650762 ], [ 3.967546, 43.650583 ], [ 3.962764, 43.648392 ], [ 3.956365, 43.648915 ], [ 3.956156, 43.649208 ], [ 3.957313, 43.651912 ], [ 3.950545, 43.657829 ], [ 3.950395, 43.657817 ], [ 3.95022, 43.657855 ], [ 3.943998, 43.660395 ], [ 3.943984, 43.660754 ], [ 3.947572, 43.668601 ], [ 3.944486, 43.672474 ], [ 3.944231, 43.672626 ] ], [ [ 3.953602, 43.658915 ], [ 3.960158, 43.653997 ], [ 3.960849, 43.652632 ], [ 3.961094, 43.652576 ], [ 3.967831, 43.652811 ], [ 3.97006, 43.653442 ], [ 3.974318, 43.65553 ], [ 3.97445, 43.655865 ], [ 3.97478, 43.658896 ], [ 3.97479, 43.659256 ], [ 3.974772, 43.659452 ], [ 3.973841, 43.667267 ], [ 3.973777, 43.667622 ], [ 3.973425, 43.667558 ], [ 3.973074, 43.667494 ], [ 3.972773, 43.66741 ], [ 3.964034, 43.667432 ], [ 3.963916, 43.667281 ], [ 3.963821, 43.667142 ], [ 3.954915, 43.66591 ], [ 3.953097, 43.66675 ], [ 3.951904, 43.667457 ], [ 3.951668, 43.667603 ], [ 3.951479, 43.667296 ], [ 3.952519, 43.659085 ], [ 3.953602, 43.658915 ] ] ] } },
{ "type": "Feature", "properties": { "codgeo": "34327", "value": 300, "isochrone_group": 5.0, "nb_agences": 1 }, "geometry": { "type": "MultiPolygon", "coordinates": [ [ [ [ 3.944322, 43.668378 ], [ 3.939108, 43.673768 ], [ 3.936345, 43.677617 ], [ 3.936517, 43.677934 ], [ 3.936818, 43.67777 ], [ 3.93712, 43.677606 ], [ 3.937431, 43.677407 ], [ 3.938762, 43.67648 ], [ 3.943231, 43.675593 ], [ 3.947884, 43.678041 ], [ 3.948124, 43.67831 ], [ 3.951109, 43.676257 ], [ 3.956912, 43.674123 ], [ 3.960108, 43.673097 ], [ 3.962172, 43.672585 ], [ 3.968625501067084, 43.669601123162522 ], [ 3.961316, 43.6707 ], [ 3.960385, 43.670599 ], [ 3.955276, 43.667887 ], [ 3.949514, 43.67085 ], [ 3.945379, 43.672687 ], [ 3.944415, 43.672935 ], [ 3.944231, 43.672626 ], [ 3.944486, 43.672474 ], [ 3.947572, 43.668601 ], [ 3.943984, 43.660754 ], [ 3.943998, 43.660395 ], [ 3.95022, 43.657855 ], [ 3.950395, 43.657817 ], [ 3.950545, 43.657829 ], [ 3.957313, 43.651912 ], [ 3.956156, 43.649208 ], [ 3.956365, 43.648915 ], [ 3.962764, 43.648392 ], [ 3.967546, 43.650583 ], [ 3.967858, 43.650762 ], [ 3.976651, 43.650956 ], [ 3.976903, 43.651213 ], [ 3.977938, 43.658859 ], [ 3.979924, 43.66696 ], [ 3.979969, 43.667317 ], [ 3.978575, 43.670824 ], [ 3.978427, 43.671152 ], [ 3.975802876634932, 43.67064083047083 ], [ 3.982005, 43.673754 ], [ 3.982303, 43.674014 ], [ 3.982583, 43.673788 ], [ 3.988441, 43.667753 ], [ 3.989834, 43.667954 ], [ 3.991266, 43.668155 ], [ 3.991347, 43.668149 ], [ 3.991319, 43.66779 ], [ 3.989885, 43.667597 ], [ 3.988492, 43.667397 ], [ 3.987923, 43.66732 ], [ 3.983628, 43.65978 ], [ 3.983716, 43.659431 ], [ 3.9876, 43.654929 ], [ 3.987662, 43.654575 ], [ 3.982469, 43.650927 ], [ 3.978854, 43.648678 ], [ 3.978518, 43.648551 ], [ 3.976488, 43.648505 ], [ 3.968896, 43.648663 ], [ 3.963761, 43.644827 ], [ 3.962713, 43.64318 ], [ 3.962596, 43.643089 ], [ 3.962556, 43.643084 ], [ 3.962353, 43.643171 ], [ 3.960807, 43.644935 ], [ 3.952149, 43.645193 ], [ 3.95172, 43.644737 ], [ 3.951292, 43.644281 ], [ 3.951091, 43.644131 ], [ 3.950899, 43.644019 ], [ 3.950686, 43.643915 ], [ 3.950548, 43.643868 ], [ 3.950065, 43.643721 ], [ 3.949987, 43.643761 ], [ 3.949992, 43.644086 ], [ 3.951274, 43.646043 ], [ 3.9524, 43.647922 ], [ 3.949246, 43.655836 ], [ 3.946602556847671, 43.65731843201101 ], [ 3.946537, 43.658398 ], [ 3.946544, 43.658786 ], [ 3.943419, 43.65959 ], [ 3.939391, 43.659984 ], [ 3.939390094920769, 43.659983944025498 ], [ 3.940374, 43.660178 ], [ 3.943353, 43.662112 ], [ 3.944322, 43.668378 ] ] ], [ [ [ 3.971936, 43.670503 ], [ 3.971995, 43.670539 ], [ 3.972087, 43.670532 ], [ 3.975281512075134, 43.670539270582253 ], [ 3.969664, 43.669445 ], [ 3.96930531744485, 43.669498922688867 ], [ 3.971936, 43.670503 ] ] ] ] } },
{ "type": "Feature", "properties": { "codgeo": "34327", "value": 360, "isochrone_group": 6.0, "nb_agences": 1 }, "geometry": { "type": "MultiPolygon", "coordinates": [ [ [ [ 3.978832, 43.645097 ], [ 3.978402, 43.645154 ], [ 3.977968, 43.645252 ], [ 3.970739, 43.645636 ], [ 3.967742, 43.642468 ], [ 3.967022, 43.64163 ], [ 3.96362, 43.638537 ], [ 3.963535, 43.638477 ], [ 3.954655, 43.639091 ], [ 3.954636, 43.639105 ], [ 3.94845, 43.641558 ], [ 3.944925, 43.64058 ], [ 3.944859, 43.640558 ], [ 3.944586, 43.64049 ], [ 3.944170211829946, 43.642039512826663 ], [ 3.947505, 43.643852 ], [ 3.948652, 43.644829 ], [ 3.948793, 43.645041 ], [ 3.948811, 43.645358 ], [ 3.948719, 43.645656 ], [ 3.948637, 43.645889 ], [ 3.948246, 43.646707 ], [ 3.947987868859246, 43.647708517226285 ], [ 3.950262, 43.653238 ], [ 3.947770028891677, 43.654358021119322 ], [ 3.948399071644231, 43.656310953926848 ], [ 3.949246, 43.655836 ], [ 3.9524, 43.647922 ], [ 3.951274, 43.646043 ], [ 3.949992, 43.644086 ], [ 3.949987, 43.643761 ], [ 3.950065, 43.643721 ], [ 3.950548, 43.643868 ], [ 3.950686, 43.643915 ], [ 3.950899, 43.644019 ], [ 3.951091, 43.644131 ], [ 3.951292, 43.644281 ], [ 3.95172, 43.644737 ], [ 3.952149, 43.645193 ], [ 3.960807, 43.644935 ], [ 3.962353, 43.643171 ], [ 3.962556, 43.643084 ], [ 3.962596, 43.643089 ], [ 3.962713, 43.64318 ], [ 3.963761, 43.644827 ], [ 3.968896, 43.648663 ], [ 3.976488, 43.648505 ], [ 3.978518, 43.648551 ], [ 3.978854, 43.648678 ], [ 3.982469, 43.650927 ], [ 3.986202821083965, 43.653549949993156 ], [ 3.989826, 43.653532 ], [ 3.993958310455783, 43.652211947655822 ], [ 3.987422, 43.648304 ], [ 3.984764, 43.645876 ], [ 3.979538, 43.645194 ], [ 3.978832, 43.645097 ] ] ], [ [ [ 3.943262, 43.662329 ], [ 3.942576, 43.662258 ], [ 3.940061, 43.661768 ], [ 3.936279, 43.66275 ], [ 3.934807027805911, 43.665750019519393 ], [ 3.936064, 43.668567 ], [ 3.933759, 43.672037 ], [ 3.928043, 43.677666 ], [ 3.927977, 43.677689 ], [ 3.926969, 43.680069 ], [ 3.927015, 43.680162 ], [ 3.929152, 43.681092 ], [ 3.930417, 43.681124 ], [ 3.930565, 43.681111 ], [ 3.936651, 43.680762 ], [ 3.942296, 43.68757 ], [ 3.942069, 43.68857 ], [ 3.941777, 43.690092 ], [ 3.945313, 43.69077 ], [ 3.946091, 43.68824 ], [ 3.949834, 43.680458 ], [ 3.956802, 43.678068 ], [ 3.960257, 43.676526 ], [ 3.960773, 43.676333 ], [ 3.964105, 43.675232 ], [ 3.969914, 43.673863 ], [ 3.974665, 43.673773 ], [ 3.981171, 43.676625 ], [ 3.983509, 43.678177 ], [ 3.983598, 43.67819 ], [ 3.985576, 43.676436 ], [ 3.985574, 43.676352 ], [ 3.993078, 43.67239 ], [ 3.994279, 43.673774 ], [ 3.99548, 43.675158 ], [ 3.998199, 43.672799 ], [ 3.997883, 43.667887 ], [ 3.996454, 43.664582 ], [ 3.994967028257883, 43.657883304075149 ], [ 3.990163, 43.655313 ], [ 3.987641, 43.655011 ], [ 3.987542685894641, 43.654995433599979 ], [ 3.983716, 43.659431 ], [ 3.983628, 43.65978 ], [ 3.987923, 43.66732 ], [ 3.988492, 43.667397 ], [ 3.989885, 43.667597 ], [ 3.991319, 43.66779 ], [ 3.991347, 43.668149 ], [ 3.991266, 43.668155 ], [ 3.989834, 43.667954 ], [ 3.988441, 43.667753 ], [ 3.982583, 43.673788 ], [ 3.982303, 43.674014 ], [ 3.982005, 43.673754 ], [ 3.975602, 43.67054 ], [ 3.972087, 43.670532 ], [ 3.971995, 43.670539 ], [ 3.971936, 43.670503 ], [ 3.969054, 43.669403 ], [ 3.962172, 43.672585 ], [ 3.960108, 43.673097 ], [ 3.956912, 43.674123 ], [ 3.951109, 43.676257 ], [ 3.948124, 43.67831 ], [ 3.947884, 43.678041 ], [ 3.943231, 43.675593 ], [ 3.938762, 43.67648 ], [ 3.937431, 43.677407 ], [ 3.93712, 43.677606 ], [ 3.936818, 43.67777 ], [ 3.936517, 43.677934 ], [ 3.936345, 43.677617 ], [ 3.939108, 43.673768 ], [ 3.944322, 43.668378 ], [ 3.943387009030517, 43.6623319180446 ], [ 3.943262, 43.662329 ] ] ] ] } },
{ "type": "Feature", "properties": { "codgeo": "34327", "value": 420, "isochrone_group": 7.0, "nb_agences": 1 }, "geometry": { "type": "MultiPolygon", "coordinates": [ [ [ [ 3.975772, 43.641489 ], [ 3.96987, 43.641139 ], [ 3.967231, 43.63637 ], [ 3.9672, 43.635193 ], [ 3.965725, 43.634175 ], [ 3.965529, 43.634122 ], [ 3.9604, 43.634903 ], [ 3.952992, 43.638737 ], [ 3.949523, 43.63965 ], [ 3.943218, 43.638824 ], [ 3.939208, 43.63884 ], [ 3.937830574030963, 43.639232946672152 ], [ 3.939155, 43.639296 ], [ 3.944875, 43.639715 ], [ 3.946447062131492, 43.641002291280742 ], [ 3.94845, 43.641558 ], [ 3.954636, 43.639105 ], [ 3.954655, 43.639091 ], [ 3.963535, 43.638477 ], [ 3.96362, 43.638537 ], [ 3.967022, 43.64163 ], [ 3.967742, 43.642468 ], [ 3.970739, 43.645636 ], [ 3.977968, 43.645252 ], [ 3.978402, 43.645154 ], [ 3.978832, 43.645097 ], [ 3.979538, 43.645194 ], [ 3.984764, 43.645876 ], [ 3.987422, 43.648304 ], [ 3.992555747478475, 43.651373379363164 ], [ 3.994727905772474, 43.651405911967537 ], [ 3.991721310781415, 43.644588377728141 ], [ 3.991367, 43.644765 ], [ 3.989713, 43.645614 ], [ 3.98946, 43.6457 ], [ 3.988241, 43.645385 ], [ 3.987125, 43.644731 ], [ 3.986781, 43.643295 ], [ 3.986946257393432, 43.642463964257182 ], [ 3.978641, 43.641776 ], [ 3.975772, 43.641489 ] ] ], [ [ [ 3.946939, 43.651778 ], [ 3.948335165391507, 43.654104019452532 ], [ 3.950262, 43.653238 ], [ 3.947987868859246, 43.647708517226285 ], [ 3.946939, 43.651778 ] ] ], [ [ [ 3.935418035557486, 43.669539449724752 ], [ 3.936064, 43.668567 ], [ 3.935755316727343, 43.667875214805498 ], [ 3.935418035557486, 43.669539449724752 ] ] ], [ [ [ 3.933092, 43.67003 ], [ 3.931986, 43.670006 ], [ 3.929005398403558, 43.671187072601491 ], [ 3.929496, 43.672173 ], [ 3.925019, 43.677788 ], [ 3.924105671214227, 43.678317809771848 ], [ 3.923336, 43.68042 ], [ 3.921934, 43.681425 ], [ 3.921079622635008, 43.681974900460027 ], [ 3.920712, 43.682923 ], [ 3.921068, 43.683454 ], [ 3.9223, 43.683719 ], [ 3.925309, 43.683224 ], [ 3.930181, 43.683056 ], [ 3.935154, 43.683788 ], [ 3.942069, 43.68857 ], [ 3.942296, 43.68757 ], [ 3.936651, 43.680762 ], [ 3.930565, 43.681111 ], [ 3.930417, 43.681124 ], [ 3.929152, 43.681092 ], [ 3.927015, 43.680162 ], [ 3.926969, 43.680069 ], [ 3.927977, 43.677689 ], [ 3.928043, 43.677666 ], [ 3.933759, 43.672037 ], [ 3.935044067618937, 43.670102429658264 ], [ 3.933092, 43.67003 ] ] ], [ [ [ 3.94169, 43.690561 ], [ 3.941467, 43.69226 ], [ 3.94136, 43.693411 ], [ 3.941301, 43.694521 ], [ 3.941268, 43.696115 ], [ 3.940821, 43.700967 ], [ 3.944074, 43.702509 ], [ 3.944245, 43.702148 ], [ 3.944545, 43.701364 ], [ 3.944773, 43.700524 ], [ 3.944904, 43.699671 ], [ 3.944935, 43.699129 ], [ 3.944867, 43.696031 ], [ 3.9449, 43.694598 ], [ 3.944955, 43.693607 ], [ 3.948993, 43.686121 ], [ 3.9533, 43.68364 ], [ 3.954163, 43.682831 ], [ 3.961753, 43.678056 ], [ 3.962023, 43.678016 ], [ 3.964173, 43.677334 ], [ 3.966743, 43.675497 ], [ 3.975517, 43.675397 ], [ 3.980278, 43.678473 ], [ 3.982067, 43.679313 ], [ 3.985699, 43.680953 ], [ 3.985735, 43.680966 ], [ 3.986128, 43.680915 ], [ 3.987824, 43.680165 ], [ 3.987834, 43.680149 ], [ 3.991727, 43.675029 ], [ 3.996512, 43.676129 ], [ 3.997306, 43.676662 ], [ 3.998119, 43.677098 ], [ 4.002658, 43.682558 ], [ 4.006258, 43.68257 ], [ 4.006264, 43.680769 ], [ 4.006249, 43.680144 ], [ 4.006194, 43.679682 ], [ 4.006082, 43.679216 ], [ 4.005893, 43.678662 ], [ 4.005601, 43.678027 ], [ 4.005252, 43.677471 ], [ 4.004843, 43.676957 ], [ 4.00445, 43.676551 ], [ 4.004008, 43.676159 ], [ 4.003352, 43.675684 ], [ 4.002727, 43.675319 ], [ 4.00359, 43.666383 ], [ 4.003597545471965, 43.666105803187826 ], [ 4.003049, 43.665876 ], [ 3.997599121094906, 43.667230443120111 ], [ 3.997883, 43.667887 ], [ 3.998199, 43.672799 ], [ 3.99548, 43.675158 ], [ 3.994279, 43.673774 ], [ 3.993078, 43.67239 ], [ 3.985574, 43.676352 ], [ 3.985576, 43.676436 ], [ 3.983598, 43.67819 ], [ 3.983509, 43.678177 ], [ 3.981171, 43.676625 ], [ 3.974665, 43.673773 ], [ 3.969914, 43.673863 ], [ 3.964105, 43.675232 ], [ 3.960773, 43.676333 ], [ 3.960257, 43.676526 ], [ 3.956802, 43.678068 ], [ 3.949834, 43.680458 ], [ 3.946091, 43.68824 ], [ 3.945313, 43.69077 ], [ 3.941779197056436, 43.690092421268169 ], [ 3.94169, 43.690561 ] ] ] ] } },
{ "type": "Feature", "properties": { "codgeo": "34327", "value": 480, "isochrone_group": 8.0, "nb_agences": 1 }, "geometry": { "type": "MultiPolygon", "coordinates": [ [ [ [ 3.978429, 43.639403 ], [ 3.972231, 43.635295 ], [ 3.971836, 43.634281 ], [ 3.971394, 43.633308 ], [ 3.970797, 43.63219 ], [ 3.969863, 43.630753 ], [ 3.969272, 43.629964 ], [ 3.965162, 43.630573 ], [ 3.960744, 43.631691 ], [ 3.960352, 43.631815 ], [ 3.959873, 43.632729 ], [ 3.95945, 43.633968 ], [ 3.9574684361492, 43.636420226755405 ], [ 3.9604, 43.634903 ], [ 3.965529, 43.634122 ], [ 3.965725, 43.634175 ], [ 3.9672, 43.635193 ], [ 3.967231, 43.63637 ], [ 3.96987, 43.641139 ], [ 3.971034661177418, 43.641208066657406 ], [ 3.970687, 43.640658 ], [ 3.970135, 43.639649 ], [ 3.969852, 43.639067 ], [ 3.97309, 43.637493 ], [ 3.973373, 43.638075 ], [ 3.973842, 43.638923 ], [ 3.974308, 43.639649 ], [ 3.974663, 43.64014 ], [ 3.975783818418366, 43.641490182253769 ], [ 3.978641, 43.641776 ], [ 3.984537065661429, 43.6422643993645 ], [ 3.985327, 43.639258 ], [ 3.984859, 43.638401 ], [ 3.984642023574158, 43.637800766149084 ], [ 3.981819, 43.638191 ], [ 3.978429, 43.639403 ] ] ], [ [ [ 3.951118, 43.638486 ], [ 3.949086, 43.63827 ], [ 3.947874, 43.638146 ], [ 3.943355945159623, 43.638842071800447 ], [ 3.949523, 43.63965 ], [ 3.952992, 43.638737 ], [ 3.954477218423799, 43.637968327289848 ], [ 3.951118, 43.638486 ] ] ], [ [ [ 3.927274, 43.685206 ], [ 3.926606, 43.686538 ], [ 3.925517, 43.688348 ], [ 3.924703, 43.687893 ], [ 3.924374, 43.68768 ], [ 3.924009, 43.687377 ], [ 3.919527, 43.684303 ], [ 3.919026302014267, 43.684253903734216 ], [ 3.922515, 43.687206 ], [ 3.926418, 43.690079 ], [ 3.927544, 43.690181 ], [ 3.927953, 43.69018 ], [ 3.928012, 43.690127 ], [ 3.929594, 43.688384 ], [ 3.934047, 43.68581 ], [ 3.94169, 43.690561 ], [ 3.942069, 43.68857 ], [ 3.935154, 43.683788 ], [ 3.930181, 43.683056 ], [ 3.928053720642334, 43.683129354460625 ], [ 3.927274, 43.685206 ] ] ], [ [ [ 3.936996, 43.703124 ], [ 3.936353, 43.703562 ], [ 3.929912, 43.707155 ], [ 3.930216, 43.710742 ], [ 3.930876, 43.710686 ], [ 3.931744, 43.710566 ], [ 3.932546, 43.710417 ], [ 3.940539, 43.708921 ], [ 3.940634, 43.708882 ], [ 3.941755, 43.708401 ], [ 3.94201, 43.708246 ], [ 3.942422, 43.707955 ], [ 3.944245, 43.702148 ], [ 3.944074, 43.702509 ], [ 3.940821, 43.700967 ], [ 3.941268, 43.696115 ], [ 3.936996, 43.703124 ] ] ], [ [ [ 3.949344, 43.687026 ], [ 3.952991, 43.686818 ], [ 3.955604, 43.684341 ], [ 3.963006, 43.679565 ], [ 3.965747, 43.678 ], [ 3.966374, 43.677593 ], [ 3.96797, 43.676201 ], [ 3.972279896718655, 43.675433894270355 ], [ 3.966743, 43.675497 ], [ 3.964173, 43.677334 ], [ 3.962023, 43.678016 ], [ 3.961753, 43.678056 ], [ 3.954163, 43.682831 ], [ 3.9533, 43.68364 ], [ 3.948993, 43.686121 ], [ 3.946545756715689, 43.690657915113015 ], [ 3.949344, 43.687026 ] ] ], [ [ [ 3.977497, 43.678576 ], [ 3.97773, 43.678895 ], [ 3.979233, 43.680348 ], [ 3.983149, 43.684206 ], [ 3.983448, 43.68435 ], [ 3.984882, 43.684199 ], [ 3.989766, 43.682838 ], [ 3.990158, 43.682742 ], [ 3.990856, 43.681749 ], [ 3.991552, 43.679712 ], [ 3.998119, 43.677098 ], [ 3.997306, 43.676662 ], [ 3.996512, 43.676129 ], [ 3.991727, 43.675029 ], [ 3.987834, 43.680149 ], [ 3.987824, 43.680165 ], [ 3.986128, 43.680915 ], [ 3.985735, 43.680966 ], [ 3.985699, 43.680953 ], [ 3.982067, 43.679313 ], [ 3.980278, 43.678473 ], [ 3.975517, 43.675397 ], [ 3.974757100849942, 43.675405660806348 ], [ 3.977497, 43.678576 ] ] ], [ [ [ 3.999617, 43.685417 ], [ 3.999314, 43.685823 ], [ 3.999025, 43.686349 ], [ 3.99863, 43.688635 ], [ 3.998771, 43.689348 ], [ 3.998797, 43.68941 ], [ 3.999688, 43.689988 ], [ 4.000071, 43.690133 ], [ 4.000251, 43.690179 ], [ 4.001389, 43.690091 ], [ 4.00146, 43.690042 ], [ 4.005494, 43.685087 ], [ 4.005785, 43.684624 ], [ 4.006024, 43.684097 ], [ 4.00624, 43.682956 ], [ 4.006244236443111, 43.682569954121483 ], [ 4.002658, 43.682558 ], [ 3.998119, 43.677098 ], [ 3.999617, 43.685417 ] ] ], [ [ [ 4.006125100368443, 43.669445964441394 ], [ 4.00336073595698, 43.668756932199798 ], [ 4.002727, 43.675319 ], [ 4.003352, 43.675684 ], [ 4.004008, 43.676159 ], [ 4.00445, 43.676551 ], [ 4.004843, 43.676957 ], [ 4.006125100368443, 43.669445964441394 ] ] ], [ [ [ 3.998584, 43.651285 ], [ 4.000778066913004, 43.649169120249312 ], [ 3.994812, 43.647005 ], [ 3.994830804099889, 43.645967953891095 ], [ 3.992965741891779, 43.647410158423156 ], [ 3.994892, 43.651778 ], [ 3.998584, 43.651285 ] ] ], [ [ [ 3.938295179493386, 43.639100405850023 ], [ 3.938297766662015, 43.639099667792749 ], [ 3.935108, 43.637425 ], [ 3.934684, 43.637066 ], [ 3.934075176596654, 43.636896327903976 ], [ 3.938295179493386, 43.639100405850023 ] ] ] ] } },
{ "type": "Feature", "properties": { "codgeo": "34327", "value": 540, "isochrone_group": 9.0, "nb_agences": 1 }, "geometry": { "type": "MultiPolygon", "coordinates": [ [ [ [ 3.958047, 43.620682 ], [ 3.956004, 43.623646 ], [ 3.951942, 43.6293 ], [ 3.951564, 43.63288 ], [ 3.947394497809976, 43.638219874258823 ], [ 3.947874, 43.638146 ], [ 3.948323159194054, 43.6381919535809 ], [ 3.956465, 43.637662 ], [ 3.95945, 43.633968 ], [ 3.959873, 43.632729 ], [ 3.960352, 43.631815 ], [ 3.960744, 43.631691 ], [ 3.96500041206468, 43.63061389074506 ], [ 3.964648, 43.630262 ], [ 3.964006, 43.629639 ], [ 3.962735, 43.628452 ], [ 3.964539526887393, 43.626519679999696 ], [ 3.963340698204954, 43.624392409055737 ], [ 3.961066, 43.622763 ], [ 3.959557, 43.621722 ], [ 3.958047, 43.620682 ] ] ], [ [ [ 3.978153, 43.637594 ], [ 3.9763, 43.634508 ], [ 3.971438347433818, 43.633405624554541 ], [ 3.971836, 43.634281 ], [ 3.972231, 43.635295 ], [ 3.978429, 43.639403 ], [ 3.978922672321766, 43.639226501223014 ], [ 3.978153, 43.637594 ] ] ], [ [ [ 3.921992, 43.708831 ], [ 3.92113, 43.709248 ], [ 3.920422, 43.70964 ], [ 3.919693, 43.710096 ], [ 3.918002, 43.71131 ], [ 3.916604, 43.712348 ], [ 3.915795, 43.712902 ], [ 3.915342057101021, 43.713155102203025 ], [ 3.917098, 43.716298 ], [ 3.917095542141401, 43.716299507549749 ], [ 3.917551, 43.716045 ], [ 3.918618, 43.715332 ], [ 3.920146, 43.714202 ], [ 3.921792, 43.713021 ], [ 3.93073, 43.712285 ], [ 3.934216, 43.713185 ], [ 3.942461, 43.712733 ], [ 3.943695, 43.714739 ], [ 3.944589, 43.715474 ], [ 3.946875, 43.712693 ], [ 3.94563, 43.711025 ], [ 3.946354, 43.703201 ], [ 3.947024, 43.702247 ], [ 3.947926, 43.701068 ], [ 3.947985, 43.700943 ], [ 3.9449, 43.694598 ], [ 3.944867, 43.696031 ], [ 3.944935, 43.699129 ], [ 3.944904, 43.699671 ], [ 3.944773, 43.700524 ], [ 3.944545, 43.701364 ], [ 3.944245, 43.702148 ], [ 3.942422, 43.707955 ], [ 3.94201, 43.708246 ], [ 3.941755, 43.708401 ], [ 3.940634, 43.708882 ], [ 3.940539, 43.708921 ], [ 3.932546, 43.710417 ], [ 3.931744, 43.710566 ], [ 3.930876, 43.710686 ], [ 3.930216, 43.710742 ], [ 3.929912, 43.707155 ], [ 3.936353, 43.703562 ], [ 3.936996, 43.703124 ], [ 3.941268, 43.696115 ], [ 3.941301, 43.694521 ], [ 3.94136, 43.693411 ], [ 3.941467, 43.69226 ], [ 3.94169, 43.690561 ], [ 3.934047, 43.68581 ], [ 3.930851610632308, 43.687657054173016 ], [ 3.931913, 43.69175 ], [ 3.931989, 43.691926 ], [ 3.931319, 43.693913 ], [ 3.931173, 43.694019 ], [ 3.930718, 43.694224 ], [ 3.930422, 43.694251 ], [ 3.927636, 43.694283 ], [ 3.921836, 43.688455 ], [ 3.921571986771399, 43.688356685214693 ], [ 3.923208, 43.690286 ], [ 3.926991, 43.695784 ], [ 3.927501, 43.703476 ], [ 3.921992, 43.708831 ] ] ], [ [ [ 3.952104, 43.687399 ], [ 3.955557, 43.688416 ], [ 3.958259, 43.687648 ], [ 3.959304, 43.687454 ], [ 3.959652, 43.687224 ], [ 3.960924, 43.686223 ], [ 3.967017, 43.679779 ], [ 3.975486, 43.680878 ], [ 3.979641, 43.686057 ], [ 3.979808, 43.68623 ], [ 3.980641, 43.68651 ], [ 3.982834, 43.686599 ], [ 3.983847, 43.686657 ], [ 3.987657, 43.685091 ], [ 3.988165, 43.685014 ], [ 3.992102, 43.685492 ], [ 3.996305, 43.689916 ], [ 3.99904, 43.691504 ], [ 4.002088, 43.692835 ], [ 4.008919, 43.694908 ], [ 4.010092, 43.694398 ], [ 4.010738, 43.693777 ], [ 4.010801, 43.693677 ], [ 4.010822, 43.691852 ], [ 4.009025, 43.690437 ], [ 4.00624, 43.682956 ], [ 4.006024, 43.684097 ], [ 4.005785, 43.684624 ], [ 4.005494, 43.685087 ], [ 4.00146, 43.690042 ], [ 4.001389, 43.690091 ], [ 4.000251, 43.690179 ], [ 4.000071, 43.690133 ], [ 3.999688, 43.689988 ], [ 3.998797, 43.68941 ], [ 3.998771, 43.689348 ], [ 3.99863, 43.688635 ], [ 3.999025, 43.686349 ], [ 3.999314, 43.685823 ], [ 3.999617, 43.685417 ], [ 3.998119, 43.677098 ], [ 3.991552, 43.679712 ], [ 3.990856, 43.681749 ], [ 3.990158, 43.682742 ], [ 3.989766, 43.682838 ], [ 3.984882, 43.684199 ], [ 3.983448, 43.68435 ], [ 3.983149, 43.684206 ], [ 3.979233, 43.680348 ], [ 3.97773, 43.678895 ], [ 3.977497, 43.678576 ], [ 3.974448, 43.675048 ], [ 3.96797, 43.676201 ], [ 3.966374, 43.677593 ], [ 3.965747, 43.678 ], [ 3.963006, 43.679565 ], [ 3.955604, 43.684341 ], [ 3.952991, 43.686818 ], [ 3.949344, 43.687026 ], [ 3.945051, 43.692598 ], [ 3.952104, 43.687399 ] ] ], [ [ [ 4.017951192155203, 43.674989520544798 ], [ 4.016933, 43.674583 ], [ 4.017951, 43.67499 ], [ 4.017951192155203, 43.674989520544798 ] ] ], [ [ [ 4.008815, 43.671748 ], [ 4.005893, 43.678662 ], [ 4.010089190274094, 43.672137532650758 ], [ 4.008815, 43.671748 ] ] ] ] } },
{ "type": "Feature", "properties": { "codgeo": "34327", "value": 600, "isochrone_group": 10.0, "nb_agences": 1 }, "geometry": { "type": "MultiPolygon", "coordinates": [ [ [ [ 3.948752, 43.630847 ], [ 3.948411, 43.631266 ], [ 3.948216, 43.631605 ], [ 3.947816, 43.632494 ], [ 3.942727170845068, 43.633312421690619 ], [ 3.942892, 43.633446 ], [ 3.94184501365649, 43.63473833045137 ], [ 3.946523, 43.639336 ], [ 3.951564, 43.63288 ], [ 3.951942, 43.6293 ], [ 3.956004, 43.623646 ], [ 3.956004822583957, 43.623644806588928 ], [ 3.955843, 43.623533 ], [ 3.954371, 43.622617 ], [ 3.952093, 43.621391 ], [ 3.949815, 43.620164 ], [ 3.949878357869148, 43.620046340688226 ], [ 3.948634991669145, 43.61977898187363 ], [ 3.951361, 43.627557 ], [ 3.949899, 43.62989 ], [ 3.948752, 43.630847 ] ] ], [ [ [ 3.915487, 43.68329 ], [ 3.911123, 43.682394 ], [ 3.910234, 43.681765 ], [ 3.909732, 43.681494 ], [ 3.909026, 43.681191 ], [ 3.908753, 43.68105 ], [ 3.907533573391136, 43.680561557958455 ], [ 3.907584, 43.681283 ], [ 3.906319550062885, 43.681371671806204 ], [ 3.906013932313661, 43.68165335691117 ], [ 3.9121, 43.682951 ], [ 3.916847, 43.687428 ], [ 3.917148, 43.687765 ], [ 3.917952437138204, 43.688595856930966 ], [ 3.915487, 43.68329 ] ] ], [ [ [ 3.922125, 43.70293 ], [ 3.921558, 43.702942 ], [ 3.921022, 43.703015 ], [ 3.920338, 43.70324 ], [ 3.918832, 43.703951 ], [ 3.91785, 43.705056 ], [ 3.917799, 43.7054 ], [ 3.915797243210907, 43.712893602510867 ], [ 3.916406787169447, 43.712483050566277 ], [ 3.916565602291411, 43.712374294598959 ], [ 3.917832545451771, 43.711435818183887 ], [ 3.918002, 43.71131 ], [ 3.918014982725739, 43.711300679462425 ], [ 3.918024, 43.711294 ], [ 3.91809479049324, 43.711243383998337 ], [ 3.919693, 43.710096 ], [ 3.919744914238226, 43.710063526896256 ], [ 3.919796, 43.710027 ], [ 3.920180913385961, 43.709790803149531 ], [ 3.920422, 43.70964 ], [ 3.920469755888646, 43.709613558886495 ], [ 3.9205, 43.709595 ], [ 3.920781167883365, 43.709441138686039 ], [ 3.92113, 43.709248 ], [ 3.921165453437563, 43.709230849091107 ], [ 3.92122, 43.709201 ], [ 3.921643332233795, 43.708999671065556 ], [ 3.921992, 43.708831 ], [ 3.927501, 43.703476 ], [ 3.927060830512298, 43.69683720843252 ], [ 3.925739, 43.69408 ], [ 3.919759, 43.689696 ], [ 3.918096171788817, 43.688740838350682 ], [ 3.918813, 43.689443 ], [ 3.919453, 43.690142 ], [ 3.920425, 43.690539 ], [ 3.924042, 43.694229 ], [ 3.922125, 43.70293 ] ] ], [ [ [ 3.920123027422184, 43.71421898888282 ], [ 3.92012296426444, 43.714219035589778 ], [ 3.9182290659257, 43.716105207935833 ], [ 3.925716, 43.71677 ], [ 3.928588, 43.718941 ], [ 3.930398, 43.71746 ], [ 3.931393, 43.716706 ], [ 3.932827, 43.715586 ], [ 3.933389, 43.714944 ], [ 3.933928, 43.714037 ], [ 3.942461, 43.712733 ], [ 3.934216, 43.713185 ], [ 3.93073, 43.712285 ], [ 3.923405839938174, 43.712888108279863 ], [ 3.920123027422184, 43.71421898888282 ] ] ], [ [ [ 3.944603, 43.715471 ], [ 3.946154, 43.717066 ], [ 3.947701, 43.718654 ], [ 3.949709, 43.720737 ], [ 3.950775, 43.721836 ], [ 3.95336, 43.71933 ], [ 3.952656, 43.718559 ], [ 3.952294, 43.718231 ], [ 3.950292, 43.716155 ], [ 3.948734, 43.714555 ], [ 3.947182, 43.71296 ], [ 3.94563, 43.711025 ], [ 3.946875, 43.712693 ], [ 3.944596062996784, 43.71546540761414 ], [ 3.944603, 43.715471 ] ] ], [ [ [ 3.951344, 43.702306 ], [ 3.953409, 43.701612 ], [ 3.955229, 43.701094 ], [ 3.955634, 43.697517 ], [ 3.958146, 43.689775 ], [ 3.958199, 43.689583 ], [ 3.958276, 43.68892 ], [ 3.958319, 43.688166 ], [ 3.965564, 43.683588 ], [ 3.965856, 43.683497 ], [ 3.974064, 43.681802 ], [ 3.974942, 43.6855 ], [ 3.975553, 43.687393 ], [ 3.975694, 43.687754 ], [ 3.976948, 43.688489 ], [ 3.984558, 43.690559 ], [ 3.985705, 43.689166 ], [ 3.994158, 43.691343 ], [ 3.994265, 43.691483 ], [ 3.997171, 43.694358 ], [ 4.000443, 43.694926 ], [ 4.008116, 43.697565 ], [ 4.009632, 43.699702 ], [ 4.009666, 43.699706 ], [ 4.015203, 43.698399 ], [ 4.015411, 43.698277 ], [ 4.015691, 43.698085 ], [ 4.016422, 43.695769 ], [ 4.016262, 43.695431 ], [ 4.015786, 43.695241 ], [ 4.010787, 43.690612 ], [ 4.00624, 43.682956 ], [ 4.009025, 43.690437 ], [ 4.010822, 43.691852 ], [ 4.010801, 43.693677 ], [ 4.010738, 43.693777 ], [ 4.010092, 43.694398 ], [ 4.008919, 43.694908 ], [ 4.002088, 43.692835 ], [ 3.99904, 43.691504 ], [ 3.996305, 43.689916 ], [ 3.992102, 43.685492 ], [ 3.988165, 43.685014 ], [ 3.987657, 43.685091 ], [ 3.983847, 43.686657 ], [ 3.982834, 43.686599 ], [ 3.980641, 43.68651 ], [ 3.979808, 43.68623 ], [ 3.979641, 43.686057 ], [ 3.975486, 43.680878 ], [ 3.967017, 43.679779 ], [ 3.960924, 43.686223 ], [ 3.959652, 43.687224 ], [ 3.959304, 43.687454 ], [ 3.958259, 43.687648 ], [ 3.955557, 43.688416 ], [ 3.952104, 43.687399 ], [ 3.945051, 43.692598 ], [ 3.944955, 43.693607 ], [ 3.9449, 43.694598 ], [ 3.947985, 43.700943 ], [ 3.947926, 43.701068 ], [ 3.947024, 43.702247 ], [ 3.946354, 43.703201 ], [ 3.951344, 43.702306 ] ] ], [ [ [ 4.036536, 43.680885 ], [ 4.036536037000181, 43.68088488980662 ], [ 4.036528, 43.680882 ], [ 4.034726, 43.680278 ], [ 4.036536, 43.680885 ] ] ] ] } },
{ "type": "Feature", "properties": { "codgeo": "34327", "value": 660, "isochrone_group": 11.0, "nb_agences": 1 }, "geometry": { "type": "MultiPolygon", "coordinates": [ [ [ [ 3.947532794524353, 43.620825738887874 ], [ 3.948346, 43.627408 ], [ 3.948146, 43.631003 ], [ 3.947885827593048, 43.632338808174474 ], [ 3.948216, 43.631605 ], [ 3.948411, 43.631266 ], [ 3.948752, 43.630847 ], [ 3.949899, 43.62989 ], [ 3.951361, 43.627557 ], [ 3.949115059541911, 43.621148741670019 ], [ 3.947532794524353, 43.620825738887874 ] ] ], [ [ [ 3.919187, 43.693395 ], [ 3.919814, 43.693348 ], [ 3.922474861931723, 43.693306988550034 ], [ 3.921668, 43.692584 ], [ 3.921297, 43.69216 ], [ 3.916602800734278, 43.689923496684912 ], [ 3.919187, 43.693395 ] ] ], [ [ [ 3.909364, 43.705475 ], [ 3.90879, 43.706798 ], [ 3.907793893009766, 43.711497432913795 ], [ 3.913197, 43.713858 ], [ 3.915850085534135, 43.712695786588284 ], [ 3.917799, 43.7054 ], [ 3.91785, 43.705056 ], [ 3.918832, 43.703951 ], [ 3.920338, 43.70324 ], [ 3.921022, 43.703015 ], [ 3.921558, 43.702942 ], [ 3.922125, 43.70293 ], [ 3.922476614556122, 43.701334069769004 ], [ 3.921078, 43.702524 ], [ 3.917852, 43.703821 ], [ 3.917735, 43.703859 ], [ 3.913773, 43.704651 ], [ 3.910863, 43.703855 ], [ 3.909468, 43.705326 ], [ 3.909364, 43.705475 ] ] ], [ [ [ 3.901494288277517, 43.728297238249908 ], [ 3.900975443416626, 43.728357123844056 ], [ 3.901429, 43.728309 ], [ 3.901494288277517, 43.728297238249908 ] ] ], [ [ [ 3.902415188248221, 43.728126622985918 ], [ 3.901954066358359, 43.728214408757445 ], [ 3.902356, 43.728142 ], [ 3.902415188248221, 43.728126622985918 ] ] ], [ [ [ 3.904883127553743, 43.727933169112148 ], [ 3.904446, 43.727481 ], [ 3.903391, 43.727866 ], [ 3.902877331953271, 43.728006558775867 ], [ 3.903249, 43.72791 ], [ 3.904883127553743, 43.727933169112148 ] ] ], [ [ [ 3.924053, 43.72332 ], [ 3.925232, 43.722982 ], [ 3.928065, 43.721703 ], [ 3.928607, 43.721311 ], [ 3.932827, 43.715586 ], [ 3.931393, 43.716706 ], [ 3.930398, 43.71746 ], [ 3.928588, 43.718941 ], [ 3.925716, 43.71677 ], [ 3.921809919856544, 43.716423164959714 ], [ 3.920337, 43.720267 ], [ 3.920741, 43.723844 ], [ 3.920393117562643, 43.724371704296857 ], [ 3.921809, 43.723688 ], [ 3.924053, 43.72332 ] ] ], [ [ [ 3.953647, 43.727559 ], [ 3.956951, 43.727103 ], [ 3.958161, 43.725645 ], [ 3.959172, 43.72427 ], [ 3.957728, 43.723138 ], [ 3.955964, 43.721737 ], [ 3.956534, 43.713386 ], [ 3.954249, 43.710604 ], [ 3.951705629550502, 43.702184464451335 ], [ 3.951344, 43.702306 ], [ 3.946354, 43.703201 ], [ 3.94524, 43.710421 ], [ 3.94563, 43.711025 ], [ 3.947182, 43.71296 ], [ 3.948734, 43.714555 ], [ 3.950292, 43.716155 ], [ 3.952294, 43.718231 ], [ 3.952656, 43.718559 ], [ 3.95336, 43.71933 ], [ 3.950775, 43.721836 ], [ 3.949709, 43.720737 ], [ 3.953647, 43.727559 ] ] ], [ [ [ 3.955986, 43.70135 ], [ 3.956459, 43.701488 ], [ 3.95718, 43.7015 ], [ 3.957809, 43.701507 ], [ 3.958164, 43.701492 ], [ 3.960424, 43.699605 ], [ 3.96099, 43.699241 ], [ 3.961294, 43.698954 ], [ 3.962775, 43.696234 ], [ 3.962656, 43.696043 ], [ 3.962544, 43.695856 ], [ 3.958227, 43.690101 ], [ 3.958276, 43.68892 ], [ 3.958199, 43.689583 ], [ 3.958146, 43.689775 ], [ 3.955634, 43.697517 ], [ 3.955229, 43.701094 ], [ 3.953409, 43.701612 ], [ 3.952293803209583, 43.701986792529091 ], [ 3.955986, 43.70135 ] ] ], [ [ [ 3.969603, 43.688183 ], [ 3.970574, 43.691004 ], [ 3.971256, 43.691381 ], [ 3.977328, 43.690451 ], [ 3.981871, 43.690969 ], [ 3.982064, 43.690994 ], [ 3.987272, 43.692361 ], [ 3.988767, 43.692262 ], [ 3.995589, 43.69679 ], [ 3.996597, 43.700246 ], [ 3.997311, 43.70005 ], [ 4.004935, 43.703986 ], [ 4.005749, 43.705918 ], [ 4.005974, 43.706016 ], [ 4.008438, 43.704813 ], [ 4.008446, 43.70478 ], [ 4.010347, 43.70139 ], [ 4.018504, 43.701225 ], [ 4.019959, 43.702988 ], [ 4.02042, 43.703265 ], [ 4.021903, 43.702931 ], [ 4.022185, 43.702738 ], [ 4.022969, 43.700655 ], [ 4.022513, 43.697084 ], [ 4.020408, 43.694291 ], [ 4.019225, 43.692109 ], [ 4.018710220891782, 43.69005662004399 ], [ 4.018646, 43.69008 ], [ 4.017512, 43.690444 ], [ 4.013050642615941, 43.692708099553748 ], [ 4.015786, 43.695241 ], [ 4.016262, 43.695431 ], [ 4.016422, 43.695769 ], [ 4.015691, 43.698085 ], [ 4.015411, 43.698277 ], [ 4.015203, 43.698399 ], [ 4.009666, 43.699706 ], [ 4.009632, 43.699702 ], [ 4.008116, 43.697565 ], [ 4.000443, 43.694926 ], [ 3.997171, 43.694358 ], [ 3.994265, 43.691483 ], [ 3.994158, 43.691343 ], [ 3.985705, 43.689166 ], [ 3.984558, 43.690559 ], [ 3.976948, 43.688489 ], [ 3.975694, 43.687754 ], [ 3.975553, 43.687393 ], [ 3.974942, 43.6855 ], [ 3.974064, 43.681802 ], [ 3.966397026045168, 43.683385274957786 ], [ 3.969603, 43.688183 ] ] ], [ [ [ 4.0570531828553, 43.689775350826217 ], [ 4.056189, 43.689532 ], [ 4.057053, 43.689776 ], [ 4.0570531828553, 43.689775350826217 ] ] ] ] } },
{ "type": "Feature", "properties": { "codgeo": "34327", "value": 720, "isochrone_group": 12.0, "nb_agences": 1 }, "geometry": { "type": "MultiPolygon", "coordinates": [ [ [ [ 3.947712, 43.632671 ], [ 3.947897574698933, 43.63227849478362 ], [ 3.948146, 43.631003 ], [ 3.948346, 43.627408 ], [ 3.947719751123618, 43.622339006063108 ], [ 3.947062, 43.622075 ], [ 3.946976973554827, 43.622166345332985 ], [ 3.946514, 43.627521 ], [ 3.945792, 43.628077 ], [ 3.94398568014687, 43.627942393429123 ], [ 3.94767, 43.632714 ], [ 3.947796513655581, 43.632797374435029 ], [ 3.947811930837142, 43.632718217704301 ], [ 3.947712, 43.632671 ] ] ], [ [ [ 3.928508, 43.723218 ], [ 3.929409, 43.722484 ], [ 3.929644, 43.722218 ], [ 3.932827, 43.715586 ], [ 3.928607, 43.721311 ], [ 3.928065, 43.721703 ], [ 3.926349208919233, 43.722477619411322 ], [ 3.925133, 43.724029 ], [ 3.924603, 43.724455 ], [ 3.924144, 43.724672 ], [ 3.924133954998577, 43.724680902868329 ], [ 3.924318, 43.724597 ], [ 3.928052, 43.723352 ], [ 3.928508, 43.723218 ] ] ], [ [ [ 3.952968, 43.727362 ], [ 3.953927, 43.730413 ], [ 3.955307, 43.733974 ], [ 3.955893, 43.735351 ], [ 3.956777, 43.737307 ], [ 3.960111, 43.735948 ], [ 3.963337, 43.729603 ], [ 3.963937, 43.726053 ], [ 3.962123, 43.72194 ], [ 3.959594, 43.719378 ], [ 3.957933, 43.712111 ], [ 3.960627, 43.709139 ], [ 3.966439, 43.703415 ], [ 3.966974, 43.699368 ], [ 3.969537, 43.693591 ], [ 3.974965, 43.692276 ], [ 3.978317, 43.692911 ], [ 3.97919, 43.69298 ], [ 3.980043, 43.693095 ], [ 3.980455, 43.693014 ], [ 3.981067, 43.692932 ], [ 3.982783, 43.692948 ], [ 3.988551, 43.697706 ], [ 3.987555, 43.701166 ], [ 3.989457, 43.703551 ], [ 3.992868, 43.702457 ], [ 3.995659, 43.700571 ], [ 4.002968, 43.704437 ], [ 4.003221, 43.707763 ], [ 4.003267, 43.708217 ], [ 4.005823, 43.709188 ], [ 4.009519, 43.706541 ], [ 4.010772, 43.70379 ], [ 4.018733, 43.704035 ], [ 4.019896, 43.704488 ], [ 4.023064, 43.706376 ], [ 4.024224, 43.707099 ], [ 4.027424, 43.70545 ], [ 4.032285, 43.699497 ], [ 4.033323, 43.697479 ], [ 4.032609, 43.696251 ], [ 4.032567, 43.69622 ], [ 4.031826, 43.695926 ], [ 4.027024, 43.695146 ], [ 4.025584, 43.694647 ], [ 4.0232889485493, 43.69056887436755 ], [ 4.021298, 43.691121 ], [ 4.019805638338144, 43.693179966064086 ], [ 4.020408, 43.694291 ], [ 4.022513, 43.697084 ], [ 4.022969, 43.700655 ], [ 4.022185, 43.702738 ], [ 4.021903, 43.702931 ], [ 4.02042, 43.703265 ], [ 4.019959, 43.702988 ], [ 4.018504, 43.701225 ], [ 4.010347, 43.70139 ], [ 4.008446, 43.70478 ], [ 4.008438, 43.704813 ], [ 4.005974, 43.706016 ], [ 4.005749, 43.705918 ], [ 4.004935, 43.703986 ], [ 3.997311, 43.70005 ], [ 3.996597, 43.700246 ], [ 3.995589, 43.69679 ], [ 3.988767, 43.692262 ], [ 3.987272, 43.692361 ], [ 3.982064, 43.690994 ], [ 3.981871, 43.690969 ], [ 3.977328, 43.690451 ], [ 3.971256, 43.691381 ], [ 3.970574, 43.691004 ], [ 3.969603, 43.688183 ], [ 3.965323, 43.681778 ], [ 3.962415, 43.682223 ], [ 3.958319, 43.688166 ], [ 3.958276, 43.68892 ], [ 3.958227, 43.690101 ], [ 3.962544, 43.695856 ], [ 3.962656, 43.696043 ], [ 3.962775, 43.696234 ], [ 3.961294, 43.698954 ], [ 3.96099, 43.699241 ], [ 3.960424, 43.699605 ], [ 3.958164, 43.701492 ], [ 3.957809, 43.701507 ], [ 3.95718, 43.7015 ], [ 3.956459, 43.701488 ], [ 3.955986, 43.70135 ], [ 3.951678, 43.702093 ], [ 3.954249, 43.710604 ], [ 3.956534, 43.713386 ], [ 3.955964, 43.721737 ], [ 3.957728, 43.723138 ], [ 3.959172, 43.72427 ], [ 3.958161, 43.725645 ], [ 3.956951, 43.727103 ], [ 3.953647, 43.727559 ], [ 3.949709, 43.720737 ], [ 3.952968, 43.727362 ] ] ], [ [ [ 3.923373, 43.694175 ], [ 3.919179, 43.694267 ], [ 3.915791767408676, 43.698993104933159 ], [ 3.916675, 43.702515 ], [ 3.911178728403946, 43.703006834601126 ], [ 3.910751, 43.703776 ], [ 3.910637413078654, 43.704092876961511 ], [ 3.910863, 43.703855 ], [ 3.913773, 43.704651 ], [ 3.917735, 43.703859 ], [ 3.917852, 43.703821 ], [ 3.921078, 43.702524 ], [ 3.927067596745684, 43.697428098339365 ], [ 3.923373, 43.694175 ] ] ], [ [ [ 4.076480255537883, 43.694185503139316 ], [ 4.076480317455811, 43.694185397656888 ], [ 4.074282, 43.693511 ], [ 4.076480255537883, 43.694185503139316 ] ] ] ] } },
{ "type": "Feature", "properties": { "codgeo": "34327", "value": 780, "isochrone_group": 13.0, "nb_agences": 1 }, "geometry": { "type": "MultiPolygon", "coordinates": [ [ [ [ 3.920239, 43.729692 ], [ 3.919885, 43.729884 ], [ 3.914358232917095, 43.734912159557631 ], [ 3.913549, 43.736661 ], [ 3.91321, 43.738058 ], [ 3.918075, 43.731908 ], [ 3.920546, 43.729465 ], [ 3.920239, 43.729692 ] ] ], [ [ [ 3.92844, 43.726043 ], [ 3.92897, 43.724884 ], [ 3.929057, 43.724639 ], [ 3.92929, 43.72305 ], [ 3.932827, 43.715586 ], [ 3.929644, 43.722218 ], [ 3.929409, 43.722484 ], [ 3.928508, 43.723218 ], [ 3.928183695363874, 43.723313300046584 ], [ 3.928178, 43.723324 ], [ 3.927488, 43.724042 ], [ 3.924593, 43.726026 ], [ 3.920546, 43.729465 ], [ 3.926194, 43.727176 ], [ 3.927209, 43.72663 ], [ 3.92844, 43.726043 ] ] ], [ [ [ 3.939607541513315, 43.713169061158638 ], [ 3.939607541513307, 43.713169061158638 ], [ 3.933928, 43.714037 ], [ 3.939607541513315, 43.713169061158638 ] ] ], [ [ [ 3.957265, 43.743832 ], [ 3.957336, 43.744311 ], [ 3.957583, 43.74508 ], [ 3.957941, 43.74575 ], [ 3.959812, 43.745296 ], [ 3.960742, 43.744925 ], [ 3.961118, 43.744057 ], [ 3.961283, 43.740977 ], [ 3.960397, 43.738212 ], [ 3.960283, 43.736605 ], [ 3.966258, 43.730683 ], [ 3.967748, 43.730744 ], [ 3.969301, 43.730499 ], [ 3.969414, 43.730406 ], [ 3.969817, 43.730005 ], [ 3.969871, 43.729921 ], [ 3.969095, 43.727406 ], [ 3.966818, 43.725674 ], [ 3.966427, 43.725681 ], [ 3.964594, 43.725879 ], [ 3.963846454206138, 43.725847699641591 ], [ 3.963937, 43.726053 ], [ 3.963337, 43.729603 ], [ 3.960111, 43.735948 ], [ 3.956777, 43.737307 ], [ 3.955893, 43.735351 ], [ 3.955307, 43.733974 ], [ 3.953927, 43.730413 ], [ 3.952968, 43.727362 ], [ 3.952857525497251, 43.727137423878276 ], [ 3.952834, 43.732513 ], [ 3.954248, 43.735824 ], [ 3.957265, 43.743832 ] ] ], [ [ [ 3.963927, 43.709892 ], [ 3.970204, 43.710022 ], [ 3.970509, 43.710146 ], [ 3.971728, 43.710521 ], [ 3.972788, 43.707081 ], [ 3.971255, 43.705233 ], [ 3.970126, 43.703979 ], [ 3.970325, 43.697626 ], [ 3.97646, 43.696284 ], [ 3.980856, 43.699816 ], [ 3.981533, 43.700696 ], [ 3.982472, 43.701064 ], [ 3.98958, 43.704283 ], [ 3.992405, 43.706397 ], [ 3.995079, 43.708251 ], [ 3.995579, 43.708664 ], [ 3.996982, 43.709604 ], [ 4.002283, 43.710303 ], [ 4.006179, 43.713429 ], [ 4.006237, 43.713427 ], [ 4.007568, 43.712695 ], [ 4.007596, 43.712656 ], [ 4.008927, 43.710289 ], [ 4.011638, 43.706712 ], [ 4.017784, 43.705996 ], [ 4.020831, 43.71079 ], [ 4.023386, 43.712148 ], [ 4.026525, 43.713911 ], [ 4.029247, 43.715983 ], [ 4.03211, 43.715074 ], [ 4.032119, 43.71503 ], [ 4.032136, 43.714887 ], [ 4.032012, 43.713678 ], [ 4.032556, 43.705082 ], [ 4.038495, 43.700559 ], [ 4.038642, 43.700414 ], [ 4.038662, 43.697773 ], [ 4.038689795509113, 43.697464623765363 ], [ 4.038505, 43.697415 ], [ 4.03759, 43.697125 ], [ 4.036898, 43.696685 ], [ 4.036846427122915, 43.693854442476884 ], [ 4.036252, 43.693846 ], [ 4.035759, 43.694027 ], [ 4.032482, 43.694577 ], [ 4.027767420006994, 43.692975257850613 ], [ 4.027425, 43.693275 ], [ 4.02677608335595, 43.695060089996261 ], [ 4.027024, 43.695146 ], [ 4.031826, 43.695926 ], [ 4.032567, 43.69622 ], [ 4.032609, 43.696251 ], [ 4.033323, 43.697479 ], [ 4.032285, 43.699497 ], [ 4.027424, 43.70545 ], [ 4.024224, 43.707099 ], [ 4.023064, 43.706376 ], [ 4.019896, 43.704488 ], [ 4.018733, 43.704035 ], [ 4.010772, 43.70379 ], [ 4.009519, 43.706541 ], [ 4.005823, 43.709188 ], [ 4.003267, 43.708217 ], [ 4.003221, 43.707763 ], [ 4.002968, 43.704437 ], [ 3.995659, 43.700571 ], [ 3.992868, 43.702457 ], [ 3.989457, 43.703551 ], [ 3.987555, 43.701166 ], [ 3.988551, 43.697706 ], [ 3.982783, 43.692948 ], [ 3.981067, 43.692932 ], [ 3.980455, 43.693014 ], [ 3.980043, 43.693095 ], [ 3.97919, 43.69298 ], [ 3.978317, 43.692911 ], [ 3.974965, 43.692276 ], [ 3.969537, 43.693591 ], [ 3.966974, 43.699368 ], [ 3.966439, 43.703415 ], [ 3.960627, 43.709139 ], [ 3.957933, 43.712111 ], [ 3.963927, 43.709892 ] ] ], [ [ [ 3.943224146153325, 43.713973576323809 ], [ 3.943224146153325, 43.713973576323809 ], [ 3.943695, 43.714739 ], [ 3.943224146153325, 43.713973576323809 ] ] ] ] } },
{ "type": "Feature", "properties": { "codgeo": "34327", "value": 840, "isochrone_group": 14.0, "nb_agences": 1 }, "geometry": { "type": "MultiPolygon", "coordinates": [ [ [ [ 3.929617618369425, 43.724124251954713 ], [ 3.928888, 43.726268 ], [ 3.927414, 43.7283 ], [ 3.926949, 43.728391 ], [ 3.923028, 43.729033 ], [ 3.92021165727479, 43.729795554139081 ], [ 3.920002430533212, 43.730002410039397 ], [ 3.923324, 43.730113 ], [ 3.927528, 43.729045 ], [ 3.930498, 43.727011 ], [ 3.929617618369425, 43.724124251954713 ] ] ], [ [ [ 3.95423, 43.748691 ], [ 3.960456, 43.749482 ], [ 3.964349, 43.748733 ], [ 3.965796, 43.747043 ], [ 3.965636, 43.745371 ], [ 3.965156, 43.741439 ], [ 3.965376, 43.739915 ], [ 3.96557, 43.737862 ], [ 3.972498, 43.732558 ], [ 3.973359, 43.73157 ], [ 3.973523, 43.731055 ], [ 3.97343, 43.729081 ], [ 3.972531, 43.727873 ], [ 3.972509, 43.727842 ], [ 3.969884, 43.725436 ], [ 3.969251, 43.725459 ], [ 3.968387, 43.725588 ], [ 3.96805, 43.725627 ], [ 3.967484, 43.72566 ], [ 3.966834, 43.725673 ], [ 3.966427, 43.725681 ], [ 3.966818, 43.725674 ], [ 3.969095, 43.727406 ], [ 3.969871, 43.729921 ], [ 3.969817, 43.730005 ], [ 3.969414, 43.730406 ], [ 3.969301, 43.730499 ], [ 3.967748, 43.730744 ], [ 3.966258, 43.730683 ], [ 3.960283, 43.736605 ], [ 3.960397, 43.738212 ], [ 3.961283, 43.740977 ], [ 3.961118, 43.744057 ], [ 3.960742, 43.744925 ], [ 3.959812, 43.745296 ], [ 3.957941, 43.74575 ], [ 3.957583, 43.74508 ], [ 3.957336, 43.744311 ], [ 3.957265, 43.743832 ], [ 3.954248, 43.735824 ], [ 3.952834, 43.732513 ], [ 3.952868, 43.724744 ], [ 3.951528, 43.733162 ], [ 3.950494, 43.733994 ], [ 3.950113, 43.73588 ], [ 3.950296, 43.736087 ], [ 3.951118, 43.736662 ], [ 3.953989, 43.745099 ], [ 3.954016, 43.747837 ], [ 3.95423, 43.748691 ] ] ], [ [ [ 3.966917, 43.713296 ], [ 3.967439, 43.713182 ], [ 3.967689, 43.713113 ], [ 3.973585, 43.714004 ], [ 3.974035, 43.713901 ], [ 3.974733, 43.713651 ], [ 3.980734, 43.71196 ], [ 3.982027, 43.709779 ], [ 3.990734, 43.708366 ], [ 3.995997009637103, 43.708944063477468 ], [ 3.995579, 43.708664 ], [ 3.995079, 43.708251 ], [ 3.992405, 43.706397 ], [ 3.98958, 43.704283 ], [ 3.982472, 43.701064 ], [ 3.981533, 43.700696 ], [ 3.980856, 43.699816 ], [ 3.97646, 43.696284 ], [ 3.970325, 43.697626 ], [ 3.970126, 43.703979 ], [ 3.971255, 43.705233 ], [ 3.972788, 43.707081 ], [ 3.971728, 43.710521 ], [ 3.970509, 43.710146 ], [ 3.970204, 43.710022 ], [ 3.963927, 43.709892 ], [ 3.957933, 43.712111 ], [ 3.957322, 43.717876 ], [ 3.960248, 43.725114 ], [ 3.961527207340413, 43.725522542658453 ], [ 3.959654, 43.716932 ], [ 3.966917, 43.713296 ] ] ], [ [ [ 4.002299, 43.714147 ], [ 4.004245, 43.714966 ], [ 4.00635, 43.715327 ], [ 4.008693, 43.713999 ], [ 4.009882, 43.712971 ], [ 4.018863, 43.712413 ], [ 4.018917, 43.712486 ], [ 4.019015, 43.7126 ], [ 4.020632, 43.71908 ], [ 4.020629, 43.719666 ], [ 4.021221, 43.720439 ], [ 4.021297, 43.720487 ], [ 4.024229, 43.719687 ], [ 4.03073, 43.719007 ], [ 4.034118, 43.720231 ], [ 4.034248, 43.720239 ], [ 4.03447, 43.716646 ], [ 4.03433, 43.715668 ], [ 4.037067, 43.707275 ], [ 4.039159, 43.705896 ], [ 4.04398, 43.704685 ], [ 4.04507, 43.704403 ], [ 4.045848, 43.702687 ], [ 4.046156, 43.700971 ], [ 4.046402333823844, 43.699973793195056 ], [ 4.041601, 43.700032 ], [ 4.038646217801134, 43.699857039360353 ], [ 4.038642, 43.700414 ], [ 4.038495, 43.700559 ], [ 4.032556, 43.705082 ], [ 4.032012, 43.713678 ], [ 4.032136, 43.714887 ], [ 4.032119, 43.71503 ], [ 4.03211, 43.715074 ], [ 4.029247, 43.715983 ], [ 4.026525, 43.713911 ], [ 4.023386, 43.712148 ], [ 4.020831, 43.71079 ], [ 4.017784, 43.705996 ], [ 4.011638, 43.706712 ], [ 4.008927, 43.710289 ], [ 4.007596, 43.712656 ], [ 4.007568, 43.712695 ], [ 4.006237, 43.713427 ], [ 4.006179, 43.713429 ], [ 4.002283, 43.710303 ], [ 3.996982, 43.709604 ], [ 3.996335078278005, 43.709170567057257 ], [ 3.999221, 43.712192 ], [ 4.002299, 43.714147 ] ] ] ] } },
{ "type": "Feature", "properties": { "codgeo": "34327", "value": 900, "isochrone_group": 15.0, "nb_agences": 1 }, "geometry": { "type": "MultiPolygon", "coordinates": [ [ [ [ 3.925567, 43.734276 ], [ 3.92693, 43.733819 ], [ 3.929378, 43.731657 ], [ 3.932314, 43.729574 ], [ 3.930559, 43.7271 ], [ 3.92929, 43.72305 ], [ 3.930538, 43.727069 ], [ 3.929638, 43.729286 ], [ 3.927119, 43.732092 ], [ 3.92352, 43.732022 ], [ 3.914643, 43.733414 ], [ 3.923345, 43.733486 ], [ 3.925009, 43.734453 ], [ 3.925195, 43.734407 ], [ 3.925567, 43.734276 ] ] ], [ [ [ 3.950801, 43.748751 ], [ 3.950972, 43.749178 ], [ 3.951211, 43.749591 ], [ 3.954048, 43.755661 ], [ 3.954549, 43.757021 ], [ 3.954609, 43.757081 ], [ 3.957557, 43.756467 ], [ 3.964692, 43.752222 ], [ 3.965703, 43.752152 ], [ 3.971669, 43.747531 ], [ 3.973652, 43.743982 ], [ 3.973586, 43.742363 ], [ 3.975955, 43.733828 ], [ 3.978349, 43.731132 ], [ 3.978254, 43.731047 ], [ 3.975762, 43.728543 ], [ 3.974375, 43.726588 ], [ 3.97279, 43.72511 ], [ 3.972444, 43.725171 ], [ 3.969251, 43.725459 ], [ 3.969884, 43.725436 ], [ 3.972509, 43.727842 ], [ 3.972531, 43.727873 ], [ 3.97343, 43.729081 ], [ 3.973523, 43.731055 ], [ 3.973359, 43.73157 ], [ 3.972498, 43.732558 ], [ 3.96557, 43.737862 ], [ 3.965376, 43.739915 ], [ 3.965156, 43.741439 ], [ 3.965636, 43.745371 ], [ 3.965796, 43.747043 ], [ 3.964349, 43.748733 ], [ 3.960456, 43.749482 ], [ 3.95423, 43.748691 ], [ 3.954016, 43.747837 ], [ 3.953989, 43.745099 ], [ 3.951931002526098, 43.739051168342982 ], [ 3.95034, 43.746136 ], [ 3.950155, 43.746387 ], [ 3.950801, 43.748751 ] ] ], [ [ [ 3.968692, 43.714534 ], [ 3.970757, 43.713961 ], [ 3.973025671383153, 43.713919474593361 ], [ 3.967689, 43.713113 ], [ 3.967439, 43.713182 ], [ 3.966917, 43.713296 ], [ 3.959654, 43.716932 ], [ 3.961555, 43.72565 ], [ 3.962349, 43.725785 ], [ 3.964594, 43.725879 ], [ 3.961209, 43.718061 ], [ 3.968692, 43.714534 ] ] ], [ [ [ 3.981857, 43.712238 ], [ 3.983821, 43.712671 ], [ 3.985148, 43.712768 ], [ 3.988052, 43.713501 ], [ 3.988748, 43.713676 ], [ 3.990036, 43.714089 ], [ 3.990236, 43.714137 ], [ 3.998519, 43.716658 ], [ 3.998934, 43.716773 ], [ 4.002819, 43.717266 ], [ 4.00628, 43.717878 ], [ 4.006583, 43.71789 ], [ 4.008146, 43.716197 ], [ 4.010838, 43.714536 ], [ 4.012341, 43.713463 ], [ 4.019150814793663, 43.713144267076643 ], [ 4.019015, 43.7126 ], [ 4.018917, 43.712486 ], [ 4.018863, 43.712413 ], [ 4.009882, 43.712971 ], [ 4.008693, 43.713999 ], [ 4.00635, 43.715327 ], [ 4.004245, 43.714966 ], [ 4.002299, 43.714147 ], [ 3.999221, 43.712192 ], [ 3.996571670800733, 43.709418269008665 ], [ 3.995746415877574, 43.708916539473122 ], [ 3.990734, 43.708366 ], [ 3.982027, 43.709779 ], [ 3.980734, 43.71196 ], [ 3.980233854800694, 43.712100934099652 ], [ 3.98154, 43.712192 ], [ 3.981857, 43.712238 ] ] ], [ [ [ 4.020611, 43.723043 ], [ 4.020611, 43.724049 ], [ 4.022704, 43.724686 ], [ 4.024211, 43.72405 ], [ 4.025579, 43.723061 ], [ 4.034563, 43.723123 ], [ 4.034848859563703, 43.72323046950951 ], [ 4.035728, 43.72256 ], [ 4.037444, 43.721224 ], [ 4.038164879922357, 43.720927563396422 ], [ 4.038948, 43.718184 ], [ 4.038932, 43.718055 ], [ 4.040051, 43.712057 ], [ 4.047851, 43.708633 ], [ 4.050698876848733, 43.708831550360799 ], [ 4.050832, 43.708423 ], [ 4.052637, 43.705308 ], [ 4.053102301461361, 43.70523321319645 ], [ 4.051534259785355, 43.702081561863118 ], [ 4.050384, 43.702043 ], [ 4.04563243388277, 43.703162464597888 ], [ 4.04507, 43.704403 ], [ 4.04398, 43.704685 ], [ 4.039159, 43.705896 ], [ 4.037067, 43.707275 ], [ 4.03433, 43.715668 ], [ 4.03447, 43.716646 ], [ 4.034248, 43.720239 ], [ 4.034118, 43.720231 ], [ 4.03073, 43.719007 ], [ 4.024229, 43.719687 ], [ 4.021297, 43.720487 ], [ 4.021221, 43.720439 ], [ 4.020629, 43.719666 ], [ 4.020632, 43.71908 ], [ 4.020602, 43.721763 ], [ 4.020611, 43.723043 ] ] ], [ [ [ 3.95259345427175, 43.725348761308197 ], [ 3.949692, 43.73174 ], [ 3.94815, 43.732815 ], [ 3.947625, 43.733191 ], [ 3.947612, 43.733296 ], [ 3.948647, 43.735185 ], [ 3.949595, 43.736113 ], [ 3.951118, 43.736662 ], [ 3.950296, 43.736087 ], [ 3.950113, 43.73588 ], [ 3.950494, 43.733994 ], [ 3.951528, 43.733162 ], [ 3.952727654716339, 43.725625661640194 ], [ 3.952623, 43.725396 ], [ 3.95259345427175, 43.725348761308197 ] ] ] ] } },
{ "type": "Feature", "properties": { "codgeo": "34327", "value": 960, "isochrone_group": 16.0, "nb_agences": 1 }, "geometry": { "type": "MultiPolygon", "coordinates": [ [ [ [ 4.044336916754699, 43.71198356274116 ], [ 4.044675135154604, 43.710027123234674 ], [ 4.040051, 43.712057 ], [ 4.039172847443178, 43.716764023267061 ], [ 4.042065235110375, 43.715606077525962 ], [ 4.042423, 43.711967 ], [ 4.044336916754699, 43.71198356274116 ] ] ], [ [ [ 4.051349, 43.714418 ], [ 4.057761482913766, 43.712982029300107 ], [ 4.051966, 43.713726 ], [ 4.051346160146348, 43.71441546570022 ], [ 4.051349, 43.714418 ] ] ], [ [ [ 3.995756, 43.717349 ], [ 3.997676, 43.718636 ], [ 3.998159, 43.718804 ], [ 4.004739, 43.720372 ], [ 4.006879, 43.721435 ], [ 4.00692, 43.721425 ], [ 4.008322, 43.720026 ], [ 4.008272, 43.719507 ], [ 4.0100660279695, 43.71501231706636 ], [ 4.008146, 43.716197 ], [ 4.006583, 43.71789 ], [ 4.00628, 43.717878 ], [ 4.002819, 43.717266 ], [ 3.998934, 43.716773 ], [ 3.998519, 43.716658 ], [ 3.990236, 43.714137 ], [ 3.990036, 43.714089 ], [ 3.988748, 43.713676 ], [ 3.994354, 43.716127 ], [ 3.995756, 43.717349 ] ] ], [ [ [ 4.024211, 43.72405 ], [ 4.022704, 43.724686 ], [ 4.020611, 43.724049 ], [ 4.020611, 43.723043 ], [ 4.020602, 43.721763 ], [ 4.020632, 43.71908 ], [ 4.020189, 43.725788 ], [ 4.020095, 43.726475 ], [ 4.020480103172878, 43.727526189031131 ], [ 4.024063, 43.725622 ], [ 4.024731, 43.72541 ], [ 4.025892981402861, 43.72547595553872 ], [ 4.025922, 43.725438 ], [ 4.030745992906799, 43.723758934960408 ], [ 4.031165334143815, 43.7230995521724 ], [ 4.025579, 43.723061 ], [ 4.024211, 43.72405 ] ] ], [ [ [ 3.947625, 43.733191 ], [ 3.94815, 43.732815 ], [ 3.949692, 43.73174 ], [ 3.952214317602415, 43.726183912485361 ], [ 3.952089738722803, 43.725913060496744 ], [ 3.948437, 43.7314 ], [ 3.946061, 43.733681 ], [ 3.94623, 43.734265 ], [ 3.946736, 43.735275 ], [ 3.949500222804974, 43.736020222323873 ], [ 3.948647, 43.735185 ], [ 3.947612, 43.733296 ], [ 3.947625, 43.733191 ] ] ], [ [ [ 3.928004, 43.738442 ], [ 3.930127, 43.732711 ], [ 3.933063, 43.730628 ], [ 3.931811, 43.728864 ], [ 3.930559, 43.7271 ], [ 3.932444, 43.729757 ], [ 3.927269, 43.7358 ], [ 3.923921, 43.737123 ], [ 3.917953, 43.741848 ], [ 3.917947906188855, 43.741868709172181 ], [ 3.924404, 43.738506 ], [ 3.928004, 43.738442 ] ] ], [ [ [ 3.978557, 43.740912 ], [ 3.978884, 43.740615 ], [ 3.979721, 43.739657 ], [ 3.979992, 43.739075 ], [ 3.980245, 43.738229 ], [ 3.980262, 43.738175 ], [ 3.980853, 43.735431 ], [ 3.98108, 43.73309 ], [ 3.98062, 43.731597 ], [ 3.980441, 43.731235 ], [ 3.977276, 43.725909 ], [ 3.977194, 43.725682 ], [ 3.97545, 43.724449 ], [ 3.973828, 43.724069 ], [ 3.970064, 43.716266 ], [ 3.974035, 43.713901 ], [ 3.970757, 43.713961 ], [ 3.968692, 43.714534 ], [ 3.961209, 43.718061 ], [ 3.964594, 43.725879 ], [ 3.966427, 43.725681 ], [ 3.966834, 43.725673 ], [ 3.967484, 43.72566 ], [ 3.96805, 43.725627 ], [ 3.968387, 43.725588 ], [ 3.969251, 43.725459 ], [ 3.972444, 43.725171 ], [ 3.97279, 43.72511 ], [ 3.974375, 43.726588 ], [ 3.975762, 43.728543 ], [ 3.978254, 43.731047 ], [ 3.978349, 43.731132 ], [ 3.975955, 43.733828 ], [ 3.973586, 43.742363 ], [ 3.973652, 43.743982 ], [ 3.971669, 43.747531 ], [ 3.965703, 43.752152 ], [ 3.964692, 43.752222 ], [ 3.957557, 43.756467 ], [ 3.954609, 43.757081 ], [ 3.954549, 43.757021 ], [ 3.954048, 43.755661 ], [ 3.951211, 43.749591 ], [ 3.950972, 43.749178 ], [ 3.950801, 43.748751 ], [ 3.950155, 43.746387 ], [ 3.95034, 43.746136 ], [ 3.9523, 43.737408 ], [ 3.951118, 43.736662 ], [ 3.949614, 43.744999 ], [ 3.947799, 43.745204 ], [ 3.946882, 43.745287 ], [ 3.946387, 43.747761 ], [ 3.947253, 43.749928 ], [ 3.948933, 43.7516 ], [ 3.954173, 43.758689 ], [ 3.954008, 43.761322 ], [ 3.953927, 43.763641 ], [ 3.9547, 43.765824 ], [ 3.958094, 43.764624 ], [ 3.957805, 43.760784 ], [ 3.96181, 43.755238 ], [ 3.966988, 43.75368 ], [ 3.973189, 43.753903 ], [ 3.973709, 43.752156 ], [ 3.974295, 43.750477 ], [ 3.974244, 43.745085 ], [ 3.977533, 43.741583 ], [ 3.978165, 43.741208 ], [ 3.978557, 43.740912 ] ] ] ] } },
{ "type": "Feature", "properties": { "codgeo": "34327", "value": 1020, "isochrone_group": 17.0, "nb_agences": 1 }, "geometry": { "type": "MultiPolygon", "coordinates": [ [ [ [ 3.914105, 43.763088 ], [ 3.914204767696993, 43.763359972519211 ], [ 3.914291450203647, 43.762603532207244 ], [ 3.914105, 43.763088 ] ] ], [ [ [ 3.932773, 43.734189 ], [ 3.934536, 43.733565 ], [ 3.935009, 43.73342 ], [ 3.933954, 43.729978 ], [ 3.93000868736287, 43.724117552755146 ], [ 3.92989, 43.724753 ], [ 3.929836795380483, 43.724795091639841 ], [ 3.930559, 43.7271 ], [ 3.931876, 43.728955 ], [ 3.933193, 43.730811 ], [ 3.928570505789255, 43.73691272789533 ], [ 3.928004, 43.738442 ], [ 3.927799218227907, 43.738445640564834 ], [ 3.927447, 43.739861 ], [ 3.925285, 43.741841 ], [ 3.924214818279729, 43.742675397398827 ], [ 3.925525, 43.741996 ], [ 3.926213, 43.742337 ], [ 3.926995, 43.742645 ], [ 3.928527, 43.739387 ], [ 3.932773, 43.734189 ] ] ], [ [ [ 3.930805362577331, 43.719852186520441 ], [ 3.930805362577329, 43.719852186520448 ], [ 3.932827, 43.715586 ], [ 3.930805362577331, 43.719852186520441 ] ] ], [ [ [ 3.958279, 43.765159 ], [ 3.957805, 43.760784 ], [ 3.958094, 43.764624 ], [ 3.9547, 43.765824 ], [ 3.953927, 43.763641 ], [ 3.953779, 43.768408 ], [ 3.954401, 43.770387 ], [ 3.954615, 43.770587 ], [ 3.955479, 43.770931 ], [ 3.957105, 43.771091 ], [ 3.958319, 43.770576 ], [ 3.959213, 43.769464 ], [ 3.959217, 43.769371 ], [ 3.958444, 43.76626 ], [ 3.958279, 43.765159 ] ] ], [ [ [ 3.967427, 43.755767 ], [ 3.970505, 43.755087 ], [ 3.9748, 43.754699 ], [ 3.977112, 43.754951 ], [ 3.979644, 43.755216 ], [ 3.982266, 43.755418 ], [ 3.983219584218617, 43.753744143975403 ], [ 3.983742, 43.752156 ], [ 3.983784279073802, 43.752139733385306 ], [ 3.983611, 43.752041 ], [ 3.98262, 43.751628 ], [ 3.980599, 43.749742 ], [ 3.982157, 43.742332 ], [ 3.982799, 43.741901 ], [ 3.982857, 43.741593 ], [ 3.982929, 43.740541 ], [ 3.984133, 43.733681 ], [ 3.984133, 43.73357 ], [ 3.983418, 43.731029 ], [ 3.983285, 43.730715 ], [ 3.982651, 43.729932 ], [ 3.979778, 43.724953 ], [ 3.986965, 43.721839 ], [ 3.987196, 43.721999 ], [ 3.987284, 43.722057 ], [ 3.988395, 43.722734 ], [ 3.988887, 43.722302 ], [ 3.989363, 43.721911 ], [ 3.991957, 43.720334 ], [ 3.998422, 43.720771 ], [ 4.005397, 43.723404 ], [ 4.006369, 43.725341 ], [ 4.005328, 43.723247 ], [ 4.005106, 43.722643 ], [ 4.004956, 43.722071 ], [ 4.008439, 43.721159 ], [ 4.013997, 43.725262 ], [ 4.020225471353212, 43.725235743030829 ], [ 4.020369553818303, 43.723054015771602 ], [ 4.020191, 43.722004 ], [ 4.020632, 43.71908 ], [ 4.019109780327989, 43.713146187692054 ], [ 4.012341, 43.713463 ], [ 4.010838, 43.714536 ], [ 4.010025423245614, 43.715114046449948 ], [ 4.008272, 43.719507 ], [ 4.008322, 43.720026 ], [ 4.00692, 43.721425 ], [ 4.006879, 43.721435 ], [ 4.004739, 43.720372 ], [ 3.998159, 43.718804 ], [ 3.997676, 43.718636 ], [ 3.995756, 43.717349 ], [ 3.994354, 43.716127 ], [ 3.988748, 43.713676 ], [ 3.988052, 43.713501 ], [ 3.987151, 43.713162 ], [ 3.985148, 43.712768 ], [ 3.983821, 43.712671 ], [ 3.981857, 43.712238 ], [ 3.98154, 43.712192 ], [ 3.97903, 43.712017 ], [ 3.974733, 43.713651 ], [ 3.974035, 43.713901 ], [ 3.970064, 43.716266 ], [ 3.973828, 43.724069 ], [ 3.97545, 43.724449 ], [ 3.977194, 43.725682 ], [ 3.977276, 43.725909 ], [ 3.980441, 43.731235 ], [ 3.98062, 43.731597 ], [ 3.98108, 43.73309 ], [ 3.980853, 43.735431 ], [ 3.980262, 43.738175 ], [ 3.980245, 43.738229 ], [ 3.979992, 43.739075 ], [ 3.979721, 43.739657 ], [ 3.978884, 43.740615 ], [ 3.978557, 43.740912 ], [ 3.978165, 43.741208 ], [ 3.977533, 43.741583 ], [ 3.974244, 43.745085 ], [ 3.974295, 43.750477 ], [ 3.973709, 43.752156 ], [ 3.973189, 43.753903 ], [ 3.966988, 43.75368 ], [ 3.96181, 43.755238 ], [ 3.957805, 43.760784 ], [ 3.965071, 43.755622 ], [ 3.966929, 43.755766 ], [ 3.967427, 43.755767 ] ] ], [ [ [ 3.94542, 43.734407 ], [ 3.942943, 43.742586 ], [ 3.942382, 43.746142 ], [ 3.945712, 43.751243 ], [ 3.94942, 43.753968 ], [ 3.954008, 43.761322 ], [ 3.954173, 43.758689 ], [ 3.948933, 43.7516 ], [ 3.947253, 43.749928 ], [ 3.946387, 43.747761 ], [ 3.946882, 43.745287 ], [ 3.947799, 43.745204 ], [ 3.949614, 43.744999 ], [ 3.951118, 43.736662 ], [ 3.950742, 43.736355 ], [ 3.946736, 43.735275 ], [ 3.94623, 43.734265 ], [ 3.946061, 43.733681 ], [ 3.948338794598723, 43.731494278838518 ], [ 3.946426, 43.731534 ], [ 3.945615, 43.732773 ], [ 3.94542, 43.734407 ] ] ] ] } },
{ "type": "Feature", "properties": { "codgeo": "34327", "value": 1080, "isochrone_group": 18.0, "nb_agences": 1 }, "geometry": { "type": "MultiPolygon", "coordinates": [ [ [ [ 3.842353, 43.756542 ], [ 3.838945, 43.75682 ], [ 3.838446, 43.756965 ], [ 3.842162, 43.756606 ], [ 3.847260250703543, 43.758852528755853 ], [ 3.846989, 43.757661 ], [ 3.845528, 43.75713 ], [ 3.842353, 43.756542 ] ] ], [ [ [ 3.914458, 43.76443 ], [ 3.914554984329031, 43.764607042147802 ], [ 3.914406547853353, 43.764234636586039 ], [ 3.914458, 43.76443 ] ] ], [ [ [ 3.942978, 43.750096 ], [ 3.943351, 43.750406 ], [ 3.949043, 43.755955 ], [ 3.949409, 43.757711 ], [ 3.949882, 43.758963 ], [ 3.950548, 43.76788 ], [ 3.950451, 43.769927 ], [ 3.951155, 43.771428 ], [ 3.952632, 43.771911 ], [ 3.957962, 43.772967 ], [ 3.962023, 43.774275 ], [ 3.962071, 43.774279 ], [ 3.964947, 43.770921 ], [ 3.964359, 43.768785 ], [ 3.964068, 43.76743 ], [ 3.960398, 43.765997 ], [ 3.957805, 43.760784 ], [ 3.958279, 43.765159 ], [ 3.958444, 43.76626 ], [ 3.959217, 43.769371 ], [ 3.959213, 43.769464 ], [ 3.958319, 43.770576 ], [ 3.957105, 43.771091 ], [ 3.955479, 43.770931 ], [ 3.954615, 43.770587 ], [ 3.954401, 43.770387 ], [ 3.953779, 43.768408 ], [ 3.953927, 43.763641 ], [ 3.954008, 43.761322 ], [ 3.94942, 43.753968 ], [ 3.945712, 43.751243 ], [ 3.942382, 43.746142 ], [ 3.942943, 43.742586 ], [ 3.94542, 43.734407 ], [ 3.945615, 43.732773 ], [ 3.946426, 43.731534 ], [ 3.948593, 43.731489 ], [ 3.952356256556695, 43.725551417432797 ], [ 3.949709, 43.720737 ], [ 3.947701, 43.718654 ], [ 3.946154, 43.717066 ], [ 3.944603, 43.715471 ], [ 3.943695, 43.714739 ], [ 3.942461, 43.712733 ], [ 3.933928, 43.714037 ], [ 3.933389, 43.714944 ], [ 3.932827, 43.715586 ], [ 3.92929, 43.72305 ], [ 3.93401, 43.729961 ], [ 3.935065, 43.733403 ], [ 3.934536, 43.733565 ], [ 3.930688, 43.741521 ], [ 3.930767, 43.742415 ], [ 3.930739, 43.742603 ], [ 3.927643, 43.743001 ], [ 3.926765167085653, 43.743567191048015 ], [ 3.929831, 43.744146 ], [ 3.930284, 43.743748 ], [ 3.937699, 43.74371 ], [ 3.939522, 43.746815 ], [ 3.942978, 43.750096 ] ] ], [ [ [ 3.97354607116252, 43.75767097819346 ], [ 3.973527052544985, 43.754813995020392 ], [ 3.970505, 43.755087 ], [ 3.967427, 43.755767 ], [ 3.966929, 43.755766 ], [ 3.965071, 43.755622 ], [ 3.96405016505273, 43.756347233966117 ], [ 3.966469, 43.757751 ], [ 3.969763, 43.75646 ], [ 3.97354607116252, 43.75767097819346 ] ] ], [ [ [ 3.986887374916259, 43.748313102049522 ], [ 3.985351, 43.743158 ], [ 3.98484, 43.741459 ], [ 3.988142, 43.734416 ], [ 3.988043, 43.734239 ], [ 3.986059, 43.72979 ], [ 3.989626, 43.723566 ], [ 3.993017, 43.722627 ], [ 3.999702, 43.722715 ], [ 4.001822, 43.722999 ], [ 4.003806136124084, 43.729721869557338 ], [ 4.00382, 43.729714 ], [ 4.004607, 43.726201 ], [ 4.00476585907564, 43.723165749956451 ], [ 3.998422, 43.720771 ], [ 3.991957, 43.720334 ], [ 3.989363, 43.721911 ], [ 3.988887, 43.722302 ], [ 3.988395, 43.722734 ], [ 3.987284, 43.722057 ], [ 3.987196, 43.721999 ], [ 3.986965, 43.721839 ], [ 3.979778, 43.724953 ], [ 3.982651, 43.729932 ], [ 3.983285, 43.730715 ], [ 3.983418, 43.731029 ], [ 3.984133, 43.73357 ], [ 3.984133, 43.733681 ], [ 3.982929, 43.740541 ], [ 3.982857, 43.741593 ], [ 3.982799, 43.741901 ], [ 3.982157, 43.742332 ], [ 3.980663557307324, 43.749434959148104 ], [ 3.982351, 43.749083 ], [ 3.985753, 43.747907 ], [ 3.986887374916259, 43.748313102049522 ] ] ] ] } },
{ "type": "Feature", "properties": { "codgeo": "34327", "value": 1140, "isochrone_group": 19.0, "nb_agences": 1 }, "geometry": { "type": "MultiPolygon", "coordinates": [ [ [ [ 4.02974, 43.598281 ], [ 4.02976367985465, 43.598285431003092 ], [ 4.027551, 43.597627 ], [ 4.027177469996304, 43.597617349397829 ], [ 4.02974, 43.598281 ] ] ], [ [ [ 3.842162, 43.756606 ], [ 3.838446, 43.756965 ], [ 3.837446336871569, 43.757689370464682 ], [ 3.842674, 43.758589 ], [ 3.846258, 43.758923 ], [ 3.847352443748722, 43.759257507113489 ], [ 3.847260250703543, 43.758852528755853 ], [ 3.842162, 43.756606 ] ] ], [ [ [ 3.917475377905854, 43.768149427553304 ], [ 3.914585646186088, 43.762792815621488 ], [ 3.914315646595711, 43.763463941876033 ], [ 3.914716729858933, 43.765012838193904 ], [ 3.915628630541287, 43.767300664581143 ], [ 3.917475377905854, 43.768149427553304 ] ] ], [ [ [ 3.949409, 43.757711 ], [ 3.950055339222615, 43.761283819591675 ], [ 3.949882, 43.758963 ], [ 3.949409, 43.757711 ] ] ], [ [ [ 3.944623, 43.772135 ], [ 3.951337, 43.773301 ], [ 3.953707, 43.774667 ], [ 3.954207, 43.774725 ], [ 3.960985, 43.775033 ], [ 3.963665, 43.778849 ], [ 3.96425, 43.780402 ], [ 3.967844, 43.780205 ], [ 3.967824, 43.779837 ], [ 3.968597, 43.775109 ], [ 3.972809, 43.771019 ], [ 3.972812391120252, 43.7710174389575 ], [ 3.970554, 43.770428 ], [ 3.96968, 43.770598 ], [ 3.969094, 43.770651 ], [ 3.967064, 43.770703 ], [ 3.963942, 43.7721 ], [ 3.963935535363852, 43.772101979919398 ], [ 3.962071, 43.774279 ], [ 3.962023, 43.774275 ], [ 3.957962, 43.772967 ], [ 3.952632, 43.771911 ], [ 3.951155, 43.771428 ], [ 3.950451, 43.769927 ], [ 3.950548, 43.76788 ], [ 3.950122607860387, 43.762184471908505 ], [ 3.944909, 43.768534 ], [ 3.944328, 43.772087 ], [ 3.944623, 43.772135 ] ] ], [ [ [ 3.965416, 43.763724 ], [ 3.974046, 43.765366 ], [ 3.97487485441447, 43.758096327723706 ], [ 3.969763, 43.75646 ], [ 3.966469, 43.757751 ], [ 3.963538, 43.75605 ], [ 3.957805, 43.760784 ], [ 3.960394856052625, 43.765990679368443 ], [ 3.960585, 43.765911 ], [ 3.964154, 43.763757 ], [ 3.965416, 43.763724 ] ] ], [ [ [ 3.929573, 43.745231 ], [ 3.928905, 43.745486 ], [ 3.934115, 43.746995 ], [ 3.937318, 43.747873 ], [ 3.938772, 43.747988 ], [ 3.941428782450457, 43.748625229519661 ], [ 3.939522, 43.746815 ], [ 3.937699, 43.74371 ], [ 3.931104062075419, 43.743743797389229 ], [ 3.931126, 43.743861 ], [ 3.93079, 43.744136 ], [ 3.929573, 43.745231 ] ] ], [ [ [ 3.999702, 43.722715 ], [ 3.993017, 43.722627 ], [ 3.989626, 43.723566 ], [ 3.986059, 43.72979 ], [ 3.987755981241335, 43.733595377793691 ], [ 3.992269, 43.732124 ], [ 3.994934, 43.73094 ], [ 4.000347, 43.726866 ], [ 4.000459, 43.726744 ], [ 4.001082377440548, 43.722899918487336 ], [ 3.999702, 43.722715 ] ] ] ] } },
{ "type": "Feature", "properties": { "codgeo": "34327", "value": 1200, "isochrone_group": 20.0, "nb_agences": 1 }, "geometry": { "type": "MultiPolygon", "coordinates": [ [ [ [ 4.06822, 43.608571 ], [ 4.06709, 43.608274 ], [ 4.061274, 43.610097 ], [ 4.053029, 43.607074 ], [ 4.050673590450272, 43.604635713185033 ], [ 4.048975, 43.608989 ], [ 4.049666, 43.610801 ], [ 4.056063, 43.614433 ], [ 4.059659, 43.610025 ], [ 4.060056, 43.60997 ], [ 4.060548, 43.60998 ], [ 4.061203, 43.610083 ], [ 4.062209, 43.610291 ], [ 4.063026, 43.61042 ], [ 4.063515, 43.610514 ], [ 4.067127, 43.612054 ], [ 4.072116635417379, 43.614747947970493 ], [ 4.069627, 43.609877 ], [ 4.069156, 43.609113 ], [ 4.06861, 43.608721 ], [ 4.06822, 43.608571 ] ] ], [ [ [ 4.027551, 43.597627 ], [ 4.029763679854645, 43.598285431003092 ], [ 4.029793523570017, 43.59829101539529 ], [ 4.02627783956871, 43.596729258700314 ], [ 4.026929, 43.597553 ], [ 4.027177469996303, 43.597617349397829 ], [ 4.027551, 43.597627 ] ] ], [ [ [ 3.997625, 43.588721 ], [ 3.996096, 43.588694 ], [ 3.995818, 43.588705 ], [ 3.994849, 43.589058 ], [ 3.994703500293288, 43.589115160599064 ], [ 3.994766, 43.58914 ], [ 4.003516, 43.588338 ], [ 4.003709998987294, 43.588292822153612 ], [ 3.997625, 43.588721 ] ] ], [ [ [ 3.832628, 43.761459 ], [ 3.83749694425386, 43.757698079498638 ], [ 3.837446336871569, 43.757689370464682 ], [ 3.832803, 43.761054 ], [ 3.832241, 43.761308 ], [ 3.831922872491016, 43.761566297162865 ], [ 3.832628, 43.761459 ] ] ], [ [ [ 3.830765, 43.751641 ], [ 3.828566957769429, 43.749300839528594 ], [ 3.83047, 43.753633 ], [ 3.830765, 43.751641 ] ] ], [ [ [ 3.940468, 43.767871 ], [ 3.940981, 43.767904 ], [ 3.940749, 43.771497 ], [ 3.939640834827598, 43.772749759484242 ], [ 3.944623, 43.772135 ], [ 3.944328, 43.772087 ], [ 3.944909, 43.768534 ], [ 3.950201, 43.762089 ], [ 3.949409, 43.757711 ], [ 3.949043, 43.755955 ], [ 3.945176, 43.749524 ], [ 3.938772, 43.747988 ], [ 3.937318, 43.747873 ], [ 3.934115, 43.746995 ], [ 3.929250659297294, 43.745586115140036 ], [ 3.926829, 43.748254 ], [ 3.926619, 43.748513 ], [ 3.921989, 43.747588 ], [ 3.921491, 43.747515 ], [ 3.920792, 43.747199 ], [ 3.915822, 43.746335 ], [ 3.915233, 43.746482 ], [ 3.913705, 43.746843 ], [ 3.913587345915511, 43.746982694371951 ], [ 3.913587345915511, 43.746982694371951 ], [ 3.911161, 43.754496 ], [ 3.910935126342323, 43.755681244376795 ], [ 3.912556, 43.758155 ], [ 3.913016, 43.759166 ], [ 3.91334, 43.759856 ], [ 3.91371, 43.760675 ], [ 3.91394, 43.761596 ], [ 3.917475377905854, 43.768149427553304 ], [ 3.920501, 43.76954 ], [ 3.921012, 43.769573 ], [ 3.924335, 43.76901 ], [ 3.92494, 43.768818 ], [ 3.926364, 43.770264 ], [ 3.933647274949513, 43.770178659539212 ], [ 3.936929, 43.768695 ], [ 3.937391, 43.76845 ], [ 3.937853, 43.768265 ], [ 3.938423, 43.768091 ], [ 3.938878, 43.767994 ], [ 3.939422, 43.767916 ], [ 3.939899, 43.767879 ], [ 3.940468, 43.767871 ] ] ], [ [ [ 3.954511, 43.776178 ], [ 3.959488, 43.775165 ], [ 3.963665, 43.778849 ], [ 3.960727483969578, 43.775021298179787 ], [ 3.954207, 43.774725 ], [ 3.953707, 43.774667 ], [ 3.951337, 43.773301 ], [ 3.949127782397282, 43.772917331884898 ], [ 3.953166, 43.776597 ], [ 3.953429, 43.776588 ], [ 3.954511, 43.776178 ] ] ] ] } }
]
}
