{
"type": "FeatureCollection",
"name": "Others",
"crs": { "type": "name", "properties": { "name": "urn:ogc:def:crs:OGC:1.3:CRS84" } },
"features": [
{ "type": "Feature", "properties": { "codgeo": "31150", "value": 60, "isochrone_group": 1.0, "nb_agences": 2 }, "geometry": { "type": "MultiPolygon", "coordinates": [ [ [ [ 1.326233, 43.653242 ], [ 1.326365, 43.653578 ], [ 1.328419, 43.653142 ], [ 1.329811, 43.652936 ], [ 1.330117, 43.652844 ], [ 1.330784, 43.651801 ], [ 1.330796, 43.651536 ], [ 1.330747, 43.651483 ], [ 1.330642, 43.651471 ], [ 1.328595, 43.65145 ], [ 1.327807, 43.65179 ], [ 1.326233, 43.653242 ] ] ], [ [ [ 1.303742, 43.659504 ], [ 1.304943, 43.661658 ], [ 1.306362, 43.661656 ], [ 1.306687, 43.661501 ], [ 1.307199, 43.661159 ], [ 1.308236, 43.659913 ], [ 1.308359, 43.659654 ], [ 1.308291, 43.659301 ], [ 1.306858, 43.658956 ], [ 1.303869, 43.659167 ], [ 1.303742, 43.659504 ] ] ] ] } },
{ "type": "Feature", "properties": { "codgeo": "31150", "value": 120, "isochrone_group": 2.0, "nb_agences": 2 }, "geometry": { "type": "MultiPolygon", "coordinates": [ [ [ [ 1.320826, 43.655766 ], [ 1.323684, 43.655667 ], [ 1.326691, 43.655445 ], [ 1.327026, 43.655314 ], [ 1.332232, 43.65374 ], [ 1.334948, 43.653282 ], [ 1.334997, 43.652925 ], [ 1.334538, 43.649907 ], [ 1.334512, 43.649724 ], [ 1.334429, 43.649689 ], [ 1.334235, 43.649713 ], [ 1.328764, 43.64985 ], [ 1.327993, 43.649096 ], [ 1.327969, 43.649084 ], [ 1.325363, 43.650581 ], [ 1.324958, 43.650816 ], [ 1.322675, 43.652528 ], [ 1.320693, 43.655432 ], [ 1.320826, 43.655766 ] ], [ [ 1.327807, 43.65179 ], [ 1.328595, 43.65145 ], [ 1.330642, 43.651471 ], [ 1.330747, 43.651483 ], [ 1.330796, 43.651536 ], [ 1.330784, 43.651801 ], [ 1.330117, 43.652844 ], [ 1.329811, 43.652936 ], [ 1.328419, 43.653142 ], [ 1.326365, 43.653578 ], [ 1.326233, 43.653242 ], [ 1.327807, 43.65179 ] ] ], [ [ [ 1.300857, 43.664109 ], [ 1.306632, 43.663776 ], [ 1.306977, 43.663674 ], [ 1.309443, 43.660083 ], [ 1.311357, 43.659299 ], [ 1.31155, 43.659216 ], [ 1.31188, 43.659074 ], [ 1.312141, 43.658969 ], [ 1.312174, 43.658677 ], [ 1.309322, 43.654183 ], [ 1.307844, 43.653037 ], [ 1.307106, 43.653378 ], [ 1.301668, 43.655606 ], [ 1.301532, 43.655676 ], [ 1.301048, 43.656272 ], [ 1.300687, 43.662176 ], [ 1.300704, 43.663783 ], [ 1.300857, 43.664109 ] ], [ [ 1.303869, 43.659167 ], [ 1.306858, 43.658956 ], [ 1.308291, 43.659301 ], [ 1.308359, 43.659654 ], [ 1.308236, 43.659913 ], [ 1.307199, 43.661159 ], [ 1.306687, 43.661501 ], [ 1.306362, 43.661656 ], [ 1.304943, 43.661658 ], [ 1.303742, 43.659504 ], [ 1.303869, 43.659167 ] ] ] ] } },
{ "type": "Feature", "properties": { "codgeo": "31150", "value": 180, "isochrone_group": 3.0, "nb_agences": 2 }, "geometry": { "type": "Polygon", "coordinates": [ [ [ 1.325025, 43.661394 ], [ 1.325031, 43.661395 ], [ 1.327606, 43.658117 ], [ 1.33462, 43.658449 ], [ 1.334792, 43.658384 ], [ 1.334964, 43.658318 ], [ 1.342174, 43.655427 ], [ 1.342976, 43.655127 ], [ 1.343417, 43.654914 ], [ 1.343304, 43.654572 ], [ 1.339839, 43.650909 ], [ 1.33636, 43.646541 ], [ 1.3359, 43.646232 ], [ 1.330315, 43.647066 ], [ 1.328751, 43.64758 ], [ 1.327455, 43.64819 ], [ 1.319645, 43.648361 ], [ 1.319295, 43.648444 ], [ 1.318112, 43.649641 ], [ 1.318208, 43.649988 ], [ 1.31756275088366, 43.654011785037596 ], [ 1.316644, 43.650471 ], [ 1.316469, 43.650157 ], [ 1.310262, 43.649001 ], [ 1.309903, 43.649021 ], [ 1.303744, 43.650146 ], [ 1.300252, 43.653528 ], [ 1.295761, 43.656542 ], [ 1.295623, 43.656621 ], [ 1.295548, 43.656699 ], [ 1.295925, 43.664099 ], [ 1.29293, 43.667492 ], [ 1.293086, 43.667816 ], [ 1.296458, 43.666942 ], [ 1.297737, 43.666455 ], [ 1.298756, 43.66588 ], [ 1.306866, 43.665921 ], [ 1.307221, 43.665984 ], [ 1.307418, 43.665446 ], [ 1.313096174503816, 43.658802305944931 ], [ 1.314102, 43.658414 ], [ 1.321966, 43.660529 ], [ 1.325025, 43.661394 ] ], [ [ 1.322675, 43.652528 ], [ 1.324958, 43.650816 ], [ 1.325363, 43.650581 ], [ 1.327969, 43.649084 ], [ 1.327993, 43.649096 ], [ 1.328764, 43.64985 ], [ 1.334235, 43.649713 ], [ 1.334429, 43.649689 ], [ 1.334512, 43.649724 ], [ 1.334538, 43.649907 ], [ 1.334997, 43.652925 ], [ 1.334948, 43.653282 ], [ 1.332232, 43.65374 ], [ 1.327026, 43.655314 ], [ 1.326691, 43.655445 ], [ 1.323684, 43.655667 ], [ 1.320826, 43.655766 ], [ 1.320693, 43.655432 ], [ 1.322675, 43.652528 ] ], [ [ 1.300687, 43.662176 ], [ 1.301048, 43.656272 ], [ 1.301532, 43.655676 ], [ 1.301668, 43.655606 ], [ 1.307106, 43.653378 ], [ 1.307844, 43.653037 ], [ 1.309322, 43.654183 ], [ 1.312174, 43.658677 ], [ 1.312141, 43.658969 ], [ 1.31188, 43.659074 ], [ 1.31155, 43.659216 ], [ 1.311357, 43.659299 ], [ 1.309443, 43.660083 ], [ 1.306977, 43.663674 ], [ 1.306632, 43.663776 ], [ 1.300857, 43.664109 ], [ 1.300704, 43.663783 ], [ 1.300687, 43.662176 ] ] ] } },
{ "type": "Feature", "properties": { "codgeo": "31150", "value": 240, "isochrone_group": 4.0, "nb_agences": 2 }, "geometry": { "type": "MultiPolygon", "coordinates": [ [ [ [ 1.323352, 43.667755 ], [ 1.323688, 43.667886 ], [ 1.325853, 43.665357 ], [ 1.327059, 43.664115 ], [ 1.328907, 43.660878 ], [ 1.337239, 43.661663 ], [ 1.337519, 43.661436 ], [ 1.342756, 43.65855 ], [ 1.347852, 43.658053 ], [ 1.34821, 43.658025 ], [ 1.348469, 43.656328 ], [ 1.348407, 43.656022 ], [ 1.348349, 43.65579 ], [ 1.347307, 43.652114 ], [ 1.344046, 43.648651 ], [ 1.339844, 43.643059 ], [ 1.332776, 43.638288 ], [ 1.332427, 43.638377 ], [ 1.331631, 43.640905 ], [ 1.331539, 43.641253 ], [ 1.331295, 43.643281 ], [ 1.324269, 43.64778 ], [ 1.319517, 43.643905 ], [ 1.319157, 43.643924 ], [ 1.316637, 43.646543 ], [ 1.314599822115484, 43.647783427018624 ], [ 1.310301, 43.646521 ], [ 1.310006, 43.646614 ], [ 1.305237, 43.648551 ], [ 1.29872, 43.648714 ], [ 1.298541, 43.648682 ], [ 1.298077, 43.648634 ], [ 1.297609, 43.648586 ], [ 1.29719, 43.648553 ], [ 1.296765, 43.648521 ], [ 1.296512, 43.648509 ], [ 1.296245, 43.648497 ], [ 1.295085, 43.648539 ], [ 1.293926, 43.64858 ], [ 1.293939, 43.64894 ], [ 1.293246, 43.655872 ], [ 1.289953044237057, 43.657293980897343 ], [ 1.29079, 43.657429 ], [ 1.292668, 43.657575 ], [ 1.293028, 43.657584 ], [ 1.293778, 43.657696 ], [ 1.294527, 43.657807 ], [ 1.294474, 43.658163 ], [ 1.29063006308972, 43.660178166146544 ], [ 1.292071240249764, 43.66514364736387 ], [ 1.2933001729381, 43.667072635466134 ], [ 1.295925, 43.664099 ], [ 1.295548, 43.656699 ], [ 1.295623, 43.656621 ], [ 1.295761, 43.656542 ], [ 1.300252, 43.653528 ], [ 1.303744, 43.650146 ], [ 1.309903, 43.649021 ], [ 1.310262, 43.649001 ], [ 1.316469, 43.650157 ], [ 1.316644, 43.650471 ], [ 1.31756275088366, 43.654011785037596 ], [ 1.318208, 43.649988 ], [ 1.318112, 43.649641 ], [ 1.319295, 43.648444 ], [ 1.319645, 43.648361 ], [ 1.327455, 43.64819 ], [ 1.328751, 43.64758 ], [ 1.330315, 43.647066 ], [ 1.3359, 43.646232 ], [ 1.33636, 43.646541 ], [ 1.339839, 43.650909 ], [ 1.343304, 43.654572 ], [ 1.343417, 43.654914 ], [ 1.342976, 43.655127 ], [ 1.342174, 43.655427 ], [ 1.334964, 43.658318 ], [ 1.334792, 43.658384 ], [ 1.33462, 43.658449 ], [ 1.327606, 43.658117 ], [ 1.325031, 43.661395 ], [ 1.325025, 43.661394 ], [ 1.321966, 43.660529 ], [ 1.314102, 43.658414 ], [ 1.313096174503816, 43.658802305944931 ], [ 1.312623111285482, 43.65935580906276 ], [ 1.318544, 43.6623 ], [ 1.320398, 43.663826 ], [ 1.323352, 43.667755 ] ] ], [ [ [ 1.293729, 43.672143 ], [ 1.293828, 43.672141 ], [ 1.295677, 43.671709 ], [ 1.297962, 43.667577 ], [ 1.303512, 43.666086 ], [ 1.307079, 43.666713 ], [ 1.307415, 43.666584 ], [ 1.31026617698701, 43.662113517614387 ], [ 1.307418, 43.665446 ], [ 1.307221, 43.665984 ], [ 1.306866, 43.665921 ], [ 1.298756, 43.66588 ], [ 1.297737, 43.666455 ], [ 1.296458, 43.666942 ], [ 1.293525792050524, 43.667702008822026 ], [ 1.293288, 43.670388 ], [ 1.292479271895794, 43.671721749171851 ], [ 1.293729, 43.672143 ] ] ] ] } },
{ "type": "Feature", "properties": { "codgeo": "31150", "value": 300, "isochrone_group": 5.0, "nb_agences": 2 }, "geometry": { "type": "MultiPolygon", "coordinates": [ [ [ [ 1.317278, 43.64113 ], [ 1.315618, 43.639972 ], [ 1.315397, 43.639786 ], [ 1.315158, 43.639587 ], [ 1.315023, 43.639502 ], [ 1.314781, 43.639405 ], [ 1.314486, 43.639324 ], [ 1.314184, 43.639242 ], [ 1.313772, 43.639147 ], [ 1.31336, 43.639051 ], [ 1.313279, 43.639402 ], [ 1.310302570316532, 43.646521461151913 ], [ 1.314599822115484, 43.647783427018624 ], [ 1.316637, 43.646543 ], [ 1.319157, 43.643924 ], [ 1.319517, 43.643905 ], [ 1.324269, 43.64778 ], [ 1.331295, 43.643281 ], [ 1.331539, 43.641253 ], [ 1.331631, 43.640905 ], [ 1.332427, 43.638377 ], [ 1.332776, 43.638288 ], [ 1.334430552831739, 43.639404846570507 ], [ 1.332368, 43.635889 ], [ 1.332227, 43.633945 ], [ 1.332087, 43.632009 ], [ 1.332068, 43.631211 ], [ 1.33205, 43.630413 ], [ 1.33169, 43.630421 ], [ 1.331708, 43.631219 ], [ 1.331727, 43.632017 ], [ 1.327372, 43.639793 ], [ 1.32715, 43.640076 ], [ 1.319404023393686, 43.64275707320985 ], [ 1.319357, 43.642661 ], [ 1.319267, 43.642598 ], [ 1.319106166112002, 43.642674819560241 ], [ 1.318312, 43.641954 ], [ 1.317743, 43.641488 ], [ 1.317278, 43.64113 ] ] ], [ [ [ 1.292944, 43.645833 ], [ 1.292609, 43.645963 ], [ 1.28387, 43.647604 ], [ 1.283579, 43.647583 ], [ 1.283553, 43.647942 ], [ 1.283755445822776, 43.648774845470015 ], [ 1.285506, 43.650389 ], [ 1.285761, 43.650644 ], [ 1.288797, 43.657097 ], [ 1.293079434375167, 43.655943927214864 ], [ 1.293246, 43.655872 ], [ 1.293939, 43.64894 ], [ 1.293926, 43.64858 ], [ 1.295085, 43.648539 ], [ 1.296245, 43.648497 ], [ 1.296512, 43.648509 ], [ 1.296765, 43.648521 ], [ 1.29719, 43.648553 ], [ 1.297609, 43.648586 ], [ 1.298077, 43.648634 ], [ 1.298541, 43.648682 ], [ 1.29872, 43.648714 ], [ 1.305237, 43.648551 ], [ 1.310006, 43.646614 ], [ 1.301249, 43.647739 ], [ 1.292944, 43.645833 ] ] ], [ [ [ 1.293051, 43.674953 ], [ 1.301699, 43.675075 ], [ 1.301894, 43.674773 ], [ 1.305714, 43.66791 ], [ 1.307422, 43.66722 ], [ 1.307415, 43.666584 ], [ 1.307079, 43.666713 ], [ 1.303512, 43.666086 ], [ 1.301473672094615, 43.666633594037279 ], [ 1.301929, 43.669438 ], [ 1.296554, 43.673488 ], [ 1.295991, 43.673607 ], [ 1.29484, 43.673155 ], [ 1.294118, 43.672939 ], [ 1.288014, 43.672803 ], [ 1.287394733992071, 43.673213907069609 ], [ 1.293051, 43.674953 ] ] ], [ [ [ 1.309984, 43.66632 ], [ 1.314534, 43.665276 ], [ 1.32066, 43.669488 ], [ 1.321141, 43.671635 ], [ 1.322472, 43.672076 ], [ 1.322828, 43.672124 ], [ 1.323829, 43.671739 ], [ 1.327149, 43.667248 ], [ 1.328799, 43.665344 ], [ 1.33477, 43.663431 ], [ 1.339075, 43.665313 ], [ 1.339211, 43.665433 ], [ 1.339347, 43.665553 ], [ 1.340198, 43.666006 ], [ 1.341938, 43.666643 ], [ 1.34873, 43.6609 ], [ 1.349791, 43.658779 ], [ 1.349865, 43.658616 ], [ 1.350855, 43.651905 ], [ 1.351341, 43.645569 ], [ 1.351305, 43.645481 ], [ 1.343991, 43.640255 ], [ 1.343726, 43.640482 ], [ 1.335562354088264, 43.640168828431683 ], [ 1.339844, 43.643059 ], [ 1.344046, 43.648651 ], [ 1.347307, 43.652114 ], [ 1.348349, 43.65579 ], [ 1.348407, 43.656022 ], [ 1.348469, 43.656328 ], [ 1.34821, 43.658025 ], [ 1.347852, 43.658053 ], [ 1.342756, 43.65855 ], [ 1.337519, 43.661436 ], [ 1.337239, 43.661663 ], [ 1.328907, 43.660878 ], [ 1.327059, 43.664115 ], [ 1.325853, 43.665357 ], [ 1.323688, 43.667886 ], [ 1.323352, 43.667755 ], [ 1.320398, 43.663826 ], [ 1.318544, 43.6623 ], [ 1.312169, 43.65913 ], [ 1.308507470144954, 43.664871069318352 ], [ 1.309697, 43.666104 ], [ 1.309984, 43.66632 ] ] ] ] } },
{ "type": "Feature", "properties": { "codgeo": "31150", "value": 360, "isochrone_group": 6.0, "nb_agences": 2 }, "geometry": { "type": "MultiPolygon", "coordinates": [ [ [ [ 1.310863, 43.671507 ], [ 1.317595, 43.671296 ], [ 1.320687, 43.67555 ], [ 1.322745, 43.67723 ], [ 1.32419, 43.677177 ], [ 1.329963, 43.673796 ], [ 1.329775, 43.670201 ], [ 1.33851, 43.668951 ], [ 1.338662, 43.669133 ], [ 1.343373, 43.671925 ], [ 1.344529, 43.67307 ], [ 1.345036, 43.67344 ], [ 1.345543, 43.673731 ], [ 1.345579, 43.673752 ], [ 1.346446, 43.672174 ], [ 1.347384, 43.670637 ], [ 1.349416034071555, 43.666115666745441 ], [ 1.346338637342508, 43.66292202528593 ], [ 1.341938, 43.666643 ], [ 1.340198, 43.666006 ], [ 1.339347, 43.665553 ], [ 1.339211, 43.665433 ], [ 1.339075, 43.665313 ], [ 1.33477, 43.663431 ], [ 1.328799, 43.665344 ], [ 1.327149, 43.667248 ], [ 1.323829, 43.671739 ], [ 1.322828, 43.672124 ], [ 1.322472, 43.672076 ], [ 1.321141, 43.671635 ], [ 1.32066, 43.669488 ], [ 1.314534, 43.665276 ], [ 1.309984, 43.66632 ], [ 1.309697, 43.666104 ], [ 1.308961334114198, 43.665341492831146 ], [ 1.309536, 43.666241 ], [ 1.309424, 43.666355 ], [ 1.309179, 43.666508 ], [ 1.307421991045143, 43.667219186387271 ], [ 1.307422, 43.66722 ], [ 1.305714, 43.66791 ], [ 1.304299202939397, 43.670451819954692 ], [ 1.305301, 43.676779 ], [ 1.305179, 43.677118 ], [ 1.304921, 43.677026 ], [ 1.304662, 43.676934 ], [ 1.301575, 43.675904 ], [ 1.293459, 43.676031 ], [ 1.286757, 43.676381 ], [ 1.285001032168653, 43.676957386387386 ], [ 1.288275, 43.67757 ], [ 1.293733, 43.676196 ], [ 1.299681, 43.676614 ], [ 1.308246, 43.67798 ], [ 1.308598, 43.678056 ], [ 1.308986, 43.677801 ], [ 1.309093, 43.677501 ], [ 1.30908, 43.677453 ], [ 1.308801, 43.677291 ], [ 1.308173, 43.677222 ], [ 1.307889, 43.677178 ], [ 1.307614, 43.677136 ], [ 1.307306, 43.677097 ], [ 1.307003, 43.67706 ], [ 1.306594, 43.67702 ], [ 1.30479942809077, 43.671181400511699 ], [ 1.30982, 43.67191 ], [ 1.309965, 43.671885 ], [ 1.310362, 43.671772 ], [ 1.310863, 43.671507 ] ] ], [ [ [ 1.354064669212912, 43.657966107595911 ], [ 1.351177, 43.655401 ], [ 1.354315458943106, 43.647262960991732 ], [ 1.351182681866608, 43.647632999368689 ], [ 1.350855, 43.651905 ], [ 1.349865, 43.658616 ], [ 1.349791, 43.658779 ], [ 1.349669167174864, 43.659022550821973 ], [ 1.351836, 43.659256 ], [ 1.354064669212912, 43.657966107595911 ] ] ], [ [ [ 1.354869868901648, 43.643567114795253 ], [ 1.354725, 43.643593 ], [ 1.347912, 43.637772 ], [ 1.347939, 43.63719 ], [ 1.347903, 43.635933 ], [ 1.346928, 43.635429 ], [ 1.344935, 43.635016 ], [ 1.344304, 43.636038 ], [ 1.343766, 43.63715 ], [ 1.340216193354176, 43.640347357750244 ], [ 1.343726, 43.640482 ], [ 1.343991, 43.640255 ], [ 1.349731196400239, 43.644356485696967 ], [ 1.354864, 43.643574 ], [ 1.354869868901648, 43.643567114795253 ] ] ], [ [ [ 1.334558, 43.638723 ], [ 1.333984, 43.635772 ], [ 1.333843, 43.633828 ], [ 1.333706, 43.631972 ], [ 1.333494, 43.627264 ], [ 1.332544, 43.625688 ], [ 1.332476, 43.625633 ], [ 1.33219, 43.625461 ], [ 1.330307, 43.62559 ], [ 1.329989, 43.626194 ], [ 1.329674, 43.627118 ], [ 1.328929, 43.630641 ], [ 1.324673, 43.634658 ], [ 1.316661, 43.638733 ], [ 1.316044, 43.63823 ], [ 1.315632, 43.638001 ], [ 1.313519, 43.636649 ], [ 1.313096, 43.636391 ], [ 1.311954, 43.635867 ], [ 1.311515, 43.635686 ], [ 1.311311, 43.635622 ], [ 1.305902, 43.63619 ], [ 1.30378, 43.637896 ], [ 1.303778, 43.637944 ], [ 1.304812, 43.639621 ], [ 1.303662926238106, 43.645484244272886 ], [ 1.302213, 43.645226 ], [ 1.301869, 43.645119 ], [ 1.30094, 43.645032 ], [ 1.292646, 43.645641 ], [ 1.291765, 43.645377 ], [ 1.291608, 43.645351 ], [ 1.291366, 43.645398 ], [ 1.287177437749846, 43.6469829329045 ], [ 1.292609, 43.645963 ], [ 1.292944, 43.645833 ], [ 1.301249, 43.647739 ], [ 1.310006, 43.646614 ], [ 1.310302055213017, 43.646522693252052 ], [ 1.313279, 43.639402 ], [ 1.31336, 43.639051 ], [ 1.313772, 43.639147 ], [ 1.314184, 43.639242 ], [ 1.314486, 43.639324 ], [ 1.314781, 43.639405 ], [ 1.315023, 43.639502 ], [ 1.315158, 43.639587 ], [ 1.315397, 43.639786 ], [ 1.315618, 43.639972 ], [ 1.317278, 43.64113 ], [ 1.317743, 43.641488 ], [ 1.318312, 43.641954 ], [ 1.319106166112002, 43.642674819560241 ], [ 1.319267, 43.642598 ], [ 1.319357, 43.642661 ], [ 1.319404023393686, 43.64275707320985 ], [ 1.32715, 43.640076 ], [ 1.327372, 43.639793 ], [ 1.331727, 43.632017 ], [ 1.331708, 43.631219 ], [ 1.33169, 43.630421 ], [ 1.33205, 43.630413 ], [ 1.332068, 43.631211 ], [ 1.332087, 43.632009 ], [ 1.332227, 43.633945 ], [ 1.332368, 43.635889 ], [ 1.334863, 43.640142 ], [ 1.336294061213122, 43.640196897981767 ], [ 1.334597, 43.63881 ], [ 1.334558, 43.638723 ] ] ] ] } },
{ "type": "Feature", "properties": { "codgeo": "31150", "value": 420, "isochrone_group": 7.0, "nb_agences": 2 }, "geometry": { "type": "MultiPolygon", "coordinates": [ [ [ [ 1.290759, 43.68032 ], [ 1.299266, 43.678736 ], [ 1.307573, 43.681009 ], [ 1.314518, 43.681892 ], [ 1.316486, 43.678878 ], [ 1.318626095909952, 43.676748393097668 ], [ 1.318634, 43.676769 ], [ 1.31867, 43.677148 ], [ 1.320067, 43.67844 ], [ 1.321519, 43.679761 ], [ 1.323307, 43.680659 ], [ 1.323495, 43.680615 ], [ 1.324168, 43.680341 ], [ 1.327464, 43.676233 ], [ 1.333174, 43.674545 ], [ 1.334012, 43.674185 ], [ 1.334427, 43.673947 ], [ 1.335684, 43.673302 ], [ 1.344036, 43.672809 ], [ 1.346479, 43.675454 ], [ 1.350507, 43.677462 ], [ 1.352064, 43.678267 ], [ 1.352179975942458, 43.678145025301902 ], [ 1.350687, 43.677544 ], [ 1.350082, 43.67719 ], [ 1.349635, 43.676678 ], [ 1.349084, 43.675741 ], [ 1.349528, 43.667168 ], [ 1.349066000647593, 43.666894501009168 ], [ 1.347384, 43.670637 ], [ 1.346446, 43.672174 ], [ 1.345579, 43.673752 ], [ 1.345543, 43.673731 ], [ 1.345036, 43.67344 ], [ 1.344529, 43.67307 ], [ 1.343373, 43.671925 ], [ 1.338662, 43.669133 ], [ 1.33851, 43.668951 ], [ 1.329775, 43.670201 ], [ 1.329963, 43.673796 ], [ 1.32419, 43.677177 ], [ 1.322745, 43.67723 ], [ 1.320687, 43.67555 ], [ 1.317595, 43.671296 ], [ 1.310863, 43.671507 ], [ 1.310362, 43.671772 ], [ 1.310107035289638, 43.671844571819328 ], [ 1.309846, 43.676339 ], [ 1.311198, 43.678236 ], [ 1.311617, 43.678632 ], [ 1.31138, 43.678902 ], [ 1.307849, 43.67894 ], [ 1.299298, 43.676808 ], [ 1.299078, 43.676876 ], [ 1.298843, 43.676917 ], [ 1.298482, 43.676953 ], [ 1.298121, 43.67699 ], [ 1.293733, 43.676196 ], [ 1.288973, 43.67827 ], [ 1.287266, 43.678517 ], [ 1.282011, 43.678022 ], [ 1.279590833063879, 43.680896534310882 ], [ 1.287198, 43.680785 ], [ 1.290759, 43.68032 ] ] ], [ [ [ 1.356744743997654, 43.64321758761487 ], [ 1.354725, 43.643593 ], [ 1.356541204732634, 43.64326848016961 ], [ 1.356718908347223, 43.643236109656236 ], [ 1.356725201315641, 43.643234822458176 ], [ 1.356744743997654, 43.64321758761487 ] ] ], [ [ [ 1.347088, 43.633093 ], [ 1.346509, 43.632797 ], [ 1.345941, 43.632688 ], [ 1.345286, 43.632748 ], [ 1.344744, 43.632944 ], [ 1.342114, 43.633679 ], [ 1.339935, 43.633623 ], [ 1.335015, 43.628092 ], [ 1.335011293066409, 43.628050831095798 ], [ 1.333528622532914, 43.62803288153281 ], [ 1.333706, 43.631972 ], [ 1.333843, 43.633828 ], [ 1.333984, 43.635772 ], [ 1.334558, 43.638723 ], [ 1.334597, 43.63881 ], [ 1.338438, 43.641949 ], [ 1.343766, 43.63715 ], [ 1.344304, 43.636038 ], [ 1.344935, 43.635016 ], [ 1.346928, 43.635429 ], [ 1.34789874318163, 43.635930799552362 ], [ 1.347938, 43.634494 ], [ 1.347449, 43.633415 ], [ 1.347088, 43.633093 ] ] ], [ [ [ 1.325864, 43.629787 ], [ 1.321072, 43.633511 ], [ 1.318203, 43.635684 ], [ 1.312079965353212, 43.635863311144227 ], [ 1.31103, 43.635318 ], [ 1.309137, 43.635252 ], [ 1.302777, 43.63559 ], [ 1.302426, 43.635649 ], [ 1.302046904212389, 43.636202506176019 ], [ 1.301385, 43.635966 ], [ 1.298346790897114, 43.634449722566224 ], [ 1.297851, 43.636108 ], [ 1.300371, 43.637669 ], [ 1.300331, 43.638027 ], [ 1.298422, 43.638434 ], [ 1.298068, 43.63837 ], [ 1.297185497428687, 43.637825862092654 ], [ 1.296362975736228, 43.638005889174408 ], [ 1.296363, 43.638006 ], [ 1.296383, 43.638588 ], [ 1.294213931454877, 43.645525872165884 ], [ 1.30094, 43.645032 ], [ 1.301869, 43.645119 ], [ 1.302213, 43.645226 ], [ 1.303662926238106, 43.645484244272886 ], [ 1.304812, 43.639621 ], [ 1.303778, 43.637944 ], [ 1.30378, 43.637896 ], [ 1.305902, 43.63619 ], [ 1.311311, 43.635622 ], [ 1.311515, 43.635686 ], [ 1.311954, 43.635867 ], [ 1.313096, 43.636391 ], [ 1.313519, 43.636649 ], [ 1.315632, 43.638001 ], [ 1.316044, 43.63823 ], [ 1.316661, 43.638733 ], [ 1.324673, 43.634658 ], [ 1.328929, 43.630641 ], [ 1.329327140596363, 43.628758249233563 ], [ 1.32706118514616, 43.627714344923241 ], [ 1.326488850746326, 43.627731020228183 ], [ 1.325864, 43.629787 ] ] ] ] } },
{ "type": "Feature", "properties": { "codgeo": "31150", "value": 480, "isochrone_group": 8.0, "nb_agences": 2 }, "geometry": { "type": "MultiPolygon", "coordinates": [ [ [ [ 1.294735, 43.638446 ], [ 1.295495987199945, 43.641425153961841 ], [ 1.296109132162847, 43.639463979714321 ], [ 1.294519046530187, 43.637741439011293 ], [ 1.294735, 43.638446 ] ] ], [ [ [ 1.285865, 43.681762 ], [ 1.284448083217815, 43.682814391936553 ], [ 1.289158890271695, 43.681252761724011 ], [ 1.285865, 43.681762 ] ] ], [ [ [ 1.302886, 43.681444 ], [ 1.305775, 43.683591 ], [ 1.309354, 43.681998 ], [ 1.315697, 43.683818 ], [ 1.316422, 43.683979 ], [ 1.317592, 43.68385 ], [ 1.31816013199368, 43.682925617599686 ], [ 1.318819, 43.684734 ], [ 1.31886, 43.68477 ], [ 1.319067, 43.684884 ], [ 1.319772, 43.685191 ], [ 1.321136, 43.685152 ], [ 1.321157, 43.685141 ], [ 1.321939, 43.684358 ], [ 1.325816, 43.68154 ], [ 1.326071, 43.68136 ], [ 1.327806, 43.680231 ], [ 1.332939, 43.675665 ], [ 1.3364, 43.674555 ], [ 1.342268, 43.678864 ], [ 1.344005, 43.682017 ], [ 1.344303675480513, 43.681852410745861 ], [ 1.342567, 43.678699 ], [ 1.343386478889529, 43.672847339787772 ], [ 1.335684, 43.673302 ], [ 1.334427, 43.673947 ], [ 1.334012, 43.674185 ], [ 1.333174, 43.674545 ], [ 1.327464, 43.676233 ], [ 1.324168, 43.680341 ], [ 1.323495, 43.680615 ], [ 1.323307, 43.680659 ], [ 1.321519, 43.679761 ], [ 1.320067, 43.67844 ], [ 1.31867, 43.677148 ], [ 1.318634, 43.676769 ], [ 1.318626095909952, 43.676748393097668 ], [ 1.31708724842179, 43.678279698408417 ], [ 1.319452, 43.681795 ], [ 1.31934, 43.68234 ], [ 1.319186, 43.682584 ], [ 1.314607768457572, 43.681754519242311 ], [ 1.314518, 43.681892 ], [ 1.311884764959393, 43.681557205681663 ], [ 1.307183, 43.681654 ], [ 1.304801, 43.681746 ], [ 1.299235903490495, 43.678741603958066 ], [ 1.299025366096994, 43.678780805936562 ], [ 1.29396322671439, 43.68030824814484 ], [ 1.295738, 43.680185 ], [ 1.302886, 43.681444 ] ] ], [ [ [ 1.345941, 43.632688 ], [ 1.346509, 43.632797 ], [ 1.347088, 43.633093 ], [ 1.347449, 43.633415 ], [ 1.34653038192568, 43.630243730732815 ], [ 1.345804431895805, 43.632700510055351 ], [ 1.345941, 43.632688 ] ] ], [ [ [ 1.325747458019604, 43.629877568099978 ], [ 1.32201481803164, 43.630181752526731 ], [ 1.321102642762742, 43.633487186634298 ], [ 1.325747458019604, 43.629877568099978 ] ] ], [ [ [ 1.311621924156141, 43.635625422371511 ], [ 1.312079965353212, 43.635863311144227 ], [ 1.318203, 43.635684 ], [ 1.321041732009679, 43.633533925180544 ], [ 1.317438, 43.633603 ], [ 1.316843, 43.633935 ], [ 1.311621924156141, 43.635625422371511 ] ] ] ] } },
{ "type": "Feature", "properties": { "codgeo": "31150", "value": 540, "isochrone_group": 9.0, "nb_agences": 2 }, "geometry": { "type": "MultiPolygon", "coordinates": [ [ [ [ 1.298840963715366, 43.632669779612627 ], [ 1.29881506219593, 43.634683422479306 ], [ 1.301385, 43.635966 ], [ 1.298840963715366, 43.632669779612627 ] ] ], [ [ [ 1.300372, 43.686752 ], [ 1.301984, 43.687267 ], [ 1.305432, 43.687635 ], [ 1.313483, 43.685574 ], [ 1.314353, 43.685626 ], [ 1.318881927580713, 43.686481116754912 ], [ 1.320693, 43.687244 ], [ 1.323343, 43.688042 ], [ 1.323747, 43.688145 ], [ 1.327013, 43.686468 ], [ 1.329261, 43.685033 ], [ 1.33664, 43.685562 ], [ 1.337226, 43.685551 ], [ 1.337669, 43.685502 ], [ 1.337991561495202, 43.685411616444789 ], [ 1.336998, 43.681968 ], [ 1.338907608449182, 43.676396391412318 ], [ 1.3364, 43.674555 ], [ 1.332939, 43.675665 ], [ 1.327806, 43.680231 ], [ 1.326071, 43.68136 ], [ 1.325816, 43.68154 ], [ 1.321939, 43.684358 ], [ 1.321157, 43.685141 ], [ 1.321136, 43.685152 ], [ 1.319772, 43.685191 ], [ 1.319203948612792, 43.684943635778907 ], [ 1.317835, 43.684796 ], [ 1.317629, 43.684749 ], [ 1.30869, 43.684247 ], [ 1.304333, 43.685506 ], [ 1.299902, 43.68448 ], [ 1.295617, 43.680998 ], [ 1.292057, 43.680468 ], [ 1.29149, 43.68048 ], [ 1.285981265607677, 43.682970211636665 ], [ 1.292512, 43.68296 ], [ 1.294755, 43.685196 ], [ 1.300372, 43.686752 ] ] ], [ [ [ 1.31902, 43.633181 ], [ 1.318790577268671, 43.633338519105635 ], [ 1.318724455423568, 43.63357834176351 ], [ 1.32109, 43.633533 ], [ 1.321712785450872, 43.631276222885766 ], [ 1.320499, 43.631487 ], [ 1.319795, 43.632421 ], [ 1.319508, 43.632726 ], [ 1.31902, 43.633181 ] ] ], [ [ [ 1.348286, 43.628848 ], [ 1.347862763929331, 43.629005812627646 ], [ 1.348213, 43.630379 ], [ 1.348173, 43.631014 ], [ 1.347603367379725, 43.63120557806954 ], [ 1.347921, 43.63438 ], [ 1.347927597579905, 43.634471046602691 ], [ 1.347938, 43.634494 ], [ 1.348887, 43.626062 ], [ 1.348897, 43.625861 ], [ 1.348892794868421, 43.625851950337179 ], [ 1.348286, 43.628848 ] ] ] ] } },
{ "type": "Feature", "properties": { "codgeo": "31150", "value": 600, "isochrone_group": 10.0, "nb_agences": 2 }, "geometry": { "type": "MultiPolygon", "coordinates": [ [ [ [ 1.261308, 43.668936 ], [ 1.259024577342821, 43.670520963962041 ], [ 1.259865, 43.670374 ], [ 1.261650498212118, 43.669791553204199 ], [ 1.268071, 43.667055 ], [ 1.268378, 43.666184 ], [ 1.271986, 43.660007 ], [ 1.265588759003309, 43.655776781130363 ], [ 1.269196, 43.663303 ], [ 1.263171, 43.668737 ], [ 1.262664, 43.668785 ], [ 1.261308, 43.668936 ] ] ], [ [ [ 1.249356823717784, 43.672499368607227 ], [ 1.253015, 43.673321 ], [ 1.255404405721746, 43.672472917583306 ], [ 1.256008362955492, 43.671868080942481 ], [ 1.250556, 43.671775 ], [ 1.250002, 43.672011 ], [ 1.249522, 43.67231 ], [ 1.249356823717784, 43.672499368607227 ] ] ], [ [ [ 1.289018, 43.687299 ], [ 1.289622, 43.687022 ], [ 1.29148, 43.686016 ], [ 1.292534, 43.685721 ], [ 1.293027, 43.68564 ], [ 1.29475, 43.685197 ], [ 1.300481, 43.691144 ], [ 1.30408, 43.691055 ], [ 1.308516181936936, 43.687774706792645 ], [ 1.307248, 43.68783 ], [ 1.305191, 43.690167 ], [ 1.30202, 43.68984 ], [ 1.300421, 43.688726 ], [ 1.296928441148997, 43.685798078409789 ], [ 1.294755, 43.685196 ], [ 1.292815943727222, 43.683262995173443 ], [ 1.291654, 43.683509 ], [ 1.290577974358278, 43.682963024095905 ], [ 1.285633462427719, 43.68297075547131 ], [ 1.282738, 43.687457 ], [ 1.284992717355793, 43.689516977215035 ], [ 1.285947, 43.688481 ], [ 1.288297, 43.687604 ], [ 1.289018, 43.687299 ] ] ], [ [ [ 1.320154, 43.692912 ], [ 1.32043, 43.692878 ], [ 1.327468, 43.690231 ], [ 1.330308, 43.690664 ], [ 1.330869, 43.690769 ], [ 1.332104, 43.689852 ], [ 1.337669, 43.685502 ], [ 1.334118, 43.686252 ], [ 1.331488, 43.687076 ], [ 1.330762, 43.687295 ], [ 1.330305, 43.687288 ], [ 1.330243, 43.68728 ], [ 1.329889, 43.687112 ], [ 1.329842870390854, 43.685074714248117 ], [ 1.329261, 43.685033 ], [ 1.327013, 43.686468 ], [ 1.323747, 43.688145 ], [ 1.323343, 43.688042 ], [ 1.323290699417667, 43.688026250617106 ], [ 1.323289, 43.688027 ], [ 1.316222, 43.687463 ], [ 1.31483, 43.687504 ], [ 1.314725, 43.687504 ], [ 1.312601638408375, 43.687596579360545 ], [ 1.314016880651448, 43.688197478701802 ], [ 1.318255, 43.691887 ], [ 1.320154, 43.692912 ] ] ], [ [ [ 1.311515, 43.635686 ], [ 1.311954, 43.635867 ], [ 1.318279, 43.635194 ], [ 1.318790577268671, 43.633338519105635 ], [ 1.318334, 43.633652 ], [ 1.314838589121915, 43.632264932191248 ], [ 1.311441, 43.635684 ], [ 1.311515, 43.635686 ] ] ], [ [ [ 1.298854930589399, 43.631583963147826 ], [ 1.298846788605095, 43.63221693947397 ], [ 1.299375619968487, 43.632485788227463 ], [ 1.298854930589399, 43.631583963147826 ] ] ], [ [ [ 1.358160006563352, 43.641941458800879 ], [ 1.354725, 43.643593 ], [ 1.356744205645924, 43.643217687678991 ], [ 1.358160006563352, 43.641941458800879 ] ] ], [ [ [ 1.362883416161293, 43.637243756542986 ], [ 1.362913, 43.637188 ], [ 1.363135783612964, 43.63699191159121 ], [ 1.363283, 43.636845 ], [ 1.361959, 43.637773 ], [ 1.361172325006265, 43.639226099784231 ], [ 1.362436, 43.638087 ], [ 1.362614025750382, 43.637751475577375 ], [ 1.3628, 43.637327 ], [ 1.362883416161293, 43.637243756542986 ] ] ] ] } },
{ "type": "Feature", "properties": { "codgeo": "31150", "value": 660, "isochrone_group": 11.0, "nb_agences": 2 }, "geometry": { "type": "MultiPolygon", "coordinates": [ [ [ [ 1.248251732195345, 43.673766315893211 ], [ 1.248781549588721, 43.673158899498297 ], [ 1.247289318137959, 43.673101761361956 ], [ 1.248251732195345, 43.673766315893211 ] ] ], [ [ [ 1.302186, 43.697223 ], [ 1.303022, 43.697317 ], [ 1.311087, 43.693756 ], [ 1.31156, 43.69378 ], [ 1.311651, 43.693784 ], [ 1.31376119913432, 43.694136352360083 ], [ 1.318295, 43.697199 ], [ 1.322846, 43.695848 ], [ 1.323787, 43.695164 ], [ 1.325268, 43.69418 ], [ 1.326357832117791, 43.69275714623565 ], [ 1.329686027584448, 43.692336738496422 ], [ 1.335263, 43.693232 ], [ 1.336899, 43.693232 ], [ 1.339705, 43.693152 ], [ 1.340094, 43.693123 ], [ 1.339817, 43.689533 ], [ 1.341316025146111, 43.684459666151234 ], [ 1.340751, 43.684574 ], [ 1.336598, 43.68799 ], [ 1.336096, 43.688351 ], [ 1.331117, 43.690871 ], [ 1.327422, 43.690369 ], [ 1.32725307575162, 43.690311833260225 ], [ 1.32043, 43.692878 ], [ 1.320154, 43.692912 ], [ 1.31402, 43.691614 ], [ 1.311363, 43.689185 ], [ 1.304466, 43.693445 ], [ 1.302208, 43.693339 ], [ 1.30051868, 43.693339 ], [ 1.300521, 43.693493 ], [ 1.301717, 43.697173 ], [ 1.302176, 43.697221 ], [ 1.302186, 43.697223 ] ] ], [ [ [ 1.310610294357597, 43.635869736489461 ], [ 1.311212, 43.635593 ], [ 1.311456772193303, 43.635668128098942 ], [ 1.314588399467197, 43.632516703480775 ], [ 1.312788, 43.631971 ], [ 1.312688536623749, 43.631780795636914 ], [ 1.312128272326848, 43.631595094494791 ], [ 1.307538769283827, 43.636556495138095 ], [ 1.310610294357597, 43.635869736489461 ] ] ], [ [ [ 1.300931963701542, 43.63518134889641 ], [ 1.301385, 43.635966 ], [ 1.300885776671499, 43.63435286904501 ], [ 1.300931963701542, 43.63518134889641 ] ] ], [ [ [ 1.348845420842001, 43.682936079467062 ], [ 1.343227054727595, 43.684072965897847 ], [ 1.348173, 43.683877 ], [ 1.34877, 43.683007 ], [ 1.348845420842001, 43.682936079467062 ] ] ], [ [ [ 1.372663, 43.674835 ], [ 1.372746561808561, 43.674404575949836 ], [ 1.371849, 43.674931 ], [ 1.370897443706648, 43.677670198050912 ], [ 1.371767, 43.67674 ], [ 1.372663, 43.674835 ] ] ] ] } },
{ "type": "Feature", "properties": { "codgeo": "31150", "value": 720, "isochrone_group": 12.0, "nb_agences": 2 }, "geometry": { "type": "MultiPolygon", "coordinates": [ [ [ [ 1.242664666288266, 43.671020751306344 ], [ 1.242673, 43.668341 ], [ 1.242586, 43.668237 ], [ 1.241140626127646, 43.667949653624781 ], [ 1.241859, 43.670367 ], [ 1.242046, 43.670691 ], [ 1.242664666288266, 43.671020751306344 ] ] ], [ [ [ 1.295244, 43.695593 ], [ 1.292413, 43.695813 ], [ 1.291991345015721, 43.696026911752504 ], [ 1.296383, 43.696446 ], [ 1.296625, 43.696463 ], [ 1.299551, 43.696943 ], [ 1.30018, 43.697047 ], [ 1.295244, 43.695593 ] ] ], [ [ [ 1.317606, 43.70313 ], [ 1.317612, 43.703132 ], [ 1.317884, 43.703201 ], [ 1.319011, 43.703427 ], [ 1.323457, 43.699803 ], [ 1.331211, 43.695299 ], [ 1.334212, 43.697288 ], [ 1.337914022243744, 43.694754053515531 ], [ 1.342239343450454, 43.693684898150593 ], [ 1.345399, 43.694687 ], [ 1.345792, 43.694777 ], [ 1.347842, 43.694079 ], [ 1.348116, 43.693704 ], [ 1.347757, 43.691761 ], [ 1.347371, 43.691509 ], [ 1.346746, 43.691195 ], [ 1.345749, 43.690511 ], [ 1.345461, 43.690373 ], [ 1.344079925973463, 43.684669976666889 ], [ 1.342704779869781, 43.684695116113936 ], [ 1.341443, 43.688467 ], [ 1.340303, 43.691881 ], [ 1.340008141627862, 43.692010250700449 ], [ 1.340094, 43.693123 ], [ 1.339705, 43.693152 ], [ 1.337041596288052, 43.693310631152023 ], [ 1.336767, 43.693431 ], [ 1.336622937348344, 43.693335566294053 ], [ 1.335709, 43.69339 ], [ 1.335263, 43.693232 ], [ 1.330556973126207, 43.692476549841558 ], [ 1.325268, 43.69418 ], [ 1.323634, 43.695477 ], [ 1.322933, 43.695846 ], [ 1.322846920183558, 43.695847331131176 ], [ 1.322846, 43.695848 ], [ 1.318295, 43.697199 ], [ 1.318094369155727, 43.697063470981426 ], [ 1.312402, 43.695145 ], [ 1.305627, 43.69808 ], [ 1.302186, 43.697223 ], [ 1.302176, 43.697221 ], [ 1.301717, 43.697173 ], [ 1.30171642713319, 43.697171237332903 ], [ 1.301705, 43.69717 ], [ 1.30018, 43.697047 ], [ 1.306204, 43.698454 ], [ 1.307605, 43.698976 ], [ 1.311894490655808, 43.698553940657661 ], [ 1.315651, 43.702611 ], [ 1.317606, 43.70313 ] ] ], [ [ [ 1.259865, 43.670374 ], [ 1.260291, 43.670371 ], [ 1.259357, 43.670175 ], [ 1.258472473763485, 43.671124088945376 ], [ 1.259865, 43.670374 ] ] ], [ [ [ 1.347606659861727, 43.625002885467218 ], [ 1.347087, 43.626045 ], [ 1.34769013637725, 43.624945915321803 ], [ 1.347606659861727, 43.625002885467218 ] ] ], [ [ [ 1.349779074904924, 43.620646371804128 ], [ 1.349814756441601, 43.620883028264728 ], [ 1.350062, 43.620079 ], [ 1.349779074904924, 43.620646371804128 ] ] ], [ [ [ 1.369713, 43.681096 ], [ 1.369887, 43.680574 ], [ 1.371663102213878, 43.676851143486502 ], [ 1.369141857066244, 43.679548217086115 ], [ 1.367916, 43.681639 ], [ 1.365978199441264, 43.685532370952949 ], [ 1.369095, 43.683188 ], [ 1.369713, 43.681096 ] ] ], [ [ [ 1.372862850608807, 43.674336372043875 ], [ 1.372746561808561, 43.674404575949836 ], [ 1.372689097431396, 43.674700573013396 ], [ 1.372862850608807, 43.674336372043875 ] ] ], [ [ [ 1.378044586740949, 43.62586135030346 ], [ 1.377488634153637, 43.626309334589862 ], [ 1.377916, 43.626068 ], [ 1.378044586740949, 43.62586135030346 ] ] ] ] } },
{ "type": "Feature", "properties": { "codgeo": "31150", "value": 780, "isochrone_group": 13.0, "nb_agences": 2 }, "geometry": { "type": "MultiPolygon", "coordinates": [ [ [ [ 1.27845309602837, 43.710020371700637 ], [ 1.278220457433991, 43.709997742717228 ], [ 1.278398099187357, 43.710118224467301 ], [ 1.27845309602837, 43.710020371700637 ] ] ], [ [ [ 1.314464, 43.708938 ], [ 1.314606, 43.708813 ], [ 1.316041, 43.707638 ], [ 1.321038901177869, 43.704563034803911 ], [ 1.322193, 43.704179 ], [ 1.322193344285424, 43.704178664671034 ], [ 1.324569, 43.704742 ], [ 1.327669, 43.701046 ], [ 1.334985, 43.70075 ], [ 1.339904, 43.698713 ], [ 1.342329647594322, 43.697169063042764 ], [ 1.342732, 43.697259 ], [ 1.344196123581428, 43.697219211669825 ], [ 1.342434, 43.694784 ], [ 1.334081, 43.697487 ], [ 1.331079, 43.695498 ], [ 1.325652729596377, 43.698527585233165 ], [ 1.323457, 43.699803 ], [ 1.319011, 43.703427 ], [ 1.317884, 43.703201 ], [ 1.317612, 43.703132 ], [ 1.317606, 43.70313 ], [ 1.315651, 43.702611 ], [ 1.315502439315568, 43.702450553304026 ], [ 1.309575, 43.700536 ], [ 1.306423, 43.700404 ], [ 1.304476, 43.699588 ], [ 1.303137, 43.698932 ], [ 1.30018, 43.697047 ], [ 1.299551, 43.696943 ], [ 1.296625, 43.696463 ], [ 1.296383, 43.696446 ], [ 1.292244898786813, 43.696051107962354 ], [ 1.291376341669349, 43.697281380852722 ], [ 1.291976, 43.697204 ], [ 1.295266, 43.696731 ], [ 1.302013, 43.700171 ], [ 1.30402, 43.70316 ], [ 1.305138, 43.702409 ], [ 1.309635577131808, 43.703421934861304 ], [ 1.312094, 43.706228 ], [ 1.314464, 43.708938 ] ] ], [ [ [ 1.25996313880762, 43.670302198293683 ], [ 1.260291, 43.670371 ], [ 1.268071, 43.667055 ], [ 1.268378, 43.666184 ], [ 1.263171, 43.668737 ], [ 1.262664, 43.668785 ], [ 1.261866, 43.66891 ], [ 1.25996313880762, 43.670302198293683 ] ] ], [ [ [ 1.242664666288266, 43.671020751306344 ], [ 1.249727, 43.674785 ], [ 1.253015, 43.673321 ], [ 1.257058, 43.671886 ], [ 1.250556, 43.671775 ], [ 1.250406, 43.671825 ], [ 1.248558667596919, 43.674162274722278 ], [ 1.242664666288266, 43.671020751306344 ] ] ], [ [ [ 1.348246396055453, 43.629573258298493 ], [ 1.34748240707745, 43.629996700228467 ], [ 1.347921, 43.63438 ], [ 1.347927597579905, 43.634471046602691 ], [ 1.347938, 43.634494 ], [ 1.348246396055453, 43.629573258298493 ] ] ], [ [ [ 1.347794534939504, 43.62746582856029 ], [ 1.34829049050478, 43.628869690948079 ], [ 1.348369, 43.627617 ], [ 1.348400438400206, 43.627051108796287 ], [ 1.3484, 43.627052 ], [ 1.347794534939504, 43.62746582856029 ] ] ], [ [ [ 1.372862850608807, 43.674336372043875 ], [ 1.370763588870075, 43.678736597535696 ], [ 1.374202, 43.675232 ], [ 1.376184, 43.672832 ], [ 1.380094699989898, 43.670407038223537 ], [ 1.375544, 43.67266 ], [ 1.374398, 43.673436 ], [ 1.372862850608807, 43.674336372043875 ] ] ], [ [ [ 1.376722, 43.623987 ], [ 1.373800226316355, 43.62830312115198 ], [ 1.374369, 43.628071 ], [ 1.377488634153637, 43.626309334589862 ], [ 1.378173459691691, 43.62575750501486 ], [ 1.379751, 43.623855 ], [ 1.380134, 43.623473 ], [ 1.383612, 43.620101 ], [ 1.383455304873289, 43.619923545853567 ], [ 1.382131, 43.621145 ], [ 1.376989, 43.623894 ], [ 1.376722, 43.623987 ] ] ] ] } },
{ "type": "Feature", "properties": { "codgeo": "31150", "value": 840, "isochrone_group": 14.0, "nb_agences": 2 }, "geometry": { "type": "MultiPolygon", "coordinates": [ [ [ [ 1.237554, 43.661544 ], [ 1.239343, 43.6636 ], [ 1.240681, 43.666403 ], [ 1.238951, 43.660409 ], [ 1.238919, 43.660369 ], [ 1.237557, 43.659744 ], [ 1.237056, 43.659743 ], [ 1.236824413376785, 43.66041075319788 ], [ 1.237554, 43.661544 ] ] ], [ [ [ 1.249184334197544, 43.673370671257857 ], [ 1.247123624945256, 43.673397391944519 ], [ 1.248558667596919, 43.674162274722278 ], [ 1.249184334197544, 43.673370671257857 ] ] ], [ [ [ 1.362540896595759, 43.688566930555766 ], [ 1.364779445288965, 43.684226018641176 ], [ 1.36448, 43.684473 ], [ 1.362540896595759, 43.688566930555766 ] ] ], [ [ [ 1.361955973299916, 43.689801849409683 ], [ 1.361136, 43.693147 ], [ 1.36145525694725, 43.693528012655641 ], [ 1.361984640483919, 43.689741325839719 ], [ 1.361955973299916, 43.689801849409683 ] ] ], [ [ [ 1.310926, 43.711122 ], [ 1.312605771997239, 43.711845965355408 ], [ 1.318382, 43.708691 ], [ 1.326505, 43.705201 ], [ 1.327333, 43.705389 ], [ 1.327333141560125, 43.705388842239834 ], [ 1.329644, 43.705913 ], [ 1.329973086513208, 43.705990632999658 ], [ 1.330799, 43.702487 ], [ 1.333910715208161, 43.700793464775614 ], [ 1.327669, 43.701046 ], [ 1.324569, 43.704742 ], [ 1.324493629192575, 43.704724127444514 ], [ 1.316073219999586, 43.707618176603376 ], [ 1.316041, 43.707638 ], [ 1.314606, 43.708813 ], [ 1.314464, 43.708938 ], [ 1.312094, 43.706228 ], [ 1.31205609072309, 43.706184730023253 ], [ 1.303677, 43.704022 ], [ 1.303346318940269, 43.706291811690107 ], [ 1.305782856575837, 43.708074747622639 ], [ 1.306427643246363, 43.708411584934566 ], [ 1.306526457280751, 43.708618877291279 ], [ 1.308679, 43.710194 ], [ 1.309963, 43.710593 ], [ 1.310926, 43.711122 ] ] ], [ [ [ 1.275704430326849, 43.709753006301753 ], [ 1.274720110583775, 43.709657260558444 ], [ 1.275689781496196, 43.709822907651372 ], [ 1.275704430326849, 43.709753006301753 ] ] ] ] } },
{ "type": "Feature", "properties": { "codgeo": "31150", "value": 900, "isochrone_group": 15.0, "nb_agences": 2 }, "geometry": { "type": "MultiPolygon", "coordinates": [ [ [ [ 1.233548, 43.635899 ], [ 1.231857111044985, 43.637063449883328 ], [ 1.235244662070273, 43.636180688809908 ], [ 1.233548, 43.635899 ] ] ], [ [ [ 1.23026690607332, 43.638158394454472 ], [ 1.230252300984312, 43.638168448602151 ], [ 1.230235933497726, 43.638179715984876 ], [ 1.230202839236365, 43.638202498084446 ], [ 1.23019163406271, 43.638210211729394 ], [ 1.230162964224971, 43.638229948054374 ], [ 1.230163, 43.63823 ], [ 1.230268619282495, 43.638157215080732 ], [ 1.23026690607332, 43.638158394454472 ] ] ], [ [ [ 1.260887, 43.648016 ], [ 1.259295755057004, 43.64819785656492 ], [ 1.259296, 43.648198 ], [ 1.260887084859796, 43.648016138429661 ], [ 1.260887, 43.648016 ] ] ], [ [ [ 1.243319, 43.669315 ], [ 1.243142, 43.669069 ], [ 1.241486, 43.668596 ], [ 1.241345946654934, 43.668640562427974 ], [ 1.241859, 43.670367 ], [ 1.242046, 43.670691 ], [ 1.247123624945253, 43.673397391944519 ], [ 1.248086812697542, 43.673384902536768 ], [ 1.243319, 43.669315 ] ] ], [ [ [ 1.364889589708332, 43.696592749206523 ], [ 1.361466152586651, 43.693450076015743 ], [ 1.361422273409225, 43.693763944300521 ], [ 1.364089, 43.697514 ], [ 1.364889589708332, 43.696592749206523 ] ] ] ] } },
{ "type": "Feature", "properties": { "codgeo": "31150", "value": 960, "isochrone_group": 16.0, "nb_agences": 2 }, "geometry": { "type": "MultiPolygon", "coordinates": [ [ [ [ 1.230187, 43.638214 ], [ 1.23086259632739, 43.637748321102919 ], [ 1.230854745317678, 43.637753725740367 ], [ 1.230849153575416, 43.637757575097439 ], [ 1.230778722041989, 43.637806060186414 ], [ 1.230268619279252, 43.638157215082977 ], [ 1.230268619277642, 43.638157215084064 ], [ 1.230186748260822, 43.638213634472734 ], [ 1.230187, 43.638214 ] ] ], [ [ [ 1.261239935598742, 43.647975807463595 ], [ 1.260660056752994, 43.64804208782374 ], [ 1.265389, 43.65536 ], [ 1.26124, 43.647976 ], [ 1.261239935598742, 43.647975807463595 ] ] ], [ [ [ 1.223485826735999, 43.666342401866913 ], [ 1.223557567257122, 43.66612096002715 ], [ 1.223006452884994, 43.666781568625055 ], [ 1.223485826735999, 43.666342401866913 ] ] ], [ [ [ 1.372111957256938, 43.675818372312889 ], [ 1.371455, 43.676691 ], [ 1.370579315909085, 43.677701434335724 ], [ 1.369298868833643, 43.679768500198733 ], [ 1.368229, 43.681798 ], [ 1.368189173896117, 43.681896314681573 ], [ 1.368713836941559, 43.682390518214142 ], [ 1.369521, 43.681499 ], [ 1.369713, 43.681096 ], [ 1.369919, 43.680479 ], [ 1.372111957256938, 43.675818372312889 ] ] ], [ [ [ 1.340335588751198, 43.713625516714671 ], [ 1.342717, 43.712277 ], [ 1.348123, 43.70785 ], [ 1.348535605968325, 43.707193559113421 ], [ 1.348063, 43.70738 ], [ 1.346758, 43.707885 ], [ 1.340966, 43.711129 ], [ 1.340335588751198, 43.713625516714671 ] ] ] ] } },
{ "type": "Feature", "properties": { "codgeo": "31150", "value": 1020, "isochrone_group": 17.0, "nb_agences": 2 }, "geometry": { "type": "MultiPolygon", "coordinates": [ [ [ [ 1.377432898360225, 43.672758797564775 ], [ 1.37462, 43.675233 ], [ 1.374424, 43.675236 ], [ 1.374625, 43.675233 ], [ 1.377435867827074, 43.672764155608021 ], [ 1.377432898360225, 43.672758797564775 ] ] ], [ [ [ 1.186194454803699, 43.712828128395572 ], [ 1.189275043946564, 43.713766206187579 ], [ 1.187214, 43.711964 ], [ 1.186194454803699, 43.712828128395572 ] ] ] ] } }
]
}
