{
"type": "FeatureCollection",
"name": "BPCE",
"crs": { "type": "name", "properties": { "name": "urn:ogc:def:crs:OGC:1.3:CRS84" } },
"features": [
{ "type": "Feature", "properties": { "codgeo": "34108", "value": 60, "isochrone_group": 1.0, "nb_agences": 4 }, "geometry": { "type": "MultiPolygon", "coordinates": [ [ [ [ 3.733674, 43.433936 ], [ 3.733769, 43.434017 ], [ 3.734083, 43.434229 ], [ 3.73422, 43.434295 ], [ 3.737315, 43.434874 ], [ 3.73753, 43.434585 ], [ 3.735832, 43.432027 ], [ 3.735637, 43.431724 ], [ 3.732652, 43.430957 ], [ 3.732436, 43.431245 ], [ 3.732956, 43.433255 ], [ 3.733674, 43.433936 ] ] ], [ [ [ 3.759433, 43.44719 ], [ 3.759774, 43.44543 ], [ 3.759647, 43.445254 ], [ 3.758793, 43.444179 ], [ 3.758517, 43.444042 ], [ 3.757935, 43.44401 ], [ 3.756287781135065, 43.445062725079374 ], [ 3.754294, 43.445507 ], [ 3.75156, 43.444952 ], [ 3.751344, 43.44524 ], [ 3.750421, 43.448608 ], [ 3.750393, 43.448967 ], [ 3.751728, 43.449441 ], [ 3.754909938244559, 43.449318282466031 ], [ 3.756011, 43.44976 ], [ 3.757341, 43.450023 ], [ 3.757639, 43.449822 ], [ 3.757642373818782, 43.449649332774527 ], [ 3.759433, 43.44719 ] ] ] ] } },
{ "type": "Feature", "properties": { "codgeo": "34108", "value": 120, "isochrone_group": 2.0, "nb_agences": 4 }, "geometry": { "type": "MultiPolygon", "coordinates": [ [ [ [ 3.734675, 43.435549 ], [ 3.739825, 43.436656 ], [ 3.741123, 43.437888 ], [ 3.741789, 43.438172 ], [ 3.742006, 43.437885 ], [ 3.742188, 43.437356 ], [ 3.742001, 43.437049 ], [ 3.737755, 43.433823 ], [ 3.735782, 43.429946 ], [ 3.735769, 43.429937 ], [ 3.735448, 43.429781 ], [ 3.729721, 43.42843 ], [ 3.728988, 43.428257 ], [ 3.728772, 43.428545 ], [ 3.729925, 43.43323 ], [ 3.732024, 43.436022 ], [ 3.734675, 43.435549 ] ], [ [ 3.732956, 43.433255 ], [ 3.732436, 43.431245 ], [ 3.732652, 43.430957 ], [ 3.735637, 43.431724 ], [ 3.735832, 43.432027 ], [ 3.73753, 43.434585 ], [ 3.737315, 43.434874 ], [ 3.73422, 43.434295 ], [ 3.734083, 43.434229 ], [ 3.733769, 43.434017 ], [ 3.733674, 43.433936 ], [ 3.732956, 43.433255 ] ] ], [ [ [ 3.762576, 43.444684 ], [ 3.762556, 43.444324 ], [ 3.760042, 43.439151 ], [ 3.759719, 43.438993 ], [ 3.755858, 43.442681 ], [ 3.75170293523536, 43.443632496574971 ], [ 3.748212, 43.442489 ], [ 3.747908, 43.442683 ], [ 3.747927, 43.443772 ], [ 3.745203, 43.44858 ], [ 3.745229, 43.448939 ], [ 3.747684, 43.450174 ], [ 3.75177169942348, 43.450326570873848 ], [ 3.751867, 43.450366 ], [ 3.756255, 43.451957 ], [ 3.756595, 43.452074 ], [ 3.75947, 43.452805 ], [ 3.759812, 43.452691 ], [ 3.759885, 43.452481 ], [ 3.759888272250873, 43.45240894085844 ], [ 3.760695, 43.449929 ], [ 3.762576, 43.444684 ] ], [ [ 3.757642373818782, 43.449649332774527 ], [ 3.757639, 43.449822 ], [ 3.757341, 43.450023 ], [ 3.756011, 43.44976 ], [ 3.754909938244559, 43.449318282466031 ], [ 3.751728, 43.449441 ], [ 3.750393, 43.448967 ], [ 3.750421, 43.448608 ], [ 3.751344, 43.44524 ], [ 3.75156, 43.444952 ], [ 3.754294, 43.445507 ], [ 3.756287781135065, 43.445062725079374 ], [ 3.757935, 43.44401 ], [ 3.758517, 43.444042 ], [ 3.758793, 43.444179 ], [ 3.759647, 43.445254 ], [ 3.759774, 43.44543 ], [ 3.759433, 43.44719 ], [ 3.757642373818782, 43.449649332774527 ] ] ] ] } },
{ "type": "Feature", "properties": { "codgeo": "34108", "value": 180, "isochrone_group": 3.0, "nb_agences": 4 }, "geometry": { "type": "Polygon", "coordinates": [ [ [ 3.735355, 43.428347 ], [ 3.735165, 43.428209 ], [ 3.733248, 43.427576 ], [ 3.73168, 43.427048 ], [ 3.72641, 43.426157 ], [ 3.725717, 43.42616 ], [ 3.725626, 43.426509 ], [ 3.726022, 43.428683 ], [ 3.726059, 43.428819 ], [ 3.727578, 43.434566 ], [ 3.727735, 43.43489 ], [ 3.728132, 43.435474 ], [ 3.731268, 43.436175 ], [ 3.739179, 43.438764 ], [ 3.741375, 43.440276 ], [ 3.744331713554822, 43.441546069844712 ], [ 3.744841, 43.443642 ], [ 3.741992, 43.448655 ], [ 3.741658, 43.449386 ], [ 3.741737, 43.449737 ], [ 3.745749, 43.451213 ], [ 3.751741, 43.452668 ], [ 3.753209420359532, 43.452968659940609 ], [ 3.756218, 43.454254 ], [ 3.762843, 43.457879 ], [ 3.763111, 43.457638 ], [ 3.763422, 43.457169 ], [ 3.763414814499264, 43.45702568917978 ], [ 3.764671, 43.453014 ], [ 3.765156984583915, 43.445001436165363 ], [ 3.765277, 43.44443 ], [ 3.76493382660996, 43.443739184331505 ], [ 3.762884, 43.43672 ], [ 3.762708, 43.436405 ], [ 3.756465, 43.432536 ], [ 3.756193, 43.432772 ], [ 3.754341989192995, 43.440781900112796 ], [ 3.748899, 43.440979 ], [ 3.74885, 43.440963 ], [ 3.748497, 43.440863 ], [ 3.746866961555853, 43.440473676287333 ], [ 3.744159, 43.435524 ], [ 3.737292, 43.430066 ], [ 3.735355, 43.428347 ] ], [ [ 3.729925, 43.43323 ], [ 3.728772, 43.428545 ], [ 3.728988, 43.428257 ], [ 3.729721, 43.42843 ], [ 3.735448, 43.429781 ], [ 3.735769, 43.429937 ], [ 3.735782, 43.429946 ], [ 3.737755, 43.433823 ], [ 3.742001, 43.437049 ], [ 3.742188, 43.437356 ], [ 3.742006, 43.437885 ], [ 3.741789, 43.438172 ], [ 3.741123, 43.437888 ], [ 3.739825, 43.436656 ], [ 3.734675, 43.435549 ], [ 3.732024, 43.436022 ], [ 3.729925, 43.43323 ] ], [ [ 3.759888272250873, 43.45240894085844 ], [ 3.759885, 43.452481 ], [ 3.759812, 43.452691 ], [ 3.75947, 43.452805 ], [ 3.756595, 43.452074 ], [ 3.756255, 43.451957 ], [ 3.751867, 43.450366 ], [ 3.75177169942348, 43.450326570873848 ], [ 3.747684, 43.450174 ], [ 3.745229, 43.448939 ], [ 3.745203, 43.44858 ], [ 3.747927, 43.443772 ], [ 3.747908, 43.442683 ], [ 3.748212, 43.442489 ], [ 3.75170293523536, 43.443632496574971 ], [ 3.755858, 43.442681 ], [ 3.759719, 43.438993 ], [ 3.760042, 43.439151 ], [ 3.762556, 43.444324 ], [ 3.762576, 43.444684 ], [ 3.760695, 43.449929 ], [ 3.759888272250873, 43.45240894085844 ] ] ] } },
{ "type": "Feature", "properties": { "codgeo": "34108", "value": 240, "isochrone_group": 4.0, "nb_agences": 4 }, "geometry": { "type": "MultiPolygon", "coordinates": [ [ [ [ 3.743035, 43.433477 ], [ 3.742322, 43.432876 ], [ 3.737292, 43.430066 ], [ 3.744159, 43.435524 ], [ 3.746866961555853, 43.440473676287333 ], [ 3.748497, 43.440863 ], [ 3.74885, 43.440963 ], [ 3.748899, 43.440979 ], [ 3.754341989192995, 43.440781900112796 ], [ 3.756193, 43.432772 ], [ 3.756465, 43.432536 ], [ 3.762708, 43.436405 ], [ 3.762884, 43.43672 ], [ 3.76493382660996, 43.443739184331505 ], [ 3.765277, 43.44443 ], [ 3.765156984583915, 43.445001436165363 ], [ 3.764671, 43.453014 ], [ 3.763414814499264, 43.45702568917978 ], [ 3.763422, 43.457169 ], [ 3.763111, 43.457638 ], [ 3.762843, 43.457879 ], [ 3.756218, 43.454254 ], [ 3.753209420359532, 43.452968659940609 ], [ 3.751741, 43.452668 ], [ 3.745749, 43.451213 ], [ 3.741737, 43.449737 ], [ 3.741658, 43.449386 ], [ 3.741992, 43.448655 ], [ 3.744841, 43.443642 ], [ 3.744331713554822, 43.441546069844712 ], [ 3.741375, 43.440276 ], [ 3.739179, 43.438764 ], [ 3.731268, 43.436175 ], [ 3.738203, 43.439436 ], [ 3.739248, 43.441816 ], [ 3.739583, 43.441947 ], [ 3.740106064422699, 43.44215788165274 ], [ 3.736659, 43.447905 ], [ 3.735197, 43.447781 ], [ 3.734935, 43.447785 ], [ 3.734654, 43.447791 ], [ 3.734289, 43.447834 ], [ 3.733924, 43.447877 ], [ 3.733966, 43.448234 ], [ 3.735732, 43.45216 ], [ 3.736369, 43.451901 ], [ 3.737485, 43.451526 ], [ 3.744926, 43.452834 ], [ 3.746981, 43.455572 ], [ 3.749976, 43.455362 ], [ 3.754031761759259, 43.455366118918498 ], [ 3.754949, 43.455723 ], [ 3.755066, 43.45577 ], [ 3.755107, 43.455784 ], [ 3.762356, 43.459133 ], [ 3.765084, 43.461546 ], [ 3.765663, 43.462136 ], [ 3.765988, 43.461981 ], [ 3.765798687823324, 43.460984940061266 ], [ 3.765646, 43.457505 ], [ 3.765419, 43.456152 ], [ 3.766114, 43.447323 ], [ 3.76624, 43.446986 ], [ 3.766599, 43.442342 ], [ 3.769393, 43.435724 ], [ 3.769375, 43.435365 ], [ 3.767332, 43.435467 ], [ 3.760235, 43.433103 ], [ 3.753232, 43.42863 ], [ 3.752587, 43.427986 ], [ 3.751973, 43.427415 ], [ 3.751738913979211, 43.427197849463035 ], [ 3.751398, 43.426881 ], [ 3.751397115065251, 43.426880778766304 ], [ 3.751351, 43.426838 ], [ 3.751044, 43.426586 ], [ 3.750732, 43.42633 ], [ 3.7504, 43.426077 ], [ 3.750056, 43.425817 ], [ 3.749835, 43.425674 ], [ 3.749406, 43.425984 ], [ 3.749392, 43.426099 ], [ 3.749437, 43.426258 ], [ 3.749527, 43.426356 ], [ 3.750022, 43.426598 ], [ 3.751058248226447, 43.427250526607416 ], [ 3.751143, 43.42732 ], [ 3.751437, 43.427561 ], [ 3.751899, 43.427913 ], [ 3.752977, 43.428885 ], [ 3.752087, 43.437219 ], [ 3.751523444383441, 43.43736076349667 ], [ 3.747563196697662, 43.437887625716485 ], [ 3.743919, 43.434239 ], [ 3.743748, 43.434079 ], [ 3.743035, 43.433477 ] ] ], [ [ [ 3.734863, 43.42661 ], [ 3.734569, 43.426403 ], [ 3.733411, 43.425922 ], [ 3.733165, 43.425842 ], [ 3.732997, 43.425799 ], [ 3.724702, 43.423733 ], [ 3.722895, 43.424134 ], [ 3.722785, 43.424477 ], [ 3.722602, 43.432776 ], [ 3.722879, 43.433006 ], [ 3.727674, 43.435759 ], [ 3.731268, 43.436175 ], [ 3.728132, 43.435474 ], [ 3.727735, 43.43489 ], [ 3.727578, 43.434566 ], [ 3.726059, 43.428819 ], [ 3.726022, 43.428683 ], [ 3.725626, 43.426509 ], [ 3.725717, 43.42616 ], [ 3.72641, 43.426157 ], [ 3.73168, 43.427048 ], [ 3.733248, 43.427576 ], [ 3.735165, 43.428209 ], [ 3.735355, 43.428347 ], [ 3.737292, 43.430066 ], [ 3.734863, 43.42661 ] ] ] ] } },
{ "type": "Feature", "properties": { "codgeo": "34108", "value": 300, "isochrone_group": 5.0, "nb_agences": 4 }, "geometry": { "type": "Polygon", "coordinates": [ [ [ 3.730107, 43.423954 ], [ 3.724067, 43.421279 ], [ 3.72373, 43.421154 ], [ 3.716716, 43.422462 ], [ 3.716534, 43.422497 ], [ 3.716353, 43.422532 ], [ 3.716421, 43.422885 ], [ 3.7205, 43.429599 ], [ 3.719133, 43.43423 ], [ 3.718821, 43.435358 ], [ 3.717926, 43.43879 ], [ 3.718262, 43.43892 ], [ 3.72354, 43.436084 ], [ 3.727674, 43.435759 ], [ 3.732528, 43.438924 ], [ 3.734778, 43.442611 ], [ 3.734864510860479, 43.442699923513956 ], [ 3.731209, 43.446121 ], [ 3.730751, 43.446134 ], [ 3.727752, 43.445545 ], [ 3.724032, 43.445962 ], [ 3.723631, 43.445965 ], [ 3.723197, 43.446003 ], [ 3.722594, 43.446102 ], [ 3.723177, 43.449655 ], [ 3.729813, 43.454683 ], [ 3.731129, 43.455333 ], [ 3.734974, 43.45622 ], [ 3.743119, 43.459125 ], [ 3.745257, 43.459618 ], [ 3.747007351363067, 43.458149844378291 ], [ 3.753041, 43.457644 ], [ 3.755957, 43.458757 ], [ 3.762317094053485, 43.463412967754522 ], [ 3.764496, 43.46652 ], [ 3.765041, 43.467238 ], [ 3.765639, 43.467621 ], [ 3.766161, 43.46777 ], [ 3.766554, 43.4678 ], [ 3.766851378261523, 43.467763660497589 ], [ 3.767584, 43.468025 ], [ 3.767662, 43.468 ], [ 3.768568, 43.467658 ], [ 3.768719, 43.467179 ], [ 3.769533, 43.460062 ], [ 3.769043544492669, 43.457389185164097 ], [ 3.769644851877554, 43.451031779120243 ], [ 3.769953, 43.450512 ], [ 3.77123, 43.447146 ], [ 3.768530385741238, 43.442328145795848 ], [ 3.770242667402528, 43.440086117104883 ], [ 3.774264, 43.437053 ], [ 3.774683, 43.437046 ], [ 3.776019, 43.435051 ], [ 3.776011, 43.434982 ], [ 3.774615, 43.433446 ], [ 3.771614, 43.430728 ], [ 3.770979, 43.43049 ], [ 3.770041, 43.430168 ], [ 3.761916, 43.428036 ], [ 3.761633, 43.428046 ], [ 3.759481, 43.428099 ], [ 3.752737, 43.424852 ], [ 3.752398, 43.42451 ], [ 3.751359981579748, 43.423877335051316 ], [ 3.751205, 43.423683 ], [ 3.751144, 43.423668 ], [ 3.750935297196601, 43.423618492897589 ], [ 3.750544, 43.42338 ], [ 3.742819974710953, 43.421070673053826 ], [ 3.7413, 43.420577 ], [ 3.741299936691189, 43.420577194761343 ], [ 3.74001, 43.420158 ], [ 3.738897, 43.423582 ], [ 3.738118228299578, 43.426511514626242 ], [ 3.737307598276981, 43.427495237734874 ], [ 3.737307, 43.427406 ], [ 3.737185, 43.427269 ], [ 3.730107, 43.423954 ] ], [ [ 3.722879, 43.433006 ], [ 3.722602, 43.432776 ], [ 3.722785, 43.424477 ], [ 3.722895, 43.424134 ], [ 3.724702, 43.423733 ], [ 3.732997, 43.425799 ], [ 3.733165, 43.425842 ], [ 3.733411, 43.425922 ], [ 3.734569, 43.426403 ], [ 3.734863, 43.42661 ], [ 3.737292, 43.430066 ], [ 3.742322, 43.432876 ], [ 3.743035, 43.433477 ], [ 3.743748, 43.434079 ], [ 3.743919, 43.434239 ], [ 3.747563196697662, 43.437887625716485 ], [ 3.751523444383441, 43.43736076349667 ], [ 3.752087, 43.437219 ], [ 3.752977, 43.428885 ], [ 3.751899, 43.427913 ], [ 3.751437, 43.427561 ], [ 3.751143, 43.42732 ], [ 3.751058248226447, 43.427250526607416 ], [ 3.750022, 43.426598 ], [ 3.749527, 43.426356 ], [ 3.749437, 43.426258 ], [ 3.749392, 43.426099 ], [ 3.749406, 43.425984 ], [ 3.749835, 43.425674 ], [ 3.750056, 43.425817 ], [ 3.7504, 43.426077 ], [ 3.750732, 43.42633 ], [ 3.751044, 43.426586 ], [ 3.751351, 43.426838 ], [ 3.751397115065251, 43.426880778766304 ], [ 3.751398, 43.426881 ], [ 3.751738913979211, 43.427197849463035 ], [ 3.751973, 43.427415 ], [ 3.752587, 43.427986 ], [ 3.753232, 43.42863 ], [ 3.760235, 43.433103 ], [ 3.767332, 43.435467 ], [ 3.769375, 43.435365 ], [ 3.769393, 43.435724 ], [ 3.766599, 43.442342 ], [ 3.76624, 43.446986 ], [ 3.766114, 43.447323 ], [ 3.765419, 43.456152 ], [ 3.765646, 43.457505 ], [ 3.765798687823324, 43.460984940061266 ], [ 3.765988, 43.461981 ], [ 3.765663, 43.462136 ], [ 3.765084, 43.461546 ], [ 3.762356, 43.459133 ], [ 3.755107, 43.455784 ], [ 3.755066, 43.45577 ], [ 3.754949, 43.455723 ], [ 3.754031761759259, 43.455366118918498 ], [ 3.749976, 43.455362 ], [ 3.746981, 43.455572 ], [ 3.744926, 43.452834 ], [ 3.737485, 43.451526 ], [ 3.736369, 43.451901 ], [ 3.735732, 43.45216 ], [ 3.733966, 43.448234 ], [ 3.733924, 43.447877 ], [ 3.734289, 43.447834 ], [ 3.734654, 43.447791 ], [ 3.734935, 43.447785 ], [ 3.735197, 43.447781 ], [ 3.736659, 43.447905 ], [ 3.740106064422699, 43.44215788165274 ], [ 3.739583, 43.441947 ], [ 3.739248, 43.441816 ], [ 3.738203, 43.439436 ], [ 3.731268, 43.436175 ], [ 3.727674, 43.435759 ], [ 3.722879, 43.433006 ] ] ] } },
{ "type": "Feature", "properties": { "codgeo": "34108", "value": 360, "isochrone_group": 6.0, "nb_agences": 4 }, "geometry": { "type": "MultiPolygon", "coordinates": [ [ [ [ 3.722526, 43.417012 ], [ 3.71874, 43.420322 ], [ 3.710455, 43.422996 ], [ 3.709977, 43.423032 ], [ 3.709499, 43.423069 ], [ 3.709456, 43.423491 ], [ 3.709652, 43.423793 ], [ 3.717222, 43.428466 ], [ 3.717784, 43.436749 ], [ 3.717654, 43.437162 ], [ 3.717519, 43.437592 ], [ 3.717426, 43.438024 ], [ 3.717332, 43.43846 ], [ 3.714831, 43.44358 ], [ 3.713885, 43.444626 ], [ 3.71411, 43.444907 ], [ 3.714992, 43.444709 ], [ 3.719189, 43.443485 ], [ 3.719497, 43.4433 ], [ 3.726983, 43.439852 ], [ 3.728771739513895, 43.441473673253107 ], [ 3.726302, 43.443353 ], [ 3.72502, 43.443965 ], [ 3.721958, 43.446276 ], [ 3.716065, 43.445773 ], [ 3.714284, 43.445172 ], [ 3.713474, 43.44497 ], [ 3.713253494395143, 43.444923389059134 ], [ 3.713234, 43.445055 ], [ 3.713097475039945, 43.445280005945889 ], [ 3.712479, 43.448439 ], [ 3.716542, 43.452786 ], [ 3.7244, 43.456727 ], [ 3.726403, 43.45673 ], [ 3.727099, 43.456619 ], [ 3.729443, 43.456222 ], [ 3.72990677350254, 43.456034267719446 ], [ 3.735697214946706, 43.457041867362037 ], [ 3.739235, 43.46127 ], [ 3.740306, 43.462573 ], [ 3.740884, 43.463193 ], [ 3.740961, 43.463245 ], [ 3.744438, 43.463567 ], [ 3.744662, 43.463583 ], [ 3.745976, 43.462409 ], [ 3.752000754789578, 43.460240389890529 ], [ 3.758075477755072, 43.462962814542735 ], [ 3.759766, 43.464351 ], [ 3.764648, 43.469681 ], [ 3.765032, 43.470277 ], [ 3.767264, 43.473264 ], [ 3.767971, 43.473831 ], [ 3.770729, 43.471518 ], [ 3.770689, 43.467697 ], [ 3.770671125553888, 43.467160324179872 ], [ 3.77079, 43.460026 ], [ 3.770803, 43.459676 ], [ 3.770800480386815, 43.459552635862181 ], [ 3.770802, 43.459484 ], [ 3.770871, 43.45086 ], [ 3.772148, 43.447494 ], [ 3.768574058962803, 43.442270960919082 ], [ 3.768530385741238, 43.442328145795848 ], [ 3.77123, 43.447146 ], [ 3.769953, 43.450512 ], [ 3.769644851877554, 43.451031779120243 ], [ 3.769043544492669, 43.457389185164097 ], [ 3.769533, 43.460062 ], [ 3.768719, 43.467179 ], [ 3.768568, 43.467658 ], [ 3.767662, 43.468 ], [ 3.767584, 43.468025 ], [ 3.766851378261523, 43.467763660497589 ], [ 3.766554, 43.4678 ], [ 3.766161, 43.46777 ], [ 3.765639, 43.467621 ], [ 3.765041, 43.467238 ], [ 3.764496, 43.46652 ], [ 3.762317094053485, 43.463412967754522 ], [ 3.755957, 43.458757 ], [ 3.753041, 43.457644 ], [ 3.747007351363067, 43.458149844378291 ], [ 3.745257, 43.459618 ], [ 3.743119, 43.459125 ], [ 3.734974, 43.45622 ], [ 3.731129, 43.455333 ], [ 3.729813, 43.454683 ], [ 3.723177, 43.449655 ], [ 3.722594, 43.446102 ], [ 3.723197, 43.446003 ], [ 3.723631, 43.445965 ], [ 3.724032, 43.445962 ], [ 3.727752, 43.445545 ], [ 3.730751, 43.446134 ], [ 3.731209, 43.446121 ], [ 3.734864510860479, 43.442699923513956 ], [ 3.734778, 43.442611 ], [ 3.732528, 43.438924 ], [ 3.727674, 43.435759 ], [ 3.72354, 43.436084 ], [ 3.718262, 43.43892 ], [ 3.717926, 43.43879 ], [ 3.718821, 43.435358 ], [ 3.719133, 43.43423 ], [ 3.7205, 43.429599 ], [ 3.716421, 43.422885 ], [ 3.716353, 43.422532 ], [ 3.716534, 43.422497 ], [ 3.716716, 43.422462 ], [ 3.72373, 43.421154 ], [ 3.724067, 43.421279 ], [ 3.730107, 43.423954 ], [ 3.724335, 43.417138 ], [ 3.723981, 43.41707 ], [ 3.722526, 43.417012 ] ] ], [ [ [ 3.774468313495307, 43.437160998660957 ], [ 3.774769230399068, 43.437154961505783 ], [ 3.774781, 43.437156 ], [ 3.775995, 43.437168 ], [ 3.776003345003859, 43.437130202041345 ], [ 3.777278696545404, 43.437104615259521 ], [ 3.778254, 43.43747 ], [ 3.778256, 43.43747 ], [ 3.778659505931496, 43.437076912726234 ], [ 3.778705, 43.437076 ], [ 3.778746, 43.437055 ], [ 3.778724600836973, 43.437013498592925 ], [ 3.780115, 43.435659 ], [ 3.780129, 43.435593 ], [ 3.779621, 43.434399 ], [ 3.779036, 43.433516 ], [ 3.7743, 43.430951 ], [ 3.766433, 43.428022 ], [ 3.765778, 43.427853 ], [ 3.764764, 43.427786 ], [ 3.760938, 43.427136 ], [ 3.758657, 43.426461 ], [ 3.7529, 43.422521 ], [ 3.74489960233178, 43.421485119501327 ], [ 3.744718678041335, 43.421446678612725 ], [ 3.73861680099996, 43.41960739475789 ], [ 3.736279, 43.41879 ], [ 3.736278824476764, 43.418790471884769 ], [ 3.736073, 43.418714 ], [ 3.732906, 43.417658 ], [ 3.729749, 43.416605 ], [ 3.72891, 43.41632 ], [ 3.727751, 43.419728 ], [ 3.72859, 43.420014 ], [ 3.729211, 43.420221 ], [ 3.730190921918738, 43.423993305052363 ], [ 3.737185, 43.427269 ], [ 3.737307, 43.427406 ], [ 3.737307598276981, 43.427495237734874 ], [ 3.738118228299578, 43.426511514626242 ], [ 3.738897, 43.423582 ], [ 3.74001, 43.420158 ], [ 3.741299936691189, 43.420577194761343 ], [ 3.7413, 43.420577 ], [ 3.742819974710953, 43.421070673053826 ], [ 3.750544, 43.42338 ], [ 3.750935297196601, 43.423618492897589 ], [ 3.751144, 43.423668 ], [ 3.751205, 43.423683 ], [ 3.751359981579748, 43.423877335051316 ], [ 3.752398, 43.42451 ], [ 3.752737, 43.424852 ], [ 3.759481, 43.428099 ], [ 3.761633, 43.428046 ], [ 3.761916, 43.428036 ], [ 3.770041, 43.430168 ], [ 3.770979, 43.43049 ], [ 3.771614, 43.430728 ], [ 3.774615, 43.433446 ], [ 3.776011, 43.434982 ], [ 3.776019, 43.435051 ], [ 3.774683, 43.437046 ], [ 3.774264, 43.437053 ], [ 3.770242667402528, 43.440086117104883 ], [ 3.770097449461749, 43.44027626268489 ], [ 3.774468313495307, 43.437160998660957 ] ] ] ] } },
{ "type": "Feature", "properties": { "codgeo": "34108", "value": 420, "isochrone_group": 7.0, "nb_agences": 4 }, "geometry": { "type": "MultiPolygon", "coordinates": [ [ [ [ 3.711912933020061, 43.422525449258202 ], [ 3.71874, 43.420322 ], [ 3.720494533094486, 43.418788057965465 ], [ 3.717352, 43.418586 ], [ 3.712863, 43.42118 ], [ 3.711898119189627, 43.422349449180075 ], [ 3.711912933020061, 43.422525449258202 ] ] ], [ [ [ 3.723981, 43.41707 ], [ 3.724335, 43.417138 ], [ 3.730107, 43.423954 ], [ 3.730193224677738, 43.42400216974788 ], [ 3.729211, 43.420221 ], [ 3.72859, 43.420014 ], [ 3.727751, 43.419728 ], [ 3.72891, 43.41632 ], [ 3.729749, 43.416605 ], [ 3.732906, 43.417658 ], [ 3.736073, 43.418714 ], [ 3.733963790210083, 43.418010708071307 ], [ 3.726259, 43.415167 ], [ 3.717551, 43.41294 ], [ 3.717526, 43.412928 ], [ 3.717138291685179, 43.412946820791987 ], [ 3.719518, 43.414256 ], [ 3.722828, 43.415293 ], [ 3.723501, 43.415582 ], [ 3.72349347482929, 43.417050566006928 ], [ 3.723981, 43.41707 ] ] ], [ [ [ 3.714589202802312, 43.426840760725916 ], [ 3.711947086394916, 43.42520976865567 ], [ 3.710689957490557, 43.428075129095667 ], [ 3.714589202802312, 43.426840760725916 ] ] ], [ [ [ 3.716878, 43.434807 ], [ 3.71657, 43.435438 ], [ 3.71624, 43.43626 ], [ 3.716233221199902, 43.436282069995045 ], [ 3.717777190371335, 43.436770633666427 ], [ 3.717784, 43.436749 ], [ 3.717222, 43.428466 ], [ 3.714935983888612, 43.427054830477083 ], [ 3.717285, 43.434075 ], [ 3.716878, 43.434807 ] ] ], [ [ [ 3.721958, 43.446276 ], [ 3.72502, 43.443965 ], [ 3.726302, 43.443353 ], [ 3.728771739513895, 43.441473673253107 ], [ 3.726983, 43.439852 ], [ 3.72002532642126, 43.443056656492054 ], [ 3.7205857465337, 43.446158870610283 ], [ 3.721958, 43.446276 ] ] ], [ [ [ 3.709870460426591, 43.450423056334287 ], [ 3.709337691340645, 43.450970685338248 ], [ 3.714179943083618, 43.452157671549351 ], [ 3.716386, 43.454631 ], [ 3.716655, 43.454884 ], [ 3.717386, 43.455521 ], [ 3.718271336328228, 43.455846879116557 ], [ 3.719521, 43.458138 ], [ 3.720802, 43.459888 ], [ 3.722582, 43.461735 ], [ 3.725977, 43.461145 ], [ 3.727393, 43.460513 ], [ 3.73584, 43.460527 ], [ 3.737623, 43.461254 ], [ 3.740690146826128, 43.462985060609348 ], [ 3.740306, 43.462573 ], [ 3.739235, 43.46127 ], [ 3.735697214946706, 43.457041867362037 ], [ 3.72990677350254, 43.456034267719446 ], [ 3.729443, 43.456222 ], [ 3.727099, 43.456619 ], [ 3.726403, 43.45673 ], [ 3.7244, 43.456727 ], [ 3.716542, 43.452786 ], [ 3.715197170637449, 43.451347168289672 ], [ 3.713906, 43.451572 ], [ 3.709870460426591, 43.450423056334287 ] ] ], [ [ [ 3.745658, 43.46673 ], [ 3.745743, 43.466828 ], [ 3.748703, 43.464942 ], [ 3.752820747910426, 43.464128585113443 ], [ 3.756118, 43.465337 ], [ 3.757853, 43.468492 ], [ 3.763925, 43.474234 ], [ 3.763601, 43.476121 ], [ 3.763746, 43.476651 ], [ 3.765115, 43.477631 ], [ 3.771011, 43.482398 ], [ 3.773516, 43.483818 ], [ 3.773537, 43.48381 ], [ 3.773537605446657, 43.483809215367842 ], [ 3.773607, 43.483781 ], [ 3.774598, 43.48271 ], [ 3.774624838278636, 43.482400209583759 ], [ 3.774625, 43.4824 ], [ 3.774633, 43.482306 ], [ 3.77429, 43.479535 ], [ 3.777094, 43.472919 ], [ 3.777658, 43.469363 ], [ 3.773216904759823, 43.465985559750173 ], [ 3.772120642728052, 43.461698436999249 ], [ 3.772183, 43.461229 ], [ 3.772532, 43.457646 ], [ 3.774275, 43.452116 ], [ 3.775537, 43.448744 ], [ 3.773694, 43.448055 ], [ 3.773591646076212, 43.448017979874045 ], [ 3.773592, 43.448017 ], [ 3.772248, 43.447532 ], [ 3.768156, 43.44166 ], [ 3.772148, 43.447494 ], [ 3.770871, 43.45086 ], [ 3.770802, 43.459484 ], [ 3.770800480386815, 43.459552635862181 ], [ 3.770803, 43.459676 ], [ 3.77079, 43.460026 ], [ 3.770671125553888, 43.467160324179872 ], [ 3.770689, 43.467697 ], [ 3.770729, 43.471518 ], [ 3.767971, 43.473831 ], [ 3.767264, 43.473264 ], [ 3.765032, 43.470277 ], [ 3.764648, 43.469681 ], [ 3.759766, 43.464351 ], [ 3.758075477755072, 43.462962814542735 ], [ 3.752000754789578, 43.460240389890529 ], [ 3.745976, 43.462409 ], [ 3.744662, 43.463583 ], [ 3.744438, 43.463567 ], [ 3.741187955954518, 43.463266018066548 ], [ 3.743547029457954, 43.464597450647958 ], [ 3.745658, 43.46673 ] ] ], [ [ [ 3.77744, 43.437536 ], [ 3.779658420793732, 43.438308102329387 ], [ 3.779916, 43.438428 ], [ 3.780518897644725, 43.438708834648914 ], [ 3.78165, 43.439236 ], [ 3.781650110480483, 43.439235762830386 ], [ 3.782168, 43.439477 ], [ 3.78524, 43.440893 ], [ 3.786040905068748, 43.441261906468839 ], [ 3.78667, 43.441552 ], [ 3.786670123501819, 43.44155173201662 ], [ 3.788312, 43.442308 ], [ 3.789819, 43.439039 ], [ 3.788176946546909, 43.43828211598646 ], [ 3.788177, 43.438282 ], [ 3.787621958897119, 43.438026301366619 ], [ 3.786747, 43.437623 ], [ 3.780994, 43.433216 ], [ 3.780453, 43.432894 ], [ 3.780414944234283, 43.432875498781755 ], [ 3.780379, 43.432847 ], [ 3.779927, 43.432563 ], [ 3.778913, 43.43209 ], [ 3.778704, 43.432002 ], [ 3.778556606572253, 43.43197204801659 ], [ 3.778213, 43.431805 ], [ 3.777767, 43.43167 ], [ 3.775812361715439, 43.431310150273973 ], [ 3.775329, 43.430996 ], [ 3.773881043391748, 43.430795016282495 ], [ 3.7743, 43.430951 ], [ 3.779036, 43.433516 ], [ 3.779621, 43.434399 ], [ 3.780129, 43.435593 ], [ 3.780115, 43.435659 ], [ 3.778724600836973, 43.437013498592925 ], [ 3.778746, 43.437055 ], [ 3.778705, 43.437076 ], [ 3.778659505931496, 43.437076912726234 ], [ 3.778256, 43.43747 ], [ 3.778254, 43.43747 ], [ 3.777278696545404, 43.437104615259521 ], [ 3.776003345003859, 43.437130202041345 ], [ 3.775995, 43.437168 ], [ 3.774781, 43.437156 ], [ 3.774769230399068, 43.437154961505783 ], [ 3.774468313495307, 43.437160998660957 ], [ 3.774224118204279, 43.437335044982042 ], [ 3.776869, 43.437422 ], [ 3.77744, 43.437536 ] ] ], [ [ [ 3.7628, 43.427224 ], [ 3.757582138239971, 43.425725381564263 ], [ 3.758657, 43.426461 ], [ 3.760938, 43.427136 ], [ 3.763844713364018, 43.427629822186773 ], [ 3.762913, 43.427247 ], [ 3.7628, 43.427224 ] ] ], [ [ [ 3.752403784019339, 43.421646742478799 ], [ 3.752066, 43.421051 ], [ 3.751488, 43.419777 ], [ 3.745608, 43.420415 ], [ 3.74236770735001, 43.419983184573738 ], [ 3.736073, 43.418714 ], [ 3.736278824476764, 43.418790471884769 ], [ 3.736279, 43.41879 ], [ 3.73861680099996, 43.41960739475789 ], [ 3.744718678041335, 43.421446678612725 ], [ 3.74489960233178, 43.421485119501327 ], [ 3.752899477947989, 43.422520932405433 ], [ 3.752406, 43.421647 ], [ 3.752403784019339, 43.421646742478799 ] ] ] ] } },
{ "type": "Feature", "properties": { "codgeo": "34108", "value": 480, "isochrone_group": 8.0, "nb_agences": 4 }, "geometry": { "type": "MultiPolygon", "coordinates": [ [ [ [ 3.712265, 43.41039 ], [ 3.711205207221299, 43.409989248434947 ], [ 3.711971, 43.410347 ], [ 3.712935, 43.410752 ], [ 3.713108560297564, 43.410832114806027 ], [ 3.712265, 43.41039 ] ] ], [ [ [ 3.707538839379005, 43.453070175980208 ], [ 3.707974475235159, 43.453864562291386 ], [ 3.710673790529281, 43.452505168610813 ], [ 3.711276466755906, 43.45226387725851 ], [ 3.715646, 43.458987 ], [ 3.715502, 43.459421 ], [ 3.715562, 43.462369 ], [ 3.715589, 43.462553 ], [ 3.718108, 43.462527 ], [ 3.719214, 43.462548 ], [ 3.725285, 43.462691 ], [ 3.733401, 43.464906 ], [ 3.736952, 43.4655 ], [ 3.744612, 43.468744 ], [ 3.747872, 43.470271 ], [ 3.751525, 43.468717 ], [ 3.755773, 43.468372 ], [ 3.76126, 43.474733 ], [ 3.760188, 43.476826 ], [ 3.760406, 43.480419 ], [ 3.760421995569691, 43.480418926960859 ], [ 3.760422, 43.480419 ], [ 3.761282, 43.480415 ], [ 3.761876, 43.480421 ], [ 3.76239, 43.480368 ], [ 3.76315, 43.480165 ], [ 3.765062396037811, 43.480733077886853 ], [ 3.76963412840711, 43.483171335150473 ], [ 3.770566, 43.487538 ], [ 3.770589, 43.488415 ], [ 3.770812, 43.489219 ], [ 3.771217, 43.49002 ], [ 3.772301, 43.491727 ], [ 3.772983, 43.492784 ], [ 3.773279, 43.493221 ], [ 3.774763, 43.495461 ], [ 3.777782, 43.493499 ], [ 3.776066, 43.489652 ], [ 3.778511, 43.482964 ], [ 3.778504744643441, 43.482948664962016 ], [ 3.778505, 43.482948 ], [ 3.778434519593903, 43.482775370626968 ], [ 3.778439, 43.482765 ], [ 3.777804, 43.481015 ], [ 3.783136, 43.473872 ], [ 3.785522, 43.47413 ], [ 3.785526703360322, 43.474086503032055 ], [ 3.786193, 43.474192 ], [ 3.786805, 43.474163 ], [ 3.787321, 43.474059 ], [ 3.788148, 43.473822 ], [ 3.787156, 43.470361 ], [ 3.784602, 43.470137 ], [ 3.780997, 43.469819 ], [ 3.779843, 43.469648 ], [ 3.777657932775261, 43.469363423849614 ], [ 3.777094, 43.472919 ], [ 3.77429, 43.479535 ], [ 3.774633, 43.482306 ], [ 3.774625, 43.4824 ], [ 3.774624838278636, 43.482400209583759 ], [ 3.774598, 43.48271 ], [ 3.773607, 43.483781 ], [ 3.773537605446657, 43.483809215367842 ], [ 3.773537, 43.48381 ], [ 3.773516, 43.483818 ], [ 3.771011, 43.482398 ], [ 3.765115, 43.477631 ], [ 3.763746, 43.476651 ], [ 3.763601, 43.476121 ], [ 3.763925, 43.474234 ], [ 3.757853, 43.468492 ], [ 3.756118, 43.465337 ], [ 3.752820747910426, 43.464128585113443 ], [ 3.748703, 43.464942 ], [ 3.745743, 43.466828 ], [ 3.745658, 43.46673 ], [ 3.743547029457954, 43.464597450647958 ], [ 3.737623, 43.461254 ], [ 3.73584, 43.460527 ], [ 3.727393, 43.460513 ], [ 3.725977, 43.461145 ], [ 3.722582, 43.461735 ], [ 3.720802, 43.459888 ], [ 3.719521, 43.458138 ], [ 3.718271336328228, 43.455846879116557 ], [ 3.717386, 43.455521 ], [ 3.716655, 43.454884 ], [ 3.716386, 43.454631 ], [ 3.716307521997583, 43.454543014112289 ], [ 3.711298, 43.452223 ], [ 3.707538839379005, 43.453070175980208 ] ] ], [ [ [ 3.776611, 43.458998 ], [ 3.776381, 43.452958 ], [ 3.777722, 43.449618 ], [ 3.777625845019748, 43.449579385833843 ], [ 3.777626, 43.449579 ], [ 3.7757, 43.448806 ], [ 3.775642782968275, 43.448784579266785 ], [ 3.775643, 43.448784 ], [ 3.775536884446208, 43.448744308753867 ], [ 3.774275, 43.452116 ], [ 3.772532, 43.457646 ], [ 3.772183, 43.461229 ], [ 3.772120642728052, 43.461698436999249 ], [ 3.773216904759823, 43.465985559750173 ], [ 3.777642325419087, 43.469351079525978 ], [ 3.77444, 43.46187 ], [ 3.776611, 43.458998 ] ] ], [ [ [ 3.773591646076212, 43.448017979874045 ], [ 3.773694, 43.448055 ], [ 3.773591646076214, 43.448017979874045 ], [ 3.773591646076212, 43.448017979874045 ] ] ], [ [ [ 3.785598085886207, 43.441057938648775 ], [ 3.78524, 43.440893 ], [ 3.782168, 43.439477 ], [ 3.785409, 43.440971 ], [ 3.785598085886207, 43.441057938648775 ] ] ], [ [ [ 3.79045, 43.443293 ], [ 3.791358, 43.443303 ], [ 3.792129, 43.443354 ], [ 3.793536, 43.443203 ], [ 3.793821, 43.442961 ], [ 3.793872, 43.440204 ], [ 3.791829, 43.438205 ], [ 3.786916283415043, 43.437701029074127 ], [ 3.787621958897119, 43.438026301366619 ], [ 3.788177, 43.438282 ], [ 3.788176946546909, 43.43828211598646 ], [ 3.789819, 43.439039 ], [ 3.788312854813166, 43.442306145730427 ], [ 3.788741, 43.442503 ], [ 3.79045, 43.443293 ] ] ], [ [ [ 3.783019, 43.434021 ], [ 3.782642130626431, 43.433976308746985 ], [ 3.782519, 43.433869 ], [ 3.782068, 43.433732 ], [ 3.781827125365471, 43.433711711865442 ], [ 3.781691, 43.433605 ], [ 3.781098001193371, 43.433295668565819 ], [ 3.786747, 43.437623 ], [ 3.786915809541766, 43.437700810648181 ], [ 3.783301, 43.434107 ], [ 3.783019, 43.434021 ] ] ], [ [ [ 3.736073, 43.418714 ], [ 3.74236770735001, 43.419983184573738 ], [ 3.745608, 43.420415 ], [ 3.745686415280058, 43.420406491675415 ], [ 3.74448, 43.419668 ], [ 3.736073, 43.418714 ] ] ], [ [ [ 3.725355, 43.414682 ], [ 3.724738, 43.414639 ], [ 3.72414715277428, 43.414626912290792 ], [ 3.726259, 43.415167 ], [ 3.731573646929859, 43.417128546513077 ], [ 3.725495, 43.414713 ], [ 3.725355, 43.414682 ] ] ], [ [ [ 3.701780790922824, 43.423430424859625 ], [ 3.701528, 43.423769 ], [ 3.701489883111649, 43.424214299669309 ], [ 3.701677, 43.423815 ], [ 3.701780790922824, 43.423430424859625 ] ] ] ] } },
{ "type": "Feature", "properties": { "codgeo": "34108", "value": 540, "isochrone_group": 9.0, "nb_agences": 4 }, "geometry": { "type": "MultiPolygon", "coordinates": [ [ [ [ 3.716958, 43.466168 ], [ 3.716975302056789, 43.466190607096244 ], [ 3.717132, 43.4663 ], [ 3.719171, 43.465316 ], [ 3.719306, 43.46525 ], [ 3.719527, 43.465131 ], [ 3.720269, 43.46469 ], [ 3.721264654746608, 43.46407164049112 ], [ 3.725161, 43.463518 ], [ 3.733112, 43.466531 ], [ 3.733653, 43.467491 ], [ 3.734642, 43.46917 ], [ 3.740425, 43.470931 ], [ 3.74761, 43.474055 ], [ 3.750878, 43.474117 ], [ 3.755432320250509, 43.48031604383926 ], [ 3.754889, 43.481904 ], [ 3.756201, 43.483356 ], [ 3.756919, 43.483556 ], [ 3.758121, 43.48267 ], [ 3.766185, 43.482545 ], [ 3.768805, 43.489119 ], [ 3.768899, 43.489371 ], [ 3.771204, 43.494943 ], [ 3.777737, 43.498454 ], [ 3.784923, 43.502229 ], [ 3.785157, 43.502347 ], [ 3.785167075861425, 43.502327206146077 ], [ 3.785686, 43.502536 ], [ 3.785806, 43.502558 ], [ 3.786347282492747, 43.500008710816431 ], [ 3.78679, 43.499139 ], [ 3.785735304909859, 43.492980334027223 ], [ 3.785638, 43.492265 ], [ 3.784605, 43.488816 ], [ 3.784580139006201, 43.488823463667693 ], [ 3.78458, 43.488823 ], [ 3.784142, 43.488955 ], [ 3.781298098392452, 43.489049201761738 ], [ 3.777690357541392, 43.485208767592304 ], [ 3.776066, 43.489652 ], [ 3.777782, 43.493499 ], [ 3.774763, 43.495461 ], [ 3.773279, 43.493221 ], [ 3.772983, 43.492784 ], [ 3.772301, 43.491727 ], [ 3.771217, 43.49002 ], [ 3.770812, 43.489219 ], [ 3.770589, 43.488415 ], [ 3.770566, 43.487538 ], [ 3.76963412840711, 43.483171335150473 ], [ 3.765062396037811, 43.480733077886853 ], [ 3.76315, 43.480165 ], [ 3.76239, 43.480368 ], [ 3.761876, 43.480421 ], [ 3.761282, 43.480415 ], [ 3.760422, 43.480419 ], [ 3.760421995569691, 43.480418926960859 ], [ 3.760406, 43.480419 ], [ 3.760188, 43.476826 ], [ 3.76126, 43.474733 ], [ 3.755773, 43.468372 ], [ 3.751525, 43.468717 ], [ 3.747872, 43.470271 ], [ 3.744612, 43.468744 ], [ 3.736952, 43.4655 ], [ 3.733401, 43.464906 ], [ 3.725285, 43.462691 ], [ 3.719214, 43.462548 ], [ 3.718108, 43.462527 ], [ 3.715589, 43.462553 ], [ 3.715562, 43.462369 ], [ 3.715502, 43.459421 ], [ 3.715646, 43.458987 ], [ 3.713972821719246, 43.45641258705438 ], [ 3.713003, 43.456395 ], [ 3.711395456836032, 43.458169560635511 ], [ 3.711862677795815, 43.45949163946625 ], [ 3.712171, 43.459565 ], [ 3.712488, 43.46034 ], [ 3.713162, 43.461056 ], [ 3.715920669587533, 43.465018564603568 ], [ 3.716958, 43.466168 ] ] ], [ [ [ 3.785522880896547, 43.474121853414083 ], [ 3.786193, 43.474192 ], [ 3.785526703360322, 43.474086503032055 ], [ 3.785522880896547, 43.474121853414083 ] ] ], [ [ [ 3.793671, 43.473315 ], [ 3.79501, 43.47337 ], [ 3.795011154445635, 43.473341557938696 ], [ 3.795639, 43.473354 ], [ 3.796521, 43.473276 ], [ 3.797592, 43.47311 ], [ 3.79759189153015, 43.473109304620309 ], [ 3.797793, 43.473078 ], [ 3.797238, 43.469521 ], [ 3.793263, 43.469636 ], [ 3.791206, 43.469377 ], [ 3.790508, 43.469336 ], [ 3.785302, 43.467887 ], [ 3.784882, 43.467743 ], [ 3.777754, 43.463236 ], [ 3.779151, 43.459918 ], [ 3.780462, 43.452854 ], [ 3.780415, 43.452038 ], [ 3.780321, 43.451554 ], [ 3.780223175489428, 43.451308674469594 ], [ 3.780225, 43.451301 ], [ 3.780193, 43.451233 ], [ 3.778943, 43.450144 ], [ 3.778585, 43.449991 ], [ 3.777721352717353, 43.449619612173038 ], [ 3.776381, 43.452958 ], [ 3.776611, 43.458998 ], [ 3.77444, 43.46187 ], [ 3.777647, 43.469362 ], [ 3.779843, 43.469648 ], [ 3.780997, 43.469819 ], [ 3.784602, 43.470137 ], [ 3.787156, 43.470361 ], [ 3.788145698266859, 43.473813969457254 ], [ 3.788361, 43.47375 ], [ 3.791845, 43.473189 ], [ 3.793671, 43.473315 ] ] ], [ [ [ 3.7757, 43.448806 ], [ 3.775642782968275, 43.448784579266785 ], [ 3.775642782968275, 43.448784579266785 ], [ 3.7757, 43.448806 ] ] ], [ [ [ 3.771029, 43.43723 ], [ 3.768156, 43.44166 ], [ 3.772248, 43.447532 ], [ 3.773694, 43.448055 ], [ 3.770167, 43.441164 ], [ 3.777671, 43.437383 ], [ 3.771029, 43.43723 ] ] ], [ [ [ 3.793524, 43.446675 ], [ 3.795221, 43.448706 ], [ 3.795221059799065, 43.448705950070057 ], [ 3.79547, 43.449004 ], [ 3.795943, 43.44954 ], [ 3.796305, 43.449909 ], [ 3.796651, 43.450209 ], [ 3.796876, 43.450388 ], [ 3.79912, 43.447573 ], [ 3.796215, 43.441306 ], [ 3.796089, 43.441221 ], [ 3.793682075874854, 43.439623819579595 ], [ 3.792526, 43.438298 ], [ 3.792136, 43.438147 ], [ 3.78425, 43.434385 ], [ 3.783442, 43.43415 ], [ 3.783329454612274, 43.434135289315769 ], [ 3.786916, 43.437701 ], [ 3.791829, 43.438205 ], [ 3.793872, 43.440204 ], [ 3.793821, 43.442961 ], [ 3.793536, 43.443203 ], [ 3.792129, 43.443354 ], [ 3.791358, 43.443303 ], [ 3.79045, 43.443293 ], [ 3.788741, 43.442503 ], [ 3.790777, 43.443646 ], [ 3.791828, 43.444643 ], [ 3.793524, 43.446675 ] ] ], [ [ [ 3.716370061782284, 43.412355803530339 ], [ 3.717692029107205, 43.412977432142988 ], [ 3.723669088883514, 43.414617131932978 ], [ 3.723701347895924, 43.414617791896404 ], [ 3.719071886118199, 43.41333230429133 ], [ 3.717729842588908, 43.412920768555075 ], [ 3.716370061782284, 43.412355803530339 ] ] ], [ [ [ 3.713108560297529, 43.41083211480602 ], [ 3.713108560297572, 43.410832114806027 ], [ 3.714263, 43.411365 ], [ 3.713108560297529, 43.41083211480602 ] ] ], [ [ [ 3.698711561964503, 43.42074998475411 ], [ 3.699149, 43.424795 ], [ 3.699149, 43.42515 ], [ 3.699168, 43.425042 ], [ 3.699824, 43.422623 ], [ 3.698711561964503, 43.42074998475411 ] ] ] ] } },
{ "type": "Feature", "properties": { "codgeo": "34108", "value": 600, "isochrone_group": 10.0, "nb_agences": 4 }, "geometry": { "type": "MultiPolygon", "coordinates": [ [ [ [ 3.70821842715614, 43.407235273199284 ], [ 3.708497, 43.407539 ], [ 3.708861766730405, 43.407653040152965 ], [ 3.70821842715614, 43.407235273199284 ] ] ], [ [ [ 3.742927, 43.476707 ], [ 3.750290052671522, 43.477635853352098 ], [ 3.752492, 43.479805 ], [ 3.756305, 43.484854 ], [ 3.758135, 43.486694 ], [ 3.75914, 43.487719 ], [ 3.761456198867706, 43.485859934788401 ], [ 3.768235445549693, 43.488763989908705 ], [ 3.768009, 43.492338 ], [ 3.76733, 43.493236 ], [ 3.766736, 43.493798 ], [ 3.766769, 43.495296 ], [ 3.766843, 43.495425 ], [ 3.76769, 43.496189 ], [ 3.77105, 43.498254 ], [ 3.773243, 43.49797 ], [ 3.778237522817415, 43.504065058480386 ], [ 3.780835, 43.501855 ], [ 3.781348, 43.501495 ], [ 3.781923, 43.501239 ], [ 3.782677382349841, 43.501049316361055 ], [ 3.777737, 43.498454 ], [ 3.771204, 43.494943 ], [ 3.768899, 43.489371 ], [ 3.768805, 43.489119 ], [ 3.766185, 43.482545 ], [ 3.758121, 43.48267 ], [ 3.756919, 43.483556 ], [ 3.756201, 43.483356 ], [ 3.754889, 43.481904 ], [ 3.755432320250509, 43.48031604383926 ], [ 3.750878, 43.474117 ], [ 3.74761, 43.474055 ], [ 3.740425, 43.470931 ], [ 3.734642, 43.46917 ], [ 3.733653, 43.467491 ], [ 3.733112, 43.466531 ], [ 3.734123, 43.470097 ], [ 3.734281, 43.470972 ], [ 3.7403, 43.474245 ], [ 3.742927, 43.476707 ] ] ], [ [ [ 3.788589756349938, 43.506169218887827 ], [ 3.78923441653864, 43.506354430783325 ], [ 3.792033, 43.507318 ], [ 3.79476, 43.509029 ], [ 3.794760197381558, 43.50902868513927 ], [ 3.796692, 43.51024 ], [ 3.798604, 43.50719 ], [ 3.794153, 43.502987 ], [ 3.792956, 43.498062 ], [ 3.793346, 43.491673 ], [ 3.79344, 43.489397 ], [ 3.793198, 43.489148 ], [ 3.792983, 43.488932 ], [ 3.792982724944817, 43.488931903284296 ], [ 3.792936, 43.488885 ], [ 3.791723, 43.48846 ], [ 3.788807, 43.488749 ], [ 3.786735, 43.488377 ], [ 3.783482, 43.486628 ], [ 3.782917, 43.486144 ], [ 3.782685, 43.485977 ], [ 3.776842, 43.479928 ], [ 3.77587, 43.483271 ], [ 3.781298098392452, 43.489049201761738 ], [ 3.784142, 43.488955 ], [ 3.78458, 43.488823 ], [ 3.784580139006201, 43.488823463667693 ], [ 3.784605, 43.488816 ], [ 3.785638, 43.492265 ], [ 3.785735304909859, 43.492980334027223 ], [ 3.78679, 43.499139 ], [ 3.786347282492747, 43.500008710816431 ], [ 3.786213912895279, 43.500636844326749 ], [ 3.787928, 43.501702 ], [ 3.786028, 43.50476 ], [ 3.782102009693161, 43.507281922246641 ], [ 3.788589756349938, 43.506169218887827 ] ] ], [ [ [ 3.802457413576334, 43.473584182296158 ], [ 3.803420436171123, 43.472984928086149 ], [ 3.806902, 43.473316 ], [ 3.807679, 43.469801 ], [ 3.802022, 43.466832 ], [ 3.801058, 43.466888 ], [ 3.800134, 43.466943 ], [ 3.799762, 43.467154 ], [ 3.791206, 43.469377 ], [ 3.793263, 43.469636 ], [ 3.797238, 43.469521 ], [ 3.797793, 43.473078 ], [ 3.79759189153015, 43.473109304620309 ], [ 3.797592, 43.47311 ], [ 3.796521, 43.473276 ], [ 3.795639, 43.473354 ], [ 3.795011154445635, 43.473341557938696 ], [ 3.79501, 43.47337 ], [ 3.793671, 43.473315 ], [ 3.791845, 43.473189 ], [ 3.788361, 43.47375 ], [ 3.787321, 43.474059 ], [ 3.793789, 43.476093 ], [ 3.796962, 43.477795 ], [ 3.797139, 43.477465 ], [ 3.802457413576334, 43.473584182296158 ] ] ], [ [ [ 3.781799, 43.46011 ], [ 3.780306545483263, 43.456233074819046 ], [ 3.78034, 43.453963 ], [ 3.780362271619334, 43.453391361770436 ], [ 3.779151, 43.459918 ], [ 3.777754, 43.463236 ], [ 3.784882, 43.467743 ], [ 3.785302, 43.467887 ], [ 3.790508, 43.469336 ], [ 3.791206, 43.469377 ], [ 3.787884, 43.468017 ], [ 3.784887, 43.466021 ], [ 3.784826415859108, 43.46595308988028 ], [ 3.781799, 43.46011 ] ] ], [ [ [ 3.780223175489429, 43.451308674469594 ], [ 3.780223175489428, 43.451308674469594 ], [ 3.780321, 43.451554 ], [ 3.780223175489429, 43.451308674469594 ] ] ], [ [ [ 3.782168, 43.439477 ], [ 3.779916, 43.438428 ], [ 3.777671, 43.437383 ], [ 3.770167, 43.441164 ], [ 3.773694, 43.448055 ], [ 3.7757, 43.448806 ], [ 3.777699, 43.44961 ], [ 3.778585, 43.449991 ], [ 3.776801191319575, 43.445929815075658 ], [ 3.777117, 43.442591 ], [ 3.785409, 43.440971 ], [ 3.782168, 43.439477 ] ] ], [ [ [ 3.798995, 43.451603 ], [ 3.801696, 43.452854 ], [ 3.804384, 43.454097 ], [ 3.805771, 43.454754 ], [ 3.805771431897447, 43.45475308740631 ], [ 3.805822, 43.454777 ], [ 3.8077, 43.455723 ], [ 3.809579, 43.456668 ], [ 3.811197, 43.453452 ], [ 3.809319, 43.452507 ], [ 3.80744, 43.451562 ], [ 3.807310667974832, 43.451500701564861 ], [ 3.807311, 43.4515 ], [ 3.805923, 43.450843 ], [ 3.804843831960834, 43.45034336308462 ], [ 3.804844, 43.450343 ], [ 3.804054373176714, 43.449977856752525 ], [ 3.804054373175887, 43.449977856752163 ], [ 3.803208, 43.449586 ], [ 3.798582008608719, 43.444002819853161 ], [ 3.798076, 43.440812 ], [ 3.797617, 43.440553 ], [ 3.797512, 43.440499 ], [ 3.797028, 43.440267 ], [ 3.792653597462444, 43.438444332276013 ], [ 3.793682075874854, 43.439623819579595 ], [ 3.796089, 43.441221 ], [ 3.796215, 43.441306 ], [ 3.79912, 43.447573 ], [ 3.796877491996159, 43.450386128355994 ], [ 3.796963, 43.450453 ], [ 3.7975, 43.450822 ], [ 3.798195, 43.451217 ], [ 3.798995, 43.451603 ] ] ], [ [ [ 3.715067, 43.411738 ], [ 3.714571518050769, 43.411508130886723 ], [ 3.714579631944823, 43.411514089745395 ], [ 3.715714208280455, 43.412048317891916 ], [ 3.715067, 43.411738 ] ] ], [ [ [ 3.693434, 43.415443 ], [ 3.693883927585115, 43.415386638621555 ], [ 3.692653, 43.415195 ], [ 3.692390328174098, 43.415150099939112 ], [ 3.692517, 43.415223 ], [ 3.693434, 43.415443 ] ] ], [ [ [ 3.698540127723321, 43.420518040013427 ], [ 3.698508153684788, 43.420285861432312 ], [ 3.696100826543153, 43.416010090741842 ], [ 3.695712375733323, 43.415671303038025 ], [ 3.695570498939241, 43.415649214757963 ], [ 3.698540127723321, 43.420518040013427 ] ] ], [ [ [ 3.723215, 43.468212 ], [ 3.72347, 43.467688 ], [ 3.723356, 43.466248 ], [ 3.724726468366743, 43.463579743580503 ], [ 3.721264654746608, 43.46407164049112 ], [ 3.720269, 43.46469 ], [ 3.719527, 43.465131 ], [ 3.719306, 43.46525 ], [ 3.719171, 43.465316 ], [ 3.717132, 43.4663 ], [ 3.716975302056789, 43.466190607096244 ], [ 3.717457, 43.46682 ], [ 3.717701759642798, 43.467467553070705 ], [ 3.718732, 43.468117 ], [ 3.71968, 43.468643 ], [ 3.720165, 43.468758 ], [ 3.720592, 43.468825 ], [ 3.721214, 43.468878 ], [ 3.721758, 43.468835 ], [ 3.723215, 43.468212 ] ] ], [ [ [ 3.716046326890568, 43.465199059282398 ], [ 3.715795038546451, 43.465332517749843 ], [ 3.716818504317009, 43.466067785012882 ], [ 3.716299, 43.465562 ], [ 3.716046326890568, 43.465199059282398 ] ] ] ] } },
{ "type": "Feature", "properties": { "codgeo": "34108", "value": 660, "isochrone_group": 11.0, "nb_agences": 4 }, "geometry": { "type": "MultiPolygon", "coordinates": [ [ [ [ 3.690865, 43.416015 ], [ 3.692340228735719, 43.415814948435262 ], [ 3.690719999572543, 43.415735709894228 ], [ 3.690751, 43.416027 ], [ 3.690865, 43.416015 ] ] ], [ [ [ 3.698411724885569, 43.437367785810061 ], [ 3.696672337129551, 43.439803815168936 ], [ 3.696938574974556, 43.43973863228684 ], [ 3.698413, 43.437366 ], [ 3.699554, 43.435075 ], [ 3.698411724885569, 43.437367785810061 ] ] ], [ [ [ 3.719201723084939, 43.468377626943749 ], [ 3.718663434338994, 43.46885624994917 ], [ 3.718684555169367, 43.468882560331167 ], [ 3.719277168599187, 43.469245097503887 ], [ 3.720503471703573, 43.471124151006094 ], [ 3.7211, 43.471542 ], [ 3.721847, 43.472194 ], [ 3.722214622601401, 43.472704131534378 ], [ 3.723826, 43.471572 ], [ 3.724221, 43.471227 ], [ 3.724578, 43.470806 ], [ 3.724874, 43.470257 ], [ 3.725017, 43.469479 ], [ 3.733400640485763, 43.467549092949795 ], [ 3.733112, 43.466531 ], [ 3.726738175588117, 43.461719588888258 ], [ 3.724833460459818, 43.463371433526731 ], [ 3.723356, 43.466248 ], [ 3.72347, 43.467688 ], [ 3.723215, 43.468212 ], [ 3.721758, 43.468835 ], [ 3.721214, 43.468878 ], [ 3.720592, 43.468825 ], [ 3.720165, 43.468758 ], [ 3.71968, 43.468643 ], [ 3.719201723084939, 43.468377626943749 ] ] ], [ [ [ 3.741394, 43.477832 ], [ 3.741872, 43.477646 ], [ 3.742924327541239, 43.476704495396461 ], [ 3.7403, 43.474245 ], [ 3.734281, 43.470972 ], [ 3.734123, 43.470097 ], [ 3.734135, 43.471591 ], [ 3.73446, 43.472936 ], [ 3.734856, 43.473398 ], [ 3.735125, 43.473627 ], [ 3.73512787943258, 43.473629344680802 ], [ 3.735131, 43.473632 ], [ 3.740442, 43.477959 ], [ 3.740445, 43.477959 ], [ 3.740688, 43.477959 ], [ 3.741394, 43.477832 ] ] ], [ [ [ 3.748451, 43.4227 ], [ 3.750544, 43.42338 ], [ 3.752398, 43.42451 ], [ 3.754647, 43.425755 ], [ 3.762418, 43.428056 ], [ 3.762612, 43.42811 ], [ 3.761582, 43.42736 ], [ 3.760938, 43.427136 ], [ 3.760466, 43.427034 ], [ 3.753825, 43.42416 ], [ 3.752419, 43.421671 ], [ 3.747287, 43.421053 ], [ 3.739907915927458, 43.420057477468951 ], [ 3.742574, 43.420991 ], [ 3.748451, 43.4227 ] ] ], [ [ [ 3.770358, 43.430306 ], [ 3.770979, 43.43049 ], [ 3.775620911882518, 43.432591032225723 ], [ 3.772953, 43.430892 ], [ 3.770358, 43.430306 ] ] ], [ [ [ 3.79848131159648, 43.443367838510397 ], [ 3.798582008608719, 43.444002819853161 ], [ 3.803208, 43.449586 ], [ 3.804054373176714, 43.449977856752525 ], [ 3.804844, 43.450343 ], [ 3.804843831960834, 43.45034336308462 ], [ 3.805923, 43.450843 ], [ 3.800236, 43.444765 ], [ 3.79848131159648, 43.443367838510397 ] ] ], [ [ [ 3.789626, 43.506652 ], [ 3.787151529545463, 43.507131 ], [ 3.79124, 43.507131 ], [ 3.793593, 43.508579 ], [ 3.796741, 43.510271 ], [ 3.799095, 43.511747 ], [ 3.801442, 43.513219 ], [ 3.802603, 43.513954 ], [ 3.804773068253314, 43.51546923151021 ], [ 3.804621, 43.513362 ], [ 3.803997818910007, 43.510576943464706 ], [ 3.803368, 43.510178 ], [ 3.798647, 43.505359 ], [ 3.798055776048346, 43.501655541681515 ], [ 3.797189, 43.500984 ], [ 3.795856, 43.499892 ], [ 3.797461661851677, 43.497933978714386 ], [ 3.797295, 43.49689 ], [ 3.798036, 43.495448 ], [ 3.79672, 43.488781 ], [ 3.796717, 43.488635 ], [ 3.796716212876322, 43.488632544751823 ], [ 3.796715, 43.488585 ], [ 3.796499, 43.487955 ], [ 3.797563, 43.480756 ], [ 3.802857, 43.477476 ], [ 3.802889346392448, 43.477472507503549 ], [ 3.806400557471556, 43.47764136786428 ], [ 3.807428, 43.477751 ], [ 3.807954, 43.47686 ], [ 3.808181, 43.476069 ], [ 3.810079585215085, 43.473215862171692 ], [ 3.81294, 43.470059 ], [ 3.812939668196413, 43.470058303164997 ], [ 3.814123, 43.469295 ], [ 3.814959, 43.468792 ], [ 3.814929783265443, 43.468743410444134 ], [ 3.816972, 43.461021 ], [ 3.819022, 43.458062 ], [ 3.812728, 43.45271 ], [ 3.812464, 43.452553 ], [ 3.811754, 43.452514 ], [ 3.80744, 43.451562 ], [ 3.809319, 43.452507 ], [ 3.811197, 43.453452 ], [ 3.809579, 43.456668 ], [ 3.8077, 43.455723 ], [ 3.805822, 43.454777 ], [ 3.805771431897447, 43.45475308740631 ], [ 3.805771, 43.454754 ], [ 3.804384, 43.454097 ], [ 3.801696, 43.452854 ], [ 3.798995, 43.451603 ], [ 3.798195, 43.451217 ], [ 3.7975, 43.450822 ], [ 3.796963, 43.450453 ], [ 3.796651, 43.450209 ], [ 3.796305, 43.449909 ], [ 3.795943, 43.44954 ], [ 3.79547, 43.449004 ], [ 3.793635, 43.446807 ], [ 3.791828, 43.444643 ], [ 3.790777, 43.443646 ], [ 3.788741, 43.442503 ], [ 3.785409, 43.440971 ], [ 3.777117, 43.442591 ], [ 3.776801191319575, 43.445929815075658 ], [ 3.778585, 43.449991 ], [ 3.778943, 43.450144 ], [ 3.780193, 43.451233 ], [ 3.780321, 43.451554 ], [ 3.780415, 43.452038 ], [ 3.78034, 43.453963 ], [ 3.780306545483263, 43.456233074819046 ], [ 3.781799, 43.46011 ], [ 3.784826415859108, 43.46595308988028 ], [ 3.784887, 43.466021 ], [ 3.787884, 43.468017 ], [ 3.791206, 43.469377 ], [ 3.799762, 43.467154 ], [ 3.800134, 43.466943 ], [ 3.801058, 43.466888 ], [ 3.802022, 43.466832 ], [ 3.807679, 43.469801 ], [ 3.806902, 43.473316 ], [ 3.803420436171123, 43.472984928086149 ], [ 3.802457413576334, 43.473584182296158 ], [ 3.797139, 43.477465 ], [ 3.796962, 43.477795 ], [ 3.793789, 43.476093 ], [ 3.787321, 43.474059 ], [ 3.786805, 43.474163 ], [ 3.786193, 43.474192 ], [ 3.783136, 43.473872 ], [ 3.776842, 43.479928 ], [ 3.782685, 43.485977 ], [ 3.782917, 43.486144 ], [ 3.783482, 43.486628 ], [ 3.786735, 43.488377 ], [ 3.788807, 43.488749 ], [ 3.791723, 43.48846 ], [ 3.792936, 43.488885 ], [ 3.792982724944817, 43.488931903284296 ], [ 3.792983, 43.488932 ], [ 3.793198, 43.489148 ], [ 3.79344, 43.489397 ], [ 3.793346, 43.491673 ], [ 3.792956, 43.498062 ], [ 3.794131450025093, 43.50289833364544 ], [ 3.794241591970867, 43.503070655819705 ], [ 3.798604, 43.50719 ], [ 3.796692, 43.51024 ], [ 3.795575181033215, 43.509539711368909 ], [ 3.795575, 43.50954 ], [ 3.794760122965029, 43.509028803847627 ], [ 3.79476, 43.509029 ], [ 3.792033, 43.507318 ], [ 3.789626, 43.506652 ] ] ], [ [ [ 3.752492, 43.479805 ], [ 3.750290052671522, 43.477635853352098 ], [ 3.743017159294371, 43.476718373647117 ], [ 3.751152, 43.480368 ], [ 3.751352425261644, 43.480380420549757 ], [ 3.756305, 43.484854 ], [ 3.752492, 43.479805 ] ] ], [ [ [ 3.76856364467718, 43.503471579118255 ], [ 3.771059681720928, 43.508703415430404 ], [ 3.771479659192828, 43.51011870851606 ], [ 3.771514, 43.510111 ], [ 3.771844, 43.50958 ], [ 3.772213, 43.509173 ], [ 3.774137, 43.507404 ], [ 3.775411, 43.50647 ], [ 3.776129091070788, 43.501492036939119 ], [ 3.773243, 43.49797 ], [ 3.77105, 43.498254 ], [ 3.76769, 43.496189 ], [ 3.766843, 43.495425 ], [ 3.766769, 43.495296 ], [ 3.766736, 43.493798 ], [ 3.76733, 43.493236 ], [ 3.768009, 43.492338 ], [ 3.768235445549693, 43.488763989908705 ], [ 3.761456198867706, 43.485859934788401 ], [ 3.75914, 43.487719 ], [ 3.758135, 43.486694 ], [ 3.756305, 43.484854 ], [ 3.758607, 43.487833 ], [ 3.759484, 43.489035 ], [ 3.760869, 43.490157 ], [ 3.764725184966251, 43.495226888172489 ], [ 3.764656, 43.49543 ], [ 3.764755168265608, 43.495834975521888 ], [ 3.766187, 43.501832 ], [ 3.767013259343854, 43.501985063480518 ], [ 3.767801412619967, 43.50236335762844 ], [ 3.76856364467718, 43.503471579118255 ] ] ] ] } },
{ "type": "Feature", "properties": { "codgeo": "34108", "value": 720, "isochrone_group": 12.0, "nb_agences": 4 }, "geometry": { "type": "MultiPolygon", "coordinates": [ [ [ [ 3.724874, 43.470257 ], [ 3.724578, 43.470806 ], [ 3.724221, 43.471227 ], [ 3.723826, 43.471572 ], [ 3.722302618471364, 43.472642306849856 ], [ 3.722943919888678, 43.473273316864336 ], [ 3.723113, 43.473319 ], [ 3.723648, 43.473333 ], [ 3.724507, 43.473234 ], [ 3.72762, 43.472992 ], [ 3.728221, 43.472818 ], [ 3.734134815063366, 43.471567975389085 ], [ 3.734123, 43.470097 ], [ 3.733653, 43.467491 ], [ 3.725017, 43.469479 ], [ 3.724874, 43.470257 ] ] ], [ [ [ 3.803859898005061, 43.494487167462758 ], [ 3.80417, 43.493818 ], [ 3.803553, 43.491345 ], [ 3.80306, 43.490394 ], [ 3.80573, 43.482305 ], [ 3.806437, 43.482047 ], [ 3.806437071047727, 43.482046757070172 ], [ 3.806472, 43.482034 ], [ 3.807954, 43.47686 ], [ 3.807428, 43.477751 ], [ 3.806400557471556, 43.47764136786428 ], [ 3.802889346392448, 43.477472507503549 ], [ 3.802857, 43.477476 ], [ 3.797563, 43.480756 ], [ 3.796499, 43.487955 ], [ 3.796715, 43.488585 ], [ 3.796716212876322, 43.488632544751823 ], [ 3.796717, 43.488635 ], [ 3.79672, 43.488781 ], [ 3.797908309568295, 43.494801106300777 ], [ 3.798208, 43.495355 ], [ 3.801654558153017, 43.499687714077496 ], [ 3.803859898005061, 43.494487167462758 ] ] ], [ [ [ 3.814123, 43.469295 ], [ 3.812939668196413, 43.470058303164997 ], [ 3.812939668196413, 43.470058303164997 ], [ 3.814123, 43.469295 ] ] ], [ [ [ 3.821941, 43.460423 ], [ 3.81975, 43.45863 ], [ 3.813881, 43.453159 ], [ 3.812837, 43.452264 ], [ 3.812653994093614, 43.45220593081816 ], [ 3.8121, 43.451626 ], [ 3.811712, 43.4513 ], [ 3.81157936016367, 43.451266379485929 ], [ 3.811025, 43.450706 ], [ 3.810987, 43.450674 ], [ 3.810599, 43.450525 ], [ 3.809853, 43.450503 ], [ 3.802069, 43.446036 ], [ 3.797417030414822, 43.442518127056104 ], [ 3.797437508608354, 43.442536715825156 ], [ 3.800236, 43.444765 ], [ 3.805923, 43.450843 ], [ 3.80744, 43.451562 ], [ 3.811754, 43.452514 ], [ 3.812464, 43.452553 ], [ 3.812728, 43.45271 ], [ 3.819022, 43.458062 ], [ 3.816972, 43.461021 ], [ 3.814929783265443, 43.468743410444134 ], [ 3.814958132617317, 43.468790557479466 ], [ 3.815166, 43.468665 ], [ 3.816384, 43.467845 ], [ 3.817025, 43.467377 ], [ 3.821552, 43.46385 ], [ 3.821472305800918, 43.462957823441293 ], [ 3.822734, 43.461215 ], [ 3.821941, 43.460423 ] ] ], [ [ [ 3.772953, 43.430892 ], [ 3.775620911882518, 43.432591032225723 ], [ 3.775620911882518, 43.432591032225723 ], [ 3.777691, 43.433528 ], [ 3.779192, 43.434119 ], [ 3.783914170231773, 43.435508138902954 ], [ 3.779752, 43.432467 ], [ 3.779688, 43.432435 ], [ 3.779296, 43.432252 ], [ 3.779161, 43.432195 ], [ 3.775658, 43.431132 ], [ 3.770358, 43.430306 ], [ 3.772953, 43.430892 ] ] ], [ [ [ 3.762612, 43.42811 ], [ 3.770358, 43.430306 ], [ 3.763522, 43.427366 ], [ 3.7628, 43.427224 ], [ 3.75955329311684, 43.426639011356386 ], [ 3.760466, 43.427034 ], [ 3.760938, 43.427136 ], [ 3.761582, 43.42736 ], [ 3.762612, 43.42811 ] ] ], [ [ [ 3.739878826658419, 43.420053552995064 ], [ 3.746552631024209, 43.420953925256519 ], [ 3.744465, 43.419685 ], [ 3.736131, 43.418735 ], [ 3.739878826658419, 43.420053552995064 ] ] ], [ [ [ 3.764991, 43.505917 ], [ 3.76596329417323, 43.512167361155925 ], [ 3.771325244322383, 43.509598341798579 ], [ 3.771059681720928, 43.508703415430404 ], [ 3.76856364467718, 43.503471579118255 ], [ 3.767801412619967, 43.50236335762844 ], [ 3.767013259343854, 43.501985063480518 ], [ 3.766187, 43.501832 ], [ 3.764755168265608, 43.495834975521888 ], [ 3.764656, 43.49543 ], [ 3.764725184966251, 43.495226888172489 ], [ 3.76341051751385, 43.493498439712162 ], [ 3.762747, 43.495057 ], [ 3.760285, 43.503436 ], [ 3.760182, 43.503677 ], [ 3.762669, 43.505515 ], [ 3.7628, 43.505527 ], [ 3.764202, 43.505756 ], [ 3.764991, 43.505917 ] ] ], [ [ [ 3.704249, 43.404674 ], [ 3.709008, 43.407748 ], [ 3.714263, 43.411365 ], [ 3.716886763372744, 43.412565099559792 ], [ 3.711309, 43.409044 ], [ 3.71094, 43.408874 ], [ 3.710423, 43.40872 ], [ 3.705726544220613, 43.405106705676772 ], [ 3.704094, 43.403446 ], [ 3.70378, 43.40305 ], [ 3.702778484293398, 43.4030051934634 ], [ 3.703201909025703, 43.404051204804013 ], [ 3.703636885439171, 43.404452108471688 ], [ 3.704249, 43.404674 ] ] ], [ [ [ 3.696140395789251, 43.41608037160222 ], [ 3.696115930788622, 43.416036918126025 ], [ 3.695397502386875, 43.415400360268073 ], [ 3.695392021868798, 43.415401103465491 ], [ 3.696140395789251, 43.41608037160222 ] ] ] ] } },
{ "type": "Feature", "properties": { "codgeo": "34108", "value": 780, "isochrone_group": 13.0, "nb_agences": 4 }, "geometry": { "type": "MultiPolygon", "coordinates": [ [ [ [ 3.681905, 43.43838 ], [ 3.681351, 43.438469 ], [ 3.681014386968822, 43.43856645748712 ], [ 3.684443, 43.439537 ], [ 3.681905, 43.43838 ] ] ], [ [ [ 3.807954, 43.47686 ], [ 3.806472, 43.482034 ], [ 3.806437071047727, 43.482046757070172 ], [ 3.806437, 43.482047 ], [ 3.80573, 43.482305 ], [ 3.803246679344761, 43.489828438494484 ], [ 3.80409, 43.491338 ], [ 3.804198697954131, 43.4932625011879 ], [ 3.805115, 43.490003 ], [ 3.806747, 43.487156 ], [ 3.806782309580334, 43.4863640964833 ], [ 3.807084, 43.486029 ], [ 3.807264437489459, 43.480673533912466 ], [ 3.807954, 43.47686 ] ] ], [ [ [ 3.804641, 43.50094 ], [ 3.804549097818927, 43.50076973911716 ], [ 3.80461, 43.502096 ], [ 3.806002519337494, 43.502821991384401 ], [ 3.804641, 43.50094 ] ] ], [ [ [ 3.80998570727685, 43.450506913619407 ], [ 3.804257, 43.445182 ], [ 3.803639, 43.444812 ], [ 3.803545, 43.444771 ], [ 3.797013751404607, 43.442230803622195 ], [ 3.790615, 43.437718 ], [ 3.79736, 43.442475 ], [ 3.802069, 43.446036 ], [ 3.809853, 43.450503 ], [ 3.80998570727685, 43.450506913619407 ] ] ], [ [ [ 3.782022, 43.433716 ], [ 3.781513, 43.433528 ], [ 3.781148416970717, 43.433487308574122 ], [ 3.78391417023178, 43.435508138902961 ], [ 3.783914170231785, 43.435508138902961 ], [ 3.787568, 43.436583 ], [ 3.784397580045809, 43.43565034541939 ], [ 3.782022, 43.433716 ] ] ], [ [ [ 3.756807149818986, 43.507562753429028 ], [ 3.756807, 43.507563 ], [ 3.757023, 43.50781 ], [ 3.757947, 43.508406 ], [ 3.758675, 43.508633 ], [ 3.759549, 43.508727 ], [ 3.761589296717152, 43.51269697799426 ], [ 3.764119, 43.513051 ], [ 3.765971285096122, 43.512218730541264 ], [ 3.764991, 43.505917 ], [ 3.764202, 43.505756 ], [ 3.7628, 43.505527 ], [ 3.762669, 43.505515 ], [ 3.760182, 43.503677 ], [ 3.760285, 43.503436 ], [ 3.762747, 43.495057 ], [ 3.764157, 43.491745 ], [ 3.768235327907751, 43.48906790130944 ], [ 3.768232443313731, 43.488397686493464 ], [ 3.762363, 43.49056 ], [ 3.761338, 43.490485 ], [ 3.76064, 43.490641 ], [ 3.760049, 43.490863 ], [ 3.760649, 43.493124 ], [ 3.760813, 43.494063 ], [ 3.760345, 43.502954 ], [ 3.758851, 43.504199 ], [ 3.756803, 43.507558 ], [ 3.756807149818986, 43.507562753429028 ] ] ], [ [ [ 3.701714, 43.399438 ], [ 3.701565, 43.398182 ], [ 3.701543, 43.398132 ], [ 3.700511, 43.397538 ], [ 3.7002575704682, 43.397557610618506 ], [ 3.701395, 43.399694 ], [ 3.70276260947132, 43.403004483244082 ], [ 3.702911172497855, 43.403011129764579 ], [ 3.701714, 43.399438 ] ] ], [ [ [ 3.687260373147449, 43.414781334326221 ], [ 3.687192968564367, 43.414777646481426 ], [ 3.685529720639426, 43.415041626899317 ], [ 3.68555, 43.41506 ], [ 3.687260373147449, 43.414781334326221 ] ] ], [ [ [ 3.696891970105342, 43.439750042534307 ], [ 3.698410302341901, 43.43737022827429 ], [ 3.69841220995512, 43.437366399373232 ], [ 3.691086749826924, 43.441069470938217 ], [ 3.684443, 43.439537 ], [ 3.690116, 43.441409 ], [ 3.696891970105342, 43.439750042534307 ] ] ] ] } },
{ "type": "Feature", "properties": { "codgeo": "34108", "value": 840, "isochrone_group": 14.0, "nb_agences": 4 }, "geometry": { "type": "MultiPolygon", "coordinates": [ [ [ [ 3.7002575704682, 43.397557610618506 ], [ 3.70049448942313, 43.397539277604167 ], [ 3.700494, 43.397539 ], [ 3.700257487495666, 43.397557454774443 ], [ 3.7002575704682, 43.397557610618506 ] ] ], [ [ [ 3.699168, 43.425042 ], [ 3.699824, 43.422623 ], [ 3.695606473716099, 43.415918652632925 ], [ 3.695119045741806, 43.415898353575876 ], [ 3.698487264627239, 43.420712445241954 ], [ 3.699074, 43.424394 ], [ 3.699149, 43.42515 ], [ 3.699168, 43.425042 ] ] ], [ [ [ 3.784464, 43.434455 ], [ 3.783442, 43.43415 ], [ 3.782385385414602, 43.434011891066028 ], [ 3.784397580045809, 43.43565034541939 ], [ 3.787568, 43.436583 ], [ 3.788275, 43.436668 ], [ 3.788752, 43.436833 ], [ 3.788952, 43.436902 ], [ 3.790615, 43.437718 ], [ 3.794531423591675, 43.440480109269913 ], [ 3.794501, 43.440426 ], [ 3.790694, 43.437641 ], [ 3.789937, 43.43724 ], [ 3.785017, 43.434687 ], [ 3.784464, 43.434455 ] ] ], [ [ [ 3.680315466159585, 43.438413707685434 ], [ 3.681875, 43.438358 ], [ 3.684443, 43.439537 ], [ 3.679772, 43.43716 ], [ 3.679668, 43.437102 ], [ 3.677912, 43.437137 ], [ 3.677206, 43.437338 ], [ 3.677054272150372, 43.437526186393427 ], [ 3.680315466159585, 43.438413707685434 ] ] ], [ [ [ 3.725916704611122, 43.473350161461902 ], [ 3.733269, 43.473956 ], [ 3.736243, 43.471921 ], [ 3.738851084504768, 43.471846076845146 ], [ 3.740622, 43.472237 ], [ 3.743766, 43.473507 ], [ 3.748397, 43.475771 ], [ 3.749485, 43.476168 ], [ 3.75691, 43.480802 ], [ 3.757786, 43.481214 ], [ 3.759027, 43.480956 ], [ 3.758586, 43.480994 ], [ 3.7571, 43.479576 ], [ 3.751622, 43.472607 ], [ 3.74814, 43.471696 ], [ 3.746395, 43.471686 ], [ 3.745165, 43.471847 ], [ 3.744493, 43.471684 ], [ 3.736855, 43.470993 ], [ 3.728221, 43.472818 ], [ 3.72762, 43.472992 ], [ 3.725865168750927, 43.473128417976952 ], [ 3.725916704611122, 43.473350161461902 ] ] ], [ [ [ 3.76315, 43.480165 ], [ 3.76239, 43.480368 ], [ 3.76553315887597, 43.48123860049688 ], [ 3.765146961495161, 43.480778179464089 ], [ 3.763671, 43.479991 ], [ 3.76315, 43.480165 ] ] ], [ [ [ 3.761876, 43.480421 ], [ 3.759922, 43.480717 ], [ 3.759438, 43.480883 ], [ 3.761876, 43.480421 ] ] ], [ [ [ 3.756807149818986, 43.507562753429028 ], [ 3.756803, 43.507558 ], [ 3.758851, 43.504199 ], [ 3.760345, 43.502954 ], [ 3.760813, 43.494063 ], [ 3.760649, 43.493124 ], [ 3.760049, 43.490863 ], [ 3.760153796932367, 43.490823634654852 ], [ 3.756517, 43.490723 ], [ 3.756506141645412, 43.490749002901786 ], [ 3.756506, 43.490749 ], [ 3.756365, 43.491087 ], [ 3.756246, 43.492136 ], [ 3.75617, 43.495655 ], [ 3.754822, 43.503069 ], [ 3.754859, 43.506477 ], [ 3.755016, 43.507669 ], [ 3.755258, 43.509016 ], [ 3.755538, 43.509444 ], [ 3.755983, 43.510082 ], [ 3.756861, 43.510848 ], [ 3.757020361364403, 43.511885378926038 ], [ 3.757445, 43.512117 ], [ 3.761589296717152, 43.51269697799426 ], [ 3.759549, 43.508727 ], [ 3.758675, 43.508633 ], [ 3.757947, 43.508406 ], [ 3.757023, 43.50781 ], [ 3.756807, 43.507563 ], [ 3.756807149818986, 43.507562753429028 ] ] ], [ [ [ 3.806531863550187, 43.501651202930816 ], [ 3.807222512941031, 43.503458036300501 ], [ 3.808755, 43.504257 ], [ 3.809129, 43.504551 ], [ 3.812313162437758, 43.506264123699907 ], [ 3.811057, 43.503841 ], [ 3.811008, 43.503714 ], [ 3.810059, 43.50231 ], [ 3.806531863550187, 43.501651202930816 ] ] ] ] } },
{ "type": "Feature", "properties": { "codgeo": "34108", "value": 900, "isochrone_group": 15.0, "nb_agences": 4 }, "geometry": { "type": "MultiPolygon", "coordinates": [ [ [ [ 3.751221682916594, 43.496754379682805 ], [ 3.751222, 43.496755 ], [ 3.75132, 43.496794 ], [ 3.751756132434287, 43.496819017870799 ], [ 3.752085, 43.502142 ], [ 3.751614, 43.50298 ], [ 3.751749, 43.504528 ], [ 3.752235, 43.505161 ], [ 3.755258, 43.509016 ], [ 3.755016, 43.507669 ], [ 3.754859, 43.506477 ], [ 3.754822, 43.503069 ], [ 3.75617, 43.495655 ], [ 3.756246, 43.492136 ], [ 3.756365, 43.491087 ], [ 3.756506, 43.490749 ], [ 3.756506141645412, 43.490749002901786 ], [ 3.756517, 43.490723 ], [ 3.760167, 43.490824 ], [ 3.76064, 43.490641 ], [ 3.760984160953778, 43.490564081506029 ], [ 3.759484, 43.489035 ], [ 3.758722264651404, 43.481019353521297 ], [ 3.757786, 43.481214 ], [ 3.75691, 43.480802 ], [ 3.749485, 43.476168 ], [ 3.748397, 43.475771 ], [ 3.743766, 43.473507 ], [ 3.740622, 43.472237 ], [ 3.738851084504768, 43.471846076845146 ], [ 3.736243, 43.471921 ], [ 3.733269, 43.473956 ], [ 3.729138556469888, 43.473615646173386 ], [ 3.72905526717682, 43.473823186706937 ], [ 3.731510279638509, 43.475244924594129 ], [ 3.73368, 43.474179 ], [ 3.737017, 43.472827 ], [ 3.737577, 43.473359 ], [ 3.738145, 43.473953 ], [ 3.740976, 43.477081 ], [ 3.742361131033637, 43.477625964109485 ], [ 3.750685, 43.477285 ], [ 3.751401, 43.477776 ], [ 3.753426, 43.479986 ], [ 3.754889, 43.481904 ], [ 3.755800860280498, 43.483803708917698 ], [ 3.754917, 43.48668 ], [ 3.752745, 43.490896 ], [ 3.752141199812289, 43.49189939077602 ], [ 3.750422937173478, 43.495244650309132 ], [ 3.751186, 43.49674 ], [ 3.751221682916594, 43.496754379682805 ] ] ], [ [ [ 3.756861, 43.510848 ], [ 3.755983, 43.510082 ], [ 3.755538, 43.509444 ], [ 3.755494170918632, 43.5108639644763 ], [ 3.756186, 43.511425 ], [ 3.757016, 43.511883 ], [ 3.757020361364403, 43.511885378926038 ], [ 3.756861, 43.510848 ] ] ], [ [ [ 3.793368044226977, 43.439597189433172 ], [ 3.794501, 43.440426 ], [ 3.794531423591678, 43.440480109269934 ], [ 3.79732467323526, 43.442450085334343 ], [ 3.797127, 43.442163 ], [ 3.793368044226977, 43.439597189433172 ] ] ], [ [ [ 3.826318, 43.518144 ], [ 3.825366, 43.517393 ], [ 3.825295821542918, 43.517274819955581 ], [ 3.825324, 43.51736 ], [ 3.82631805398787, 43.51814512463887 ], [ 3.826318, 43.518144 ] ] ], [ [ [ 3.819536, 43.508232 ], [ 3.819510753322814, 43.508238942836243 ], [ 3.813315139417327, 43.506803201257675 ], [ 3.817034, 43.508804 ], [ 3.820131116920835, 43.509006034150381 ], [ 3.819536, 43.508232 ] ] ], [ [ [ 3.703537, 43.404879 ], [ 3.702393, 43.398194 ], [ 3.702155, 43.398022 ], [ 3.700026179860421, 43.397122998694357 ], [ 3.700257487495666, 43.397557454774443 ], [ 3.700494, 43.397539 ], [ 3.701543, 43.398134 ], [ 3.701565, 43.398182 ], [ 3.701696611017349, 43.399291419045575 ], [ 3.701718, 43.399312 ], [ 3.70184, 43.399546 ], [ 3.70184, 43.39955 ], [ 3.703537, 43.404879 ] ] ], [ [ [ 3.693060256304336, 43.415076985888291 ], [ 3.690975, 43.41486 ], [ 3.689943640307817, 43.414341076884419 ], [ 3.681936, 43.415612 ], [ 3.68946, 43.41563 ], [ 3.68962, 43.415601 ], [ 3.694361297124238, 43.415410168996637 ], [ 3.694325, 43.415404 ], [ 3.694311, 43.415406 ], [ 3.693593, 43.415196 ], [ 3.69308, 43.415083 ], [ 3.693060256304336, 43.415076985888291 ] ] ], [ [ [ 3.679772, 43.43716 ], [ 3.684443, 43.439537 ], [ 3.679853638537436, 43.437040392566963 ], [ 3.67947, 43.436762 ], [ 3.679182409250261, 43.436675244595698 ], [ 3.677386, 43.435698 ], [ 3.677172, 43.435558 ], [ 3.676408040776918, 43.436156746818966 ], [ 3.676365, 43.436157 ], [ 3.676232, 43.43619 ], [ 3.675946844047223, 43.436518205999612 ], [ 3.675674591294795, 43.436731581876927 ], [ 3.675725041314794, 43.43676444035821 ], [ 3.679450379751519, 43.437106337533429 ], [ 3.679668, 43.437102 ], [ 3.679720176509468, 43.43713109843798 ], [ 3.67973, 43.437132 ], [ 3.679772, 43.43716 ] ] ], [ [ [ 3.672202, 43.44261 ], [ 3.67261, 43.443978 ], [ 3.672727673869877, 43.444598968191706 ], [ 3.672639, 43.445008 ], [ 3.672851145218008, 43.445215663276784 ], [ 3.673900148471509, 43.444849659034915 ], [ 3.673859, 43.444782 ], [ 3.673828, 43.444746 ], [ 3.673952694780851, 43.443623450785218 ], [ 3.673102, 43.44295 ], [ 3.672349, 43.441985 ], [ 3.672329, 43.441551 ], [ 3.672965, 43.439535 ], [ 3.673151207915448, 43.438795092845048 ], [ 3.672946, 43.438978 ], [ 3.672761, 43.439889 ], [ 3.672176, 43.442096 ], [ 3.672202, 43.44261 ] ] ] ] } },
{ "type": "Feature", "properties": { "codgeo": "34108", "value": 960, "isochrone_group": 16.0, "nb_agences": 4 }, "geometry": { "type": "MultiPolygon", "coordinates": [ [ [ [ 3.742616806432213, 43.477726556697824 ], [ 3.742722492800013, 43.477611161931108 ], [ 3.742361131033633, 43.477625964109485 ], [ 3.742616806432213, 43.477726556697824 ] ] ], [ [ [ 3.755800860280498, 43.483803708917698 ], [ 3.754889, 43.481904 ], [ 3.753426, 43.479986 ], [ 3.751844442896091, 43.478259954963143 ], [ 3.752158, 43.47988 ], [ 3.753927631393485, 43.482002533530562 ], [ 3.75332097670066, 43.48246656156013 ], [ 3.75569415937831, 43.484150938972277 ], [ 3.755800860280498, 43.483803708917698 ] ] ], [ [ [ 3.751186, 43.49674 ], [ 3.750343, 43.495088 ], [ 3.750352389937504, 43.495053762843256 ], [ 3.750352, 43.495053 ], [ 3.750408, 43.494851 ], [ 3.750719, 43.494192 ], [ 3.751172, 43.49351 ], [ 3.75208612104057, 43.491990920279676 ], [ 3.750715, 43.492116 ], [ 3.749130606271569, 43.496313652675603 ], [ 3.749783, 43.497324 ], [ 3.750167, 43.498321 ], [ 3.75017006988477, 43.49831981737691 ], [ 3.75023, 43.498474 ], [ 3.750673, 43.499401 ], [ 3.751188, 43.500051 ], [ 3.75206345094114, 43.501793211407943 ], [ 3.751756132434287, 43.496819017870799 ], [ 3.75132, 43.496794 ], [ 3.751222, 43.496755 ], [ 3.751221682916594, 43.496754379682805 ], [ 3.751186, 43.49674 ] ] ], [ [ [ 3.75547253454993, 43.511564934562699 ], [ 3.755538, 43.509444 ], [ 3.755258, 43.509016 ], [ 3.754942454192511, 43.510865183052488 ], [ 3.75547253454993, 43.511564934562699 ] ] ], [ [ [ 3.821723964915619, 43.507545148984327 ], [ 3.821688, 43.507477 ], [ 3.82092207911035, 43.507760386151055 ], [ 3.819311337798927, 43.508192731247945 ], [ 3.819510753322814, 43.508238942836243 ], [ 3.819536, 43.508232 ], [ 3.820131116920835, 43.509006034150381 ], [ 3.822614, 43.509168 ], [ 3.825295821542918, 43.517274819955581 ], [ 3.825366, 43.517393 ], [ 3.826318, 43.518144 ], [ 3.82631805398787, 43.51814512463887 ], [ 3.826332971664153, 43.518156906931708 ], [ 3.824034, 43.510606 ], [ 3.822948, 43.507174 ], [ 3.822850018691504, 43.507205059069285 ], [ 3.82285, 43.507205 ], [ 3.822071, 43.507452 ], [ 3.821723964915619, 43.507545148984327 ] ] ], [ [ [ 3.829776199146518, 43.519999043578558 ], [ 3.829778, 43.52 ], [ 3.830279559293616, 43.52014192940554 ], [ 3.829776199146518, 43.519999043578558 ] ] ], [ [ [ 3.826333277955165, 43.518157148846775 ], [ 3.826385, 43.518198 ], [ 3.82936568006653, 43.519781019593253 ], [ 3.826333277955165, 43.518157148846775 ] ] ], [ [ [ 3.807221834932426, 43.478432670380684 ], [ 3.807221834932419, 43.478432670380698 ], [ 3.807126, 43.478656 ], [ 3.807221834932426, 43.478432670380684 ] ] ], [ [ [ 3.807692908654992, 43.477410712538962 ], [ 3.807868795314515, 43.477039719816737 ], [ 3.807692908655024, 43.477410712538898 ], [ 3.807692908654992, 43.477410712538962 ] ] ], [ [ [ 3.797127, 43.442163 ], [ 3.79732467323526, 43.442450085334343 ], [ 3.79736, 43.442475 ], [ 3.803273, 43.446689 ], [ 3.799829864526983, 43.44423519095497 ], [ 3.799826, 43.444231 ], [ 3.797389, 43.441581 ], [ 3.790615, 43.437718 ], [ 3.797127, 43.442163 ] ] ], [ [ [ 3.700594, 43.396562 ], [ 3.700485332583256, 43.396460490317288 ], [ 3.699756, 43.393868 ], [ 3.691842, 43.390743 ], [ 3.69165, 43.390689 ], [ 3.690044, 43.390661 ], [ 3.698175, 43.393646 ], [ 3.700026179860419, 43.397122998694357 ], [ 3.700840474058178, 43.397466875348535 ], [ 3.700594, 43.396562 ] ] ], [ [ [ 3.689076034939029, 43.390696974500976 ], [ 3.690044, 43.390661 ], [ 3.689076, 43.390696 ], [ 3.689076034939029, 43.390696974500976 ] ] ], [ [ [ 3.666461, 43.418347 ], [ 3.667581, 43.419223 ], [ 3.6696794199141, 43.420851361604271 ], [ 3.666424122338481, 43.417603425926956 ], [ 3.666461, 43.418347 ] ] ], [ [ [ 3.689467088079074, 43.415628715285663 ], [ 3.690725, 43.41603 ], [ 3.690865, 43.416015 ], [ 3.695289631891458, 43.415414988278535 ], [ 3.695263750646775, 43.41537384642357 ], [ 3.68962, 43.415601 ], [ 3.689467088079074, 43.415628715285663 ] ] ], [ [ [ 3.682685, 43.415654 ], [ 3.683765, 43.415699 ], [ 3.684148041063017, 43.41561729196426 ], [ 3.682396094335723, 43.415613100704149 ], [ 3.682685, 43.415654 ] ] ], [ [ [ 3.676277863164223, 43.435749781118652 ], [ 3.675198, 43.434781 ], [ 3.675132, 43.434784 ], [ 3.674226, 43.435084 ], [ 3.673458, 43.435678 ], [ 3.672728807863433, 43.438516711393447 ], [ 3.672064, 43.440022 ], [ 3.672119, 43.44078 ], [ 3.672132553880604, 43.440837900678908 ], [ 3.671982, 43.441424 ], [ 3.671985, 43.441468 ], [ 3.672273538602208, 43.441728021034066 ], [ 3.672761, 43.439889 ], [ 3.672946, 43.438978 ], [ 3.673151207915448, 43.438795092845048 ], [ 3.67357, 43.437131 ], [ 3.676277863164223, 43.435749781118652 ] ] ] ] } },
{ "type": "Feature", "properties": { "codgeo": "34108", "value": 1020, "isochrone_group": 17.0, "nb_agences": 4 }, "geometry": { "type": "MultiPolygon", "coordinates": [ [ [ [ 3.817832, 43.46673 ], [ 3.817946, 43.466631 ], [ 3.817969257234656, 43.466610684887527 ], [ 3.817832, 43.46673 ] ] ], [ [ [ 3.818137649078763, 43.466463595205354 ], [ 3.818199091186837, 43.466409925740571 ], [ 3.818199, 43.46641 ], [ 3.818136100577952, 43.466461808978806 ], [ 3.818137649078763, 43.466463595205354 ] ] ], [ [ [ 3.820357, 43.464525 ], [ 3.820867, 43.464099 ], [ 3.820922, 43.464026 ], [ 3.821352, 43.461611 ], [ 3.821012, 43.462087 ], [ 3.818765062469424, 43.464916036214682 ], [ 3.819240829900215, 43.465499970647102 ], [ 3.820357, 43.464525 ] ] ], [ [ [ 3.819195, 43.458186 ], [ 3.812973, 43.452382 ], [ 3.812297, 43.451796 ], [ 3.811985, 43.451707 ], [ 3.811777, 43.451693 ], [ 3.811211964092941, 43.451610956863519 ], [ 3.816735, 43.456478 ], [ 3.819195, 43.458186 ] ] ], [ [ [ 3.799829864526983, 43.44423519095497 ], [ 3.800559546505302, 43.444755211224994 ], [ 3.799156, 43.443299 ], [ 3.798817744951411, 43.443134620895066 ], [ 3.799826, 43.444231 ], [ 3.799829864526983, 43.44423519095497 ] ] ], [ [ [ 3.751474, 43.476346 ], [ 3.746880977038261, 43.473070677396606 ], [ 3.742616806432213, 43.477726556697824 ], [ 3.749267, 43.480343 ], [ 3.749953, 43.480398 ], [ 3.750749, 43.480627 ], [ 3.751683, 43.481304 ], [ 3.75332097670066, 43.48246656156013 ], [ 3.753927631393485, 43.482002533530562 ], [ 3.752158, 43.47988 ], [ 3.751474, 43.476346 ] ] ], [ [ [ 3.690044, 43.390661 ], [ 3.689103, 43.390695 ], [ 3.689103000850782, 43.390695023729556 ], [ 3.690044, 43.390661 ] ] ], [ [ [ 3.686596958429559, 43.390868494548137 ], [ 3.686596958429613, 43.390868494548123 ], [ 3.686576, 43.39087 ], [ 3.686596958429559, 43.390868494548137 ] ] ], [ [ [ 3.685822454676021, 43.390957144697332 ], [ 3.685822454676043, 43.390957144697317 ], [ 3.685694, 43.390972 ], [ 3.685822454676021, 43.390957144697332 ] ] ], [ [ [ 3.68451, 43.391253 ], [ 3.685103264105279, 43.391119265605482 ], [ 3.685694, 43.390972 ], [ 3.684043769562059, 43.391302432558405 ], [ 3.68451, 43.391253 ] ] ], [ [ [ 3.691653388512509, 43.390689953019148 ], [ 3.691842, 43.390743 ], [ 3.691656, 43.39069 ], [ 3.691653388512509, 43.390689953019148 ] ] ], [ [ [ 3.671367303331512, 43.421833629703869 ], [ 3.672683, 43.423812 ], [ 3.672841, 43.424199 ], [ 3.675210022524857, 43.424155689373464 ], [ 3.673882206421754, 43.422590919245387 ], [ 3.673313, 43.422738 ], [ 3.672907, 43.422546 ], [ 3.671367303331512, 43.421833629703869 ] ] ], [ [ [ 3.682325713373614, 43.415550147105037 ], [ 3.682018684650356, 43.415598876803976 ], [ 3.681958412627318, 43.415608442806487 ], [ 3.68195047343255, 43.41561037788113 ], [ 3.682333991458492, 43.415567394861611 ], [ 3.682325713373614, 43.415550147105037 ] ] ], [ [ [ 3.687619819626923, 43.415039420772459 ], [ 3.68731416305426, 43.414941913698719 ], [ 3.68664914519924, 43.415083771342445 ], [ 3.68712, 43.415031 ], [ 3.687619819626923, 43.415039420772459 ] ] ] ] } },
{ "type": "Feature", "properties": { "codgeo": "34108", "value": 1080, "isochrone_group": 18.0, "nb_agences": 4 }, "geometry": { "type": "MultiPolygon", "coordinates": [ [ [ [ 3.840523235627647, 43.519828923987994 ], [ 3.84052323562765, 43.519828923987994 ], [ 3.840997, 43.519689 ], [ 3.840523235627647, 43.519828923987994 ] ] ], [ [ [ 3.803590384939792, 43.491264446226467 ], [ 3.803663, 43.491409 ], [ 3.803765, 43.493549 ], [ 3.803292, 43.494556 ], [ 3.805108525100789, 43.50149732515051 ], [ 3.805304821919089, 43.501580890880611 ], [ 3.806767, 43.494196 ], [ 3.806873, 43.493659 ], [ 3.806391, 43.492279 ], [ 3.805700205107654, 43.489348778505764 ], [ 3.803590384939792, 43.491264446226467 ] ] ], [ [ [ 3.799996080583507, 43.444170602594568 ], [ 3.800559546505302, 43.444755211224994 ], [ 3.803273, 43.446689 ], [ 3.80622632728696, 43.448119032160015 ], [ 3.802551, 43.445814 ], [ 3.799996080583507, 43.444170602594568 ] ] ], [ [ [ 3.701452, 43.394002 ], [ 3.701174, 43.393954 ], [ 3.699512639624906, 43.393783376793756 ], [ 3.699711, 43.393862 ], [ 3.701092399740284, 43.398505871241198 ], [ 3.701424781040387, 43.398882948183704 ], [ 3.701596, 43.39422 ], [ 3.701452, 43.394002 ] ] ], [ [ [ 3.685822454676043, 43.390957144697317 ], [ 3.685934, 43.390932 ], [ 3.686550708105285, 43.390872924912969 ], [ 3.686576, 43.39087 ], [ 3.678272, 43.391095 ], [ 3.677885685834999, 43.391366421982646 ], [ 3.680252616948676, 43.391704393386746 ], [ 3.684043769562059, 43.391302432558405 ], [ 3.685694, 43.390972 ], [ 3.685822454676043, 43.390957144697317 ] ] ], [ [ [ 3.668028, 43.419233 ], [ 3.670211, 43.420676 ], [ 3.671007, 43.421348 ], [ 3.671059517745117, 43.421370822526285 ], [ 3.669450564260415, 43.418951491491811 ], [ 3.668120285974498, 43.418440288284117 ], [ 3.667964, 43.41914 ], [ 3.668028, 43.419233 ] ] ], [ [ [ 3.644534, 43.445477 ], [ 3.643117098808518, 43.445226394968707 ], [ 3.643418, 43.445356 ], [ 3.644987653054225, 43.445622761009098 ], [ 3.644851, 43.445579 ], [ 3.644534, 43.445477 ] ] ] ] } },
{ "type": "Feature", "properties": { "codgeo": "34108", "value": 1140, "isochrone_group": 19.0, "nb_agences": 4 }, "geometry": { "type": "MultiPolygon", "coordinates": [ [ [ [ 3.808659, 43.484726 ], [ 3.807954, 43.47686 ], [ 3.807692908654992, 43.477410712538962 ], [ 3.807312, 43.478252 ], [ 3.807221834932426, 43.478432670380684 ], [ 3.807126, 43.478656 ], [ 3.806324878201719, 43.48440854567167 ], [ 3.806505, 43.48467 ], [ 3.806706, 43.486333 ], [ 3.805919, 43.487323 ], [ 3.807221, 43.485915 ], [ 3.807817, 43.485385 ], [ 3.808659, 43.484726 ] ] ], [ [ [ 3.690855, 43.390896 ], [ 3.690044, 43.390661 ], [ 3.698175, 43.393646 ], [ 3.690855, 43.390896 ] ] ], [ [ [ 3.681013836650227, 43.391020708905792 ], [ 3.67578, 43.390535 ], [ 3.675075, 43.390497 ], [ 3.673162, 43.390975 ], [ 3.673429, 43.39091 ], [ 3.673583, 43.390884 ], [ 3.673831, 43.39086 ], [ 3.674262, 43.390849 ], [ 3.677885685834999, 43.391366421982646 ], [ 3.678272, 43.391095 ], [ 3.681013836650227, 43.391020708905792 ] ] ], [ [ [ 3.657547424990685, 43.406160202837754 ], [ 3.657273, 43.405171 ], [ 3.656477, 43.403165 ], [ 3.65582974071926, 43.40186889734828 ], [ 3.656502, 43.403768 ], [ 3.656892, 43.404493 ], [ 3.656975, 43.404619 ], [ 3.657547424990685, 43.406160202837754 ] ] ], [ [ [ 3.660015, 43.414708 ], [ 3.660068, 43.414744 ], [ 3.664531, 43.417052 ], [ 3.666417002906083, 43.41778011436682 ], [ 3.666383, 43.417342 ], [ 3.666371447927711, 43.417251740490059 ], [ 3.662828, 43.41532 ], [ 3.660013045902809, 43.414599384764486 ], [ 3.660015, 43.414708 ] ] ], [ [ [ 3.667855301684703, 43.419436345754768 ], [ 3.668661, 43.420549 ], [ 3.669418, 43.421 ], [ 3.670148391469922, 43.421219860032174 ], [ 3.667855301684703, 43.419436345754768 ] ] ], [ [ [ 3.673776, 43.423666 ], [ 3.674128, 43.423753 ], [ 3.676181890836901, 43.42289708375101 ], [ 3.674866179390521, 43.422293190838836 ], [ 3.674772, 43.422361 ], [ 3.673313, 43.422738 ], [ 3.672935, 43.422568 ], [ 3.670326, 43.421358 ], [ 3.670179941550181, 43.421244398983475 ], [ 3.670538, 43.421708 ], [ 3.670838, 43.422097 ], [ 3.671908, 43.422732 ], [ 3.671974, 43.422776 ], [ 3.672334893100836, 43.42277674874088 ], [ 3.672527, 43.422952 ], [ 3.673533, 43.423564 ], [ 3.673776, 43.423666 ] ] ], [ [ [ 3.668185, 43.457609 ], [ 3.667948036272746, 43.457094410130743 ], [ 3.667693, 43.456115 ], [ 3.667025, 43.455123 ], [ 3.66734, 43.455774 ], [ 3.668091, 43.458003 ], [ 3.668185, 43.457609 ] ] ], [ [ [ 3.641734, 43.444162 ], [ 3.64112, 43.443817 ], [ 3.640838, 43.44366 ], [ 3.636385113432044, 43.442363578890934 ], [ 3.636782, 43.442522 ], [ 3.637039, 43.442668 ], [ 3.640661808188827, 43.444788668208091 ], [ 3.643086, 43.445213 ], [ 3.643117098808518, 43.445226394968707 ], [ 3.644534, 43.445477 ], [ 3.644851, 43.445579 ], [ 3.644987653054224, 43.445622761009098 ], [ 3.644987653054225, 43.445622761009098 ], [ 3.65205, 43.446823 ], [ 3.655327, 43.446613 ], [ 3.655758349165791, 43.446494506319901 ], [ 3.649729, 43.445957 ], [ 3.649497, 43.445894 ], [ 3.648895, 43.44583 ], [ 3.644753568379637, 43.445191623316326 ], [ 3.641734, 43.444162 ] ] ], [ [ [ 3.634998, 43.442001 ], [ 3.635786026201542, 43.442189159596872 ], [ 3.635758, 43.442181 ], [ 3.633002, 43.441237 ], [ 3.629443273980273, 43.439570871883511 ], [ 3.630008292156327, 43.440230174039201 ], [ 3.630013, 43.440233 ], [ 3.634998, 43.442001 ] ] ] ] } },
{ "type": "Feature", "properties": { "codgeo": "34108", "value": 1200, "isochrone_group": 20.0, "nb_agences": 4 }, "geometry": { "type": "MultiPolygon", "coordinates": [ [ [ [ 3.814505911432128, 43.507443853171509 ], [ 3.814794585980078, 43.507540330295711 ], [ 3.811041466815212, 43.504714514321797 ], [ 3.81152956438338, 43.50584253704271 ], [ 3.814505911432128, 43.507443853171509 ] ] ], [ [ [ 3.672472, 43.391289 ], [ 3.672772, 43.39113 ], [ 3.66930454614121, 43.392272722478587 ], [ 3.67100159325448, 43.392031474614903 ], [ 3.672472, 43.391289 ] ] ], [ [ [ 3.667080727423775, 43.392567496667475 ], [ 3.66355829136297, 43.392782341601759 ], [ 3.663815704181477, 43.392896165216229 ], [ 3.667080727423775, 43.392567496667475 ] ] ], [ [ [ 3.678366, 43.423279 ], [ 3.676354, 43.424126 ], [ 3.675461185290744, 43.424366023506359 ], [ 3.678348, 43.424114 ], [ 3.678584, 43.423754 ], [ 3.678599, 43.423698 ], [ 3.681935125634321, 43.415614118705683 ], [ 3.681934918906419, 43.415614169092898 ], [ 3.678805, 43.421894 ], [ 3.678698, 43.422491 ], [ 3.678491, 43.423059 ], [ 3.678366, 43.423279 ] ] ], [ [ [ 3.656099, 43.446197 ], [ 3.654753896977248, 43.446404961099596 ], [ 3.657140524140639, 43.446617724890217 ], [ 3.657327207756706, 43.44661866959224 ], [ 3.657674, 43.446589 ], [ 3.658681647115662, 43.44662552365704 ], [ 3.659171, 43.446628 ], [ 3.659474, 43.44665 ], [ 3.659654437315164, 43.446660783873696 ], [ 3.660157, 43.446679 ], [ 3.660231744616574, 43.446695286764708 ], [ 3.660411, 43.446706 ], [ 3.660632, 43.446739 ], [ 3.664476, 43.447543 ], [ 3.665220478426911, 43.447216707205314 ], [ 3.665179, 43.447164 ], [ 3.664723, 43.447142 ], [ 3.663952488282599, 43.446980690824255 ], [ 3.662842, 43.446505 ], [ 3.662452, 43.446439 ], [ 3.662256799707818, 43.446437387250477 ], [ 3.662173, 43.446378 ], [ 3.662097261500506, 43.446361219613891 ], [ 3.662097, 43.446361 ], [ 3.661338, 43.446193 ], [ 3.661304, 43.446185 ], [ 3.660744, 43.446072 ], [ 3.659993895653368, 43.446151946368069 ], [ 3.659249, 43.445996 ], [ 3.658806, 43.445977 ], [ 3.656099, 43.446197 ] ] ], [ [ [ 3.633002, 43.441237 ], [ 3.635758, 43.442181 ], [ 3.635786026201542, 43.442189159596872 ], [ 3.635911, 43.442219 ], [ 3.636306, 43.442332 ], [ 3.636385113432041, 43.442363578890934 ], [ 3.64033458087779, 43.443513433684686 ], [ 3.638545, 43.442408 ], [ 3.638334, 43.44228 ], [ 3.630661, 43.439646 ], [ 3.63035, 43.439466 ], [ 3.62655190087782, 43.43782925749597 ], [ 3.627014151162467, 43.438432891537232 ], [ 3.627019534444438, 43.438436122941013 ], [ 3.633002, 43.441237 ] ] ] ] } }
]
}
