{
"type": "FeatureCollection",
"name": "BPCE",
"crs": { "type": "name", "properties": { "name": "urn:ogc:def:crs:OGC:1.3:CRS84" } },
"features": [
{ "type": "Feature", "properties": { "codgeo": "31091", "value": 60, "isochrone_group": 1.0, "nb_agences": 1 }, "geometry": { "type": "Polygon", "coordinates": [ [ [ 1.408403, 43.727311 ], [ 1.408708, 43.727119 ], [ 1.41054, 43.72656 ], [ 1.412109, 43.726375 ], [ 1.413447, 43.726575 ], [ 1.413635, 43.726881 ], [ 1.414492, 43.730297 ], [ 1.414262, 43.730574 ], [ 1.409539, 43.730925 ], [ 1.409195, 43.730817 ], [ 1.408403, 43.727311 ] ] ] } },
{ "type": "Feature", "properties": { "codgeo": "31091", "value": 120, "isochrone_group": 2.0, "nb_agences": 1 }, "geometry": { "type": "Polygon", "coordinates": [ [ [ 1.415169, 43.732404 ], [ 1.415471, 43.7326 ], [ 1.417874, 43.731959 ], [ 1.419087, 43.73033 ], [ 1.418803, 43.730109 ], [ 1.416648, 43.726163 ], [ 1.416847, 43.724081 ], [ 1.415859, 43.721122 ], [ 1.415505, 43.721055 ], [ 1.411864, 43.723191 ], [ 1.40866, 43.72175 ], [ 1.407953, 43.721673 ], [ 1.407732, 43.721957 ], [ 1.406721, 43.725241 ], [ 1.40671, 43.725601 ], [ 1.407512, 43.730869 ], [ 1.403043, 43.732649 ], [ 1.401841, 43.732637 ], [ 1.401608, 43.732911 ], [ 1.40166, 43.734055 ], [ 1.401995, 43.734186 ], [ 1.405791, 43.733451 ], [ 1.407257, 43.732904 ], [ 1.408836, 43.732205 ], [ 1.410938049350299, 43.730821026609782 ], [ 1.409539, 43.730925 ], [ 1.409195, 43.730817 ], [ 1.408403, 43.727311 ], [ 1.408708, 43.727119 ], [ 1.41054, 43.72656 ], [ 1.412109, 43.726375 ], [ 1.413447, 43.726575 ], [ 1.413635, 43.726881 ], [ 1.414492, 43.730297 ], [ 1.414262, 43.730574 ], [ 1.411823023284505, 43.730755257850333 ], [ 1.415169, 43.732404 ] ] ] } },
{ "type": "Feature", "properties": { "codgeo": "31091", "value": 180, "isochrone_group": 3.0, "nb_agences": 1 }, "geometry": { "type": "Polygon", "coordinates": [ [ [ 1.39924, 43.741617 ], [ 1.399566, 43.74177 ], [ 1.399757, 43.741361 ], [ 1.399949, 43.740952 ], [ 1.403333, 43.737141 ], [ 1.411178, 43.736462 ], [ 1.411298, 43.736502 ], [ 1.411481, 43.736523 ], [ 1.411817, 43.736436 ], [ 1.417232, 43.734279 ], [ 1.420856, 43.73287 ], [ 1.424976, 43.728291 ], [ 1.42601, 43.726203 ], [ 1.425737, 43.725967 ], [ 1.419387, 43.722606 ], [ 1.418514, 43.716948 ], [ 1.419262, 43.715122 ], [ 1.418995, 43.714881 ], [ 1.4182, 43.715764 ], [ 1.414767, 43.71838 ], [ 1.40652, 43.718026 ], [ 1.406167, 43.7181 ], [ 1.405079, 43.720962 ], [ 1.400422, 43.72863 ], [ 1.396809, 43.733409 ], [ 1.39924, 43.741617 ] ], [ [ 1.401841, 43.732637 ], [ 1.403043, 43.732649 ], [ 1.407512, 43.730869 ], [ 1.40671, 43.725601 ], [ 1.406721, 43.725241 ], [ 1.407732, 43.721957 ], [ 1.407953, 43.721673 ], [ 1.40866, 43.72175 ], [ 1.411864, 43.723191 ], [ 1.415505, 43.721055 ], [ 1.415859, 43.721122 ], [ 1.416847, 43.724081 ], [ 1.416648, 43.726163 ], [ 1.418803, 43.730109 ], [ 1.419087, 43.73033 ], [ 1.417874, 43.731959 ], [ 1.415471, 43.7326 ], [ 1.415169, 43.732404 ], [ 1.411374, 43.730534 ], [ 1.408836, 43.732205 ], [ 1.407257, 43.732904 ], [ 1.405791, 43.733451 ], [ 1.401995, 43.734186 ], [ 1.40166, 43.734055 ], [ 1.401608, 43.732911 ], [ 1.401841, 43.732637 ] ] ] } },
{ "type": "Feature", "properties": { "codgeo": "31091", "value": 240, "isochrone_group": 4.0, "nb_agences": 1 }, "geometry": { "type": "Polygon", "coordinates": [ [ [ 1.39968, 43.728906 ], [ 1.399118, 43.729059 ], [ 1.398674, 43.729182 ], [ 1.398215, 43.729311 ], [ 1.397795, 43.729467 ], [ 1.397376, 43.729624 ], [ 1.395836, 43.735108 ], [ 1.394727, 43.741909 ], [ 1.396649, 43.745135 ], [ 1.399324, 43.747553 ], [ 1.399673, 43.747641 ], [ 1.407456, 43.748029 ], [ 1.408572, 43.744244 ], [ 1.412794, 43.739392 ], [ 1.41782, 43.735883 ], [ 1.422558, 43.734481 ], [ 1.422765, 43.734186 ], [ 1.42299, 43.73336 ], [ 1.425448, 43.728442 ], [ 1.429527, 43.725607 ], [ 1.430907, 43.724367 ], [ 1.431444, 43.723291 ], [ 1.431452, 43.723259 ], [ 1.431468, 43.723193 ], [ 1.43148, 43.722933 ], [ 1.430988, 43.722555 ], [ 1.430683, 43.722747 ], [ 1.425767, 43.723715 ], [ 1.422663, 43.722446 ], [ 1.42131, 43.715807 ], [ 1.421096, 43.71431 ], [ 1.421097, 43.712455 ], [ 1.420664, 43.709628 ], [ 1.420651, 43.709304 ], [ 1.420291, 43.709319 ], [ 1.41779, 43.71255 ], [ 1.416856, 43.713335 ], [ 1.40919, 43.716978 ], [ 1.406313, 43.715486 ], [ 1.404118, 43.713301 ], [ 1.403782, 43.713429 ], [ 1.401382, 43.719356 ], [ 1.401408, 43.719715 ], [ 1.403489703911152, 43.723578861157257 ], [ 1.405079, 43.720962 ], [ 1.406167, 43.7181 ], [ 1.40652, 43.718026 ], [ 1.414767, 43.71838 ], [ 1.4182, 43.715764 ], [ 1.418995, 43.714881 ], [ 1.419262, 43.715122 ], [ 1.418514, 43.716948 ], [ 1.419387, 43.722606 ], [ 1.425737, 43.725967 ], [ 1.42601, 43.726203 ], [ 1.424976, 43.728291 ], [ 1.420856, 43.73287 ], [ 1.417232, 43.734279 ], [ 1.411817, 43.736436 ], [ 1.411481, 43.736523 ], [ 1.411298, 43.736502 ], [ 1.411178, 43.736462 ], [ 1.403333, 43.737141 ], [ 1.399949, 43.740952 ], [ 1.399757, 43.741361 ], [ 1.399566, 43.74177 ], [ 1.39924, 43.741617 ], [ 1.396809, 43.733409 ], [ 1.400278949427488, 43.72881921635372 ], [ 1.39968, 43.728906 ] ] ] } },
{ "type": "Feature", "properties": { "codgeo": "31091", "value": 300, "isochrone_group": 5.0, "nb_agences": 1 }, "geometry": { "type": "Polygon", "coordinates": [ [ [ 1.425263, 43.73541 ], [ 1.431819, 43.729418 ], [ 1.435487, 43.723665 ], [ 1.43543, 43.723493 ], [ 1.43362, 43.720447 ], [ 1.433478, 43.7203 ], [ 1.433328, 43.720229 ], [ 1.43179, 43.71954 ], [ 1.43146, 43.719684 ], [ 1.423692, 43.717341 ], [ 1.422899, 43.715184 ], [ 1.423042, 43.709817 ], [ 1.423166, 43.709479 ], [ 1.423606418667376, 43.708108148874345 ], [ 1.421634, 43.707505 ], [ 1.421321, 43.707328 ], [ 1.4215110364328, 43.705247127528317 ], [ 1.418239, 43.705234 ], [ 1.417985, 43.705489 ], [ 1.415317, 43.708457 ], [ 1.407625, 43.70787 ], [ 1.406912, 43.703507 ], [ 1.40707, 43.702813 ], [ 1.406747, 43.702653 ], [ 1.406573, 43.703005 ], [ 1.406399, 43.703357 ], [ 1.406066, 43.704527 ], [ 1.405584, 43.706081 ], [ 1.40487, 43.708351 ], [ 1.404158, 43.710615 ], [ 1.403946, 43.711288 ], [ 1.403735, 43.71196 ], [ 1.403674, 43.712242 ], [ 1.403658, 43.712586 ], [ 1.403676, 43.712845 ], [ 1.398307, 43.719622 ], [ 1.397396, 43.719693 ], [ 1.397152, 43.719722 ], [ 1.396053, 43.719761 ], [ 1.396004, 43.719978 ], [ 1.395976, 43.720112 ], [ 1.396916, 43.720861 ], [ 1.396944, 43.729842 ], [ 1.393139, 43.735999 ], [ 1.392114, 43.744921 ], [ 1.391756, 43.745422 ], [ 1.396038, 43.750781 ], [ 1.397211, 43.752605 ], [ 1.39742, 43.752898 ], [ 1.398293, 43.752455 ], [ 1.406963, 43.754475 ], [ 1.407076, 43.754521 ], [ 1.407303, 43.754534 ], [ 1.407509, 43.754526 ], [ 1.407744, 43.754503 ], [ 1.407979, 43.75448 ], [ 1.410524, 43.748921 ], [ 1.41059, 43.748567 ], [ 1.409764, 43.742968 ], [ 1.414895, 43.740456 ], [ 1.414995, 43.740474 ], [ 1.415056, 43.740119 ], [ 1.41782, 43.735883 ], [ 1.423143, 43.734795 ], [ 1.425263, 43.73541 ] ], [ [ 1.412794, 43.739392 ], [ 1.408572, 43.744244 ], [ 1.407456, 43.748029 ], [ 1.399673, 43.747641 ], [ 1.399324, 43.747553 ], [ 1.396649, 43.745135 ], [ 1.394727, 43.741909 ], [ 1.395836, 43.735108 ], [ 1.397376, 43.729624 ], [ 1.397795, 43.729467 ], [ 1.398215, 43.729311 ], [ 1.398674, 43.729182 ], [ 1.399118, 43.729059 ], [ 1.39968, 43.728906 ], [ 1.400522, 43.728784 ], [ 1.404987, 43.726358 ], [ 1.401408, 43.719715 ], [ 1.401382, 43.719356 ], [ 1.403782, 43.713429 ], [ 1.404118, 43.713301 ], [ 1.406313, 43.715486 ], [ 1.40919, 43.716978 ], [ 1.416856, 43.713335 ], [ 1.41779, 43.71255 ], [ 1.420291, 43.709319 ], [ 1.420651, 43.709304 ], [ 1.420664, 43.709628 ], [ 1.421097, 43.712455 ], [ 1.421096, 43.71431 ], [ 1.42131, 43.715807 ], [ 1.422663, 43.722446 ], [ 1.425767, 43.723715 ], [ 1.430683, 43.722747 ], [ 1.430988, 43.722555 ], [ 1.43148, 43.722933 ], [ 1.431468, 43.723193 ], [ 1.431452, 43.723259 ], [ 1.431444, 43.723291 ], [ 1.430907, 43.724367 ], [ 1.429527, 43.725607 ], [ 1.425448, 43.728442 ], [ 1.42299, 43.73336 ], [ 1.422765, 43.734186 ], [ 1.422558, 43.734481 ], [ 1.41782, 43.735883 ], [ 1.412794, 43.739392 ] ] ] } },
{ "type": "Feature", "properties": { "codgeo": "31091", "value": 360, "isochrone_group": 6.0, "nb_agences": 1 }, "geometry": { "type": "MultiPolygon", "coordinates": [ [ [ [ 1.392156, 43.734697 ], [ 1.389751, 43.736271 ], [ 1.391513, 43.742943 ], [ 1.389371, 43.7459 ], [ 1.388905, 43.7465 ], [ 1.388589, 43.74745 ], [ 1.38716, 43.75191 ], [ 1.386472, 43.753807 ], [ 1.386441, 43.755438 ], [ 1.393981, 43.758938 ], [ 1.3969, 43.756525 ], [ 1.405231, 43.759588 ], [ 1.405894, 43.759876 ], [ 1.406455, 43.759958 ], [ 1.406707, 43.759916 ], [ 1.407185, 43.759831 ], [ 1.414656, 43.756121 ], [ 1.414683, 43.752521 ], [ 1.414349, 43.748935 ], [ 1.414332429079588, 43.740731419635964 ], [ 1.409764, 43.742968 ], [ 1.41059, 43.748567 ], [ 1.410524, 43.748921 ], [ 1.407979, 43.75448 ], [ 1.407744, 43.754503 ], [ 1.407509, 43.754526 ], [ 1.407303, 43.754534 ], [ 1.407076, 43.754521 ], [ 1.406963, 43.754475 ], [ 1.398293, 43.752455 ], [ 1.39742, 43.752898 ], [ 1.397211, 43.752605 ], [ 1.396038, 43.750781 ], [ 1.391756, 43.745422 ], [ 1.392114, 43.744921 ], [ 1.393139, 43.735999 ], [ 1.394995725659227, 43.732994569018693 ], [ 1.393168, 43.734135 ], [ 1.392156, 43.734697 ] ] ], [ [ [ 1.42345, 43.73786 ], [ 1.423877, 43.738077 ], [ 1.424506, 43.738203 ], [ 1.430079, 43.738334 ], [ 1.433548, 43.736105 ], [ 1.434141, 43.735152 ], [ 1.434318, 43.734361 ], [ 1.434816, 43.732281 ], [ 1.439467, 43.726813 ], [ 1.443277, 43.721258 ], [ 1.443306, 43.718607 ], [ 1.443169, 43.718458 ], [ 1.442002, 43.717892 ], [ 1.434949543545471, 43.714410265288684 ], [ 1.434161, 43.714818 ], [ 1.430792, 43.716086 ], [ 1.42924, 43.714293 ], [ 1.422963444193856, 43.712765314766223 ], [ 1.422899, 43.715184 ], [ 1.423692, 43.717341 ], [ 1.43146, 43.719684 ], [ 1.43179, 43.71954 ], [ 1.433328, 43.720229 ], [ 1.433478, 43.7203 ], [ 1.43362, 43.720447 ], [ 1.43543, 43.723493 ], [ 1.435487, 43.723665 ], [ 1.431819, 43.729418 ], [ 1.425263, 43.73541 ], [ 1.423143, 43.734795 ], [ 1.41782, 43.735883 ], [ 1.415543863942791, 43.739371318501561 ], [ 1.423047, 43.737584 ], [ 1.42345, 43.73786 ] ] ], [ [ [ 1.409785, 43.697441 ], [ 1.409761, 43.697414 ], [ 1.406835, 43.697449 ], [ 1.402137, 43.701811 ], [ 1.401562, 43.70397 ], [ 1.401124, 43.705266 ], [ 1.402189, 43.711474 ], [ 1.395767, 43.714983 ], [ 1.393405, 43.715543 ], [ 1.389568, 43.716502 ], [ 1.38843, 43.719891 ], [ 1.390736, 43.72203 ], [ 1.391208, 43.722197 ], [ 1.391621, 43.722317 ], [ 1.392202, 43.722442 ], [ 1.393771, 43.722772 ], [ 1.395626, 43.72341 ], [ 1.396937332034034, 43.727703249916338 ], [ 1.396916, 43.720861 ], [ 1.395976, 43.720112 ], [ 1.396004, 43.719978 ], [ 1.396053, 43.719761 ], [ 1.397152, 43.719722 ], [ 1.397396, 43.719693 ], [ 1.398307, 43.719622 ], [ 1.403676, 43.712845 ], [ 1.403658, 43.712586 ], [ 1.403674, 43.712242 ], [ 1.403735, 43.71196 ], [ 1.403946, 43.711288 ], [ 1.404158, 43.710615 ], [ 1.40487, 43.708351 ], [ 1.405584, 43.706081 ], [ 1.406066, 43.704527 ], [ 1.406399, 43.703357 ], [ 1.406573, 43.703005 ], [ 1.406747, 43.702653 ], [ 1.40707, 43.702813 ], [ 1.406912, 43.703507 ], [ 1.407625, 43.70787 ], [ 1.415317, 43.708457 ], [ 1.416866977751275, 43.706732736894367 ], [ 1.416575, 43.703054 ], [ 1.413712335596653, 43.699887444543386 ], [ 1.409785, 43.697441 ] ] ] ] } },
{ "type": "Feature", "properties": { "codgeo": "31091", "value": 420, "isochrone_group": 7.0, "nb_agences": 1 }, "geometry": { "type": "MultiPolygon", "coordinates": [ [ [ [ 1.387257, 43.761213 ], [ 1.387517, 43.761593 ], [ 1.388786, 43.762369 ], [ 1.391325, 43.761621 ], [ 1.39192, 43.761317 ], [ 1.393861, 43.759101 ], [ 1.393979573868553, 43.758937338002653 ], [ 1.391488594070273, 43.757781047645359 ], [ 1.385360882331773, 43.758364677785821 ], [ 1.387257, 43.761213 ] ] ], [ [ [ 1.388589, 43.74745 ], [ 1.388905, 43.7465 ], [ 1.385148237114109, 43.747239860463999 ], [ 1.387820520186199, 43.749848474436362 ], [ 1.388589, 43.74745 ] ] ], [ [ [ 1.389835, 43.740518 ], [ 1.388905, 43.7465 ], [ 1.389371, 43.7459 ], [ 1.391513, 43.742943 ], [ 1.389751, 43.736271 ], [ 1.392156, 43.734697 ], [ 1.39001, 43.736101 ], [ 1.387864, 43.737506 ], [ 1.389835, 43.740518 ] ] ], [ [ [ 1.403884, 43.762865 ], [ 1.404037, 43.763082 ], [ 1.404498, 43.763535 ], [ 1.405405, 43.763896 ], [ 1.408005, 43.764315 ], [ 1.408046, 43.764282 ], [ 1.411222, 43.760261 ], [ 1.415855, 43.755972 ], [ 1.418894, 43.754992 ], [ 1.424394, 43.752162 ], [ 1.425265, 43.750375 ], [ 1.430244, 43.743569 ], [ 1.431916, 43.742062 ], [ 1.434043, 43.739612 ], [ 1.434376, 43.739191 ], [ 1.43492, 43.738315 ], [ 1.43529, 43.737001 ], [ 1.434881, 43.735835 ], [ 1.440821, 43.729526 ], [ 1.442845, 43.72903 ], [ 1.443281, 43.728644 ], [ 1.443632, 43.727278 ], [ 1.448271, 43.71995 ], [ 1.449938, 43.718634 ], [ 1.449419, 43.715071 ], [ 1.448936, 43.715142 ], [ 1.448565, 43.715226 ], [ 1.445671, 43.715492 ], [ 1.443148, 43.71806 ], [ 1.437717286495855, 43.714297459836722 ], [ 1.437263812170962, 43.715552799022362 ], [ 1.442002, 43.717892 ], [ 1.443169, 43.718458 ], [ 1.443306, 43.718607 ], [ 1.443277, 43.721258 ], [ 1.439467, 43.726813 ], [ 1.434816, 43.732281 ], [ 1.434318, 43.734361 ], [ 1.434141, 43.735152 ], [ 1.433548, 43.736105 ], [ 1.430079, 43.738334 ], [ 1.424506, 43.738203 ], [ 1.423877, 43.738077 ], [ 1.42345, 43.73786 ], [ 1.423047, 43.737584 ], [ 1.414714, 43.739569 ], [ 1.414332, 43.740519 ], [ 1.414349, 43.748935 ], [ 1.414683, 43.752521 ], [ 1.414656, 43.756121 ], [ 1.407185, 43.759831 ], [ 1.406707, 43.759916 ], [ 1.406455, 43.759958 ], [ 1.405894, 43.759876 ], [ 1.405231, 43.759588 ], [ 1.3969, 43.756525 ], [ 1.395987947280392, 43.757278951083386 ], [ 1.403024, 43.760046 ], [ 1.403204, 43.760417 ], [ 1.403884, 43.762865 ] ] ], [ [ [ 1.398013, 43.699871 ], [ 1.397258, 43.700464 ], [ 1.397068, 43.700814 ], [ 1.396684, 43.701599 ], [ 1.396431, 43.702119 ], [ 1.396517, 43.703146 ], [ 1.397982, 43.70561 ], [ 1.398012, 43.711494 ], [ 1.392977, 43.714063 ], [ 1.389087652586505, 43.714762001840796 ], [ 1.387763, 43.718836 ], [ 1.387922, 43.723792 ], [ 1.387814995666403, 43.724432428921993 ], [ 1.391008, 43.725915 ], [ 1.392156, 43.734697 ], [ 1.393168, 43.734135 ], [ 1.397984, 43.73113 ], [ 1.395626, 43.72341 ], [ 1.393771, 43.722772 ], [ 1.392202, 43.722442 ], [ 1.391621, 43.722317 ], [ 1.391208, 43.722197 ], [ 1.390736, 43.72203 ], [ 1.38843, 43.719891 ], [ 1.389568, 43.716502 ], [ 1.393405, 43.715543 ], [ 1.395767, 43.714983 ], [ 1.402189, 43.711474 ], [ 1.401124, 43.705266 ], [ 1.401562, 43.70397 ], [ 1.402137, 43.701811 ], [ 1.406000123515365, 43.698224166289052 ], [ 1.405737834956551, 43.697117167486539 ], [ 1.404132, 43.698598 ], [ 1.398013, 43.699871 ] ] ], [ [ [ 1.386211, 43.715279 ], [ 1.385628, 43.715259 ], [ 1.384677, 43.715471 ], [ 1.383909, 43.716023 ], [ 1.383484, 43.716725 ], [ 1.382855, 43.719738 ], [ 1.383297590411502, 43.720160036396898 ], [ 1.384300097119641, 43.718416239517246 ], [ 1.384577, 43.717705 ], [ 1.384979, 43.717155 ], [ 1.385096, 43.717017 ], [ 1.38668278204401, 43.715194210321378 ], [ 1.386211, 43.715279 ] ] ] ] } },
{ "type": "Feature", "properties": { "codgeo": "31091", "value": 480, "isochrone_group": 8.0, "nb_agences": 1 }, "geometry": { "type": "MultiPolygon", "coordinates": [ [ [ [ 1.393634, 43.702792 ], [ 1.396661, 43.704742 ], [ 1.395899, 43.71252 ], [ 1.395872461586453, 43.712585653264028 ], [ 1.398012, 43.711494 ], [ 1.397982, 43.70561 ], [ 1.396517, 43.703146 ], [ 1.396431, 43.702119 ], [ 1.396684, 43.701599 ], [ 1.397068, 43.700814 ], [ 1.397258, 43.700464 ], [ 1.398013, 43.699871 ], [ 1.404132, 43.698598 ], [ 1.4042471723671, 43.698491792954769 ], [ 1.40318561518772, 43.695440094016817 ], [ 1.398409, 43.69537 ], [ 1.394987, 43.698104 ], [ 1.393503656981733, 43.701972645527498 ], [ 1.393634, 43.702792 ] ] ], [ [ [ 1.385482, 43.73979 ], [ 1.385453, 43.739894 ], [ 1.385416, 43.740465 ], [ 1.383549215849765, 43.7414708515212 ], [ 1.38561, 43.746801 ], [ 1.388980062192855, 43.746017180604667 ], [ 1.389835, 43.740518 ], [ 1.387864, 43.737506 ], [ 1.39001, 43.736101 ], [ 1.392156, 43.734697 ], [ 1.391406093811879, 43.728960348306543 ], [ 1.388196982358934, 43.731357764436723 ], [ 1.385986, 43.738769 ], [ 1.385482, 43.73979 ] ] ], [ [ [ 1.380666468118296, 43.722511447855354 ], [ 1.380918, 43.722494 ], [ 1.381433389300358, 43.721070580522245 ], [ 1.381235, 43.721491 ], [ 1.380666468118296, 43.722511447855354 ] ] ], [ [ [ 1.401475, 43.768577 ], [ 1.404509, 43.77098 ], [ 1.408026, 43.771749 ], [ 1.410016, 43.767666 ], [ 1.415423, 43.764314 ], [ 1.416934, 43.764048 ], [ 1.416666, 43.760458 ], [ 1.419487155075981, 43.754686794751812 ], [ 1.418894, 43.754992 ], [ 1.415855, 43.755972 ], [ 1.411222, 43.760261 ], [ 1.408046, 43.764282 ], [ 1.408005, 43.764315 ], [ 1.405405, 43.763896 ], [ 1.404498, 43.763535 ], [ 1.404037, 43.763082 ], [ 1.403884, 43.762865 ], [ 1.403204, 43.760417 ], [ 1.403024, 43.760046 ], [ 1.395959154534361, 43.757267627840115 ], [ 1.394166, 43.758683 ], [ 1.394163696531716, 43.758683202051955 ], [ 1.393861, 43.759101 ], [ 1.400067, 43.765264 ], [ 1.399796, 43.766553 ], [ 1.399992, 43.767042 ], [ 1.400306, 43.767561 ], [ 1.401475, 43.768577 ] ] ], [ [ [ 1.433871, 43.748075 ], [ 1.434828, 43.743345 ], [ 1.434882, 43.742579 ], [ 1.434871, 43.741927 ], [ 1.43492, 43.738315 ], [ 1.434376, 43.739191 ], [ 1.434043, 43.739612 ], [ 1.431916, 43.742062 ], [ 1.430244, 43.743569 ], [ 1.425265, 43.750375 ], [ 1.424533357197308, 43.751876085750183 ], [ 1.425092, 43.75158 ], [ 1.428279, 43.751349 ], [ 1.428921, 43.751161 ], [ 1.43209, 43.749751 ], [ 1.433871, 43.748075 ] ] ], [ [ [ 1.445744, 43.730191 ], [ 1.452644, 43.72506 ], [ 1.453595, 43.725106 ], [ 1.454121, 43.724837 ], [ 1.455041, 43.722375 ], [ 1.458527, 43.71496 ], [ 1.458205, 43.71303 ], [ 1.457946, 43.712641 ], [ 1.457771, 43.712475 ], [ 1.45683, 43.711785 ], [ 1.456228, 43.712107 ], [ 1.450686, 43.713621 ], [ 1.446151, 43.712966 ], [ 1.440523260089511, 43.710648937351337 ], [ 1.439977, 43.713778 ], [ 1.438465684789085, 43.714815969722068 ], [ 1.443148, 43.71806 ], [ 1.445671, 43.715492 ], [ 1.448565, 43.715226 ], [ 1.448936, 43.715142 ], [ 1.449419, 43.715071 ], [ 1.449938, 43.718634 ], [ 1.448271, 43.71995 ], [ 1.443632, 43.727278 ], [ 1.443281, 43.728644 ], [ 1.442845, 43.72903 ], [ 1.440821, 43.729526 ], [ 1.434881, 43.735835 ], [ 1.43529, 43.737001 ], [ 1.443037, 43.732661 ], [ 1.443495, 43.733009 ], [ 1.444166, 43.733266 ], [ 1.44438, 43.733321 ], [ 1.445744, 43.730191 ] ] ] ] } },
{ "type": "Feature", "properties": { "codgeo": "31091", "value": 540, "isochrone_group": 9.0, "nb_agences": 1 }, "geometry": { "type": "MultiPolygon", "coordinates": [ [ [ [ 1.385482, 43.73979 ], [ 1.385986, 43.738769 ], [ 1.387904985074264, 43.732336542332334 ], [ 1.386785, 43.733113 ], [ 1.386149, 43.734107 ], [ 1.385266, 43.735441 ], [ 1.384851, 43.736161 ], [ 1.382817, 43.739577 ], [ 1.383555680043502, 43.741467368515885 ], [ 1.385416, 43.740465 ], [ 1.385453, 43.739894 ], [ 1.385482, 43.73979 ] ] ], [ [ [ 1.396931662254764, 43.696469791414046 ], [ 1.397743, 43.694387 ], [ 1.39807670782094, 43.693270457811799 ], [ 1.396513627504766, 43.694613755586154 ], [ 1.396931662254764, 43.696469791414046 ] ] ], [ [ [ 1.397091, 43.771564 ], [ 1.404165, 43.777059 ], [ 1.405748, 43.779129 ], [ 1.406291, 43.779218 ], [ 1.407596, 43.778149 ], [ 1.408009, 43.777058 ], [ 1.410576, 43.773059 ], [ 1.417182, 43.769375 ], [ 1.417278, 43.769343 ], [ 1.41768, 43.768526 ], [ 1.421762, 43.764088 ], [ 1.425051, 43.762624 ], [ 1.431245, 43.76016 ], [ 1.433739, 43.752849 ], [ 1.439541, 43.746773 ], [ 1.440456, 43.746212 ], [ 1.438573, 43.743144 ], [ 1.43529, 43.737001 ], [ 1.43492, 43.738315 ], [ 1.434871, 43.741927 ], [ 1.434882, 43.742579 ], [ 1.434828, 43.743345 ], [ 1.433871, 43.748075 ], [ 1.43209, 43.749751 ], [ 1.428921, 43.751161 ], [ 1.428279, 43.751349 ], [ 1.425092, 43.75158 ], [ 1.419577, 43.754503 ], [ 1.416666, 43.760458 ], [ 1.416934, 43.764048 ], [ 1.415423, 43.764314 ], [ 1.410016, 43.767666 ], [ 1.408026, 43.771749 ], [ 1.404509, 43.77098 ], [ 1.401475, 43.768577 ], [ 1.400306, 43.767561 ], [ 1.399992, 43.767042 ], [ 1.399796, 43.766553 ], [ 1.400067, 43.765264 ], [ 1.393861, 43.759101 ], [ 1.39192, 43.761317 ], [ 1.391325, 43.761621 ], [ 1.389121, 43.760601 ], [ 1.392061, 43.767847 ], [ 1.392362, 43.771434 ], [ 1.392912, 43.771413 ], [ 1.394264, 43.771444 ], [ 1.394733, 43.771439 ], [ 1.397091, 43.771564 ] ] ], [ [ [ 1.446026, 43.734924 ], [ 1.446487, 43.735002 ], [ 1.446636, 43.734993 ], [ 1.449457, 43.733835 ], [ 1.457418, 43.729684 ], [ 1.45877, 43.730577 ], [ 1.459361, 43.730949 ], [ 1.460845, 43.730476 ], [ 1.460968, 43.73036 ], [ 1.461279, 43.727903 ], [ 1.461055, 43.723275 ], [ 1.460698, 43.715214 ], [ 1.462757, 43.713302 ], [ 1.463213, 43.712985 ], [ 1.46395, 43.712393 ], [ 1.464991, 43.711571 ], [ 1.465187, 43.710111 ], [ 1.465149, 43.710007 ], [ 1.464261, 43.708928 ], [ 1.464122, 43.708804 ], [ 1.462468, 43.708948 ], [ 1.46024, 43.709681 ], [ 1.460196, 43.709698 ], [ 1.458025, 43.71071 ], [ 1.457814, 43.710806 ], [ 1.449717, 43.712092 ], [ 1.44511, 43.712507 ], [ 1.444916161461355, 43.712457590176427 ], [ 1.446151, 43.712966 ], [ 1.450686, 43.713621 ], [ 1.456228, 43.712107 ], [ 1.45683, 43.711785 ], [ 1.457771, 43.712475 ], [ 1.457946, 43.712641 ], [ 1.458205, 43.71303 ], [ 1.458527, 43.71496 ], [ 1.455041, 43.722375 ], [ 1.454121, 43.724837 ], [ 1.453595, 43.725106 ], [ 1.452644, 43.72506 ], [ 1.445744, 43.730191 ], [ 1.44438, 43.733321 ], [ 1.444166, 43.733266 ], [ 1.443495, 43.733009 ], [ 1.444219, 43.733628 ], [ 1.444561, 43.733978 ], [ 1.444956, 43.734278 ], [ 1.445548, 43.734731 ], [ 1.445984, 43.734913 ], [ 1.446026, 43.734924 ] ] ] ] } },
{ "type": "Feature", "properties": { "codgeo": "31091", "value": 600, "isochrone_group": 10.0, "nb_agences": 1 }, "geometry": { "type": "MultiPolygon", "coordinates": [ [ [ [ 1.38468, 43.770987 ], [ 1.385289, 43.772547 ], [ 1.390785, 43.775067 ], [ 1.399449, 43.777116 ], [ 1.403737, 43.780974 ], [ 1.405225, 43.782194 ], [ 1.405493, 43.782241 ], [ 1.406644, 43.781441 ], [ 1.408371, 43.779946 ], [ 1.411247414241336, 43.772684569169677 ], [ 1.410576, 43.773059 ], [ 1.408009, 43.777058 ], [ 1.407596, 43.778149 ], [ 1.406291, 43.779218 ], [ 1.405748, 43.779129 ], [ 1.404165, 43.777059 ], [ 1.397091, 43.771564 ], [ 1.394733, 43.771439 ], [ 1.394264, 43.771444 ], [ 1.392912, 43.771413 ], [ 1.392362, 43.771434 ], [ 1.392061, 43.767847 ], [ 1.389121, 43.760601 ], [ 1.387113, 43.761001 ], [ 1.382223659463242, 43.761300929743598 ], [ 1.384679, 43.768999 ], [ 1.384658, 43.770577 ], [ 1.38468, 43.770987 ] ] ], [ [ [ 1.434936, 43.760253 ], [ 1.439461, 43.758803 ], [ 1.438998, 43.755233 ], [ 1.439541, 43.746773 ], [ 1.433739, 43.752849 ], [ 1.431245, 43.76016 ], [ 1.425051, 43.762624 ], [ 1.421762, 43.764088 ], [ 1.41768, 43.768526 ], [ 1.417278, 43.769343 ], [ 1.417182, 43.769375 ], [ 1.41322204367447, 43.771583368014419 ], [ 1.420574, 43.770417 ], [ 1.422761, 43.770551 ], [ 1.423874, 43.77051 ], [ 1.425926, 43.768027 ], [ 1.428471, 43.765481 ], [ 1.434936, 43.760253 ] ] ], [ [ [ 1.457293, 43.732245 ], [ 1.462772, 43.733998 ], [ 1.463391, 43.734542 ], [ 1.463728, 43.734799 ], [ 1.464957, 43.735969 ], [ 1.465412, 43.736392 ], [ 1.466772, 43.736367 ], [ 1.466992, 43.736256 ], [ 1.467859, 43.733751 ], [ 1.467404, 43.733329 ], [ 1.466211, 43.732192 ], [ 1.465765, 43.731809 ], [ 1.464974, 43.731082 ], [ 1.464598, 43.730731 ], [ 1.464216, 43.73042 ], [ 1.463629, 43.730022 ], [ 1.462348, 43.728859 ], [ 1.461864, 43.728339 ], [ 1.46126918416226, 43.727700197780969 ], [ 1.461279, 43.727903 ], [ 1.460968, 43.73036 ], [ 1.460845, 43.730476 ], [ 1.459361, 43.730949 ], [ 1.45877, 43.730577 ], [ 1.457418, 43.729684 ], [ 1.449457, 43.733835 ], [ 1.446636, 43.734993 ], [ 1.446487, 43.735002 ], [ 1.446026, 43.734924 ], [ 1.445984, 43.734913 ], [ 1.445548, 43.734731 ], [ 1.444956, 43.734278 ], [ 1.444561, 43.733978 ], [ 1.444219, 43.733628 ], [ 1.443495, 43.733009 ], [ 1.443037, 43.732661 ], [ 1.43529, 43.737001 ], [ 1.438573, 43.743144 ], [ 1.440455624621545, 43.746211388390272 ], [ 1.440681, 43.746073 ], [ 1.444352, 43.74522 ], [ 1.447824, 43.741471 ], [ 1.451968, 43.738809 ], [ 1.452601, 43.738423 ], [ 1.457293, 43.732245 ] ] ], [ [ [ 1.464774, 43.71404 ], [ 1.466646, 43.710965 ], [ 1.467591427905116, 43.709582068214878 ], [ 1.464468, 43.708532 ], [ 1.463943, 43.708492 ], [ 1.46316, 43.708156 ], [ 1.462713, 43.707736 ], [ 1.460418139540586, 43.706914479532436 ], [ 1.458365, 43.707527 ], [ 1.458057, 43.707673 ], [ 1.457505, 43.708072 ], [ 1.455488, 43.710366 ], [ 1.45002702571461, 43.710028811498596 ], [ 1.449807152686738, 43.712077681566598 ], [ 1.457814, 43.710806 ], [ 1.458025, 43.71071 ], [ 1.460196, 43.709698 ], [ 1.46024, 43.709681 ], [ 1.462468, 43.708948 ], [ 1.464122, 43.708804 ], [ 1.464261, 43.708928 ], [ 1.465149, 43.710007 ], [ 1.465187, 43.710111 ], [ 1.464991, 43.711571 ], [ 1.46395, 43.712393 ], [ 1.463213, 43.712985 ], [ 1.462757, 43.713302 ], [ 1.460698, 43.715214 ], [ 1.460734113025224, 43.716029426040137 ], [ 1.46084, 43.716025 ], [ 1.461329, 43.716377 ], [ 1.462827, 43.716755 ], [ 1.463035, 43.716644 ], [ 1.463435, 43.716375 ], [ 1.464774, 43.71404 ] ] ] ] } },
{ "type": "Feature", "properties": { "codgeo": "31091", "value": 660, "isochrone_group": 11.0, "nb_agences": 1 }, "geometry": { "type": "MultiPolygon", "coordinates": [ [ [ [ 1.380241, 43.770467 ], [ 1.380629, 43.772852 ], [ 1.382258, 43.775194 ], [ 1.385858, 43.775238 ], [ 1.391989, 43.776785 ], [ 1.394008, 43.779194 ], [ 1.39855618320206, 43.781872118027607 ], [ 1.398737, 43.781719 ], [ 1.399083, 43.78141 ], [ 1.399379, 43.781193 ], [ 1.40231189146705, 43.779691801138043 ], [ 1.399449, 43.777116 ], [ 1.390785, 43.775067 ], [ 1.385289, 43.772547 ], [ 1.38468, 43.770987 ], [ 1.384658, 43.770577 ], [ 1.384679, 43.768999 ], [ 1.383227100249418, 43.764446952690101 ], [ 1.380621, 43.766758 ], [ 1.379779881143991, 43.767981761581268 ], [ 1.38029, 43.769705 ], [ 1.380255, 43.769752 ], [ 1.380241, 43.770467 ] ] ], [ [ [ 1.408371, 43.779946 ], [ 1.407843139796528, 43.780402949047023 ], [ 1.410854408513095, 43.783065567128418 ], [ 1.411125, 43.782841 ], [ 1.411085, 43.782359 ], [ 1.411009, 43.778252 ], [ 1.411762, 43.771815 ], [ 1.411456, 43.772158 ], [ 1.408371, 43.779946 ] ] ], [ [ [ 1.43728, 43.763817 ], [ 1.441824, 43.763439 ], [ 1.44387, 43.762458 ], [ 1.449757, 43.756512 ], [ 1.449243, 43.753743 ], [ 1.448849, 43.753029 ], [ 1.451683, 43.744737 ], [ 1.453101, 43.742831 ], [ 1.460061, 43.73716 ], [ 1.461306, 43.737695 ], [ 1.461634, 43.737903 ], [ 1.465272, 43.737978 ], [ 1.46729, 43.738371 ], [ 1.468102, 43.73858 ], [ 1.469954, 43.738804 ], [ 1.470038, 43.738761 ], [ 1.470911, 43.738094 ], [ 1.470852, 43.735863 ], [ 1.46934, 43.734352 ], [ 1.466211, 43.732192 ], [ 1.467404, 43.733329 ], [ 1.467859, 43.733751 ], [ 1.466992, 43.736256 ], [ 1.466772, 43.736367 ], [ 1.465412, 43.736392 ], [ 1.464957, 43.735969 ], [ 1.463728, 43.734799 ], [ 1.463391, 43.734542 ], [ 1.462772, 43.733998 ], [ 1.457293, 43.732245 ], [ 1.452601, 43.738423 ], [ 1.451968, 43.738809 ], [ 1.447824, 43.741471 ], [ 1.444352, 43.74522 ], [ 1.440681, 43.746073 ], [ 1.439541, 43.746773 ], [ 1.438998, 43.755233 ], [ 1.439461, 43.758803 ], [ 1.434936, 43.760253 ], [ 1.428471, 43.765481 ], [ 1.425926, 43.768027 ], [ 1.423874, 43.77051 ], [ 1.422761, 43.770551 ], [ 1.420574, 43.770417 ], [ 1.411762, 43.771815 ], [ 1.420475, 43.770769 ], [ 1.42813, 43.771455 ], [ 1.428367, 43.771549 ], [ 1.429174, 43.770267 ], [ 1.429692, 43.768202 ], [ 1.436397, 43.763889 ], [ 1.436805, 43.76388 ], [ 1.43728, 43.763817 ] ] ], [ [ [ 1.463629, 43.730022 ], [ 1.464216, 43.73042 ], [ 1.462348, 43.728859 ], [ 1.463629, 43.730022 ] ] ], [ [ [ 1.454492579739102, 43.724177348337051 ], [ 1.457269, 43.725253 ], [ 1.459116, 43.72629 ], [ 1.459513, 43.726431 ], [ 1.460138, 43.72665 ], [ 1.460674, 43.727061 ], [ 1.460782, 43.718104 ], [ 1.461542, 43.717655 ], [ 1.462825483024302, 43.716754617211755 ], [ 1.461329, 43.716377 ], [ 1.46084, 43.716025 ], [ 1.458218430394559, 43.71613458073287 ], [ 1.455358, 43.722641 ], [ 1.454492579739102, 43.724177348337051 ] ] ], [ [ [ 1.465457930292358, 43.712916556811436 ], [ 1.464774, 43.71404 ], [ 1.463481020434395, 43.716294747786201 ], [ 1.464842, 43.71534 ], [ 1.46960947906367, 43.712327620385999 ], [ 1.465457930292358, 43.712916556811436 ] ] ] ] } },
{ "type": "Feature", "properties": { "codgeo": "31091", "value": 720, "isochrone_group": 12.0, "nb_agences": 1 }, "geometry": { "type": "MultiPolygon", "coordinates": [ [ [ [ 1.391098971968086, 43.782672172641739 ], [ 1.394955453505862, 43.779751891404466 ], [ 1.394008, 43.779194 ], [ 1.391989, 43.776785 ], [ 1.385858, 43.775238 ], [ 1.383614452922759, 43.77521057886905 ], [ 1.384074602343826, 43.778272180944178 ], [ 1.384766, 43.77849 ], [ 1.386417, 43.782131 ], [ 1.391098971968086, 43.782672172641739 ] ] ], [ [ [ 1.411009, 43.778252 ], [ 1.411057329730844, 43.780863713218082 ], [ 1.416586651405683, 43.78498662479123 ], [ 1.416349, 43.781573 ], [ 1.415531, 43.779789 ], [ 1.414142, 43.774627 ], [ 1.420475, 43.770769 ], [ 1.411762, 43.771815 ], [ 1.411009, 43.778252 ] ] ], [ [ [ 1.447184, 43.7645 ], [ 1.447616, 43.764187 ], [ 1.449878, 43.761279 ], [ 1.452043, 43.758403 ], [ 1.459495, 43.754705 ], [ 1.460063, 43.754563 ], [ 1.460882, 43.75427 ], [ 1.461123, 43.754176 ], [ 1.459816, 43.750822 ], [ 1.455821, 43.747375 ], [ 1.455326, 43.743809 ], [ 1.455781840273703, 43.740646654426413 ], [ 1.453101, 43.742831 ], [ 1.451683, 43.744737 ], [ 1.448849, 43.753029 ], [ 1.449243, 43.753743 ], [ 1.449757, 43.756512 ], [ 1.44387, 43.762458 ], [ 1.441824, 43.763439 ], [ 1.43728, 43.763817 ], [ 1.436805, 43.76388 ], [ 1.436397, 43.763889 ], [ 1.429692, 43.768202 ], [ 1.429174, 43.770267 ], [ 1.428367, 43.771549 ], [ 1.42813, 43.771455 ], [ 1.420475, 43.770769 ], [ 1.427485, 43.774662 ], [ 1.42756, 43.774706 ], [ 1.430577, 43.777223 ], [ 1.433267, 43.776187 ], [ 1.433355, 43.776142 ], [ 1.434853, 43.773705 ], [ 1.440492, 43.770369 ], [ 1.447184, 43.7645 ] ] ], [ [ [ 1.472697, 43.741224 ], [ 1.473381, 43.740825 ], [ 1.473912, 43.740429 ], [ 1.474195, 43.740196 ], [ 1.477497, 43.734031 ], [ 1.476777, 43.732203 ], [ 1.476467, 43.731945 ], [ 1.475488, 43.731044 ], [ 1.471218, 43.731205 ], [ 1.471153, 43.731228 ], [ 1.464216, 43.73042 ], [ 1.464598, 43.730731 ], [ 1.464974, 43.731082 ], [ 1.465765, 43.731809 ], [ 1.466211, 43.732192 ], [ 1.46934, 43.734352 ], [ 1.470852, 43.735863 ], [ 1.470911, 43.738094 ], [ 1.470038, 43.738761 ], [ 1.469954, 43.738804 ], [ 1.468102, 43.73858 ], [ 1.46729, 43.738371 ], [ 1.465272, 43.737978 ], [ 1.461872379431404, 43.7379079143643 ], [ 1.462626, 43.738281 ], [ 1.463245, 43.738877 ], [ 1.46334, 43.738976 ], [ 1.463707, 43.73937 ], [ 1.464553, 43.739918 ], [ 1.468059, 43.742952 ], [ 1.471501, 43.741896 ], [ 1.472697, 43.741224 ] ] ], [ [ [ 1.461542, 43.717655 ], [ 1.461027734840809, 43.717958822442725 ], [ 1.461068830498552, 43.719069658967641 ], [ 1.465346, 43.717503 ], [ 1.466875, 43.717505 ], [ 1.467757, 43.71658 ], [ 1.471749259676581, 43.71594564256003 ], [ 1.467302, 43.71407 ], [ 1.466670181943737, 43.714184844844752 ], [ 1.464842, 43.71534 ], [ 1.461542, 43.717655 ] ] ] ] } },
{ "type": "Feature", "properties": { "codgeo": "31091", "value": 780, "isochrone_group": 13.0, "nb_agences": 1 }, "geometry": { "type": "Polygon", "coordinates": [ [ [ 1.448872, 43.765296 ], [ 1.453953, 43.764566 ], [ 1.455776, 43.764329 ], [ 1.455961, 43.764154 ], [ 1.456335, 43.761867 ], [ 1.463054, 43.757944 ], [ 1.4659, 43.75786 ], [ 1.466278, 43.757915 ], [ 1.466474, 43.757925 ], [ 1.469508, 43.751659 ], [ 1.473233, 43.749443 ], [ 1.475829, 43.74695 ], [ 1.476269, 43.739129 ], [ 1.477643, 43.736724 ], [ 1.4785, 43.734298 ], [ 1.483119, 43.729521 ], [ 1.48328, 43.729402 ], [ 1.481137, 43.726509 ], [ 1.481154393846947, 43.726002774632157 ], [ 1.479695, 43.72626 ], [ 1.47959, 43.725663 ], [ 1.475412, 43.719944 ], [ 1.473492, 43.716899 ], [ 1.467524286958891, 43.716824058461498 ], [ 1.466875, 43.717505 ], [ 1.465346, 43.717503 ], [ 1.459509, 43.719641 ], [ 1.460674, 43.727061 ], [ 1.461864, 43.728339 ], [ 1.462348, 43.728859 ], [ 1.463629, 43.730022 ], [ 1.464216, 43.73042 ], [ 1.471153, 43.731228 ], [ 1.471218, 43.731205 ], [ 1.475488, 43.731044 ], [ 1.476467, 43.731945 ], [ 1.476777, 43.732203 ], [ 1.477497, 43.734031 ], [ 1.474195, 43.740196 ], [ 1.473912, 43.740429 ], [ 1.473381, 43.740825 ], [ 1.472697, 43.741224 ], [ 1.471501, 43.741896 ], [ 1.468059, 43.742952 ], [ 1.464553, 43.739918 ], [ 1.463707, 43.73937 ], [ 1.46334, 43.738976 ], [ 1.463245, 43.738877 ], [ 1.462626, 43.738281 ], [ 1.456556, 43.735276 ], [ 1.455326, 43.743809 ], [ 1.455821, 43.747375 ], [ 1.459816, 43.750822 ], [ 1.461123, 43.754176 ], [ 1.460882, 43.75427 ], [ 1.460063, 43.754563 ], [ 1.459495, 43.754705 ], [ 1.452043, 43.758403 ], [ 1.449878, 43.761279 ], [ 1.447616, 43.764187 ], [ 1.447184, 43.7645 ], [ 1.440492, 43.770369 ], [ 1.434853, 43.773705 ], [ 1.433355, 43.776142 ], [ 1.433267, 43.776187 ], [ 1.430577, 43.777223 ], [ 1.42756, 43.774706 ], [ 1.427485, 43.774662 ], [ 1.420475, 43.770769 ], [ 1.414142, 43.774627 ], [ 1.414952850113948, 43.777640396895741 ], [ 1.421214, 43.781184 ], [ 1.421865, 43.781301 ], [ 1.423285, 43.781503 ], [ 1.428019852563934, 43.785034810893293 ], [ 1.428192, 43.785009 ], [ 1.428586, 43.784992 ], [ 1.434065, 43.784336 ], [ 1.437204, 43.784008 ], [ 1.438161, 43.783889 ], [ 1.438716, 43.78174 ], [ 1.445223, 43.778233 ], [ 1.445463, 43.778062 ], [ 1.445337, 43.775389 ], [ 1.445489, 43.766527 ], [ 1.448872, 43.765296 ] ] ] } },
{ "type": "Feature", "properties": { "codgeo": "31091", "value": 840, "isochrone_group": 14.0, "nb_agences": 1 }, "geometry": { "type": "Polygon", "coordinates": [ [ [ 1.482756, 43.741669 ], [ 1.485104, 43.733321 ], [ 1.487389029041949, 43.731129201550203 ], [ 1.487419014116592, 43.729547267079674 ], [ 1.486931, 43.730025 ], [ 1.484333, 43.732518 ], [ 1.481160240167623, 43.731546762225435 ], [ 1.4785, 43.734298 ], [ 1.477643, 43.736724 ], [ 1.476269, 43.739129 ], [ 1.475829, 43.74695 ], [ 1.473233, 43.749443 ], [ 1.469508, 43.751659 ], [ 1.466474, 43.757925 ], [ 1.466278, 43.757915 ], [ 1.4659, 43.75786 ], [ 1.463054, 43.757944 ], [ 1.456335, 43.761867 ], [ 1.455961, 43.764154 ], [ 1.455776, 43.764329 ], [ 1.453953, 43.764566 ], [ 1.448872, 43.765296 ], [ 1.445489, 43.766527 ], [ 1.445337, 43.775389 ], [ 1.445345430382655, 43.775567844546337 ], [ 1.445462, 43.775485 ], [ 1.450464171009835, 43.776394173743213 ], [ 1.450487, 43.775176 ], [ 1.457581, 43.77039 ], [ 1.458028, 43.769148 ], [ 1.458179, 43.768563 ], [ 1.463475, 43.762557 ], [ 1.465152, 43.762385 ], [ 1.46546, 43.762196 ], [ 1.465929, 43.7618 ], [ 1.470743, 43.757777 ], [ 1.478153, 43.754873 ], [ 1.481045, 43.752729 ], [ 1.484109, 43.745005 ], [ 1.482756, 43.741669 ] ] ] } },
{ "type": "Feature", "properties": { "codgeo": "31091", "value": 900, "isochrone_group": 15.0, "nb_agences": 1 }, "geometry": { "type": "MultiPolygon", "coordinates": [ [ [ [ 1.459927, 43.777451 ], [ 1.460811534498249, 43.777962379138408 ], [ 1.457864057510928, 43.772968607782886 ], [ 1.459365, 43.776869 ], [ 1.459927, 43.777451 ] ] ], [ [ [ 1.456182125988491, 43.771333756839439 ], [ 1.457359, 43.771167 ], [ 1.457469, 43.771942 ], [ 1.457523907673335, 43.772084684655347 ], [ 1.458028, 43.769148 ], [ 1.457581, 43.77039 ], [ 1.456182125988491, 43.771333756839439 ] ] ], [ [ [ 1.463475, 43.762557 ], [ 1.460264878583313, 43.766197481349806 ], [ 1.465152, 43.762385 ], [ 1.463475, 43.762557 ] ] ], [ [ [ 1.480415, 43.758092 ], [ 1.478440307230902, 43.754660003214731 ], [ 1.478153, 43.754873 ], [ 1.470743, 43.757777 ], [ 1.465929, 43.7618 ], [ 1.46546, 43.762196 ], [ 1.465152, 43.762385 ], [ 1.468773, 43.762704 ], [ 1.4691, 43.762574 ], [ 1.471886, 43.760294 ], [ 1.480187, 43.758083 ], [ 1.480498771695397, 43.758569252276395 ], [ 1.480415, 43.758092 ] ] ] ] } },
{ "type": "Feature", "properties": { "codgeo": "31091", "value": 960, "isochrone_group": 16.0, "nb_agences": 1 }, "geometry": { "type": "Polygon", "coordinates": [ [ [ 1.4691, 43.762574 ], [ 1.468773, 43.762704 ], [ 1.465152, 43.762385 ], [ 1.45881974027227, 43.767324844963085 ], [ 1.45941620771087, 43.76838483809599 ], [ 1.463938, 43.765899 ], [ 1.467537, 43.765846 ], [ 1.470219, 43.765135 ], [ 1.473795, 43.765549 ], [ 1.478233684402756, 43.767625035559007 ], [ 1.476437, 43.76271 ], [ 1.472833, 43.760386 ], [ 1.472457383108715, 43.760141810136922 ], [ 1.471886, 43.760294 ], [ 1.4691, 43.762574 ] ] ] } },
{ "type": "Feature", "properties": { "codgeo": "31091", "value": 1020, "isochrone_group": 17.0, "nb_agences": 1 }, "geometry": { "type": "Polygon", "coordinates": [ [ [ 1.469517866249743, 43.775798566615052 ], [ 1.475188, 43.774617 ], [ 1.475354815130335, 43.774368354007059 ], [ 1.474157, 43.771485 ], [ 1.474922523760501, 43.76607635883159 ], [ 1.473795, 43.765549 ], [ 1.470219, 43.765135 ], [ 1.467537, 43.765846 ], [ 1.465401669273457, 43.765877445548355 ], [ 1.465755, 43.770661 ], [ 1.465497, 43.771542 ], [ 1.466279859125966, 43.774021832088877 ], [ 1.469517866249743, 43.775798566615052 ] ] ] } }
]
}
