{
"type": "FeatureCollection",
"name": "BPCE",
"crs": { "type": "name", "properties": { "name": "urn:ogc:def:crs:OGC:1.3:CRS84" } },
"features": [
{ "type": "Feature", "properties": { "codgeo": "66176", "value": 60, "isochrone_group": 1.0, "nb_agences": 1 }, "geometry": { "type": "Polygon", "coordinates": [ [ [ 2.96347, 42.784742 ], [ 2.963534, 42.784162 ], [ 2.964593, 42.782756 ], [ 2.964779, 42.782534 ], [ 2.96485, 42.782504 ], [ 2.96761, 42.783086 ], [ 2.969438, 42.783669 ], [ 2.970198, 42.783954 ], [ 2.970287, 42.784052 ], [ 2.971206, 42.785396 ], [ 2.971176, 42.785755 ], [ 2.967871, 42.786752 ], [ 2.965436, 42.788117 ], [ 2.965409, 42.788132 ], [ 2.965174, 42.788082 ], [ 2.964009, 42.787598 ], [ 2.963722, 42.78738 ], [ 2.96347, 42.784742 ] ] ] } },
{ "type": "Feature", "properties": { "codgeo": "66176", "value": 120, "isochrone_group": 2.0, "nb_agences": 1 }, "geometry": { "type": "Polygon", "coordinates": [ [ [ 2.961361, 42.791269 ], [ 2.961664, 42.791463 ], [ 2.966501, 42.791382 ], [ 2.968037, 42.792661 ], [ 2.968357, 42.792496 ], [ 2.972247, 42.789512 ], [ 2.977082, 42.786248 ], [ 2.977106, 42.785889 ], [ 2.977071, 42.780855 ], [ 2.976759, 42.780676 ], [ 2.974316, 42.781422 ], [ 2.970141, 42.779794 ], [ 2.969832, 42.779609 ], [ 2.964415, 42.778449 ], [ 2.961202, 42.779023 ], [ 2.961147, 42.779379 ], [ 2.960521, 42.785212 ], [ 2.960647, 42.785549 ], [ 2.961361, 42.791269 ] ], [ [ 2.963534, 42.784162 ], [ 2.964593, 42.782756 ], [ 2.964779, 42.782534 ], [ 2.96485, 42.782504 ], [ 2.96761, 42.783086 ], [ 2.969438, 42.783669 ], [ 2.970198, 42.783954 ], [ 2.970287, 42.784052 ], [ 2.971206, 42.785396 ], [ 2.971176, 42.785755 ], [ 2.967871, 42.786752 ], [ 2.965436, 42.788117 ], [ 2.965409, 42.788132 ], [ 2.965174, 42.788082 ], [ 2.964009, 42.787598 ], [ 2.963722, 42.78738 ], [ 2.96347, 42.784742 ], [ 2.963534, 42.784162 ] ] ] } },
{ "type": "Feature", "properties": { "codgeo": "66176", "value": 180, "isochrone_group": 3.0, "nb_agences": 1 }, "geometry": { "type": "Polygon", "coordinates": [ [ [ 2.9527, 42.797872 ], [ 2.957903, 42.797008 ], [ 2.964161, 42.795651 ], [ 2.968123, 42.796378 ], [ 2.969569, 42.796536 ], [ 2.975015, 42.79362 ], [ 2.981921, 42.788845 ], [ 2.982147, 42.788565 ], [ 2.979997, 42.78074 ], [ 2.979411811356462, 42.779779390334376 ], [ 2.979266, 42.779845 ], [ 2.979015, 42.779587 ], [ 2.979072188813003, 42.779531192559283 ], [ 2.979072, 42.779531 ], [ 2.979133236055277, 42.779471474449068 ], [ 2.979085, 42.779426 ], [ 2.972968, 42.779564 ], [ 2.969565, 42.779006 ], [ 2.961924, 42.776164 ], [ 2.961572, 42.776091 ], [ 2.960729, 42.776061 ], [ 2.953313, 42.777208 ], [ 2.950434, 42.777212 ], [ 2.948203, 42.777214 ], [ 2.945972, 42.777216 ], [ 2.945972, 42.777576 ], [ 2.948203, 42.777574 ], [ 2.950434, 42.777572 ], [ 2.953314, 42.777568 ], [ 2.95779, 42.782818 ], [ 2.958746, 42.789081 ], [ 2.956109, 42.794752 ], [ 2.953411, 42.796874 ], [ 2.953126, 42.797095 ], [ 2.952503, 42.797571 ], [ 2.9527, 42.797872 ] ], [ [ 2.961147, 42.779379 ], [ 2.961202, 42.779023 ], [ 2.964415, 42.778449 ], [ 2.969832, 42.779609 ], [ 2.970141, 42.779794 ], [ 2.974316, 42.781422 ], [ 2.976759, 42.780676 ], [ 2.977071, 42.780855 ], [ 2.977106, 42.785889 ], [ 2.977082, 42.786248 ], [ 2.972247, 42.789512 ], [ 2.968357, 42.792496 ], [ 2.968037, 42.792661 ], [ 2.966501, 42.791382 ], [ 2.961664, 42.791463 ], [ 2.961361, 42.791269 ], [ 2.960647, 42.785549 ], [ 2.960521, 42.785212 ], [ 2.961147, 42.779379 ] ] ] } },
{ "type": "Feature", "properties": { "codgeo": "66176", "value": 240, "isochrone_group": 4.0, "nb_agences": 1 }, "geometry": { "type": "MultiPolygon", "coordinates": [ [ [ [ 2.944668, 42.776936 ], [ 2.941222, 42.777246 ], [ 2.939279, 42.777252 ], [ 2.935722, 42.77726 ], [ 2.932165, 42.777269 ], [ 2.929159, 42.777276 ], [ 2.926152, 42.777284 ], [ 2.926153, 42.777644 ], [ 2.92916, 42.777636 ], [ 2.932166, 42.777629 ], [ 2.935723, 42.77762 ], [ 2.94241, 42.779298 ], [ 2.944061, 42.77951 ], [ 2.946027, 42.779736 ], [ 2.953219, 42.783148 ], [ 2.955562, 42.789088 ], [ 2.95428, 42.7929 ], [ 2.952473, 42.79518 ], [ 2.949585, 42.797149 ], [ 2.94932, 42.797393 ], [ 2.945953, 42.800294 ], [ 2.941584, 42.804271 ], [ 2.941334, 42.804417 ], [ 2.941515, 42.804728 ], [ 2.944271, 42.804291 ], [ 2.947423, 42.80244 ], [ 2.954116, 42.80148 ], [ 2.96116, 42.800256 ], [ 2.96804, 42.80061 ], [ 2.970939, 42.799903 ], [ 2.971067, 42.799864 ], [ 2.975334, 42.797254 ], [ 2.981624, 42.793557 ], [ 2.984417, 42.79122 ], [ 2.984559, 42.79089 ], [ 2.984812, 42.789445 ], [ 2.985158, 42.786261 ], [ 2.989567497269399, 42.784027537394387 ], [ 2.989015, 42.783938 ], [ 2.986034, 42.784348 ], [ 2.985805, 42.78407 ], [ 2.98052822294015, 42.782673404421715 ], [ 2.982147, 42.788565 ], [ 2.981921, 42.788845 ], [ 2.975015, 42.79362 ], [ 2.969569, 42.796536 ], [ 2.968123, 42.796378 ], [ 2.964161, 42.795651 ], [ 2.957903, 42.797008 ], [ 2.9527, 42.797872 ], [ 2.952503, 42.797571 ], [ 2.953126, 42.797095 ], [ 2.953411, 42.796874 ], [ 2.956109, 42.794752 ], [ 2.958746, 42.789081 ], [ 2.95779, 42.782818 ], [ 2.953314, 42.777568 ], [ 2.950434, 42.777572 ], [ 2.948203, 42.777574 ], [ 2.945972, 42.777576 ], [ 2.945972, 42.777216 ], [ 2.947551274424653, 42.77721458424525 ], [ 2.945028, 42.776933 ], [ 2.944668, 42.776936 ] ] ], [ [ [ 2.962848, 42.769369 ], [ 2.960185, 42.768299 ], [ 2.959848, 42.768427 ], [ 2.959682, 42.769525 ], [ 2.957635, 42.774403 ], [ 2.950434, 42.777212 ], [ 2.953313, 42.777208 ], [ 2.960729, 42.776061 ], [ 2.961572, 42.776091 ], [ 2.961924, 42.776164 ], [ 2.969565, 42.779006 ], [ 2.972968, 42.779564 ], [ 2.975540487499027, 42.779505964480158 ], [ 2.971010247147767, 42.775274351473243 ], [ 2.970319, 42.774639 ], [ 2.968297, 42.775155 ], [ 2.967962, 42.775288 ], [ 2.965607, 42.77555 ], [ 2.965466, 42.775219 ], [ 2.965696378916622, 42.770768544130462 ], [ 2.962848, 42.769369 ] ] ] ] } },
{ "type": "Feature", "properties": { "codgeo": "66176", "value": 300, "isochrone_group": 5.0, "nb_agences": 1 }, "geometry": { "type": "MultiPolygon", "coordinates": [ [ [ [ 2.955309, 42.766155 ], [ 2.955651, 42.766827 ], [ 2.95519, 42.772366 ], [ 2.947053, 42.773202 ], [ 2.946926, 42.773098 ], [ 2.945513, 42.77264 ], [ 2.944934, 42.773086 ], [ 2.939276, 42.775632 ], [ 2.935718, 42.77564 ], [ 2.932161, 42.775649 ], [ 2.928604, 42.775658 ], [ 2.925048, 42.775666 ], [ 2.924953, 42.775669 ], [ 2.921313, 42.775672 ], [ 2.917646, 42.775679 ], [ 2.916433, 42.775636 ], [ 2.915571, 42.775624 ], [ 2.913376, 42.775668 ], [ 2.91176, 42.775721 ], [ 2.911011, 42.77577 ], [ 2.910325, 42.77584 ], [ 2.908907, 42.77605 ], [ 2.907428, 42.776368 ], [ 2.906688, 42.776546 ], [ 2.905868, 42.776775 ], [ 2.906776, 42.780258 ], [ 2.914767, 42.780281 ], [ 2.914978, 42.780309 ], [ 2.917058, 42.780167 ], [ 2.922842, 42.779356 ], [ 2.924168, 42.779316 ], [ 2.925054, 42.779266 ], [ 2.925148, 42.779264 ], [ 2.928612, 42.779258 ], [ 2.93217, 42.779249 ], [ 2.937518, 42.781463 ], [ 2.937776, 42.781398 ], [ 2.944062, 42.782069 ], [ 2.945453, 42.782897 ], [ 2.947712, 42.783291 ], [ 2.951835, 42.790145 ], [ 2.94821, 42.794259 ], [ 2.947699, 42.794526 ], [ 2.946881, 42.794941 ], [ 2.946394, 42.795143 ], [ 2.943843, 42.797647 ], [ 2.942701, 42.799183 ], [ 2.936633, 42.804072 ], [ 2.935501, 42.804809 ], [ 2.935003, 42.80517 ], [ 2.932042, 42.811328 ], [ 2.931844, 42.813654 ], [ 2.932238, 42.813983 ], [ 2.932574, 42.814243 ], [ 2.932709, 42.814308 ], [ 2.933963, 42.814373 ], [ 2.934322, 42.814146 ], [ 2.937906, 42.810793 ], [ 2.946205, 42.807566 ], [ 2.953562, 42.806646 ], [ 2.962031, 42.804423 ], [ 2.965029, 42.8048 ], [ 2.972737, 42.804558 ], [ 2.973182, 42.80456 ], [ 2.974269, 42.80444 ], [ 2.977005, 42.80296 ], [ 2.984587, 42.799096 ], [ 2.988034, 42.792622 ], [ 2.988154372704968, 42.78944106993832 ], [ 2.984798, 42.789605 ], [ 2.984783970094413, 42.789605091753252 ], [ 2.984559, 42.79089 ], [ 2.984417, 42.79122 ], [ 2.981624, 42.793557 ], [ 2.975334, 42.797254 ], [ 2.971067, 42.799864 ], [ 2.970939, 42.799903 ], [ 2.96804, 42.80061 ], [ 2.96116, 42.800256 ], [ 2.954116, 42.80148 ], [ 2.947423, 42.80244 ], [ 2.944271, 42.804291 ], [ 2.941515, 42.804728 ], [ 2.941334, 42.804417 ], [ 2.941584, 42.804271 ], [ 2.945953, 42.800294 ], [ 2.94932, 42.797393 ], [ 2.949585, 42.797149 ], [ 2.952473, 42.79518 ], [ 2.95428, 42.7929 ], [ 2.955562, 42.789088 ], [ 2.953219, 42.783148 ], [ 2.946027, 42.779736 ], [ 2.944061, 42.77951 ], [ 2.94241, 42.779298 ], [ 2.935723, 42.77762 ], [ 2.932166, 42.777629 ], [ 2.92916, 42.777636 ], [ 2.926153, 42.777644 ], [ 2.926152, 42.777284 ], [ 2.929159, 42.777276 ], [ 2.932165, 42.777269 ], [ 2.935722, 42.77726 ], [ 2.939279, 42.777252 ], [ 2.941222, 42.777246 ], [ 2.944668, 42.776936 ], [ 2.945028, 42.776933 ], [ 2.947555, 42.777215 ], [ 2.950434, 42.777212 ], [ 2.957635, 42.774403 ], [ 2.959682, 42.769525 ], [ 2.959848, 42.768427 ], [ 2.959877362126731, 42.768415847619508 ], [ 2.959451, 42.766278 ], [ 2.956686, 42.765748 ], [ 2.955877, 42.764848 ], [ 2.955849, 42.76481 ], [ 2.955853037358636, 42.764796057028896 ], [ 2.95564093359698, 42.764336287198219 ], [ 2.955615, 42.764383 ], [ 2.955253, 42.765953 ], [ 2.955309, 42.766155 ] ] ], [ [ [ 3.011143, 42.78878 ], [ 3.011222, 42.78877 ], [ 3.011353, 42.788741 ], [ 3.008967, 42.789042 ], [ 3.011143, 42.78878 ] ] ], [ [ [ 2.958514, 42.762248 ], [ 2.957608460962025, 42.761926679696195 ], [ 2.957520925534429, 42.762199609780659 ], [ 2.958594485289124, 42.762357532611517 ], [ 2.958514, 42.762248 ] ] ] ] } },
{ "type": "Feature", "properties": { "codgeo": "66176", "value": 360, "isochrone_group": 6.0, "nb_agences": 1 }, "geometry": { "type": "MultiPolygon", "coordinates": [ [ [ [ 2.949834412914235, 42.768289016639372 ], [ 2.949171, 42.769324 ], [ 2.945168, 42.77133 ], [ 2.944172, 42.771987 ], [ 2.936891, 42.774914 ], [ 2.932161, 42.775649 ], [ 2.935718, 42.77564 ], [ 2.939276, 42.775632 ], [ 2.944934, 42.773086 ], [ 2.945513, 42.77264 ], [ 2.946926, 42.773098 ], [ 2.947053, 42.773202 ], [ 2.953923718734725, 42.772496098456152 ], [ 2.954973316975843, 42.767190956995059 ], [ 2.953772, 42.767186 ], [ 2.949834412914235, 42.768289016639372 ] ] ], [ [ [ 2.923484, 42.775572 ], [ 2.915804, 42.773906 ], [ 2.915714, 42.773904 ], [ 2.914783, 42.774132 ], [ 2.907406981962537, 42.776373055690101 ], [ 2.907428, 42.776368 ], [ 2.908907, 42.77605 ], [ 2.910325, 42.77584 ], [ 2.911011, 42.77577 ], [ 2.91176, 42.775721 ], [ 2.913376, 42.775668 ], [ 2.915571, 42.775624 ], [ 2.916433, 42.775636 ], [ 2.917646, 42.775679 ], [ 2.921313, 42.775672 ], [ 2.924953, 42.775669 ], [ 2.925048, 42.775666 ], [ 2.928604, 42.775658 ], [ 2.926583, 42.775565 ], [ 2.923484, 42.775572 ] ] ], [ [ [ 2.906602203072306, 42.776569960361506 ], [ 2.906683067998074, 42.776547377351754 ], [ 2.906601468302362, 42.776566933005512 ], [ 2.906602203072306, 42.776569960361506 ] ] ], [ [ [ 2.903356, 42.785153 ], [ 2.903295, 42.784957 ], [ 2.902915, 42.783653 ], [ 2.901676, 42.779581 ], [ 2.901613, 42.779406 ], [ 2.901219221844116, 42.777934350656658 ], [ 2.900138, 42.778306 ], [ 2.898883, 42.778937 ], [ 2.898039, 42.781346 ], [ 2.903477, 42.785537 ], [ 2.905059, 42.785077 ], [ 2.906911, 42.784457 ], [ 2.911484583621093, 42.780271552424388 ], [ 2.90737872438901, 42.780259734784245 ], [ 2.90679, 42.784073 ], [ 2.903356, 42.785153 ] ] ], [ [ [ 2.91629, 42.780647 ], [ 2.922125095240993, 42.779456520359545 ], [ 2.917058, 42.780167 ], [ 2.914978, 42.780309 ], [ 2.914767, 42.780281 ], [ 2.913426785678892, 42.780277142544193 ], [ 2.915237, 42.78055 ], [ 2.91629, 42.780647 ] ] ], [ [ [ 2.925148, 42.779264 ], [ 2.925054, 42.779266 ], [ 2.924168, 42.779316 ], [ 2.922842, 42.779356 ], [ 2.922393881473136, 42.779418832663445 ], [ 2.924338, 42.779415 ], [ 2.925148, 42.779264 ] ] ], [ [ [ 2.935534, 42.784419 ], [ 2.937734, 42.78467 ], [ 2.942886, 42.784566 ], [ 2.949446, 42.788865 ], [ 2.947182, 42.793304 ], [ 2.94446, 42.795424 ], [ 2.942523, 42.796058 ], [ 2.941671, 42.796154 ], [ 2.941222, 42.79632 ], [ 2.940435, 42.79668 ], [ 2.938098, 42.800635 ], [ 2.931852, 42.801026 ], [ 2.929584, 42.803821 ], [ 2.930056, 42.81083 ], [ 2.928524, 42.813389 ], [ 2.926976, 42.815802 ], [ 2.926572, 42.816293 ], [ 2.926092, 42.81701 ], [ 2.925917, 42.817377 ], [ 2.924952, 42.819629 ], [ 2.924373, 42.821125 ], [ 2.927654, 42.822608 ], [ 2.928652, 42.820742 ], [ 2.935007, 42.815788 ], [ 2.936947, 42.814549 ], [ 2.943595, 42.810257 ], [ 2.948669, 42.809685 ], [ 2.952212, 42.810322 ], [ 2.954221, 42.808186 ], [ 2.961349, 42.809493 ], [ 2.96138, 42.809507 ], [ 2.961459, 42.809507 ], [ 2.966323, 42.808764 ], [ 2.966783, 42.808688 ], [ 2.967279, 42.808545 ], [ 2.974409, 42.80445 ], [ 2.976535981850351, 42.803213708648194 ], [ 2.974269, 42.80444 ], [ 2.973182, 42.80456 ], [ 2.972737, 42.804558 ], [ 2.965029, 42.8048 ], [ 2.962031, 42.804423 ], [ 2.953562, 42.806646 ], [ 2.946205, 42.807566 ], [ 2.937906, 42.810793 ], [ 2.934322, 42.814146 ], [ 2.933963, 42.814373 ], [ 2.932709, 42.814308 ], [ 2.932574, 42.814243 ], [ 2.932238, 42.813983 ], [ 2.931844, 42.813654 ], [ 2.932042, 42.811328 ], [ 2.935003, 42.80517 ], [ 2.935501, 42.804809 ], [ 2.936633, 42.804072 ], [ 2.942701, 42.799183 ], [ 2.943843, 42.797647 ], [ 2.946394, 42.795143 ], [ 2.946881, 42.794941 ], [ 2.947699, 42.794526 ], [ 2.94821, 42.794259 ], [ 2.951835, 42.790145 ], [ 2.947712, 42.783291 ], [ 2.945453, 42.782897 ], [ 2.944062, 42.782069 ], [ 2.937776, 42.781398 ], [ 2.937518, 42.781463 ], [ 2.93217, 42.779249 ], [ 2.928612, 42.779258 ], [ 2.92675030465087, 42.779261224645509 ], [ 2.93425, 42.783763 ], [ 2.935534, 42.784419 ] ] ], [ [ [ 2.986164, 42.80124 ], [ 2.986343, 42.801184 ], [ 2.989904, 42.79428 ], [ 2.99048556020005, 42.793537090772972 ], [ 2.989356, 42.793326 ], [ 2.989082569148066, 42.793314175174039 ], [ 2.987690200989341, 42.79326770780245 ], [ 2.984587, 42.799096 ], [ 2.978649988535035, 42.802121667673525 ], [ 2.985726, 42.801277 ], [ 2.986164, 42.80124 ] ] ] ] } },
{ "type": "Feature", "properties": { "codgeo": "66176", "value": 420, "isochrone_group": 7.0, "nb_agences": 1 }, "geometry": { "type": "MultiPolygon", "coordinates": [ [ [ [ 2.931898, 42.77541 ], [ 2.929766, 42.77542 ], [ 2.927547, 42.775563 ], [ 2.927370012239916, 42.775570294813633 ], [ 2.927370072369442, 42.775601218570195 ], [ 2.928604, 42.775658 ], [ 2.932161, 42.775649 ], [ 2.936214861722075, 42.775019065884635 ], [ 2.934592244565159, 42.773675680893689 ], [ 2.931898, 42.77541 ] ] ], [ [ [ 2.924533440117597, 42.779378566101535 ], [ 2.927141, 42.779825 ], [ 2.932182, 42.787012 ], [ 2.932378, 42.787388 ], [ 2.932811, 42.788235 ], [ 2.936206, 42.789434 ], [ 2.932543, 42.797622 ], [ 2.931145, 42.79765 ], [ 2.930044, 42.797736 ], [ 2.925153, 42.802656 ], [ 2.925071, 42.80413 ], [ 2.924919, 42.805332 ], [ 2.925872, 42.811443 ], [ 2.923123, 42.817085 ], [ 2.921857, 42.825075 ], [ 2.921834, 42.825313 ], [ 2.921828, 42.825618 ], [ 2.922692, 42.828182 ], [ 2.92331, 42.829428 ], [ 2.924276, 42.829913 ], [ 2.924554, 42.829959 ], [ 2.92642, 42.828586 ], [ 2.929862, 42.823379 ], [ 2.933861, 42.82012 ], [ 2.937061, 42.817524 ], [ 2.940193, 42.81586 ], [ 2.947435, 42.813897 ], [ 2.949774, 42.814716 ], [ 2.950949, 42.814681 ], [ 2.959181, 42.813432 ], [ 2.965133, 42.813459 ], [ 2.967095, 42.812165 ], [ 2.97086, 42.808251 ], [ 2.972192, 42.806813 ], [ 2.978354, 42.802157 ], [ 2.974409, 42.80445 ], [ 2.967279, 42.808545 ], [ 2.966783, 42.808688 ], [ 2.966323, 42.808764 ], [ 2.961459, 42.809507 ], [ 2.96138, 42.809507 ], [ 2.961349, 42.809493 ], [ 2.954221, 42.808186 ], [ 2.952212, 42.810322 ], [ 2.948669, 42.809685 ], [ 2.943595, 42.810257 ], [ 2.936947, 42.814549 ], [ 2.935007, 42.815788 ], [ 2.928652, 42.820742 ], [ 2.927654, 42.822608 ], [ 2.924373, 42.821125 ], [ 2.924952, 42.819629 ], [ 2.925917, 42.817377 ], [ 2.926092, 42.81701 ], [ 2.926572, 42.816293 ], [ 2.926976, 42.815802 ], [ 2.928524, 42.813389 ], [ 2.930056, 42.81083 ], [ 2.929584, 42.803821 ], [ 2.931852, 42.801026 ], [ 2.938098, 42.800635 ], [ 2.940435, 42.79668 ], [ 2.941222, 42.79632 ], [ 2.941671, 42.796154 ], [ 2.942523, 42.796058 ], [ 2.94446, 42.795424 ], [ 2.947182, 42.793304 ], [ 2.949446, 42.788865 ], [ 2.942886, 42.784566 ], [ 2.937734, 42.78467 ], [ 2.935534, 42.784419 ], [ 2.93425, 42.783763 ], [ 2.926784663826525, 42.779281849121979 ], [ 2.924921835888613, 42.779306161457825 ], [ 2.924533440117597, 42.779378566101535 ] ] ], [ [ [ 2.909284, 42.786913 ], [ 2.909945, 42.790214 ], [ 2.909486, 42.792856 ], [ 2.906041181813528, 42.793899944901803 ], [ 2.906153, 42.794269 ], [ 2.909598, 42.793225 ], [ 2.909999, 42.79027 ], [ 2.914535, 42.782846 ], [ 2.917351, 42.783159 ], [ 2.923991173550187, 42.779415683738684 ], [ 2.922309, 42.779419 ], [ 2.91629, 42.780647 ], [ 2.915237, 42.78055 ], [ 2.9118356187325, 42.780037302565191 ], [ 2.909304, 42.785614 ], [ 2.909284, 42.786913 ] ] ], [ [ [ 2.987318, 42.800971 ], [ 2.987938, 42.800728 ], [ 2.988474, 42.800405 ], [ 2.98909, 42.799923 ], [ 2.991322966456152, 42.798671567790713 ], [ 2.988500928386973, 42.797000248923425 ], [ 2.986385642159624, 42.801101326180842 ], [ 2.986837, 42.801042 ], [ 2.987318, 42.800971 ] ] ], [ [ [ 3.000324097984638, 42.793590010507437 ], [ 3.000288, 42.793611 ], [ 3.000278318123878, 42.793628821087687 ], [ 3.000324097984638, 42.793590010507437 ] ] ], [ [ [ 2.913331, 42.772037 ], [ 2.911583, 42.773931 ], [ 2.906761005899499, 42.773845649689768 ], [ 2.907956461960481, 42.775360883500703 ], [ 2.909594349689114, 42.775708467715233 ], [ 2.914783, 42.774132 ], [ 2.915714, 42.773904 ], [ 2.915804, 42.773906 ], [ 2.923483039907144, 42.775571791729853 ], [ 2.923878, 42.775571 ], [ 2.924310850588704, 42.775570132315544 ], [ 2.924852834947977, 42.775568908084978 ], [ 2.917092, 42.771708 ], [ 2.916231770558277, 42.77104932796761 ], [ 2.914862270560402, 42.77091929718177 ], [ 2.91377, 42.77125 ], [ 2.913331, 42.772037 ] ] ], [ [ [ 2.897252, 42.790924 ], [ 2.905265493234584, 42.791582792557918 ], [ 2.905125, 42.791163 ], [ 2.900456, 42.78353 ], [ 2.900474124105129, 42.78322272032451 ], [ 2.899343598296686, 42.782351437929655 ], [ 2.898175, 42.782362 ], [ 2.896558413557626, 42.783438196691371 ], [ 2.893497199514686, 42.786224482160698 ], [ 2.893742, 42.789216 ], [ 2.893658, 42.790723 ], [ 2.897252, 42.790924 ] ] ] ] } },
{ "type": "Feature", "properties": { "codgeo": "66176", "value": 480, "isochrone_group": 8.0, "nb_agences": 1 }, "geometry": { "type": "MultiPolygon", "coordinates": [ [ [ [ 3.010386020688633, 42.770090941692303 ], [ 3.011242262159894, 42.770666621623626 ], [ 3.011712703856886, 42.77033871977212 ], [ 3.010386020688633, 42.770090941692303 ] ] ], [ [ [ 2.894266, 42.796937 ], [ 2.894554, 42.797789 ], [ 2.894828, 42.798495 ], [ 2.895238, 42.799399 ], [ 2.895512, 42.799927 ], [ 2.895877, 42.800585 ], [ 2.896565, 42.801717 ], [ 2.898589, 42.804755 ], [ 2.900612, 42.807793 ], [ 2.903608, 42.805797 ], [ 2.908632, 42.802579 ], [ 2.910325, 42.801968 ], [ 2.91205, 42.801453 ], [ 2.919473, 42.805068 ], [ 2.919537, 42.806768 ], [ 2.919711, 42.807355 ], [ 2.923215, 42.811627 ], [ 2.921988, 42.816146 ], [ 2.920038, 42.819718 ], [ 2.919444, 42.822969 ], [ 2.918417, 42.825741 ], [ 2.919564, 42.829078 ], [ 2.920305, 42.83554 ], [ 2.923894, 42.835824 ], [ 2.927664, 42.833724 ], [ 2.933676, 42.833543 ], [ 2.935176, 42.833965 ], [ 2.936761, 42.834196 ], [ 2.937281, 42.830633 ], [ 2.933389, 42.823202 ], [ 2.938307, 42.819267 ], [ 2.940528, 42.817335 ], [ 2.947684, 42.819051 ], [ 2.948529, 42.819495 ], [ 2.951206, 42.818303 ], [ 2.954693, 42.816258 ], [ 2.961973, 42.816278 ], [ 2.967203, 42.81478 ], [ 2.973322, 42.808213 ], [ 2.978354, 42.802157 ], [ 2.972192, 42.806813 ], [ 2.97086, 42.808251 ], [ 2.967095, 42.812165 ], [ 2.965133, 42.813459 ], [ 2.959181, 42.813432 ], [ 2.950949, 42.814681 ], [ 2.949774, 42.814716 ], [ 2.947435, 42.813897 ], [ 2.940193, 42.81586 ], [ 2.937061, 42.817524 ], [ 2.933861, 42.82012 ], [ 2.929862, 42.823379 ], [ 2.92642, 42.828586 ], [ 2.924554, 42.829959 ], [ 2.924276, 42.829913 ], [ 2.92331, 42.829428 ], [ 2.922692, 42.828182 ], [ 2.921828, 42.825618 ], [ 2.921834, 42.825313 ], [ 2.921857, 42.825075 ], [ 2.923123, 42.817085 ], [ 2.925872, 42.811443 ], [ 2.924919, 42.805332 ], [ 2.925071, 42.80413 ], [ 2.925153, 42.802656 ], [ 2.930044, 42.797736 ], [ 2.931145, 42.79765 ], [ 2.932543, 42.797622 ], [ 2.936206, 42.789434 ], [ 2.932811, 42.788235 ], [ 2.932378, 42.787388 ], [ 2.932182, 42.787012 ], [ 2.927141, 42.779825 ], [ 2.924168, 42.779316 ], [ 2.917351, 42.783159 ], [ 2.914535, 42.782846 ], [ 2.911464994858017, 42.787870629227072 ], [ 2.913679, 42.793039 ], [ 2.913276, 42.796701 ], [ 2.912444, 42.80029 ], [ 2.912013, 42.801103 ], [ 2.908567, 42.802145 ], [ 2.903891, 42.795244 ], [ 2.90176, 42.793154 ], [ 2.901547, 42.792456 ], [ 2.901194493036403, 42.7912481139658 ], [ 2.900468137501616, 42.791188399980037 ], [ 2.896397, 42.791282 ], [ 2.892427818328744, 42.792022835826515 ], [ 2.893681, 42.794098 ], [ 2.893771, 42.794844 ], [ 2.893906, 42.795545 ], [ 2.894266, 42.796937 ] ] ], [ [ [ 2.994878, 42.80149 ], [ 2.995417736809279, 42.801438102229866 ], [ 2.993357, 42.799567 ], [ 2.98951380392656, 42.7996854855122 ], [ 2.98909, 42.799923 ], [ 2.988474, 42.800405 ], [ 2.987938, 42.800728 ], [ 2.987318, 42.800971 ], [ 2.986837, 42.801042 ], [ 2.993906, 42.801444 ], [ 2.994878, 42.80149 ] ] ], [ [ [ 2.998089186822602, 42.80029777527723 ], [ 2.9980794826829, 42.800299206809882 ], [ 2.998076162043239, 42.800324929161832 ], [ 2.998089186822602, 42.80029777527723 ] ] ], [ [ [ 2.998910062646611, 42.798586424416222 ], [ 2.998643274497585, 42.798814468708066 ], [ 2.998542488982453, 42.799352737040188 ], [ 2.998910062646611, 42.798586424416222 ] ] ], [ [ [ 2.92573600008905, 42.775567045797075 ], [ 2.927547, 42.775563 ], [ 2.92924217798774, 42.775453756893988 ], [ 2.926808, 42.773119 ], [ 2.919903, 42.772863 ], [ 2.91962392636592, 42.772967598360523 ], [ 2.924852319665242, 42.775568651738951 ], [ 2.925736, 42.775567 ], [ 2.92573600008905, 42.775567045797075 ] ] ] ] } },
{ "type": "Feature", "properties": { "codgeo": "66176", "value": 540, "isochrone_group": 9.0, "nb_agences": 1 }, "geometry": { "type": "MultiPolygon", "coordinates": [ [ [ [ 2.90392, 42.813213 ], [ 2.906395, 42.819423 ], [ 2.906967, 42.821595 ], [ 2.907694, 42.82452 ], [ 2.916184, 42.827495 ], [ 2.916418, 42.828275 ], [ 2.916502, 42.828561 ], [ 2.917208, 42.830952 ], [ 2.917457, 42.831794 ], [ 2.917796, 42.832938 ], [ 2.9179, 42.833298 ], [ 2.918603, 42.837788 ], [ 2.920773, 42.839804 ], [ 2.923958, 42.842534 ], [ 2.924938, 42.842653 ], [ 2.926223, 42.842286 ], [ 2.926384, 42.842183 ], [ 2.929913, 42.838539 ], [ 2.937531, 42.834216 ], [ 2.939264, 42.834142 ], [ 2.942595, 42.833473 ], [ 2.947319, 42.832478 ], [ 2.947709, 42.832295 ], [ 2.94848, 42.830294 ], [ 2.951701, 42.823199 ], [ 2.952343, 42.821461 ], [ 2.959237, 42.816947 ], [ 2.963647, 42.818164 ], [ 2.965639, 42.818346 ], [ 2.96631, 42.818405 ], [ 2.967335, 42.817275 ], [ 2.972183, 42.811231 ], [ 2.972183, 42.810863 ], [ 2.972972721049967, 42.808587851260818 ], [ 2.967203, 42.81478 ], [ 2.961973, 42.816278 ], [ 2.954693, 42.816258 ], [ 2.951206, 42.818303 ], [ 2.948529, 42.819495 ], [ 2.947684, 42.819051 ], [ 2.940528, 42.817335 ], [ 2.938307, 42.819267 ], [ 2.933389, 42.823202 ], [ 2.937281, 42.830633 ], [ 2.936761, 42.834196 ], [ 2.935176, 42.833965 ], [ 2.933676, 42.833543 ], [ 2.927664, 42.833724 ], [ 2.923894, 42.835824 ], [ 2.920305, 42.83554 ], [ 2.919564, 42.829078 ], [ 2.918417, 42.825741 ], [ 2.919444, 42.822969 ], [ 2.920038, 42.819718 ], [ 2.921988, 42.816146 ], [ 2.923215, 42.811627 ], [ 2.919711, 42.807355 ], [ 2.919537, 42.806768 ], [ 2.919473, 42.805068 ], [ 2.916177251043707, 42.803462970702277 ], [ 2.914686, 42.806886 ], [ 2.912021, 42.810882 ], [ 2.911943, 42.81085 ], [ 2.90719, 42.804776 ], [ 2.905900983228285, 42.804328285822329 ], [ 2.903608, 42.805797 ], [ 2.900612, 42.807793 ], [ 2.898589, 42.804755 ], [ 2.896565, 42.801717 ], [ 2.898622, 42.804805 ], [ 2.900667, 42.807876 ], [ 2.901655, 42.809395 ], [ 2.90392, 42.813213 ] ] ], [ [ [ 2.997732462628255, 42.801553812184665 ], [ 2.997582, 42.802719 ], [ 2.996704, 42.802606 ], [ 2.998055, 42.80278 ], [ 2.998179268434289, 42.80181766093186 ], [ 2.997732462628255, 42.801553812184665 ] ] ], [ [ [ 2.995056977427896, 42.801472790631934 ], [ 2.994878, 42.80149 ], [ 2.993971570143314, 42.801447103113766 ], [ 2.996704, 42.802606 ], [ 2.9959149183486, 42.801889531778102 ], [ 2.995744, 42.801969 ], [ 2.995539, 42.801963 ], [ 2.995056977427896, 42.801472790631934 ] ] ], [ [ [ 3.00187964148522, 42.795910583923273 ], [ 3.001808575920084, 42.796336694184362 ], [ 3.004961415653197, 42.793585330826076 ], [ 3.00463916667579, 42.79358133560136 ], [ 3.00187964148522, 42.795910583923273 ] ] ], [ [ [ 3.039658536062359, 42.792242855067087 ], [ 3.039659, 42.79224 ], [ 3.039659008149971, 42.792238826404208 ], [ 3.039658536062359, 42.792242855067087 ] ] ] ] } },
{ "type": "Feature", "properties": { "codgeo": "66176", "value": 600, "isochrone_group": 10.0, "nb_agences": 1 }, "geometry": { "type": "MultiPolygon", "coordinates": [ [ [ [ 2.900667, 42.807876 ], [ 2.898622, 42.804805 ], [ 2.89906, 42.805476 ], [ 2.900667, 42.807876 ] ] ], [ [ [ 2.908184, 42.835672 ], [ 2.908261, 42.836434 ], [ 2.908321, 42.836944 ], [ 2.908417, 42.83748 ], [ 2.908655, 42.838485 ], [ 2.908892, 42.839221 ], [ 2.909181, 42.839923 ], [ 2.909585, 42.840707 ], [ 2.912786, 42.83906 ], [ 2.920435, 42.842104 ], [ 2.920773, 42.842262 ], [ 2.921236, 42.842451 ], [ 2.928753, 42.847306 ], [ 2.93129, 42.844752 ], [ 2.933756, 42.838582 ], [ 2.939264, 42.834142 ], [ 2.937531, 42.834216 ], [ 2.929913, 42.838539 ], [ 2.926384, 42.842183 ], [ 2.926223, 42.842286 ], [ 2.924938, 42.842653 ], [ 2.923958, 42.842534 ], [ 2.920773, 42.839804 ], [ 2.918603, 42.837788 ], [ 2.9179, 42.833298 ], [ 2.917796, 42.832938 ], [ 2.917457, 42.831794 ], [ 2.917208, 42.830952 ], [ 2.916502, 42.828561 ], [ 2.916418, 42.828275 ], [ 2.916184, 42.827495 ], [ 2.90769448354571, 42.824520169440341 ], [ 2.907731, 42.824667 ], [ 2.908375, 42.830865 ], [ 2.908152, 42.834303 ], [ 2.908184, 42.835672 ] ] ], [ [ [ 2.955855, 42.835738 ], [ 2.956851, 42.836164 ], [ 2.95723, 42.836225 ], [ 2.957993, 42.832926 ], [ 2.957807, 42.832672 ], [ 2.957448, 42.832228 ], [ 2.955988, 42.824591 ], [ 2.95615, 42.823263 ], [ 2.955443, 42.820542 ], [ 2.961016997738858, 42.817438214795516 ], [ 2.959237, 42.816947 ], [ 2.952343, 42.821461 ], [ 2.951701, 42.823199 ], [ 2.94848, 42.830294 ], [ 2.947709, 42.832295 ], [ 2.947319, 42.832478 ], [ 2.942595, 42.833473 ], [ 2.947128, 42.833581 ], [ 2.947679, 42.833664 ], [ 2.950359, 42.834251 ], [ 2.955855, 42.835738 ] ] ], [ [ [ 2.966987, 42.819516 ], [ 2.967937, 42.817097 ], [ 2.96843613778271, 42.8159022118897 ], [ 2.967335, 42.817275 ], [ 2.96631, 42.818405 ], [ 2.965639, 42.818346 ], [ 2.963853881869615, 42.818182901857583 ], [ 2.964942, 42.819319 ], [ 2.965229, 42.819563 ], [ 2.966689, 42.819683 ], [ 2.966987, 42.819516 ] ] ], [ [ [ 2.976790792175964, 42.803029523624161 ], [ 2.975609482775265, 42.803688885958259 ], [ 2.974409, 42.80445 ], [ 2.97687865337159, 42.803014533540917 ], [ 2.976790792175964, 42.803029523624161 ] ] ], [ [ [ 2.985797277587958, 42.801178660437301 ], [ 2.986837, 42.801042 ], [ 2.986493741430857, 42.800984790238466 ], [ 2.986023, 42.801034 ], [ 2.985797277587958, 42.801178660437301 ] ] ], [ [ [ 3.039843, 42.789992 ], [ 3.039423228950182, 42.789106227608528 ], [ 3.039335586324656, 42.789987542297091 ], [ 3.039334, 42.790016 ], [ 3.039307, 42.790275 ], [ 3.039586142715357, 42.791980916970012 ], [ 3.03966, 42.792096 ], [ 3.039659, 42.79224 ], [ 3.03964382155113, 42.792333408005369 ], [ 3.039709070422422, 42.792732161584425 ], [ 3.040084, 42.791889 ], [ 3.040144, 42.791288 ], [ 3.040094, 42.790631 ], [ 3.039843, 42.789992 ] ] ], [ [ [ 3.040213994950154, 42.80741454127913 ], [ 3.04030185664599, 42.809472748239045 ], [ 3.040447, 42.809222 ], [ 3.040487, 42.808851 ], [ 3.040213994950154, 42.80741454127913 ] ] ], [ [ [ 3.031952576038353, 42.827350217073779 ], [ 3.031918169304197, 42.827278091862517 ], [ 3.031441050516352, 42.826999989540397 ], [ 3.031952576038353, 42.827350217073779 ] ] ], [ [ [ 2.998899661059114, 42.802241412969046 ], [ 2.998575501891327, 42.802551926833047 ], [ 3.0003, 42.80307 ], [ 2.998899661059114, 42.802241412969046 ] ] ], [ [ [ 3.002048, 42.802534 ], [ 3.002116, 42.802303 ], [ 3.002051, 42.802426 ], [ 3.000571, 42.803109 ], [ 3.0003, 42.80307 ], [ 3.001042, 42.803177 ], [ 3.002009, 42.802626 ], [ 3.002048, 42.802534 ] ] ] ] } },
{ "type": "Feature", "properties": { "codgeo": "66176", "value": 660, "isochrone_group": 11.0, "nb_agences": 1 }, "geometry": { "type": "MultiPolygon", "coordinates": [ [ [ [ 3.039800818017838, 42.78520909256104 ], [ 3.039818, 42.785036 ], [ 3.039849, 42.784712 ], [ 3.039440601805059, 42.784247135854869 ], [ 3.039800818017838, 42.78520909256104 ] ] ], [ [ [ 3.035499382026512, 42.779709976259596 ], [ 3.033753, 42.777542 ], [ 3.033727652649897, 42.77752818767447 ], [ 3.035221558554053, 42.779634111092932 ], [ 3.035499382026512, 42.779709976259596 ] ] ], [ [ [ 2.872601265943076, 42.799062242820995 ], [ 2.871097, 42.797656 ], [ 2.870260887598091, 42.79793081317078 ], [ 2.872601265943076, 42.799062242820995 ] ] ], [ [ [ 2.912288, 42.843878 ], [ 2.913515, 42.84476 ], [ 2.91418, 42.845146 ], [ 2.91521, 42.845675 ], [ 2.916224, 42.8461 ], [ 2.916831, 42.846313 ], [ 2.917659, 42.846563 ], [ 2.918244, 42.846709 ], [ 2.919466, 42.846963 ], [ 2.920544, 42.847124 ], [ 2.922576, 42.847392 ], [ 2.928303, 42.849452 ], [ 2.931213, 42.851442 ], [ 2.935548, 42.852648 ], [ 2.936053, 42.852757 ], [ 2.936778, 42.852824 ], [ 2.937235, 42.852811 ], [ 2.937938, 42.852766 ], [ 2.937707, 42.849173 ], [ 2.936124, 42.845237 ], [ 2.936734, 42.838138 ], [ 2.942595, 42.833473 ], [ 2.939264, 42.834142 ], [ 2.933756, 42.838582 ], [ 2.93129, 42.844752 ], [ 2.928753, 42.847306 ], [ 2.921236, 42.842451 ], [ 2.920773, 42.842262 ], [ 2.920435, 42.842104 ], [ 2.912786, 42.83906 ], [ 2.909590902323799, 42.840703963096757 ], [ 2.909677, 42.840868 ], [ 2.910218, 42.841699 ], [ 2.91096, 42.842622 ], [ 2.91176, 42.843438 ], [ 2.912288, 42.843878 ] ] ], [ [ [ 2.961853, 42.835709 ], [ 2.961929, 42.835115 ], [ 2.961608, 42.832655 ], [ 2.960724, 42.824252 ], [ 2.964803227878907, 42.819174108793241 ], [ 2.962402, 42.816667 ], [ 2.955443, 42.820542 ], [ 2.95615, 42.823263 ], [ 2.955988, 42.824591 ], [ 2.957448, 42.832228 ], [ 2.957807, 42.832672 ], [ 2.957993, 42.832926 ], [ 2.95723, 42.836225 ], [ 2.956851, 42.836164 ], [ 2.955855, 42.835738 ], [ 2.95751, 42.836505 ], [ 2.959895, 42.836776 ], [ 2.960731, 42.83689 ], [ 2.960926, 42.836877 ], [ 2.961853, 42.835709 ] ] ], [ [ [ 2.907731, 42.824667 ], [ 2.906967, 42.821595 ], [ 2.908016, 42.829691 ], [ 2.908152, 42.834303 ], [ 2.908375, 42.830865 ], [ 2.907731, 42.824667 ] ] ], [ [ [ 3.02646, 42.824048 ], [ 3.027116, 42.824677 ], [ 3.027573, 42.824925 ], [ 3.028238, 42.825133 ], [ 3.027756, 42.824933 ], [ 3.027546, 42.824808 ], [ 3.027362433741061, 42.822836658001833 ], [ 3.025553998923549, 42.8207292013821 ], [ 3.026166, 42.822859 ], [ 3.026292, 42.823719 ], [ 3.02646, 42.824048 ] ] ] ] } },
{ "type": "Feature", "properties": { "codgeo": "66176", "value": 720, "isochrone_group": 12.0, "nb_agences": 1 }, "geometry": { "type": "MultiPolygon", "coordinates": [ [ [ [ 3.042376986874383, 42.831787718211892 ], [ 3.042404, 42.831864 ], [ 3.042409, 42.83199 ], [ 3.042379212590235, 42.832246039962932 ], [ 3.042395, 42.835497 ], [ 3.042698931588224, 42.836108584787731 ], [ 3.042544, 42.835277 ], [ 3.042697, 42.828055 ], [ 3.042691, 42.827932 ], [ 3.042357, 42.827415783512222 ], [ 3.042357, 42.827672 ], [ 3.042376986874383, 42.831787718211892 ] ] ], [ [ [ 3.039356593653336, 42.790006465336411 ], [ 3.039361528966475, 42.790013859833955 ], [ 3.039999, 42.786961 ], [ 3.040085, 42.785968 ], [ 3.040069, 42.786149 ], [ 3.039356593653336, 42.790006465336411 ] ] ], [ [ [ 2.870260887598091, 42.79793081317078 ], [ 2.866083, 42.799304 ], [ 2.865673206160702, 42.799843225991808 ], [ 2.866774, 42.799671 ], [ 2.870381901129587, 42.797989315804742 ], [ 2.870260887598091, 42.79793081317078 ] ] ], [ [ [ 2.902702113350626, 42.811160067890818 ], [ 2.903908, 42.814797 ], [ 2.904049610389611, 42.815245935064929 ], [ 2.90395, 42.814777 ], [ 2.902711681642611, 42.811176196693808 ], [ 2.902702113350626, 42.811160067890818 ] ] ], [ [ [ 2.908016, 42.829691 ], [ 2.907217274548346, 42.823526575541848 ], [ 2.904607, 42.817732 ], [ 2.90447, 42.817225 ], [ 2.899395, 42.824081 ], [ 2.898374, 42.825564 ], [ 2.897331, 42.827031 ], [ 2.901008, 42.830573 ], [ 2.901638, 42.830669 ], [ 2.908261, 42.836434 ], [ 2.908184, 42.835672 ], [ 2.908152, 42.834303 ], [ 2.908016, 42.829691 ] ] ], [ [ [ 2.934769, 42.85361 ], [ 2.935525, 42.85395 ], [ 2.93644, 42.854311 ], [ 2.937331, 42.854603 ], [ 2.937975, 42.854789 ], [ 2.940378, 42.8554 ], [ 2.94723, 42.857702 ], [ 2.949977, 42.858875 ], [ 2.95139, 42.855564 ], [ 2.948643, 42.854391 ], [ 2.946755, 42.85355 ], [ 2.94549, 42.853073 ], [ 2.940322, 42.848255 ], [ 2.936778, 42.843279 ], [ 2.936327879149248, 42.842864314622098 ], [ 2.936124, 42.845237 ], [ 2.937707, 42.849173 ], [ 2.937938, 42.852766 ], [ 2.937235, 42.852811 ], [ 2.936778, 42.852824 ], [ 2.936053, 42.852757 ], [ 2.935548, 42.852648 ], [ 2.931213025810226, 42.851442007180424 ], [ 2.931349, 42.851535 ], [ 2.932609, 42.852383 ], [ 2.933296, 42.852819 ], [ 2.933958, 42.853194 ], [ 2.934769, 42.85361 ] ] ], [ [ [ 2.960724, 42.824252 ], [ 2.960727500714222, 42.824285276585535 ], [ 2.961293544312977, 42.823543021697112 ], [ 2.960724, 42.824252 ] ] ], [ [ [ 2.990445087612493, 42.800631593124727 ], [ 2.987318, 42.800971 ], [ 2.990445087612495, 42.800631593124727 ], [ 2.990445087612493, 42.800631593124727 ] ] ], [ [ [ 2.916071, 42.846039 ], [ 2.91521, 42.845675 ], [ 2.91418, 42.845146 ], [ 2.921159, 42.850276 ], [ 2.921843, 42.85059 ], [ 2.922216, 42.850596 ], [ 2.929820881806016, 42.850490001647429 ], [ 2.928303, 42.849452 ], [ 2.922576, 42.847392 ], [ 2.920544, 42.847124 ], [ 2.919466, 42.846963 ], [ 2.918244, 42.846709 ], [ 2.917659, 42.846563 ], [ 2.917547506665312, 42.84652933655353 ], [ 2.917547, 42.846531 ], [ 2.916831, 42.846313 ], [ 2.916224, 42.8461 ], [ 2.916072121502976, 42.846036342839021 ], [ 2.916071, 42.846039 ] ] ], [ [ [ 3.029475502904984, 42.825349249651481 ], [ 3.032913028026531, 42.829461634496809 ], [ 3.031754713297524, 42.82720673340993 ], [ 3.029475502904984, 42.825349249651481 ] ] ], [ [ [ 3.028301059334669, 42.8655308453327 ], [ 3.028166, 42.865176 ], [ 3.028418, 42.865859 ], [ 3.028418566777136, 42.865858790940095 ], [ 3.028301059334669, 42.8655308453327 ] ] ] ] } },
{ "type": "Feature", "properties": { "codgeo": "66176", "value": 780, "isochrone_group": 13.0, "nb_agences": 1 }, "geometry": { "type": "MultiPolygon", "coordinates": [ [ [ [ 3.029092987308279, 42.762620702418197 ], [ 3.02769726126627, 42.760863380267672 ], [ 3.028779, 42.762523 ], [ 3.028961645465706, 42.762646989088999 ], [ 3.029092987308279, 42.762620702418197 ] ] ], [ [ [ 3.025318, 42.756891 ], [ 3.024734241245169, 42.753924136768028 ], [ 3.024686129273327, 42.753954393350909 ], [ 3.025274459666376, 42.757146281843347 ], [ 3.0253566539382, 42.757272385523549 ], [ 3.025318, 42.756891 ] ] ], [ [ [ 2.897502, 42.831008 ], [ 2.903787, 42.832851 ], [ 2.908892, 42.839221 ], [ 2.908655, 42.838485 ], [ 2.908606222150022, 42.838279026305756 ], [ 2.908602, 42.83828 ], [ 2.908417, 42.83748 ], [ 2.908321, 42.836944 ], [ 2.908261, 42.836434 ], [ 2.901638, 42.830669 ], [ 2.901008, 42.830573 ], [ 2.897331, 42.827031 ], [ 2.898374, 42.825564 ], [ 2.899395, 42.824081 ], [ 2.902570508583174, 42.819791091261827 ], [ 2.899845, 42.818509 ], [ 2.898311, 42.815252 ], [ 2.8927772349105, 42.808231091497099 ], [ 2.892167, 42.808627 ], [ 2.891455, 42.80882 ], [ 2.891216, 42.808878 ], [ 2.888733584810402, 42.811427746148517 ], [ 2.886726596470405, 42.813509354331288 ], [ 2.891883, 42.82032 ], [ 2.891991, 42.820436 ], [ 2.891591, 42.823033 ], [ 2.891523, 42.82308 ], [ 2.89035946560497, 42.823894507733861 ], [ 2.890539, 42.824082 ], [ 2.892603, 42.827113 ], [ 2.895101, 42.83012 ], [ 2.895687, 42.830742 ], [ 2.896026, 42.830807 ], [ 2.8969, 42.830983 ], [ 2.897502, 42.831008 ] ] ], [ [ [ 2.940378, 42.8554 ], [ 2.937975, 42.854789 ], [ 2.937331, 42.854603 ], [ 2.937266387616809, 42.854581825122452 ], [ 2.937266, 42.854583 ], [ 2.93644, 42.854311 ], [ 2.935525, 42.85395 ], [ 2.935448612647777, 42.853915645899789 ], [ 2.935448, 42.853917 ], [ 2.934769, 42.85361 ], [ 2.933958, 42.853194 ], [ 2.933296, 42.852819 ], [ 2.933217258901199, 42.852769027483163 ], [ 2.933216, 42.852771 ], [ 2.932609, 42.852383 ], [ 2.931349, 42.851535 ], [ 2.929821, 42.85049 ], [ 2.922216, 42.850596 ], [ 2.921843, 42.85059 ], [ 2.921159, 42.850276 ], [ 2.91418, 42.845146 ], [ 2.913515, 42.84476 ], [ 2.913324861657116, 42.844623323538357 ], [ 2.91332, 42.84463 ], [ 2.912288, 42.843878 ], [ 2.912184151252136, 42.843791459376767 ], [ 2.912182, 42.843794 ], [ 2.91176, 42.843438 ], [ 2.916801, 42.849587 ], [ 2.920568, 42.852286 ], [ 2.927108, 42.853529 ], [ 2.928532, 42.853415 ], [ 2.936569, 42.855124 ], [ 2.938305, 42.855755 ], [ 2.939829, 42.856368 ], [ 2.94723, 42.857702 ], [ 2.940378, 42.8554 ] ] ], [ [ [ 2.953906, 42.859985 ], [ 2.955274, 42.860178 ], [ 2.956538, 42.860282 ], [ 2.959045, 42.860339 ], [ 2.967388, 42.862541 ], [ 2.969136, 42.863414 ], [ 2.970931, 42.864311 ], [ 2.97252, 42.865047 ], [ 2.974033, 42.86178 ], [ 2.972444, 42.861044 ], [ 2.970745, 42.860194 ], [ 2.968998, 42.859321 ], [ 2.967746, 42.858717 ], [ 2.966868, 42.858329 ], [ 2.96576, 42.857905 ], [ 2.964955, 42.857639 ], [ 2.964093, 42.8574 ], [ 2.963, 42.857152 ], [ 2.962163, 42.857002 ], [ 2.961346, 42.856889 ], [ 2.960162, 42.856785 ], [ 2.959201, 42.856742 ], [ 2.951969, 42.854529 ], [ 2.949381, 42.853517 ], [ 2.943948, 42.847313 ], [ 2.939444, 42.84228 ], [ 2.939264, 42.834142 ], [ 2.937917, 42.83415 ], [ 2.937531, 42.834216 ], [ 2.93708, 42.834228 ], [ 2.932294, 42.839148 ], [ 2.936778, 42.843279 ], [ 2.940322, 42.848255 ], [ 2.94549, 42.853073 ], [ 2.946755, 42.85355 ], [ 2.948643, 42.854391 ], [ 2.95139, 42.855564 ], [ 2.949978371871471, 42.858871785374063 ], [ 2.950094, 42.858921 ], [ 2.951333, 42.859362 ], [ 2.95224, 42.859624 ], [ 2.953055, 42.859821 ], [ 2.953906, 42.859985 ] ] ], [ [ [ 3.00574435340776, 42.80452755695223 ], [ 3.000251004705111, 42.80188340790297 ], [ 3.000194589387098, 42.801865556829831 ], [ 3.005429, 42.804413 ], [ 3.00574435340776, 42.80452755695223 ] ] ], [ [ [ 3.027857, 42.823413 ], [ 3.023333486847025, 42.819589730228614 ], [ 3.022147002787817, 42.819074004756963 ], [ 3.027857, 42.823413 ] ] ], [ [ [ 3.04434, 42.851215 ], [ 3.044530188723821, 42.851524450713633 ], [ 3.044782, 42.850574 ], [ 3.044779, 42.850475 ], [ 3.043981, 42.84299 ], [ 3.04434, 42.851215 ] ] ] ] } },
{ "type": "Feature", "properties": { "codgeo": "66176", "value": 840, "isochrone_group": 14.0, "nb_agences": 1 }, "geometry": { "type": "MultiPolygon", "coordinates": [ [ [ [ 2.897502, 42.831008 ], [ 2.8969, 42.830983 ], [ 2.896026, 42.830807 ], [ 2.895687, 42.830742 ], [ 2.895101, 42.83012 ], [ 2.892603, 42.827113 ], [ 2.891779915241218, 42.825904293651227 ], [ 2.887723084456256, 42.82904916830352 ], [ 2.894957, 42.831632 ], [ 2.896146, 42.832338 ], [ 2.901423, 42.832916 ], [ 2.901624, 42.832951 ], [ 2.901689, 42.832962 ], [ 2.90768725224209, 42.837717720231566 ], [ 2.903787, 42.832851 ], [ 2.897502, 42.831008 ] ] ], [ [ [ 2.927108, 42.853529 ], [ 2.920568, 42.852286 ], [ 2.916801, 42.849587 ], [ 2.91176, 42.843438 ], [ 2.911618006923644, 42.843293167062107 ], [ 2.911613, 42.843298 ], [ 2.91096, 42.842622 ], [ 2.910218, 42.841699 ], [ 2.909677, 42.840868 ], [ 2.909613, 42.84934 ], [ 2.916979, 42.852922 ], [ 2.922553, 42.856269 ], [ 2.925355, 42.856955 ], [ 2.925782, 42.856847 ], [ 2.929525, 42.855982 ], [ 2.937172686817207, 42.855343427639184 ], [ 2.936569, 42.855124 ], [ 2.928532, 42.853415 ], [ 2.927108, 42.853529 ] ] ], [ [ [ 2.947199, 42.858216 ], [ 2.951333, 42.859362 ], [ 2.950094, 42.858921 ], [ 2.94723, 42.857702 ], [ 2.944891587566961, 42.85728051071672 ], [ 2.947199, 42.858216 ] ] ], [ [ [ 2.98564, 42.873561 ], [ 2.986723, 42.875176 ], [ 2.987272, 42.876078 ], [ 2.990347, 42.874206 ], [ 2.989798, 42.873304 ], [ 2.988631, 42.871558 ], [ 2.988073, 42.870675 ], [ 2.987367, 42.869844 ], [ 2.986512, 42.868791 ], [ 2.985902, 42.868114 ], [ 2.985517, 42.867725 ], [ 2.985252, 42.867469 ], [ 2.984645, 42.86694 ], [ 2.98417, 42.866556 ], [ 2.98372, 42.866226 ], [ 2.982968, 42.86572 ], [ 2.982554, 42.865468 ], [ 2.981703, 42.865002 ], [ 2.980875, 42.864601 ], [ 2.979305, 42.863934 ], [ 2.976216, 42.862713 ], [ 2.975148, 42.862267 ], [ 2.974032831881332, 42.861780363016322 ], [ 2.972520464919674, 42.865045996105366 ], [ 2.972594, 42.86508 ], [ 2.973763, 42.86559 ], [ 2.974893, 42.866061 ], [ 2.9779, 42.867248 ], [ 2.984623, 42.872174 ], [ 2.98564, 42.873561 ] ] ], [ [ [ 2.959175, 42.856163 ], [ 2.958478, 42.856008 ], [ 2.952362729474841, 42.854649481654832 ], [ 2.959201, 42.856742 ], [ 2.96008, 42.85678 ], [ 2.960079942391131, 42.856781328327592 ], [ 2.960162, 42.856785 ], [ 2.961346, 42.856889 ], [ 2.962163, 42.857002 ], [ 2.963, 42.857152 ], [ 2.964093, 42.8574 ], [ 2.964955, 42.857639 ], [ 2.96576, 42.857905 ], [ 2.966868, 42.858329 ], [ 2.967746, 42.858717 ], [ 2.96518, 42.857063 ], [ 2.964829, 42.856986 ], [ 2.964027, 42.856841 ], [ 2.963108, 42.856724 ], [ 2.961467, 42.856591 ], [ 2.959175, 42.856163 ] ] ], [ [ [ 2.939444, 42.84228 ], [ 2.943948, 42.847313 ], [ 2.949381, 42.853517 ], [ 2.951969, 42.854529 ], [ 2.95213959996457, 42.85458120377789 ], [ 2.9476, 42.850473 ], [ 2.944127, 42.845667 ], [ 2.944074, 42.845582 ], [ 2.942828, 42.844974 ], [ 2.939400476915422, 42.84031227298729 ], [ 2.939444, 42.84228 ] ] ], [ [ [ 2.939264, 42.834142 ], [ 2.939355103939719, 42.838260910341319 ], [ 2.942595, 42.833473 ], [ 2.941138462659084, 42.833765531816617 ], [ 2.94114, 42.834073 ], [ 2.940358, 42.834077 ], [ 2.93982, 42.834112 ], [ 2.939264, 42.834142 ] ] ], [ [ [ 2.957847, 42.860637 ], [ 2.963672789867202, 42.861560430335331 ], [ 2.959101547054656, 42.860353924681085 ], [ 2.956538, 42.860282 ], [ 2.955274, 42.860178 ], [ 2.955167435064106, 42.860162965619423 ], [ 2.955167, 42.860166 ], [ 2.953906, 42.859985 ], [ 2.957847, 42.860637 ] ] ], [ [ [ 2.959686, 42.825651 ], [ 2.965118, 42.818528 ], [ 2.961195, 42.822339 ], [ 2.959686, 42.825651 ] ] ], [ [ [ 2.987318, 42.800971 ], [ 2.990060643141434, 42.800673319840683 ], [ 2.99006064314143, 42.800673319840683 ], [ 2.987318, 42.800971 ] ] ], [ [ [ 3.018475, 42.816061 ], [ 3.018484, 42.815865 ], [ 3.019876, 42.814125 ], [ 3.020276300044487, 42.813584079330987 ], [ 3.020705755336891, 42.811106520757491 ], [ 3.020400226714057, 42.810517905594544 ], [ 3.019199, 42.814344 ], [ 3.016924, 42.817135 ], [ 3.01703, 42.817221 ], [ 3.017578969207475, 42.817619227662803 ], [ 3.017518, 42.817542 ], [ 3.018678878968217, 42.816398308915645 ], [ 3.018475, 42.816061 ] ] ], [ [ [ 3.044782, 42.850574 ], [ 3.044673354222451, 42.850984078763616 ], [ 3.045064, 42.852393 ], [ 3.045218139397551, 42.85741245964541 ], [ 3.045385, 42.858022 ], [ 3.045447493405563, 42.858697404681749 ], [ 3.045618, 42.857977 ], [ 3.045075, 42.851921 ], [ 3.043981, 42.84299 ], [ 3.044779, 42.850475 ], [ 3.044782, 42.850574 ] ] ] ] } },
{ "type": "Feature", "properties": { "codgeo": "66176", "value": 900, "isochrone_group": 15.0, "nb_agences": 1 }, "geometry": { "type": "MultiPolygon", "coordinates": [ [ [ [ 2.901689, 42.832962 ], [ 2.901624, 42.832951 ], [ 2.901423, 42.832916 ], [ 2.896146, 42.832338 ], [ 2.894957, 42.831632 ], [ 2.88924619441475, 42.829592986745162 ], [ 2.888152431880586, 42.830645368211698 ], [ 2.8892, 42.830453 ], [ 2.894562, 42.834126 ], [ 2.894723, 42.834304 ], [ 2.894848, 42.834384 ], [ 2.899776, 42.834135 ], [ 2.900164, 42.834004 ], [ 2.901337, 42.833759 ], [ 2.908655, 42.838485 ], [ 2.901689, 42.832962 ] ] ], [ [ [ 2.916979, 42.852922 ], [ 2.909613, 42.84934 ], [ 2.909677, 42.840868 ], [ 2.909181, 42.839923 ], [ 2.909105568855533, 42.839739772790956 ], [ 2.9091, 42.839742 ], [ 2.908892, 42.839221 ], [ 2.908842681196543, 42.839067841184203 ], [ 2.908839, 42.839069 ], [ 2.908655, 42.838485 ], [ 2.905164, 42.845389 ], [ 2.90537, 42.845675 ], [ 2.906331, 42.846778 ], [ 2.906562, 42.847014 ], [ 2.910821, 42.851726 ], [ 2.911303, 42.852329 ], [ 2.912127, 42.852819 ], [ 2.91801, 42.855979 ], [ 2.920564, 42.858517 ], [ 2.926724, 42.859649 ], [ 2.929799, 42.857439 ], [ 2.93702826065707, 42.855355487044406 ], [ 2.929525, 42.855982 ], [ 2.925782, 42.856847 ], [ 2.925355, 42.856955 ], [ 2.922553, 42.856269 ], [ 2.916979, 42.852922 ] ] ], [ [ [ 2.955805534848703, 42.860299259508068 ], [ 2.953906, 42.859985 ], [ 2.953055, 42.859821 ], [ 2.95224, 42.859624 ], [ 2.951333, 42.859362 ], [ 2.947199, 42.858216 ], [ 2.943588, 42.856752 ], [ 2.940393, 42.855795 ], [ 2.937585, 42.855309 ], [ 2.937393849227298, 42.855324960852371 ], [ 2.943058, 42.858809 ], [ 2.9448, 42.860186 ], [ 2.945524, 42.860388 ], [ 2.946197, 42.860333 ], [ 2.953298, 42.860361 ], [ 2.95344, 42.860355 ], [ 2.955805534848703, 42.860299259508068 ] ] ], [ [ [ 2.96518527062049, 42.857066397352412 ], [ 2.967746, 42.858717 ], [ 2.968998, 42.859321 ], [ 2.970745, 42.860194 ], [ 2.972444, 42.861044 ], [ 2.974032, 42.86178 ], [ 2.975148, 42.862267 ], [ 2.976216, 42.862713 ], [ 2.979166, 42.863878 ], [ 2.979165638749958, 42.863878914183786 ], [ 2.979305, 42.863934 ], [ 2.980767, 42.864553 ], [ 2.980766239586531, 42.864554794142819 ], [ 2.980875, 42.864601 ], [ 2.981613, 42.864956 ], [ 2.9816120595217, 42.86495795757029 ], [ 2.981692419825692, 42.864996876026701 ], [ 2.982067548077115, 42.865115028006009 ], [ 2.978629, 42.86262 ], [ 2.976221, 42.86157 ], [ 2.973814, 42.860519 ], [ 2.971303, 42.859423 ], [ 2.968792, 42.858327 ], [ 2.967967, 42.857992 ], [ 2.96745, 42.857805 ], [ 2.965718, 42.857213 ], [ 2.965281, 42.857088 ], [ 2.96518527062049, 42.857066397352412 ] ] ], [ [ [ 2.943353, 42.844442 ], [ 2.942223710439515, 42.844152114078852 ], [ 2.942828, 42.844974 ], [ 2.944074, 42.845582 ], [ 2.944127, 42.845667 ], [ 2.9476, 42.850473 ], [ 2.952167, 42.854606 ], [ 2.956577913047047, 42.855585892266198 ], [ 2.950743, 42.85179 ], [ 2.947399, 42.845229 ], [ 2.946878, 42.844618 ], [ 2.946749, 42.844508 ], [ 2.945703, 42.84408 ], [ 2.944311, 42.844283 ], [ 2.943353, 42.844442 ] ] ], [ [ [ 3.046827, 42.863292 ], [ 3.045499788330428, 42.859939638893543 ], [ 3.04549998952019, 42.859997011507296 ], [ 3.046826, 42.86339 ], [ 3.046826222797927, 42.863401585492227 ], [ 3.046827, 42.863292 ] ] ], [ [ [ 3.04629, 42.893505 ], [ 3.046295146245059, 42.893448272727269 ], [ 3.046297, 42.893363 ], [ 3.045218180312451, 42.888525922126462 ], [ 3.044156882298008, 42.886258784883942 ], [ 3.04629, 42.893505 ] ] ], [ [ [ 3.039994866071067, 42.879911806840639 ], [ 3.043166, 42.884245 ], [ 3.039994866071071, 42.879911806840639 ], [ 3.039994866071067, 42.879911806840639 ] ] ], [ [ [ 3.026536, 42.835674 ], [ 3.026357026156747, 42.835711248005232 ], [ 3.031547382179999, 42.836462378479553 ], [ 3.033022, 42.829592 ], [ 3.026536, 42.835674 ] ] ], [ [ [ 3.023874572914458, 42.836600816666 ], [ 3.024999128410628, 42.836779518690783 ], [ 3.02589506315744, 42.835807391664517 ], [ 3.023999, 42.836202 ], [ 3.023874572914458, 42.836600816666 ] ] ] ] } },
{ "type": "Feature", "properties": { "codgeo": "66176", "value": 960, "isochrone_group": 16.0, "nb_agences": 1 }, "geometry": { "type": "MultiPolygon", "coordinates": [ [ [ [ 3.037953, 42.77225 ], [ 3.037111, 42.768719 ], [ 3.03811, 42.773243 ], [ 3.037953, 42.77225 ] ] ], [ [ [ 2.908655, 42.838485 ], [ 2.901337, 42.833759 ], [ 2.900164, 42.834004 ], [ 2.899776, 42.834135 ], [ 2.894848, 42.834384 ], [ 2.894723, 42.834304 ], [ 2.894562, 42.834126 ], [ 2.890681259729925, 42.831467671202539 ], [ 2.890588854280558, 42.83147437605075 ], [ 2.890013358691645, 42.833844967311109 ], [ 2.89484, 42.836052 ], [ 2.895102, 42.836309 ], [ 2.898458, 42.836037 ], [ 2.902892, 42.840928 ], [ 2.903147, 42.843069 ], [ 2.903224, 42.844512 ], [ 2.906331, 42.846778 ], [ 2.90537, 42.845675 ], [ 2.905164, 42.845389 ], [ 2.908655, 42.838485 ] ] ], [ [ [ 2.912127, 42.852819 ], [ 2.911303, 42.852329 ], [ 2.910821, 42.851726 ], [ 2.906562, 42.847014 ], [ 2.906331, 42.846778 ], [ 2.909326, 42.851684 ], [ 2.912127, 42.852819 ] ] ], [ [ [ 2.923889, 42.861897 ], [ 2.927194, 42.86047 ], [ 2.929799, 42.857439 ], [ 2.926724, 42.859649 ], [ 2.920564, 42.858517 ], [ 2.91801, 42.855979 ], [ 2.912127, 42.852819 ], [ 2.916781, 42.859539 ], [ 2.917278, 42.86132 ], [ 2.918801, 42.862386 ], [ 2.919031, 42.862511 ], [ 2.919705, 42.862787 ], [ 2.920156, 42.862837 ], [ 2.920414, 42.862835 ], [ 2.923889, 42.861897 ] ] ], [ [ [ 2.946197, 42.860333 ], [ 2.945524, 42.860388 ], [ 2.9448, 42.860186 ], [ 2.943058, 42.858809 ], [ 2.937311, 42.855274 ], [ 2.936840998706298, 42.855409456975607 ], [ 2.940025, 42.858751 ], [ 2.940243, 42.859634 ], [ 2.940337, 42.859877 ], [ 2.943427, 42.861685 ], [ 2.945574, 42.86123 ], [ 2.947172, 42.86075 ], [ 2.952714515073386, 42.860358699256714 ], [ 2.946197, 42.860333 ] ] ], [ [ [ 2.973814, 42.860519 ], [ 2.974098752837356, 42.860643335368522 ], [ 2.974099083969919, 42.860643433305874 ], [ 2.973814, 42.860519 ] ] ], [ [ [ 2.945703, 42.84408 ], [ 2.946749, 42.844508 ], [ 2.946878, 42.844618 ], [ 2.947399, 42.845229 ], [ 2.950743, 42.85179 ], [ 2.957857, 42.856418 ], [ 2.958947, 42.856498 ], [ 2.953196, 42.85287 ], [ 2.951282, 42.849822 ], [ 2.94957, 42.844347 ], [ 2.949005, 42.844296 ], [ 2.948302, 42.844192 ], [ 2.947782, 42.844264 ], [ 2.946768, 42.844276 ], [ 2.945703, 42.84408 ] ] ], [ [ [ 3.051811942414921, 42.883603819229329 ], [ 3.051749, 42.881089 ], [ 3.051724, 42.880597 ], [ 3.051653, 42.880245 ], [ 3.051539, 42.879811 ], [ 3.049628124175177, 42.87967170250996 ], [ 3.049868262569428, 42.880320897608534 ], [ 3.051689, 42.883005 ], [ 3.051694, 42.883011 ], [ 3.051811942414921, 42.883603819229329 ] ] ], [ [ [ 3.043748627738832, 42.885024340409856 ], [ 3.043876729774833, 42.885307104886941 ], [ 3.043876729774832, 42.885307104886927 ], [ 3.043748627738832, 42.885024340409856 ] ] ], [ [ [ 3.039991701519606, 42.879907482642096 ], [ 3.039805, 42.879697 ], [ 3.038500235296546, 42.878225336065938 ], [ 3.038504, 42.87823 ], [ 3.039865, 42.879765 ], [ 3.03999305615495, 42.879909333682377 ], [ 3.039991701519606, 42.879907482642096 ] ] ], [ [ [ 3.026845, 42.846222 ], [ 3.032284257727954, 42.850697003083546 ], [ 3.032391141474694, 42.850464318911158 ], [ 3.028349, 42.845868 ], [ 3.026715, 42.845673 ], [ 3.022945, 42.842235 ], [ 3.026845, 42.846222 ] ] ], [ [ [ 2.976325, 42.861615 ], [ 2.975633634802368, 42.86131323327097 ], [ 2.976469, 42.861678 ], [ 2.976842327484117, 42.861840926612203 ], [ 2.976325, 42.861615 ] ] ], [ [ [ 2.978885, 42.862733 ], [ 2.978854578972253, 42.862719714566794 ], [ 2.979097518518337, 42.862833666666596 ], [ 2.978885, 42.862733 ] ] ], [ [ [ 2.984052787061127, 42.864953505748879 ], [ 2.984035, 42.864946 ], [ 2.980631692197796, 42.863503602923991 ], [ 2.983862, 42.864883 ], [ 2.984049987022582, 42.864960156090959 ], [ 2.984052787061127, 42.864953505748879 ] ] ], [ [ [ 2.984945, 42.86533 ], [ 2.984914764516181, 42.865317241290334 ], [ 2.98528230180161, 42.865489603603486 ], [ 2.984945, 42.86533 ] ] ], [ [ [ 2.985672, 42.865674 ], [ 2.985634090040468, 42.865656061862346 ], [ 2.985775549012047, 42.865729142967858 ], [ 2.985672, 42.865674 ] ] ], [ [ [ 2.986087, 42.865895 ], [ 2.986054047994374, 42.86587745206446 ], [ 2.986129824773379, 42.865922190332313 ], [ 2.986087, 42.865895 ] ] ], [ [ [ 2.986528, 42.866175 ], [ 2.986426002066828, 42.866110239407504 ], [ 2.987066825509618, 42.866596918833011 ], [ 2.986528, 42.866175 ] ] ], [ [ [ 2.987141, 42.866655 ], [ 2.987096857117804, 42.866620434611001 ], [ 2.987223153001936, 42.86672644661072 ], [ 2.987141, 42.866655 ] ] ], [ [ [ 2.987916, 42.867329 ], [ 2.987839450613277, 42.867262426726903 ], [ 2.988038574690791, 42.867470208373 ], [ 2.987916, 42.867329 ] ] ] ] } },
{ "type": "Feature", "properties": { "codgeo": "66176", "value": 1020, "isochrone_group": 17.0, "nb_agences": 1 }, "geometry": { "type": "MultiPolygon", "coordinates": [ [ [ [ 3.038448112038394, 42.732778521119037 ], [ 3.038468093345663, 42.732851537917398 ], [ 3.038490501488444, 42.732581186240566 ], [ 3.038448112038394, 42.732778521119037 ] ] ], [ [ [ 2.906331, 42.846778 ], [ 2.903224, 42.844512 ], [ 2.903147, 42.843069 ], [ 2.902892, 42.840928 ], [ 2.898458, 42.836037 ], [ 2.897524387446079, 42.836112668240347 ], [ 2.897067, 42.840375 ], [ 2.896849, 42.843418 ], [ 2.897037, 42.844073 ], [ 2.897665, 42.844259 ], [ 2.898198, 42.844394 ], [ 2.899596, 42.844709 ], [ 2.900298, 42.844749 ], [ 2.9064504483967, 42.84697366405149 ], [ 2.906331, 42.846778 ] ] ], [ [ [ 2.927194, 42.86047 ], [ 2.923889, 42.861897 ], [ 2.920414, 42.862835 ], [ 2.920156, 42.862837 ], [ 2.919705, 42.862787 ], [ 2.919031, 42.862511 ], [ 2.918801, 42.862386 ], [ 2.917278, 42.86132 ], [ 2.916781, 42.859539 ], [ 2.912127, 42.852819 ], [ 2.914998, 42.860529 ], [ 2.915598, 42.861855 ], [ 2.922571, 42.865646 ], [ 2.927463, 42.864779 ], [ 2.927751, 42.864448 ], [ 2.928427, 42.863495 ], [ 2.929799, 42.857439 ], [ 2.927194, 42.86047 ] ] ], [ [ [ 2.943427, 42.861685 ], [ 2.942431189611398, 42.861102338128617 ], [ 2.943403, 42.863379 ], [ 2.943772, 42.863907 ], [ 2.946123, 42.864837 ], [ 2.94699, 42.865053 ], [ 2.953468695008514, 42.86030545426501 ], [ 2.947172, 42.86075 ], [ 2.945574, 42.86123 ], [ 2.943427, 42.861685 ] ] ], [ [ [ 3.03542710210961, 42.874796001687692 ], [ 3.034791, 42.874086 ], [ 3.034788522246312, 42.874083020441624 ], [ 3.034483044167878, 42.873742208262875 ], [ 3.034487, 42.873747 ], [ 3.03542710210961, 42.874796001687692 ] ] ], [ [ [ 2.992238334989926, 42.871381294425802 ], [ 2.992055, 42.871211 ], [ 2.991954738708069, 42.8711353984433 ], [ 2.992238334989926, 42.871381294425802 ] ] ], [ [ [ 2.992635443800979, 42.871775592353117 ], [ 2.992533, 42.871655 ], [ 2.992462325093973, 42.871589352179335 ], [ 2.992635443800979, 42.871775592353117 ] ] ], [ [ [ 2.993145215222831, 42.872438408897331 ], [ 2.992962, 42.87216 ], [ 2.992878159699983, 42.872061306872922 ], [ 2.993145215222831, 42.872438408897331 ] ] ], [ [ [ 2.993338395316498, 42.872754021035881 ], [ 2.993243, 42.872587 ], [ 2.993211265539944, 42.872538777172799 ], [ 2.993338395316498, 42.872754021035881 ] ] ], [ [ [ 2.993582542857135, 42.873198794285706 ], [ 2.993544, 42.873114 ], [ 2.993509510150344, 42.87305361411704 ], [ 2.993582542857135, 42.873198794285706 ] ] ], [ [ [ 2.993825340685897, 42.873798293189544 ], [ 2.993709, 42.873477 ], [ 2.993670402061863, 42.873392084536093 ], [ 2.993825340685897, 42.873798293189544 ] ] ], [ [ [ 2.99402466213377, 42.874418614176825 ], [ 2.993902, 42.87401 ], [ 2.9938838742487, 42.873959942873327 ], [ 2.99402466213377, 42.874418614176825 ] ] ], [ [ [ 2.994866949152542, 42.877321479418868 ], [ 2.994847, 42.877158 ], [ 2.994818198325139, 42.877062055373067 ], [ 2.994866949152542, 42.877321479418868 ] ] ], [ [ [ 2.994921857815937, 42.877929527274638 ], [ 2.994924, 42.877789 ], [ 2.994909727952167, 42.877672043348284 ], [ 2.994921857815937, 42.877929527274638 ] ] ] ] } },
{ "type": "Feature", "properties": { "codgeo": "66176", "value": 1080, "isochrone_group": 18.0, "nb_agences": 1 }, "geometry": { "type": "MultiPolygon", "coordinates": [ [ [ [ 3.04082, 42.725526 ], [ 3.04082, 42.725424233333335 ], [ 3.040785796882612, 42.72571039941549 ], [ 3.04082, 42.725526 ] ] ], [ [ [ 2.897665, 42.844259 ], [ 2.897037, 42.844073 ], [ 2.896849, 42.843418 ], [ 2.897067, 42.840375 ], [ 2.897226884202716, 42.838885060735294 ], [ 2.896364, 42.840314 ], [ 2.895673, 42.843847 ], [ 2.893314779835597, 42.844259986584909 ], [ 2.894265, 42.845002 ], [ 2.894645, 42.845632 ], [ 2.895306, 42.846184 ], [ 2.895427, 42.846255 ], [ 2.895996, 42.846559 ], [ 2.896396, 42.846778 ], [ 2.897616, 42.846954 ], [ 2.906562, 42.847014 ], [ 2.900298, 42.844749 ], [ 2.899596, 42.844709 ], [ 2.898198, 42.844394 ], [ 2.897665, 42.844259 ] ] ], [ [ [ 2.929799, 42.857439 ], [ 2.928427, 42.863495 ], [ 2.927751, 42.864448 ], [ 2.927463, 42.864779 ], [ 2.922571, 42.865646 ], [ 2.916718750143695, 42.862464316477073 ], [ 2.915889, 42.865457 ], [ 2.916388, 42.865929 ], [ 2.918752, 42.867749 ], [ 2.926347, 42.868012 ], [ 2.92971, 42.866727 ], [ 2.930153, 42.863811 ], [ 2.929385, 42.860294 ], [ 2.936569, 42.855124 ], [ 2.929799, 42.857439 ] ] ], [ [ [ 2.954656, 42.860241 ], [ 2.953795, 42.860105 ], [ 2.953753127166428, 42.860097024222149 ], [ 2.94699, 42.865053 ], [ 2.946123, 42.864837 ], [ 2.943772, 42.863907 ], [ 2.943403, 42.863379 ], [ 2.9423, 42.860795 ], [ 2.941899, 42.860162 ], [ 2.942985, 42.864201 ], [ 2.944412, 42.864986 ], [ 2.945458, 42.865669 ], [ 2.945799, 42.865784 ], [ 2.946591, 42.866031 ], [ 2.953254, 42.866174 ], [ 2.953474, 42.866171 ], [ 2.954998, 42.864725 ], [ 2.961472705262891, 42.861081071060809 ], [ 2.959803264470977, 42.860575409140928 ], [ 2.957073, 42.860776 ], [ 2.956831, 42.860766 ], [ 2.954656, 42.860241 ] ] ], [ [ [ 3.056162, 42.901595 ], [ 3.056317, 42.9019 ], [ 3.056288723902971, 42.901999925771833 ], [ 3.056670769526136, 42.902764501478764 ], [ 3.056725, 42.90269 ], [ 3.054662, 42.897267 ], [ 3.052519735525344, 42.891177208679807 ], [ 3.053189211262837, 42.894656666427686 ], [ 3.053771933388904, 42.896963153277156 ], [ 3.054481792333175, 42.898383771316531 ], [ 3.055553981979969, 42.900529510221659 ], [ 3.056162, 42.901595 ] ] ], [ [ [ 3.043182383270066, 42.897680291334908 ], [ 3.043886696480588, 42.897424579193633 ], [ 3.046314, 42.894604 ], [ 3.043182383270066, 42.897680291334908 ] ] ], [ [ [ 3.032332, 42.871318 ], [ 3.032172979241557, 42.871138257248354 ], [ 3.031506940212346, 42.87038574999432 ], [ 3.032511, 42.871521 ], [ 3.034058, 42.873268 ], [ 3.032332, 42.871318 ] ] ], [ [ [ 3.031205652431745, 42.870044878093069 ], [ 3.030964459993152, 42.869772255870558 ], [ 3.030965, 42.869773 ], [ 3.031206746524073, 42.870046333068608 ], [ 3.031205652431745, 42.870044878093069 ] ] ], [ [ [ 3.020470299999944, 42.840691817716511 ], [ 3.020470299999916, 42.84069181771649 ], [ 3.018471, 42.839519 ], [ 3.020470299999944, 42.840691817716511 ] ] ], [ [ [ 2.996932, 42.881497 ], [ 2.996801835902402, 42.88122612133359 ], [ 2.996724, 42.881758 ], [ 2.996800519750954, 42.882804128545985 ], [ 2.996932, 42.881497 ] ] ] ] } },
{ "type": "Feature", "properties": { "codgeo": "66176", "value": 1140, "isochrone_group": 19.0, "nb_agences": 1 }, "geometry": { "type": "MultiPolygon", "coordinates": [ [ [ [ 2.895996, 42.846559 ], [ 2.895514356535315, 42.846301672032936 ], [ 2.894356871364628, 42.847730811886549 ], [ 2.89497, 42.848368 ], [ 2.90188, 42.850008 ], [ 2.909326, 42.851684 ], [ 2.908536, 42.849734 ], [ 2.906562, 42.847014 ], [ 2.897616, 42.846954 ], [ 2.896396, 42.846778 ], [ 2.895996, 42.846559 ] ] ], [ [ [ 2.930153, 42.863811 ], [ 2.92971, 42.866727 ], [ 2.926347, 42.868012 ], [ 2.918752, 42.867749 ], [ 2.916388, 42.865929 ], [ 2.915889, 42.865457 ], [ 2.916751, 42.862348 ], [ 2.917291, 42.859166 ], [ 2.912127, 42.852819 ], [ 2.911307178426892, 42.852486798112999 ], [ 2.911537, 42.861166 ], [ 2.910944, 42.86335 ], [ 2.913115, 42.867143 ], [ 2.919715, 42.868997 ], [ 2.922893, 42.869065 ], [ 2.928247, 42.871872 ], [ 2.931367, 42.870077 ], [ 2.932596, 42.863296 ], [ 2.932811, 42.859702 ], [ 2.941129501474581, 42.859342185529158 ], [ 2.937793165572446, 42.85578769339979 ], [ 2.936532, 42.855642 ], [ 2.935964567402634, 42.855558982812951 ], [ 2.929385, 42.860294 ], [ 2.930153, 42.863811 ] ] ], [ [ [ 2.961472705262894, 42.861081071060809 ], [ 2.954998, 42.864725 ], [ 2.953474, 42.866171 ], [ 2.953254, 42.866174 ], [ 2.946591, 42.866031 ], [ 2.945799, 42.865784 ], [ 2.945458, 42.865669 ], [ 2.946779, 42.866882 ], [ 2.947291, 42.867267 ], [ 2.947796, 42.867485 ], [ 2.948957, 42.867545 ], [ 2.954642, 42.867271 ], [ 2.954746, 42.867267 ], [ 2.958205, 42.865668 ], [ 2.965465956938369, 42.862290599016902 ], [ 2.961472705262894, 42.861081071060809 ] ] ], [ [ [ 3.057490851220698, 42.904844110364991 ], [ 3.058056868885554, 42.905550831538108 ], [ 3.058148, 42.905476 ], [ 3.057932, 42.905049 ], [ 3.056684449040305, 42.90274570864954 ], [ 3.056670769526137, 42.902764501478764 ], [ 3.057489, 42.904402 ], [ 3.057657, 42.904723 ], [ 3.057490851220698, 42.904844110364991 ] ] ], [ [ [ 3.01588, 42.903077 ], [ 3.015872004480198, 42.903256110163987 ], [ 3.015917922508501, 42.902822828768876 ], [ 3.015837681061961, 42.902629149809634 ], [ 3.015838, 42.902727 ], [ 3.01588, 42.903077 ] ] ], [ [ [ 3.016189498395887, 42.908819275774206 ], [ 3.016646417001404, 42.906232994418581 ], [ 3.016349, 42.905208 ], [ 3.015862977784525, 42.903458320024299 ], [ 3.015728, 42.906482 ], [ 3.016189498395887, 42.908819275774206 ] ] ], [ [ [ 3.030948193082161, 42.894952985577625 ], [ 3.030505, 42.894589 ], [ 3.030308, 42.894598 ], [ 3.030226, 42.894608 ], [ 3.029016704706431, 42.894921119462104 ], [ 3.029289, 42.89489 ], [ 3.030046399568825, 42.895304080041086 ], [ 3.030948193082161, 42.894952985577625 ] ] ], [ [ [ 3.021528463008717, 42.896644733885445 ], [ 3.023506843118113, 42.897078032947888 ], [ 3.025155, 42.896411 ], [ 3.028854147726963, 42.89496320988804 ], [ 3.023645, 42.896312 ], [ 3.021528463008717, 42.896644733885445 ] ] ], [ [ [ 3.028921, 42.867218 ], [ 3.029453, 42.86801 ], [ 3.028914848125856, 42.867201007756407 ], [ 3.028921, 42.867218 ] ] ], [ [ [ 3.017803947755515, 42.837530679444328 ], [ 3.019046678107401, 42.835705791714084 ], [ 3.017971, 42.835058 ], [ 3.017488, 42.835222 ], [ 3.016826, 42.835549 ], [ 3.017803947755515, 42.837530679444328 ] ] ] ] } },
{ "type": "Feature", "properties": { "codgeo": "66176", "value": 1200, "isochrone_group": 20.0, "nb_agences": 1 }, "geometry": { "type": "MultiPolygon", "coordinates": [ [ [ [ 2.815798717997427, 42.816932736613133 ], [ 2.816086, 42.819126 ], [ 2.816122, 42.819676 ], [ 2.816125, 42.822845 ], [ 2.816244, 42.818095 ], [ 2.816254056989937, 42.817940647067509 ], [ 2.815798717997427, 42.816932736613133 ] ] ], [ [ [ 2.920936, 42.871768 ], [ 2.92908, 42.873318 ], [ 2.930824, 42.873156 ], [ 2.930887, 42.873148 ], [ 2.931219, 42.872766 ], [ 2.932198, 42.871519 ], [ 2.933973, 42.862891 ], [ 2.935193, 42.862276 ], [ 2.935599, 42.862134 ], [ 2.943988, 42.864563 ], [ 2.943601, 42.862818 ], [ 2.9423, 42.860795 ], [ 2.941899, 42.860162 ], [ 2.94189240448264, 42.860122380119115 ], [ 2.940366, 42.859432 ], [ 2.940329608094526, 42.859376784695151 ], [ 2.932811, 42.859702 ], [ 2.932596, 42.863296 ], [ 2.931367, 42.870077 ], [ 2.928247, 42.871872 ], [ 2.922893, 42.869065 ], [ 2.919715, 42.868997 ], [ 2.913115, 42.867143 ], [ 2.910944, 42.86335 ], [ 2.911537, 42.861166 ], [ 2.911307178426892, 42.852486798112999 ], [ 2.909326, 42.851684 ], [ 2.90188, 42.850008 ], [ 2.898879771570192, 42.849295934207696 ], [ 2.89613563843858, 42.850003561758584 ], [ 2.900502, 42.85184 ], [ 2.900951, 42.852102 ], [ 2.901547, 42.852395 ], [ 2.902253, 42.852631 ], [ 2.90259, 42.852676 ], [ 2.908726, 42.857591 ], [ 2.907593, 42.861008 ], [ 2.909599, 42.866936 ], [ 2.910016, 42.867828 ], [ 2.911034, 42.869812 ], [ 2.919701, 42.871405 ], [ 2.920427, 42.871623 ], [ 2.920936, 42.871768 ] ] ], [ [ [ 2.954642, 42.867271 ], [ 2.948957, 42.867545 ], [ 2.947796, 42.867485 ], [ 2.947291, 42.867267 ], [ 2.946779, 42.866882 ], [ 2.945458, 42.865669 ], [ 2.944412, 42.864986 ], [ 2.946764, 42.867983 ], [ 2.948665, 42.869295 ], [ 2.957326, 42.86836 ], [ 2.958235, 42.868504 ], [ 2.964989, 42.866702 ], [ 2.967194518396103, 42.866422476811444 ], [ 2.963973536923776, 42.862984791375709 ], [ 2.958205, 42.865668 ], [ 2.954746, 42.867267 ], [ 2.954642, 42.867271 ] ] ], [ [ [ 3.059076094990726, 42.908059655259478 ], [ 3.059159, 42.907877 ], [ 3.059037, 42.907572 ], [ 3.058779345705893, 42.907102701107156 ], [ 3.058501131509441, 42.907364992074562 ], [ 3.059076094990726, 42.908059655259478 ] ] ], [ [ [ 3.014782148937466, 42.918372715211873 ], [ 3.015104, 42.915158 ], [ 3.013839, 42.920985 ], [ 3.014782148937466, 42.918372715211873 ] ] ], [ [ [ 3.015642498839806, 42.913371426048812 ], [ 3.015652976436534, 42.911859400452101 ], [ 3.015308, 42.913813 ], [ 3.01563, 42.913387 ], [ 3.015642498839806, 42.913371426048812 ] ] ], [ [ [ 3.014111872422418, 42.898815358825971 ], [ 3.013949, 42.89641 ], [ 3.013952520927102, 42.896390353226792 ], [ 3.013599, 42.896741 ], [ 3.014082897775388, 42.898837278218615 ], [ 3.014111872422418, 42.898815358825971 ] ] ], [ [ [ 3.035872, 42.896034 ], [ 3.034506, 42.895145 ], [ 3.034347, 42.895029 ], [ 3.033293, 42.894596 ], [ 3.03288, 42.894489 ], [ 3.032646233006024, 42.894453407656933 ], [ 3.036628358192663, 42.896983470922713 ], [ 3.035872, 42.896034 ] ] ], [ [ [ 3.030948193082161, 42.894952985577625 ], [ 3.032348, 42.894408 ], [ 3.030948193082161, 42.894952985577625 ], [ 3.030948193082161, 42.894952985577625 ] ] ], [ [ [ 2.9982377188744, 42.892144581710674 ], [ 2.998252, 42.892184 ], [ 2.998268677632047, 42.892209802272667 ], [ 2.997293, 42.889537 ], [ 2.998238, 42.892144 ], [ 2.9982377188744, 42.892144581710674 ] ] ] ] } }
]
}
