{
"type": "FeatureCollection",
"name": "Credit_Agricole",
"crs": { "type": "name", "properties": { "name": "urn:ogc:def:crs:OGC:1.3:CRS84" } },
"features": [
{ "type": "Feature", "properties": { "codgeo": "66213", "value": 60, "isochrone_group": 1.0, "nb_agences": 1 }, "geometry": { "type": "Polygon", "coordinates": [ [ [ 2.829351, 42.668153 ], [ 2.829555, 42.666884 ], [ 2.831253, 42.66368 ], [ 2.832495, 42.662682 ], [ 2.832991, 42.662673 ], [ 2.833075, 42.662676 ], [ 2.833216, 42.662698 ], [ 2.83327, 42.662719 ], [ 2.834217, 42.665898 ], [ 2.834148, 42.666252 ], [ 2.833288, 42.672186 ], [ 2.833182, 42.672196 ], [ 2.830179, 42.671458 ], [ 2.830019, 42.671272 ], [ 2.829351, 42.668153 ] ] ] } },
{ "type": "Feature", "properties": { "codgeo": "66213", "value": 120, "isochrone_group": 2.0, "nb_agences": 1 }, "geometry": { "type": "Polygon", "coordinates": [ [ [ 2.82711, 42.67152 ], [ 2.827897, 42.673001 ], [ 2.829843, 42.673129 ], [ 2.831602, 42.673238 ], [ 2.831603, 42.673238 ], [ 2.836823, 42.674055 ], [ 2.837614, 42.674546 ], [ 2.837885, 42.674715 ], [ 2.838118, 42.674852 ], [ 2.838301, 42.674542 ], [ 2.836938, 42.672291 ], [ 2.836669, 42.66715 ], [ 2.836723, 42.666906 ], [ 2.835861, 42.663937 ], [ 2.834633, 42.659684 ], [ 2.834299, 42.659549 ], [ 2.82857, 42.660897 ], [ 2.828387, 42.660904 ], [ 2.828385, 42.660904 ], [ 2.827562, 42.660928 ], [ 2.826738, 42.660952 ], [ 2.826749, 42.661312 ], [ 2.826742, 42.667008 ], [ 2.82711, 42.67152 ] ], [ [ 2.829555, 42.666884 ], [ 2.831253, 42.66368 ], [ 2.832495, 42.662682 ], [ 2.832991, 42.662673 ], [ 2.833075, 42.662676 ], [ 2.833216, 42.662698 ], [ 2.83327, 42.662719 ], [ 2.834217, 42.665898 ], [ 2.834148, 42.666252 ], [ 2.833288, 42.672186 ], [ 2.833182, 42.672196 ], [ 2.830179, 42.671458 ], [ 2.830019, 42.671272 ], [ 2.829351, 42.668153 ], [ 2.829555, 42.666884 ] ] ] } },
{ "type": "Feature", "properties": { "codgeo": "66213", "value": 180, "isochrone_group": 3.0, "nb_agences": 1 }, "geometry": { "type": "Polygon", "coordinates": [ [ [ 2.816259, 42.66246 ], [ 2.816651, 42.662464 ], [ 2.817043, 42.662468 ], [ 2.818015, 42.662551 ], [ 2.823922, 42.667357 ], [ 2.823138, 42.672949 ], [ 2.823104, 42.673308 ], [ 2.824285, 42.675874 ], [ 2.824582, 42.676077 ], [ 2.830501, 42.67524 ], [ 2.836632, 42.67643 ], [ 2.839331, 42.676836 ], [ 2.843401, 42.676222 ], [ 2.843471, 42.675869 ], [ 2.841884, 42.674055 ], [ 2.841699, 42.673746 ], [ 2.839991, 42.666586 ], [ 2.843686, 42.664229 ], [ 2.843788, 42.663883 ], [ 2.843425, 42.663776 ], [ 2.843062, 42.663669 ], [ 2.842044, 42.663417 ], [ 2.837014, 42.660251 ], [ 2.835585, 42.657093 ], [ 2.835211, 42.656492 ], [ 2.833844, 42.655326 ], [ 2.833009, 42.654799 ], [ 2.832745, 42.655044 ], [ 2.830532, 42.659094 ], [ 2.825728, 42.660682 ], [ 2.823556, 42.661083 ], [ 2.823114, 42.661131 ], [ 2.822659, 42.661181 ], [ 2.822284, 42.66125 ], [ 2.820115, 42.661691 ], [ 2.816263, 42.6621 ], [ 2.816259, 42.66246 ] ], [ [ 2.826749, 42.661312 ], [ 2.826738, 42.660952 ], [ 2.827562, 42.660928 ], [ 2.828385, 42.660904 ], [ 2.828387, 42.660904 ], [ 2.82857, 42.660897 ], [ 2.834299, 42.659549 ], [ 2.834633, 42.659684 ], [ 2.835861, 42.663937 ], [ 2.836723, 42.666906 ], [ 2.836669, 42.66715 ], [ 2.836938, 42.672291 ], [ 2.838301, 42.674542 ], [ 2.838118, 42.674852 ], [ 2.837885, 42.674715 ], [ 2.837614, 42.674546 ], [ 2.836823, 42.674055 ], [ 2.831603, 42.673238 ], [ 2.831602, 42.673238 ], [ 2.829843, 42.673129 ], [ 2.827897, 42.673001 ], [ 2.82711, 42.67152 ], [ 2.826742, 42.667008 ], [ 2.826749, 42.661312 ] ] ] } },
{ "type": "Feature", "properties": { "codgeo": "66213", "value": 240, "isochrone_group": 4.0, "nb_agences": 1 }, "geometry": { "type": "MultiPolygon", "coordinates": [ [ [ [ 2.830246, 42.651183 ], [ 2.830193, 42.651219 ], [ 2.830144, 42.651399 ], [ 2.830197, 42.652374 ], [ 2.8286, 42.657557 ], [ 2.821132, 42.660297 ], [ 2.820918, 42.660386 ], [ 2.820705, 42.660475 ], [ 2.820555, 42.660545 ], [ 2.811843, 42.660889 ], [ 2.811134, 42.660522 ], [ 2.810394, 42.66016 ], [ 2.809634, 42.659874 ], [ 2.808876, 42.659588 ], [ 2.808874, 42.659588 ], [ 2.80812, 42.659296 ], [ 2.807364, 42.659003 ], [ 2.807234, 42.659339 ], [ 2.80799, 42.659632 ], [ 2.808746, 42.659924 ], [ 2.808748, 42.659925 ], [ 2.809597, 42.660265 ], [ 2.813079, 42.662317 ], [ 2.814724, 42.662993 ], [ 2.817796, 42.664016 ], [ 2.818152, 42.672086 ], [ 2.817975, 42.6724 ], [ 2.818119, 42.67385 ], [ 2.818244, 42.674188 ], [ 2.821461, 42.680407 ], [ 2.821801, 42.680526 ], [ 2.823843, 42.679691 ], [ 2.828599, 42.676693 ], [ 2.836186, 42.680759 ], [ 2.83652, 42.680894 ], [ 2.844816, 42.677791 ], [ 2.844993, 42.677851 ], [ 2.845175, 42.677872 ], [ 2.845271, 42.677866 ], [ 2.84933, 42.677858 ], [ 2.849453, 42.677519 ], [ 2.848191, 42.676452 ], [ 2.853845, 42.66961 ], [ 2.854921, 42.670145 ], [ 2.855081, 42.669822 ], [ 2.848199, 42.664937 ], [ 2.845019, 42.663897 ], [ 2.843062, 42.663669 ], [ 2.843425, 42.663776 ], [ 2.843788, 42.663883 ], [ 2.843686, 42.664229 ], [ 2.839991, 42.666586 ], [ 2.841699, 42.673746 ], [ 2.841884, 42.674055 ], [ 2.843471, 42.675869 ], [ 2.843401, 42.676222 ], [ 2.839331, 42.676836 ], [ 2.836632, 42.67643 ], [ 2.830501, 42.67524 ], [ 2.824582, 42.676077 ], [ 2.824285, 42.675874 ], [ 2.823104, 42.673308 ], [ 2.823138, 42.672949 ], [ 2.823922, 42.667357 ], [ 2.818015, 42.662551 ], [ 2.817043, 42.662468 ], [ 2.816651, 42.662464 ], [ 2.816259, 42.66246 ], [ 2.816263, 42.6621 ], [ 2.820115, 42.661691 ], [ 2.822284, 42.66125 ], [ 2.822659, 42.661181 ], [ 2.823114, 42.661131 ], [ 2.823556, 42.661083 ], [ 2.825728, 42.660682 ], [ 2.830532, 42.659094 ], [ 2.832478444385038, 42.655531822069854 ], [ 2.83046, 42.652643 ], [ 2.830293, 42.652324 ], [ 2.83034, 42.651569 ], [ 2.830455, 42.651308 ], [ 2.830532344646894, 42.651187623894955 ], [ 2.830377, 42.651125 ], [ 2.830246, 42.651183 ] ] ], [ [ [ 2.837933753227496, 42.657700572529855 ], [ 2.835820687723922, 42.657613855026 ], [ 2.837014, 42.660251 ], [ 2.842044, 42.663417 ], [ 2.837933753227496, 42.657700572529855 ] ] ] ] } },
{ "type": "Feature", "properties": { "codgeo": "66213", "value": 300, "isochrone_group": 5.0, "nb_agences": 1 }, "geometry": { "type": "MultiPolygon", "coordinates": [ [ [ [ 2.82418, 42.648158 ], [ 2.823758, 42.65 ], [ 2.819051, 42.656523 ], [ 2.815824, 42.656932 ], [ 2.809124, 42.657671 ], [ 2.805355, 42.656489 ], [ 2.801173, 42.654873 ], [ 2.799501, 42.654139 ], [ 2.797944, 42.653303 ], [ 2.796359, 42.655251 ], [ 2.796315, 42.655342 ], [ 2.796169, 42.656435 ], [ 2.796731, 42.657579 ], [ 2.796785, 42.657613 ], [ 2.796896261312986, 42.657631895644911 ], [ 2.797495, 42.656816 ], [ 2.797822, 42.656966 ], [ 2.797724821179531, 42.657772610980913 ], [ 2.797733, 42.657774 ], [ 2.800026, 42.658285 ], [ 2.804056, 42.659846 ], [ 2.810529, 42.665992 ], [ 2.812146, 42.672734 ], [ 2.813247, 42.674602 ], [ 2.813589, 42.674794 ], [ 2.814069, 42.675003 ], [ 2.817097992163509, 42.682723041889055 ], [ 2.81723477065806, 42.682913248958315 ], [ 2.819161, 42.683226 ], [ 2.819439, 42.683455 ], [ 2.820540559370135, 42.684786926115564 ], [ 2.820782, 42.684372 ], [ 2.821675, 42.683185 ], [ 2.822463, 42.681518 ], [ 2.830861, 42.680665 ], [ 2.833035, 42.684573 ], [ 2.834116, 42.684549 ], [ 2.834561, 42.684506 ], [ 2.835162, 42.684359 ], [ 2.835774, 42.684155 ], [ 2.836625, 42.683659 ], [ 2.837749, 42.682115 ], [ 2.844078720868033, 42.67806676870137 ], [ 2.83652, 42.680894 ], [ 2.836186, 42.680759 ], [ 2.828599, 42.676693 ], [ 2.823843, 42.679691 ], [ 2.821801, 42.680526 ], [ 2.821461, 42.680407 ], [ 2.818244, 42.674188 ], [ 2.818119, 42.67385 ], [ 2.817975, 42.6724 ], [ 2.818152, 42.672086 ], [ 2.817796, 42.664016 ], [ 2.814724, 42.662993 ], [ 2.813079, 42.662317 ], [ 2.809597, 42.660265 ], [ 2.808748, 42.659925 ], [ 2.808746, 42.659924 ], [ 2.80799, 42.659632 ], [ 2.807234, 42.659339 ], [ 2.807364, 42.659003 ], [ 2.80812, 42.659296 ], [ 2.808874, 42.659588 ], [ 2.808876, 42.659588 ], [ 2.809634, 42.659874 ], [ 2.810394, 42.66016 ], [ 2.811134, 42.660522 ], [ 2.811843, 42.660889 ], [ 2.820555, 42.660545 ], [ 2.820705, 42.660475 ], [ 2.820918, 42.660386 ], [ 2.821132, 42.660297 ], [ 2.8286, 42.657557 ], [ 2.829286900704346, 42.655327691076636 ], [ 2.82792, 42.653843 ], [ 2.827386, 42.653323 ], [ 2.82441, 42.648515 ], [ 2.824538, 42.648179 ], [ 2.826893, 42.647798 ], [ 2.82854557672889, 42.646996923893262 ], [ 2.828233, 42.646874 ], [ 2.825044, 42.646638 ], [ 2.82418, 42.648158 ] ] ], [ [ [ 2.849333, 42.679932 ], [ 2.853937, 42.68108 ], [ 2.854244, 42.681174 ], [ 2.854801, 42.680912 ], [ 2.856013, 42.680283 ], [ 2.863704, 42.675915 ], [ 2.863934, 42.675925 ], [ 2.864292, 42.675842 ], [ 2.864381, 42.672379 ], [ 2.860768, 42.66555 ], [ 2.858855, 42.665426 ], [ 2.857171, 42.665404 ], [ 2.850765, 42.664064 ], [ 2.845727, 42.661231 ], [ 2.844739372215412, 42.660013995873655 ], [ 2.844132, 42.6604 ], [ 2.843814, 42.660568 ], [ 2.840341239557489, 42.661048843753569 ], [ 2.842044, 42.663417 ], [ 2.843062, 42.663669 ], [ 2.845019, 42.663897 ], [ 2.848199, 42.664937 ], [ 2.855081, 42.669822 ], [ 2.854921, 42.670145 ], [ 2.853845, 42.66961 ], [ 2.848191, 42.676452 ], [ 2.849453, 42.677519 ], [ 2.84933, 42.677858 ], [ 2.845534630300268, 42.677865480403447 ], [ 2.849333, 42.679932 ] ] ], [ [ [ 2.839880393350465, 42.653664955500197 ], [ 2.839580342679584, 42.653208986779013 ], [ 2.839499, 42.653481 ], [ 2.839880393350465, 42.653664955500197 ] ] ] ] } },
{ "type": "Feature", "properties": { "codgeo": "66213", "value": 360, "isochrone_group": 6.0, "nb_agences": 1 }, "geometry": { "type": "MultiPolygon", "coordinates": [ [ [ [ 2.814792, 42.656205 ], [ 2.80777, 42.655 ], [ 2.799786, 42.653739 ], [ 2.798911298549711, 42.65336542538428 ], [ 2.79823333463806, 42.653399504531087 ], [ 2.800164564050817, 42.654430301443348 ], [ 2.801173, 42.654873 ], [ 2.805355, 42.656489 ], [ 2.809124, 42.657671 ], [ 2.815824, 42.656932 ], [ 2.819051, 42.656523 ], [ 2.822005128194313, 42.652429144420751 ], [ 2.819927, 42.649765 ], [ 2.819892, 42.649407 ], [ 2.820005, 42.646741 ], [ 2.820213029380465, 42.646336931821423 ], [ 2.819761955082397, 42.646204412195182 ], [ 2.819055, 42.648066 ], [ 2.816832, 42.655334 ], [ 2.814792, 42.656205 ] ] ], [ [ [ 2.800164, 42.658477 ], [ 2.799250482498735, 42.662010201917653 ], [ 2.805854, 42.664541 ], [ 2.807695349131399, 42.67087637309438 ], [ 2.808675, 42.671381 ], [ 2.810366, 42.671913 ], [ 2.810172142328219, 42.675996447259948 ], [ 2.81061, 42.676138 ], [ 2.811012361144351, 42.676815046410262 ], [ 2.812308, 42.676426 ], [ 2.815121914192003, 42.677686579629487 ], [ 2.814069, 42.675003 ], [ 2.813589, 42.674794 ], [ 2.813247, 42.674602 ], [ 2.812146, 42.672734 ], [ 2.810529, 42.665992 ], [ 2.804056, 42.659846 ], [ 2.800209721836175, 42.658356163718672 ], [ 2.800164, 42.658477 ] ] ], [ [ [ 2.829620333379877, 42.686141338116634 ], [ 2.830906, 42.686133 ], [ 2.831585, 42.686275 ], [ 2.832154, 42.686255 ], [ 2.83393, 42.686262 ], [ 2.836625, 42.683659 ], [ 2.835774, 42.684155 ], [ 2.835162, 42.684359 ], [ 2.834561, 42.684506 ], [ 2.834116, 42.684549 ], [ 2.833035, 42.684573 ], [ 2.830861, 42.680665 ], [ 2.824106825371858, 42.681351033693495 ], [ 2.829620333379877, 42.686141338116634 ] ] ], [ [ [ 2.849743, 42.681815 ], [ 2.850219, 42.682536 ], [ 2.850598, 42.682813 ], [ 2.85073, 42.682872 ], [ 2.854694686456855, 42.683367812412413 ], [ 2.858549, 42.680577 ], [ 2.85791726234906, 42.67920149981267 ], [ 2.856013, 42.680283 ], [ 2.854801, 42.680912 ], [ 2.854244, 42.681174 ], [ 2.853937, 42.68108 ], [ 2.849333, 42.679932 ], [ 2.844918, 42.67753 ], [ 2.849743, 42.681815 ] ] ], [ [ [ 2.864847, 42.67253 ], [ 2.865378, 42.672879 ], [ 2.868269257581327, 42.674633674053908 ], [ 2.869544245974039, 42.675293389826024 ], [ 2.869673335457421, 42.67530426715448 ], [ 2.865046, 42.668035 ], [ 2.864212, 42.661799 ], [ 2.864018758050808, 42.661284973063154 ], [ 2.863397, 42.660997 ], [ 2.862995, 42.660814 ], [ 2.86333071768913, 42.659454773766299 ], [ 2.863059, 42.658732 ], [ 2.859462, 42.658608 ], [ 2.853804, 42.661916 ], [ 2.848182441847588, 42.659198746778316 ], [ 2.846453, 42.660177 ], [ 2.846096416861629, 42.66143873282433 ], [ 2.850765, 42.664064 ], [ 2.857171, 42.665404 ], [ 2.858855, 42.665426 ], [ 2.860768, 42.66555 ], [ 2.86438017714648, 42.672377444708928 ], [ 2.864847, 42.67253 ] ] ], [ [ [ 2.79477, 42.653459 ], [ 2.794672, 42.653245 ], [ 2.794984450289934, 42.651623015406656 ], [ 2.7931, 42.650555 ], [ 2.79208, 42.649979 ], [ 2.791559, 42.649714 ], [ 2.789925, 42.652921 ], [ 2.793904688979118, 42.658843449107493 ], [ 2.794397, 42.655431 ], [ 2.795475349320054, 42.653538139914076 ], [ 2.794941, 42.653565 ], [ 2.79477, 42.653459 ] ] ], [ [ [ 2.825894699641811, 42.642530454254889 ], [ 2.825627211837968, 42.643830534642255 ], [ 2.826766177855752, 42.643535979038475 ], [ 2.826243, 42.643255 ], [ 2.825894699641811, 42.642530454254889 ] ] ] ] } },
{ "type": "Feature", "properties": { "codgeo": "66213", "value": 420, "isochrone_group": 7.0, "nb_agences": 1 }, "geometry": { "type": "MultiPolygon", "coordinates": [ [ [ [ 2.782597609165229, 42.650166306965758 ], [ 2.782437863623044, 42.650087408252872 ], [ 2.782548, 42.650146 ], [ 2.782597609165229, 42.650166306965758 ] ] ], [ [ [ 2.786380506566874, 42.651784707102038 ], [ 2.786232, 42.651628 ], [ 2.787360813496277, 42.648213588911268 ], [ 2.787204, 42.648162 ], [ 2.78665945246602, 42.647941344240294 ], [ 2.785302237539318, 42.651273416821745 ], [ 2.785846, 42.651496 ], [ 2.786380506566874, 42.651784707102038 ] ] ], [ [ [ 2.805549, 42.670243 ], [ 2.807755309511509, 42.671082673666284 ], [ 2.805854, 42.664541 ], [ 2.802877655525891, 42.663400315980304 ], [ 2.804501108268284, 42.667558811541141 ], [ 2.804612, 42.66773 ], [ 2.804681891688505, 42.668021890650763 ], [ 2.805549, 42.670243 ] ] ], [ [ [ 2.835631384321261, 42.686545178144456 ], [ 2.835664, 42.686521 ], [ 2.836182, 42.685933 ], [ 2.836488, 42.684723 ], [ 2.837749, 42.682115 ], [ 2.836625, 42.683659 ], [ 2.834794052922912, 42.685427443503393 ], [ 2.835631384321261, 42.686545178144456 ] ] ], [ [ [ 2.845541, 42.680523 ], [ 2.847583576260867, 42.685851606721918 ], [ 2.847741, 42.685751 ], [ 2.849907, 42.682235 ], [ 2.849943803513135, 42.682119158262552 ], [ 2.849743, 42.681815 ], [ 2.844918, 42.67753 ], [ 2.837749, 42.682115 ], [ 2.845541, 42.680523 ] ] ], [ [ [ 2.814775, 42.650743 ], [ 2.814727, 42.650386 ], [ 2.814770655775467, 42.649945248540917 ], [ 2.812804, 42.651524 ], [ 2.809581, 42.653058 ], [ 2.80918, 42.653208 ], [ 2.808775, 42.653232 ], [ 2.806821259882022, 42.654850155149219 ], [ 2.80777, 42.655 ], [ 2.814792, 42.656205 ], [ 2.816832, 42.655334 ], [ 2.817321353377019, 42.653734080816839 ], [ 2.814775, 42.650743 ] ] ], [ [ [ 2.791568282766643, 42.658499314307015 ], [ 2.791509330367864, 42.660831355403388 ], [ 2.792187333303522, 42.660249029768806 ], [ 2.791568282766643, 42.658499314307015 ] ] ], [ [ [ 2.864637399204729, 42.664979802686673 ], [ 2.865046, 42.668035 ], [ 2.869589244574599, 42.675172165408647 ], [ 2.871725349228029, 42.674337711557236 ], [ 2.869436, 42.669657 ], [ 2.868064, 42.66572 ], [ 2.868034309739399, 42.665640166188169 ], [ 2.867314, 42.66607 ], [ 2.866248, 42.666135 ], [ 2.866104, 42.666093 ], [ 2.864637399204729, 42.664979802686673 ] ] ], [ [ [ 2.852822, 42.657991 ], [ 2.851022639309237, 42.658591659586214 ], [ 2.850297543925524, 42.660221108867169 ], [ 2.853804, 42.661916 ], [ 2.857049777467775, 42.660018327348283 ], [ 2.852822, 42.657991 ] ] ] ] } },
{ "type": "Feature", "properties": { "codgeo": "66213", "value": 480, "isochrone_group": 8.0, "nb_agences": 1 }, "geometry": { "type": "MultiPolygon", "coordinates": [ [ [ [ 2.836943525184561, 42.684959582380898 ], [ 2.839047, 42.68537 ], [ 2.845343846127518, 42.680563280924666 ], [ 2.837749, 42.682115 ], [ 2.836618426152152, 42.684453252652801 ], [ 2.836943525184561, 42.684959582380898 ] ] ], [ [ [ 2.858204234186193, 42.621910828845778 ], [ 2.857566679655568, 42.622208979921908 ], [ 2.858023, 42.622262 ], [ 2.858204234186193, 42.621910828845778 ] ] ] ] } },
{ "type": "Feature", "properties": { "codgeo": "66213", "value": 540, "isochrone_group": 9.0, "nb_agences": 1 }, "geometry": { "type": "MultiPolygon", "coordinates": [ [ [ [ 2.853464, 42.614325 ], [ 2.853315, 42.613704 ], [ 2.853167, 42.61309 ], [ 2.853048, 42.612475 ], [ 2.852931, 42.611869 ], [ 2.852807, 42.611074 ], [ 2.852789035225674, 42.61095876254516 ], [ 2.85117434927705, 42.612099981921517 ], [ 2.851176, 42.612111 ], [ 2.851438, 42.613419 ], [ 2.851739, 42.61469 ], [ 2.852224, 42.61641 ], [ 2.852835, 42.618224 ], [ 2.853339, 42.619524 ], [ 2.853899, 42.620839 ], [ 2.854329285052893, 42.621757968493462 ], [ 2.855792266732748, 42.620719607350402 ], [ 2.855678, 42.620475 ], [ 2.855276, 42.619574 ], [ 2.854996, 42.618941 ], [ 2.854754, 42.618313 ], [ 2.854516, 42.617693 ], [ 2.854221, 42.616823 ], [ 2.853929, 42.61596 ], [ 2.853695, 42.615139 ], [ 2.853464, 42.614325 ] ] ], [ [ [ 2.855605, 42.619428 ], [ 2.856004, 42.620323 ], [ 2.856090418022474, 42.620507992455757 ], [ 2.857310828763027, 42.619641797677616 ], [ 2.85721, 42.619427 ], [ 2.856694, 42.61822 ], [ 2.856246, 42.61707 ], [ 2.855688, 42.615429 ], [ 2.854695810948123, 42.609611101470506 ], [ 2.853137155984425, 42.610712719557348 ], [ 2.853163, 42.611019 ], [ 2.854562, 42.616708 ], [ 2.855605, 42.619428 ] ] ] ] } },
{ "type": "Feature", "properties": { "codgeo": "66213", "value": 660, "isochrone_group": 11.0, "nb_agences": 1 }, "geometry": { "type": "Polygon", "coordinates": [ [ [ 2.84281143576086, 42.578355804499978 ], [ 2.842928, 42.578892 ], [ 2.843311375096798, 42.580312967398591 ], [ 2.843356957646119, 42.579759254661134 ], [ 2.843152, 42.579009 ], [ 2.84281143576086, 42.578355804499978 ] ] ] } },
{ "type": "Feature", "properties": { "codgeo": "66213", "value": 720, "isochrone_group": 12.0, "nb_agences": 1 }, "geometry": { "type": "Polygon", "coordinates": [ [ [ 2.842882233596478, 42.584035154595639 ], [ 2.843017, 42.58395 ], [ 2.843540560664469, 42.583602593641501 ], [ 2.843084, 42.583075 ], [ 2.843311375096798, 42.580312967398591 ], [ 2.842928, 42.578892 ], [ 2.842693, 42.577811 ], [ 2.842376, 42.576093 ], [ 2.84235623479309, 42.575937760770707 ], [ 2.841957439814677, 42.57554178622955 ], [ 2.841698, 42.58189 ], [ 2.84179251834794, 42.583694709705966 ], [ 2.842882233596478, 42.584035154595639 ] ] ] } }
]
}
